{"type": "FeatureCollection", "features": [{"id": "976367", "type": "Feature", "properties": {"id": "976367", "CVEGEO": "1408400770110007", "POBTOT": 0.0, "score_nse": 0.0, "NSE": null, "VIVTOT": 0.0, "GRAPROES": 0.0, "_ent": "14", "_mun": "084", "_loc": "0077"}, "geometry": {"type": "Polygon", "coordinates": [[[-104.97121, 20.31628], [-104.97171, 20.31683], [-104.97172, 20.31688], [-104.97125, 20.31662], [-104.97121, 20.31628]]]}}, {"id": "976368", "type": "Feature", "properties": {"id": "976368", "CVEGEO": "1408400770110006", "POBTOT": 0.0, "score_nse": 0.0, "NSE": null, "VIVTOT": 0.0, "GRAPROES": 0.0, "_ent": "14", "_mun": "084", "_loc": "0077"}, "geometry": {"type": "Polygon", "coordinates": [[[-104.97208, 20.31521], [-104.97151, 20.31441], [-104.97167, 20.31361], [-104.97237, 20.31322], [-104.97335, 20.31364], [-104.97342, 20.31385], [-104.97287, 20.31518], [-104.97208, 20.31521]]]}}, {"id": "976369", "type": "Feature", "properties": {"id": "976369", "CVEGEO": "1408400770110005", "POBTOT": 0.0, "score_nse": 0.0, "NSE": null, "VIVTOT": 0.0, "GRAPROES": 0.0, "_ent": "14", "_mun": "084", "_loc": "0077"}, "geometry": {"type": "Polygon", "coordinates": [[[-104.97117, 20.31662], [-104.97247, 20.31766], [-104.97256, 20.31808], [-104.97165, 20.3182], [-104.97059, 20.31861], [-104.9699, 20.31769], [-104.9688, 20.31712], [-104.97019, 20.31622], [-104.97073, 20.31637], [-104.97112, 20.31623], [-104.97117, 20.31662]]]}}, {"id": "976370", "type": "Feature", "properties": {"id": "976370", "CVEGEO": "1408400770110004", "POBTOT": 0.0, "score_nse": 0.0, "NSE": null, "VIVTOT": 0.0, "GRAPROES": 0.0, "_ent": "14", "_mun": "084", "_loc": "0077"}, "geometry": {"type": "Polygon", "coordinates": [[[-104.96655, 20.31875], [-104.9651, 20.31876], [-104.96516, 20.3184], [-104.96557, 20.31785], [-104.96752, 20.31773], [-104.96823, 20.31729], [-104.96823, 20.31833], [-104.96655, 20.31875]]]}}, {"id": "976455", "type": "Feature", "properties": {"id": "976455", "CVEGEO": "1408400770110003", "POBTOT": 0.0, "score_nse": 0.0, "NSE": null, "VIVTOT": 0.0, "GRAPROES": 0.0, "_ent": "14", "_mun": "084", "_loc": "0077"}, "geometry": {"type": "Polygon", "coordinates": [[[-104.96783, 20.3168], [-104.96891, 20.31537], [-104.96916, 20.31536], [-104.96964, 20.31555], [-104.97022, 20.31617], [-104.96825, 20.31721], [-104.96789, 20.31708], [-104.96783, 20.3168]]]}}, {"id": "976456", "type": "Feature", "properties": {"id": "976456", "CVEGEO": "1408400770110002", "POBTOT": 0.0, "score_nse": 0.0, "NSE": null, "VIVTOT": 0.0, "GRAPROES": 0.0, "_ent": "14", "_mun": "084", "_loc": "0077"}, "geometry": {"type": "Polygon", "coordinates": [[[-104.97117, 20.31512], [-104.97183, 20.31495], [-104.97191, 20.31541], [-104.97269, 20.31555], [-104.97175, 20.31681], [-104.97126, 20.31622], [-104.97103, 20.31544], [-104.97117, 20.31512]]]}}, {"id": "976457", "type": "Feature", "properties": {"id": "976457", "CVEGEO": "1408400770110001", "POBTOT": 0.0, "score_nse": 0.0, "NSE": null, "VIVTOT": 0.0, "GRAPROES": 0.0, "_ent": "14", "_mun": "084", "_loc": "0077"}, "geometry": {"type": "Polygon", "coordinates": [[[-104.97256, 20.31593], [-104.97347, 20.31409], [-104.97485, 20.31331], [-104.97682, 20.31534], [-104.97664, 20.31562], [-104.974, 20.3171], [-104.97349, 20.31759], [-104.97242, 20.31753], [-104.97178, 20.31691], [-104.97256, 20.31593]]]}}, {"id": "976613", "type": "Feature", "properties": {"id": "976613", "CVEGEO": "1408400770110008", "POBTOT": 0.0, "score_nse": 0.0, "NSE": null, "VIVTOT": 0.0, "GRAPROES": 0.0, "_ent": "14", "_mun": "084", "_loc": "0077"}, "geometry": {"type": "Polygon", "coordinates": [[[-104.96968, 20.31551], [-104.97099, 20.31544], [-104.97124, 20.31616], [-104.97079, 20.31631], [-104.97027, 20.31619], [-104.96968, 20.31551]]]}}]}