{"type": "FeatureCollection", "features": [{"id": "296764", "type": "Feature", "properties": {"id": "296764", "CVEGEO": "0707500130060005", "POBTOT": 0.0, "score_nse": 0.0, "NSE": null, "VIVTOT": 0.0, "GRAPROES": 0.0, "_ent": "07", "_mun": "075", "_loc": "0013"}, "geometry": {"type": "Polygon", "coordinates": [[[-92.4232, 16.34755], [-92.42297, 16.34765], [-92.4228, 16.34737], [-92.42304, 16.34727], [-92.4232, 16.34755]]]}}, {"id": "296765", "type": "Feature", "properties": {"id": "296765", "CVEGEO": "0707500130060004", "POBTOT": 0.0, "score_nse": 0.0, "NSE": null, "VIVTOT": 0.0, "GRAPROES": 0.0, "_ent": "07", "_mun": "075", "_loc": "0013"}, "geometry": {"type": "Polygon", "coordinates": [[[-92.42253, 16.34833], [-92.42237, 16.34797], [-92.42296, 16.34772], [-92.42316, 16.34805], [-92.42253, 16.34833]]]}}, {"id": "296766", "type": "Feature", "properties": {"id": "296766", "CVEGEO": "0707500130060002", "POBTOT": 0.0, "score_nse": 0.0, "NSE": null, "VIVTOT": 0.0, "GRAPROES": 0.0, "_ent": "07", "_mun": "075", "_loc": "0013"}, "geometry": {"type": "Polygon", "coordinates": [[[-92.42126, 16.34308], [-92.42093, 16.34335], [-92.42049, 16.34325], [-92.42095, 16.34342], [-92.42065, 16.34371], [-92.42031, 16.34323], [-92.41987, 16.34315], [-92.41969, 16.34289], [-92.42093, 16.34225], [-92.42126, 16.34308]]]}}, {"id": "296783", "type": "Feature", "properties": {"id": "296783", "CVEGEO": "0707500130060003", "POBTOT": 0.0, "score_nse": 0.0, "NSE": null, "VIVTOT": 0.0, "GRAPROES": 0.0, "_ent": "07", "_mun": "075", "_loc": "0013"}, "geometry": {"type": "Polygon", "coordinates": [[[-92.42319, 16.34803], [-92.423, 16.34771], [-92.42323, 16.34761], [-92.42342, 16.34793], [-92.42319, 16.34803]]]}}, {"id": "296994", "type": "Feature", "properties": {"id": "296994", "CVEGEO": "0707500130060012", "POBTOT": 0.0, "score_nse": 0.0, "NSE": null, "VIVTOT": 0.0, "GRAPROES": 0.0, "_ent": "07", "_mun": "075", "_loc": "0013"}, "geometry": {"type": "Polygon", "coordinates": [[[-92.42171, 16.34599], [-92.42128, 16.34528], [-92.42218, 16.34472], [-92.42276, 16.34555], [-92.42171, 16.34599]]]}}, {"id": "296995", "type": "Feature", "properties": {"id": "296995", "CVEGEO": "0707500130060011", "POBTOT": 0.0, "score_nse": 0.0, "NSE": null, "VIVTOT": 0.0, "GRAPROES": 0.0, "_ent": "07", "_mun": "075", "_loc": "0013"}, "geometry": {"type": "Polygon", "coordinates": [[[-92.42203, 16.34695], [-92.42172, 16.34603], [-92.4222, 16.34592], [-92.42264, 16.34648], [-92.42203, 16.34695]]]}}, {"id": "296996", "type": "Feature", "properties": {"id": "296996", "CVEGEO": "0707500130060010", "POBTOT": 0.0, "score_nse": 0.0, "NSE": null, "VIVTOT": 0.0, "GRAPROES": 0.0, "_ent": "07", "_mun": "075", "_loc": "0013"}, "geometry": {"type": "Polygon", "coordinates": [[[-92.42336, 16.3484], [-92.42288, 16.34862], [-92.42255, 16.34838], [-92.42318, 16.34809], [-92.42336, 16.3484]]]}}, {"id": "296997", "type": "Feature", "properties": {"id": "296997", "CVEGEO": "0707500130060009", "POBTOT": 0.0, "score_nse": 0.0, "NSE": null, "VIVTOT": 0.0, "GRAPROES": 0.0, "_ent": "07", "_mun": "075", "_loc": "0013"}, "geometry": {"type": "Polygon", "coordinates": [[[-92.4234, 16.34839], [-92.42322, 16.34808], [-92.42344, 16.34798], [-92.42362, 16.34829], [-92.4234, 16.34839]]]}}, {"id": "296998", "type": "Feature", "properties": {"id": "296998", "CVEGEO": "0707500130060008", "POBTOT": 0.0, "score_nse": 0.0, "NSE": null, "VIVTOT": 0.0, "GRAPROES": 0.0, "_ent": "07", "_mun": "075", "_loc": "0013"}, "geometry": {"type": "Polygon", "coordinates": [[[-92.42367, 16.34827], [-92.42349, 16.34796], [-92.42376, 16.34783], [-92.42393, 16.34816], [-92.42367, 16.34827]]]}}, {"id": "296999", "type": "Feature", "properties": {"id": "296999", "CVEGEO": "0707500130060007", "POBTOT": 0.0, "score_nse": 0.0, "NSE": null, "VIVTOT": 0.0, "GRAPROES": 0.0, "_ent": "07", "_mun": "075", "_loc": "0013"}, "geometry": {"type": "Polygon", "coordinates": [[[-92.42346, 16.34791], [-92.42328, 16.34759], [-92.42357, 16.34747], [-92.42374, 16.34778], [-92.42346, 16.34791]]]}}, {"id": "297000", "type": "Feature", "properties": {"id": "297000", "CVEGEO": "0707500130060006", "POBTOT": 0.0, "score_nse": 0.0, "NSE": null, "VIVTOT": 0.0, "GRAPROES": 0.0, "_ent": "07", "_mun": "075", "_loc": "0013"}, "geometry": {"type": "Polygon", "coordinates": [[[-92.42324, 16.34753], [-92.42308, 16.34725], [-92.42339, 16.34712], [-92.42354, 16.34741], [-92.42324, 16.34753]]]}}, {"id": "297157", "type": "Feature", "properties": {"id": "297157", "CVEGEO": "0707500130060016", "POBTOT": 0.0, "score_nse": 0.0, "NSE": null, "VIVTOT": 0.0, "GRAPROES": 0.0, "_ent": "07", "_mun": "075", "_loc": "0013"}, "geometry": {"type": "Polygon", "coordinates": [[[-92.42398, 16.34814], [-92.42381, 16.34782], [-92.42416, 16.34766], [-92.42428, 16.348], [-92.42398, 16.34814]]]}}, {"id": "297158", "type": "Feature", "properties": {"id": "297158", "CVEGEO": "0707500130060015", "POBTOT": 0.0, "score_nse": 0.0, "NSE": null, "VIVTOT": 0.0, "GRAPROES": 0.0, "_ent": "07", "_mun": "075", "_loc": "0013"}, "geometry": {"type": "Polygon", "coordinates": [[[-92.42378, 16.34777], [-92.42362, 16.34745], [-92.424, 16.34729], [-92.42414, 16.34761], [-92.42378, 16.34777]]]}}, {"id": "297159", "type": "Feature", "properties": {"id": "297159", "CVEGEO": "0707500130060014", "POBTOT": 0.0, "score_nse": 0.0, "NSE": null, "VIVTOT": 0.0, "GRAPROES": 0.0, "_ent": "07", "_mun": "075", "_loc": "0013"}, "geometry": {"type": "Polygon", "coordinates": [[[-92.42343, 16.3471], [-92.42395, 16.34688], [-92.42396, 16.34722], [-92.42358, 16.34739], [-92.42343, 16.3471]]]}}, {"id": "297201", "type": "Feature", "properties": {"id": "297201", "CVEGEO": "0707500130060001", "POBTOT": 0.0, "score_nse": 0.0, "NSE": null, "VIVTOT": 0.0, "GRAPROES": 0.0, "_ent": "07", "_mun": "075", "_loc": "0013"}, "geometry": {"type": "Polygon", "coordinates": [[[-92.42272, 16.3465], [-92.42226, 16.34593], [-92.42281, 16.3456], [-92.42325, 16.34611], [-92.42351, 16.34617], [-92.42393, 16.34684], [-92.42342, 16.34706], [-92.42323, 16.34681], [-92.42338, 16.3471], [-92.42307, 16.34722], [-92.42286, 16.34696], [-92.42301, 16.34723], [-92.42244, 16.34746], [-92.42276, 16.34738], [-92.42293, 16.34767], [-92.42235, 16.34791], [-92.42204, 16.347], [-92.42272, 16.3465]]]}}, {"id": "297245", "type": "Feature", "properties": {"id": "297245", "CVEGEO": "0707500130060017", "POBTOT": 0.0, "score_nse": 0.0, "NSE": null, "VIVTOT": 0.0, "GRAPROES": 0.0, "_ent": "07", "_mun": "075", "_loc": "0013"}, "geometry": {"type": "Polygon", "coordinates": [[[-92.42193, 16.34199], [-92.42116, 16.3425], [-92.42067, 16.34171], [-92.42139, 16.34143], [-92.42193, 16.34199]]]}}]}