{"type": "FeatureCollection", "features": [{"id": "2210318", "type": "Feature", "properties": {"id": "2210318", "CVEGEO": "2804101241452012", "POBTOT": 0.0, "score_nse": 0.0, "NSE": null, "VIVTOT": 0.0, "GRAPROES": 0.0, "_ent": "28", "_mun": "041", "_loc": "0124"}, "geometry": {"type": "Polygon", "coordinates": [[[-99.19849, 23.85546], [-99.19982, 23.85561], [-99.19994, 23.85688], [-99.19973, 23.8569], [-99.19849, 23.85546]]]}}, {"id": "2210319", "type": "Feature", "properties": {"id": "2210319", "CVEGEO": "2804101241452001", "POBTOT": 0.0, "score_nse": 0.0, "NSE": null, "VIVTOT": 0.0, "GRAPROES": 0.0, "_ent": "28", "_mun": "041", "_loc": "0124"}, "geometry": {"type": "Polygon", "coordinates": [[[-99.20277, 23.85875], [-99.2025, 23.86006], [-99.20182, 23.8589], [-99.20277, 23.85875]]]}}, {"id": "2210338", "type": "Feature", "properties": {"id": "2210338", "CVEGEO": "2804101241452011", "POBTOT": 0.0, "score_nse": 0.0, "NSE": null, "VIVTOT": 0.0, "GRAPROES": 0.0, "_ent": "28", "_mun": "041", "_loc": "0124"}, "geometry": {"type": "Polygon", "coordinates": [[[-99.19995, 23.85622], [-99.20082, 23.8563], [-99.20083, 23.85681], [-99.2, 23.85687], [-99.19995, 23.85622]]]}}, {"id": "2210369", "type": "Feature", "properties": {"id": "2210369", "CVEGEO": "2804101241452017", "POBTOT": 0.0, "score_nse": 0.0, "NSE": null, "VIVTOT": 0.0, "GRAPROES": 0.0, "_ent": "28", "_mun": "041", "_loc": "0124"}, "geometry": {"type": "Polygon", "coordinates": [[[-99.2009, 23.85579], [-99.20086, 23.85497], [-99.20177, 23.85505], [-99.20181, 23.85608], [-99.2009, 23.85579]]]}}, {"id": "2210396", "type": "Feature", "properties": {"id": "2210396", "CVEGEO": "2804101241452020", "POBTOT": 0.0, "score_nse": 0.0, "NSE": null, "VIVTOT": 0.0, "GRAPROES": 0.0, "_ent": "28", "_mun": "041", "_loc": "0124"}, "geometry": {"type": "Polygon", "coordinates": [[[-99.19776, 23.85462], [-99.19852, 23.85472], [-99.1985, 23.85537], [-99.19776, 23.85462]]]}}, {"id": "2210467", "type": "Feature", "properties": {"id": "2210467", "CVEGEO": "2804101241452035", "POBTOT": 0.0, "score_nse": 0.0, "NSE": null, "VIVTOT": 0.0, "GRAPROES": 0.0, "_ent": "28", "_mun": "041", "_loc": "0124"}, "geometry": {"type": "Polygon", "coordinates": [[[-99.19858, 23.85411], [-99.1986, 23.85354], [-99.19957, 23.85358], [-99.19964, 23.8542], [-99.19858, 23.85411]]]}}, {"id": "2210468", "type": "Feature", "properties": {"id": "2210468", "CVEGEO": "2804101241452034", "POBTOT": 0.0, "score_nse": 0.0, "NSE": null, "VIVTOT": 0.0, "GRAPROES": 0.0, "_ent": "28", "_mun": "041", "_loc": "0124"}, "geometry": {"type": "Polygon", "coordinates": [[[-99.19966, 23.85358], [-99.20066, 23.85362], [-99.2007, 23.85429], [-99.19973, 23.85421], [-99.19966, 23.85358]]]}}, {"id": "2210538", "type": "Feature", "properties": {"id": "2210538", "CVEGEO": "2804101241452046", "POBTOT": 0.0, "score_nse": 0.0, "NSE": null, "VIVTOT": 0.0, "GRAPROES": 0.0, "_ent": "28", "_mun": "041", "_loc": "0124"}, "geometry": {"type": "Polygon", "coordinates": [[[-99.20242, 23.85503], [-99.20243, 23.85449], [-99.2031, 23.85455], [-99.20305, 23.8551], [-99.20242, 23.85503]]]}}, {"id": "2210539", "type": "Feature", "properties": {"id": "2210539", "CVEGEO": "2804101241452045", "POBTOT": 0.0, "score_nse": 0.0, "NSE": null, "VIVTOT": 0.0, "GRAPROES": 0.0, "_ent": "28", "_mun": "041", "_loc": "0124"}, "geometry": {"type": "Polygon", "coordinates": [[[-99.20458, 23.85468], [-99.20453, 23.85545], [-99.20399, 23.85546], [-99.2041, 23.85464], [-99.20458, 23.85468]]]}}, {"id": "2210540", "type": "Feature", "properties": {"id": "2210540", "CVEGEO": "2804101241452044", "POBTOT": 0.0, "score_nse": 0.0, "NSE": null, "VIVTOT": 0.0, "GRAPROES": 0.0, "_ent": "28", "_mun": "041", "_loc": "0124"}, "geometry": {"type": "Polygon", "coordinates": [[[-99.20278, 23.85869], [-99.20256, 23.85871], [-99.20257, 23.85822], [-99.20288, 23.85821], [-99.20278, 23.85869]]]}}, {"id": "2210541", "type": "Feature", "properties": {"id": "2210541", "CVEGEO": "2804101241452043", "POBTOT": 0.0, "score_nse": 0.0, "NSE": null, "VIVTOT": 0.0, "GRAPROES": 0.0, "_ent": "28", "_mun": "041", "_loc": "0124"}, "geometry": {"type": "Polygon", "coordinates": [[[-99.19813, 23.85532], [-99.19644, 23.85493], [-99.19658, 23.85356], [-99.19813, 23.85532]]]}}, {"id": "2210542", "type": "Feature", "properties": {"id": "2210542", "CVEGEO": "2804101241452042", "POBTOT": 0.0, "score_nse": 0.0, "NSE": null, "VIVTOT": 0.0, "GRAPROES": 0.0, "_ent": "28", "_mun": "041", "_loc": "0124"}, "geometry": {"type": "Polygon", "coordinates": [[[-99.1967, 23.85334], [-99.20025, 23.85273], [-99.20063, 23.85267], [-99.20066, 23.85355], [-99.1967, 23.85334]]]}}, {"id": "2210543", "type": "Feature", "properties": {"id": "2210543", "CVEGEO": "2804101241452041", "POBTOT": 0.0, "score_nse": 0.0, "NSE": null, "VIVTOT": 0.0, "GRAPROES": 0.0, "_ent": "28", "_mun": "041", "_loc": "0124"}, "geometry": {"type": "Polygon", "coordinates": [[[-99.20072, 23.85354], [-99.2007, 23.85277], [-99.20169, 23.85261], [-99.2017, 23.85358], [-99.20072, 23.85354]]]}}, {"id": "2210795", "type": "Feature", "properties": {"id": "2210795", "CVEGEO": "2804101241452040", "POBTOT": 0.0, "score_nse": 0.0, "NSE": null, "VIVTOT": 0.0, "GRAPROES": 0.0, "_ent": "28", "_mun": "041", "_loc": "0124"}, "geometry": {"type": "Polygon", "coordinates": [[[-99.20177, 23.85359], [-99.20174, 23.8526], [-99.20246, 23.85256], [-99.20242, 23.85362], [-99.20177, 23.85359]]]}}, {"id": "2210796", "type": "Feature", "properties": {"id": "2210796", "CVEGEO": "2804101241452028", "POBTOT": 0.0, "score_nse": 0.0, "NSE": null, "VIVTOT": 0.0, "GRAPROES": 0.0, "_ent": "28", "_mun": "041", "_loc": "0124"}, "geometry": {"type": "Polygon", "coordinates": [[[-99.19857, 23.85464], [-99.19858, 23.85418], [-99.19899, 23.85421], [-99.19902, 23.85469], [-99.19857, 23.85464]]]}}, {"id": "2210797", "type": "Feature", "properties": {"id": "2210797", "CVEGEO": "2804101241452027", "POBTOT": 0.0, "score_nse": 0.0, "NSE": null, "VIVTOT": 0.0, "GRAPROES": 0.0, "_ent": "28", "_mun": "041", "_loc": "0124"}, "geometry": {"type": "Polygon", "coordinates": [[[-99.19903, 23.85469], [-99.19901, 23.85421], [-99.19965, 23.85427], [-99.19971, 23.85477], [-99.19903, 23.85469]]]}}, {"id": "2210798", "type": "Feature", "properties": {"id": "2210798", "CVEGEO": "2804101241452026", "POBTOT": 0.0, "score_nse": 0.0, "NSE": null, "VIVTOT": 0.0, "GRAPROES": 0.0, "_ent": "28", "_mun": "041", "_loc": "0124"}, "geometry": {"type": "Polygon", "coordinates": [[[-99.20074, 23.85488], [-99.19981, 23.85478], [-99.19976, 23.85428], [-99.20071, 23.85437], [-99.20074, 23.85488]]]}}, {"id": "2210799", "type": "Feature", "properties": {"id": "2210799", "CVEGEO": "2804101241452025", "POBTOT": 0.0, "score_nse": 0.0, "NSE": null, "VIVTOT": 0.0, "GRAPROES": 0.0, "_ent": "28", "_mun": "041", "_loc": "0124"}, "geometry": {"type": "Polygon", "coordinates": [[[-99.20085, 23.85489], [-99.20081, 23.85437], [-99.20171, 23.85444], [-99.20175, 23.85498], [-99.20085, 23.85489]]]}}, {"id": "2210800", "type": "Feature", "properties": {"id": "2210800", "CVEGEO": "2804101241452024", "POBTOT": 0.0, "score_nse": 0.0, "NSE": null, "VIVTOT": 0.0, "GRAPROES": 0.0, "_ent": "28", "_mun": "041", "_loc": "0124"}, "geometry": {"type": "Polygon", "coordinates": [[[-99.20235, 23.85502], [-99.20182, 23.85498], [-99.2018, 23.85444], [-99.20237, 23.85449], [-99.20235, 23.85502]]]}}, {"id": "2210801", "type": "Feature", "properties": {"id": "2210801", "CVEGEO": "2804101241452023", "POBTOT": 0.0, "score_nse": 0.0, "NSE": null, "VIVTOT": 0.0, "GRAPROES": 0.0, "_ent": "28", "_mun": "041", "_loc": "0124"}, "geometry": {"type": "Polygon", "coordinates": [[[-99.204, 23.85463], [-99.20393, 23.85519], [-99.20314, 23.85511], [-99.2032, 23.85456], [-99.204, 23.85463]]]}}, {"id": "2210802", "type": "Feature", "properties": {"id": "2210802", "CVEGEO": "2804101241452022", "POBTOT": 0.0, "score_nse": 0.0, "NSE": null, "VIVTOT": 0.0, "GRAPROES": 0.0, "_ent": "28", "_mun": "041", "_loc": "0124"}, "geometry": {"type": "Polygon", "coordinates": [[[-99.20384, 23.85559], [-99.20316, 23.85557], [-99.20321, 23.85519], [-99.20393, 23.85526], [-99.20384, 23.85559]]]}}, {"id": "2210803", "type": "Feature", "properties": {"id": "2210803", "CVEGEO": "2804101241452021", "POBTOT": 0.0, "score_nse": 0.0, "NSE": null, "VIVTOT": 0.0, "GRAPROES": 0.0, "_ent": "28", "_mun": "041", "_loc": "0124"}, "geometry": {"type": "Polygon", "coordinates": [[[-99.20374, 23.85609], [-99.20395, 23.85556], [-99.20457, 23.85551], [-99.20458, 23.85617], [-99.20374, 23.85609]]]}}, {"id": "2210804", "type": "Feature", "properties": {"id": "2210804", "CVEGEO": "2804101241452009", "POBTOT": 0.0, "score_nse": 0.0, "NSE": null, "VIVTOT": 0.0, "GRAPROES": 0.0, "_ent": "28", "_mun": "041", "_loc": "0124"}, "geometry": {"type": "Polygon", "coordinates": [[[-99.20192, 23.85739], [-99.20188, 23.85623], [-99.20366, 23.85673], [-99.20354, 23.85708], [-99.20314, 23.85699], [-99.20306, 23.85731], [-99.20192, 23.85739]]]}}, {"id": "2210805", "type": "Feature", "properties": {"id": "2210805", "CVEGEO": "2804101241452008", "POBTOT": 0.0, "score_nse": 0.0, "NSE": null, "VIVTOT": 0.0, "GRAPROES": 0.0, "_ent": "28", "_mun": "041", "_loc": "0124"}, "geometry": {"type": "Polygon", "coordinates": [[[-99.19979, 23.85696], [-99.19994, 23.85695], [-99.19996, 23.85715], [-99.19979, 23.85696]]]}}, {"id": "2210806", "type": "Feature", "properties": {"id": "2210806", "CVEGEO": "2804101241452007", "POBTOT": 0.0, "score_nse": 0.0, "NSE": null, "VIVTOT": 0.0, "GRAPROES": 0.0, "_ent": "28", "_mun": "041", "_loc": "0124"}, "geometry": {"type": "Polygon", "coordinates": [[[-99.20084, 23.85688], [-99.20097, 23.85783], [-99.2017, 23.85885], [-99.20003, 23.85723], [-99.20001, 23.85694], [-99.20084, 23.85688]]]}}, {"id": "2210807", "type": "Feature", "properties": {"id": "2210807", "CVEGEO": "2804101241452006", "POBTOT": 0.0, "score_nse": 0.0, "NSE": null, "VIVTOT": 0.0, "GRAPROES": 0.0, "_ent": "28", "_mun": "041", "_loc": "0124"}, "geometry": {"type": "Polygon", "coordinates": [[[-99.20185, 23.85782], [-99.20116, 23.85786], [-99.20097, 23.85749], [-99.20094, 23.85687], [-99.20182, 23.85679], [-99.20185, 23.85782]]]}}, {"id": "2210808", "type": "Feature", "properties": {"id": "2210808", "CVEGEO": "2804101241452005", "POBTOT": 0.0, "score_nse": 0.0, "NSE": null, "VIVTOT": 0.0, "GRAPROES": 0.0, "_ent": "28", "_mun": "041", "_loc": "0124"}, "geometry": {"type": "Polygon", "coordinates": [[[-99.20184, 23.85819], [-99.20143, 23.85821], [-99.20123, 23.85796], [-99.20186, 23.85793], [-99.20184, 23.85819]]]}}, {"id": "2210809", "type": "Feature", "properties": {"id": "2210809", "CVEGEO": "2804101241452004", "POBTOT": 0.0, "score_nse": 0.0, "NSE": null, "VIVTOT": 0.0, "GRAPROES": 0.0, "_ent": "28", "_mun": "041", "_loc": "0124"}, "geometry": {"type": "Polygon", "coordinates": [[[-99.2019, 23.85818], [-99.20189, 23.85749], [-99.20304, 23.85741], [-99.20289, 23.85816], [-99.2019, 23.85818]]]}}, {"id": "2210810", "type": "Feature", "properties": {"id": "2210810", "CVEGEO": "2804101241452003", "POBTOT": 0.0, "score_nse": 0.0, "NSE": null, "VIVTOT": 0.0, "GRAPROES": 0.0, "_ent": "28", "_mun": "041", "_loc": "0124"}, "geometry": {"type": "Polygon", "coordinates": [[[-99.20201, 23.85877], [-99.20179, 23.85883], [-99.20146, 23.85825], [-99.20205, 23.85823], [-99.20201, 23.85877]]]}}, {"id": "2210983", "type": "Feature", "properties": {"id": "2210983", "CVEGEO": "2804101241452039", "POBTOT": 0.0, "score_nse": 0.0, "NSE": null, "VIVTOT": 0.0, "GRAPROES": 0.0, "_ent": "28", "_mun": "041", "_loc": "0124"}, "geometry": {"type": "Polygon", "coordinates": [[[-99.20333, 23.85251], [-99.20322, 23.85365], [-99.20248, 23.85362], [-99.20252, 23.85256], [-99.20333, 23.85251]]]}}, {"id": "2210984", "type": "Feature", "properties": {"id": "2210984", "CVEGEO": "2804101241452038", "POBTOT": 0.0, "score_nse": 0.0, "NSE": null, "VIVTOT": 0.0, "GRAPROES": 0.0, "_ent": "28", "_mun": "041", "_loc": "0124"}, "geometry": {"type": "Polygon", "coordinates": [[[-99.20396, 23.85247], [-99.20391, 23.85368], [-99.20328, 23.85366], [-99.20341, 23.8525], [-99.20396, 23.85247]]]}}, {"id": "2210985", "type": "Feature", "properties": {"id": "2210985", "CVEGEO": "2804101241452037", "POBTOT": 0.0, "score_nse": 0.0, "NSE": null, "VIVTOT": 0.0, "GRAPROES": 0.0, "_ent": "28", "_mun": "041", "_loc": "0124"}, "geometry": {"type": "Polygon", "coordinates": [[[-99.20464, 23.85243], [-99.20459, 23.85371], [-99.20396, 23.85369], [-99.20403, 23.85246], [-99.20464, 23.85243]]]}}, {"id": "2210986", "type": "Feature", "properties": {"id": "2210986", "CVEGEO": "2804101241452036", "POBTOT": 0.0, "score_nse": 0.0, "NSE": null, "VIVTOT": 0.0, "GRAPROES": 0.0, "_ent": "28", "_mun": "041", "_loc": "0124"}, "geometry": {"type": "Polygon", "coordinates": [[[-99.19737, 23.85401], [-99.19687, 23.85349], [-99.19856, 23.85354], [-99.19854, 23.85411], [-99.19737, 23.85401]]]}}, {"id": "2210987", "type": "Feature", "properties": {"id": "2210987", "CVEGEO": "2804101241452016", "POBTOT": 0.0, "score_nse": 0.0, "NSE": null, "VIVTOT": 0.0, "GRAPROES": 0.0, "_ent": "28", "_mun": "041", "_loc": "0124"}, "geometry": {"type": "Polygon", "coordinates": [[[-99.2022, 23.85511], [-99.20224, 23.8556], [-99.20225, 23.85623], [-99.20187, 23.8561], [-99.20183, 23.85507], [-99.2022, 23.85511]]]}}, {"id": "2210988", "type": "Feature", "properties": {"id": "2210988", "CVEGEO": "2804101241452015", "POBTOT": 0.0, "score_nse": 0.0, "NSE": null, "VIVTOT": 0.0, "GRAPROES": 0.0, "_ent": "28", "_mun": "041", "_loc": "0124"}, "geometry": {"type": "Polygon", "coordinates": [[[-99.20223, 23.85511], [-99.20314, 23.85519], [-99.20298, 23.85643], [-99.20233, 23.85625], [-99.20223, 23.85511]]]}}, {"id": "2210989", "type": "Feature", "properties": {"id": "2210989", "CVEGEO": "2804101241452014", "POBTOT": 0.0, "score_nse": 0.0, "NSE": null, "VIVTOT": 0.0, "GRAPROES": 0.0, "_ent": "28", "_mun": "041", "_loc": "0124"}, "geometry": {"type": "Polygon", "coordinates": [[[-99.20382, 23.85565], [-99.20347, 23.85656], [-99.20304, 23.85645], [-99.20315, 23.85563], [-99.20382, 23.85565]]]}}, {"id": "2211113", "type": "Feature", "properties": {"id": "2211113", "CVEGEO": "2804101241452018", "POBTOT": 0.0, "score_nse": 0.0, "NSE": null, "VIVTOT": 0.0, "GRAPROES": 0.0, "_ent": "28", "_mun": "041", "_loc": "0124"}, "geometry": {"type": "Polygon", "coordinates": [[[-99.19983, 23.8549], [-99.20075, 23.85503], [-99.2008, 23.8562], [-99.19997, 23.85614], [-99.19983, 23.8549]]]}}, {"id": "2211115", "type": "Feature", "properties": {"id": "2211115", "CVEGEO": "2804101241452002", "POBTOT": 0.0, "score_nse": 0.0, "NSE": null, "VIVTOT": 0.0, "GRAPROES": 0.0, "_ent": "28", "_mun": "041", "_loc": "0124"}, "geometry": {"type": "Polygon", "coordinates": [[[-99.20206, 23.85875], [-99.20211, 23.85823], [-99.20247, 23.85822], [-99.20246, 23.85872], [-99.20206, 23.85875]]]}}, {"id": "2211298", "type": "Feature", "properties": {"id": "2211298", "CVEGEO": "2804101241452032", "POBTOT": 0.0, "score_nse": 0.0, "NSE": null, "VIVTOT": 0.0, "GRAPROES": 0.0, "_ent": "28", "_mun": "041", "_loc": "0124"}, "geometry": {"type": "Polygon", "coordinates": [[[-99.2018, 23.85438], [-99.20176, 23.85366], [-99.2024, 23.85369], [-99.20237, 23.85443], [-99.2018, 23.85438]]]}}, {"id": "2211299", "type": "Feature", "properties": {"id": "2211299", "CVEGEO": "2804101241452031", "POBTOT": 0.0, "score_nse": 0.0, "NSE": null, "VIVTOT": 0.0, "GRAPROES": 0.0, "_ent": "28", "_mun": "041", "_loc": "0124"}, "geometry": {"type": "Polygon", "coordinates": [[[-99.20246, 23.8537], [-99.20343, 23.85371], [-99.2034, 23.85452], [-99.20242, 23.85443], [-99.20246, 23.8537]]]}}, {"id": "2211302", "type": "Feature", "properties": {"id": "2211302", "CVEGEO": "2804101241452010", "POBTOT": 0.0, "score_nse": 0.0, "NSE": null, "VIVTOT": 0.0, "GRAPROES": 0.0, "_ent": "28", "_mun": "041", "_loc": "0124"}, "geometry": {"type": "Polygon", "coordinates": [[[-99.20181, 23.85671], [-99.20094, 23.85681], [-99.20091, 23.85596], [-99.20181, 23.85623], [-99.20181, 23.85671]]]}}, {"id": "2211315", "type": "Feature", "properties": {"id": "2211315", "CVEGEO": "2804101241452019", "POBTOT": 0.0, "score_nse": 0.0, "NSE": null, "VIVTOT": 0.0, "GRAPROES": 0.0, "_ent": "28", "_mun": "041", "_loc": "0124"}, "geometry": {"type": "Polygon", "coordinates": [[[-99.19856, 23.85473], [-99.19972, 23.85489], [-99.19981, 23.85554], [-99.19854, 23.85539], [-99.19856, 23.85473]]]}}, {"id": "2211352", "type": "Feature", "properties": {"id": "2211352", "CVEGEO": "2804101241452033", "POBTOT": 0.0, "score_nse": 0.0, "NSE": null, "VIVTOT": 0.0, "GRAPROES": 0.0, "_ent": "28", "_mun": "041", "_loc": "0124"}, "geometry": {"type": "Polygon", "coordinates": [[[-99.2008, 23.8543], [-99.20075, 23.85362], [-99.20168, 23.85365], [-99.20171, 23.85437], [-99.2008, 23.8543]]]}}, {"id": "2211353", "type": "Feature", "properties": {"id": "2211353", "CVEGEO": "2804101241452030", "POBTOT": 0.0, "score_nse": 0.0, "NSE": null, "VIVTOT": 0.0, "GRAPROES": 0.0, "_ent": "28", "_mun": "041", "_loc": "0124"}, "geometry": {"type": "Polygon", "coordinates": [[[-99.20349, 23.85372], [-99.2046, 23.85377], [-99.20457, 23.85461], [-99.20346, 23.85452], [-99.20349, 23.85372]]]}}, {"id": "2211354", "type": "Feature", "properties": {"id": "2211354", "CVEGEO": "2804101241452029", "POBTOT": 0.0, "score_nse": 0.0, "NSE": null, "VIVTOT": 0.0, "GRAPROES": 0.0, "_ent": "28", "_mun": "041", "_loc": "0124"}, "geometry": {"type": "Polygon", "coordinates": [[[-99.19852, 23.85464], [-99.19783, 23.8545], [-99.19744, 23.85408], [-99.19854, 23.85417], [-99.19852, 23.85464]]]}}, {"id": "2211371", "type": "Feature", "properties": {"id": "2211371", "CVEGEO": "2804101241452013", "POBTOT": 0.0, "score_nse": 0.0, "NSE": null, "VIVTOT": 0.0, "GRAPROES": 0.0, "_ent": "28", "_mun": "041", "_loc": "0124"}, "geometry": {"type": "Polygon", "coordinates": [[[-99.20458, 23.85621], [-99.20454, 23.85677], [-99.20355, 23.85657], [-99.20373, 23.85612], [-99.20458, 23.85621]]]}}]}