{"type": "FeatureCollection", "features": [{"id": "1749707", "type": "Feature", "properties": {"id": "1749707", "CVEGEO": "2111300060059013", "POBTOT": 0.0, "score_nse": 0.0, "NSE": null, "VIVTOT": 0.0, "GRAPROES": 0.0, "_ent": "21", "_mun": "113", "_loc": "0006"}, "geometry": {"type": "Polygon", "coordinates": [[[-98.31114, 18.03644], [-98.31028, 18.03634], [-98.31043, 18.03527], [-98.31101, 18.03515], [-98.31136, 18.03536], [-98.31114, 18.03644]]]}}, {"id": "1749716", "type": "Feature", "properties": {"id": "1749716", "CVEGEO": "2111300060059019", "POBTOT": 0.0, "score_nse": 0.0, "NSE": null, "VIVTOT": 0.0, "GRAPROES": 0.0, "_ent": "21", "_mun": "113", "_loc": "0006"}, "geometry": {"type": "Polygon", "coordinates": [[[-98.31391, 18.03987], [-98.3123, 18.04008], [-98.31201, 18.0386], [-98.31242, 18.03839], [-98.31374, 18.03859], [-98.31391, 18.03987]]]}}, {"id": "1749717", "type": "Feature", "properties": {"id": "1749717", "CVEGEO": "2111300060059018", "POBTOT": 0.0, "score_nse": 0.0, "NSE": null, "VIVTOT": 0.0, "GRAPROES": 0.0, "_ent": "21", "_mun": "113", "_loc": "0006"}, "geometry": {"type": "Polygon", "coordinates": [[[-98.31201, 18.03855], [-98.31206, 18.03832], [-98.31233, 18.03838], [-98.31227, 18.03842], [-98.31201, 18.03855]]]}}, {"id": "1749718", "type": "Feature", "properties": {"id": "1749718", "CVEGEO": "2111300060059017", "POBTOT": 0.0, "score_nse": 0.0, "NSE": null, "VIVTOT": 0.0, "GRAPROES": 0.0, "_ent": "21", "_mun": "113", "_loc": "0006"}, "geometry": {"type": "Polygon", "coordinates": [[[-98.31373, 18.03853], [-98.31207, 18.03827], [-98.31236, 18.03741], [-98.31361, 18.03753], [-98.31373, 18.03853]]]}}, {"id": "1749719", "type": "Feature", "properties": {"id": "1749719", "CVEGEO": "2111300060059016", "POBTOT": 0.0, "score_nse": 0.0, "NSE": null, "VIVTOT": 0.0, "GRAPROES": 0.0, "_ent": "21", "_mun": "113", "_loc": "0006"}, "geometry": {"type": "Polygon", "coordinates": [[[-98.31238, 18.03736], [-98.31263, 18.03663], [-98.31354, 18.03672], [-98.31361, 18.03748], [-98.31238, 18.03736]]]}}, {"id": "1749731", "type": "Feature", "properties": {"id": "1749731", "CVEGEO": "2111300060059069", "POBTOT": 0.0, "score_nse": 0.0, "NSE": null, "VIVTOT": 0.0, "GRAPROES": 0.0, "_ent": "21", "_mun": "113", "_loc": "0006"}, "geometry": {"type": "Polygon", "coordinates": [[[-98.31776, 18.04276], [-98.31851, 18.04295], [-98.31932, 18.04267], [-98.31808, 18.04384], [-98.31776, 18.04276]]]}}, {"id": "1749732", "type": "Feature", "properties": {"id": "1749732", "CVEGEO": "2111300060059068", "POBTOT": 0.0, "score_nse": 0.0, "NSE": null, "VIVTOT": 0.0, "GRAPROES": 0.0, "_ent": "21", "_mun": "113", "_loc": "0006"}, "geometry": {"type": "Polygon", "coordinates": [[[-98.31945, 18.04079], [-98.32181, 18.04062], [-98.32091, 18.04205], [-98.32038, 18.04229], [-98.32058, 18.0419], [-98.32002, 18.04251], [-98.31967, 18.04249], [-98.31949, 18.04231], [-98.31945, 18.04079]]]}}, {"id": "1749733", "type": "Feature", "properties": {"id": "1749733", "CVEGEO": "2111300060059067", "POBTOT": 0.0, "score_nse": 0.0, "NSE": null, "VIVTOT": 0.0, "GRAPROES": 0.0, "_ent": "21", "_mun": "113", "_loc": "0006"}, "geometry": {"type": "Polygon", "coordinates": [[[-98.31944, 18.03998], [-98.32171, 18.03919], [-98.32187, 18.03979], [-98.32226, 18.04026], [-98.32189, 18.04055], [-98.31945, 18.04072], [-98.31944, 18.03998]]]}}, {"id": "1749734", "type": "Feature", "properties": {"id": "1749734", "CVEGEO": "2111300060059066", "POBTOT": 0.0, "score_nse": 0.0, "NSE": null, "VIVTOT": 0.0, "GRAPROES": 0.0, "_ent": "21", "_mun": "113", "_loc": "0006"}, "geometry": {"type": "Polygon", "coordinates": [[[-98.31417, 18.03397], [-98.31361, 18.03338], [-98.31309, 18.03243], [-98.31311, 18.03198], [-98.31386, 18.03217], [-98.31428, 18.03288], [-98.31445, 18.03345], [-98.31417, 18.03397]]]}}, {"id": "1749764", "type": "Feature", "properties": {"id": "1749764", "CVEGEO": "2111300060059085", "POBTOT": 0.0, "score_nse": 0.0, "NSE": null, "VIVTOT": 0.0, "GRAPROES": 0.0, "_ent": "21", "_mun": "113", "_loc": "0006"}, "geometry": {"type": "Polygon", "coordinates": [[[-98.32192, 18.03976], [-98.32175, 18.03918], [-98.32252, 18.03907], [-98.32289, 18.03967], [-98.32231, 18.04022], [-98.32192, 18.03976]]]}}, {"id": "1749765", "type": "Feature", "properties": {"id": "1749765", "CVEGEO": "2111300060059084", "POBTOT": 0.0, "score_nse": 0.0, "NSE": null, "VIVTOT": 0.0, "GRAPROES": 0.0, "_ent": "21", "_mun": "113", "_loc": "0006"}, "geometry": {"type": "Polygon", "coordinates": [[[-98.30505, 18.03244], [-98.30503, 18.03156], [-98.30562, 18.03156], [-98.30586, 18.0318], [-98.30577, 18.03254], [-98.30505, 18.03244]]]}}, {"id": "1749766", "type": "Feature", "properties": {"id": "1749766", "CVEGEO": "2111300060059065", "POBTOT": 0.0, "score_nse": 0.0, "NSE": null, "VIVTOT": 0.0, "GRAPROES": 0.0, "_ent": "21", "_mun": "113", "_loc": "0006"}, "geometry": {"type": "Polygon", "coordinates": [[[-98.30455, 18.03235], [-98.30473, 18.03154], [-98.30498, 18.03157], [-98.30499, 18.03244], [-98.30455, 18.03235]]]}}, {"id": "1749767", "type": "Feature", "properties": {"id": "1749767", "CVEGEO": "2111300060059064", "POBTOT": 0.0, "score_nse": 0.0, "NSE": null, "VIVTOT": 0.0, "GRAPROES": 0.0, "_ent": "21", "_mun": "113", "_loc": "0006"}, "geometry": {"type": "Polygon", "coordinates": [[[-98.30499, 18.03246], [-98.30495, 18.03306], [-98.3044, 18.03298], [-98.30455, 18.03237], [-98.30499, 18.03246]]]}}, {"id": "1749768", "type": "Feature", "properties": {"id": "1749768", "CVEGEO": "2111300060059052", "POBTOT": 0.0, "score_nse": 0.0, "NSE": null, "VIVTOT": 0.0, "GRAPROES": 0.0, "_ent": "21", "_mun": "113", "_loc": "0006"}, "geometry": {"type": "Polygon", "coordinates": [[[-98.30555, 18.03385], [-98.30441, 18.03304], [-98.30565, 18.03328], [-98.30555, 18.03385]]]}}, {"id": "1749769", "type": "Feature", "properties": {"id": "1749769", "CVEGEO": "2111300060059051", "POBTOT": 0.0, "score_nse": 0.0, "NSE": null, "VIVTOT": 0.0, "GRAPROES": 0.0, "_ent": "21", "_mun": "113", "_loc": "0006"}, "geometry": {"type": "Polygon", "coordinates": [[[-98.3055, 18.03425], [-98.30418, 18.03393], [-98.30438, 18.03311], [-98.30543, 18.0338], [-98.3055, 18.03425]]]}}, {"id": "1749770", "type": "Feature", "properties": {"id": "1749770", "CVEGEO": "2111300060059050", "POBTOT": 0.0, "score_nse": 0.0, "NSE": null, "VIVTOT": 0.0, "GRAPROES": 0.0, "_ent": "21", "_mun": "113", "_loc": "0006"}, "geometry": {"type": "Polygon", "coordinates": [[[-98.3053, 18.03573], [-98.30371, 18.03557], [-98.30417, 18.03399], [-98.30549, 18.03431], [-98.3053, 18.03573]]]}}, {"id": "1749771", "type": "Feature", "properties": {"id": "1749771", "CVEGEO": "2111300060059034", "POBTOT": 0.0, "score_nse": 0.0, "NSE": null, "VIVTOT": 0.0, "GRAPROES": 0.0, "_ent": "21", "_mun": "113", "_loc": "0006"}, "geometry": {"type": "Polygon", "coordinates": [[[-98.30629, 18.03725], [-98.30572, 18.03655], [-98.30525, 18.03666], [-98.30535, 18.03581], [-98.30656, 18.03598], [-98.30655, 18.03673], [-98.30673, 18.03727], [-98.30629, 18.03725]]]}}, {"id": "1749772", "type": "Feature", "properties": {"id": "1749772", "CVEGEO": "2111300060059032", "POBTOT": 0.0, "score_nse": 0.0, "NSE": null, "VIVTOT": 0.0, "GRAPROES": 0.0, "_ent": "21", "_mun": "113", "_loc": "0006"}, "geometry": {"type": "Polygon", "coordinates": [[[-98.30721, 18.03794], [-98.30706, 18.03868], [-98.30552, 18.03852], [-98.30508, 18.03824], [-98.3051, 18.03726], [-98.30553, 18.03729], [-98.30553, 18.0376], [-98.3056, 18.03729], [-98.30679, 18.03737], [-98.30721, 18.03794]]]}}, {"id": "1749773", "type": "Feature", "properties": {"id": "1749773", "CVEGEO": "2111300060059030", "POBTOT": 0.0, "score_nse": 0.0, "NSE": null, "VIVTOT": 0.0, "GRAPROES": 0.0, "_ent": "21", "_mun": "113", "_loc": "0006"}, "geometry": {"type": "Polygon", "coordinates": [[[-98.31271, 18.04274], [-98.31147, 18.04259], [-98.31118, 18.04228], [-98.3106, 18.04142], [-98.31072, 18.0404], [-98.31224, 18.04014], [-98.31271, 18.04166], [-98.31271, 18.04274]]]}}, {"id": "1749775", "type": "Feature", "properties": {"id": "1749775", "CVEGEO": "2111300060059021", "POBTOT": 0.0, "score_nse": 0.0, "NSE": null, "VIVTOT": 0.0, "GRAPROES": 0.0, "_ent": "21", "_mun": "113", "_loc": "0006"}, "geometry": {"type": "Polygon", "coordinates": [[[-98.30753, 18.03731], [-98.30681, 18.03727], [-98.30663, 18.03695], [-98.30661, 18.03597], [-98.30774, 18.03608], [-98.30768, 18.03707], [-98.30753, 18.03731]]]}}, {"id": "1749776", "type": "Feature", "properties": {"id": "1749776", "CVEGEO": "2111300060059002", "POBTOT": 0.0, "score_nse": 0.0, "NSE": null, "VIVTOT": 0.0, "GRAPROES": 0.0, "_ent": "21", "_mun": "113", "_loc": "0006"}, "geometry": {"type": "Polygon", "coordinates": [[[-98.30999, 18.03755], [-98.30891, 18.03739], [-98.30849, 18.03739], [-98.30887, 18.03659], [-98.30987, 18.03693], [-98.30982, 18.03718], [-98.31011, 18.03735], [-98.31019, 18.03784], [-98.30999, 18.03755]]]}}, {"id": "1749807", "type": "Feature", "properties": {"id": "1749807", "CVEGEO": "2111300060059001", "POBTOT": 0.0, "score_nse": 0.0, "NSE": null, "VIVTOT": 0.0, "GRAPROES": 0.0, "_ent": "21", "_mun": "113", "_loc": "0006"}, "geometry": {"type": "Polygon", "coordinates": [[[-98.3107, 18.03807], [-98.3107, 18.03773], [-98.31062, 18.03806], [-98.31027, 18.03792], [-98.31017, 18.03735], [-98.3103, 18.03702], [-98.31105, 18.03719], [-98.31094, 18.03811], [-98.3107, 18.03807]]]}}, {"id": "1749838", "type": "Feature", "properties": {"id": "1749838", "CVEGEO": "2111300060059078", "POBTOT": 0.0, "score_nse": 0.0, "NSE": null, "VIVTOT": 0.0, "GRAPROES": 0.0, "_ent": "21", "_mun": "113", "_loc": "0006"}, "geometry": {"type": "Polygon", "coordinates": [[[-98.31686, 18.03919], [-98.316, 18.03892], [-98.31621, 18.03851], [-98.31675, 18.03827], [-98.31686, 18.03919]]]}}, {"id": "1749839", "type": "Feature", "properties": {"id": "1749839", "CVEGEO": "2111300060059073", "POBTOT": 0.0, "score_nse": 0.0, "NSE": null, "VIVTOT": 0.0, "GRAPROES": 0.0, "_ent": "21", "_mun": "113", "_loc": "0006"}, "geometry": {"type": "Polygon", "coordinates": [[[-98.3174, 18.03958], [-98.31691, 18.03922], [-98.31689, 18.03833], [-98.31805, 18.03861], [-98.31855, 18.03857], [-98.3193, 18.0389], [-98.31967, 18.03878], [-98.31996, 18.03826], [-98.32024, 18.03817], [-98.32136, 18.03882], [-98.32227, 18.03866], [-98.32247, 18.039], [-98.32134, 18.03918], [-98.31918, 18.04001], [-98.31876, 18.04004], [-98.3178, 18.03954], [-98.3174, 18.03958]]]}}, {"id": "1749840", "type": "Feature", "properties": {"id": "1749840", "CVEGEO": "2111300060059072", "POBTOT": 0.0, "score_nse": 0.0, "NSE": null, "VIVTOT": 0.0, "GRAPROES": 0.0, "_ent": "21", "_mun": "113", "_loc": "0006"}, "geometry": {"type": "Polygon", "coordinates": [[[-98.30286, 18.03552], [-98.30299, 18.03511], [-98.30259, 18.03369], [-98.3041, 18.03399], [-98.30364, 18.03558], [-98.30286, 18.03552]]]}}, {"id": "1749841", "type": "Feature", "properties": {"id": "1749841", "CVEGEO": "2111300060059058", "POBTOT": 0.0, "score_nse": 0.0, "NSE": null, "VIVTOT": 0.0, "GRAPROES": 0.0, "_ent": "21", "_mun": "113", "_loc": "0006"}, "geometry": {"type": "Polygon", "coordinates": [[[-98.31944, 18.04232], [-98.31897, 18.04196], [-98.31847, 18.04088], [-98.31938, 18.0408], [-98.31944, 18.04232]]]}}, {"id": "1749842", "type": "Feature", "properties": {"id": "1749842", "CVEGEO": "2111300060059057", "POBTOT": 0.0, "score_nse": 0.0, "NSE": null, "VIVTOT": 0.0, "GRAPROES": 0.0, "_ent": "21", "_mun": "113", "_loc": "0006"}, "geometry": {"type": "Polygon", "coordinates": [[[-98.31938, 18.04073], [-98.31843, 18.04082], [-98.31746, 18.03964], [-98.31783, 18.03963], [-98.31874, 18.0401], [-98.31939, 18.04], [-98.31938, 18.04073]]]}}, {"id": "1749843", "type": "Feature", "properties": {"id": "1749843", "CVEGEO": "2111300060059056", "POBTOT": 0.0, "score_nse": 0.0, "NSE": null, "VIVTOT": 0.0, "GRAPROES": 0.0, "_ent": "21", "_mun": "113", "_loc": "0006"}, "geometry": {"type": "Polygon", "coordinates": [[[-98.31622, 18.03698], [-98.31701, 18.03705], [-98.31699, 18.03731], [-98.31616, 18.03741], [-98.31622, 18.03698]]]}}, {"id": "1749844", "type": "Feature", "properties": {"id": "1749844", "CVEGEO": "2111300060059055", "POBTOT": 0.0, "score_nse": 0.0, "NSE": null, "VIVTOT": 0.0, "GRAPROES": 0.0, "_ent": "21", "_mun": "113", "_loc": "0006"}, "geometry": {"type": "Polygon", "coordinates": [[[-98.31701, 18.03697], [-98.31623, 18.0369], [-98.31636, 18.03553], [-98.3171, 18.03573], [-98.31701, 18.03697]]]}}, {"id": "1749845", "type": "Feature", "properties": {"id": "1749845", "CVEGEO": "2111300060059054", "POBTOT": 0.0, "score_nse": 0.0, "NSE": null, "VIVTOT": 0.0, "GRAPROES": 0.0, "_ent": "21", "_mun": "113", "_loc": "0006"}, "geometry": {"type": "Polygon", "coordinates": [[[-98.30636, 18.03333], [-98.30572, 18.03322], [-98.30595, 18.03183], [-98.30618, 18.0319], [-98.30661, 18.03251], [-98.30634, 18.03284], [-98.30636, 18.03333]]]}}, {"id": "1749846", "type": "Feature", "properties": {"id": "1749846", "CVEGEO": "2111300060059042", "POBTOT": 0.0, "score_nse": 0.0, "NSE": null, "VIVTOT": 0.0, "GRAPROES": 0.0, "_ent": "21", "_mun": "113", "_loc": "0006"}, "geometry": {"type": "Polygon", "coordinates": [[[-98.31525, 18.03688], [-98.31618, 18.03695], [-98.31601, 18.03765], [-98.31538, 18.03762], [-98.31525, 18.03688]]]}}, {"id": "1749847", "type": "Feature", "properties": {"id": "1749847", "CVEGEO": "2111300060059040", "POBTOT": 0.0, "score_nse": 0.0, "NSE": null, "VIVTOT": 0.0, "GRAPROES": 0.0, "_ent": "21", "_mun": "113", "_loc": "0006"}, "geometry": {"type": "Polygon", "coordinates": [[[-98.3148, 18.03507], [-98.31431, 18.03512], [-98.31422, 18.03512], [-98.31478, 18.03468], [-98.3148, 18.03507]]]}}, {"id": "1749848", "type": "Feature", "properties": {"id": "1749848", "CVEGEO": "2111300060059039", "POBTOT": 0.0, "score_nse": 0.0, "NSE": null, "VIVTOT": 0.0, "GRAPROES": 0.0, "_ent": "21", "_mun": "113", "_loc": "0006"}, "geometry": {"type": "Polygon", "coordinates": [[[-98.31305, 18.032], [-98.31306, 18.03257], [-98.31368, 18.03362], [-98.31411, 18.03404], [-98.31259, 18.03457], [-98.31161, 18.03472], [-98.31226, 18.03339], [-98.31246, 18.03265], [-98.31305, 18.032]]]}}, {"id": "1749849", "type": "Feature", "properties": {"id": "1749849", "CVEGEO": "2111300060059038", "POBTOT": 0.0, "score_nse": 0.0, "NSE": null, "VIVTOT": 0.0, "GRAPROES": 0.0, "_ent": "21", "_mun": "113", "_loc": "0006"}, "geometry": {"type": "Polygon", "coordinates": [[[-98.31072, 18.03448], [-98.30828, 18.03385], [-98.31056, 18.03188], [-98.31103, 18.03223], [-98.31133, 18.03294], [-98.31159, 18.03302], [-98.31205, 18.03205], [-98.31243, 18.0319], [-98.31283, 18.03198], [-98.31245, 18.03252], [-98.31229, 18.03321], [-98.31153, 18.0347], [-98.31107, 18.03472], [-98.31081, 18.03456], [-98.3107, 18.03358], [-98.31072, 18.03448]]]}}, {"id": "1749850", "type": "Feature", "properties": {"id": "1749850", "CVEGEO": "2111300060059028", "POBTOT": 0.0, "score_nse": 0.0, "NSE": null, "VIVTOT": 0.0, "GRAPROES": 0.0, "_ent": "21", "_mun": "113", "_loc": "0006"}, "geometry": {"type": "Polygon", "coordinates": [[[-98.31586, 18.04105], [-98.31417, 18.04064], [-98.31399, 18.03988], [-98.31568, 18.03973], [-98.31586, 18.04105]]]}}, {"id": "1749851", "type": "Feature", "properties": {"id": "1749851", "CVEGEO": "2111300060059026", "POBTOT": 0.0, "score_nse": 0.0, "NSE": null, "VIVTOT": 0.0, "GRAPROES": 0.0, "_ent": "21", "_mun": "113", "_loc": "0006"}, "geometry": {"type": "Polygon", "coordinates": [[[-98.31553, 18.03886], [-98.31384, 18.03859], [-98.31369, 18.03754], [-98.31531, 18.03767], [-98.31553, 18.03886]]]}}, {"id": "1749852", "type": "Feature", "properties": {"id": "1749852", "CVEGEO": "2111300060059024", "POBTOT": 0.0, "score_nse": 0.0, "NSE": null, "VIVTOT": 0.0, "GRAPROES": 0.0, "_ent": "21", "_mun": "113", "_loc": "0006"}, "geometry": {"type": "Polygon", "coordinates": [[[-98.3136, 18.03667], [-98.31356, 18.03567], [-98.31421, 18.03518], [-98.31492, 18.03515], [-98.31517, 18.0368], [-98.3136, 18.03667]]]}}, {"id": "1749853", "type": "Feature", "properties": {"id": "1749853", "CVEGEO": "2111300060059012", "POBTOT": 0.0, "score_nse": 0.0, "NSE": null, "VIVTOT": 0.0, "GRAPROES": 0.0, "_ent": "21", "_mun": "113", "_loc": "0006"}, "geometry": {"type": "Polygon", "coordinates": [[[-98.30924, 18.03616], [-98.30965, 18.03563], [-98.31039, 18.03528], [-98.31025, 18.03633], [-98.30924, 18.03616]]]}}, {"id": "1749854", "type": "Feature", "properties": {"id": "1749854", "CVEGEO": "2111300060059011", "POBTOT": 0.0, "score_nse": 0.0, "NSE": null, "VIVTOT": 0.0, "GRAPROES": 0.0, "_ent": "21", "_mun": "113", "_loc": "0006"}, "geometry": {"type": "Polygon", "coordinates": [[[-98.30878, 18.03616], [-98.30783, 18.03603], [-98.30775, 18.03505], [-98.30943, 18.03455], [-98.30944, 18.03492], [-98.30878, 18.03616]]]}}, {"id": "1749855", "type": "Feature", "properties": {"id": "1749855", "CVEGEO": "2111300060059010", "POBTOT": 0.0, "score_nse": 0.0, "NSE": null, "VIVTOT": 0.0, "GRAPROES": 0.0, "_ent": "21", "_mun": "113", "_loc": "0006"}, "geometry": {"type": "Polygon", "coordinates": [[[-98.30767, 18.03725], [-98.30782, 18.03609], [-98.30857, 18.03643], [-98.30834, 18.03659], [-98.30767, 18.03725]]]}}, {"id": "1749856", "type": "Feature", "properties": {"id": "1749856", "CVEGEO": "2111300060059008", "POBTOT": 0.0, "score_nse": 0.0, "NSE": null, "VIVTOT": 0.0, "GRAPROES": 0.0, "_ent": "21", "_mun": "113", "_loc": "0006"}, "geometry": {"type": "Polygon", "coordinates": [[[-98.31051, 18.04131], [-98.30889, 18.04002], [-98.30778, 18.03937], [-98.30794, 18.03855], [-98.30848, 18.03747], [-98.30996, 18.03759], [-98.31029, 18.03808], [-98.31094, 18.03818], [-98.31051, 18.04131]]]}}, {"id": "1749857", "type": "Feature", "properties": {"id": "1749857", "CVEGEO": "2111300060059007", "POBTOT": 0.0, "score_nse": 0.0, "NSE": null, "VIVTOT": 0.0, "GRAPROES": 0.0, "_ent": "21", "_mun": "113", "_loc": "0006"}, "geometry": {"type": "Polygon", "coordinates": [[[-98.31079, 18.03956], [-98.31101, 18.03819], [-98.31199, 18.03832], [-98.31193, 18.03861], [-98.31135, 18.03881], [-98.31079, 18.03956]]]}}, {"id": "1749865", "type": "Feature", "properties": {"id": "1749865", "CVEGEO": "2111300060059076", "POBTOT": 0.0, "score_nse": 0.0, "NSE": null, "VIVTOT": 0.0, "GRAPROES": 0.0, "_ent": "21", "_mun": "113", "_loc": "0006"}, "geometry": {"type": "Polygon", "coordinates": [[[-98.30244, 18.03694], [-98.30284, 18.0356], [-98.30358, 18.03565], [-98.30319, 18.037], [-98.30244, 18.03694]]]}}, {"id": "1749878", "type": "Feature", "properties": {"id": "1749878", "CVEGEO": "2111300060059029", "POBTOT": 0.0, "score_nse": 0.0, "NSE": null, "VIVTOT": 0.0, "GRAPROES": 0.0, "_ent": "21", "_mun": "113", "_loc": "0006"}, "geometry": {"type": "Polygon", "coordinates": [[[-98.31407, 18.04111], [-98.31265, 18.04125], [-98.31232, 18.04015], [-98.31391, 18.03992], [-98.31407, 18.04111]]]}}, {"id": "1749883", "type": "Feature", "properties": {"id": "1749883", "CVEGEO": "2111300060059025", "POBTOT": 0.0, "score_nse": 0.0, "NSE": null, "VIVTOT": 0.0, "GRAPROES": 0.0, "_ent": "21", "_mun": "113", "_loc": "0006"}, "geometry": {"type": "Polygon", "coordinates": [[[-98.31529, 18.03762], [-98.31369, 18.03747], [-98.31361, 18.03674], [-98.31518, 18.03688], [-98.31529, 18.03762]]]}}, {"id": "1749884", "type": "Feature", "properties": {"id": "1749884", "CVEGEO": "2111300060059023", "POBTOT": 0.0, "score_nse": 0.0, "NSE": null, "VIVTOT": 0.0, "GRAPROES": 0.0, "_ent": "21", "_mun": "113", "_loc": "0006"}, "geometry": {"type": "Polygon", "coordinates": [[[-98.3095, 18.03434], [-98.30843, 18.03486], [-98.30773, 18.03496], [-98.308, 18.03381], [-98.3095, 18.03434]]]}}, {"id": "1749908", "type": "Feature", "properties": {"id": "1749908", "CVEGEO": "2111300060059049", "POBTOT": 0.0, "score_nse": 0.0, "NSE": null, "VIVTOT": 0.0, "GRAPROES": 0.0, "_ent": "21", "_mun": "113", "_loc": "0006"}, "geometry": {"type": "Polygon", "coordinates": [[[-98.30511, 18.0372], [-98.30325, 18.03702], [-98.30366, 18.03565], [-98.30528, 18.03581], [-98.30511, 18.0372]]]}}, {"id": "1749909", "type": "Feature", "properties": {"id": "1749909", "CVEGEO": "2111300060059048", "POBTOT": 0.0, "score_nse": 0.0, "NSE": null, "VIVTOT": 0.0, "GRAPROES": 0.0, "_ent": "21", "_mun": "113", "_loc": "0006"}, "geometry": {"type": "Polygon", "coordinates": [[[-98.305, 18.03825], [-98.30415, 18.03837], [-98.30384, 18.03785], [-98.30344, 18.03764], [-98.30331, 18.03708], [-98.30503, 18.03726], [-98.305, 18.03825]]]}}, {"id": "1749910", "type": "Feature", "properties": {"id": "1749910", "CVEGEO": "2111300060059047", "POBTOT": 0.0, "score_nse": 0.0, "NSE": null, "VIVTOT": 0.0, "GRAPROES": 0.0, "_ent": "21", "_mun": "113", "_loc": "0006"}, "geometry": {"type": "Polygon", "coordinates": [[[-98.31413, 18.04182], [-98.31284, 18.04175], [-98.31271, 18.0413], [-98.3141, 18.04117], [-98.31413, 18.04182]]]}}, {"id": "1749911", "type": "Feature", "properties": {"id": "1749911", "CVEGEO": "2111300060059045", "POBTOT": 0.0, "score_nse": 0.0, "NSE": null, "VIVTOT": 0.0, "GRAPROES": 0.0, "_ent": "21", "_mun": "113", "_loc": "0006"}, "geometry": {"type": "Polygon", "coordinates": [[[-98.31834, 18.04083], [-98.31596, 18.04104], [-98.31576, 18.03974], [-98.31743, 18.03973], [-98.31834, 18.04083]]]}}, {"id": "1749912", "type": "Feature", "properties": {"id": "1749912", "CVEGEO": "2111300060059044", "POBTOT": 0.0, "score_nse": 0.0, "NSE": null, "VIVTOT": 0.0, "GRAPROES": 0.0, "_ent": "21", "_mun": "113", "_loc": "0006"}, "geometry": {"type": "Polygon", "coordinates": [[[-98.31567, 18.03925], [-98.316, 18.03899], [-98.31618, 18.03902], [-98.31732, 18.03966], [-98.31576, 18.03967], [-98.31567, 18.03925]]]}}, {"id": "1749913", "type": "Feature", "properties": {"id": "1749913", "CVEGEO": "2111300060059053", "POBTOT": 0.0, "score_nse": 0.0, "NSE": null, "VIVTOT": 0.0, "GRAPROES": 0.0, "_ent": "21", "_mun": "113", "_loc": "0006"}, "geometry": {"type": "Polygon", "coordinates": [[[-98.30577, 18.03258], [-98.30565, 18.03319], [-98.30502, 18.03308], [-98.30504, 18.03247], [-98.30577, 18.03258]]]}}, {"id": "1749914", "type": "Feature", "properties": {"id": "1749914", "CVEGEO": "2111300060059015", "POBTOT": 0.0, "score_nse": 0.0, "NSE": null, "VIVTOT": 0.0, "GRAPROES": 0.0, "_ent": "21", "_mun": "113", "_loc": "0006"}, "geometry": {"type": "Polygon", "coordinates": [[[-98.31262, 18.03655], [-98.31285, 18.03568], [-98.31349, 18.03566], [-98.31351, 18.03664], [-98.31262, 18.03655]]]}}, {"id": "1749915", "type": "Feature", "properties": {"id": "1749915", "CVEGEO": "2111300060059014", "POBTOT": 0.0, "score_nse": 0.0, "NSE": null, "VIVTOT": 0.0, "GRAPROES": 0.0, "_ent": "21", "_mun": "113", "_loc": "0006"}, "geometry": {"type": "Polygon", "coordinates": [[[-98.31256, 18.03656], [-98.3112, 18.03645], [-98.31141, 18.03538], [-98.31227, 18.03566], [-98.31282, 18.03564], [-98.31256, 18.03656]]]}}, {"id": "1749916", "type": "Feature", "properties": {"id": "1749916", "CVEGEO": "2111300060059005", "POBTOT": 0.0, "score_nse": 0.0, "NSE": null, "VIVTOT": 0.0, "GRAPROES": 0.0, "_ent": "21", "_mun": "113", "_loc": "0006"}, "geometry": {"type": "Polygon", "coordinates": [[[-98.31112, 18.03715], [-98.31122, 18.03651], [-98.31257, 18.03662], [-98.31231, 18.03736], [-98.31112, 18.03715]]]}}, {"id": "1749917", "type": "Feature", "properties": {"id": "1749917", "CVEGEO": "2111300060059004", "POBTOT": 0.0, "score_nse": 0.0, "NSE": null, "VIVTOT": 0.0, "GRAPROES": 0.0, "_ent": "21", "_mun": "113", "_loc": "0006"}, "geometry": {"type": "Polygon", "coordinates": [[[-98.31105, 18.03714], [-98.31042, 18.03699], [-98.31055, 18.03646], [-98.31115, 18.0365], [-98.31105, 18.03714]]]}}, {"id": "1749918", "type": "Feature", "properties": {"id": "1749918", "CVEGEO": "2111300060059003", "POBTOT": 0.0, "score_nse": 0.0, "NSE": null, "VIVTOT": 0.0, "GRAPROES": 0.0, "_ent": "21", "_mun": "113", "_loc": "0006"}, "geometry": {"type": "Polygon", "coordinates": [[[-98.30886, 18.0365], [-98.3092, 18.03623], [-98.31044, 18.03653], [-98.31025, 18.03695], [-98.30886, 18.0365]]]}}, {"id": "1749919", "type": "Feature", "properties": {"id": "1749919", "CVEGEO": "2111300060059006", "POBTOT": 0.0, "score_nse": 0.0, "NSE": null, "VIVTOT": 0.0, "GRAPROES": 0.0, "_ent": "21", "_mun": "113", "_loc": "0006"}, "geometry": {"type": "Polygon", "coordinates": [[[-98.311, 18.03811], [-98.31111, 18.03721], [-98.3123, 18.03741], [-98.312, 18.03825], [-98.311, 18.03811]]]}}, {"id": "1749929", "type": "Feature", "properties": {"id": "1749929", "CVEGEO": "2111300060059046", "POBTOT": 0.0, "score_nse": 0.0, "NSE": null, "VIVTOT": 0.0, "GRAPROES": 0.0, "_ent": "21", "_mun": "113", "_loc": "0006"}, "geometry": {"type": "Polygon", "coordinates": [[[-98.3154, 18.04104], [-98.31518, 18.04185], [-98.31421, 18.04184], [-98.31409, 18.04071], [-98.3154, 18.04104]]]}}, {"id": "1749936", "type": "Feature", "properties": {"id": "1749936", "CVEGEO": "2111300060059037", "POBTOT": 0.0, "score_nse": 0.0, "NSE": null, "VIVTOT": 0.0, "GRAPROES": 0.0, "_ent": "21", "_mun": "113", "_loc": "0006"}, "geometry": {"type": "Polygon", "coordinates": [[[-98.31196, 18.03208], [-98.31174, 18.03273], [-98.31152, 18.03293], [-98.31083, 18.03193], [-98.31196, 18.03208]]]}}, {"id": "1749937", "type": "Feature", "properties": {"id": "1749937", "CVEGEO": "2111300060059020", "POBTOT": 0.0, "score_nse": 0.0, "NSE": null, "VIVTOT": 0.0, "GRAPROES": 0.0, "_ent": "21", "_mun": "113", "_loc": "0006"}, "geometry": {"type": "Polygon", "coordinates": [[[-98.3122, 18.04007], [-98.31069, 18.04033], [-98.3108, 18.03966], [-98.31109, 18.03923], [-98.31145, 18.03883], [-98.31191, 18.03869], [-98.3122, 18.04007]]]}}, {"id": "1749946", "type": "Feature", "properties": {"id": "1749946", "CVEGEO": "2111300060059079", "POBTOT": 0.0, "score_nse": 0.0, "NSE": null, "VIVTOT": 0.0, "GRAPROES": 0.0, "_ent": "21", "_mun": "113", "_loc": "0006"}, "geometry": {"type": "Polygon", "coordinates": [[[-98.30411, 18.03392], [-98.30259, 18.03364], [-98.30234, 18.03313], [-98.30291, 18.03339], [-98.3039, 18.03288], [-98.3043, 18.03307], [-98.30411, 18.03392]]]}}, {"id": "1749947", "type": "Feature", "properties": {"id": "1749947", "CVEGEO": "2111300060059043", "POBTOT": 0.0, "score_nse": 0.0, "NSE": null, "VIVTOT": 0.0, "GRAPROES": 0.0, "_ent": "21", "_mun": "113", "_loc": "0006"}, "geometry": {"type": "Polygon", "coordinates": [[[-98.31594, 18.03891], [-98.31562, 18.03886], [-98.31539, 18.03768], [-98.31605, 18.03771], [-98.31615, 18.03745], [-98.31699, 18.03734], [-98.31685, 18.03825], [-98.31627, 18.03837], [-98.31594, 18.03891]]]}}, {"id": "1749948", "type": "Feature", "properties": {"id": "1749948", "CVEGEO": "2111300060059033", "POBTOT": 0.0, "score_nse": 0.0, "NSE": null, "VIVTOT": 0.0, "GRAPROES": 0.0, "_ent": "21", "_mun": "113", "_loc": "0006"}, "geometry": {"type": "Polygon", "coordinates": [[[-98.30621, 18.03725], [-98.30519, 18.03721], [-98.30525, 18.03671], [-98.30569, 18.0366], [-98.30621, 18.03725]]]}}, {"id": "1749966", "type": "Feature", "properties": {"id": "1749966", "CVEGEO": "2111300060059061", "POBTOT": 0.0, "score_nse": 0.0, "NSE": null, "VIVTOT": 0.0, "GRAPROES": 0.0, "_ent": "21", "_mun": "113", "_loc": "0006"}, "geometry": {"type": "Polygon", "coordinates": [[[-98.31423, 18.04291], [-98.31518, 18.04303], [-98.31552, 18.04286], [-98.31556, 18.04277], [-98.31516, 18.04297], [-98.31408, 18.0428], [-98.31366, 18.04295], [-98.31281, 18.04286], [-98.3128, 18.0418], [-98.31419, 18.0419], [-98.31428, 18.04246], [-98.31427, 18.04192], [-98.31518, 18.04192], [-98.31549, 18.04102], [-98.31564, 18.04105], [-98.31717, 18.04227], [-98.31691, 18.04322], [-98.31725, 18.04406], [-98.31338, 18.04488], [-98.31338, 18.04434], [-98.313, 18.04399], [-98.31281, 18.04352], [-98.31283, 18.04295], [-98.31355, 18.04303], [-98.31411, 18.04288], [-98.31423, 18.04314], [-98.31423, 18.04291]]]}}, {"id": "1749978", "type": "Feature", "properties": {"id": "1749978", "CVEGEO": "2111300060059027", "POBTOT": 0.0, "score_nse": 0.0, "NSE": null, "VIVTOT": 0.0, "GRAPROES": 0.0, "_ent": "21", "_mun": "113", "_loc": "0006"}, "geometry": {"type": "Polygon", "coordinates": [[[-98.31399, 18.03983], [-98.31384, 18.03864], [-98.31412, 18.03868], [-98.31469, 18.03915], [-98.3156, 18.03927], [-98.31567, 18.03968], [-98.31399, 18.03983]]]}}, {"id": "1749984", "type": "Feature", "properties": {"id": "1749984", "CVEGEO": "2111300060059059", "POBTOT": 0.0, "score_nse": 0.0, "NSE": null, "VIVTOT": 0.0, "GRAPROES": 0.0, "_ent": "21", "_mun": "113", "_loc": "0006"}, "geometry": {"type": "Polygon", "coordinates": [[[-98.31837, 18.04087], [-98.31888, 18.04197], [-98.31955, 18.04252], [-98.31826, 18.04288], [-98.31764, 18.04253], [-98.31598, 18.04111], [-98.31837, 18.04087]]]}}, {"id": "1749985", "type": "Feature", "properties": {"id": "1749985", "CVEGEO": "2111300060059060", "POBTOT": 0.0, "score_nse": 0.0, "NSE": null, "VIVTOT": 0.0, "GRAPROES": 0.0, "_ent": "21", "_mun": "113", "_loc": "0006"}, "geometry": {"type": "Polygon", "coordinates": [[[-98.318, 18.04381], [-98.31732, 18.04404], [-98.31699, 18.0432], [-98.31724, 18.04233], [-98.31762, 18.04267], [-98.318, 18.04381]]]}}, {"id": "1749987", "type": "Feature", "properties": {"id": "1749987", "CVEGEO": "2111300060059009", "POBTOT": 0.0, "score_nse": 0.0, "NSE": null, "VIVTOT": 0.0, "GRAPROES": 0.0, "_ent": "21", "_mun": "113", "_loc": "0006"}, "geometry": {"type": "Polygon", "coordinates": [[[-98.30754, 18.03739], [-98.30724, 18.03788], [-98.30687, 18.03737], [-98.30754, 18.03739]]]}}, {"id": "1749989", "type": "Feature", "properties": {"id": "1749989", "CVEGEO": "2111300060059086", "POBTOT": 0.0, "score_nse": 0.0, "NSE": null, "VIVTOT": 0.0, "GRAPROES": 0.0, "_ent": "21", "_mun": "113", "_loc": "0006"}, "geometry": {"type": "Polygon", "coordinates": [[[-98.31557, 18.03918], [-98.31476, 18.03911], [-98.31425, 18.03872], [-98.31554, 18.03892], [-98.31557, 18.03918]]]}}, {"id": "1749990", "type": "Feature", "properties": {"id": "1749990", "CVEGEO": "2111300060059041", "POBTOT": 0.0, "score_nse": 0.0, "NSE": null, "VIVTOT": 0.0, "GRAPROES": 0.0, "_ent": "21", "_mun": "113", "_loc": "0006"}, "geometry": {"type": "Polygon", "coordinates": [[[-98.31549, 18.03531], [-98.31571, 18.0365], [-98.31622, 18.0365], [-98.31617, 18.0369], [-98.31524, 18.0368], [-98.31498, 18.03517], [-98.31549, 18.03531]]]}}, {"id": "1749991", "type": "Feature", "properties": {"id": "1749991", "CVEGEO": "2111300060059087", "POBTOT": 0.0, "score_nse": 0.0, "NSE": null, "VIVTOT": 0.0, "GRAPROES": 0.0, "_ent": "21", "_mun": "113", "_loc": "0006"}, "geometry": {"type": "Polygon", "coordinates": [[[-98.31622, 18.03643], [-98.31577, 18.03643], [-98.3156, 18.03533], [-98.31628, 18.03551], [-98.31622, 18.03643]]]}}, {"id": "1749999", "type": "Feature", "properties": {"id": "1749999", "CVEGEO": "2111300060059070", "POBTOT": 0.0, "score_nse": 0.0, "NSE": null, "VIVTOT": 0.0, "GRAPROES": 0.0, "_ent": "21", "_mun": "113", "_loc": "0006"}, "geometry": {"type": "Polygon", "coordinates": [[[-98.31411, 18.04507], [-98.31421, 18.04539], [-98.31318, 18.04566], [-98.31327, 18.04526], [-98.31411, 18.04507]]]}}, {"id": "1750000", "type": "Feature", "properties": {"id": "1750000", "CVEGEO": "2111300060059088", "POBTOT": 0.0, "score_nse": 0.0, "NSE": null, "VIVTOT": 0.0, "GRAPROES": 0.0, "_ent": "21", "_mun": "113", "_loc": "0006"}, "geometry": {"type": "Polygon", "coordinates": [[[-98.31409, 18.045], [-98.31329, 18.04521], [-98.31338, 18.04502], [-98.31405, 18.04487], [-98.31409, 18.045]]]}}, {"id": "1750003", "type": "Feature", "properties": {"id": "1750003", "CVEGEO": "2111300060059080", "POBTOT": 0.0, "score_nse": 0.0, "NSE": null, "VIVTOT": 0.0, "GRAPROES": 0.0, "_ent": "21", "_mun": "113", "_loc": "0006"}, "geometry": {"type": "Polygon", "coordinates": [[[-98.30691, 18.03345], [-98.30679, 18.03384], [-98.30641, 18.03405], [-98.30642, 18.03342], [-98.30691, 18.03345]]]}}, {"id": "1750004", "type": "Feature", "properties": {"id": "1750004", "CVEGEO": "2111300060059022", "POBTOT": 0.0, "score_nse": 0.0, "NSE": null, "VIVTOT": 0.0, "GRAPROES": 0.0, "_ent": "21", "_mun": "113", "_loc": "0006"}, "geometry": {"type": "Polygon", "coordinates": [[[-98.30667, 18.0359], [-98.30693, 18.03495], [-98.30734, 18.03448], [-98.30759, 18.03362], [-98.30794, 18.03379], [-98.30766, 18.03482], [-98.30774, 18.03602], [-98.30667, 18.0359]]]}}, {"id": "1750005", "type": "Feature", "properties": {"id": "1750005", "CVEGEO": "2111300060059036", "POBTOT": 0.0, "score_nse": 0.0, "NSE": null, "VIVTOT": 0.0, "GRAPROES": 0.0, "_ent": "21", "_mun": "113", "_loc": "0006"}, "geometry": {"type": "Polygon", "coordinates": [[[-98.30649, 18.03409], [-98.30684, 18.03389], [-98.30698, 18.03345], [-98.30752, 18.03358], [-98.30706, 18.03459], [-98.30666, 18.03491], [-98.30644, 18.03468], [-98.30649, 18.03409]]]}}, {"id": "1750006", "type": "Feature", "properties": {"id": "1750006", "CVEGEO": "2111300060059035", "POBTOT": 0.0, "score_nse": 0.0, "NSE": null, "VIVTOT": 0.0, "GRAPROES": 0.0, "_ent": "21", "_mun": "113", "_loc": "0006"}, "geometry": {"type": "Polygon", "coordinates": [[[-98.30658, 18.03587], [-98.30539, 18.03573], [-98.3057, 18.0333], [-98.30637, 18.0334], [-98.30625, 18.0348], [-98.30647, 18.0351], [-98.3068, 18.03516], [-98.30682, 18.03531], [-98.30658, 18.03587]]]}}]}