{"type": "FeatureCollection", "features": [{"id": "1220051", "type": "Feature", "properties": {"id": "1220051", "CVEGEO": "160120058013A033", "POBTOT": 0.0, "score_nse": 0.0, "NSE": null, "VIVTOT": 0.0, "GRAPROES": 0.0, "_ent": "16", "_mun": "012", "_loc": "0058"}, "geometry": {"type": "Polygon", "coordinates": [[[-102.51494, 19.04248], [-102.51505, 19.04238], [-102.51546, 19.04294], [-102.51535, 19.04302], [-102.51494, 19.04248]]]}}, {"id": "1220052", "type": "Feature", "properties": {"id": "1220052", "CVEGEO": "160120058013A032", "POBTOT": 0.0, "score_nse": 0.0, "NSE": null, "VIVTOT": 0.0, "GRAPROES": 0.0, "_ent": "16", "_mun": "012", "_loc": "0058"}, "geometry": {"type": "Polygon", "coordinates": [[[-102.51325, 19.04352], [-102.51433, 19.04493], [-102.5136, 19.04539], [-102.51317, 19.04494], [-102.51343, 19.04473], [-102.51221, 19.04435], [-102.51325, 19.04352]]]}}, {"id": "1220053", "type": "Feature", "properties": {"id": "1220053", "CVEGEO": "160120058013A031", "POBTOT": 0.0, "score_nse": 0.0, "NSE": null, "VIVTOT": 0.0, "GRAPROES": 0.0, "_ent": "16", "_mun": "012", "_loc": "0058"}, "geometry": {"type": "Polygon", "coordinates": [[[-102.51476, 19.03879], [-102.514, 19.03933], [-102.51372, 19.03894], [-102.51389, 19.03937], [-102.5132, 19.03988], [-102.51199, 19.03858], [-102.51296, 19.0388], [-102.51354, 19.03865], [-102.51438, 19.0381], [-102.51476, 19.03879]]]}}, {"id": "1220059", "type": "Feature", "properties": {"id": "1220059", "CVEGEO": "160120058013A010", "POBTOT": 0.0, "score_nse": 0.0, "NSE": null, "VIVTOT": 0.0, "GRAPROES": 0.0, "_ent": "16", "_mun": "012", "_loc": "0058"}, "geometry": {"type": "Polygon", "coordinates": [[[-102.51392, 19.04419], [-102.51459, 19.04374], [-102.51506, 19.04439], [-102.51443, 19.04488], [-102.51392, 19.04419]]]}}, {"id": "1220391", "type": "Feature", "properties": {"id": "1220391", "CVEGEO": "160120058013A027", "POBTOT": 0.0, "score_nse": 0.0, "NSE": null, "VIVTOT": 0.0, "GRAPROES": 0.0, "_ent": "16", "_mun": "012", "_loc": "0058"}, "geometry": {"type": "Polygon", "coordinates": [[[-102.51258, 19.04372], [-102.51163, 19.04305], [-102.51084, 19.04263], [-102.51204, 19.04188], [-102.51312, 19.0433], [-102.51258, 19.04372]]]}}, {"id": "1220392", "type": "Feature", "properties": {"id": "1220392", "CVEGEO": "160120058013A009", "POBTOT": 0.0, "score_nse": 0.0, "NSE": null, "VIVTOT": 0.0, "GRAPROES": 0.0, "_ent": "16", "_mun": "012", "_loc": "0058"}, "geometry": {"type": "Polygon", "coordinates": [[[-102.51468, 19.04369], [-102.51538, 19.04318], [-102.51583, 19.04386], [-102.51515, 19.04432], [-102.51468, 19.04369]]]}}, {"id": "1220393", "type": "Feature", "properties": {"id": "1220393", "CVEGEO": "160120058013A008", "POBTOT": 0.0, "score_nse": 0.0, "NSE": null, "VIVTOT": 0.0, "GRAPROES": 0.0, "_ent": "16", "_mun": "012", "_loc": "0058"}, "geometry": {"type": "Polygon", "coordinates": [[[-102.51564, 19.04299], [-102.51624, 19.04254], [-102.5168, 19.04325], [-102.51611, 19.04372], [-102.51564, 19.04299]]]}}, {"id": "1220394", "type": "Feature", "properties": {"id": "1220394", "CVEGEO": "160120058013A007", "POBTOT": 0.0, "score_nse": 0.0, "NSE": null, "VIVTOT": 0.0, "GRAPROES": 0.0, "_ent": "16", "_mun": "012", "_loc": "0058"}, "geometry": {"type": "Polygon", "coordinates": [[[-102.51635, 19.0425], [-102.51706, 19.04202], [-102.51756, 19.04272], [-102.51691, 19.04318], [-102.51635, 19.0425]]]}}, {"id": "1220544", "type": "Feature", "properties": {"id": "1220544", "CVEGEO": "160120058013A026", "POBTOT": 0.0, "score_nse": 0.0, "NSE": null, "VIVTOT": 0.0, "GRAPROES": 0.0, "_ent": "16", "_mun": "012", "_loc": "0058"}, "geometry": {"type": "Polygon", "coordinates": [[[-102.51584, 19.04508], [-102.51821, 19.04355], [-102.51841, 19.04396], [-102.51791, 19.04429], [-102.51648, 19.04517], [-102.51604, 19.04534], [-102.51584, 19.04508]]]}}, {"id": "1220545", "type": "Feature", "properties": {"id": "1220545", "CVEGEO": "160120058013A016", "POBTOT": 0.0, "score_nse": 0.0, "NSE": null, "VIVTOT": 0.0, "GRAPROES": 0.0, "_ent": "16", "_mun": "012", "_loc": "0058"}, "geometry": {"type": "Polygon", "coordinates": [[[-102.5146, 19.04012], [-102.51531, 19.03966], [-102.51581, 19.04028], [-102.51511, 19.04079], [-102.5146, 19.04012]]]}}, {"id": "1220546", "type": "Feature", "properties": {"id": "1220546", "CVEGEO": "160120058013A015", "POBTOT": 0.0, "score_nse": 0.0, "NSE": null, "VIVTOT": 0.0, "GRAPROES": 0.0, "_ent": "16", "_mun": "012", "_loc": "0058"}, "geometry": {"type": "Polygon", "coordinates": [[[-102.51385, 19.04074], [-102.51448, 19.04019], [-102.515, 19.04086], [-102.51435, 19.04134], [-102.51385, 19.04074]]]}}, {"id": "1220547", "type": "Feature", "properties": {"id": "1220547", "CVEGEO": "160120058013A014", "POBTOT": 0.0, "score_nse": 0.0, "NSE": null, "VIVTOT": 0.0, "GRAPROES": 0.0, "_ent": "16", "_mun": "012", "_loc": "0058"}, "geometry": {"type": "Polygon", "coordinates": [[[-102.51291, 19.04132], [-102.51363, 19.04084], [-102.51411, 19.04148], [-102.51339, 19.04193], [-102.51291, 19.04132]]]}}, {"id": "1220548", "type": "Feature", "properties": {"id": "1220548", "CVEGEO": "160120058013A013", "POBTOT": 0.0, "score_nse": 0.0, "NSE": null, "VIVTOT": 0.0, "GRAPROES": 0.0, "_ent": "16", "_mun": "012", "_loc": "0058"}, "geometry": {"type": "Polygon", "coordinates": [[[-102.51216, 19.04183], [-102.51279, 19.04139], [-102.5133, 19.04199], [-102.51262, 19.04246], [-102.51216, 19.04183]]]}}, {"id": "1220549", "type": "Feature", "properties": {"id": "1220549", "CVEGEO": "160120058013A012", "POBTOT": 0.0, "score_nse": 0.0, "NSE": null, "VIVTOT": 0.0, "GRAPROES": 0.0, "_ent": "16", "_mun": "012", "_loc": "0058"}, "geometry": {"type": "Polygon", "coordinates": [[[-102.51269, 19.04254], [-102.51336, 19.04207], [-102.51388, 19.04274], [-102.51317, 19.04324], [-102.51269, 19.04254]]]}}, {"id": "1220550", "type": "Feature", "properties": {"id": "1220550", "CVEGEO": "160120058013A011", "POBTOT": 0.0, "score_nse": 0.0, "NSE": null, "VIVTOT": 0.0, "GRAPROES": 0.0, "_ent": "16", "_mun": "012", "_loc": "0058"}, "geometry": {"type": "Polygon", "coordinates": [[[-102.51331, 19.04345], [-102.514, 19.04297], [-102.5145, 19.04364], [-102.51386, 19.0441], [-102.51331, 19.04345]]]}}, {"id": "1220572", "type": "Feature", "properties": {"id": "1220572", "CVEGEO": "160120058013A030", "POBTOT": 0.0, "score_nse": 0.0, "NSE": null, "VIVTOT": 0.0, "GRAPROES": 0.0, "_ent": "16", "_mun": "012", "_loc": "0058"}, "geometry": {"type": "Polygon", "coordinates": [[[-102.51182, 19.03986], [-102.51249, 19.03935], [-102.51301, 19.04002], [-102.51229, 19.04053], [-102.51182, 19.03986]]]}}, {"id": "1220573", "type": "Feature", "properties": {"id": "1220573", "CVEGEO": "160120058013A029", "POBTOT": 0.0, "score_nse": 0.0, "NSE": null, "VIVTOT": 0.0, "GRAPROES": 0.0, "_ent": "16", "_mun": "012", "_loc": "0058"}, "geometry": {"type": "Polygon", "coordinates": [[[-102.51102, 19.04038], [-102.51173, 19.03991], [-102.5122, 19.0406], [-102.51152, 19.04102], [-102.51102, 19.04038]]]}}, {"id": "1220574", "type": "Feature", "properties": {"id": "1220574", "CVEGEO": "160120058013A028", "POBTOT": 0.0, "score_nse": 0.0, "NSE": null, "VIVTOT": 0.0, "GRAPROES": 0.0, "_ent": "16", "_mun": "012", "_loc": "0058"}, "geometry": {"type": "Polygon", "coordinates": [[[-102.5103, 19.03958], [-102.51083, 19.03858], [-102.51127, 19.03892], [-102.51096, 19.03923], [-102.51188, 19.0386], [-102.51239, 19.03933], [-102.51084, 19.04037], [-102.51046, 19.04], [-102.5103, 19.03958]]]}}, {"id": "1220945", "type": "Feature", "properties": {"id": "1220945", "CVEGEO": "160120058013A025", "POBTOT": 0.0, "score_nse": 0.0, "NSE": null, "VIVTOT": 0.0, "GRAPROES": 0.0, "_ent": "16", "_mun": "012", "_loc": "0058"}, "geometry": {"type": "Polygon", "coordinates": [[[-102.51406, 19.0394], [-102.51475, 19.03897], [-102.51524, 19.03955], [-102.51453, 19.04], [-102.51406, 19.0394]]]}}, {"id": "1220946", "type": "Feature", "properties": {"id": "1220946", "CVEGEO": "160120058013A024", "POBTOT": 0.0, "score_nse": 0.0, "NSE": null, "VIVTOT": 0.0, "GRAPROES": 0.0, "_ent": "16", "_mun": "012", "_loc": "0058"}, "geometry": {"type": "Polygon", "coordinates": [[[-102.51326, 19.03994], [-102.51393, 19.03946], [-102.51441, 19.04008], [-102.51379, 19.04063], [-102.51326, 19.03994]]]}}, {"id": "1220947", "type": "Feature", "properties": {"id": "1220947", "CVEGEO": "160120058013A023", "POBTOT": 0.0, "score_nse": 0.0, "NSE": null, "VIVTOT": 0.0, "GRAPROES": 0.0, "_ent": "16", "_mun": "012", "_loc": "0058"}, "geometry": {"type": "Polygon", "coordinates": [[[-102.51234, 19.0406], [-102.51307, 19.04008], [-102.51356, 19.04073], [-102.51285, 19.04122], [-102.51234, 19.0406]]]}}, {"id": "1220948", "type": "Feature", "properties": {"id": "1220948", "CVEGEO": "160120058013A022", "POBTOT": 0.0, "score_nse": 0.0, "NSE": null, "VIVTOT": 0.0, "GRAPROES": 0.0, "_ent": "16", "_mun": "012", "_loc": "0058"}, "geometry": {"type": "Polygon", "coordinates": [[[-102.51158, 19.04108], [-102.51225, 19.04067], [-102.51275, 19.04127], [-102.51209, 19.04174], [-102.51158, 19.04108]]]}}, {"id": "1220949", "type": "Feature", "properties": {"id": "1220949", "CVEGEO": "160120058013A021", "POBTOT": 0.0, "score_nse": 0.0, "NSE": null, "VIVTOT": 0.0, "GRAPROES": 0.0, "_ent": "16", "_mun": "012", "_loc": "0058"}, "geometry": {"type": "Polygon", "coordinates": [[[-102.51448, 19.04497], [-102.5151, 19.04448], [-102.51559, 19.04512], [-102.51495, 19.04548], [-102.51448, 19.04497]]]}}, {"id": "1220950", "type": "Feature", "properties": {"id": "1220950", "CVEGEO": "160120058013A020", "POBTOT": 0.0, "score_nse": 0.0, "NSE": null, "VIVTOT": 0.0, "GRAPROES": 0.0, "_ent": "16", "_mun": "012", "_loc": "0058"}, "geometry": {"type": "Polygon", "coordinates": [[[-102.51521, 19.04441], [-102.5159, 19.04394], [-102.51644, 19.04457], [-102.5157, 19.04506], [-102.51521, 19.04441]]]}}, {"id": "1220951", "type": "Feature", "properties": {"id": "1220951", "CVEGEO": "160120058013A019", "POBTOT": 0.0, "score_nse": 0.0, "NSE": null, "VIVTOT": 0.0, "GRAPROES": 0.0, "_ent": "16", "_mun": "012", "_loc": "0058"}, "geometry": {"type": "Polygon", "coordinates": [[[-102.51617, 19.04383], [-102.51686, 19.04334], [-102.51736, 19.04398], [-102.51663, 19.04443], [-102.51617, 19.04383]]]}}, {"id": "1220952", "type": "Feature", "properties": {"id": "1220952", "CVEGEO": "160120058013A018", "POBTOT": 0.0, "score_nse": 0.0, "NSE": null, "VIVTOT": 0.0, "GRAPROES": 0.0, "_ent": "16", "_mun": "012", "_loc": "0058"}, "geometry": {"type": "Polygon", "coordinates": [[[-102.51698, 19.04327], [-102.51763, 19.04279], [-102.51818, 19.04347], [-102.51747, 19.04392], [-102.51698, 19.04327]]]}}, {"id": "1220953", "type": "Feature", "properties": {"id": "1220953", "CVEGEO": "160120058013A017", "POBTOT": 0.0, "score_nse": 0.0, "NSE": null, "VIVTOT": 0.0, "GRAPROES": 0.0, "_ent": "16", "_mun": "012", "_loc": "0058"}, "geometry": {"type": "Polygon", "coordinates": [[[-102.5152, 19.03882], [-102.51579, 19.0393], [-102.5169, 19.04088], [-102.51653, 19.04109], [-102.51483, 19.03892], [-102.5152, 19.03882]]]}}, {"id": "1220954", "type": "Feature", "properties": {"id": "1220954", "CVEGEO": "160120058013A006", "POBTOT": 0.0, "score_nse": 0.0, "NSE": null, "VIVTOT": 0.0, "GRAPROES": 0.0, "_ent": "16", "_mun": "012", "_loc": "0058"}, "geometry": {"type": "Polygon", "coordinates": [[[-102.5158, 19.04181], [-102.51652, 19.04128], [-102.517, 19.04194], [-102.51628, 19.04242], [-102.5158, 19.04181]]]}}, {"id": "1220955", "type": "Feature", "properties": {"id": "1220955", "CVEGEO": "160120058013A005", "POBTOT": 0.0, "score_nse": 0.0, "NSE": null, "VIVTOT": 0.0, "GRAPROES": 0.0, "_ent": "16", "_mun": "012", "_loc": "0058"}, "geometry": {"type": "Polygon", "coordinates": [[[-102.51518, 19.04091], [-102.51588, 19.0404], [-102.51641, 19.04109], [-102.51566, 19.04157], [-102.51518, 19.04091]]]}}, {"id": "1220956", "type": "Feature", "properties": {"id": "1220956", "CVEGEO": "160120058013A004", "POBTOT": 0.0, "score_nse": 0.0, "NSE": null, "VIVTOT": 0.0, "GRAPROES": 0.0, "_ent": "16", "_mun": "012", "_loc": "0058"}, "geometry": {"type": "Polygon", "coordinates": [[[-102.51444, 19.04145], [-102.51509, 19.04096], [-102.51557, 19.04162], [-102.51493, 19.04204], [-102.51444, 19.04145]]]}}, {"id": "1220957", "type": "Feature", "properties": {"id": "1220957", "CVEGEO": "160120058013A003", "POBTOT": 0.0, "score_nse": 0.0, "NSE": null, "VIVTOT": 0.0, "GRAPROES": 0.0, "_ent": "16", "_mun": "012", "_loc": "0058"}, "geometry": {"type": "Polygon", "coordinates": [[[-102.51345, 19.04202], [-102.51417, 19.04155], [-102.51467, 19.04221], [-102.51396, 19.04266], [-102.51345, 19.04202]]]}}, {"id": "1220958", "type": "Feature", "properties": {"id": "1220958", "CVEGEO": "160120058013A002", "POBTOT": 0.0, "score_nse": 0.0, "NSE": null, "VIVTOT": 0.0, "GRAPROES": 0.0, "_ent": "16", "_mun": "012", "_loc": "0058"}, "geometry": {"type": "Polygon", "coordinates": [[[-102.51411, 19.04292], [-102.51479, 19.04248], [-102.51529, 19.04309], [-102.51461, 19.04359], [-102.51411, 19.04292]]]}}, {"id": "1220959", "type": "Feature", "properties": {"id": "1220959", "CVEGEO": "160120058013A001", "POBTOT": 0.0, "score_nse": 0.0, "NSE": null, "VIVTOT": 0.0, "GRAPROES": 0.0, "_ent": "16", "_mun": "012", "_loc": "0058"}, "geometry": {"type": "Polygon", "coordinates": [[[-102.51511, 19.04227], [-102.51574, 19.04186], [-102.51619, 19.04247], [-102.51556, 19.04289], [-102.51511, 19.04227]]]}}, {"id": "1221741", "type": "Feature", "properties": {"id": "1221741", "CVEGEO": "160120058013A034", "POBTOT": 0.0, "score_nse": 0.0, "NSE": null, "VIVTOT": 0.0, "GRAPROES": 0.0, "_ent": "16", "_mun": "012", "_loc": "0058"}, "geometry": {"type": "Polygon", "coordinates": [[[-102.51893, 19.043], [-102.51825, 19.04342], [-102.51769, 19.04274], [-102.51808, 19.04235], [-102.51763, 19.04267], [-102.51713, 19.04197], [-102.51782, 19.04152], [-102.51893, 19.043]]]}}, {"id": "1221742", "type": "Feature", "properties": {"id": "1221742", "CVEGEO": "160120058013A035", "POBTOT": 0.0, "score_nse": 0.0, "NSE": null, "VIVTOT": 0.0, "GRAPROES": 0.0, "_ent": "16", "_mun": "012", "_loc": "0058"}, "geometry": {"type": "Polygon", "coordinates": [[[-102.51775, 19.04144], [-102.51708, 19.04189], [-102.51658, 19.04119], [-102.51727, 19.04084], [-102.51775, 19.04144]]]}}]}