{"type": "FeatureCollection", "features": [{"id": "919849", "type": "Feature", "properties": {"id": "919849", "CVEGEO": "1402901450068029", "POBTOT": 0.0, "score_nse": 0.0, "NSE": null, "VIVTOT": 0.0, "GRAPROES": 0.0, "_ent": "14", "_mun": "029", "_loc": "0145"}, "geometry": {"type": "Polygon", "coordinates": [[[-103.02415, 20.94746], [-103.02421, 20.94862], [-103.02358, 20.94871], [-103.02369, 20.94741], [-103.02415, 20.94746]]]}}, {"id": "919891", "type": "Feature", "properties": {"id": "919891", "CVEGEO": "1402901450068013", "POBTOT": 0.0, "score_nse": 0.0, "NSE": null, "VIVTOT": 0.0, "GRAPROES": 0.0, "_ent": "14", "_mun": "029", "_loc": "0145"}, "geometry": {"type": "Polygon", "coordinates": [[[-103.02348, 20.94412], [-103.02367, 20.94291], [-103.02351, 20.94205], [-103.02422, 20.94214], [-103.02381, 20.94482], [-103.0231, 20.94487], [-103.0232, 20.94411], [-103.02348, 20.94412]]]}}, {"id": "919892", "type": "Feature", "properties": {"id": "919892", "CVEGEO": "1402901450068012", "POBTOT": 0.0, "score_nse": 0.0, "NSE": null, "VIVTOT": 0.0, "GRAPROES": 0.0, "_ent": "14", "_mun": "029", "_loc": "0145"}, "geometry": {"type": "Polygon", "coordinates": [[[-103.02305, 20.94487], [-103.02231, 20.9449], [-103.02222, 20.94405], [-103.02315, 20.94411], [-103.02305, 20.94487]]]}}, {"id": "919952", "type": "Feature", "properties": {"id": "919952", "CVEGEO": "1402901450068011", "POBTOT": 0.0, "score_nse": 0.0, "NSE": null, "VIVTOT": 0.0, "GRAPROES": 0.0, "_ent": "14", "_mun": "029", "_loc": "0145"}, "geometry": {"type": "Polygon", "coordinates": [[[-103.02226, 20.94489], [-103.02166, 20.94492], [-103.02156, 20.94403], [-103.02214, 20.94406], [-103.02226, 20.94489]]]}}, {"id": "919966", "type": "Feature", "properties": {"id": "919966", "CVEGEO": "1402901450068028", "POBTOT": 0.0, "score_nse": 0.0, "NSE": null, "VIVTOT": 0.0, "GRAPROES": 0.0, "_ent": "14", "_mun": "029", "_loc": "0145"}, "geometry": {"type": "Polygon", "coordinates": [[[-103.02636, 20.94485], [-103.02602, 20.94484], [-103.0263, 20.94356], [-103.02669, 20.94355], [-103.02636, 20.94485]]]}}, {"id": "919982", "type": "Feature", "properties": {"id": "919982", "CVEGEO": "1402901450068022", "POBTOT": 0.0, "score_nse": 0.0, "NSE": null, "VIVTOT": 0.0, "GRAPROES": 0.0, "_ent": "14", "_mun": "029", "_loc": "0145"}, "geometry": {"type": "Polygon", "coordinates": [[[-103.02217, 20.94891], [-103.02161, 20.949], [-103.02107, 20.94784], [-103.02112, 20.94751], [-103.0216, 20.94752], [-103.02157, 20.94783], [-103.02166, 20.94752], [-103.0222, 20.94757], [-103.02217, 20.94891]]]}}, {"id": "919983", "type": "Feature", "properties": {"id": "919983", "CVEGEO": "1402901450068004", "POBTOT": 0.0, "score_nse": 0.0, "NSE": null, "VIVTOT": 0.0, "GRAPROES": 0.0, "_ent": "14", "_mun": "029", "_loc": "0145"}, "geometry": {"type": "Polygon", "coordinates": [[[-103.02236, 20.94494], [-103.02303, 20.94491], [-103.02287, 20.94581], [-103.0224, 20.94579], [-103.02236, 20.94494]]]}}, {"id": "919995", "type": "Feature", "properties": {"id": "919995", "CVEGEO": "1402901450068036", "POBTOT": 0.0, "score_nse": 0.0, "NSE": null, "VIVTOT": 0.0, "GRAPROES": 0.0, "_ent": "14", "_mun": "029", "_loc": "0145"}, "geometry": {"type": "Polygon", "coordinates": [[[-103.02452, 20.94745], [-103.02369, 20.94734], [-103.024, 20.94476], [-103.02445, 20.94485], [-103.02448, 20.94632], [-103.02422, 20.94635], [-103.02448, 20.94638], [-103.02449, 20.94677], [-103.02438, 20.94677], [-103.02451, 20.94683], [-103.02452, 20.94745]]]}}, {"id": "919996", "type": "Feature", "properties": {"id": "919996", "CVEGEO": "1402901450068021", "POBTOT": 0.0, "score_nse": 0.0, "NSE": null, "VIVTOT": 0.0, "GRAPROES": 0.0, "_ent": "14", "_mun": "029", "_loc": "0145"}, "geometry": {"type": "Polygon", "coordinates": [[[-103.0229, 20.94761], [-103.02287, 20.94814], [-103.02336, 20.94815], [-103.02335, 20.94877], [-103.02221, 20.94892], [-103.02229, 20.94758], [-103.0229, 20.94761]]]}}, {"id": "919997", "type": "Feature", "properties": {"id": "919997", "CVEGEO": "1402901450068020", "POBTOT": 0.0, "score_nse": 0.0, "NSE": null, "VIVTOT": 0.0, "GRAPROES": 0.0, "_ent": "14", "_mun": "029", "_loc": "0145"}, "geometry": {"type": "Polygon", "coordinates": [[[-103.02594, 20.94485], [-103.02579, 20.94486], [-103.02583, 20.94375], [-103.02619, 20.94376], [-103.02594, 20.94485]]]}}, {"id": "919998", "type": "Feature", "properties": {"id": "919998", "CVEGEO": "1402901450068019", "POBTOT": 0.0, "score_nse": 0.0, "NSE": null, "VIVTOT": 0.0, "GRAPROES": 0.0, "_ent": "14", "_mun": "029", "_loc": "0145"}, "geometry": {"type": "Polygon", "coordinates": [[[-103.02569, 20.94483], [-103.02518, 20.94486], [-103.02527, 20.94375], [-103.02575, 20.9438], [-103.02569, 20.94483]]]}}, {"id": "919999", "type": "Feature", "properties": {"id": "919999", "CVEGEO": "1402901450068018", "POBTOT": 0.0, "score_nse": 0.0, "NSE": null, "VIVTOT": 0.0, "GRAPROES": 0.0, "_ent": "14", "_mun": "029", "_loc": "0145"}, "geometry": {"type": "Polygon", "coordinates": [[[-103.0251, 20.94486], [-103.02453, 20.9448], [-103.02474, 20.94377], [-103.0252, 20.94373], [-103.0251, 20.94486]]]}}, {"id": "920000", "type": "Feature", "properties": {"id": "920000", "CVEGEO": "1402901450068017", "POBTOT": 0.0, "score_nse": 0.0, "NSE": null, "VIVTOT": 0.0, "GRAPROES": 0.0, "_ent": "14", "_mun": "029", "_loc": "0145"}, "geometry": {"type": "Polygon", "coordinates": [[[-103.02397, 20.94471], [-103.02411, 20.94381], [-103.02465, 20.94377], [-103.02448, 20.94479], [-103.02397, 20.94471]]]}}, {"id": "920001", "type": "Feature", "properties": {"id": "920001", "CVEGEO": "1402901450068016", "POBTOT": 0.0, "score_nse": 0.0, "NSE": null, "VIVTOT": 0.0, "GRAPROES": 0.0, "_ent": "14", "_mun": "029", "_loc": "0145"}, "geometry": {"type": "Polygon", "coordinates": [[[-103.0209, 20.94743], [-103.02087, 20.94689], [-103.02226, 20.94697], [-103.02223, 20.94751], [-103.0209, 20.94743]]]}}, {"id": "920002", "type": "Feature", "properties": {"id": "920002", "CVEGEO": "1402901450068015", "POBTOT": 0.0, "score_nse": 0.0, "NSE": null, "VIVTOT": 0.0, "GRAPROES": 0.0, "_ent": "14", "_mun": "029", "_loc": "0145"}, "geometry": {"type": "Polygon", "coordinates": [[[-103.02297, 20.94756], [-103.02229, 20.94752], [-103.02234, 20.94701], [-103.02341, 20.94702], [-103.02334, 20.94809], [-103.02295, 20.94808], [-103.02297, 20.94756]]]}}, {"id": "920003", "type": "Feature", "properties": {"id": "920003", "CVEGEO": "1402901450068002", "POBTOT": 0.0, "score_nse": 0.0, "NSE": null, "VIVTOT": 0.0, "GRAPROES": 0.0, "_ent": "14", "_mun": "029", "_loc": "0145"}, "geometry": {"type": "Polygon", "coordinates": [[[-103.02117, 20.94572], [-103.02113, 20.94498], [-103.0216, 20.94499], [-103.02166, 20.94574], [-103.02117, 20.94572]]]}}, {"id": "920004", "type": "Feature", "properties": {"id": "920004", "CVEGEO": "1402901450068001", "POBTOT": 0.0, "score_nse": 0.0, "NSE": null, "VIVTOT": 0.0, "GRAPROES": 0.0, "_ent": "14", "_mun": "029", "_loc": "0145"}, "geometry": {"type": "Polygon", "coordinates": [[[-103.021, 20.94573], [-103.02238, 20.94587], [-103.02237, 20.94633], [-103.02093, 20.94622], [-103.021, 20.94573]]]}}, {"id": "920008", "type": "Feature", "properties": {"id": "920008", "CVEGEO": "1402901450068033", "POBTOT": 0.0, "score_nse": 0.0, "NSE": null, "VIVTOT": 0.0, "GRAPROES": 0.0, "_ent": "14", "_mun": "029", "_loc": "0145"}, "geometry": {"type": "Polygon", "coordinates": [[[-103.02353, 20.94942], [-103.0268, 20.95037], [-103.02469, 20.95174], [-103.02451, 20.95233], [-103.02419, 20.95253], [-103.02348, 20.95209], [-103.02353, 20.94942]]]}}, {"id": "920090", "type": "Feature", "properties": {"id": "920090", "CVEGEO": "1402901450068027", "POBTOT": 0.0, "score_nse": 0.0, "NSE": null, "VIVTOT": 0.0, "GRAPROES": 0.0, "_ent": "14", "_mun": "029", "_loc": "0145"}, "geometry": {"type": "Polygon", "coordinates": [[[-103.02646, 20.94488], [-103.02674, 20.94355], [-103.02714, 20.94352], [-103.02683, 20.94488], [-103.02646, 20.94488]]]}}, {"id": "920091", "type": "Feature", "properties": {"id": "920091", "CVEGEO": "1402901450068026", "POBTOT": 0.0, "score_nse": 0.0, "NSE": null, "VIVTOT": 0.0, "GRAPROES": 0.0, "_ent": "14", "_mun": "029", "_loc": "0145"}, "geometry": {"type": "Polygon", "coordinates": [[[-103.02113, 20.94401], [-103.02106, 20.94494], [-103.02055, 20.94497], [-103.02063, 20.94432], [-103.02113, 20.94401]]]}}, {"id": "920092", "type": "Feature", "properties": {"id": "920092", "CVEGEO": "1402901450068025", "POBTOT": 0.0, "score_nse": 0.0, "NSE": null, "VIVTOT": 0.0, "GRAPROES": 0.0, "_ent": "14", "_mun": "029", "_loc": "0145"}, "geometry": {"type": "Polygon", "coordinates": [[[-103.02105, 20.945], [-103.02086, 20.94621], [-103.02037, 20.94618], [-103.02054, 20.94503], [-103.02105, 20.945]]]}}, {"id": "920093", "type": "Feature", "properties": {"id": "920093", "CVEGEO": "1402901450068024", "POBTOT": 0.0, "score_nse": 0.0, "NSE": null, "VIVTOT": 0.0, "GRAPROES": 0.0, "_ent": "14", "_mun": "029", "_loc": "0145"}, "geometry": {"type": "Polygon", "coordinates": [[[-103.0204, 20.94632], [-103.02083, 20.94631], [-103.02073, 20.94741], [-103.02025, 20.94737], [-103.0204, 20.94632]]]}}, {"id": "920094", "type": "Feature", "properties": {"id": "920094", "CVEGEO": "1402901450068023", "POBTOT": 0.0, "score_nse": 0.0, "NSE": null, "VIVTOT": 0.0, "GRAPROES": 0.0, "_ent": "14", "_mun": "029", "_loc": "0145"}, "geometry": {"type": "Polygon", "coordinates": [[[-103.02042, 20.94799], [-103.02041, 20.94744], [-103.02103, 20.94751], [-103.02101, 20.94788], [-103.02154, 20.94902], [-103.02119, 20.94907], [-103.02042, 20.94799]]]}}, {"id": "920134", "type": "Feature", "properties": {"id": "920134", "CVEGEO": "1402901450068031", "POBTOT": 0.0, "score_nse": 0.0, "NSE": null, "VIVTOT": 0.0, "GRAPROES": 0.0, "_ent": "14", "_mun": "029", "_loc": "0145"}, "geometry": {"type": "Polygon", "coordinates": [[[-103.02336, 20.95117], [-103.02286, 20.95138], [-103.0213, 20.94923], [-103.02198, 20.94912], [-103.02209, 20.94967], [-103.02224, 20.95002], [-103.02204, 20.94914], [-103.02274, 20.94906], [-103.02279, 20.95016], [-103.0228, 20.94903], [-103.0234, 20.94896], [-103.02336, 20.95117]]]}}, {"id": "920135", "type": "Feature", "properties": {"id": "920135", "CVEGEO": "1402901450068010", "POBTOT": 0.0, "score_nse": 0.0, "NSE": null, "VIVTOT": 0.0, "GRAPROES": 0.0, "_ent": "14", "_mun": "029", "_loc": "0145"}, "geometry": {"type": "Polygon", "coordinates": [[[-103.02112, 20.94493], [-103.02117, 20.94404], [-103.02148, 20.94404], [-103.02161, 20.94491], [-103.02112, 20.94493]]]}}, {"id": "920136", "type": "Feature", "properties": {"id": "920136", "CVEGEO": "1402901450068008", "POBTOT": 0.0, "score_nse": 0.0, "NSE": null, "VIVTOT": 0.0, "GRAPROES": 0.0, "_ent": "14", "_mun": "029", "_loc": "0145"}, "geometry": {"type": "Polygon", "coordinates": [[[-103.02092, 20.94629], [-103.02232, 20.94643], [-103.02229, 20.94692], [-103.02088, 20.94682], [-103.02092, 20.94629]]]}}, {"id": "920137", "type": "Feature", "properties": {"id": "920137", "CVEGEO": "1402901450068007", "POBTOT": 0.0, "score_nse": 0.0, "NSE": null, "VIVTOT": 0.0, "GRAPROES": 0.0, "_ent": "14", "_mun": "029", "_loc": "0145"}, "geometry": {"type": "Polygon", "coordinates": [[[-103.0235, 20.94698], [-103.02234, 20.94691], [-103.02239, 20.94639], [-103.02355, 20.94649], [-103.0235, 20.94698]]]}}, {"id": "920138", "type": "Feature", "properties": {"id": "920138", "CVEGEO": "1402901450068006", "POBTOT": 0.0, "score_nse": 0.0, "NSE": null, "VIVTOT": 0.0, "GRAPROES": 0.0, "_ent": "14", "_mun": "029", "_loc": "0145"}, "geometry": {"type": "Polygon", "coordinates": [[[-103.02242, 20.94631], [-103.02246, 20.9459], [-103.02362, 20.94588], [-103.02356, 20.94645], [-103.02242, 20.94631]]]}}, {"id": "920139", "type": "Feature", "properties": {"id": "920139", "CVEGEO": "1402901450068005", "POBTOT": 0.0, "score_nse": 0.0, "NSE": null, "VIVTOT": 0.0, "GRAPROES": 0.0, "_ent": "14", "_mun": "029", "_loc": "0145"}, "geometry": {"type": "Polygon", "coordinates": [[[-103.02309, 20.94491], [-103.0238, 20.94491], [-103.02368, 20.94584], [-103.02292, 20.94584], [-103.02309, 20.94491]]]}}, {"id": "920177", "type": "Feature", "properties": {"id": "920177", "CVEGEO": "1402901450068003", "POBTOT": 0.0, "score_nse": 0.0, "NSE": null, "VIVTOT": 0.0, "GRAPROES": 0.0, "_ent": "14", "_mun": "029", "_loc": "0145"}, "geometry": {"type": "Polygon", "coordinates": [[[-103.02167, 20.94497], [-103.02229, 20.94494], [-103.02235, 20.94579], [-103.02174, 20.94576], [-103.02167, 20.94497]]]}}, {"id": "920260", "type": "Feature", "properties": {"id": "920260", "CVEGEO": "1402901450068030", "POBTOT": 0.0, "score_nse": 0.0, "NSE": null, "VIVTOT": 0.0, "GRAPROES": 0.0, "_ent": "14", "_mun": "029", "_loc": "0145"}, "geometry": {"type": "Polygon", "coordinates": [[[-103.0278, 20.94988], [-103.0272, 20.95018], [-103.02638, 20.95011], [-103.02587, 20.94847], [-103.02716, 20.94806], [-103.0278, 20.94988]]]}}, {"id": "920261", "type": "Feature", "properties": {"id": "920261", "CVEGEO": "1402901450068038", "POBTOT": 0.0, "score_nse": 0.0, "NSE": null, "VIVTOT": 0.0, "GRAPROES": 0.0, "_ent": "14", "_mun": "029", "_loc": "0145"}, "geometry": {"type": "Polygon", "coordinates": [[[-103.02461, 20.94856], [-103.02423, 20.94862], [-103.02417, 20.94746], [-103.02453, 20.9475], [-103.02461, 20.94856]]]}}, {"id": "920262", "type": "Feature", "properties": {"id": "920262", "CVEGEO": "1402901450068039", "POBTOT": 0.0, "score_nse": 0.0, "NSE": null, "VIVTOT": 0.0, "GRAPROES": 0.0, "_ent": "14", "_mun": "029", "_loc": "0145"}, "geometry": {"type": "Polygon", "coordinates": [[[-103.02414, 20.94877], [-103.02412, 20.94951], [-103.02358, 20.94936], [-103.02358, 20.94885], [-103.02414, 20.94877]]]}}, {"id": "920263", "type": "Feature", "properties": {"id": "920263", "CVEGEO": "1402901450068040", "POBTOT": 0.0, "score_nse": 0.0, "NSE": null, "VIVTOT": 0.0, "GRAPROES": 0.0, "_ent": "14", "_mun": "029", "_loc": "0145"}, "geometry": {"type": "Polygon", "coordinates": [[[-103.02461, 20.9487], [-103.02467, 20.94966], [-103.02419, 20.94955], [-103.02422, 20.94876], [-103.02461, 20.9487]]]}}, {"id": "920264", "type": "Feature", "properties": {"id": "920264", "CVEGEO": "1402901450068041", "POBTOT": 0.0, "score_nse": 0.0, "NSE": null, "VIVTOT": 0.0, "GRAPROES": 0.0, "_ent": "14", "_mun": "029", "_loc": "0145"}, "geometry": {"type": "Polygon", "coordinates": [[[-103.0256, 20.94989], [-103.02478, 20.94968], [-103.02474, 20.94922], [-103.02542, 20.9491], [-103.0256, 20.94989]]]}}, {"id": "920265", "type": "Feature", "properties": {"id": "920265", "CVEGEO": "1402901450068042", "POBTOT": 0.0, "score_nse": 0.0, "NSE": null, "VIVTOT": 0.0, "GRAPROES": 0.0, "_ent": "14", "_mun": "029", "_loc": "0145"}, "geometry": {"type": "Polygon", "coordinates": [[[-103.0254, 20.949], [-103.02473, 20.94911], [-103.02469, 20.94869], [-103.02531, 20.9486], [-103.0254, 20.949]]]}}, {"id": "920266", "type": "Feature", "properties": {"id": "920266", "CVEGEO": "1402901450068043", "POBTOT": 0.0, "score_nse": 0.0, "NSE": null, "VIVTOT": 0.0, "GRAPROES": 0.0, "_ent": "14", "_mun": "029", "_loc": "0145"}, "geometry": {"type": "Polygon", "coordinates": [[[-103.02624, 20.95007], [-103.02573, 20.94993], [-103.0254, 20.94861], [-103.02578, 20.94851], [-103.02624, 20.95007]]]}}, {"id": "920267", "type": "Feature", "properties": {"id": "920267", "CVEGEO": "1402901450068044", "POBTOT": 0.0, "score_nse": 0.0, "NSE": null, "VIVTOT": 0.0, "GRAPROES": 0.0, "_ent": "14", "_mun": "029", "_loc": "0145"}, "geometry": {"type": "Polygon", "coordinates": [[[-103.02215, 20.95049], [-103.02174, 20.95069], [-103.02093, 20.94946], [-103.0213, 20.94927], [-103.02215, 20.95049]]]}}, {"id": "920268", "type": "Feature", "properties": {"id": "920268", "CVEGEO": "1402901450068045", "POBTOT": 0.0, "score_nse": 0.0, "NSE": null, "VIVTOT": 0.0, "GRAPROES": 0.0, "_ent": "14", "_mun": "029", "_loc": "0145"}, "geometry": {"type": "Polygon", "coordinates": [[[-103.02275, 20.95146], [-103.02238, 20.9516], [-103.02182, 20.95074], [-103.02218, 20.95057], [-103.02275, 20.95146]]]}}, {"id": "920269", "type": "Feature", "properties": {"id": "920269", "CVEGEO": "1402901450068046", "POBTOT": 0.0, "score_nse": 0.0, "NSE": null, "VIVTOT": 0.0, "GRAPROES": 0.0, "_ent": "14", "_mun": "029", "_loc": "0145"}, "geometry": {"type": "Polygon", "coordinates": [[[-103.02168, 20.95072], [-103.02138, 20.95088], [-103.02049, 20.94962], [-103.02083, 20.94947], [-103.02168, 20.95072]]]}}, {"id": "920270", "type": "Feature", "properties": {"id": "920270", "CVEGEO": "1402901450068047", "POBTOT": 0.0, "score_nse": 0.0, "NSE": null, "VIVTOT": 0.0, "GRAPROES": 0.0, "_ent": "14", "_mun": "029", "_loc": "0145"}, "geometry": {"type": "Polygon", "coordinates": [[[-103.02106, 20.95179], [-103.02016, 20.95236], [-103.01984, 20.95147], [-103.01883, 20.94989], [-103.01949, 20.94994], [-103.02045, 20.94968], [-103.02121, 20.95084], [-103.02093, 20.95129], [-103.02106, 20.95179]]]}}, {"id": "920319", "type": "Feature", "properties": {"id": "920319", "CVEGEO": "1402901450068009", "POBTOT": 0.0, "score_nse": 0.0, "NSE": null, "VIVTOT": 0.0, "GRAPROES": 0.0, "_ent": "14", "_mun": "029", "_loc": "0145"}, "geometry": {"type": "Polygon", "coordinates": [[[-103.01957, 20.9468], [-103.0194, 20.94547], [-103.01962, 20.94508], [-103.02047, 20.94504], [-103.0203, 20.94619], [-103.02005, 20.94621], [-103.0203, 20.94625], [-103.02012, 20.94741], [-103.02031, 20.94744], [-103.02027, 20.94781], [-103.01957, 20.9468]]]}}, {"id": "920320", "type": "Feature", "properties": {"id": "920320", "CVEGEO": "1402901450068014", "POBTOT": 0.0, "score_nse": 0.0, "NSE": null, "VIVTOT": 0.0, "GRAPROES": 0.0, "_ent": "14", "_mun": "029", "_loc": "0145"}, "geometry": {"type": "Polygon", "coordinates": [[[-103.02709, 20.94791], [-103.02642, 20.94814], [-103.02603, 20.94741], [-103.02632, 20.94818], [-103.02583, 20.94834], [-103.02555, 20.94745], [-103.02573, 20.94837], [-103.02468, 20.94855], [-103.02456, 20.94638], [-103.02478, 20.94632], [-103.02456, 20.94632], [-103.02452, 20.94486], [-103.02582, 20.94494], [-103.02576, 20.94538], [-103.02645, 20.94737], [-103.02688, 20.94736], [-103.02709, 20.94791]]]}}, {"id": "920321", "type": "Feature", "properties": {"id": "920321", "CVEGEO": "1402901450068034", "POBTOT": 0.0, "score_nse": 0.0, "NSE": null, "VIVTOT": 0.0, "GRAPROES": 0.0, "_ent": "14", "_mun": "029", "_loc": "0145"}, "geometry": {"type": "Polygon", "coordinates": [[[-103.0209, 20.94314], [-103.02004, 20.94306], [-103.02003, 20.94278], [-103.02052, 20.94279], [-103.0202, 20.94231], [-103.02039, 20.9423], [-103.02036, 20.94218], [-103.02057, 20.94215], [-103.0209, 20.94314]]]}}, {"id": "920322", "type": "Feature", "properties": {"id": "920322", "CVEGEO": "1402901450068048", "POBTOT": 0.0, "score_nse": 0.0, "NSE": null, "VIVTOT": 0.0, "GRAPROES": 0.0, "_ent": "14", "_mun": "029", "_loc": "0145"}, "geometry": {"type": "Polygon", "coordinates": [[[-103.02052, 20.9444], [-103.02048, 20.94498], [-103.01965, 20.94503], [-103.02052, 20.9444]]]}}, {"id": "920323", "type": "Feature", "properties": {"id": "920323", "CVEGEO": "1402901450068049", "POBTOT": 0.0, "score_nse": 0.0, "NSE": null, "VIVTOT": 0.0, "GRAPROES": 0.0, "_ent": "14", "_mun": "029", "_loc": "0145"}, "geometry": {"type": "Polygon", "coordinates": [[[-103.02143, 20.94399], [-103.02116, 20.94397], [-103.02087, 20.94287], [-103.02126, 20.94286], [-103.02143, 20.94399]]]}}, {"id": "920331", "type": "Feature", "properties": {"id": "920331", "CVEGEO": "1402901450068035", "POBTOT": 0.0, "score_nse": 0.0, "NSE": null, "VIVTOT": 0.0, "GRAPROES": 0.0, "_ent": "14", "_mun": "029", "_loc": "0145"}, "geometry": {"type": "Polygon", "coordinates": [[[-103.02722, 20.94351], [-103.02792, 20.94347], [-103.02814, 20.94487], [-103.0274, 20.94486], [-103.02734, 20.94454], [-103.02732, 20.94486], [-103.02694, 20.94486], [-103.02722, 20.94351]]]}}]}