{"type": "FeatureCollection", "features": [{"id": "752466", "type": "Feature", "properties": {"id": "752466", "CVEGEO": "1201600620516029", "POBTOT": 0.0, "score_nse": 0.0, "NSE": null, "VIVTOT": 0.0, "GRAPROES": 0.0, "_ent": "12", "_mun": "016", "_loc": "0062"}, "geometry": {"type": "Polygon", "coordinates": [[[-101.5204, 18.04635], [-101.52027, 18.04623], [-101.51987, 18.0461], [-101.5206, 18.04594], [-101.5206, 18.04615], [-101.5204, 18.04635]]]}}, {"id": "752467", "type": "Feature", "properties": {"id": "752467", "CVEGEO": "1201600620516031", "POBTOT": 0.0, "score_nse": 0.0, "NSE": null, "VIVTOT": 0.0, "GRAPROES": 0.0, "_ent": "12", "_mun": "016", "_loc": "0062"}, "geometry": {"type": "Polygon", "coordinates": [[[-101.52022, 18.04688], [-101.51913, 18.04632], [-101.51871, 18.04594], [-101.52026, 18.0463], [-101.5204, 18.04652], [-101.52022, 18.04688]]]}}, {"id": "752468", "type": "Feature", "properties": {"id": "752468", "CVEGEO": "1201600620516030", "POBTOT": 0.0, "score_nse": 0.0, "NSE": null, "VIVTOT": 0.0, "GRAPROES": 0.0, "_ent": "12", "_mun": "016", "_loc": "0062"}, "geometry": {"type": "Polygon", "coordinates": [[[-101.52087, 18.04721], [-101.52025, 18.04693], [-101.52064, 18.04621], [-101.521, 18.04657], [-101.52099, 18.04698], [-101.52087, 18.04721]]]}}, {"id": "752469", "type": "Feature", "properties": {"id": "752469", "CVEGEO": "1201600620516028", "POBTOT": 0.0, "score_nse": 0.0, "NSE": null, "VIVTOT": 0.0, "GRAPROES": 0.0, "_ent": "12", "_mun": "016", "_loc": "0062"}, "geometry": {"type": "Polygon", "coordinates": [[[-101.52096, 18.0472], [-101.52106, 18.04661], [-101.52142, 18.04707], [-101.52127, 18.04734], [-101.52096, 18.0472]]]}}, {"id": "752470", "type": "Feature", "properties": {"id": "752470", "CVEGEO": "1201600620516033", "POBTOT": 0.0, "score_nse": 0.0, "NSE": null, "VIVTOT": 0.0, "GRAPROES": 0.0, "_ent": "12", "_mun": "016", "_loc": "0062"}, "geometry": {"type": "Polygon", "coordinates": [[[-101.5198, 18.04725], [-101.52011, 18.04745], [-101.52002, 18.04767], [-101.51971, 18.04746], [-101.5198, 18.04725]]]}}, {"id": "752471", "type": "Feature", "properties": {"id": "752471", "CVEGEO": "1201600620516025", "POBTOT": 0.0, "score_nse": 0.0, "NSE": null, "VIVTOT": 0.0, "GRAPROES": 0.0, "_ent": "12", "_mun": "016", "_loc": "0062"}, "geometry": {"type": "Polygon", "coordinates": [[[-101.52016, 18.04734], [-101.52026, 18.04702], [-101.52066, 18.04723], [-101.52053, 18.04761], [-101.52016, 18.04734]]]}}, {"id": "752472", "type": "Feature", "properties": {"id": "752472", "CVEGEO": "1201600620516034", "POBTOT": 0.0, "score_nse": 0.0, "NSE": null, "VIVTOT": 0.0, "GRAPROES": 0.0, "_ent": "12", "_mun": "016", "_loc": "0062"}, "geometry": {"type": "Polygon", "coordinates": [[[-101.52057, 18.04845], [-101.51975, 18.04927], [-101.51949, 18.04871], [-101.52003, 18.048], [-101.52057, 18.04845]]]}}, {"id": "752473", "type": "Feature", "properties": {"id": "752473", "CVEGEO": "1201600620516032", "POBTOT": 0.0, "score_nse": 0.0, "NSE": null, "VIVTOT": 0.0, "GRAPROES": 0.0, "_ent": "12", "_mun": "016", "_loc": "0062"}, "geometry": {"type": "Polygon", "coordinates": [[[-101.52405, 18.04933], [-101.52206, 18.04909], [-101.52211, 18.0487], [-101.52398, 18.04871], [-101.52405, 18.04933]]]}}, {"id": "752474", "type": "Feature", "properties": {"id": "752474", "CVEGEO": "1201600620516027", "POBTOT": 0.0, "score_nse": 0.0, "NSE": null, "VIVTOT": 0.0, "GRAPROES": 0.0, "_ent": "12", "_mun": "016", "_loc": "0062"}, "geometry": {"type": "Polygon", "coordinates": [[[-101.52639, 18.04696], [-101.52623, 18.04713], [-101.52522, 18.04723], [-101.52542, 18.04684], [-101.5251, 18.04655], [-101.5264, 18.04653], [-101.52639, 18.04696]]]}}, {"id": "752476", "type": "Feature", "properties": {"id": "752476", "CVEGEO": "1201600620516011", "POBTOT": 0.0, "score_nse": 0.0, "NSE": null, "VIVTOT": 0.0, "GRAPROES": 0.0, "_ent": "12", "_mun": "016", "_loc": "0062"}, "geometry": {"type": "Polygon", "coordinates": [[[-101.5261, 18.04767], [-101.52666, 18.04766], [-101.52667, 18.04785], [-101.52611, 18.04786], [-101.5261, 18.04767]]]}}, {"id": "752484", "type": "Feature", "properties": {"id": "752484", "CVEGEO": "1201600620516018", "POBTOT": 0.0, "score_nse": 0.0, "NSE": null, "VIVTOT": 0.0, "GRAPROES": 0.0, "_ent": "12", "_mun": "016", "_loc": "0062"}, "geometry": {"type": "Polygon", "coordinates": [[[-101.52647, 18.04758], [-101.52647, 18.04721], [-101.52692, 18.04727], [-101.52698, 18.04782], [-101.52672, 18.04784], [-101.52671, 18.04761], [-101.52647, 18.04758]]]}}, {"id": "752488", "type": "Feature", "properties": {"id": "752488", "CVEGEO": "1201600620516023", "POBTOT": 0.0, "score_nse": 0.0, "NSE": null, "VIVTOT": 0.0, "GRAPROES": 0.0, "_ent": "12", "_mun": "016", "_loc": "0062"}, "geometry": {"type": "Polygon", "coordinates": [[[-101.52762, 18.04697], [-101.52774, 18.04652], [-101.52792, 18.04662], [-101.52787, 18.04689], [-101.52762, 18.04697]]]}}, {"id": "752492", "type": "Feature", "properties": {"id": "752492", "CVEGEO": "1201600620516016", "POBTOT": 0.0, "score_nse": 0.0, "NSE": null, "VIVTOT": 0.0, "GRAPROES": 0.0, "_ent": "12", "_mun": "016", "_loc": "0062"}, "geometry": {"type": "Polygon", "coordinates": [[[-101.52539, 18.04922], [-101.52476, 18.04926], [-101.52468, 18.04902], [-101.52421, 18.04897], [-101.52416, 18.04848], [-101.52561, 18.04855], [-101.52539, 18.04922]]]}}, {"id": "752493", "type": "Feature", "properties": {"id": "752493", "CVEGEO": "1201600620516014", "POBTOT": 0.0, "score_nse": 0.0, "NSE": null, "VIVTOT": 0.0, "GRAPROES": 0.0, "_ent": "12", "_mun": "016", "_loc": "0062"}, "geometry": {"type": "Polygon", "coordinates": [[[-101.52676, 18.0487], [-101.52698, 18.0493], [-101.52692, 18.04963], [-101.52665, 18.04972], [-101.52594, 18.04926], [-101.52605, 18.0486], [-101.52676, 18.0487]]]}}, {"id": "752499", "type": "Feature", "properties": {"id": "752499", "CVEGEO": "1201600620516015", "POBTOT": 0.0, "score_nse": 0.0, "NSE": null, "VIVTOT": 0.0, "GRAPROES": 0.0, "_ent": "12", "_mun": "016", "_loc": "0062"}, "geometry": {"type": "Polygon", "coordinates": [[[-101.52563, 18.04903], [-101.52569, 18.04856], [-101.52599, 18.04859], [-101.52589, 18.04922], [-101.52563, 18.04903]]]}}, {"id": "752500", "type": "Feature", "properties": {"id": "752500", "CVEGEO": "1201600620516013", "POBTOT": 0.0, "score_nse": 0.0, "NSE": null, "VIVTOT": 0.0, "GRAPROES": 0.0, "_ent": "12", "_mun": "016", "_loc": "0062"}, "geometry": {"type": "Polygon", "coordinates": [[[-101.52665, 18.0484], [-101.52672, 18.04793], [-101.52837, 18.04773], [-101.52856, 18.04787], [-101.5287, 18.04849], [-101.52847, 18.04888], [-101.52698, 18.0496], [-101.52696, 18.04883], [-101.52668, 18.04861], [-101.52606, 18.04856], [-101.52605, 18.04818], [-101.52664, 18.04818], [-101.52665, 18.0484]]]}}, {"id": "752501", "type": "Feature", "properties": {"id": "752501", "CVEGEO": "1201600620516012", "POBTOT": 0.0, "score_nse": 0.0, "NSE": null, "VIVTOT": 0.0, "GRAPROES": 0.0, "_ent": "12", "_mun": "016", "_loc": "0062"}, "geometry": {"type": "Polygon", "coordinates": [[[-101.52604, 18.04808], [-101.52603, 18.04794], [-101.52664, 18.04793], [-101.52664, 18.04808], [-101.52604, 18.04808]]]}}, {"id": "752502", "type": "Feature", "properties": {"id": "752502", "CVEGEO": "1201600620516002", "POBTOT": 0.0, "score_nse": 0.0, "NSE": null, "VIVTOT": 0.0, "GRAPROES": 0.0, "_ent": "12", "_mun": "016", "_loc": "0062"}, "geometry": {"type": "Polygon", "coordinates": [[[-101.52357, 18.04707], [-101.52395, 18.04757], [-101.52404, 18.04815], [-101.52392, 18.04836], [-101.52333, 18.04775], [-101.52342, 18.0472], [-101.52357, 18.04707]]]}}, {"id": "752503", "type": "Feature", "properties": {"id": "752503", "CVEGEO": "1201600620516001", "POBTOT": 0.0, "score_nse": 0.0, "NSE": null, "VIVTOT": 0.0, "GRAPROES": 0.0, "_ent": "12", "_mun": "016", "_loc": "0062"}, "geometry": {"type": "Polygon", "coordinates": [[[-101.52408, 18.04809], [-101.524, 18.04758], [-101.52366, 18.04707], [-101.52439, 18.04709], [-101.52423, 18.04801], [-101.52408, 18.04809]]]}}, {"id": "752527", "type": "Feature", "properties": {"id": "752527", "CVEGEO": "1201600620516010", "POBTOT": 0.0, "score_nse": 0.0, "NSE": null, "VIVTOT": 0.0, "GRAPROES": 0.0, "_ent": "12", "_mun": "016", "_loc": "0062"}, "geometry": {"type": "Polygon", "coordinates": [[[-101.52612, 18.04758], [-101.52636, 18.04706], [-101.5264, 18.0476], [-101.52612, 18.04758]]]}}, {"id": "752531", "type": "Feature", "properties": {"id": "752531", "CVEGEO": "1201600620516024", "POBTOT": 0.0, "score_nse": 0.0, "NSE": null, "VIVTOT": 0.0, "GRAPROES": 0.0, "_ent": "12", "_mun": "016", "_loc": "0062"}, "geometry": {"type": "Polygon", "coordinates": [[[-101.52912, 18.04831], [-101.52894, 18.04873], [-101.52868, 18.04778], [-101.529, 18.04796], [-101.52912, 18.04831]]]}}, {"id": "752532", "type": "Feature", "properties": {"id": "752532", "CVEGEO": "1201600620516021", "POBTOT": 0.0, "score_nse": 0.0, "NSE": null, "VIVTOT": 0.0, "GRAPROES": 0.0, "_ent": "12", "_mun": "016", "_loc": "0062"}, "geometry": {"type": "Polygon", "coordinates": [[[-101.52865, 18.04767], [-101.52707, 18.04782], [-101.52698, 18.04737], [-101.52755, 18.04736], [-101.5276, 18.04706], [-101.52797, 18.04696], [-101.52895, 18.04737], [-101.52893, 18.04783], [-101.52865, 18.04767]]]}}, {"id": "752533", "type": "Feature", "properties": {"id": "752533", "CVEGEO": "1201600620516020", "POBTOT": 0.0, "score_nse": 0.0, "NSE": null, "VIVTOT": 0.0, "GRAPROES": 0.0, "_ent": "12", "_mun": "016", "_loc": "0062"}, "geometry": {"type": "Polygon", "coordinates": [[[-101.52693, 18.04623], [-101.5275, 18.04692], [-101.52733, 18.04718], [-101.52647, 18.04714], [-101.52647, 18.04697], [-101.52687, 18.04663], [-101.52693, 18.04623]]]}}, {"id": "752534", "type": "Feature", "properties": {"id": "752534", "CVEGEO": "1201600620516009", "POBTOT": 0.0, "score_nse": 0.0, "NSE": null, "VIVTOT": 0.0, "GRAPROES": 0.0, "_ent": "12", "_mun": "016", "_loc": "0062"}, "geometry": {"type": "Polygon", "coordinates": [[[-101.52215, 18.04861], [-101.52193, 18.04774], [-101.52286, 18.04769], [-101.52274, 18.04864], [-101.52215, 18.04861]]]}}, {"id": "752535", "type": "Feature", "properties": {"id": "752535", "CVEGEO": "1201600620516008", "POBTOT": 0.0, "score_nse": 0.0, "NSE": null, "VIVTOT": 0.0, "GRAPROES": 0.0, "_ent": "12", "_mun": "016", "_loc": "0062"}, "geometry": {"type": "Polygon", "coordinates": [[[-101.52503, 18.04836], [-101.5249, 18.04837], [-101.52487, 18.04801], [-101.52513, 18.04799], [-101.52503, 18.04836]]]}}, {"id": "752536", "type": "Feature", "properties": {"id": "752536", "CVEGEO": "1201600620516007", "POBTOT": 0.0, "score_nse": 0.0, "NSE": null, "VIVTOT": 0.0, "GRAPROES": 0.0, "_ent": "12", "_mun": "016", "_loc": "0062"}, "geometry": {"type": "Polygon", "coordinates": [[[-101.52567, 18.04822], [-101.52519, 18.04824], [-101.52517, 18.04799], [-101.52565, 18.04798], [-101.52567, 18.04822]]]}}, {"id": "752537", "type": "Feature", "properties": {"id": "752537", "CVEGEO": "1201600620516004", "POBTOT": 0.0, "score_nse": 0.0, "NSE": null, "VIVTOT": 0.0, "GRAPROES": 0.0, "_ent": "12", "_mun": "016", "_loc": "0062"}, "geometry": {"type": "Polygon", "coordinates": [[[-101.52482, 18.04838], [-101.52416, 18.04844], [-101.52418, 18.04813], [-101.5248, 18.04802], [-101.52482, 18.04838]]]}}, {"id": "752577", "type": "Feature", "properties": {"id": "752577", "CVEGEO": "1201600620516005", "POBTOT": 0.0, "score_nse": 0.0, "NSE": null, "VIVTOT": 0.0, "GRAPROES": 0.0, "_ent": "12", "_mun": "016", "_loc": "0062"}, "geometry": {"type": "Polygon", "coordinates": [[[-101.52347, 18.04795], [-101.52389, 18.04837], [-101.52383, 18.04862], [-101.52269, 18.04872], [-101.52282, 18.04861], [-101.5229, 18.04768], [-101.52347, 18.04795]]]}}, {"id": "752591", "type": "Feature", "properties": {"id": "752591", "CVEGEO": "1201600620516026", "POBTOT": 0.0, "score_nse": 0.0, "NSE": null, "VIVTOT": 0.0, "GRAPROES": 0.0, "_ent": "12", "_mun": "016", "_loc": "0062"}, "geometry": {"type": "Polygon", "coordinates": [[[-101.52605, 18.04761], [-101.5256, 18.0477], [-101.52563, 18.04736], [-101.52618, 18.0472], [-101.52605, 18.04761]]]}}, {"id": "752594", "type": "Feature", "properties": {"id": "752594", "CVEGEO": "1201600620516022", "POBTOT": 0.0, "score_nse": 0.0, "NSE": null, "VIVTOT": 0.0, "GRAPROES": 0.0, "_ent": "12", "_mun": "016", "_loc": "0062"}, "geometry": {"type": "Polygon", "coordinates": [[[-101.51979, 18.0472], [-101.51968, 18.04743], [-101.51843, 18.04575], [-101.51886, 18.04622], [-101.52023, 18.04702], [-101.52011, 18.04741], [-101.51979, 18.0472]]]}}, {"id": "752595", "type": "Feature", "properties": {"id": "752595", "CVEGEO": "1201600620516019", "POBTOT": 0.0, "score_nse": 0.0, "NSE": null, "VIVTOT": 0.0, "GRAPROES": 0.0, "_ent": "12", "_mun": "016", "_loc": "0062"}, "geometry": {"type": "Polygon", "coordinates": [[[-101.52052, 18.04765], [-101.52042, 18.04814], [-101.52042, 18.04826], [-101.52005, 18.04776], [-101.52014, 18.04747], [-101.52052, 18.04765]]]}}, {"id": "752596", "type": "Feature", "properties": {"id": "752596", "CVEGEO": "1201600620516006", "POBTOT": 0.0, "score_nse": 0.0, "NSE": null, "VIVTOT": 0.0, "GRAPROES": 0.0, "_ent": "12", "_mun": "016", "_loc": "0062"}, "geometry": {"type": "Polygon", "coordinates": [[[-101.52561, 18.04776], [-101.52604, 18.04768], [-101.52606, 18.04786], [-101.52564, 18.04788], [-101.52561, 18.04776]]]}}, {"id": "752598", "type": "Feature", "properties": {"id": "752598", "CVEGEO": "1201600620516003", "POBTOT": 0.0, "score_nse": 0.0, "NSE": null, "VIVTOT": 0.0, "GRAPROES": 0.0, "_ent": "12", "_mun": "016", "_loc": "0062"}, "geometry": {"type": "Polygon", "coordinates": [[[-101.52559, 18.04788], [-101.52433, 18.04799], [-101.52431, 18.04761], [-101.52452, 18.04722], [-101.52558, 18.04728], [-101.52559, 18.04788]]]}}, {"id": "752599", "type": "Feature", "properties": {"id": "752599", "CVEGEO": "1201600620516017", "POBTOT": 0.0, "score_nse": 0.0, "NSE": null, "VIVTOT": 0.0, "GRAPROES": 0.0, "_ent": "12", "_mun": "016", "_loc": "0062"}, "geometry": {"type": "Polygon", "coordinates": [[[-101.52207, 18.0486], [-101.52048, 18.04826], [-101.52072, 18.04725], [-101.52189, 18.04783], [-101.52207, 18.0486]]]}}]}