{"type": "FeatureCollection", "features": [{"id": "261818", "type": "Feature", "properties": {"id": "261818", "CVEGEO": "0703300170022002", "POBTOT": 0.0, "score_nse": 0.0, "NSE": null, "VIVTOT": 0.0, "GRAPROES": 0.0, "_ent": "07", "_mun": "033", "_loc": "0017"}, "geometry": {"type": "Polygon", "coordinates": [[[-93.20848, 17.29179], [-93.20824, 17.29151], [-93.2086, 17.29125], [-93.20882, 17.29152], [-93.20848, 17.29179]]]}}, {"id": "261819", "type": "Feature", "properties": {"id": "261819", "CVEGEO": "0703300170022001", "POBTOT": 0.0, "score_nse": 0.0, "NSE": null, "VIVTOT": 0.0, "GRAPROES": 0.0, "_ent": "07", "_mun": "033", "_loc": "0017"}, "geometry": {"type": "Polygon", "coordinates": [[[-93.20951, 17.2917], [-93.20921, 17.29169], [-93.20864, 17.29122], [-93.20909, 17.291], [-93.20957, 17.29154], [-93.20951, 17.2917]]]}}, {"id": "261853", "type": "Feature", "properties": {"id": "261853", "CVEGEO": "0703300170022005", "POBTOT": 0.0, "score_nse": 0.0, "NSE": null, "VIVTOT": 0.0, "GRAPROES": 0.0, "_ent": "07", "_mun": "033", "_loc": "0017"}, "geometry": {"type": "Polygon", "coordinates": [[[-93.20894, 17.29064], [-93.20919, 17.29016], [-93.20926, 17.28945], [-93.21012, 17.28974], [-93.20972, 17.29016], [-93.20979, 17.29035], [-93.20928, 17.2908], [-93.20911, 17.29089], [-93.20894, 17.29064]]]}}, {"id": "261854", "type": "Feature", "properties": {"id": "261854", "CVEGEO": "0703300170022004", "POBTOT": 0.0, "score_nse": 0.0, "NSE": null, "VIVTOT": 0.0, "GRAPROES": 0.0, "_ent": "07", "_mun": "033", "_loc": "0017"}, "geometry": {"type": "Polygon", "coordinates": [[[-93.2084, 17.29095], [-93.20886, 17.2907], [-93.20904, 17.29092], [-93.20862, 17.29118], [-93.2084, 17.29095]]]}}, {"id": "261874", "type": "Feature", "properties": {"id": "261874", "CVEGEO": "0703300170022003", "POBTOT": 0.0, "score_nse": 0.0, "NSE": null, "VIVTOT": 0.0, "GRAPROES": 0.0, "_ent": "07", "_mun": "033", "_loc": "0017"}, "geometry": {"type": "Polygon", "coordinates": [[[-93.20795, 17.29116], [-93.20834, 17.29097], [-93.20857, 17.29121], [-93.20821, 17.29149], [-93.20795, 17.29116]]]}}, {"id": "261888", "type": "Feature", "properties": {"id": "261888", "CVEGEO": "0703300170022006", "POBTOT": 0.0, "score_nse": 0.0, "NSE": null, "VIVTOT": 0.0, "GRAPROES": 0.0, "_ent": "07", "_mun": "033", "_loc": "0017"}, "geometry": {"type": "Polygon", "coordinates": [[[-93.2087, 17.28891], [-93.20911, 17.28935], [-93.20905, 17.29004], [-93.20848, 17.28971], [-93.2087, 17.28891]]]}}, {"id": "261896", "type": "Feature", "properties": {"id": "261896", "CVEGEO": "0703300170022008", "POBTOT": 0.0, "score_nse": 0.0, "NSE": null, "VIVTOT": 0.0, "GRAPROES": 0.0, "_ent": "07", "_mun": "033", "_loc": "0017"}, "geometry": {"type": "Polygon", "coordinates": [[[-93.20942, 17.29129], [-93.20965, 17.29103], [-93.20977, 17.29116], [-93.20954, 17.29146], [-93.20942, 17.29129]]]}}, {"id": "261897", "type": "Feature", "properties": {"id": "261897", "CVEGEO": "0703300170022007", "POBTOT": 0.0, "score_nse": 0.0, "NSE": null, "VIVTOT": 0.0, "GRAPROES": 0.0, "_ent": "07", "_mun": "033", "_loc": "0017"}, "geometry": {"type": "Polygon", "coordinates": [[[-93.20914, 17.29098], [-93.20957, 17.29059], [-93.20985, 17.29039], [-93.20942, 17.29125], [-93.20914, 17.29098]]]}}, {"id": "261901", "type": "Feature", "properties": {"id": "261901", "CVEGEO": "0703300170022009", "POBTOT": 0.0, "score_nse": 0.0, "NSE": null, "VIVTOT": 0.0, "GRAPROES": 0.0, "_ent": "07", "_mun": "033", "_loc": "0017"}, "geometry": {"type": "Polygon", "coordinates": [[[-93.20905, 17.29012], [-93.20882, 17.29056], [-93.20825, 17.29083], [-93.20812, 17.29037], [-93.20847, 17.28977], [-93.20905, 17.29012]]]}}]}