{"type": "FeatureCollection", "features": [{"id": "2247673", "type": "Feature", "properties": {"id": "2247673", "CVEGEO": "3001600100016006", "POBTOT": 0.0, "score_nse": 0.0, "NSE": null, "VIVTOT": 0.0, "GRAPROES": 0.0, "_ent": "30", "_mun": "016", "_loc": "0010"}, "geometry": {"type": "Polygon", "coordinates": [[[-96.3258, 19.32237], [-96.32454, 19.32042], [-96.32332, 19.31904], [-96.32361, 19.31882], [-96.3245, 19.31958], [-96.32548, 19.32087], [-96.32654, 19.32183], [-96.3258, 19.32237]]]}}, {"id": "2247705", "type": "Feature", "properties": {"id": "2247705", "CVEGEO": "3001600100016005", "POBTOT": 0.0, "score_nse": 0.0, "NSE": null, "VIVTOT": 0.0, "GRAPROES": 0.0, "_ent": "30", "_mun": "016", "_loc": "0010"}, "geometry": {"type": "Polygon", "coordinates": [[[-96.32865, 19.3285], [-96.32581, 19.32239], [-96.32655, 19.32184], [-96.327, 19.32239], [-96.32715, 19.32321], [-96.32929, 19.32682], [-96.33006, 19.32787], [-96.32865, 19.3285]]]}}, {"id": "2247782", "type": "Feature", "properties": {"id": "2247782", "CVEGEO": "3001600100016012", "POBTOT": 0.0, "score_nse": 0.0, "NSE": null, "VIVTOT": 0.0, "GRAPROES": 0.0, "_ent": "30", "_mun": "016", "_loc": "0010"}, "geometry": {"type": "Polygon", "coordinates": [[[-96.32329, 19.31901], [-96.32233, 19.31781], [-96.3217, 19.31719], [-96.32194, 19.31706], [-96.32284, 19.31824], [-96.32358, 19.31879], [-96.32329, 19.31901]]]}}, {"id": "2247783", "type": "Feature", "properties": {"id": "2247783", "CVEGEO": "3001600100016011", "POBTOT": 0.0, "score_nse": 0.0, "NSE": null, "VIVTOT": 0.0, "GRAPROES": 0.0, "_ent": "30", "_mun": "016", "_loc": "0010"}, "geometry": {"type": "Polygon", "coordinates": [[[-96.3283, 19.32492], [-96.32777, 19.32395], [-96.3286, 19.32354], [-96.32924, 19.32432], [-96.3283, 19.32492]]]}}, {"id": "2247784", "type": "Feature", "properties": {"id": "2247784", "CVEGEO": "3001600100016009", "POBTOT": 0.0, "score_nse": 0.0, "NSE": null, "VIVTOT": 0.0, "GRAPROES": 0.0, "_ent": "30", "_mun": "016", "_loc": "0010"}, "geometry": {"type": "Polygon", "coordinates": [[[-96.32927, 19.32427], [-96.32862, 19.32348], [-96.32845, 19.3235], [-96.32729, 19.32119], [-96.32789, 19.3207], [-96.3301, 19.32374], [-96.32927, 19.32427]]]}}, {"id": "2247785", "type": "Feature", "properties": {"id": "2247785", "CVEGEO": "3001600100016008", "POBTOT": 0.0, "score_nse": 0.0, "NSE": null, "VIVTOT": 0.0, "GRAPROES": 0.0, "_ent": "30", "_mun": "016", "_loc": "0010"}, "geometry": {"type": "Polygon", "coordinates": [[[-96.32988, 19.32744], [-96.32933, 19.32679], [-96.32924, 19.32646], [-96.33014, 19.32612], [-96.33078, 19.32565], [-96.33059, 19.3285], [-96.33046, 19.32856], [-96.32988, 19.32744]]]}}, {"id": "2247786", "type": "Feature", "properties": {"id": "2247786", "CVEGEO": "3001600100016007", "POBTOT": 0.0, "score_nse": 0.0, "NSE": null, "VIVTOT": 0.0, "GRAPROES": 0.0, "_ent": "30", "_mun": "016", "_loc": "0010"}, "geometry": {"type": "Polygon", "coordinates": [[[-96.32572, 19.31991], [-96.32506, 19.32015], [-96.32445, 19.31945], [-96.32285, 19.31816], [-96.32206, 19.31698], [-96.32242, 19.3167], [-96.32643, 19.31935], [-96.32572, 19.31991]]]}}, {"id": "2247787", "type": "Feature", "properties": {"id": "2247787", "CVEGEO": "3001600100016004", "POBTOT": 0.0, "score_nse": 0.0, "NSE": null, "VIVTOT": 0.0, "GRAPROES": 0.0, "_ent": "30", "_mun": "016", "_loc": "0010"}, "geometry": {"type": "Polygon", "coordinates": [[[-96.32727, 19.32121], [-96.32843, 19.32353], [-96.32774, 19.32393], [-96.32727, 19.32326], [-96.32701, 19.32225], [-96.32648, 19.32168], [-96.32727, 19.32121]]]}}, {"id": "2247788", "type": "Feature", "properties": {"id": "2247788", "CVEGEO": "3001600100016003", "POBTOT": 0.0, "score_nse": 0.0, "NSE": null, "VIVTOT": 0.0, "GRAPROES": 0.0, "_ent": "30", "_mun": "016", "_loc": "0010"}, "geometry": {"type": "Polygon", "coordinates": [[[-96.32784, 19.32066], [-96.32698, 19.32133], [-96.32615, 19.32064], [-96.32573, 19.31994], [-96.32645, 19.31936], [-96.3276, 19.32033], [-96.32784, 19.32066]]]}}, {"id": "2247789", "type": "Feature", "properties": {"id": "2247789", "CVEGEO": "3001600100016002", "POBTOT": 0.0, "score_nse": 0.0, "NSE": null, "VIVTOT": 0.0, "GRAPROES": 0.0, "_ent": "30", "_mun": "016", "_loc": "0010"}, "geometry": {"type": "Polygon", "coordinates": [[[-96.32547, 19.32076], [-96.32507, 19.32017], [-96.32571, 19.31995], [-96.32601, 19.32049], [-96.32547, 19.32076]]]}}, {"id": "2247790", "type": "Feature", "properties": {"id": "2247790", "CVEGEO": "3001600100016001", "POBTOT": 0.0, "score_nse": 0.0, "NSE": null, "VIVTOT": 0.0, "GRAPROES": 0.0, "_ent": "30", "_mun": "016", "_loc": "0010"}, "geometry": {"type": "Polygon", "coordinates": [[[-96.32646, 19.32165], [-96.32582, 19.32115], [-96.32548, 19.32079], [-96.32603, 19.32051], [-96.32697, 19.32135], [-96.32646, 19.32165]]]}}, {"id": "2248209", "type": "Feature", "properties": {"id": "2248209", "CVEGEO": "3001600100016010", "POBTOT": 0.0, "score_nse": 0.0, "NSE": null, "VIVTOT": 0.0, "GRAPROES": 0.0, "_ent": "30", "_mun": "016", "_loc": "0010"}, "geometry": {"type": "Polygon", "coordinates": [[[-96.3293, 19.32637], [-96.32888, 19.32575], [-96.32914, 19.32559], [-96.32885, 19.32571], [-96.32848, 19.32529], [-96.32878, 19.32507], [-96.32845, 19.32525], [-96.32831, 19.32497], [-96.33014, 19.3238], [-96.33115, 19.3252], [-96.33006, 19.32609], [-96.3293, 19.32637]]]}}]}