{"type": "FeatureCollection", "features": [{"id": "1237785", "type": "Feature", "properties": {"id": "1237785", "CVEGEO": "1603700100016008", "POBTOT": 0.0, "score_nse": 0.0, "NSE": null, "VIVTOT": 0.0, "GRAPROES": 0.0, "_ent": "16", "_mun": "037", "_loc": "0010"}, "geometry": {"type": "Polygon", "coordinates": [[[-101.57531, 19.91921], [-101.57477, 19.91769], [-101.57549, 19.91765], [-101.57605, 19.91857], [-101.57616, 19.91852], [-101.57644, 19.91891], [-101.57602, 19.91938], [-101.57568, 19.91935], [-101.57531, 19.91921]]]}}, {"id": "1237801", "type": "Feature", "properties": {"id": "1237801", "CVEGEO": "1603700100016003", "POBTOT": 0.0, "score_nse": 0.0, "NSE": null, "VIVTOT": 0.0, "GRAPROES": 0.0, "_ent": "16", "_mun": "037", "_loc": "0010"}, "geometry": {"type": "Polygon", "coordinates": [[[-101.57723, 19.91937], [-101.57698, 19.91891], [-101.57826, 19.91917], [-101.57723, 19.91937]]]}}, {"id": "1237839", "type": "Feature", "properties": {"id": "1237839", "CVEGEO": "1603700100016016", "POBTOT": 0.0, "score_nse": 0.0, "NSE": null, "VIVTOT": 0.0, "GRAPROES": 0.0, "_ent": "16", "_mun": "037", "_loc": "0010"}, "geometry": {"type": "Polygon", "coordinates": [[[-101.57919, 19.9176], [-101.58106, 19.91702], [-101.58114, 19.91745], [-101.57947, 19.91806], [-101.57919, 19.9176]]]}}, {"id": "1237840", "type": "Feature", "properties": {"id": "1237840", "CVEGEO": "1603700100016005", "POBTOT": 0.0, "score_nse": 0.0, "NSE": null, "VIVTOT": 0.0, "GRAPROES": 0.0, "_ent": "16", "_mun": "037", "_loc": "0010"}, "geometry": {"type": "Polygon", "coordinates": [[[-101.57646, 19.92168], [-101.5794, 19.9208], [-101.57957, 19.922], [-101.57916, 19.92209], [-101.57874, 19.92148], [-101.57727, 19.92207], [-101.57666, 19.92285], [-101.57646, 19.92168]]]}}, {"id": "1237851", "type": "Feature", "properties": {"id": "1237851", "CVEGEO": "1603700100016004", "POBTOT": 0.0, "score_nse": 0.0, "NSE": null, "VIVTOT": 0.0, "GRAPROES": 0.0, "_ent": "16", "_mun": "037", "_loc": "0010"}, "geometry": {"type": "Polygon", "coordinates": [[[-101.57823, 19.921], [-101.57843, 19.92026], [-101.5782, 19.91932], [-101.5791, 19.91911], [-101.57937, 19.92066], [-101.57823, 19.921]]]}}, {"id": "1237884", "type": "Feature", "properties": {"id": "1237884", "CVEGEO": "1603700100016014", "POBTOT": 0.0, "score_nse": 0.0, "NSE": null, "VIVTOT": 0.0, "GRAPROES": 0.0, "_ent": "16", "_mun": "037", "_loc": "0010"}, "geometry": {"type": "Polygon", "coordinates": [[[-101.57624, 19.91689], [-101.57641, 19.91695], [-101.57664, 19.9175], [-101.57597, 19.91721], [-101.57624, 19.91689]]]}}, {"id": "1237885", "type": "Feature", "properties": {"id": "1237885", "CVEGEO": "1603700100016013", "POBTOT": 0.0, "score_nse": 0.0, "NSE": null, "VIVTOT": 0.0, "GRAPROES": 0.0, "_ent": "16", "_mun": "037", "_loc": "0010"}, "geometry": {"type": "Polygon", "coordinates": [[[-101.57443, 19.91889], [-101.57382, 19.91735], [-101.57422, 19.91737], [-101.57475, 19.91897], [-101.57443, 19.91889]]]}}, {"id": "1237886", "type": "Feature", "properties": {"id": "1237886", "CVEGEO": "1603700100016011", "POBTOT": 0.0, "score_nse": 0.0, "NSE": null, "VIVTOT": 0.0, "GRAPROES": 0.0, "_ent": "16", "_mun": "037", "_loc": "0010"}, "geometry": {"type": "Polygon", "coordinates": [[[-101.57692, 19.91779], [-101.57704, 19.91771], [-101.57863, 19.9182], [-101.57891, 19.9185], [-101.57906, 19.91895], [-101.57845, 19.91912], [-101.57772, 19.91827], [-101.57692, 19.91779]]]}}, {"id": "1237887", "type": "Feature", "properties": {"id": "1237887", "CVEGEO": "1603700100016009", "POBTOT": 0.0, "score_nse": 0.0, "NSE": null, "VIVTOT": 0.0, "GRAPROES": 0.0, "_ent": "16", "_mun": "037", "_loc": "0010"}, "geometry": {"type": "Polygon", "coordinates": [[[-101.5748, 19.91901], [-101.57428, 19.91737], [-101.57557, 19.91739], [-101.57585, 19.91725], [-101.57674, 19.91764], [-101.57694, 19.918], [-101.57685, 19.91876], [-101.57647, 19.91884], [-101.57615, 19.91839], [-101.57635, 19.91824], [-101.57603, 19.91828], [-101.57553, 19.91756], [-101.57468, 19.91765], [-101.5752, 19.91917], [-101.5748, 19.91901]]]}}, {"id": "1237947", "type": "Feature", "properties": {"id": "1237947", "CVEGEO": "1603700100016010", "POBTOT": 0.0, "score_nse": 0.0, "NSE": null, "VIVTOT": 0.0, "GRAPROES": 0.0, "_ent": "16", "_mun": "037", "_loc": "0010"}, "geometry": {"type": "Polygon", "coordinates": [[[-101.57693, 19.91883], [-101.57701, 19.91789], [-101.57781, 19.91845], [-101.57827, 19.91907], [-101.57693, 19.91883]]]}}, {"id": "1238033", "type": "Feature", "properties": {"id": "1238033", "CVEGEO": "1603700100016018", "POBTOT": 0.0, "score_nse": 0.0, "NSE": null, "VIVTOT": 0.0, "GRAPROES": 0.0, "_ent": "16", "_mun": "037", "_loc": "0010"}, "geometry": {"type": "Polygon", "coordinates": [[[-101.57301, 19.92594], [-101.57256, 19.92583], [-101.57246, 19.92489], [-101.57262, 19.92468], [-101.57225, 19.92441], [-101.57235, 19.9242], [-101.57303, 19.92431], [-101.57301, 19.92594]]]}}, {"id": "1238056", "type": "Feature", "properties": {"id": "1238056", "CVEGEO": "1603700100016015", "POBTOT": 0.0, "score_nse": 0.0, "NSE": null, "VIVTOT": 0.0, "GRAPROES": 0.0, "_ent": "16", "_mun": "037", "_loc": "0010"}, "geometry": {"type": "Polygon", "coordinates": [[[-101.57914, 19.91761], [-101.57942, 19.91808], [-101.5789, 19.91827], [-101.57806, 19.91792], [-101.57914, 19.91761]]]}}, {"id": "1238159", "type": "Feature", "properties": {"id": "1238159", "CVEGEO": "1603700100016001", "POBTOT": 0.0, "score_nse": 0.0, "NSE": null, "VIVTOT": 0.0, "GRAPROES": 0.0, "_ent": "16", "_mun": "037", "_loc": "0010"}, "geometry": {"type": "Polygon", "coordinates": [[[-101.57513, 19.92228], [-101.57571, 19.92102], [-101.57597, 19.92111], [-101.57573, 19.92096], [-101.57614, 19.92016], [-101.57714, 19.91945], [-101.57805, 19.91932], [-101.5783, 19.9199], [-101.57811, 19.92103], [-101.57715, 19.92133], [-101.57707, 19.92083], [-101.57656, 19.92054], [-101.57702, 19.92086], [-101.57711, 19.92135], [-101.57638, 19.9216], [-101.57629, 19.92149], [-101.57647, 19.92257], [-101.57557, 19.92262], [-101.57513, 19.92228]]]}}, {"id": "1238160", "type": "Feature", "properties": {"id": "1238160", "CVEGEO": "1603700100016002", "POBTOT": 0.0, "score_nse": 0.0, "NSE": null, "VIVTOT": 0.0, "GRAPROES": 0.0, "_ent": "16", "_mun": "037", "_loc": "0010"}, "geometry": {"type": "Polygon", "coordinates": [[[-101.57605, 19.91942], [-101.57672, 19.91889], [-101.57708, 19.91939], [-101.57592, 19.92008], [-101.57605, 19.91942]]]}}, {"id": "1238161", "type": "Feature", "properties": {"id": "1238161", "CVEGEO": "1603700100016007", "POBTOT": 0.0, "score_nse": 0.0, "NSE": null, "VIVTOT": 0.0, "GRAPROES": 0.0, "_ent": "16", "_mun": "037", "_loc": "0010"}, "geometry": {"type": "Polygon", "coordinates": [[[-101.57596, 19.91948], [-101.57589, 19.91971], [-101.57565, 19.91968], [-101.57588, 19.91976], [-101.57564, 19.92094], [-101.57518, 19.92195], [-101.57437, 19.92182], [-101.57507, 19.92196], [-101.57467, 19.92272], [-101.5737, 19.92294], [-101.57336, 19.92358], [-101.57285, 19.92338], [-101.57334, 19.92364], [-101.57303, 19.92417], [-101.57223, 19.92404], [-101.5721, 19.92345], [-101.57231, 19.92342], [-101.572, 19.92279], [-101.57353, 19.9224], [-101.57412, 19.92205], [-101.57423, 19.92178], [-101.57459, 19.92169], [-101.57524, 19.9196], [-101.5745, 19.91928], [-101.57461, 19.91904], [-101.57596, 19.91948]]]}}, {"id": "1238162", "type": "Feature", "properties": {"id": "1238162", "CVEGEO": "1603700100016012", "POBTOT": 0.0, "score_nse": 0.0, "NSE": null, "VIVTOT": 0.0, "GRAPROES": 0.0, "_ent": "16", "_mun": "037", "_loc": "0010"}, "geometry": {"type": "Polygon", "coordinates": [[[-101.57553, 19.92267], [-101.57526, 19.92294], [-101.57511, 19.92282], [-101.57467, 19.92334], [-101.57429, 19.92354], [-101.57422, 19.92415], [-101.5732, 19.92553], [-101.57317, 19.92427], [-101.57348, 19.92437], [-101.57319, 19.92422], [-101.57347, 19.92369], [-101.57376, 19.92372], [-101.57377, 19.92388], [-101.5738, 19.92368], [-101.5735, 19.92365], [-101.57373, 19.9231], [-101.57461, 19.92282], [-101.5751, 19.92231], [-101.57553, 19.92267]]]}}, {"id": "1238163", "type": "Feature", "properties": {"id": "1238163", "CVEGEO": "1603700100016017", "POBTOT": 0.0, "score_nse": 0.0, "NSE": null, "VIVTOT": 0.0, "GRAPROES": 0.0, "_ent": "16", "_mun": "037", "_loc": "0010"}, "geometry": {"type": "Polygon", "coordinates": [[[-101.58114, 19.91754], [-101.58133, 19.91832], [-101.57913, 19.91893], [-101.57886, 19.91836], [-101.58114, 19.91754]]]}}, {"id": "1238164", "type": "Feature", "properties": {"id": "1238164", "CVEGEO": "1603700100016019", "POBTOT": 0.0, "score_nse": 0.0, "NSE": null, "VIVTOT": 0.0, "GRAPROES": 0.0, "_ent": "16", "_mun": "037", "_loc": "0010"}, "geometry": {"type": "Polygon", "coordinates": [[[-101.57918, 19.91905], [-101.5811, 19.91851], [-101.58117, 19.91916], [-101.57933, 19.91987], [-101.57918, 19.91905]]]}}]}