{"type": "FeatureCollection", "features": [{"id": "1859794", "type": "Feature", "properties": {"id": "1859794", "CVEGEO": "2402000250136001", "POBTOT": 0.0, "score_nse": 0.0, "NSE": null, "VIVTOT": 0.0, "GRAPROES": 0.0, "_ent": "24", "_mun": "020", "_loc": "0025"}, "geometry": {"type": "Polygon", "coordinates": [[[-100.67435, 23.5747], [-100.6741, 23.5755], [-100.67346, 23.5754], [-100.67363, 23.57456], [-100.67435, 23.5747]]]}}, {"id": "1859795", "type": "Feature", "properties": {"id": "1859795", "CVEGEO": "2402000250136002", "POBTOT": 0.0, "score_nse": 0.0, "NSE": null, "VIVTOT": 0.0, "GRAPROES": 0.0, "_ent": "24", "_mun": "020", "_loc": "0025"}, "geometry": {"type": "Polygon", "coordinates": [[[-100.6733, 23.57763], [-100.67314, 23.57719], [-100.67248, 23.5764], [-100.67278, 23.57453], [-100.67305, 23.57384], [-100.67369, 23.57404], [-100.67342, 23.57542], [-100.6741, 23.57553], [-100.67343, 23.57759], [-100.6733, 23.57763]]]}}, {"id": "1859796", "type": "Feature", "properties": {"id": "1859796", "CVEGEO": "2402000250136003", "POBTOT": 0.0, "score_nse": 0.0, "NSE": null, "VIVTOT": 0.0, "GRAPROES": 0.0, "_ent": "24", "_mun": "020", "_loc": "0025"}, "geometry": {"type": "Polygon", "coordinates": [[[-100.67256, 23.5756], [-100.67217, 23.57553], [-100.67218, 23.5743], [-100.67271, 23.57444], [-100.67256, 23.5756]]]}}, {"id": "1859797", "type": "Feature", "properties": {"id": "1859797", "CVEGEO": "2402000250136004", "POBTOT": 0.0, "score_nse": 0.0, "NSE": null, "VIVTOT": 0.0, "GRAPROES": 0.0, "_ent": "24", "_mun": "020", "_loc": "0025"}, "geometry": {"type": "Polygon", "coordinates": [[[-100.67271, 23.57438], [-100.67222, 23.57421], [-100.67209, 23.5738], [-100.67239, 23.5736], [-100.67292, 23.5738], [-100.67271, 23.57438]]]}}, {"id": "1859798", "type": "Feature", "properties": {"id": "1859798", "CVEGEO": "2402000250136006", "POBTOT": 0.0, "score_nse": 0.0, "NSE": null, "VIVTOT": 0.0, "GRAPROES": 0.0, "_ent": "24", "_mun": "020", "_loc": "0025"}, "geometry": {"type": "Polygon", "coordinates": [[[-100.67532, 23.57445], [-100.67361, 23.57396], [-100.6739, 23.57355], [-100.67308, 23.57373], [-100.67358, 23.57247], [-100.67588, 23.57293], [-100.67532, 23.57445]]]}}, {"id": "1859799", "type": "Feature", "properties": {"id": "1859799", "CVEGEO": "2402000250136007", "POBTOT": 0.0, "score_nse": 0.0, "NSE": null, "VIVTOT": 0.0, "GRAPROES": 0.0, "_ent": "24", "_mun": "020", "_loc": "0025"}, "geometry": {"type": "Polygon", "coordinates": [[[-100.6745, 23.57426], [-100.67438, 23.57467], [-100.67364, 23.57453], [-100.67375, 23.57405], [-100.6745, 23.57426]]]}}, {"id": "1859800", "type": "Feature", "properties": {"id": "1859800", "CVEGEO": "2402000250136009", "POBTOT": 0.0, "score_nse": 0.0, "NSE": null, "VIVTOT": 0.0, "GRAPROES": 0.0, "_ent": "24", "_mun": "020", "_loc": "0025"}, "geometry": {"type": "Polygon", "coordinates": [[[-100.67383, 23.57707], [-100.67403, 23.57719], [-100.6743, 23.57698], [-100.67512, 23.57707], [-100.675, 23.57835], [-100.67448, 23.57833], [-100.67403, 23.57851], [-100.6734, 23.5782], [-100.67333, 23.57778], [-100.67383, 23.57707]]]}}, {"id": "1859801", "type": "Feature", "properties": {"id": "1859801", "CVEGEO": "2402000250136010", "POBTOT": 0.0, "score_nse": 0.0, "NSE": null, "VIVTOT": 0.0, "GRAPROES": 0.0, "_ent": "24", "_mun": "020", "_loc": "0025"}, "geometry": {"type": "Polygon", "coordinates": [[[-100.67199, 23.5791], [-100.67198, 23.57857], [-100.67234, 23.57701], [-100.67286, 23.57757], [-100.67302, 23.57839], [-100.67256, 23.5792], [-100.67199, 23.5791]]]}}, {"id": "1859802", "type": "Feature", "properties": {"id": "1859802", "CVEGEO": "2402000250136012", "POBTOT": 0.0, "score_nse": 0.0, "NSE": null, "VIVTOT": 0.0, "GRAPROES": 0.0, "_ent": "24", "_mun": "020", "_loc": "0025"}, "geometry": {"type": "Polygon", "coordinates": [[[-100.67337, 23.57261], [-100.67229, 23.57239], [-100.67342, 23.57087], [-100.67386, 23.57072], [-100.67384, 23.57109], [-100.67352, 23.57155], [-100.67343, 23.57246], [-100.67337, 23.57261]]]}}, {"id": "1859803", "type": "Feature", "properties": {"id": "1859803", "CVEGEO": "2402000250136013", "POBTOT": 0.0, "score_nse": 0.0, "NSE": null, "VIVTOT": 0.0, "GRAPROES": 0.0, "_ent": "24", "_mun": "020", "_loc": "0025"}, "geometry": {"type": "Polygon", "coordinates": [[[-100.67354, 23.57237], [-100.6737, 23.57136], [-100.67411, 23.57119], [-100.67421, 23.57129], [-100.6739, 23.57225], [-100.67354, 23.57237]]]}}, {"id": "1859804", "type": "Feature", "properties": {"id": "1859804", "CVEGEO": "2402000250136014", "POBTOT": 0.0, "score_nse": 0.0, "NSE": null, "VIVTOT": 0.0, "GRAPROES": 0.0, "_ent": "24", "_mun": "020", "_loc": "0025"}, "geometry": {"type": "Polygon", "coordinates": [[[-100.67477, 23.57261], [-100.67376, 23.57241], [-100.67395, 23.57235], [-100.67427, 23.57129], [-100.67466, 23.57099], [-100.67521, 23.57109], [-100.67493, 23.57214], [-100.67477, 23.57216], [-100.67492, 23.57217], [-100.67477, 23.57261]]]}}, {"id": "1859805", "type": "Feature", "properties": {"id": "1859805", "CVEGEO": "2402000250136017", "POBTOT": 0.0, "score_nse": 0.0, "NSE": null, "VIVTOT": 0.0, "GRAPROES": 0.0, "_ent": "24", "_mun": "020", "_loc": "0025"}, "geometry": {"type": "Polygon", "coordinates": [[[-100.67244, 23.57971], [-100.67311, 23.57841], [-100.67334, 23.57862], [-100.67434, 23.5789], [-100.67439, 23.57931], [-100.67462, 23.57944], [-100.67505, 23.57945], [-100.67414, 23.57994], [-100.6733, 23.57992], [-100.67315, 23.57988], [-100.67327, 23.57952], [-100.67305, 23.57986], [-100.67244, 23.57971]]]}}, {"id": "1859806", "type": "Feature", "properties": {"id": "1859806", "CVEGEO": "2402000250136018", "POBTOT": 0.0, "score_nse": 0.0, "NSE": null, "VIVTOT": 0.0, "GRAPROES": 0.0, "_ent": "24", "_mun": "020", "_loc": "0025"}, "geometry": {"type": "Polygon", "coordinates": [[[-100.67205, 23.57967], [-100.67198, 23.57913], [-100.67255, 23.57923], [-100.67238, 23.57971], [-100.67205, 23.57967]]]}}, {"id": "1859807", "type": "Feature", "properties": {"id": "1859807", "CVEGEO": "2402000250136019", "POBTOT": 0.0, "score_nse": 0.0, "NSE": null, "VIVTOT": 0.0, "GRAPROES": 0.0, "_ent": "24", "_mun": "020", "_loc": "0025"}, "geometry": {"type": "Polygon", "coordinates": [[[-100.67156, 23.57998], [-100.67123, 23.57955], [-100.67198, 23.57951], [-100.67202, 23.57983], [-100.67156, 23.57998]]]}}, {"id": "1859808", "type": "Feature", "properties": {"id": "1859808", "CVEGEO": "2402000250136020", "POBTOT": 0.0, "score_nse": 0.0, "NSE": null, "VIVTOT": 0.0, "GRAPROES": 0.0, "_ent": "24", "_mun": "020", "_loc": "0025"}, "geometry": {"type": "Polygon", "coordinates": [[[-100.66995, 23.57781], [-100.67103, 23.5794], [-100.67154, 23.58009], [-100.67007, 23.58033], [-100.66969, 23.58014], [-100.66961, 23.57928], [-100.66984, 23.57882], [-100.66995, 23.57781]]]}}, {"id": "1859809", "type": "Feature", "properties": {"id": "1859809", "CVEGEO": "2402000250136021", "POBTOT": 0.0, "score_nse": 0.0, "NSE": null, "VIVTOT": 0.0, "GRAPROES": 0.0, "_ent": "24", "_mun": "020", "_loc": "0025"}, "geometry": {"type": "Polygon", "coordinates": [[[-100.67493, 23.5726], [-100.67525, 23.57154], [-100.67609, 23.57176], [-100.67587, 23.57287], [-100.67493, 23.5726]]]}}, {"id": "1859810", "type": "Feature", "properties": {"id": "1859810", "CVEGEO": "2402000250136023", "POBTOT": 0.0, "score_nse": 0.0, "NSE": null, "VIVTOT": 0.0, "GRAPROES": 0.0, "_ent": "24", "_mun": "020", "_loc": "0025"}, "geometry": {"type": "Polygon", "coordinates": [[[-100.67639, 23.5803], [-100.675, 23.58021], [-100.67482, 23.58012], [-100.67482, 23.57977], [-100.67515, 23.5795], [-100.6764, 23.57946], [-100.67639, 23.5803]]]}}, {"id": "1859811", "type": "Feature", "properties": {"id": "1859811", "CVEGEO": "2402000250136024", "POBTOT": 0.0, "score_nse": 0.0, "NSE": null, "VIVTOT": 0.0, "GRAPROES": 0.0, "_ent": "24", "_mun": "020", "_loc": "0025"}, "geometry": {"type": "Polygon", "coordinates": [[[-100.67424, 23.58], [-100.67613, 23.58056], [-100.67594, 23.58126], [-100.6724, 23.58096], [-100.67424, 23.58]]]}}, {"id": "1859812", "type": "Feature", "properties": {"id": "1859812", "CVEGEO": "2402000250136025", "POBTOT": 0.0, "score_nse": 0.0, "NSE": null, "VIVTOT": 0.0, "GRAPROES": 0.0, "_ent": "24", "_mun": "020", "_loc": "0025"}, "geometry": {"type": "Polygon", "coordinates": [[[-100.67207, 23.58095], [-100.67244, 23.57979], [-100.67374, 23.58001], [-100.67373, 23.58011], [-100.67207, 23.58095]]]}}, {"id": "1859813", "type": "Feature", "properties": {"id": "1859813", "CVEGEO": "2402000250136026", "POBTOT": 0.0, "score_nse": 0.0, "NSE": null, "VIVTOT": 0.0, "GRAPROES": 0.0, "_ent": "24", "_mun": "020", "_loc": "0025"}, "geometry": {"type": "Polygon", "coordinates": [[[-100.67184, 23.58133], [-100.67153, 23.58155], [-100.67067, 23.58109], [-100.6704, 23.58078], [-100.67036, 23.58034], [-100.67128, 23.58026], [-100.6723, 23.57982], [-100.67184, 23.58133]]]}}, {"id": "1859814", "type": "Feature", "properties": {"id": "1859814", "CVEGEO": "2402000250136027", "POBTOT": 0.0, "score_nse": 0.0, "NSE": null, "VIVTOT": 0.0, "GRAPROES": 0.0, "_ent": "24", "_mun": "020", "_loc": "0025"}, "geometry": {"type": "Polygon", "coordinates": [[[-100.6752, 23.57148], [-100.6754, 23.57059], [-100.67715, 23.57103], [-100.67692, 23.57193], [-100.6752, 23.57148]]]}}, {"id": "1859815", "type": "Feature", "properties": {"id": "1859815", "CVEGEO": "2402000250136032", "POBTOT": 0.0, "score_nse": 0.0, "NSE": null, "VIVTOT": 0.0, "GRAPROES": 0.0, "_ent": "24", "_mun": "020", "_loc": "0025"}, "geometry": {"type": "Polygon", "coordinates": [[[-100.6731, 23.5738], [-100.67365, 23.57368], [-100.67358, 23.57392], [-100.6731, 23.5738]]]}}, {"id": "1859816", "type": "Feature", "properties": {"id": "1859816", "CVEGEO": "2402000250136033", "POBTOT": 0.0, "score_nse": 0.0, "NSE": null, "VIVTOT": 0.0, "GRAPROES": 0.0, "_ent": "24", "_mun": "020", "_loc": "0025"}, "geometry": {"type": "Polygon", "coordinates": [[[-100.67664, 23.57305], [-100.67592, 23.57289], [-100.67615, 23.57176], [-100.6769, 23.57196], [-100.67664, 23.57305]]]}}, {"id": "1861042", "type": "Feature", "properties": {"id": "1861042", "CVEGEO": "2402000250136008", "POBTOT": 0.0, "score_nse": 0.0, "NSE": null, "VIVTOT": 0.0, "GRAPROES": 0.0, "_ent": "24", "_mun": "020", "_loc": "0025"}, "geometry": {"type": "Polygon", "coordinates": [[[-100.67465, 23.57423], [-100.67572, 23.57473], [-100.67542, 23.5759], [-100.67513, 23.57699], [-100.67391, 23.57702], [-100.67375, 23.57686], [-100.67465, 23.57423]]]}}, {"id": "1861412", "type": "Feature", "properties": {"id": "1861412", "CVEGEO": "2402000250136016", "POBTOT": 0.0, "score_nse": 0.0, "NSE": null, "VIVTOT": 0.0, "GRAPROES": 0.0, "_ent": "24", "_mun": "020", "_loc": "0025"}, "geometry": {"type": "Polygon", "coordinates": [[[-100.67521, 23.57699], [-100.67538, 23.57625], [-100.67755, 23.57662], [-100.67689, 23.57736], [-100.67521, 23.57699]]]}}]}