{"type": "FeatureCollection", "features": [{"id": "1627490", "type": "Feature", "properties": {"id": "1627490", "CVEGEO": "2056500180033005", "POBTOT": 0.0, "score_nse": 0.0, "NSE": null, "VIVTOT": 0.0, "GRAPROES": 0.0, "_ent": "20", "_mun": "565", "_loc": "0018"}, "geometry": {"type": "Polygon", "coordinates": [[[-96.76664, 16.95331], [-96.76604, 16.9527], [-96.7669, 16.95265], [-96.76664, 16.95331]]]}}, {"id": "1627491", "type": "Feature", "properties": {"id": "1627491", "CVEGEO": "2056500180033006", "POBTOT": 0.0, "score_nse": 0.0, "NSE": null, "VIVTOT": 0.0, "GRAPROES": 0.0, "_ent": "20", "_mun": "565", "_loc": "0018"}, "geometry": {"type": "Polygon", "coordinates": [[[-96.7642, 16.9591], [-96.76471, 16.95709], [-96.76515, 16.9572], [-96.76444, 16.95914], [-96.7642, 16.9591]]]}}, {"id": "1627500", "type": "Feature", "properties": {"id": "1627500", "CVEGEO": "2056500180033003", "POBTOT": 0.0, "score_nse": 0.0, "NSE": null, "VIVTOT": 0.0, "GRAPROES": 0.0, "_ent": "20", "_mun": "565", "_loc": "0018"}, "geometry": {"type": "Polygon", "coordinates": [[[-96.76328, 16.95887], [-96.76377, 16.95689], [-96.76425, 16.95698], [-96.76373, 16.959], [-96.76328, 16.95887]]]}}, {"id": "1627501", "type": "Feature", "properties": {"id": "1627501", "CVEGEO": "2056500180033002", "POBTOT": 0.0, "score_nse": 0.0, "NSE": null, "VIVTOT": 0.0, "GRAPROES": 0.0, "_ent": "20", "_mun": "565", "_loc": "0018"}, "geometry": {"type": "Polygon", "coordinates": [[[-96.76465, 16.95707], [-96.76413, 16.9591], [-96.76378, 16.95902], [-96.76431, 16.957], [-96.76465, 16.95707]]]}}, {"id": "1627608", "type": "Feature", "properties": {"id": "1627608", "CVEGEO": "2056500180033001", "POBTOT": 0.0, "score_nse": 0.0, "NSE": null, "VIVTOT": 0.0, "GRAPROES": 0.0, "_ent": "20", "_mun": "565", "_loc": "0018"}, "geometry": {"type": "Polygon", "coordinates": [[[-96.76658, 16.95344], [-96.76629, 16.95422], [-96.76414, 16.9537], [-96.76628, 16.95427], [-96.76592, 16.95533], [-96.76417, 16.95498], [-96.7659, 16.95536], [-96.76576, 16.9557], [-96.764, 16.95535], [-96.76575, 16.95574], [-96.76559, 16.95613], [-96.76411, 16.95584], [-96.76558, 16.95616], [-96.76519, 16.95713], [-96.76347, 16.95676], [-96.76365, 16.95596], [-96.76344, 16.95581], [-96.76372, 16.95445], [-96.76337, 16.9558], [-96.76286, 16.95567], [-96.76318, 16.95427], [-96.76278, 16.95423], [-96.76251, 16.95558], [-96.76237, 16.95555], [-96.76267, 16.95408], [-96.76301, 16.9541], [-96.76231, 16.95396], [-96.76195, 16.95545], [-96.76146, 16.95534], [-96.76161, 16.95471], [-96.76195, 16.95477], [-96.76161, 16.95467], [-96.76185, 16.95373], [-96.76342, 16.95405], [-96.76181, 16.95368], [-96.76139, 16.95531], [-96.76014, 16.9552], [-96.75964, 16.95496], [-96.76002, 16.95351], [-96.75981, 16.95336], [-96.75988, 16.95297], [-96.76593, 16.95271], [-96.76658, 16.95344]]]}}, {"id": "1627609", "type": "Feature", "properties": {"id": "1627609", "CVEGEO": "2056500180033004", "POBTOT": 0.0, "score_nse": 0.0, "NSE": null, "VIVTOT": 0.0, "GRAPROES": 0.0, "_ent": "20", "_mun": "565", "_loc": "0018"}, "geometry": {"type": "Polygon", "coordinates": [[[-96.76345, 16.95587], [-96.76361, 16.95592], [-96.76341, 16.9568], [-96.76371, 16.95693], [-96.76324, 16.95885], [-96.76277, 16.95872], [-96.76345, 16.95587]]]}}, {"id": "1627610", "type": "Feature", "properties": {"id": "1627610", "CVEGEO": "2056500180033007", "POBTOT": 0.0, "score_nse": 0.0, "NSE": null, "VIVTOT": 0.0, "GRAPROES": 0.0, "_ent": "20", "_mun": "565", "_loc": "0018"}, "geometry": {"type": "Polygon", "coordinates": [[[-96.76314, 16.95432], [-96.76282, 16.95566], [-96.76255, 16.9556], [-96.76285, 16.95427], [-96.76314, 16.95432]]]}}, {"id": "1627611", "type": "Feature", "properties": {"id": "1627611", "CVEGEO": "2056500180033008", "POBTOT": 0.0, "score_nse": 0.0, "NSE": null, "VIVTOT": 0.0, "GRAPROES": 0.0, "_ent": "20", "_mun": "565", "_loc": "0018"}, "geometry": {"type": "Polygon", "coordinates": [[[-96.76232, 16.95554], [-96.762, 16.95546], [-96.76235, 16.95402], [-96.76262, 16.95407], [-96.76232, 16.95554]]]}}]}