{"type": "FeatureCollection", "features": [{"id": "1557089", "type": "Feature", "properties": {"id": "1557089", "CVEGEO": "2033000240018002", "POBTOT": 0.0, "score_nse": 0.0, "NSE": null, "VIVTOT": 0.0, "GRAPROES": 0.0, "_ent": "20", "_mun": "330", "_loc": "0024"}, "geometry": {"type": "Polygon", "coordinates": [[[-96.70002, 17.96503], [-96.70143, 17.96549], [-96.70175, 17.96618], [-96.70126, 17.96623], [-96.70103, 17.96559], [-96.70032, 17.96534], [-96.70002, 17.96503]]]}}, {"id": "1557090", "type": "Feature", "properties": {"id": "1557090", "CVEGEO": "2033000240018001", "POBTOT": 0.0, "score_nse": 0.0, "NSE": null, "VIVTOT": 0.0, "GRAPROES": 0.0, "_ent": "20", "_mun": "330", "_loc": "0024"}, "geometry": {"type": "Polygon", "coordinates": [[[-96.70175, 17.96821], [-96.70129, 17.96628], [-96.70177, 17.96623], [-96.70244, 17.96919], [-96.70175, 17.96821]]]}}, {"id": "1557109", "type": "Feature", "properties": {"id": "1557109", "CVEGEO": "2033000240018003", "POBTOT": 0.0, "score_nse": 0.0, "NSE": null, "VIVTOT": 0.0, "GRAPROES": 0.0, "_ent": "20", "_mun": "330", "_loc": "0024"}, "geometry": {"type": "Polygon", "coordinates": [[[-96.70261, 17.96856], [-96.70318, 17.96974], [-96.70304, 17.97007], [-96.70227, 17.9706], [-96.7022, 17.97086], [-96.7024, 17.97099], [-96.7023, 17.97132], [-96.70137, 17.9719], [-96.70169, 17.97021], [-96.70246, 17.96938], [-96.70234, 17.96839], [-96.70261, 17.96856]]]}}]}