{"type": "FeatureCollection", "features": [{"id": "633644", "type": "Feature", "properties": {"id": "633644", "CVEGEO": "1101500880266002", "POBTOT": 0.0, "score_nse": 0.0, "NSE": null, "VIVTOT": 0.0, "GRAPROES": 0.0, "_ent": "11", "_mun": "015", "_loc": "0088"}, "geometry": {"type": "Polygon", "coordinates": [[[-101.25275, 20.89024], [-101.25269, 20.89009], [-101.25318, 20.88963], [-101.25335, 20.88975], [-101.25275, 20.89024]]]}}, {"id": "633807", "type": "Feature", "properties": {"id": "633807", "CVEGEO": "1101500880266008", "POBTOT": 0.0, "score_nse": 0.0, "NSE": null, "VIVTOT": 0.0, "GRAPROES": 0.0, "_ent": "11", "_mun": "015", "_loc": "0088"}, "geometry": {"type": "Polygon", "coordinates": [[[-101.25362, 20.89248], [-101.25358, 20.89218], [-101.2541, 20.89187], [-101.25415, 20.89226], [-101.25443, 20.89247], [-101.25362, 20.89248]]]}}, {"id": "633808", "type": "Feature", "properties": {"id": "633808", "CVEGEO": "1101500880266007", "POBTOT": 0.0, "score_nse": 0.0, "NSE": null, "VIVTOT": 0.0, "GRAPROES": 0.0, "_ent": "11", "_mun": "015", "_loc": "0088"}, "geometry": {"type": "Polygon", "coordinates": [[[-101.25354, 20.89204], [-101.25349, 20.89168], [-101.25403, 20.89174], [-101.25397, 20.89191], [-101.25354, 20.89204]]]}}, {"id": "633809", "type": "Feature", "properties": {"id": "633809", "CVEGEO": "1101500880266006", "POBTOT": 0.0, "score_nse": 0.0, "NSE": null, "VIVTOT": 0.0, "GRAPROES": 0.0, "_ent": "11", "_mun": "015", "_loc": "0088"}, "geometry": {"type": "Polygon", "coordinates": [[[-101.25508, 20.88722], [-101.25515, 20.888], [-101.2549, 20.88814], [-101.25459, 20.88762], [-101.25456, 20.88727], [-101.25508, 20.88722]]]}}, {"id": "633810", "type": "Feature", "properties": {"id": "633810", "CVEGEO": "1101500880266005", "POBTOT": 0.0, "score_nse": 0.0, "NSE": null, "VIVTOT": 0.0, "GRAPROES": 0.0, "_ent": "11", "_mun": "015", "_loc": "0088"}, "geometry": {"type": "Polygon", "coordinates": [[[-101.25448, 20.89164], [-101.25371, 20.89157], [-101.25433, 20.89098], [-101.25527, 20.89125], [-101.25448, 20.89164]]]}}, {"id": "633811", "type": "Feature", "properties": {"id": "633811", "CVEGEO": "1101500880266004", "POBTOT": 0.0, "score_nse": 0.0, "NSE": null, "VIVTOT": 0.0, "GRAPROES": 0.0, "_ent": "11", "_mun": "015", "_loc": "0088"}, "geometry": {"type": "Polygon", "coordinates": [[[-101.25218, 20.88956], [-101.25225, 20.88992], [-101.25193, 20.89028], [-101.25153, 20.88956], [-101.25218, 20.88956]]]}}, {"id": "633812", "type": "Feature", "properties": {"id": "633812", "CVEGEO": "1101500880266003", "POBTOT": 0.0, "score_nse": 0.0, "NSE": null, "VIVTOT": 0.0, "GRAPROES": 0.0, "_ent": "11", "_mun": "015", "_loc": "0088"}, "geometry": {"type": "Polygon", "coordinates": [[[-101.25299, 20.89065], [-101.25216, 20.89062], [-101.25196, 20.89033], [-101.25231, 20.8899], [-101.25299, 20.89065]]]}}, {"id": "634074", "type": "Feature", "properties": {"id": "634074", "CVEGEO": "1101500880266009", "POBTOT": 0.0, "score_nse": 0.0, "NSE": null, "VIVTOT": 0.0, "GRAPROES": 0.0, "_ent": "11", "_mun": "015", "_loc": "0088"}, "geometry": {"type": "Polygon", "coordinates": [[[-101.25364, 20.88926], [-101.25325, 20.88925], [-101.25313, 20.88954], [-101.25179, 20.88747], [-101.25165, 20.88762], [-101.25163, 20.88732], [-101.25304, 20.88731], [-101.25364, 20.88926]]]}}, {"id": "634075", "type": "Feature", "properties": {"id": "634075", "CVEGEO": "1101500880266001", "POBTOT": 0.0, "score_nse": 0.0, "NSE": null, "VIVTOT": 0.0, "GRAPROES": 0.0, "_ent": "11", "_mun": "015", "_loc": "0088"}, "geometry": {"type": "Polygon", "coordinates": [[[-101.25168, 20.88838], [-101.25176, 20.88755], [-101.25299, 20.88952], [-101.25253, 20.89013], [-101.25224, 20.8896], [-101.25223, 20.88921], [-101.25213, 20.88885], [-101.25208, 20.88935], [-101.25143, 20.88927], [-101.25165, 20.88896], [-101.25168, 20.8886], [-101.25196, 20.88841], [-101.25168, 20.88838]]]}}]}