{"type": "FeatureCollection", "features": [{"id": "1307670", "type": "Feature", "properties": {"id": "1307670", "CVEGEO": "1609901670095004", "POBTOT": 0.0, "score_nse": 0.0, "NSE": null, "VIVTOT": 0.0, "GRAPROES": 0.0, "_ent": "16", "_mun": "099", "_loc": "0167"}, "geometry": {"type": "Polygon", "coordinates": [[[-100.5659, 19.21811], [-100.56617, 19.21757], [-100.56668, 19.21774], [-100.56603, 19.21823], [-100.5659, 19.21811]]]}}, {"id": "1307671", "type": "Feature", "properties": {"id": "1307671", "CVEGEO": "1609901670095001", "POBTOT": 0.0, "score_nse": 0.0, "NSE": null, "VIVTOT": 0.0, "GRAPROES": 0.0, "_ent": "16", "_mun": "099", "_loc": "0167"}, "geometry": {"type": "Polygon", "coordinates": [[[-100.56531, 19.21816], [-100.56535, 19.21775], [-100.56551, 19.21711], [-100.5661, 19.21757], [-100.56585, 19.21793], [-100.56554, 19.2178], [-100.5655, 19.21809], [-100.56577, 19.2183], [-100.56569, 19.21844], [-100.56531, 19.21816]]]}}, {"id": "1307672", "type": "Feature", "properties": {"id": "1307672", "CVEGEO": "1609901670095005", "POBTOT": 0.0, "score_nse": 0.0, "NSE": null, "VIVTOT": 0.0, "GRAPROES": 0.0, "_ent": "16", "_mun": "099", "_loc": "0167"}, "geometry": {"type": "Polygon", "coordinates": [[[-100.56552, 19.21707], [-100.56562, 19.21676], [-100.56594, 19.21692], [-100.56581, 19.21721], [-100.56552, 19.21707]]]}}]}