{"type": "FeatureCollection", "features": [{"id": "636093", "type": "Feature", "properties": {"id": "636093", "CVEGEO": "1101700770025013", "POBTOT": 0.0, "score_nse": 0.0, "NSE": null, "VIVTOT": 0.0, "GRAPROES": 0.0, "_ent": "11", "_mun": "017", "_loc": "0077"}, "geometry": {"type": "Polygon", "coordinates": [[[-101.23524, 20.81722], [-101.23394, 20.81666], [-101.23471, 20.81666], [-101.2346, 20.81649], [-101.23534, 20.81608], [-101.23537, 20.81706], [-101.23524, 20.81722]]]}}, {"id": "636094", "type": "Feature", "properties": {"id": "636094", "CVEGEO": "1101700770025011", "POBTOT": 0.0, "score_nse": 0.0, "NSE": null, "VIVTOT": 0.0, "GRAPROES": 0.0, "_ent": "11", "_mun": "017", "_loc": "0077"}, "geometry": {"type": "Polygon", "coordinates": [[[-101.23497, 20.81264], [-101.23544, 20.81204], [-101.23565, 20.81213], [-101.23528, 20.8127], [-101.23527, 20.81303], [-101.23499, 20.81309], [-101.23497, 20.81264]]]}}, {"id": "638054", "type": "Feature", "properties": {"id": "638054", "CVEGEO": "1101700770025004", "POBTOT": 0.0, "score_nse": 0.0, "NSE": null, "VIVTOT": 0.0, "GRAPROES": 0.0, "_ent": "11", "_mun": "017", "_loc": "0077"}, "geometry": {"type": "Polygon", "coordinates": [[[-101.23315, 20.81336], [-101.23281, 20.81266], [-101.23311, 20.81248], [-101.23362, 20.81264], [-101.23343, 20.81293], [-101.23365, 20.81348], [-101.23329, 20.81329], [-101.23315, 20.81336]]]}}, {"id": "638055", "type": "Feature", "properties": {"id": "638055", "CVEGEO": "1101700770025003", "POBTOT": 0.0, "score_nse": 0.0, "NSE": null, "VIVTOT": 0.0, "GRAPROES": 0.0, "_ent": "11", "_mun": "017", "_loc": "0077"}, "geometry": {"type": "Polygon", "coordinates": [[[-101.23202, 20.81265], [-101.23209, 20.81214], [-101.23261, 20.81247], [-101.23281, 20.81286], [-101.23257, 20.81335], [-101.23239, 20.81329], [-101.23202, 20.81265]]]}}, {"id": "638163", "type": "Feature", "properties": {"id": "638163", "CVEGEO": "1101700770025002", "POBTOT": 0.0, "score_nse": 0.0, "NSE": null, "VIVTOT": 0.0, "GRAPROES": 0.0, "_ent": "11", "_mun": "017", "_loc": "0077"}, "geometry": {"type": "Polygon", "coordinates": [[[-101.23251, 20.81379], [-101.23239, 20.81348], [-101.23254, 20.81338], [-101.23264, 20.81374], [-101.23251, 20.81379]]]}}, {"id": "638669", "type": "Feature", "properties": {"id": "638669", "CVEGEO": "1101700770025009", "POBTOT": 0.0, "score_nse": 0.0, "NSE": null, "VIVTOT": 0.0, "GRAPROES": 0.0, "_ent": "11", "_mun": "017", "_loc": "0077"}, "geometry": {"type": "Polygon", "coordinates": [[[-101.2335, 20.81247], [-101.23411, 20.81212], [-101.23426, 20.81261], [-101.234, 20.81268], [-101.2335, 20.81247]]]}}, {"id": "638670", "type": "Feature", "properties": {"id": "638670", "CVEGEO": "1101700770025008", "POBTOT": 0.0, "score_nse": 0.0, "NSE": null, "VIVTOT": 0.0, "GRAPROES": 0.0, "_ent": "11", "_mun": "017", "_loc": "0077"}, "geometry": {"type": "Polygon", "coordinates": [[[-101.23232, 20.81217], [-101.23278, 20.81222], [-101.23309, 20.81244], [-101.2328, 20.81263], [-101.23232, 20.81217]]]}}, {"id": "640525", "type": "Feature", "properties": {"id": "640525", "CVEGEO": "1101700770025006", "POBTOT": 0.0, "score_nse": 0.0, "NSE": null, "VIVTOT": 0.0, "GRAPROES": 0.0, "_ent": "11", "_mun": "017", "_loc": "0077"}, "geometry": {"type": "Polygon", "coordinates": [[[-101.23443, 20.81654], [-101.23395, 20.81645], [-101.23394, 20.81632], [-101.23412, 20.81614], [-101.23434, 20.81626], [-101.23439, 20.81602], [-101.23468, 20.81588], [-101.23489, 20.81585], [-101.23522, 20.81609], [-101.23443, 20.81654]]]}}, {"id": "641822", "type": "Feature", "properties": {"id": "641822", "CVEGEO": "1101700770025017", "POBTOT": 0.0, "score_nse": 0.0, "NSE": null, "VIVTOT": 0.0, "GRAPROES": 0.0, "_ent": "11", "_mun": "017", "_loc": "0077"}, "geometry": {"type": "Polygon", "coordinates": [[[-101.23492, 20.8132], [-101.23525, 20.81309], [-101.2356, 20.81364], [-101.23525, 20.8138], [-101.23492, 20.8132]]]}}, {"id": "641867", "type": "Feature", "properties": {"id": "641867", "CVEGEO": "1101700770025018", "POBTOT": 0.0, "score_nse": 0.0, "NSE": null, "VIVTOT": 0.0, "GRAPROES": 0.0, "_ent": "11", "_mun": "017", "_loc": "0077"}, "geometry": {"type": "Polygon", "coordinates": [[[-101.23804, 20.81744], [-101.2381, 20.81769], [-101.23703, 20.81782], [-101.23691, 20.81751], [-101.23804, 20.81744]]]}}, {"id": "641868", "type": "Feature", "properties": {"id": "641868", "CVEGEO": "1101700770025019", "POBTOT": 0.0, "score_nse": 0.0, "NSE": null, "VIVTOT": 0.0, "GRAPROES": 0.0, "_ent": "11", "_mun": "017", "_loc": "0077"}, "geometry": {"type": "Polygon", "coordinates": [[[-101.23706, 20.81786], [-101.23819, 20.81773], [-101.23845, 20.81799], [-101.23746, 20.81832], [-101.23706, 20.81786]]]}}, {"id": "641869", "type": "Feature", "properties": {"id": "641869", "CVEGEO": "1101700770025020", "POBTOT": 0.0, "score_nse": 0.0, "NSE": null, "VIVTOT": 0.0, "GRAPROES": 0.0, "_ent": "11", "_mun": "017", "_loc": "0077"}, "geometry": {"type": "Polygon", "coordinates": [[[-101.23767, 20.8163], [-101.2379, 20.81624], [-101.23821, 20.81705], [-101.23798, 20.81714], [-101.23767, 20.8163]]]}}, {"id": "641957", "type": "Feature", "properties": {"id": "641957", "CVEGEO": "1101700770025005", "POBTOT": 0.0, "score_nse": 0.0, "NSE": null, "VIVTOT": 0.0, "GRAPROES": 0.0, "_ent": "11", "_mun": "017", "_loc": "0077"}, "geometry": {"type": "Polygon", "coordinates": [[[-101.23486, 20.81318], [-101.23447, 20.81302], [-101.23457, 20.81269], [-101.23491, 20.81265], [-101.23486, 20.81318]]]}}, {"id": "641960", "type": "Feature", "properties": {"id": "641960", "CVEGEO": "1101700770025010", "POBTOT": 0.0, "score_nse": 0.0, "NSE": null, "VIVTOT": 0.0, "GRAPROES": 0.0, "_ent": "11", "_mun": "017", "_loc": "0077"}, "geometry": {"type": "Polygon", "coordinates": [[[-101.23406, 20.81289], [-101.23499, 20.81176], [-101.23541, 20.81205], [-101.23521, 20.81236], [-101.23496, 20.81259], [-101.23406, 20.81289]]]}}, {"id": "641961", "type": "Feature", "properties": {"id": "641961", "CVEGEO": "1101700770025012", "POBTOT": 0.0, "score_nse": 0.0, "NSE": null, "VIVTOT": 0.0, "GRAPROES": 0.0, "_ent": "11", "_mun": "017", "_loc": "0077"}, "geometry": {"type": "Polygon", "coordinates": [[[-101.23539, 20.8133], [-101.23544, 20.81251], [-101.23601, 20.81255], [-101.23584, 20.81304], [-101.23539, 20.8133]]]}}, {"id": "641962", "type": "Feature", "properties": {"id": "641962", "CVEGEO": "1101700770025015", "POBTOT": 0.0, "score_nse": 0.0, "NSE": null, "VIVTOT": 0.0, "GRAPROES": 0.0, "_ent": "11", "_mun": "017", "_loc": "0077"}, "geometry": {"type": "Polygon", "coordinates": [[[-101.23499, 20.81163], [-101.23512, 20.81124], [-101.23576, 20.81137], [-101.23593, 20.81144], [-101.23597, 20.81192], [-101.23578, 20.81206], [-101.23539, 20.812], [-101.23513, 20.81193], [-101.23499, 20.81163]]]}}, {"id": "641963", "type": "Feature", "properties": {"id": "641963", "CVEGEO": "1101700770025016", "POBTOT": 0.0, "score_nse": 0.0, "NSE": null, "VIVTOT": 0.0, "GRAPROES": 0.0, "_ent": "11", "_mun": "017", "_loc": "0077"}, "geometry": {"type": "Polygon", "coordinates": [[[-101.23758, 20.81627], [-101.23773, 20.8167], [-101.23736, 20.81681], [-101.23776, 20.81677], [-101.23799, 20.81737], [-101.23689, 20.81742], [-101.23677, 20.81654], [-101.23758, 20.81627]]]}}, {"id": "642985", "type": "Feature", "properties": {"id": "642985", "CVEGEO": "1101700770025007", "POBTOT": 0.0, "score_nse": 0.0, "NSE": null, "VIVTOT": 0.0, "GRAPROES": 0.0, "_ent": "11", "_mun": "017", "_loc": "0077"}, "geometry": {"type": "Polygon", "coordinates": [[[-101.23341, 20.81504], [-101.23439, 20.81563], [-101.23466, 20.81586], [-101.23424, 20.81617], [-101.2341, 20.81609], [-101.23377, 20.81644], [-101.23295, 20.815], [-101.23301, 20.81484], [-101.23334, 20.81499], [-101.23344, 20.81544], [-101.23341, 20.81504]]]}}, {"id": "642986", "type": "Feature", "properties": {"id": "642986", "CVEGEO": "1101700770025001", "POBTOT": 0.0, "score_nse": 0.0, "NSE": null, "VIVTOT": 0.0, "GRAPROES": 0.0, "_ent": "11", "_mun": "017", "_loc": "0077"}, "geometry": {"type": "Polygon", "coordinates": [[[-101.23276, 20.81393], [-101.2326, 20.81338], [-101.23284, 20.8129], [-101.23315, 20.81341], [-101.23328, 20.81334], [-101.23367, 20.81354], [-101.23395, 20.81412], [-101.23547, 20.81581], [-101.23433, 20.81477], [-101.2355, 20.81593], [-101.23526, 20.81607], [-101.23365, 20.8152], [-101.23276, 20.81393]]]}}]}