{"type": "FeatureCollection", "features": [{"id": "636343", "type": "Feature", "properties": {"id": "636343", "CVEGEO": "1101700930311024", "POBTOT": 0.0, "score_nse": 0.0, "NSE": null, "VIVTOT": 0.0, "GRAPROES": 0.0, "_ent": "11", "_mun": "017", "_loc": "0093"}, "geometry": {"type": "Polygon", "coordinates": [[[-101.46536, 20.61209], [-101.4656, 20.61157], [-101.46594, 20.61163], [-101.46536, 20.61209]]]}}, {"id": "636344", "type": "Feature", "properties": {"id": "636344", "CVEGEO": "1101700930311014", "POBTOT": 0.0, "score_nse": 0.0, "NSE": null, "VIVTOT": 0.0, "GRAPROES": 0.0, "_ent": "11", "_mun": "017", "_loc": "0093"}, "geometry": {"type": "Polygon", "coordinates": [[[-101.46705, 20.60411], [-101.46666, 20.60401], [-101.46632, 20.60386], [-101.46646, 20.60365], [-101.46705, 20.60411]]]}}, {"id": "636345", "type": "Feature", "properties": {"id": "636345", "CVEGEO": "1101700930311013", "POBTOT": 0.0, "score_nse": 0.0, "NSE": null, "VIVTOT": 0.0, "GRAPROES": 0.0, "_ent": "11", "_mun": "017", "_loc": "0093"}, "geometry": {"type": "Polygon", "coordinates": [[[-101.46626, 20.60383], [-101.46608, 20.60373], [-101.46571, 20.60308], [-101.46641, 20.60359], [-101.46626, 20.60383]]]}}, {"id": "636346", "type": "Feature", "properties": {"id": "636346", "CVEGEO": "1101700930311012", "POBTOT": 0.0, "score_nse": 0.0, "NSE": null, "VIVTOT": 0.0, "GRAPROES": 0.0, "_ent": "11", "_mun": "017", "_loc": "0093"}, "geometry": {"type": "Polygon", "coordinates": [[[-101.46615, 20.60472], [-101.46583, 20.60478], [-101.46445, 20.60407], [-101.46541, 20.60368], [-101.466, 20.6038], [-101.46622, 20.60429], [-101.46615, 20.60472]]]}}, {"id": "636347", "type": "Feature", "properties": {"id": "636347", "CVEGEO": "1101700930311009", "POBTOT": 0.0, "score_nse": 0.0, "NSE": null, "VIVTOT": 0.0, "GRAPROES": 0.0, "_ent": "11", "_mun": "017", "_loc": "0093"}, "geometry": {"type": "Polygon", "coordinates": [[[-101.46689, 20.6067], [-101.46717, 20.60752], [-101.46664, 20.6075], [-101.46662, 20.60708], [-101.46638, 20.60709], [-101.46636, 20.60689], [-101.46525, 20.60701], [-101.46524, 20.60689], [-101.46689, 20.6067]]]}}, {"id": "636348", "type": "Feature", "properties": {"id": "636348", "CVEGEO": "1101700930311008", "POBTOT": 0.0, "score_nse": 0.0, "NSE": null, "VIVTOT": 0.0, "GRAPROES": 0.0, "_ent": "11", "_mun": "017", "_loc": "0093"}, "geometry": {"type": "Polygon", "coordinates": [[[-101.47025, 20.6079], [-101.46924, 20.60814], [-101.46917, 20.60801], [-101.46815, 20.60839], [-101.46817, 20.60795], [-101.46948, 20.60726], [-101.46945, 20.60756], [-101.46955, 20.60727], [-101.47055, 20.60772], [-101.47088, 20.60799], [-101.47086, 20.6083], [-101.47025, 20.6079]]]}}, {"id": "638042", "type": "Feature", "properties": {"id": "638042", "CVEGEO": "1101700930311007", "POBTOT": 0.0, "score_nse": 0.0, "NSE": null, "VIVTOT": 0.0, "GRAPROES": 0.0, "_ent": "11", "_mun": "017", "_loc": "0093"}, "geometry": {"type": "Polygon", "coordinates": [[[-101.46955, 20.60706], [-101.47002, 20.60642], [-101.47016, 20.60643], [-101.47028, 20.60682], [-101.47021, 20.60643], [-101.47104, 20.60619], [-101.47137, 20.60627], [-101.471, 20.60682], [-101.47024, 20.60746], [-101.46955, 20.60706]]]}}, {"id": "638043", "type": "Feature", "properties": {"id": "638043", "CVEGEO": "1101700930311006", "POBTOT": 0.0, "score_nse": 0.0, "NSE": null, "VIVTOT": 0.0, "GRAPROES": 0.0, "_ent": "11", "_mun": "017", "_loc": "0093"}, "geometry": {"type": "Polygon", "coordinates": [[[-101.47001, 20.60608], [-101.47046, 20.60556], [-101.47094, 20.60585], [-101.471, 20.60613], [-101.47018, 20.6064], [-101.47001, 20.60608]]]}}, {"id": "638097", "type": "Feature", "properties": {"id": "638097", "CVEGEO": "1101700930311004", "POBTOT": 0.0, "score_nse": 0.0, "NSE": null, "VIVTOT": 0.0, "GRAPROES": 0.0, "_ent": "11", "_mun": "017", "_loc": "0093"}, "geometry": {"type": "Polygon", "coordinates": [[[-101.46977, 20.60562], [-101.46894, 20.60577], [-101.46887, 20.60502], [-101.46941, 20.60513], [-101.46977, 20.60562]]]}}, {"id": "638887", "type": "Feature", "properties": {"id": "638887", "CVEGEO": "1101700930311023", "POBTOT": 0.0, "score_nse": 0.0, "NSE": null, "VIVTOT": 0.0, "GRAPROES": 0.0, "_ent": "11", "_mun": "017", "_loc": "0093"}, "geometry": {"type": "Polygon", "coordinates": [[[-101.46631, 20.60956], [-101.46659, 20.60954], [-101.4669, 20.61056], [-101.46663, 20.61086], [-101.46671, 20.61116], [-101.46541, 20.6128], [-101.4652, 20.61226], [-101.4662, 20.61146], [-101.46596, 20.61159], [-101.46561, 20.61152], [-101.46621, 20.61058], [-101.46631, 20.60956]]]}}, {"id": "638888", "type": "Feature", "properties": {"id": "638888", "CVEGEO": "1101700930311022", "POBTOT": 0.0, "score_nse": 0.0, "NSE": null, "VIVTOT": 0.0, "GRAPROES": 0.0, "_ent": "11", "_mun": "017", "_loc": "0093"}, "geometry": {"type": "Polygon", "coordinates": [[[-101.47329, 20.60988], [-101.47457, 20.61101], [-101.47428, 20.61131], [-101.47307, 20.61012], [-101.47329, 20.60988]]]}}, {"id": "638889", "type": "Feature", "properties": {"id": "638889", "CVEGEO": "1101700930311021", "POBTOT": 0.0, "score_nse": 0.0, "NSE": null, "VIVTOT": 0.0, "GRAPROES": 0.0, "_ent": "11", "_mun": "017", "_loc": "0093"}, "geometry": {"type": "Polygon", "coordinates": [[[-101.4739, 20.61163], [-101.47272, 20.61033], [-101.47297, 20.6101], [-101.47417, 20.61132], [-101.4739, 20.61163]]]}}, {"id": "638890", "type": "Feature", "properties": {"id": "638890", "CVEGEO": "1101700930311001", "POBTOT": 0.0, "score_nse": 0.0, "NSE": null, "VIVTOT": 0.0, "GRAPROES": 0.0, "_ent": "11", "_mun": "017", "_loc": "0093"}, "geometry": {"type": "Polygon", "coordinates": [[[-101.4699, 20.60632], [-101.46925, 20.60717], [-101.46902, 20.60672], [-101.46908, 20.60592], [-101.46978, 20.60573], [-101.4699, 20.60632]]]}}, {"id": "640510", "type": "Feature", "properties": {"id": "640510", "CVEGEO": "1101700930311018", "POBTOT": 0.0, "score_nse": 0.0, "NSE": null, "VIVTOT": 0.0, "GRAPROES": 0.0, "_ent": "11", "_mun": "017", "_loc": "0093"}, "geometry": {"type": "Polygon", "coordinates": [[[-101.47117, 20.60875], [-101.47093, 20.60869], [-101.47076, 20.60884], [-101.471, 20.60807], [-101.47289, 20.61002], [-101.47266, 20.61022], [-101.47117, 20.60875]]]}}, {"id": "640511", "type": "Feature", "properties": {"id": "640511", "CVEGEO": "1101700930311017", "POBTOT": 0.0, "score_nse": 0.0, "NSE": null, "VIVTOT": 0.0, "GRAPROES": 0.0, "_ent": "11", "_mun": "017", "_loc": "0093"}, "geometry": {"type": "Polygon", "coordinates": [[[-101.47099, 20.60798], [-101.4703, 20.60748], [-101.47106, 20.60685], [-101.4714, 20.60633], [-101.47161, 20.6065], [-101.47171, 20.60699], [-101.47106, 20.60714], [-101.47113, 20.60794], [-101.47099, 20.60798]]]}}, {"id": "640913", "type": "Feature", "properties": {"id": "640913", "CVEGEO": "1101700930311015", "POBTOT": 0.0, "score_nse": 0.0, "NSE": null, "VIVTOT": 0.0, "GRAPROES": 0.0, "_ent": "11", "_mun": "017", "_loc": "0093"}, "geometry": {"type": "Polygon", "coordinates": [[[-101.46699, 20.60348], [-101.46701, 20.60395], [-101.46609, 20.60324], [-101.46675, 20.6035], [-101.46699, 20.60348]]]}}, {"id": "641479", "type": "Feature", "properties": {"id": "641479", "CVEGEO": "1101700930311010", "POBTOT": 0.0, "score_nse": 0.0, "NSE": null, "VIVTOT": 0.0, "GRAPROES": 0.0, "_ent": "11", "_mun": "017", "_loc": "0093"}, "geometry": {"type": "Polygon", "coordinates": [[[-101.46617, 20.60596], [-101.46602, 20.60546], [-101.46569, 20.60522], [-101.46619, 20.60477], [-101.46657, 20.60586], [-101.46617, 20.60596]]]}}, {"id": "641801", "type": "Feature", "properties": {"id": "641801", "CVEGEO": "1101700930311025", "POBTOT": 0.0, "score_nse": 0.0, "NSE": null, "VIVTOT": 0.0, "GRAPROES": 0.0, "_ent": "11", "_mun": "017", "_loc": "0093"}, "geometry": {"type": "Polygon", "coordinates": [[[-101.46651, 20.60671], [-101.46635, 20.60597], [-101.46659, 20.60591], [-101.46683, 20.60664], [-101.46651, 20.60671]]]}}, {"id": "641986", "type": "Feature", "properties": {"id": "641986", "CVEGEO": "1101700930311002", "POBTOT": 0.0, "score_nse": 0.0, "NSE": null, "VIVTOT": 0.0, "GRAPROES": 0.0, "_ent": "11", "_mun": "017", "_loc": "0093"}, "geometry": {"type": "Polygon", "coordinates": [[[-101.46717, 20.60654], [-101.46894, 20.6067], [-101.46915, 20.60724], [-101.46762, 20.60816], [-101.46702, 20.60717], [-101.46693, 20.60667], [-101.46717, 20.60654]]]}}, {"id": "642204", "type": "Feature", "properties": {"id": "642204", "CVEGEO": "1101700930311020", "POBTOT": 0.0, "score_nse": 0.0, "NSE": null, "VIVTOT": 0.0, "GRAPROES": 0.0, "_ent": "11", "_mun": "017", "_loc": "0093"}, "geometry": {"type": "Polygon", "coordinates": [[[-101.46552, 20.60301], [-101.466, 20.60373], [-101.46549, 20.60365], [-101.4645, 20.60273], [-101.46469, 20.6025], [-101.46552, 20.60301]]]}}, {"id": "642326", "type": "Feature", "properties": {"id": "642326", "CVEGEO": "1101700930311026", "POBTOT": 0.0, "score_nse": 0.0, "NSE": null, "VIVTOT": 0.0, "GRAPROES": 0.0, "_ent": "11", "_mun": "017", "_loc": "0093"}, "geometry": {"type": "Polygon", "coordinates": [[[-101.46567, 20.60494], [-101.46523, 20.60473], [-101.46526, 20.60458], [-101.46429, 20.60452], [-101.46417, 20.60391], [-101.46549, 20.60457], [-101.4658, 20.60481], [-101.46567, 20.60494]]]}}, {"id": "642327", "type": "Feature", "properties": {"id": "642327", "CVEGEO": "1101700930311019", "POBTOT": 0.0, "score_nse": 0.0, "NSE": null, "VIVTOT": 0.0, "GRAPROES": 0.0, "_ent": "11", "_mun": "017", "_loc": "0093"}, "geometry": {"type": "Polygon", "coordinates": [[[-101.46424, 20.60453], [-101.46378, 20.60455], [-101.46367, 20.60471], [-101.46293, 20.60351], [-101.46209, 20.60297], [-101.46149, 20.60285], [-101.46124, 20.60247], [-101.4613, 20.60229], [-101.46106, 20.60168], [-101.46143, 20.60048], [-101.46177, 20.60053], [-101.46465, 20.60247], [-101.46445, 20.60269], [-101.46413, 20.60256], [-101.46541, 20.60362], [-101.4644, 20.60403], [-101.46281, 20.60264], [-101.46238, 20.60233], [-101.46212, 20.60226], [-101.46344, 20.60327], [-101.46338, 20.60389], [-101.4635, 20.60333], [-101.46413, 20.60388], [-101.46424, 20.60453]]]}}, {"id": "643019", "type": "Feature", "properties": {"id": "643019", "CVEGEO": "1101700930311005", "POBTOT": 0.0, "score_nse": 0.0, "NSE": null, "VIVTOT": 0.0, "GRAPROES": 0.0, "_ent": "11", "_mun": "017", "_loc": "0093"}, "geometry": {"type": "Polygon", "coordinates": [[[-101.47117, 20.60428], [-101.47106, 20.60473], [-101.47057, 20.60534], [-101.47011, 20.60505], [-101.47052, 20.60538], [-101.46994, 20.60574], [-101.4693, 20.60498], [-101.46787, 20.60477], [-101.46706, 20.60402], [-101.46712, 20.60381], [-101.46792, 20.60389], [-101.46921, 20.60467], [-101.47024, 20.60477], [-101.47081, 20.60481], [-101.47095, 20.60426], [-101.47117, 20.60428]]]}}, {"id": "643337", "type": "Feature", "properties": {"id": "643337", "CVEGEO": "1101700930311003", "POBTOT": 0.0, "score_nse": 0.0, "NSE": null, "VIVTOT": 0.0, "GRAPROES": 0.0, "_ent": "11", "_mun": "017", "_loc": "0093"}, "geometry": {"type": "Polygon", "coordinates": [[[-101.46892, 20.6058], [-101.46898, 20.60635], [-101.46857, 20.60666], [-101.46732, 20.60648], [-101.46789, 20.60606], [-101.46691, 20.60665], [-101.46647, 20.60532], [-101.46691, 20.60539], [-101.46644, 20.60526], [-101.46638, 20.60509], [-101.46677, 20.60506], [-101.46635, 20.60504], [-101.46616, 20.60461], [-101.46629, 20.60389], [-101.46723, 20.60421], [-101.46781, 20.60483], [-101.46877, 20.60495], [-101.46889, 20.60577], [-101.46858, 20.60599], [-101.46892, 20.6058]]]}}, {"id": "643338", "type": "Feature", "properties": {"id": "643338", "CVEGEO": "1101700930311016", "POBTOT": 0.0, "score_nse": 0.0, "NSE": null, "VIVTOT": 0.0, "GRAPROES": 0.0, "_ent": "11", "_mun": "017", "_loc": "0093"}, "geometry": {"type": "Polygon", "coordinates": [[[-101.47137, 20.60622], [-101.47107, 20.60614], [-101.47098, 20.60582], [-101.47053, 20.6055], [-101.47099, 20.60546], [-101.47063, 20.60536], [-101.47116, 20.60472], [-101.47124, 20.6042], [-101.47296, 20.60458], [-101.47137, 20.60622]]]}}]}