{"type": "FeatureCollection", "features": [{"id": "635938", "type": "Feature", "properties": {"id": "635938", "CVEGEO": "1101704650044005", "POBTOT": 0.0, "score_nse": 0.0, "NSE": null, "VIVTOT": 0.0, "GRAPROES": 0.0, "_ent": "11", "_mun": "017", "_loc": "0465"}, "geometry": {"type": "Polygon", "coordinates": [[[-101.26893, 20.69083], [-101.26888, 20.68969], [-101.26839, 20.68964], [-101.26863, 20.68832], [-101.26979, 20.68853], [-101.26972, 20.68929], [-101.27061, 20.68966], [-101.27036, 20.69058], [-101.27005, 20.69058], [-101.27035, 20.69065], [-101.27028, 20.6912], [-101.26893, 20.69083]]]}}, {"id": "635939", "type": "Feature", "properties": {"id": "635939", "CVEGEO": "1101704650044003", "POBTOT": 0.0, "score_nse": 0.0, "NSE": null, "VIVTOT": 0.0, "GRAPROES": 0.0, "_ent": "11", "_mun": "017", "_loc": "0465"}, "geometry": {"type": "Polygon", "coordinates": [[[-101.27036, 20.6912], [-101.27068, 20.68969], [-101.27188, 20.69033], [-101.27152, 20.69147], [-101.27036, 20.6912]]]}}, {"id": "639874", "type": "Feature", "properties": {"id": "639874", "CVEGEO": "1101704650044002", "POBTOT": 0.0, "score_nse": 0.0, "NSE": null, "VIVTOT": 0.0, "GRAPROES": 0.0, "_ent": "11", "_mun": "017", "_loc": "0465"}, "geometry": {"type": "Polygon", "coordinates": [[[-101.26943, 20.68708], [-101.26994, 20.68714], [-101.26981, 20.68849], [-101.26932, 20.68844], [-101.26943, 20.68708]]]}}, {"id": "639875", "type": "Feature", "properties": {"id": "639875", "CVEGEO": "1101704650044001", "POBTOT": 0.0, "score_nse": 0.0, "NSE": null, "VIVTOT": 0.0, "GRAPROES": 0.0, "_ent": "11", "_mun": "017", "_loc": "0465"}, "geometry": {"type": "Polygon", "coordinates": [[[-101.26979, 20.68925], [-101.26998, 20.68715], [-101.27018, 20.68717], [-101.26996, 20.68927], [-101.26979, 20.68925]]]}}, {"id": "643456", "type": "Feature", "properties": {"id": "643456", "CVEGEO": "1101704650044006", "POBTOT": 0.0, "score_nse": 0.0, "NSE": null, "VIVTOT": 0.0, "GRAPROES": 0.0, "_ent": "11", "_mun": "017", "_loc": "0465"}, "geometry": {"type": "Polygon", "coordinates": [[[-101.27169, 20.68783], [-101.27018, 20.6877], [-101.27024, 20.68719], [-101.27175, 20.68737], [-101.27169, 20.68783]]]}}, {"id": "643676", "type": "Feature", "properties": {"id": "643676", "CVEGEO": "1101704650044004", "POBTOT": 0.0, "score_nse": 0.0, "NSE": null, "VIVTOT": 0.0, "GRAPROES": 0.0, "_ent": "11", "_mun": "017", "_loc": "0465"}, "geometry": {"type": "Polygon", "coordinates": [[[-101.27008, 20.6887], [-101.27018, 20.68773], [-101.27091, 20.68782], [-101.27088, 20.68837], [-101.27047, 20.6883], [-101.27081, 20.68843], [-101.27077, 20.6888], [-101.27008, 20.6887]]]}}, {"id": "643677", "type": "Feature", "properties": {"id": "643677", "CVEGEO": "1101704650044007", "POBTOT": 0.0, "score_nse": 0.0, "NSE": null, "VIVTOT": 0.0, "GRAPROES": 0.0, "_ent": "11", "_mun": "017", "_loc": "0465"}, "geometry": {"type": "Polygon", "coordinates": [[[-101.27002, 20.68929], [-101.27008, 20.68874], [-101.27114, 20.6889], [-101.27096, 20.68976], [-101.27002, 20.68929]]]}}]}