{"type": "FeatureCollection", "features": [{"id": "287373", "type": "Feature", "properties": {"id": "287373", "CVEGEO": "0706119490169001", "POBTOT": 0.0, "score_nse": 0.0, "NSE": null, "VIVTOT": 0.0, "GRAPROES": 0.0, "_ent": "07", "_mun": "061", "_loc": "1949"}, "geometry": {"type": "Polygon", "coordinates": [[[-93.3069, 16.72043], [-93.30599, 16.72103], [-93.30574, 16.72074], [-93.30666, 16.72011], [-93.3069, 16.72043]]]}}, {"id": "287374", "type": "Feature", "properties": {"id": "287374", "CVEGEO": "0706119490169002", "POBTOT": 0.0, "score_nse": 0.0, "NSE": null, "VIVTOT": 0.0, "GRAPROES": 0.0, "_ent": "07", "_mun": "061", "_loc": "1949"}, "geometry": {"type": "Polygon", "coordinates": [[[-93.30662, 16.72006], [-93.30571, 16.72068], [-93.30545, 16.7204], [-93.30638, 16.71974], [-93.30662, 16.72006]]]}}, {"id": "287375", "type": "Feature", "properties": {"id": "287375", "CVEGEO": "0706119490169004", "POBTOT": 0.0, "score_nse": 0.0, "NSE": null, "VIVTOT": 0.0, "GRAPROES": 0.0, "_ent": "07", "_mun": "061", "_loc": "1949"}, "geometry": {"type": "Polygon", "coordinates": [[[-93.30604, 16.7213], [-93.30572, 16.72153], [-93.30515, 16.72073], [-93.30545, 16.72052], [-93.30604, 16.7213]]]}}, {"id": "287376", "type": "Feature", "properties": {"id": "287376", "CVEGEO": "0706119490169005", "POBTOT": 0.0, "score_nse": 0.0, "NSE": null, "VIVTOT": 0.0, "GRAPROES": 0.0, "_ent": "07", "_mun": "061", "_loc": "1949"}, "geometry": {"type": "Polygon", "coordinates": [[[-93.30585, 16.71938], [-93.30724, 16.71845], [-93.30748, 16.71891], [-93.30582, 16.72004], [-93.30482, 16.71946], [-93.30585, 16.71938]]]}}, {"id": "287377", "type": "Feature", "properties": {"id": "287377", "CVEGEO": "0706119490169006", "POBTOT": 0.0, "score_nse": 0.0, "NSE": null, "VIVTOT": 0.0, "GRAPROES": 0.0, "_ent": "07", "_mun": "061", "_loc": "1949"}, "geometry": {"type": "Polygon", "coordinates": [[[-93.30762, 16.7193], [-93.30666, 16.72001], [-93.30642, 16.71972], [-93.30751, 16.71898], [-93.30762, 16.7193]]]}}, {"id": "287378", "type": "Feature", "properties": {"id": "287378", "CVEGEO": "0706119490169007", "POBTOT": 0.0, "score_nse": 0.0, "NSE": null, "VIVTOT": 0.0, "GRAPROES": 0.0, "_ent": "07", "_mun": "061", "_loc": "1949"}, "geometry": {"type": "Polygon", "coordinates": [[[-93.30576, 16.72158], [-93.30611, 16.72137], [-93.30672, 16.72214], [-93.30634, 16.72236], [-93.30576, 16.72158]]]}}, {"id": "287379", "type": "Feature", "properties": {"id": "287379", "CVEGEO": "0706119490169008", "POBTOT": 0.0, "score_nse": 0.0, "NSE": null, "VIVTOT": 0.0, "GRAPROES": 0.0, "_ent": "07", "_mun": "061", "_loc": "1949"}, "geometry": {"type": "Polygon", "coordinates": [[[-93.3055, 16.71894], [-93.30641, 16.7189], [-93.30585, 16.71932], [-93.30554, 16.71934], [-93.3055, 16.71894]]]}}, {"id": "287380", "type": "Feature", "properties": {"id": "287380", "CVEGEO": "0706119490169009", "POBTOT": 0.0, "score_nse": 0.0, "NSE": null, "VIVTOT": 0.0, "GRAPROES": 0.0, "_ent": "07", "_mun": "061", "_loc": "1949"}, "geometry": {"type": "Polygon", "coordinates": [[[-93.30678, 16.72219], [-93.3067, 16.72311], [-93.30631, 16.72319], [-93.30633, 16.72246], [-93.30678, 16.72219]]]}}, {"id": "287381", "type": "Feature", "properties": {"id": "287381", "CVEGEO": "0706119490169010", "POBTOT": 0.0, "score_nse": 0.0, "NSE": null, "VIVTOT": 0.0, "GRAPROES": 0.0, "_ent": "07", "_mun": "061", "_loc": "1949"}, "geometry": {"type": "Polygon", "coordinates": [[[-93.30625, 16.72321], [-93.30585, 16.72328], [-93.30582, 16.72306], [-93.30585, 16.72278], [-93.30629, 16.72248], [-93.30625, 16.72321]]]}}, {"id": "287382", "type": "Feature", "properties": {"id": "287382", "CVEGEO": "0706119490169011", "POBTOT": 0.0, "score_nse": 0.0, "NSE": null, "VIVTOT": 0.0, "GRAPROES": 0.0, "_ent": "07", "_mun": "061", "_loc": "1949"}, "geometry": {"type": "Polygon", "coordinates": [[[-93.30419, 16.72258], [-93.30452, 16.72237], [-93.30516, 16.72317], [-93.3048, 16.72342], [-93.30419, 16.72258]]]}}, {"id": "287383", "type": "Feature", "properties": {"id": "287383", "CVEGEO": "0706119490169012", "POBTOT": 0.0, "score_nse": 0.0, "NSE": null, "VIVTOT": 0.0, "GRAPROES": 0.0, "_ent": "07", "_mun": "061", "_loc": "1949"}, "geometry": {"type": "Polygon", "coordinates": [[[-93.30381, 16.72287], [-93.30416, 16.72262], [-93.30472, 16.72346], [-93.30434, 16.72355], [-93.30381, 16.72287]]]}}, {"id": "287384", "type": "Feature", "properties": {"id": "287384", "CVEGEO": "0706119490169003", "POBTOT": 0.0, "score_nse": 0.0, "NSE": null, "VIVTOT": 0.0, "GRAPROES": 0.0, "_ent": "07", "_mun": "061", "_loc": "1949"}, "geometry": {"type": "Polygon", "coordinates": [[[-93.30354, 16.72331], [-93.30376, 16.72292], [-93.30428, 16.72359], [-93.30387, 16.72368], [-93.30354, 16.72331]]]}}, {"id": "287460", "type": "Feature", "properties": {"id": "287460", "CVEGEO": "0706119490169013", "POBTOT": 0.0, "score_nse": 0.0, "NSE": null, "VIVTOT": 0.0, "GRAPROES": 0.0, "_ent": "07", "_mun": "061", "_loc": "1949"}, "geometry": {"type": "Polygon", "coordinates": [[[-93.30444, 16.72231], [-93.30341, 16.72297], [-93.30133, 16.72231], [-93.30183, 16.7221], [-93.30332, 16.72254], [-93.30422, 16.72199], [-93.30444, 16.72231]]]}}, {"id": "287461", "type": "Feature", "properties": {"id": "287461", "CVEGEO": "0706119490169014", "POBTOT": 0.0, "score_nse": 0.0, "NSE": null, "VIVTOT": 0.0, "GRAPROES": 0.0, "_ent": "07", "_mun": "061", "_loc": "1949"}, "geometry": {"type": "Polygon", "coordinates": [[[-93.30304, 16.72296], [-93.30265, 16.72398], [-93.30229, 16.72396], [-93.30266, 16.72285], [-93.30304, 16.72296]]]}}]}