{"type": "FeatureCollection", "features": [{"id": "1015022", "type": "Feature", "properties": {"id": "1015022", "CVEGEO": "1410800070114019", "POBTOT": 0.0, "score_nse": 0.0, "NSE": null, "VIVTOT": 0.0, "GRAPROES": 0.0, "_ent": "14", "_mun": "108", "_loc": "0007"}, "geometry": {"type": "Polygon", "coordinates": [[[-103.46327, 19.34742], [-103.46314, 19.34809], [-103.46269, 19.34821], [-103.46256, 19.34755], [-103.46327, 19.34742]]]}}, {"id": "1015023", "type": "Feature", "properties": {"id": "1015023", "CVEGEO": "1410800070114018", "POBTOT": 0.0, "score_nse": 0.0, "NSE": null, "VIVTOT": 0.0, "GRAPROES": 0.0, "_ent": "14", "_mun": "108", "_loc": "0007"}, "geometry": {"type": "Polygon", "coordinates": [[[-103.46427, 19.34656], [-103.4641, 19.34736], [-103.4645, 19.34814], [-103.4638, 19.34782], [-103.46332, 19.34781], [-103.46334, 19.34735], [-103.46367, 19.34725], [-103.46414, 19.34627], [-103.46427, 19.34656]]]}}, {"id": "1015024", "type": "Feature", "properties": {"id": "1015024", "CVEGEO": "1410800070114017", "POBTOT": 0.0, "score_nse": 0.0, "NSE": null, "VIVTOT": 0.0, "GRAPROES": 0.0, "_ent": "14", "_mun": "108", "_loc": "0007"}, "geometry": {"type": "Polygon", "coordinates": [[[-103.46294, 19.34683], [-103.46294, 19.3464], [-103.46364, 19.34634], [-103.46366, 19.34657], [-103.46339, 19.34657], [-103.46368, 19.34665], [-103.46361, 19.34718], [-103.46252, 19.3475], [-103.46238, 19.34701], [-103.46294, 19.34683]]]}}, {"id": "1015121", "type": "Feature", "properties": {"id": "1015121", "CVEGEO": "1410800070114010", "POBTOT": 0.0, "score_nse": 0.0, "NSE": null, "VIVTOT": 0.0, "GRAPROES": 0.0, "_ent": "14", "_mun": "108", "_loc": "0007"}, "geometry": {"type": "Polygon", "coordinates": [[[-103.462, 19.34841], [-103.46298, 19.34832], [-103.46334, 19.34789], [-103.46397, 19.34797], [-103.46351, 19.34852], [-103.46223, 19.34899], [-103.462, 19.34841]]]}}, {"id": "1015150", "type": "Feature", "properties": {"id": "1015150", "CVEGEO": "1410800070114009", "POBTOT": 0.0, "score_nse": 0.0, "NSE": null, "VIVTOT": 0.0, "GRAPROES": 0.0, "_ent": "14", "_mun": "108", "_loc": "0007"}, "geometry": {"type": "Polygon", "coordinates": [[[-103.46261, 19.34821], [-103.46198, 19.34835], [-103.4618, 19.34778], [-103.46249, 19.34758], [-103.46261, 19.34821]]]}}, {"id": "1015151", "type": "Feature", "properties": {"id": "1015151", "CVEGEO": "1410800070114008", "POBTOT": 0.0, "score_nse": 0.0, "NSE": null, "VIVTOT": 0.0, "GRAPROES": 0.0, "_ent": "14", "_mun": "108", "_loc": "0007"}, "geometry": {"type": "Polygon", "coordinates": [[[-103.46246, 19.34751], [-103.46178, 19.34773], [-103.46164, 19.34726], [-103.46232, 19.34704], [-103.46246, 19.34751]]]}}, {"id": "1015152", "type": "Feature", "properties": {"id": "1015152", "CVEGEO": "1410800070114007", "POBTOT": 0.0, "score_nse": 0.0, "NSE": null, "VIVTOT": 0.0, "GRAPROES": 0.0, "_ent": "14", "_mun": "108", "_loc": "0007"}, "geometry": {"type": "Polygon", "coordinates": [[[-103.46161, 19.34718], [-103.46144, 19.34659], [-103.46208, 19.34632], [-103.4623, 19.34697], [-103.46161, 19.34718]]]}}, {"id": "1015153", "type": "Feature", "properties": {"id": "1015153", "CVEGEO": "1410800070114006", "POBTOT": 0.0, "score_nse": 0.0, "NSE": null, "VIVTOT": 0.0, "GRAPROES": 0.0, "_ent": "14", "_mun": "108", "_loc": "0007"}, "geometry": {"type": "Polygon", "coordinates": [[[-103.46126, 19.3473], [-103.46106, 19.34671], [-103.46137, 19.34661], [-103.46155, 19.34721], [-103.46126, 19.3473]]]}}, {"id": "1015154", "type": "Feature", "properties": {"id": "1015154", "CVEGEO": "1410800070114005", "POBTOT": 0.0, "score_nse": 0.0, "NSE": null, "VIVTOT": 0.0, "GRAPROES": 0.0, "_ent": "14", "_mun": "108", "_loc": "0007"}, "geometry": {"type": "Polygon", "coordinates": [[[-103.46059, 19.34749], [-103.46033, 19.34666], [-103.46096, 19.34674], [-103.46119, 19.34732], [-103.46059, 19.34749]]]}}, {"id": "1015155", "type": "Feature", "properties": {"id": "1015155", "CVEGEO": "1410800070114004", "POBTOT": 0.0, "score_nse": 0.0, "NSE": null, "VIVTOT": 0.0, "GRAPROES": 0.0, "_ent": "14", "_mun": "108", "_loc": "0007"}, "geometry": {"type": "Polygon", "coordinates": [[[-103.46138, 19.34783], [-103.46079, 19.34806], [-103.46062, 19.34757], [-103.46122, 19.34739], [-103.46138, 19.34783]]]}}, {"id": "1015346", "type": "Feature", "properties": {"id": "1015346", "CVEGEO": "1410800070114014", "POBTOT": 0.0, "score_nse": 0.0, "NSE": null, "VIVTOT": 0.0, "GRAPROES": 0.0, "_ent": "14", "_mun": "108", "_loc": "0007"}, "geometry": {"type": "Polygon", "coordinates": [[[-103.46027, 19.34883], [-103.46015, 19.34839], [-103.46076, 19.34821], [-103.4609, 19.34868], [-103.46027, 19.34883]]]}}, {"id": "1015347", "type": "Feature", "properties": {"id": "1015347", "CVEGEO": "1410800070114013", "POBTOT": 0.0, "score_nse": 0.0, "NSE": null, "VIVTOT": 0.0, "GRAPROES": 0.0, "_ent": "14", "_mun": "108", "_loc": "0007"}, "geometry": {"type": "Polygon", "coordinates": [[[-103.46045, 19.34943], [-103.46028, 19.34891], [-103.46091, 19.34876], [-103.46106, 19.34928], [-103.46045, 19.34943]]]}}, {"id": "1015348", "type": "Feature", "properties": {"id": "1015348", "CVEGEO": "1410800070114012", "POBTOT": 0.0, "score_nse": 0.0, "NSE": null, "VIVTOT": 0.0, "GRAPROES": 0.0, "_ent": "14", "_mun": "108", "_loc": "0007"}, "geometry": {"type": "Polygon", "coordinates": [[[-103.46182, 19.34909], [-103.46114, 19.34926], [-103.46099, 19.34873], [-103.46158, 19.34853], [-103.46182, 19.34909]]]}}, {"id": "1015349", "type": "Feature", "properties": {"id": "1015349", "CVEGEO": "1410800070114011", "POBTOT": 0.0, "score_nse": 0.0, "NSE": null, "VIVTOT": 0.0, "GRAPROES": 0.0, "_ent": "14", "_mun": "108", "_loc": "0007"}, "geometry": {"type": "Polygon", "coordinates": [[[-103.46188, 19.34907], [-103.46164, 19.34851], [-103.46194, 19.34842], [-103.46215, 19.34901], [-103.46188, 19.34907]]]}}, {"id": "1015350", "type": "Feature", "properties": {"id": "1015350", "CVEGEO": "1410800070114002", "POBTOT": 0.0, "score_nse": 0.0, "NSE": null, "VIVTOT": 0.0, "GRAPROES": 0.0, "_ent": "14", "_mun": "108", "_loc": "0007"}, "geometry": {"type": "Polygon", "coordinates": [[[-103.46191, 19.34837], [-103.46162, 19.34845], [-103.46146, 19.34786], [-103.46174, 19.3478], [-103.46191, 19.34837]]]}}, {"id": "1015351", "type": "Feature", "properties": {"id": "1015351", "CVEGEO": "1410800070114001", "POBTOT": 0.0, "score_nse": 0.0, "NSE": null, "VIVTOT": 0.0, "GRAPROES": 0.0, "_ent": "14", "_mun": "108", "_loc": "0007"}, "geometry": {"type": "Polygon", "coordinates": [[[-103.46172, 19.34774], [-103.46144, 19.3478], [-103.46129, 19.34736], [-103.46158, 19.34728], [-103.46172, 19.34774]]]}}, {"id": "1015494", "type": "Feature", "properties": {"id": "1015494", "CVEGEO": "1410800070114016", "POBTOT": 0.0, "score_nse": 0.0, "NSE": null, "VIVTOT": 0.0, "GRAPROES": 0.0, "_ent": "14", "_mun": "108", "_loc": "0007"}, "geometry": {"type": "Polygon", "coordinates": [[[-103.46404, 19.34612], [-103.46376, 19.34668], [-103.46367, 19.34627], [-103.46291, 19.34632], [-103.46284, 19.34679], [-103.46236, 19.34695], [-103.46213, 19.34629], [-103.46264, 19.34599], [-103.46361, 19.3459], [-103.46404, 19.34612]]]}}, {"id": "1015544", "type": "Feature", "properties": {"id": "1015544", "CVEGEO": "1410800070114015", "POBTOT": 0.0, "score_nse": 0.0, "NSE": null, "VIVTOT": 0.0, "GRAPROES": 0.0, "_ent": "14", "_mun": "108", "_loc": "0007"}, "geometry": {"type": "Polygon", "coordinates": [[[-103.46013, 19.34833], [-103.46, 19.34793], [-103.4606, 19.34773], [-103.46074, 19.34814], [-103.46013, 19.34833]]]}}, {"id": "1015692", "type": "Feature", "properties": {"id": "1015692", "CVEGEO": "1410800070114003", "POBTOT": 0.0, "score_nse": 0.0, "NSE": null, "VIVTOT": 0.0, "GRAPROES": 0.0, "_ent": "14", "_mun": "108", "_loc": "0007"}, "geometry": {"type": "Polygon", "coordinates": [[[-103.46156, 19.34847], [-103.46097, 19.34866], [-103.46082, 19.34812], [-103.46139, 19.34789], [-103.46143, 19.34801], [-103.46093, 19.34815], [-103.46143, 19.34804], [-103.46156, 19.34847]]]}}]}