{"type": "FeatureCollection", "features": [{"id": "1681751", "type": "Feature", "properties": {"id": "1681751", "CVEGEO": "211110002004A004", "POBTOT": 0.0, "score_nse": 0.0, "NSE": null, "VIVTOT": 0.0, "GRAPROES": 0.0, "_ent": "21", "_mun": "111", "_loc": "0002"}, "geometry": {"type": "Polygon", "coordinates": [[[-97.96986, 20.54381], [-97.97016, 20.54433], [-97.96939, 20.54474], [-97.96986, 20.54381]]]}}, {"id": "1681752", "type": "Feature", "properties": {"id": "1681752", "CVEGEO": "211110002004A002", "POBTOT": 0.0, "score_nse": 0.0, "NSE": null, "VIVTOT": 0.0, "GRAPROES": 0.0, "_ent": "21", "_mun": "111", "_loc": "0002"}, "geometry": {"type": "Polygon", "coordinates": [[[-97.97132, 20.54388], [-97.97075, 20.54393], [-97.97047, 20.5444], [-97.96995, 20.54392], [-97.97028, 20.54329], [-97.97054, 20.54324], [-97.971, 20.54347], [-97.97142, 20.54313], [-97.97132, 20.54388]]]}}, {"id": "1681796", "type": "Feature", "properties": {"id": "1681796", "CVEGEO": "211110002004A001", "POBTOT": 0.0, "score_nse": 0.0, "NSE": null, "VIVTOT": 0.0, "GRAPROES": 0.0, "_ent": "21", "_mun": "111", "_loc": "0002"}, "geometry": {"type": "Polygon", "coordinates": [[[-97.97155, 20.54409], [-97.97138, 20.54388], [-97.97152, 20.54314], [-97.97186, 20.54395], [-97.97155, 20.54409]]]}}, {"id": "1681797", "type": "Feature", "properties": {"id": "1681797", "CVEGEO": "211110002004A005", "POBTOT": 0.0, "score_nse": 0.0, "NSE": null, "VIVTOT": 0.0, "GRAPROES": 0.0, "_ent": "21", "_mun": "111", "_loc": "0002"}, "geometry": {"type": "Polygon", "coordinates": [[[-97.97186, 20.54402], [-97.97184, 20.54438], [-97.97157, 20.54411], [-97.97186, 20.54402]]]}}, {"id": "1681801", "type": "Feature", "properties": {"id": "1681801", "CVEGEO": "211110002004A006", "POBTOT": 0.0, "score_nse": 0.0, "NSE": null, "VIVTOT": 0.0, "GRAPROES": 0.0, "_ent": "21", "_mun": "111", "_loc": "0002"}, "geometry": {"type": "Polygon", "coordinates": [[[-97.9718, 20.54638], [-97.97198, 20.54659], [-97.97153, 20.54691], [-97.97137, 20.54646], [-97.9718, 20.54638]]]}}, {"id": "1681803", "type": "Feature", "properties": {"id": "1681803", "CVEGEO": "211110002004A003", "POBTOT": 0.0, "score_nse": 0.0, "NSE": null, "VIVTOT": 0.0, "GRAPROES": 0.0, "_ent": "21", "_mun": "111", "_loc": "0002"}, "geometry": {"type": "Polygon", "coordinates": [[[-97.97241, 20.54474], [-97.97272, 20.54462], [-97.97311, 20.54497], [-97.97337, 20.54568], [-97.97203, 20.54658], [-97.9719, 20.54634], [-97.97224, 20.5455], [-97.97212, 20.54513], [-97.97241, 20.54474]]]}}, {"id": "1681805", "type": "Feature", "properties": {"id": "1681805", "CVEGEO": "211110002004A007", "POBTOT": 0.0, "score_nse": 0.0, "NSE": null, "VIVTOT": 0.0, "GRAPROES": 0.0, "_ent": "21", "_mun": "111", "_loc": "0002"}, "geometry": {"type": "Polygon", "coordinates": [[[-97.97242, 20.54439], [-97.97195, 20.54469], [-97.97193, 20.54425], [-97.97242, 20.54439]]]}}, {"id": "1681885", "type": "Feature", "properties": {"id": "1681885", "CVEGEO": "211110002004A008", "POBTOT": 0.0, "score_nse": 0.0, "NSE": null, "VIVTOT": 0.0, "GRAPROES": 0.0, "_ent": "21", "_mun": "111", "_loc": "0002"}, "geometry": {"type": "Polygon", "coordinates": [[[-97.97249, 20.54464], [-97.97215, 20.54488], [-97.97197, 20.54473], [-97.9724, 20.54452], [-97.97249, 20.54464]]]}}, {"id": "1681886", "type": "Feature", "properties": {"id": "1681886", "CVEGEO": "211110002004A009", "POBTOT": 0.0, "score_nse": 0.0, "NSE": null, "VIVTOT": 0.0, "GRAPROES": 0.0, "_ent": "21", "_mun": "111", "_loc": "0002"}, "geometry": {"type": "Polygon", "coordinates": [[[-97.97249, 20.54448], [-97.97252, 20.54462], [-97.97242, 20.54451], [-97.97249, 20.54448]]]}}]}