{"type": "FeatureCollection", "features": [{"id": "913708", "type": "Feature", "properties": {"id": "913708", "CVEGEO": "1402000620039006", "POBTOT": 0.0, "score_nse": 0.0, "NSE": null, "VIVTOT": 0.0, "GRAPROES": 0.0, "_ent": "14", "_mun": "020", "_loc": "0062"}, "geometry": {"type": "Polygon", "coordinates": [[[-105.36918, 20.50302], [-105.36897, 20.50273], [-105.36873, 20.50274], [-105.36858, 20.50295], [-105.36825, 20.50248], [-105.36874, 20.50241], [-105.36885, 20.50259], [-105.36934, 20.5027], [-105.36918, 20.50302]]]}}, {"id": "913737", "type": "Feature", "properties": {"id": "913737", "CVEGEO": "1402000620039009", "POBTOT": 0.0, "score_nse": 0.0, "NSE": null, "VIVTOT": 0.0, "GRAPROES": 0.0, "_ent": "14", "_mun": "020", "_loc": "0062"}, "geometry": {"type": "Polygon", "coordinates": [[[-105.3706, 20.5043], [-105.37084, 20.50312], [-105.37098, 20.50312], [-105.37112, 20.50348], [-105.37075, 20.50387], [-105.37074, 20.50427], [-105.3706, 20.5043]]]}}, {"id": "913738", "type": "Feature", "properties": {"id": "913738", "CVEGEO": "1402000620039008", "POBTOT": 0.0, "score_nse": 0.0, "NSE": null, "VIVTOT": 0.0, "GRAPROES": 0.0, "_ent": "14", "_mun": "020", "_loc": "0062"}, "geometry": {"type": "Polygon", "coordinates": [[[-105.3705, 20.50408], [-105.36899, 20.50345], [-105.36945, 20.50299], [-105.37, 20.50334], [-105.36987, 20.50359], [-105.37034, 20.50373], [-105.37054, 20.50352], [-105.3705, 20.50332], [-105.37069, 20.50332], [-105.37077, 20.50355], [-105.3705, 20.50408]]]}}, {"id": "913739", "type": "Feature", "properties": {"id": "913739", "CVEGEO": "1402000620039007", "POBTOT": 0.0, "score_nse": 0.0, "NSE": null, "VIVTOT": 0.0, "GRAPROES": 0.0, "_ent": "14", "_mun": "020", "_loc": "0062"}, "geometry": {"type": "Polygon", "coordinates": [[[-105.36893, 20.50339], [-105.36862, 20.50303], [-105.36896, 20.50283], [-105.36919, 20.50313], [-105.36893, 20.50339]]]}}, {"id": "913780", "type": "Feature", "properties": {"id": "913780", "CVEGEO": "1402000620039005", "POBTOT": 0.0, "score_nse": 0.0, "NSE": null, "VIVTOT": 0.0, "GRAPROES": 0.0, "_ent": "14", "_mun": "020", "_loc": "0062"}, "geometry": {"type": "Polygon", "coordinates": [[[-105.36907, 20.50248], [-105.36901, 20.50228], [-105.3682, 20.50236], [-105.36817, 20.50222], [-105.36849, 20.50175], [-105.36892, 20.50164], [-105.3695, 20.50181], [-105.36931, 20.50256], [-105.36907, 20.50248]]]}}, {"id": "913781", "type": "Feature", "properties": {"id": "913781", "CVEGEO": "1402000620039004", "POBTOT": 0.0, "score_nse": 0.0, "NSE": null, "VIVTOT": 0.0, "GRAPROES": 0.0, "_ent": "14", "_mun": "020", "_loc": "0062"}, "geometry": {"type": "Polygon", "coordinates": [[[-105.36758, 20.50247], [-105.36753, 20.50215], [-105.36822, 20.50187], [-105.36816, 20.50246], [-105.36758, 20.50247]]]}}, {"id": "913782", "type": "Feature", "properties": {"id": "913782", "CVEGEO": "1402000620039003", "POBTOT": 0.0, "score_nse": 0.0, "NSE": null, "VIVTOT": 0.0, "GRAPROES": 0.0, "_ent": "14", "_mun": "020", "_loc": "0062"}, "geometry": {"type": "Polygon", "coordinates": [[[-105.36728, 20.50222], [-105.36747, 20.50216], [-105.36755, 20.50247], [-105.36745, 20.5025], [-105.36728, 20.50222]]]}}, {"id": "913783", "type": "Feature", "properties": {"id": "913783", "CVEGEO": "1402000620039002", "POBTOT": 0.0, "score_nse": 0.0, "NSE": null, "VIVTOT": 0.0, "GRAPROES": 0.0, "_ent": "14", "_mun": "020", "_loc": "0062"}, "geometry": {"type": "Polygon", "coordinates": [[[-105.36742, 20.50253], [-105.3673, 20.50292], [-105.36658, 20.50304], [-105.36627, 20.50257], [-105.36719, 20.50224], [-105.36742, 20.50253]]]}}, {"id": "913784", "type": "Feature", "properties": {"id": "913784", "CVEGEO": "1402000620039001", "POBTOT": 0.0, "score_nse": 0.0, "NSE": null, "VIVTOT": 0.0, "GRAPROES": 0.0, "_ent": "14", "_mun": "020", "_loc": "0062"}, "geometry": {"type": "Polygon", "coordinates": [[[-105.3698, 20.50403], [-105.36792, 20.50481], [-105.3658, 20.50396], [-105.36603, 20.50274], [-105.36621, 20.50261], [-105.36655, 20.50314], [-105.36731, 20.50299], [-105.36745, 20.50314], [-105.36748, 20.50256], [-105.36817, 20.5025], [-105.36885, 20.50341], [-105.36861, 20.50362], [-105.36892, 20.50348], [-105.3698, 20.50403]]]}}]}