{"type": "FeatureCollection", "features": [{"id": "2137530", "type": "Feature", "properties": {"id": "2137530", "CVEGEO": "2801601140339020", "POBTOT": 0.0, "score_nse": 0.0, "NSE": null, "VIVTOT": 0.0, "GRAPROES": 0.0, "_ent": "28", "_mun": "016", "_loc": "0114"}, "geometry": {"type": "Polygon", "coordinates": [[[-99.5778, 24.25151], [-99.57756, 24.2521], [-99.57682, 24.25164], [-99.57717, 24.25119], [-99.5778, 24.25151]]]}}, {"id": "2137531", "type": "Feature", "properties": {"id": "2137531", "CVEGEO": "2801601140339019", "POBTOT": 0.0, "score_nse": 0.0, "NSE": null, "VIVTOT": 0.0, "GRAPROES": 0.0, "_ent": "28", "_mun": "016", "_loc": "0114"}, "geometry": {"type": "Polygon", "coordinates": [[[-99.57783, 24.25153], [-99.57864, 24.25166], [-99.57818, 24.25231], [-99.57759, 24.25209], [-99.57783, 24.25153]]]}}, {"id": "2137532", "type": "Feature", "properties": {"id": "2137532", "CVEGEO": "2801601140339018", "POBTOT": 0.0, "score_nse": 0.0, "NSE": null, "VIVTOT": 0.0, "GRAPROES": 0.0, "_ent": "28", "_mun": "016", "_loc": "0114"}, "geometry": {"type": "Polygon", "coordinates": [[[-99.57735, 24.25278], [-99.57689, 24.25275], [-99.57703, 24.25216], [-99.5772, 24.25209], [-99.57735, 24.25278]]]}}, {"id": "2137533", "type": "Feature", "properties": {"id": "2137533", "CVEGEO": "2801601140339017", "POBTOT": 0.0, "score_nse": 0.0, "NSE": null, "VIVTOT": 0.0, "GRAPROES": 0.0, "_ent": "28", "_mun": "016", "_loc": "0114"}, "geometry": {"type": "Polygon", "coordinates": [[[-99.57809, 24.25235], [-99.57793, 24.25279], [-99.57745, 24.25276], [-99.57727, 24.25211], [-99.57809, 24.25235]]]}}, {"id": "2137637", "type": "Feature", "properties": {"id": "2137637", "CVEGEO": "2801601140339003", "POBTOT": 0.0, "score_nse": 0.0, "NSE": null, "VIVTOT": 0.0, "GRAPROES": 0.0, "_ent": "28", "_mun": "016", "_loc": "0114"}, "geometry": {"type": "Polygon", "coordinates": [[[-99.57917, 24.25349], [-99.57991, 24.25355], [-99.57985, 24.25438], [-99.579, 24.25428], [-99.57917, 24.25349]]]}}, {"id": "2137638", "type": "Feature", "properties": {"id": "2137638", "CVEGEO": "2801601140339002", "POBTOT": 0.0, "score_nse": 0.0, "NSE": null, "VIVTOT": 0.0, "GRAPROES": 0.0, "_ent": "28", "_mun": "016", "_loc": "0114"}, "geometry": {"type": "Polygon", "coordinates": [[[-99.58032, 24.25443], [-99.57989, 24.25439], [-99.57994, 24.25355], [-99.58044, 24.25362], [-99.58032, 24.25443]]]}}, {"id": "2137639", "type": "Feature", "properties": {"id": "2137639", "CVEGEO": "2801601140339001", "POBTOT": 0.0, "score_nse": 0.0, "NSE": null, "VIVTOT": 0.0, "GRAPROES": 0.0, "_ent": "28", "_mun": "016", "_loc": "0114"}, "geometry": {"type": "Polygon", "coordinates": [[[-99.58083, 24.25449], [-99.58037, 24.25443], [-99.58049, 24.25363], [-99.58099, 24.25369], [-99.58083, 24.25449]]]}}, {"id": "2137678", "type": "Feature", "properties": {"id": "2137678", "CVEGEO": "2801601140339016", "POBTOT": 0.0, "score_nse": 0.0, "NSE": null, "VIVTOT": 0.0, "GRAPROES": 0.0, "_ent": "28", "_mun": "016", "_loc": "0114"}, "geometry": {"type": "Polygon", "coordinates": [[[-99.57829, 24.25274], [-99.57807, 24.25266], [-99.57816, 24.25238], [-99.5783, 24.25242], [-99.57829, 24.25274]]]}}, {"id": "2137679", "type": "Feature", "properties": {"id": "2137679", "CVEGEO": "2801601140339015", "POBTOT": 0.0, "score_nse": 0.0, "NSE": null, "VIVTOT": 0.0, "GRAPROES": 0.0, "_ent": "28", "_mun": "016", "_loc": "0114"}, "geometry": {"type": "Polygon", "coordinates": [[[-99.57869, 24.25167], [-99.57904, 24.25175], [-99.57911, 24.25276], [-99.57834, 24.25275], [-99.57823, 24.25233], [-99.57869, 24.25167]]]}}, {"id": "2137680", "type": "Feature", "properties": {"id": "2137680", "CVEGEO": "2801601140339014", "POBTOT": 0.0, "score_nse": 0.0, "NSE": null, "VIVTOT": 0.0, "GRAPROES": 0.0, "_ent": "28", "_mun": "016", "_loc": "0114"}, "geometry": {"type": "Polygon", "coordinates": [[[-99.57962, 24.25191], [-99.57959, 24.25271], [-99.57914, 24.25276], [-99.57907, 24.25182], [-99.57962, 24.25191]]]}}, {"id": "2138278", "type": "Feature", "properties": {"id": "2138278", "CVEGEO": "2801601140339013", "POBTOT": 0.0, "score_nse": 0.0, "NSE": null, "VIVTOT": 0.0, "GRAPROES": 0.0, "_ent": "28", "_mun": "016", "_loc": "0114"}, "geometry": {"type": "Polygon", "coordinates": [[[-99.58094, 24.25254], [-99.58105, 24.25302], [-99.58054, 24.25276], [-99.58053, 24.25257], [-99.58094, 24.25254]]]}}, {"id": "2138279", "type": "Feature", "properties": {"id": "2138279", "CVEGEO": "2801601140339012", "POBTOT": 0.0, "score_nse": 0.0, "NSE": null, "VIVTOT": 0.0, "GRAPROES": 0.0, "_ent": "28", "_mun": "016", "_loc": "0114"}, "geometry": {"type": "Polygon", "coordinates": [[[-99.57792, 24.25285], [-99.57746, 24.25359], [-99.57742, 24.25358], [-99.57743, 24.25283], [-99.57792, 24.25285]]]}}, {"id": "2138538", "type": "Feature", "properties": {"id": "2138538", "CVEGEO": "2801601140339011", "POBTOT": 0.0, "score_nse": 0.0, "NSE": null, "VIVTOT": 0.0, "GRAPROES": 0.0, "_ent": "28", "_mun": "016", "_loc": "0114"}, "geometry": {"type": "Polygon", "coordinates": [[[-99.57824, 24.25286], [-99.57819, 24.25355], [-99.5776, 24.25348], [-99.57802, 24.25286], [-99.57824, 24.25286]]]}}, {"id": "2138539", "type": "Feature", "properties": {"id": "2138539", "CVEGEO": "2801601140339010", "POBTOT": 0.0, "score_nse": 0.0, "NSE": null, "VIVTOT": 0.0, "GRAPROES": 0.0, "_ent": "28", "_mun": "016", "_loc": "0114"}, "geometry": {"type": "Polygon", "coordinates": [[[-99.57866, 24.25351], [-99.57824, 24.25355], [-99.57831, 24.25286], [-99.5787, 24.25286], [-99.57866, 24.25351]]]}}, {"id": "2138540", "type": "Feature", "properties": {"id": "2138540", "CVEGEO": "2801601140339009", "POBTOT": 0.0, "score_nse": 0.0, "NSE": null, "VIVTOT": 0.0, "GRAPROES": 0.0, "_ent": "28", "_mun": "016", "_loc": "0114"}, "geometry": {"type": "Polygon", "coordinates": [[[-99.57913, 24.25346], [-99.5787, 24.2535], [-99.57874, 24.25286], [-99.57913, 24.25284], [-99.57913, 24.25346]]]}}, {"id": "2138541", "type": "Feature", "properties": {"id": "2138541", "CVEGEO": "2801601140339008", "POBTOT": 0.0, "score_nse": 0.0, "NSE": null, "VIVTOT": 0.0, "GRAPROES": 0.0, "_ent": "28", "_mun": "016", "_loc": "0114"}, "geometry": {"type": "Polygon", "coordinates": [[[-99.57928, 24.25283], [-99.58001, 24.25276], [-99.57991, 24.25351], [-99.57918, 24.25346], [-99.57928, 24.25283]]]}}, {"id": "2138542", "type": "Feature", "properties": {"id": "2138542", "CVEGEO": "2801601140339007", "POBTOT": 0.0, "score_nse": 0.0, "NSE": null, "VIVTOT": 0.0, "GRAPROES": 0.0, "_ent": "28", "_mun": "016", "_loc": "0114"}, "geometry": {"type": "Polygon", "coordinates": [[[-99.58003, 24.25276], [-99.58061, 24.25286], [-99.58045, 24.25357], [-99.57995, 24.25351], [-99.58003, 24.25276]]]}}, {"id": "2138543", "type": "Feature", "properties": {"id": "2138543", "CVEGEO": "2801601140339006", "POBTOT": 0.0, "score_nse": 0.0, "NSE": null, "VIVTOT": 0.0, "GRAPROES": 0.0, "_ent": "28", "_mun": "016", "_loc": "0114"}, "geometry": {"type": "Polygon", "coordinates": [[[-99.58066, 24.25289], [-99.58106, 24.25311], [-99.581, 24.25364], [-99.5805, 24.25358], [-99.58066, 24.25289]]]}}, {"id": "2138544", "type": "Feature", "properties": {"id": "2138544", "CVEGEO": "2801601140339005", "POBTOT": 0.0, "score_nse": 0.0, "NSE": null, "VIVTOT": 0.0, "GRAPROES": 0.0, "_ent": "28", "_mun": "016", "_loc": "0114"}, "geometry": {"type": "Polygon", "coordinates": [[[-99.57757, 24.25352], [-99.57819, 24.25358], [-99.57815, 24.25413], [-99.57747, 24.25407], [-99.57757, 24.25352]]]}}, {"id": "2138545", "type": "Feature", "properties": {"id": "2138545", "CVEGEO": "2801601140339004", "POBTOT": 0.0, "score_nse": 0.0, "NSE": null, "VIVTOT": 0.0, "GRAPROES": 0.0, "_ent": "28", "_mun": "016", "_loc": "0114"}, "geometry": {"type": "Polygon", "coordinates": [[[-99.57895, 24.25427], [-99.57823, 24.25414], [-99.57824, 24.25358], [-99.57913, 24.25349], [-99.57895, 24.25427]]]}}]}