{"type": "FeatureCollection", "features": [{"id": "1863443", "type": "Feature", "properties": {"id": "1863443", "CVEGEO": "2402101040025001", "POBTOT": 0.0, "score_nse": 0.0, "NSE": null, "VIVTOT": 0.0, "GRAPROES": 0.0, "_ent": "24", "_mun": "021", "_loc": "0104"}, "geometry": {"type": "Polygon", "coordinates": [[[-101.06266, 22.34605], [-101.06355, 22.34596], [-101.06353, 22.34552], [-101.064, 22.34559], [-101.06507, 22.34539], [-101.06507, 22.34556], [-101.06468, 22.34563], [-101.06485, 22.34764], [-101.06377, 22.34732], [-101.06328, 22.34646], [-101.06248, 22.34648], [-101.06266, 22.34605]]]}}, {"id": "1863444", "type": "Feature", "properties": {"id": "1863444", "CVEGEO": "2402101040025002", "POBTOT": 0.0, "score_nse": 0.0, "NSE": null, "VIVTOT": 0.0, "GRAPROES": 0.0, "_ent": "24", "_mun": "021", "_loc": "0104"}, "geometry": {"type": "Polygon", "coordinates": [[[-101.06242, 22.34647], [-101.06188, 22.34632], [-101.06141, 22.34597], [-101.06259, 22.34604], [-101.06242, 22.34647]]]}}, {"id": "1863445", "type": "Feature", "properties": {"id": "1863445", "CVEGEO": "2402101040025003", "POBTOT": 0.0, "score_nse": 0.0, "NSE": null, "VIVTOT": 0.0, "GRAPROES": 0.0, "_ent": "24", "_mun": "021", "_loc": "0104"}, "geometry": {"type": "Polygon", "coordinates": [[[-101.06702, 22.34456], [-101.06643, 22.34506], [-101.06516, 22.34532], [-101.065, 22.34473], [-101.0643, 22.34417], [-101.06493, 22.34479], [-101.06502, 22.34532], [-101.06464, 22.34507], [-101.06487, 22.34535], [-101.06401, 22.34553], [-101.06343, 22.34472], [-101.06362, 22.3441], [-101.06436, 22.34501], [-101.06442, 22.34495], [-101.06364, 22.34399], [-101.06375, 22.34327], [-101.06702, 22.34456]]]}}, {"id": "1863446", "type": "Feature", "properties": {"id": "1863446", "CVEGEO": "2402101040025004", "POBTOT": 0.0, "score_nse": 0.0, "NSE": null, "VIVTOT": 0.0, "GRAPROES": 0.0, "_ent": "24", "_mun": "021", "_loc": "0104"}, "geometry": {"type": "Polygon", "coordinates": [[[-101.0658, 22.34584], [-101.06603, 22.34558], [-101.066, 22.34638], [-101.06549, 22.3471], [-101.06573, 22.34748], [-101.06574, 22.3481], [-101.06515, 22.34806], [-101.06494, 22.34766], [-101.06475, 22.34585], [-101.06483, 22.34567], [-101.06515, 22.34561], [-101.06515, 22.34539], [-101.06613, 22.34527], [-101.0658, 22.34584]]]}}, {"id": "1863447", "type": "Feature", "properties": {"id": "1863447", "CVEGEO": "2402101040025005", "POBTOT": 0.0, "score_nse": 0.0, "NSE": null, "VIVTOT": 0.0, "GRAPROES": 0.0, "_ent": "24", "_mun": "021", "_loc": "0104"}, "geometry": {"type": "Polygon", "coordinates": [[[-101.0617, 22.34725], [-101.0609, 22.34636], [-101.06171, 22.3463], [-101.06232, 22.34653], [-101.0617, 22.34725]]]}}]}