{"type": "FeatureCollection", "features": [{"id": "2310491", "type": "Feature", "properties": {"id": "2310491", "CVEGEO": "3009102050171010", "POBTOT": 0.0, "score_nse": 0.0, "NSE": null, "VIVTOT": 0.0, "GRAPROES": 0.0, "_ent": "30", "_mun": "091", "_loc": "0205"}, "geometry": {"type": "Polygon", "coordinates": [[[-94.86311, 17.24642], [-94.86301, 17.2471], [-94.86213, 17.2473], [-94.86205, 17.2461], [-94.86233, 17.24636], [-94.86311, 17.24642]]]}}, {"id": "2310770", "type": "Feature", "properties": {"id": "2310770", "CVEGEO": "3009102050171001", "POBTOT": 0.0, "score_nse": 0.0, "NSE": null, "VIVTOT": 0.0, "GRAPROES": 0.0, "_ent": "30", "_mun": "091", "_loc": "0205"}, "geometry": {"type": "Polygon", "coordinates": [[[-94.8652, 17.24655], [-94.86427, 17.24646], [-94.86433, 17.24556], [-94.86528, 17.24567], [-94.8652, 17.24655]]]}}, {"id": "2310945", "type": "Feature", "properties": {"id": "2310945", "CVEGEO": "3009102050171007", "POBTOT": 0.0, "score_nse": 0.0, "NSE": null, "VIVTOT": 0.0, "GRAPROES": 0.0, "_ent": "30", "_mun": "091", "_loc": "0205"}, "geometry": {"type": "Polygon", "coordinates": [[[-94.86627, 17.24781], [-94.86515, 17.24769], [-94.86526, 17.24662], [-94.86634, 17.24673], [-94.86627, 17.24781]]]}}, {"id": "2310946", "type": "Feature", "properties": {"id": "2310946", "CVEGEO": "3009102050171006", "POBTOT": 0.0, "score_nse": 0.0, "NSE": null, "VIVTOT": 0.0, "GRAPROES": 0.0, "_ent": "30", "_mun": "091", "_loc": "0205"}, "geometry": {"type": "Polygon", "coordinates": [[[-94.86634, 17.24667], [-94.86527, 17.24655], [-94.86535, 17.24568], [-94.8664, 17.24577], [-94.86634, 17.24667]]]}}, {"id": "2310947", "type": "Feature", "properties": {"id": "2310947", "CVEGEO": "3009102050171005", "POBTOT": 0.0, "score_nse": 0.0, "NSE": null, "VIVTOT": 0.0, "GRAPROES": 0.0, "_ent": "30", "_mun": "091", "_loc": "0205"}, "geometry": {"type": "Polygon", "coordinates": [[[-94.86641, 17.24572], [-94.86533, 17.24563], [-94.86541, 17.24465], [-94.86647, 17.24474], [-94.86641, 17.24572]]]}}, {"id": "2310948", "type": "Feature", "properties": {"id": "2310948", "CVEGEO": "3009102050171004", "POBTOT": 0.0, "score_nse": 0.0, "NSE": null, "VIVTOT": 0.0, "GRAPROES": 0.0, "_ent": "30", "_mun": "091", "_loc": "0205"}, "geometry": {"type": "Polygon", "coordinates": [[[-94.86529, 17.24559], [-94.86433, 17.24547], [-94.86439, 17.24456], [-94.86535, 17.24465], [-94.86529, 17.24559]]]}}, {"id": "2310949", "type": "Feature", "properties": {"id": "2310949", "CVEGEO": "3009102050171003", "POBTOT": 0.0, "score_nse": 0.0, "NSE": null, "VIVTOT": 0.0, "GRAPROES": 0.0, "_ent": "30", "_mun": "091", "_loc": "0205"}, "geometry": {"type": "Polygon", "coordinates": [[[-94.86426, 17.2454], [-94.86323, 17.24535], [-94.86328, 17.24443], [-94.86432, 17.24456], [-94.86426, 17.2454]]]}}, {"id": "2310950", "type": "Feature", "properties": {"id": "2310950", "CVEGEO": "3009102050171002", "POBTOT": 0.0, "score_nse": 0.0, "NSE": null, "VIVTOT": 0.0, "GRAPROES": 0.0, "_ent": "30", "_mun": "091", "_loc": "0205"}, "geometry": {"type": "Polygon", "coordinates": [[[-94.86419, 17.24646], [-94.86317, 17.24634], [-94.86323, 17.24544], [-94.86426, 17.2455], [-94.86419, 17.24646]]]}}, {"id": "2311151", "type": "Feature", "properties": {"id": "2311151", "CVEGEO": "3009102050171011", "POBTOT": 0.0, "score_nse": 0.0, "NSE": null, "VIVTOT": 0.0, "GRAPROES": 0.0, "_ent": "30", "_mun": "091", "_loc": "0205"}, "geometry": {"type": "Polygon", "coordinates": [[[-94.86309, 17.24632], [-94.86266, 17.2464], [-94.86225, 17.24625], [-94.86197, 17.24592], [-94.86192, 17.24531], [-94.86313, 17.24544], [-94.86309, 17.24632]]]}}, {"id": "2311152", "type": "Feature", "properties": {"id": "2311152", "CVEGEO": "3009102050171009", "POBTOT": 0.0, "score_nse": 0.0, "NSE": null, "VIVTOT": 0.0, "GRAPROES": 0.0, "_ent": "30", "_mun": "091", "_loc": "0205"}, "geometry": {"type": "Polygon", "coordinates": [[[-94.86407, 17.24755], [-94.86315, 17.24736], [-94.86318, 17.24641], [-94.86417, 17.24654], [-94.86407, 17.24755]]]}}, {"id": "2311153", "type": "Feature", "properties": {"id": "2311153", "CVEGEO": "3009102050171008", "POBTOT": 0.0, "score_nse": 0.0, "NSE": null, "VIVTOT": 0.0, "GRAPROES": 0.0, "_ent": "30", "_mun": "091", "_loc": "0205"}, "geometry": {"type": "Polygon", "coordinates": [[[-94.86417, 17.24757], [-94.86426, 17.24654], [-94.8652, 17.24662], [-94.86508, 17.24768], [-94.86417, 17.24757]]]}}, {"id": "2311309", "type": "Feature", "properties": {"id": "2311309", "CVEGEO": "3009102050171012", "POBTOT": 0.0, "score_nse": 0.0, "NSE": null, "VIVTOT": 0.0, "GRAPROES": 0.0, "_ent": "30", "_mun": "091", "_loc": "0205"}, "geometry": {"type": "Polygon", "coordinates": [[[-94.86193, 17.24524], [-94.86202, 17.24428], [-94.86316, 17.24442], [-94.86313, 17.24535], [-94.86193, 17.24524]]]}}]}