{"type": "FeatureCollection", "features": [{"id": "618789", "type": "Feature", "properties": {"id": "618789", "CVEGEO": "1100500360077005", "POBTOT": 0.0, "score_nse": 0.0, "NSE": null, "VIVTOT": 0.0, "GRAPROES": 0.0, "_ent": "11", "_mun": "005", "_loc": "0036"}, "geometry": {"type": "Polygon", "coordinates": [[[-100.70111, 20.51315], [-100.70094, 20.51401], [-100.70027, 20.5143], [-100.69992, 20.51339], [-100.70022, 20.51432], [-100.69972, 20.51451], [-100.69931, 20.51447], [-100.69865, 20.51481], [-100.6987, 20.51361], [-100.69884, 20.51335], [-100.69913, 20.51368], [-100.69885, 20.51328], [-100.69911, 20.51265], [-100.70111, 20.51315]]]}}, {"id": "618791", "type": "Feature", "properties": {"id": "618791", "CVEGEO": "1100500360077004", "POBTOT": 0.0, "score_nse": 0.0, "NSE": null, "VIVTOT": 0.0, "GRAPROES": 0.0, "_ent": "11", "_mun": "005", "_loc": "0036"}, "geometry": {"type": "Polygon", "coordinates": [[[-100.69758, 20.51489], [-100.69762, 20.51424], [-100.69861, 20.51431], [-100.69861, 20.51456], [-100.69828, 20.51456], [-100.6986, 20.51462], [-100.69859, 20.51497], [-100.69758, 20.51489]]]}}, {"id": "618792", "type": "Feature", "properties": {"id": "618792", "CVEGEO": "1100500360077003", "POBTOT": 0.0, "score_nse": 0.0, "NSE": null, "VIVTOT": 0.0, "GRAPROES": 0.0, "_ent": "11", "_mun": "005", "_loc": "0036"}, "geometry": {"type": "Polygon", "coordinates": [[[-100.6969, 20.51479], [-100.69697, 20.51427], [-100.69757, 20.51426], [-100.69753, 20.51487], [-100.6969, 20.51479]]]}}, {"id": "618793", "type": "Feature", "properties": {"id": "618793", "CVEGEO": "1100500360077002", "POBTOT": 0.0, "score_nse": 0.0, "NSE": null, "VIVTOT": 0.0, "GRAPROES": 0.0, "_ent": "11", "_mun": "005", "_loc": "0036"}, "geometry": {"type": "Polygon", "coordinates": [[[-100.69685, 20.51518], [-100.69688, 20.51482], [-100.69754, 20.51493], [-100.6975, 20.51532], [-100.69685, 20.51518]]]}}, {"id": "618794", "type": "Feature", "properties": {"id": "618794", "CVEGEO": "1100500360077001", "POBTOT": 0.0, "score_nse": 0.0, "NSE": null, "VIVTOT": 0.0, "GRAPROES": 0.0, "_ent": "11", "_mun": "005", "_loc": "0036"}, "geometry": {"type": "Polygon", "coordinates": [[[-100.69851, 20.51554], [-100.69755, 20.51534], [-100.69758, 20.51495], [-100.69857, 20.51502], [-100.69851, 20.51554]]]}}, {"id": "618821", "type": "Feature", "properties": {"id": "618821", "CVEGEO": "1100500360077023", "POBTOT": 0.0, "score_nse": 0.0, "NSE": null, "VIVTOT": 0.0, "GRAPROES": 0.0, "_ent": "11", "_mun": "005", "_loc": "0036"}, "geometry": {"type": "Polygon", "coordinates": [[[-100.69583, 20.5167], [-100.69585, 20.51653], [-100.69663, 20.51644], [-100.69658, 20.51687], [-100.69583, 20.5167]]]}}, {"id": "618822", "type": "Feature", "properties": {"id": "618822", "CVEGEO": "1100500360077022", "POBTOT": 0.0, "score_nse": 0.0, "NSE": null, "VIVTOT": 0.0, "GRAPROES": 0.0, "_ent": "11", "_mun": "005", "_loc": "0036"}, "geometry": {"type": "Polygon", "coordinates": [[[-100.69662, 20.51693], [-100.69789, 20.51711], [-100.69792, 20.51732], [-100.69661, 20.51758], [-100.69662, 20.51693]]]}}, {"id": "618823", "type": "Feature", "properties": {"id": "618823", "CVEGEO": "1100500360077019", "POBTOT": 0.0, "score_nse": 0.0, "NSE": null, "VIVTOT": 0.0, "GRAPROES": 0.0, "_ent": "11", "_mun": "005", "_loc": "0036"}, "geometry": {"type": "Polygon", "coordinates": [[[-100.69488, 20.5166], [-100.69464, 20.51659], [-100.69462, 20.5161], [-100.69458, 20.51658], [-100.69415, 20.51655], [-100.69415, 20.51559], [-100.69488, 20.51563], [-100.69488, 20.5166]]]}}, {"id": "618824", "type": "Feature", "properties": {"id": "618824", "CVEGEO": "1100500360077018", "POBTOT": 0.0, "score_nse": 0.0, "NSE": null, "VIVTOT": 0.0, "GRAPROES": 0.0, "_ent": "11", "_mun": "005", "_loc": "0036"}, "geometry": {"type": "Polygon", "coordinates": [[[-100.69571, 20.51602], [-100.6966, 20.51616], [-100.69661, 20.51634], [-100.69582, 20.51648], [-100.69571, 20.51602]]]}}, {"id": "618959", "type": "Feature", "properties": {"id": "618959", "CVEGEO": "1100500360077030", "POBTOT": 0.0, "score_nse": 0.0, "NSE": null, "VIVTOT": 0.0, "GRAPROES": 0.0, "_ent": "11", "_mun": "005", "_loc": "0036"}, "geometry": {"type": "Polygon", "coordinates": [[[-100.69361, 20.51554], [-100.69409, 20.51558], [-100.6941, 20.51654], [-100.69361, 20.51651], [-100.69361, 20.51554]]]}}, {"id": "618960", "type": "Feature", "properties": {"id": "618960", "CVEGEO": "1100500360077013", "POBTOT": 0.0, "score_nse": 0.0, "NSE": null, "VIVTOT": 0.0, "GRAPROES": 0.0, "_ent": "11", "_mun": "005", "_loc": "0036"}, "geometry": {"type": "Polygon", "coordinates": [[[-100.69762, 20.5142], [-100.69754, 20.51329], [-100.69818, 20.51335], [-100.69788, 20.5142], [-100.69762, 20.5142]]]}}, {"id": "618961", "type": "Feature", "properties": {"id": "618961", "CVEGEO": "1100500360077012", "POBTOT": 0.0, "score_nse": 0.0, "NSE": null, "VIVTOT": 0.0, "GRAPROES": 0.0, "_ent": "11", "_mun": "005", "_loc": "0036"}, "geometry": {"type": "Polygon", "coordinates": [[[-100.69697, 20.51423], [-100.6971, 20.51326], [-100.6975, 20.51329], [-100.69758, 20.51422], [-100.69697, 20.51423]]]}}, {"id": "618962", "type": "Feature", "properties": {"id": "618962", "CVEGEO": "1100500360077010", "POBTOT": 0.0, "score_nse": 0.0, "NSE": null, "VIVTOT": 0.0, "GRAPROES": 0.0, "_ent": "11", "_mun": "005", "_loc": "0036"}, "geometry": {"type": "Polygon", "coordinates": [[[-100.69667, 20.51613], [-100.69571, 20.51596], [-100.69609, 20.51466], [-100.69682, 20.51482], [-100.69667, 20.51613]]]}}, {"id": "619406", "type": "Feature", "properties": {"id": "619406", "CVEGEO": "1100500360077035", "POBTOT": 0.0, "score_nse": 0.0, "NSE": null, "VIVTOT": 0.0, "GRAPROES": 0.0, "_ent": "11", "_mun": "005", "_loc": "0036"}, "geometry": {"type": "Polygon", "coordinates": [[[-100.70092, 20.51536], [-100.7013, 20.51579], [-100.70068, 20.51613], [-100.70043, 20.51563], [-100.70092, 20.51536]]]}}, {"id": "619407", "type": "Feature", "properties": {"id": "619407", "CVEGEO": "1100500360077033", "POBTOT": 0.0, "score_nse": 0.0, "NSE": null, "VIVTOT": 0.0, "GRAPROES": 0.0, "_ent": "11", "_mun": "005", "_loc": "0036"}, "geometry": {"type": "Polygon", "coordinates": [[[-100.69793, 20.5142], [-100.69822, 20.51335], [-100.69868, 20.51344], [-100.69862, 20.51422], [-100.69793, 20.5142]]]}}, {"id": "619408", "type": "Feature", "properties": {"id": "619408", "CVEGEO": "1100500360077031", "POBTOT": 0.0, "score_nse": 0.0, "NSE": null, "VIVTOT": 0.0, "GRAPROES": 0.0, "_ent": "11", "_mun": "005", "_loc": "0036"}, "geometry": {"type": "Polygon", "coordinates": [[[-100.69298, 20.51549], [-100.69356, 20.51554], [-100.69356, 20.5165], [-100.6929, 20.51645], [-100.69298, 20.51549]]]}}, {"id": "619726", "type": "Feature", "properties": {"id": "619726", "CVEGEO": "1100500360077027", "POBTOT": 0.0, "score_nse": 0.0, "NSE": null, "VIVTOT": 0.0, "GRAPROES": 0.0, "_ent": "11", "_mun": "005", "_loc": "0036"}, "geometry": {"type": "Polygon", "coordinates": [[[-100.69648, 20.51766], [-100.69638, 20.51836], [-100.69572, 20.51842], [-100.69574, 20.51674], [-100.69656, 20.51691], [-100.69648, 20.51762], [-100.69606, 20.51768], [-100.69583, 20.51811], [-100.6961, 20.51771], [-100.69648, 20.51766]]]}}, {"id": "619727", "type": "Feature", "properties": {"id": "619727", "CVEGEO": "1100500360077026", "POBTOT": 0.0, "score_nse": 0.0, "NSE": null, "VIVTOT": 0.0, "GRAPROES": 0.0, "_ent": "11", "_mun": "005", "_loc": "0036"}, "geometry": {"type": "Polygon", "coordinates": [[[-100.69654, 20.51765], [-100.69801, 20.51737], [-100.69831, 20.51791], [-100.69645, 20.51833], [-100.69654, 20.51765]]]}}, {"id": "619728", "type": "Feature", "properties": {"id": "619728", "CVEGEO": "1100500360077017", "POBTOT": 0.0, "score_nse": 0.0, "NSE": null, "VIVTOT": 0.0, "GRAPROES": 0.0, "_ent": "11", "_mun": "005", "_loc": "0036"}, "geometry": {"type": "Polygon", "coordinates": [[[-100.69763, 20.51702], [-100.69665, 20.51687], [-100.69669, 20.51642], [-100.69754, 20.51651], [-100.69763, 20.51702]]]}}, {"id": "619729", "type": "Feature", "properties": {"id": "619729", "CVEGEO": "1100500360077009", "POBTOT": 0.0, "score_nse": 0.0, "NSE": null, "VIVTOT": 0.0, "GRAPROES": 0.0, "_ent": "11", "_mun": "005", "_loc": "0036"}, "geometry": {"type": "Polygon", "coordinates": [[[-100.69757, 20.51643], [-100.69669, 20.51636], [-100.69684, 20.51522], [-100.6975, 20.51538], [-100.69757, 20.51643]]]}}, {"id": "619730", "type": "Feature", "properties": {"id": "619730", "CVEGEO": "1100500360077008", "POBTOT": 0.0, "score_nse": 0.0, "NSE": null, "VIVTOT": 0.0, "GRAPROES": 0.0, "_ent": "11", "_mun": "005", "_loc": "0036"}, "geometry": {"type": "Polygon", "coordinates": [[[-100.69779, 20.51703], [-100.6976, 20.51623], [-100.69783, 20.51625], [-100.69751, 20.51599], [-100.69755, 20.51539], [-100.69846, 20.51563], [-100.69829, 20.51681], [-100.69816, 20.51704], [-100.69779, 20.51703]]]}}, {"id": "619731", "type": "Feature", "properties": {"id": "619731", "CVEGEO": "1100500360077007", "POBTOT": 0.0, "score_nse": 0.0, "NSE": null, "VIVTOT": 0.0, "GRAPROES": 0.0, "_ent": "11", "_mun": "005", "_loc": "0036"}, "geometry": {"type": "Polygon", "coordinates": [[[-100.69858, 20.5156], [-100.69911, 20.51563], [-100.69937, 20.51609], [-100.69848, 20.51653], [-100.69858, 20.5156]]]}}, {"id": "619732", "type": "Feature", "properties": {"id": "619732", "CVEGEO": "1100500360077006", "POBTOT": 0.0, "score_nse": 0.0, "NSE": null, "VIVTOT": 0.0, "GRAPROES": 0.0, "_ent": "11", "_mun": "005", "_loc": "0036"}, "geometry": {"type": "Polygon", "coordinates": [[[-100.69913, 20.51552], [-100.69858, 20.51555], [-100.69865, 20.51491], [-100.69941, 20.51454], [-100.69987, 20.51576], [-100.69944, 20.51605], [-100.69913, 20.51552]]]}}, {"id": "619830", "type": "Feature", "properties": {"id": "619830", "CVEGEO": "1100500360077029", "POBTOT": 0.0, "score_nse": 0.0, "NSE": null, "VIVTOT": 0.0, "GRAPROES": 0.0, "_ent": "11", "_mun": "005", "_loc": "0036"}, "geometry": {"type": "Polygon", "coordinates": [[[-100.70345, 20.51359], [-100.70101, 20.51531], [-100.70097, 20.51527], [-100.70092, 20.5143], [-100.70116, 20.5132], [-100.70345, 20.51359]]]}}, {"id": "619877", "type": "Feature", "properties": {"id": "619877", "CVEGEO": "1100500360077036", "POBTOT": 0.0, "score_nse": 0.0, "NSE": null, "VIVTOT": 0.0, "GRAPROES": 0.0, "_ent": "11", "_mun": "005", "_loc": "0036"}, "geometry": {"type": "Polygon", "coordinates": [[[-100.70105, 20.51536], [-100.70353, 20.5136], [-100.70409, 20.51374], [-100.70284, 20.51495], [-100.70216, 20.51536], [-100.70136, 20.51574], [-100.70105, 20.51536]]]}}, {"id": "619942", "type": "Feature", "properties": {"id": "619942", "CVEGEO": "1100500360077037", "POBTOT": 0.0, "score_nse": 0.0, "NSE": null, "VIVTOT": 0.0, "GRAPROES": 0.0, "_ent": "11", "_mun": "005", "_loc": "0036"}, "geometry": {"type": "Polygon", "coordinates": [[[-100.70131, 20.51693], [-100.70105, 20.51704], [-100.70071, 20.5162], [-100.70095, 20.51606], [-100.70131, 20.51693]]]}}, {"id": "620097", "type": "Feature", "properties": {"id": "620097", "CVEGEO": "1100500360077016", "POBTOT": 0.0, "score_nse": 0.0, "NSE": null, "VIVTOT": 0.0, "GRAPROES": 0.0, "_ent": "11", "_mun": "005", "_loc": "0036"}, "geometry": {"type": "Polygon", "coordinates": [[[-100.70096, 20.51701], [-100.69844, 20.51788], [-100.69812, 20.51737], [-100.69813, 20.51717], [-100.69961, 20.5168], [-100.69971, 20.51731], [-100.69915, 20.51751], [-100.69975, 20.51735], [-100.69964, 20.51678], [-100.70005, 20.51657], [-100.70021, 20.517], [-100.7001, 20.51655], [-100.70066, 20.51622], [-100.70096, 20.51701]]]}}, {"id": "620394", "type": "Feature", "properties": {"id": "620394", "CVEGEO": "1100500360077039", "POBTOT": 0.0, "score_nse": 0.0, "NSE": null, "VIVTOT": 0.0, "GRAPROES": 0.0, "_ent": "11", "_mun": "005", "_loc": "0036"}, "geometry": {"type": "Polygon", "coordinates": [[[-100.69622, 20.5117], [-100.69619, 20.51124], [-100.69724, 20.51133], [-100.69716, 20.51199], [-100.69622, 20.5117]]]}}, {"id": "620395", "type": "Feature", "properties": {"id": "620395", "CVEGEO": "1100500360077038", "POBTOT": 0.0, "score_nse": 0.0, "NSE": null, "VIVTOT": 0.0, "GRAPROES": 0.0, "_ent": "11", "_mun": "005", "_loc": "0036"}, "geometry": {"type": "Polygon", "coordinates": [[[-100.69841, 20.51234], [-100.69912, 20.51082], [-100.70003, 20.51111], [-100.69903, 20.51263], [-100.69841, 20.51234]]]}}, {"id": "620396", "type": "Feature", "properties": {"id": "620396", "CVEGEO": "1100500360077020", "POBTOT": 0.0, "score_nse": 0.0, "NSE": null, "VIVTOT": 0.0, "GRAPROES": 0.0, "_ent": "11", "_mun": "005", "_loc": "0036"}, "geometry": {"type": "Polygon", "coordinates": [[[-100.69873, 20.51341], [-100.69712, 20.51322], [-100.69719, 20.5126], [-100.69744, 20.51252], [-100.6972, 20.51257], [-100.69724, 20.51225], [-100.69785, 20.51226], [-100.69855, 20.5107], [-100.69906, 20.51082], [-100.69833, 20.51236], [-100.69902, 20.51268], [-100.69897, 20.5128], [-100.69848, 20.51271], [-100.69896, 20.51283], [-100.69873, 20.51341]]]}}, {"id": "620412", "type": "Feature", "properties": {"id": "620412", "CVEGEO": "1100500360077011", "POBTOT": 0.0, "score_nse": 0.0, "NSE": null, "VIVTOT": 0.0, "GRAPROES": 0.0, "_ent": "11", "_mun": "005", "_loc": "0036"}, "geometry": {"type": "Polygon", "coordinates": [[[-100.69718, 20.5121], [-100.69714, 20.51247], [-100.69683, 20.51247], [-100.69713, 20.51251], [-100.69702, 20.51353], [-100.69649, 20.51351], [-100.69701, 20.51358], [-100.69684, 20.51478], [-100.69608, 20.51461], [-100.69613, 20.51406], [-100.69604, 20.51456], [-100.69567, 20.51446], [-100.69552, 20.51389], [-100.69585, 20.51358], [-100.69552, 20.51385], [-100.69534, 20.51316], [-100.69628, 20.51296], [-100.69479, 20.51315], [-100.69474, 20.51291], [-100.69526, 20.51286], [-100.69524, 20.51273], [-100.69569, 20.51267], [-100.69572, 20.51283], [-100.6963, 20.5127], [-100.6962, 20.51177], [-100.69718, 20.5121]]]}}, {"id": "620413", "type": "Feature", "properties": {"id": "620413", "CVEGEO": "1100500360077032", "POBTOT": 0.0, "score_nse": 0.0, "NSE": null, "VIVTOT": 0.0, "GRAPROES": 0.0, "_ent": "11", "_mun": "005", "_loc": "0036"}, "geometry": {"type": "Polygon", "coordinates": [[[-100.69461, 20.51558], [-100.69461, 20.51528], [-100.69482, 20.51527], [-100.69478, 20.51458], [-100.69491, 20.51456], [-100.69499, 20.51408], [-100.69481, 20.51318], [-100.69528, 20.51317], [-100.69564, 20.5145], [-100.69605, 20.51461], [-100.69585, 20.51525], [-100.69543, 20.51501], [-100.6952, 20.51494], [-100.69584, 20.5153], [-100.69574, 20.51556], [-100.69517, 20.51527], [-100.69573, 20.5156], [-100.69566, 20.51596], [-100.69544, 20.51601], [-100.69566, 20.51602], [-100.69575, 20.51663], [-100.69493, 20.51661], [-100.69494, 20.51559], [-100.69461, 20.51558]]]}}, {"id": "620414", "type": "Feature", "properties": {"id": "620414", "CVEGEO": "1100500360077024", "POBTOT": 0.0, "score_nse": 0.0, "NSE": null, "VIVTOT": 0.0, "GRAPROES": 0.0, "_ent": "11", "_mun": "005", "_loc": "0036"}, "geometry": {"type": "Polygon", "coordinates": [[[-100.69258, 20.51785], [-100.69267, 20.51699], [-100.69294, 20.51701], [-100.69267, 20.51694], [-100.69271, 20.51652], [-100.69569, 20.51673], [-100.69571, 20.51768], [-100.6944, 20.51775], [-100.69426, 20.51753], [-100.69431, 20.51775], [-100.69357, 20.51779], [-100.69571, 20.51772], [-100.69566, 20.51843], [-100.69536, 20.51844], [-100.69536, 20.51807], [-100.69512, 20.518], [-100.69258, 20.51785]]]}}, {"id": "620428", "type": "Feature", "properties": {"id": "620428", "CVEGEO": "1100500360077014", "POBTOT": 0.0, "score_nse": 0.0, "NSE": null, "VIVTOT": 0.0, "GRAPROES": 0.0, "_ent": "11", "_mun": "005", "_loc": "0036"}, "geometry": {"type": "Polygon", "coordinates": [[[-100.69992, 20.5158], [-100.69944, 20.51454], [-100.69975, 20.51457], [-100.70085, 20.51411], [-100.70091, 20.5153], [-100.70051, 20.51508], [-100.70085, 20.51533], [-100.69992, 20.5158]]]}}, {"id": "620467", "type": "Feature", "properties": {"id": "620467", "CVEGEO": "1100500360077040", "POBTOT": 0.0, "score_nse": 0.0, "NSE": null, "VIVTOT": 0.0, "GRAPROES": 0.0, "_ent": "11", "_mun": "005", "_loc": "0036"}, "geometry": {"type": "Polygon", "coordinates": [[[-100.69255, 20.51731], [-100.69176, 20.51725], [-100.69255, 20.51737], [-100.6925, 20.51784], [-100.6905, 20.5177], [-100.69066, 20.51631], [-100.69264, 20.51652], [-100.69259, 20.51693], [-100.69176, 20.51684], [-100.69258, 20.51698], [-100.69255, 20.51731]]]}}, {"id": "620598", "type": "Feature", "properties": {"id": "620598", "CVEGEO": "1100500360077015", "POBTOT": 0.0, "score_nse": 0.0, "NSE": null, "VIVTOT": 0.0, "GRAPROES": 0.0, "_ent": "11", "_mun": "005", "_loc": "0036"}, "geometry": {"type": "Polygon", "coordinates": [[[-100.70065, 20.51615], [-100.70007, 20.51649], [-100.69993, 20.51629], [-100.70002, 20.51651], [-100.69959, 20.51674], [-100.69943, 20.51659], [-100.69952, 20.51676], [-100.69823, 20.51705], [-100.69847, 20.5166], [-100.70039, 20.51565], [-100.70065, 20.51615]]]}}, {"id": "620856", "type": "Feature", "properties": {"id": "620856", "CVEGEO": "1100500360077025", "POBTOT": 0.0, "score_nse": 0.0, "NSE": null, "VIVTOT": 0.0, "GRAPROES": 0.0, "_ent": "11", "_mun": "005", "_loc": "0036"}, "geometry": {"type": "Polygon", "coordinates": [[[-100.69911, 20.5126], [-100.69988, 20.51144], [-100.70068, 20.51166], [-100.69988, 20.51285], [-100.69911, 20.5126]]]}}, {"id": "620857", "type": "Feature", "properties": {"id": "620857", "CVEGEO": "1100500360077041", "POBTOT": 0.0, "score_nse": 0.0, "NSE": null, "VIVTOT": 0.0, "GRAPROES": 0.0, "_ent": "11", "_mun": "005", "_loc": "0036"}, "geometry": {"type": "Polygon", "coordinates": [[[-100.70134, 20.51178], [-100.70073, 20.51158], [-100.69991, 20.5114], [-100.70012, 20.51111], [-100.70137, 20.51138], [-100.70134, 20.51178]]]}}, {"id": "620858", "type": "Feature", "properties": {"id": "620858", "CVEGEO": "1100500360077042", "POBTOT": 0.0, "score_nse": 0.0, "NSE": null, "VIVTOT": 0.0, "GRAPROES": 0.0, "_ent": "11", "_mun": "005", "_loc": "0036"}, "geometry": {"type": "Polygon", "coordinates": [[[-100.70008, 20.51105], [-100.69915, 20.51078], [-100.69931, 20.51042], [-100.70029, 20.51076], [-100.70008, 20.51105]]]}}, {"id": "620859", "type": "Feature", "properties": {"id": "620859", "CVEGEO": "1100500360077043", "POBTOT": 0.0, "score_nse": 0.0, "NSE": null, "VIVTOT": 0.0, "GRAPROES": 0.0, "_ent": "11", "_mun": "005", "_loc": "0036"}, "geometry": {"type": "Polygon", "coordinates": [[[-100.70034, 20.5107], [-100.69932, 20.51037], [-100.69949, 20.51001], [-100.70068, 20.51042], [-100.70034, 20.5107]]]}}]}