{"type": "FeatureCollection", "features": [{"id": "970717", "type": "Feature", "properties": {"id": "970717", "CVEGEO": "140740075003A040", "POBTOT": 0.0, "score_nse": 0.0, "NSE": null, "VIVTOT": 0.0, "GRAPROES": 0.0, "_ent": "14", "_mun": "074", "_loc": "0075"}, "geometry": {"type": "Polygon", "coordinates": [[[-102.1945, 21.01252], [-102.19463, 21.01157], [-102.19557, 21.0117], [-102.19547, 21.01249], [-102.1945, 21.01252]]]}}, {"id": "970718", "type": "Feature", "properties": {"id": "970718", "CVEGEO": "140740075003A035", "POBTOT": 0.0, "score_nse": 0.0, "NSE": null, "VIVTOT": 0.0, "GRAPROES": 0.0, "_ent": "14", "_mun": "074", "_loc": "0075"}, "geometry": {"type": "Polygon", "coordinates": [[[-102.19967, 21.00778], [-102.19874, 21.00768], [-102.19878, 21.00723], [-102.19972, 21.00738], [-102.19967, 21.00778]]]}}, {"id": "970719", "type": "Feature", "properties": {"id": "970719", "CVEGEO": "140740075003A034", "POBTOT": 0.0, "score_nse": 0.0, "NSE": null, "VIVTOT": 0.0, "GRAPROES": 0.0, "_ent": "14", "_mun": "074", "_loc": "0075"}, "geometry": {"type": "Polygon", "coordinates": [[[-102.19756, 21.00846], [-102.19732, 21.00843], [-102.19741, 21.00804], [-102.19762, 21.00803], [-102.19756, 21.00846]]]}}, {"id": "970720", "type": "Feature", "properties": {"id": "970720", "CVEGEO": "140740075003A033", "POBTOT": 0.0, "score_nse": 0.0, "NSE": null, "VIVTOT": 0.0, "GRAPROES": 0.0, "_ent": "14", "_mun": "074", "_loc": "0075"}, "geometry": {"type": "Polygon", "coordinates": [[[-102.19851, 21.00818], [-102.19844, 21.00855], [-102.19765, 21.00848], [-102.19769, 21.00811], [-102.19851, 21.00818]]]}}, {"id": "970721", "type": "Feature", "properties": {"id": "970721", "CVEGEO": "140740075003A017", "POBTOT": 0.0, "score_nse": 0.0, "NSE": null, "VIVTOT": 0.0, "GRAPROES": 0.0, "_ent": "14", "_mun": "074", "_loc": "0075"}, "geometry": {"type": "Polygon", "coordinates": [[[-102.19688, 21.0093], [-102.19682, 21.00975], [-102.19596, 21.00963], [-102.19601, 21.00919], [-102.19688, 21.0093]]]}}, {"id": "970722", "type": "Feature", "properties": {"id": "970722", "CVEGEO": "140740075003A016", "POBTOT": 0.0, "score_nse": 0.0, "NSE": null, "VIVTOT": 0.0, "GRAPROES": 0.0, "_ent": "14", "_mun": "074", "_loc": "0075"}, "geometry": {"type": "Polygon", "coordinates": [[[-102.19682, 21.00984], [-102.19675, 21.01032], [-102.19588, 21.01019], [-102.19594, 21.00972], [-102.19682, 21.00984]]]}}, {"id": "970723", "type": "Feature", "properties": {"id": "970723", "CVEGEO": "140740075003A015", "POBTOT": 0.0, "score_nse": 0.0, "NSE": null, "VIVTOT": 0.0, "GRAPROES": 0.0, "_ent": "14", "_mun": "074", "_loc": "0075"}, "geometry": {"type": "Polygon", "coordinates": [[[-102.19661, 21.01132], [-102.19654, 21.01174], [-102.19562, 21.01164], [-102.19568, 21.01122], [-102.19661, 21.01132]]]}}, {"id": "970724", "type": "Feature", "properties": {"id": "970724", "CVEGEO": "140740075003A014", "POBTOT": 0.0, "score_nse": 0.0, "NSE": null, "VIVTOT": 0.0, "GRAPROES": 0.0, "_ent": "14", "_mun": "074", "_loc": "0075"}, "geometry": {"type": "Polygon", "coordinates": [[[-102.19717, 21.01145], [-102.19797, 21.01155], [-102.19791, 21.0119], [-102.19712, 21.01182], [-102.19717, 21.01145]]]}}, {"id": "970725", "type": "Feature", "properties": {"id": "970725", "CVEGEO": "140740075003A013", "POBTOT": 0.0, "score_nse": 0.0, "NSE": null, "VIVTOT": 0.0, "GRAPROES": 0.0, "_ent": "14", "_mun": "074", "_loc": "0075"}, "geometry": {"type": "Polygon", "coordinates": [[[-102.19813, 21.01118], [-102.19876, 21.01124], [-102.19837, 21.01235], [-102.19793, 21.01237], [-102.19813, 21.01118]]]}}, {"id": "970825", "type": "Feature", "properties": {"id": "970825", "CVEGEO": "140740075003A028", "POBTOT": 0.0, "score_nse": 0.0, "NSE": null, "VIVTOT": 0.0, "GRAPROES": 0.0, "_ent": "14", "_mun": "074", "_loc": "0075"}, "geometry": {"type": "Polygon", "coordinates": [[[-102.19515, 21.00847], [-102.19602, 21.00856], [-102.19599, 21.0087], [-102.19512, 21.0086], [-102.19515, 21.00847]]]}}, {"id": "970826", "type": "Feature", "properties": {"id": "970826", "CVEGEO": "140740075003A027", "POBTOT": 0.0, "score_nse": 0.0, "NSE": null, "VIVTOT": 0.0, "GRAPROES": 0.0, "_ent": "14", "_mun": "074", "_loc": "0075"}, "geometry": {"type": "Polygon", "coordinates": [[[-102.19593, 21.00918], [-102.19587, 21.00962], [-102.19495, 21.00954], [-102.19505, 21.00907], [-102.19593, 21.00918]]]}}, {"id": "970827", "type": "Feature", "properties": {"id": "970827", "CVEGEO": "140740075003A026", "POBTOT": 0.0, "score_nse": 0.0, "NSE": null, "VIVTOT": 0.0, "GRAPROES": 0.0, "_ent": "14", "_mun": "074", "_loc": "0075"}, "geometry": {"type": "Polygon", "coordinates": [[[-102.1956, 21.0112], [-102.19552, 21.01161], [-102.19463, 21.01148], [-102.19471, 21.01109], [-102.1956, 21.0112]]]}}, {"id": "970863", "type": "Feature", "properties": {"id": "970863", "CVEGEO": "140740075003A009", "POBTOT": 0.0, "score_nse": 0.0, "NSE": null, "VIVTOT": 0.0, "GRAPROES": 0.0, "_ent": "14", "_mun": "074", "_loc": "0075"}, "geometry": {"type": "Polygon", "coordinates": [[[-102.19692, 21.00977], [-102.19698, 21.00932], [-102.19738, 21.00937], [-102.19731, 21.00983], [-102.19692, 21.00977]]]}}, {"id": "970864", "type": "Feature", "properties": {"id": "970864", "CVEGEO": "140740075003A001", "POBTOT": 0.0, "score_nse": 0.0, "NSE": null, "VIVTOT": 0.0, "GRAPROES": 0.0, "_ent": "14", "_mun": "074", "_loc": "0075"}, "geometry": {"type": "Polygon", "coordinates": [[[-102.19733, 21.01037], [-102.19739, 21.00993], [-102.1982, 21.01003], [-102.19814, 21.01047], [-102.19733, 21.01037]]]}}, {"id": "970895", "type": "Feature", "properties": {"id": "970895", "CVEGEO": "140740075003A045", "POBTOT": 0.0, "score_nse": 0.0, "NSE": null, "VIVTOT": 0.0, "GRAPROES": 0.0, "_ent": "14", "_mun": "074", "_loc": "0075"}, "geometry": {"type": "Polygon", "coordinates": [[[-102.19512, 21.00868], [-102.19599, 21.00877], [-102.19594, 21.00911], [-102.19506, 21.009], [-102.19512, 21.00868]]]}}, {"id": "970896", "type": "Feature", "properties": {"id": "970896", "CVEGEO": "140740075003A044", "POBTOT": 0.0, "score_nse": 0.0, "NSE": null, "VIVTOT": 0.0, "GRAPROES": 0.0, "_ent": "14", "_mun": "074", "_loc": "0075"}, "geometry": {"type": "Polygon", "coordinates": [[[-102.19484, 21.01008], [-102.19493, 21.00962], [-102.19586, 21.0097], [-102.19579, 21.0102], [-102.19484, 21.01008]]]}}, {"id": "970897", "type": "Feature", "properties": {"id": "970897", "CVEGEO": "140740075003A043", "POBTOT": 0.0, "score_nse": 0.0, "NSE": null, "VIVTOT": 0.0, "GRAPROES": 0.0, "_ent": "14", "_mun": "074", "_loc": "0075"}, "geometry": {"type": "Polygon", "coordinates": [[[-102.19718, 21.0114], [-102.19723, 21.01107], [-102.19804, 21.01117], [-102.19798, 21.01149], [-102.19718, 21.0114]]]}}, {"id": "970898", "type": "Feature", "properties": {"id": "970898", "CVEGEO": "140740075003A041", "POBTOT": 0.0, "score_nse": 0.0, "NSE": null, "VIVTOT": 0.0, "GRAPROES": 0.0, "_ent": "14", "_mun": "074", "_loc": "0075"}, "geometry": {"type": "Polygon", "coordinates": [[[-102.19845, 21.00604], [-102.19877, 21.00612], [-102.19871, 21.00676], [-102.19833, 21.00674], [-102.19845, 21.00604]]]}}, {"id": "970899", "type": "Feature", "properties": {"id": "970899", "CVEGEO": "140740075003A008", "POBTOT": 0.0, "score_nse": 0.0, "NSE": null, "VIVTOT": 0.0, "GRAPROES": 0.0, "_ent": "14", "_mun": "074", "_loc": "0075"}, "geometry": {"type": "Polygon", "coordinates": [[[-102.1969, 21.00984], [-102.19729, 21.0099], [-102.19724, 21.01038], [-102.19682, 21.01033], [-102.1969, 21.00984]]]}}, {"id": "970900", "type": "Feature", "properties": {"id": "970900", "CVEGEO": "140740075003A007", "POBTOT": 0.0, "score_nse": 0.0, "NSE": null, "VIVTOT": 0.0, "GRAPROES": 0.0, "_ent": "14", "_mun": "074", "_loc": "0075"}, "geometry": {"type": "Polygon", "coordinates": [[[-102.19682, 21.01044], [-102.19723, 21.0105], [-102.19704, 21.0118], [-102.19662, 21.01176], [-102.19682, 21.01044]]]}}, {"id": "970901", "type": "Feature", "properties": {"id": "970901", "CVEGEO": "140740075003A006", "POBTOT": 0.0, "score_nse": 0.0, "NSE": null, "VIVTOT": 0.0, "GRAPROES": 0.0, "_ent": "14", "_mun": "074", "_loc": "0075"}, "geometry": {"type": "Polygon", "coordinates": [[[-102.19724, 21.01099], [-102.1973, 21.01055], [-102.19812, 21.01066], [-102.19806, 21.01109], [-102.19724, 21.01099]]]}}, {"id": "970902", "type": "Feature", "properties": {"id": "970902", "CVEGEO": "140740075003A005", "POBTOT": 0.0, "score_nse": 0.0, "NSE": null, "VIVTOT": 0.0, "GRAPROES": 0.0, "_ent": "14", "_mun": "074", "_loc": "0075"}, "geometry": {"type": "Polygon", "coordinates": [[[-102.19821, 21.01067], [-102.19891, 21.01074], [-102.19878, 21.01117], [-102.19814, 21.01111], [-102.19821, 21.01067]]]}}, {"id": "970903", "type": "Feature", "properties": {"id": "970903", "CVEGEO": "140740075003A004", "POBTOT": 0.0, "score_nse": 0.0, "NSE": null, "VIVTOT": 0.0, "GRAPROES": 0.0, "_ent": "14", "_mun": "074", "_loc": "0075"}, "geometry": {"type": "Polygon", "coordinates": [[[-102.19823, 21.01048], [-102.19829, 21.01003], [-102.19909, 21.01011], [-102.19897, 21.01057], [-102.19823, 21.01048]]]}}, {"id": "970904", "type": "Feature", "properties": {"id": "970904", "CVEGEO": "140740075003A003", "POBTOT": 0.0, "score_nse": 0.0, "NSE": null, "VIVTOT": 0.0, "GRAPROES": 0.0, "_ent": "14", "_mun": "074", "_loc": "0075"}, "geometry": {"type": "Polygon", "coordinates": [[[-102.19831, 21.00996], [-102.19839, 21.0095], [-102.19925, 21.0096], [-102.1991, 21.01004], [-102.19831, 21.00996]]]}}, {"id": "970905", "type": "Feature", "properties": {"id": "970905", "CVEGEO": "140740075003A002", "POBTOT": 0.0, "score_nse": 0.0, "NSE": null, "VIVTOT": 0.0, "GRAPROES": 0.0, "_ent": "14", "_mun": "074", "_loc": "0075"}, "geometry": {"type": "Polygon", "coordinates": [[[-102.19741, 21.00985], [-102.19747, 21.00938], [-102.19831, 21.00949], [-102.19824, 21.00995], [-102.19741, 21.00985]]]}}, {"id": "970945", "type": "Feature", "properties": {"id": "970945", "CVEGEO": "140740075003A021", "POBTOT": 0.0, "score_nse": 0.0, "NSE": null, "VIVTOT": 0.0, "GRAPROES": 0.0, "_ent": "14", "_mun": "074", "_loc": "0075"}, "geometry": {"type": "Polygon", "coordinates": [[[-102.19837, 21.009], [-102.19754, 21.00889], [-102.1976, 21.00854], [-102.19843, 21.00861], [-102.19837, 21.009]]]}}, {"id": "970946", "type": "Feature", "properties": {"id": "970946", "CVEGEO": "140740075003A020", "POBTOT": 0.0, "score_nse": 0.0, "NSE": null, "VIVTOT": 0.0, "GRAPROES": 0.0, "_ent": "14", "_mun": "074", "_loc": "0075"}, "geometry": {"type": "Polygon", "coordinates": [[[-102.19726, 21.00874], [-102.19731, 21.00848], [-102.19755, 21.00852], [-102.19747, 21.0089], [-102.19702, 21.00884], [-102.19705, 21.00871], [-102.19726, 21.00874]]]}}, {"id": "970947", "type": "Feature", "properties": {"id": "970947", "CVEGEO": "140740075003A010", "POBTOT": 0.0, "score_nse": 0.0, "NSE": null, "VIVTOT": 0.0, "GRAPROES": 0.0, "_ent": "14", "_mun": "074", "_loc": "0075"}, "geometry": {"type": "Polygon", "coordinates": [[[-102.19699, 21.00924], [-102.19704, 21.00889], [-102.19746, 21.00895], [-102.1974, 21.0093], [-102.19699, 21.00924]]]}}, {"id": "970962", "type": "Feature", "properties": {"id": "970962", "CVEGEO": "140740075003A025", "POBTOT": 0.0, "score_nse": 0.0, "NSE": null, "VIVTOT": 0.0, "GRAPROES": 0.0, "_ent": "14", "_mun": "074", "_loc": "0075"}, "geometry": {"type": "Polygon", "coordinates": [[[-102.19566, 21.01172], [-102.19651, 21.01183], [-102.19642, 21.01246], [-102.19555, 21.01249], [-102.19566, 21.01172]]]}}, {"id": "970963", "type": "Feature", "properties": {"id": "970963", "CVEGEO": "140740075003A024", "POBTOT": 0.0, "score_nse": 0.0, "NSE": null, "VIVTOT": 0.0, "GRAPROES": 0.0, "_ent": "14", "_mun": "074", "_loc": "0075"}, "geometry": {"type": "Polygon", "coordinates": [[[-102.19661, 21.01182], [-102.19703, 21.01187], [-102.19697, 21.01239], [-102.19654, 21.01243], [-102.19661, 21.01182]]]}}, {"id": "970964", "type": "Feature", "properties": {"id": "970964", "CVEGEO": "140740075003A023", "POBTOT": 0.0, "score_nse": 0.0, "NSE": null, "VIVTOT": 0.0, "GRAPROES": 0.0, "_ent": "14", "_mun": "074", "_loc": "0075"}, "geometry": {"type": "Polygon", "coordinates": [[[-102.19711, 21.01188], [-102.1979, 21.01195], [-102.19783, 21.01236], [-102.19705, 21.01239], [-102.19711, 21.01188]]]}}, {"id": "970965", "type": "Feature", "properties": {"id": "970965", "CVEGEO": "140740075003A022", "POBTOT": 0.0, "score_nse": 0.0, "NSE": null, "VIVTOT": 0.0, "GRAPROES": 0.0, "_ent": "14", "_mun": "074", "_loc": "0075"}, "geometry": {"type": "Polygon", "coordinates": [[[-102.19942, 21.00909], [-102.19848, 21.009], [-102.19855, 21.00867], [-102.19952, 21.00875], [-102.19942, 21.00909]]]}}, {"id": "970971", "type": "Feature", "properties": {"id": "970971", "CVEGEO": "140740075003A019", "POBTOT": 0.0, "score_nse": 0.0, "NSE": null, "VIVTOT": 0.0, "GRAPROES": 0.0, "_ent": "14", "_mun": "074", "_loc": "0075"}, "geometry": {"type": "Polygon", "coordinates": [[[-102.1961, 21.00858], [-102.19697, 21.0087], [-102.19695, 21.00881], [-102.19608, 21.00872], [-102.1961, 21.00858]]]}}, {"id": "970983", "type": "Feature", "properties": {"id": "970983", "CVEGEO": "140740075003A018", "POBTOT": 0.0, "score_nse": 0.0, "NSE": null, "VIVTOT": 0.0, "GRAPROES": 0.0, "_ent": "14", "_mun": "074", "_loc": "0075"}, "geometry": {"type": "Polygon", "coordinates": [[[-102.19605, 21.00878], [-102.19695, 21.00888], [-102.19689, 21.00925], [-102.196, 21.00913], [-102.19605, 21.00878]]]}}, {"id": "970984", "type": "Feature", "properties": {"id": "970984", "CVEGEO": "140740075003A030", "POBTOT": 0.0, "score_nse": 0.0, "NSE": null, "VIVTOT": 0.0, "GRAPROES": 0.0, "_ent": "14", "_mun": "074", "_loc": "0075"}, "geometry": {"type": "Polygon", "coordinates": [[[-102.19857, 21.00769], [-102.19852, 21.00809], [-102.19771, 21.008], [-102.19774, 21.00763], [-102.19857, 21.00769]]]}}, {"id": "970985", "type": "Feature", "properties": {"id": "970985", "CVEGEO": "140740075003A031", "POBTOT": 0.0, "score_nse": 0.0, "NSE": null, "VIVTOT": 0.0, "GRAPROES": 0.0, "_ent": "14", "_mun": "074", "_loc": "0075"}, "geometry": {"type": "Polygon", "coordinates": [[[-102.19958, 21.00823], [-102.19861, 21.00811], [-102.19865, 21.00772], [-102.19966, 21.00781], [-102.19958, 21.00823]]]}}, {"id": "970986", "type": "Feature", "properties": {"id": "970986", "CVEGEO": "140740075003A011", "POBTOT": 0.0, "score_nse": 0.0, "NSE": null, "VIVTOT": 0.0, "GRAPROES": 0.0, "_ent": "14", "_mun": "074", "_loc": "0075"}, "geometry": {"type": "Polygon", "coordinates": [[[-102.19748, 21.00932], [-102.19753, 21.00896], [-102.19838, 21.00908], [-102.19832, 21.00943], [-102.19748, 21.00932]]]}}, {"id": "970987", "type": "Feature", "properties": {"id": "970987", "CVEGEO": "140740075003A012", "POBTOT": 0.0, "score_nse": 0.0, "NSE": null, "VIVTOT": 0.0, "GRAPROES": 0.0, "_ent": "14", "_mun": "074", "_loc": "0075"}, "geometry": {"type": "Polygon", "coordinates": [[[-102.19927, 21.00958], [-102.19839, 21.00947], [-102.19844, 21.00909], [-102.19941, 21.00918], [-102.19927, 21.00958]]]}}, {"id": "970988", "type": "Feature", "properties": {"id": "970988", "CVEGEO": "140740075003A032", "POBTOT": 0.0, "score_nse": 0.0, "NSE": null, "VIVTOT": 0.0, "GRAPROES": 0.0, "_ent": "14", "_mun": "074", "_loc": "0075"}, "geometry": {"type": "Polygon", "coordinates": [[[-102.19952, 21.00868], [-102.19852, 21.00858], [-102.19859, 21.00819], [-102.19959, 21.0083], [-102.19952, 21.00868]]]}}, {"id": "970989", "type": "Feature", "properties": {"id": "970989", "CVEGEO": "140740075003A042", "POBTOT": 0.0, "score_nse": 0.0, "NSE": null, "VIVTOT": 0.0, "GRAPROES": 0.0, "_ent": "14", "_mun": "074", "_loc": "0075"}, "geometry": {"type": "Polygon", "coordinates": [[[-102.19875, 21.00715], [-102.19893, 21.00614], [-102.19914, 21.00616], [-102.19898, 21.00697], [-102.1992, 21.00703], [-102.19916, 21.00722], [-102.19875, 21.00715]]]}}, {"id": "971023", "type": "Feature", "properties": {"id": "971023", "CVEGEO": "140740075003A038", "POBTOT": 0.0, "score_nse": 0.0, "NSE": null, "VIVTOT": 0.0, "GRAPROES": 0.0, "_ent": "14", "_mun": "074", "_loc": "0075"}, "geometry": {"type": "Polygon", "coordinates": [[[-102.19674, 21.01043], [-102.19669, 21.01078], [-102.19576, 21.01066], [-102.19582, 21.01031], [-102.19674, 21.01043]]]}}, {"id": "971030", "type": "Feature", "properties": {"id": "971030", "CVEGEO": "140740075003A039", "POBTOT": 0.0, "score_nse": 0.0, "NSE": null, "VIVTOT": 0.0, "GRAPROES": 0.0, "_ent": "14", "_mun": "074", "_loc": "0075"}, "geometry": {"type": "Polygon", "coordinates": [[[-102.19482, 21.01017], [-102.19575, 21.0103], [-102.19569, 21.01067], [-102.19477, 21.01052], [-102.19482, 21.01017]]]}}, {"id": "971031", "type": "Feature", "properties": {"id": "971031", "CVEGEO": "140740075003A046", "POBTOT": 0.0, "score_nse": 0.0, "NSE": null, "VIVTOT": 0.0, "GRAPROES": 0.0, "_ent": "14", "_mun": "074", "_loc": "0075"}, "geometry": {"type": "Polygon", "coordinates": [[[-102.19662, 21.01083], [-102.19661, 21.01127], [-102.19568, 21.01118], [-102.19575, 21.01072], [-102.19662, 21.01083]]]}}, {"id": "971032", "type": "Feature", "properties": {"id": "971032", "CVEGEO": "140740075003A047", "POBTOT": 0.0, "score_nse": 0.0, "NSE": null, "VIVTOT": 0.0, "GRAPROES": 0.0, "_ent": "14", "_mun": "074", "_loc": "0075"}, "geometry": {"type": "Polygon", "coordinates": [[[-102.19568, 21.01072], [-102.1956, 21.01116], [-102.19469, 21.01104], [-102.19476, 21.01058], [-102.19568, 21.01072]]]}}]}