{"type": "FeatureCollection", "features": [{"id": "816494", "type": "Feature", "properties": {"id": "816494", "CVEGEO": "1208000020108055", "POBTOT": 0.0, "score_nse": 0.0, "NSE": null, "VIVTOT": 0.0, "GRAPROES": 0.0, "_ent": "12", "_mun": "080", "_loc": "0002"}, "geometry": {"type": "Polygon", "coordinates": [[[-98.69966, 16.619], [-98.69916, 16.61907], [-98.69949, 16.6182], [-98.69953, 16.61861], [-98.69966, 16.619]]]}}, {"id": "816506", "type": "Feature", "properties": {"id": "816506", "CVEGEO": "1208000020108013", "POBTOT": 0.0, "score_nse": 0.0, "NSE": null, "VIVTOT": 0.0, "GRAPROES": 0.0, "_ent": "12", "_mun": "080", "_loc": "0002"}, "geometry": {"type": "Polygon", "coordinates": [[[-98.70148, 16.62244], [-98.70138, 16.62198], [-98.70226, 16.62189], [-98.70148, 16.62244]]]}}, {"id": "816510", "type": "Feature", "properties": {"id": "816510", "CVEGEO": "1208000020108046", "POBTOT": 0.0, "score_nse": 0.0, "NSE": null, "VIVTOT": 0.0, "GRAPROES": 0.0, "_ent": "12", "_mun": "080", "_loc": "0002"}, "geometry": {"type": "Polygon", "coordinates": [[[-98.70047, 16.62085], [-98.69914, 16.62006], [-98.69915, 16.61987], [-98.70032, 16.61987], [-98.70047, 16.62085]]]}}, {"id": "816511", "type": "Feature", "properties": {"id": "816511", "CVEGEO": "1208000020108045", "POBTOT": 0.0, "score_nse": 0.0, "NSE": null, "VIVTOT": 0.0, "GRAPROES": 0.0, "_ent": "12", "_mun": "080", "_loc": "0002"}, "geometry": {"type": "Polygon", "coordinates": [[[-98.70674, 16.62783], [-98.70531, 16.62706], [-98.70511, 16.62677], [-98.70533, 16.62647], [-98.70651, 16.62727], [-98.70674, 16.62783]]]}}, {"id": "816512", "type": "Feature", "properties": {"id": "816512", "CVEGEO": "1208000020108044", "POBTOT": 0.0, "score_nse": 0.0, "NSE": null, "VIVTOT": 0.0, "GRAPROES": 0.0, "_ent": "12", "_mun": "080", "_loc": "0002"}, "geometry": {"type": "Polygon", "coordinates": [[[-98.70417, 16.62001], [-98.70383, 16.62006], [-98.70368, 16.62014], [-98.7036, 16.6199], [-98.70419, 16.61961], [-98.7047, 16.62018], [-98.70393, 16.62064], [-98.70369, 16.62018], [-98.70417, 16.62001]]]}}, {"id": "816513", "type": "Feature", "properties": {"id": "816513", "CVEGEO": "1208000020108043", "POBTOT": 0.0, "score_nse": 0.0, "NSE": null, "VIVTOT": 0.0, "GRAPROES": 0.0, "_ent": "12", "_mun": "080", "_loc": "0002"}, "geometry": {"type": "Polygon", "coordinates": [[[-98.70246, 16.62094], [-98.70228, 16.61995], [-98.70312, 16.61874], [-98.7032, 16.61832], [-98.70337, 16.61953], [-98.70385, 16.62068], [-98.70246, 16.62094]]]}}, {"id": "816514", "type": "Feature", "properties": {"id": "816514", "CVEGEO": "1208000020108042", "POBTOT": 0.0, "score_nse": 0.0, "NSE": null, "VIVTOT": 0.0, "GRAPROES": 0.0, "_ent": "12", "_mun": "080", "_loc": "0002"}, "geometry": {"type": "Polygon", "coordinates": [[[-98.70238, 16.62093], [-98.70152, 16.62092], [-98.70223, 16.61998], [-98.70237, 16.62046], [-98.70238, 16.62093]]]}}, {"id": "816515", "type": "Feature", "properties": {"id": "816515", "CVEGEO": "1208000020108039", "POBTOT": 0.0, "score_nse": 0.0, "NSE": null, "VIVTOT": 0.0, "GRAPROES": 0.0, "_ent": "12", "_mun": "080", "_loc": "0002"}, "geometry": {"type": "Polygon", "coordinates": [[[-98.70048, 16.62091], [-98.69964, 16.62155], [-98.69946, 16.62049], [-98.69892, 16.62023], [-98.69907, 16.62007], [-98.70048, 16.62091]]]}}, {"id": "816516", "type": "Feature", "properties": {"id": "816516", "CVEGEO": "1208000020108027", "POBTOT": 0.0, "score_nse": 0.0, "NSE": null, "VIVTOT": 0.0, "GRAPROES": 0.0, "_ent": "12", "_mun": "080", "_loc": "0002"}, "geometry": {"type": "Polygon", "coordinates": [[[-98.70068, 16.62196], [-98.70064, 16.62098], [-98.70124, 16.621], [-98.70128, 16.62191], [-98.70068, 16.62196]]]}}, {"id": "816517", "type": "Feature", "properties": {"id": "816517", "CVEGEO": "1208000020108026", "POBTOT": 0.0, "score_nse": 0.0, "NSE": null, "VIVTOT": 0.0, "GRAPROES": 0.0, "_ent": "12", "_mun": "080", "_loc": "0002"}, "geometry": {"type": "Polygon", "coordinates": [[[-98.69974, 16.62221], [-98.69944, 16.62203], [-98.69947, 16.62179], [-98.69996, 16.62132], [-98.7005, 16.62106], [-98.7006, 16.62197], [-98.69974, 16.62221]]]}}, {"id": "816518", "type": "Feature", "properties": {"id": "816518", "CVEGEO": "1208000020108025", "POBTOT": 0.0, "score_nse": 0.0, "NSE": null, "VIVTOT": 0.0, "GRAPROES": 0.0, "_ent": "12", "_mun": "080", "_loc": "0002"}, "geometry": {"type": "Polygon", "coordinates": [[[-98.70067, 16.62279], [-98.69971, 16.62256], [-98.69975, 16.62224], [-98.70061, 16.62203], [-98.70067, 16.62279]]]}}, {"id": "816519", "type": "Feature", "properties": {"id": "816519", "CVEGEO": "1208000020108024", "POBTOT": 0.0, "score_nse": 0.0, "NSE": null, "VIVTOT": 0.0, "GRAPROES": 0.0, "_ent": "12", "_mun": "080", "_loc": "0002"}, "geometry": {"type": "Polygon", "coordinates": [[[-98.7008, 16.62343], [-98.69971, 16.62355], [-98.6996, 16.6232], [-98.69969, 16.62261], [-98.70068, 16.62283], [-98.7008, 16.62343]]]}}, {"id": "816520", "type": "Feature", "properties": {"id": "816520", "CVEGEO": "1208000020108023", "POBTOT": 0.0, "score_nse": 0.0, "NSE": null, "VIVTOT": 0.0, "GRAPROES": 0.0, "_ent": "12", "_mun": "080", "_loc": "0002"}, "geometry": {"type": "Polygon", "coordinates": [[[-98.70088, 16.6235], [-98.70091, 16.62381], [-98.6999, 16.62378], [-98.69986, 16.62359], [-98.70088, 16.6235]]]}}, {"id": "816521", "type": "Feature", "properties": {"id": "816521", "CVEGEO": "1208000020108022", "POBTOT": 0.0, "score_nse": 0.0, "NSE": null, "VIVTOT": 0.0, "GRAPROES": 0.0, "_ent": "12", "_mun": "080", "_loc": "0002"}, "geometry": {"type": "Polygon", "coordinates": [[[-98.70005, 16.62408], [-98.7, 16.6238], [-98.70091, 16.62388], [-98.70082, 16.6243], [-98.70005, 16.62408]]]}}, {"id": "816522", "type": "Feature", "properties": {"id": "816522", "CVEGEO": "1208000020108010", "POBTOT": 0.0, "score_nse": 0.0, "NSE": null, "VIVTOT": 0.0, "GRAPROES": 0.0, "_ent": "12", "_mun": "080", "_loc": "0002"}, "geometry": {"type": "Polygon", "coordinates": [[[-98.70099, 16.62382], [-98.70095, 16.62348], [-98.70138, 16.62344], [-98.70142, 16.62394], [-98.70099, 16.62382]]]}}, {"id": "816523", "type": "Feature", "properties": {"id": "816523", "CVEGEO": "1208000020108009", "POBTOT": 0.0, "score_nse": 0.0, "NSE": null, "VIVTOT": 0.0, "GRAPROES": 0.0, "_ent": "12", "_mun": "080", "_loc": "0002"}, "geometry": {"type": "Polygon", "coordinates": [[[-98.70147, 16.62343], [-98.70212, 16.62353], [-98.70205, 16.62411], [-98.70149, 16.62396], [-98.70147, 16.62343]]]}}, {"id": "816524", "type": "Feature", "properties": {"id": "816524", "CVEGEO": "1208000020108008", "POBTOT": 0.0, "score_nse": 0.0, "NSE": null, "VIVTOT": 0.0, "GRAPROES": 0.0, "_ent": "12", "_mun": "080", "_loc": "0002"}, "geometry": {"type": "Polygon", "coordinates": [[[-98.70221, 16.62354], [-98.70267, 16.62363], [-98.70248, 16.62423], [-98.70214, 16.62414], [-98.70221, 16.62354]]]}}, {"id": "816525", "type": "Feature", "properties": {"id": "816525", "CVEGEO": "1208000020108007", "POBTOT": 0.0, "score_nse": 0.0, "NSE": null, "VIVTOT": 0.0, "GRAPROES": 0.0, "_ent": "12", "_mun": "080", "_loc": "0002"}, "geometry": {"type": "Polygon", "coordinates": [[[-98.70276, 16.62365], [-98.70366, 16.62381], [-98.70362, 16.62452], [-98.70257, 16.62426], [-98.70276, 16.62365]]]}}, {"id": "816526", "type": "Feature", "properties": {"id": "816526", "CVEGEO": "1208000020108006", "POBTOT": 0.0, "score_nse": 0.0, "NSE": null, "VIVTOT": 0.0, "GRAPROES": 0.0, "_ent": "12", "_mun": "080", "_loc": "0002"}, "geometry": {"type": "Polygon", "coordinates": [[[-98.70302, 16.62297], [-98.70373, 16.62323], [-98.70369, 16.62372], [-98.70279, 16.62357], [-98.70302, 16.62297]]]}}, {"id": "816527", "type": "Feature", "properties": {"id": "816527", "CVEGEO": "1208000020108004", "POBTOT": 0.0, "score_nse": 0.0, "NSE": null, "VIVTOT": 0.0, "GRAPROES": 0.0, "_ent": "12", "_mun": "080", "_loc": "0002"}, "geometry": {"type": "Polygon", "coordinates": [[[-98.70272, 16.62165], [-98.70332, 16.62202], [-98.70297, 16.62285], [-98.70234, 16.62258], [-98.7024, 16.62186], [-98.70272, 16.62165]]]}}, {"id": "816528", "type": "Feature", "properties": {"id": "816528", "CVEGEO": "1208000020108003", "POBTOT": 0.0, "score_nse": 0.0, "NSE": null, "VIVTOT": 0.0, "GRAPROES": 0.0, "_ent": "12", "_mun": "080", "_loc": "0002"}, "geometry": {"type": "Polygon", "coordinates": [[[-98.70229, 16.62195], [-98.70224, 16.62255], [-98.70175, 16.62236], [-98.70229, 16.62195]]]}}, {"id": "816541", "type": "Feature", "properties": {"id": "816541", "CVEGEO": "1208000020108012", "POBTOT": 0.0, "score_nse": 0.0, "NSE": null, "VIVTOT": 0.0, "GRAPROES": 0.0, "_ent": "12", "_mun": "080", "_loc": "0002"}, "geometry": {"type": "Polygon", "coordinates": [[[-98.7008, 16.6229], [-98.70068, 16.62202], [-98.70129, 16.62199], [-98.70128, 16.6226], [-98.7008, 16.6229]]]}}, {"id": "816587", "type": "Feature", "properties": {"id": "816587", "CVEGEO": "1208000020108049", "POBTOT": 0.0, "score_nse": 0.0, "NSE": null, "VIVTOT": 0.0, "GRAPROES": 0.0, "_ent": "12", "_mun": "080", "_loc": "0002"}, "geometry": {"type": "Polygon", "coordinates": [[[-98.7013, 16.62091], [-98.70135, 16.61986], [-98.70216, 16.61996], [-98.70144, 16.62091], [-98.7013, 16.62091]]]}}, {"id": "816588", "type": "Feature", "properties": {"id": "816588", "CVEGEO": "1208000020108048", "POBTOT": 0.0, "score_nse": 0.0, "NSE": null, "VIVTOT": 0.0, "GRAPROES": 0.0, "_ent": "12", "_mun": "080", "_loc": "0002"}, "geometry": {"type": "Polygon", "coordinates": [[[-98.70397, 16.6213], [-98.70335, 16.62197], [-98.70276, 16.62161], [-98.70382, 16.62082], [-98.70397, 16.6213]]]}}, {"id": "816589", "type": "Feature", "properties": {"id": "816589", "CVEGEO": "1208000020108047", "POBTOT": 0.0, "score_nse": 0.0, "NSE": null, "VIVTOT": 0.0, "GRAPROES": 0.0, "_ent": "12", "_mun": "080", "_loc": "0002"}, "geometry": {"type": "Polygon", "coordinates": [[[-98.70597, 16.62676], [-98.70644, 16.62662], [-98.70657, 16.62719], [-98.70597, 16.62676]]]}}, {"id": "816617", "type": "Feature", "properties": {"id": "816617", "CVEGEO": "1208000020108014", "POBTOT": 0.0, "score_nse": 0.0, "NSE": null, "VIVTOT": 0.0, "GRAPROES": 0.0, "_ent": "12", "_mun": "080", "_loc": "0002"}, "geometry": {"type": "Polygon", "coordinates": [[[-98.70573, 16.6197], [-98.70579, 16.61979], [-98.70517, 16.62013], [-98.70458, 16.62087], [-98.70432, 16.62051], [-98.70573, 16.6197]]]}}, {"id": "816630", "type": "Feature", "properties": {"id": "816630", "CVEGEO": "1208000020108028", "POBTOT": 0.0, "score_nse": 0.0, "NSE": null, "VIVTOT": 0.0, "GRAPROES": 0.0, "_ent": "12", "_mun": "080", "_loc": "0002"}, "geometry": {"type": "Polygon", "coordinates": [[[-98.70133, 16.621], [-98.70238, 16.62101], [-98.70232, 16.62182], [-98.70137, 16.62191], [-98.70133, 16.621]]]}}, {"id": "816660", "type": "Feature", "properties": {"id": "816660", "CVEGEO": "1208000020108029", "POBTOT": 0.0, "score_nse": 0.0, "NSE": null, "VIVTOT": 0.0, "GRAPROES": 0.0, "_ent": "12", "_mun": "080", "_loc": "0002"}, "geometry": {"type": "Polygon", "coordinates": [[[-98.70351, 16.62089], [-98.70329, 16.62117], [-98.70241, 16.62177], [-98.70245, 16.621], [-98.70351, 16.62089]]]}}, {"id": "816661", "type": "Feature", "properties": {"id": "816661", "CVEGEO": "1208000020108016", "POBTOT": 0.0, "score_nse": 0.0, "NSE": null, "VIVTOT": 0.0, "GRAPROES": 0.0, "_ent": "12", "_mun": "080", "_loc": "0002"}, "geometry": {"type": "Polygon", "coordinates": [[[-98.70375, 16.62383], [-98.70584, 16.62409], [-98.70536, 16.625], [-98.70372, 16.62455], [-98.70375, 16.62383]]]}}, {"id": "816682", "type": "Feature", "properties": {"id": "816682", "CVEGEO": "1208000020108021", "POBTOT": 0.0, "score_nse": 0.0, "NSE": null, "VIVTOT": 0.0, "GRAPROES": 0.0, "_ent": "12", "_mun": "080", "_loc": "0002"}, "geometry": {"type": "Polygon", "coordinates": [[[-98.7009, 16.62431], [-98.70098, 16.6239], [-98.70141, 16.62402], [-98.7013, 16.62446], [-98.7009, 16.62431]]]}}, {"id": "816683", "type": "Feature", "properties": {"id": "816683", "CVEGEO": "1208000020108020", "POBTOT": 0.0, "score_nse": 0.0, "NSE": null, "VIVTOT": 0.0, "GRAPROES": 0.0, "_ent": "12", "_mun": "080", "_loc": "0002"}, "geometry": {"type": "Polygon", "coordinates": [[[-98.70149, 16.62404], [-98.70203, 16.6242], [-98.70198, 16.62471], [-98.70138, 16.62448], [-98.70149, 16.62404]]]}}, {"id": "816684", "type": "Feature", "properties": {"id": "816684", "CVEGEO": "1208000020108019", "POBTOT": 0.0, "score_nse": 0.0, "NSE": null, "VIVTOT": 0.0, "GRAPROES": 0.0, "_ent": "12", "_mun": "080", "_loc": "0002"}, "geometry": {"type": "Polygon", "coordinates": [[[-98.70211, 16.62422], [-98.70245, 16.62431], [-98.70229, 16.62483], [-98.70204, 16.62474], [-98.70211, 16.62422]]]}}, {"id": "816685", "type": "Feature", "properties": {"id": "816685", "CVEGEO": "1208000020108018", "POBTOT": 0.0, "score_nse": 0.0, "NSE": null, "VIVTOT": 0.0, "GRAPROES": 0.0, "_ent": "12", "_mun": "080", "_loc": "0002"}, "geometry": {"type": "Polygon", "coordinates": [[[-98.7036, 16.62462], [-98.70353, 16.6253], [-98.70237, 16.62487], [-98.70254, 16.62434], [-98.7036, 16.62462]]]}}, {"id": "816686", "type": "Feature", "properties": {"id": "816686", "CVEGEO": "1208000020108017", "POBTOT": 0.0, "score_nse": 0.0, "NSE": null, "VIVTOT": 0.0, "GRAPROES": 0.0, "_ent": "12", "_mun": "080", "_loc": "0002"}, "geometry": {"type": "Polygon", "coordinates": [[[-98.70367, 16.62524], [-98.70371, 16.62465], [-98.70532, 16.62508], [-98.70486, 16.62595], [-98.70367, 16.62524]]]}}, {"id": "816698", "type": "Feature", "properties": {"id": "816698", "CVEGEO": "1208000020108037", "POBTOT": 0.0, "score_nse": 0.0, "NSE": null, "VIVTOT": 0.0, "GRAPROES": 0.0, "_ent": "12", "_mun": "080", "_loc": "0002"}, "geometry": {"type": "Polygon", "coordinates": [[[-98.69989, 16.62388], [-98.69929, 16.62473], [-98.69862, 16.62504], [-98.69832, 16.62491], [-98.69831, 16.62437], [-98.6986, 16.62421], [-98.69881, 16.62382], [-98.69962, 16.62371], [-98.69989, 16.62388]]]}}, {"id": "816699", "type": "Feature", "properties": {"id": "816699", "CVEGEO": "1208000020108036", "POBTOT": 0.0, "score_nse": 0.0, "NSE": null, "VIVTOT": 0.0, "GRAPROES": 0.0, "_ent": "12", "_mun": "080", "_loc": "0002"}, "geometry": {"type": "Polygon", "coordinates": [[[-98.70062, 16.62515], [-98.69933, 16.62477], [-98.69989, 16.62407], [-98.7008, 16.62437], [-98.70062, 16.62515]]]}}, {"id": "816700", "type": "Feature", "properties": {"id": "816700", "CVEGEO": "1208000020108035", "POBTOT": 0.0, "score_nse": 0.0, "NSE": null, "VIVTOT": 0.0, "GRAPROES": 0.0, "_ent": "12", "_mun": "080", "_loc": "0002"}, "geometry": {"type": "Polygon", "coordinates": [[[-98.70069, 16.62509], [-98.70086, 16.6244], [-98.70131, 16.62453], [-98.70123, 16.6248], [-98.70069, 16.62509]]]}}, {"id": "816701", "type": "Feature", "properties": {"id": "816701", "CVEGEO": "1208000020108034", "POBTOT": 0.0, "score_nse": 0.0, "NSE": null, "VIVTOT": 0.0, "GRAPROES": 0.0, "_ent": "12", "_mun": "080", "_loc": "0002"}, "geometry": {"type": "Polygon", "coordinates": [[[-98.70355, 16.62566], [-98.70262, 16.62536], [-98.70271, 16.62508], [-98.70354, 16.62539], [-98.70355, 16.62566]]]}}, {"id": "816702", "type": "Feature", "properties": {"id": "816702", "CVEGEO": "1208000020108033", "POBTOT": 0.0, "score_nse": 0.0, "NSE": null, "VIVTOT": 0.0, "GRAPROES": 0.0, "_ent": "12", "_mun": "080", "_loc": "0002"}, "geometry": {"type": "Polygon", "coordinates": [[[-98.70482, 16.62709], [-98.70362, 16.62599], [-98.70361, 16.6254], [-98.70528, 16.62644], [-98.70482, 16.62709]]]}}, {"id": "816703", "type": "Feature", "properties": {"id": "816703", "CVEGEO": "1208000020108011", "POBTOT": 0.0, "score_nse": 0.0, "NSE": null, "VIVTOT": 0.0, "GRAPROES": 0.0, "_ent": "12", "_mun": "080", "_loc": "0002"}, "geometry": {"type": "Polygon", "coordinates": [[[-98.70087, 16.62342], [-98.70083, 16.62297], [-98.70129, 16.6227], [-98.70137, 16.62336], [-98.70087, 16.62342]]]}}, {"id": "816704", "type": "Feature", "properties": {"id": "816704", "CVEGEO": "1208000020108002", "POBTOT": 0.0, "score_nse": 0.0, "NSE": null, "VIVTOT": 0.0, "GRAPROES": 0.0, "_ent": "12", "_mun": "080", "_loc": "0002"}, "geometry": {"type": "Polygon", "coordinates": [[[-98.70213, 16.62346], [-98.70146, 16.62337], [-98.70137, 16.62264], [-98.70168, 16.62241], [-98.70223, 16.62265], [-98.70213, 16.62346]]]}}, {"id": "816705", "type": "Feature", "properties": {"id": "816705", "CVEGEO": "1208000020108001", "POBTOT": 0.0, "score_nse": 0.0, "NSE": null, "VIVTOT": 0.0, "GRAPROES": 0.0, "_ent": "12", "_mun": "080", "_loc": "0002"}, "geometry": {"type": "Polygon", "coordinates": [[[-98.70233, 16.62269], [-98.70293, 16.62294], [-98.70269, 16.62356], [-98.70221, 16.62347], [-98.70233, 16.62269]]]}}, {"id": "816743", "type": "Feature", "properties": {"id": "816743", "CVEGEO": "1208000020108054", "POBTOT": 0.0, "score_nse": 0.0, "NSE": null, "VIVTOT": 0.0, "GRAPROES": 0.0, "_ent": "12", "_mun": "080", "_loc": "0002"}, "geometry": {"type": "Polygon", "coordinates": [[[-98.69945, 16.62209], [-98.69893, 16.62223], [-98.69882, 16.62213], [-98.69959, 16.62162], [-98.69939, 16.62188], [-98.69945, 16.62209]]]}}, {"id": "816744", "type": "Feature", "properties": {"id": "816744", "CVEGEO": "1208000020108032", "POBTOT": 0.0, "score_nse": 0.0, "NSE": null, "VIVTOT": 0.0, "GRAPROES": 0.0, "_ent": "12", "_mun": "080", "_loc": "0002"}, "geometry": {"type": "Polygon", "coordinates": [[[-98.70539, 16.62511], [-98.70596, 16.62527], [-98.70638, 16.62603], [-98.70635, 16.62658], [-98.70588, 16.62668], [-98.70491, 16.62598], [-98.70539, 16.62511]]]}}, {"id": "816749", "type": "Feature", "properties": {"id": "816749", "CVEGEO": "1208000020108038", "POBTOT": 0.0, "score_nse": 0.0, "NSE": null, "VIVTOT": 0.0, "GRAPROES": 0.0, "_ent": "12", "_mun": "080", "_loc": "0002"}, "geometry": {"type": "Polygon", "coordinates": [[[-98.69919, 16.62214], [-98.69972, 16.62222], [-98.69967, 16.62255], [-98.69895, 16.62225], [-98.69919, 16.62214]]]}}, {"id": "816819", "type": "Feature", "properties": {"id": "816819", "CVEGEO": "1208000020108041", "POBTOT": 0.0, "score_nse": 0.0, "NSE": null, "VIVTOT": 0.0, "GRAPROES": 0.0, "_ent": "12", "_mun": "080", "_loc": "0002"}, "geometry": {"type": "Polygon", "coordinates": [[[-98.70123, 16.62092], [-98.70058, 16.62092], [-98.70038, 16.61987], [-98.70127, 16.61986], [-98.70123, 16.62092]]]}}, {"id": "816824", "type": "Feature", "properties": {"id": "816824", "CVEGEO": "1208000020108056", "POBTOT": 0.0, "score_nse": 0.0, "NSE": null, "VIVTOT": 0.0, "GRAPROES": 0.0, "_ent": "12", "_mun": "080", "_loc": "0002"}, "geometry": {"type": "Polygon", "coordinates": [[[-98.69908, 16.61981], [-98.69853, 16.61971], [-98.69854, 16.61907], [-98.69882, 16.61903], [-98.6991, 16.61912], [-98.69908, 16.61981]]]}}, {"id": "816825", "type": "Feature", "properties": {"id": "816825", "CVEGEO": "1208000020108031", "POBTOT": 0.0, "score_nse": 0.0, "NSE": null, "VIVTOT": 0.0, "GRAPROES": 0.0, "_ent": "12", "_mun": "080", "_loc": "0002"}, "geometry": {"type": "Polygon", "coordinates": [[[-98.7065, 16.62636], [-98.70599, 16.62523], [-98.70545, 16.62499], [-98.70591, 16.62409], [-98.70751, 16.62449], [-98.70679, 16.6255], [-98.7065, 16.62636]]]}}, {"id": "816826", "type": "Feature", "properties": {"id": "816826", "CVEGEO": "1208000020108015", "POBTOT": 0.0, "score_nse": 0.0, "NSE": null, "VIVTOT": 0.0, "GRAPROES": 0.0, "_ent": "12", "_mun": "080", "_loc": "0002"}, "geometry": {"type": "Polygon", "coordinates": [[[-98.70536, 16.62398], [-98.70376, 16.62373], [-98.7038, 16.62328], [-98.70536, 16.62383], [-98.70536, 16.62398]]]}}, {"id": "816827", "type": "Feature", "properties": {"id": "816827", "CVEGEO": "1208000020108005", "POBTOT": 0.0, "score_nse": 0.0, "NSE": null, "VIVTOT": 0.0, "GRAPROES": 0.0, "_ent": "12", "_mun": "080", "_loc": "0002"}, "geometry": {"type": "Polygon", "coordinates": [[[-98.70432, 16.62203], [-98.70443, 16.62296], [-98.70464, 16.62352], [-98.70422, 16.62335], [-98.70437, 16.62277], [-98.70417, 16.62333], [-98.7038, 16.62319], [-98.70384, 16.62214], [-98.70432, 16.62203]]]}}, {"id": "816833", "type": "Feature", "properties": {"id": "816833", "CVEGEO": "1208000020108060", "POBTOT": 0.0, "score_nse": 0.0, "NSE": null, "VIVTOT": 0.0, "GRAPROES": 0.0, "_ent": "12", "_mun": "080", "_loc": "0002"}, "geometry": {"type": "Polygon", "coordinates": [[[-98.69847, 16.61971], [-98.6981, 16.61971], [-98.69805, 16.6191], [-98.69848, 16.61908], [-98.69847, 16.61971]]]}}, {"id": "816834", "type": "Feature", "properties": {"id": "816834", "CVEGEO": "1208000020108059", "POBTOT": 0.0, "score_nse": 0.0, "NSE": null, "VIVTOT": 0.0, "GRAPROES": 0.0, "_ent": "12", "_mun": "080", "_loc": "0002"}, "geometry": {"type": "Polygon", "coordinates": [[[-98.70484, 16.6217], [-98.70435, 16.6217], [-98.70459, 16.62097], [-98.70493, 16.62135], [-98.70484, 16.6217]]]}}, {"id": "816835", "type": "Feature", "properties": {"id": "816835", "CVEGEO": "1208000020108058", "POBTOT": 0.0, "score_nse": 0.0, "NSE": null, "VIVTOT": 0.0, "GRAPROES": 0.0, "_ent": "12", "_mun": "080", "_loc": "0002"}, "geometry": {"type": "Polygon", "coordinates": [[[-98.70557, 16.62401], [-98.70541, 16.62399], [-98.70544, 16.6239], [-98.70557, 16.62401]]]}}, {"id": "816836", "type": "Feature", "properties": {"id": "816836", "CVEGEO": "1208000020108057", "POBTOT": 0.0, "score_nse": 0.0, "NSE": null, "VIVTOT": 0.0, "GRAPROES": 0.0, "_ent": "12", "_mun": "080", "_loc": "0002"}, "geometry": {"type": "Polygon", "coordinates": [[[-98.70341, 16.62202], [-98.70403, 16.62133], [-98.70387, 16.6208], [-98.70426, 16.62055], [-98.70453, 16.62095], [-98.70426, 16.62159], [-98.70431, 16.62197], [-98.70341, 16.62202]]]}}, {"id": "816837", "type": "Feature", "properties": {"id": "816837", "CVEGEO": "1208000020108040", "POBTOT": 0.0, "score_nse": 0.0, "NSE": null, "VIVTOT": 0.0, "GRAPROES": 0.0, "_ent": "12", "_mun": "080", "_loc": "0002"}, "geometry": {"type": "Polygon", "coordinates": [[[-98.70378, 16.62214], [-98.70373, 16.62316], [-98.70305, 16.6229], [-98.70339, 16.62207], [-98.70378, 16.62214]]]}}, {"id": "816861", "type": "Feature", "properties": {"id": "816861", "CVEGEO": "1208000020108030", "POBTOT": 0.0, "score_nse": 0.0, "NSE": null, "VIVTOT": 0.0, "GRAPROES": 0.0, "_ent": "12", "_mun": "080", "_loc": "0002"}, "geometry": {"type": "Polygon", "coordinates": [[[-98.70519, 16.62345], [-98.70505, 16.62362], [-98.70484, 16.62354], [-98.70451, 16.62304], [-98.70435, 16.62174], [-98.70485, 16.62174], [-98.705, 16.62253], [-98.70459, 16.62259], [-98.70501, 16.62258], [-98.70519, 16.62345]]]}}, {"id": "816862", "type": "Feature", "properties": {"id": "816862", "CVEGEO": "1208000020108052", "POBTOT": 0.0, "score_nse": 0.0, "NSE": null, "VIVTOT": 0.0, "GRAPROES": 0.0, "_ent": "12", "_mun": "080", "_loc": "0002"}, "geometry": {"type": "Polygon", "coordinates": [[[-98.70018, 16.61974], [-98.69911, 16.61975], [-98.69912, 16.61912], [-98.69969, 16.61905], [-98.70016, 16.61949], [-98.70018, 16.61974]]]}}, {"id": "816863", "type": "Feature", "properties": {"id": "816863", "CVEGEO": "1208000020108061", "POBTOT": 0.0, "score_nse": 0.0, "NSE": null, "VIVTOT": 0.0, "GRAPROES": 0.0, "_ent": "12", "_mun": "080", "_loc": "0002"}, "geometry": {"type": "Polygon", "coordinates": [[[-98.70551, 16.62173], [-98.7049, 16.6217], [-98.70497, 16.62139], [-98.70551, 16.62173]]]}}, {"id": "816864", "type": "Feature", "properties": {"id": "816864", "CVEGEO": "1208000020108062", "POBTOT": 0.0, "score_nse": 0.0, "NSE": null, "VIVTOT": 0.0, "GRAPROES": 0.0, "_ent": "12", "_mun": "080", "_loc": "0002"}, "geometry": {"type": "Polygon", "coordinates": [[[-98.70113, 16.61972], [-98.70034, 16.61978], [-98.70022, 16.61942], [-98.70109, 16.61942], [-98.70113, 16.61972]]]}}]}