{"type": "FeatureCollection", "features": [{"id": "1747035", "type": "Feature", "properties": {"id": "1747035", "CVEGEO": "2120900110051001", "POBTOT": 0.0, "score_nse": 0.0, "NSE": null, "VIVTOT": 0.0, "GRAPROES": 0.0, "_ent": "21", "_mun": "209", "_loc": "0011"}, "geometry": {"type": "Polygon", "coordinates": [[[-97.58369, 18.16013], [-97.58228, 18.16034], [-97.58167, 18.16069], [-97.58121, 18.16064], [-97.58078, 18.16092], [-97.58052, 18.16078], [-97.5809, 18.15988], [-97.58084, 18.15962], [-97.58151, 18.15994], [-97.58316, 18.15948], [-97.58367, 18.15952], [-97.58369, 18.15972], [-97.58351, 18.15975], [-97.58369, 18.15976], [-97.58369, 18.16013]]]}}, {"id": "1747063", "type": "Feature", "properties": {"id": "1747063", "CVEGEO": "2120900110051005", "POBTOT": 0.0, "score_nse": 0.0, "NSE": null, "VIVTOT": 0.0, "GRAPROES": 0.0, "_ent": "21", "_mun": "209", "_loc": "0011"}, "geometry": {"type": "Polygon", "coordinates": [[[-97.58177, 18.16064], [-97.58262, 18.16033], [-97.58318, 18.16056], [-97.58311, 18.16147], [-97.58273, 18.16132], [-97.58238, 18.16088], [-97.58177, 18.16064]]]}}, {"id": "1747064", "type": "Feature", "properties": {"id": "1747064", "CVEGEO": "2120900110051004", "POBTOT": 0.0, "score_nse": 0.0, "NSE": null, "VIVTOT": 0.0, "GRAPROES": 0.0, "_ent": "21", "_mun": "209", "_loc": "0011"}, "geometry": {"type": "Polygon", "coordinates": [[[-97.58367, 18.15949], [-97.58315, 18.15945], [-97.58278, 18.1596], [-97.58334, 18.15905], [-97.58363, 18.15903], [-97.58367, 18.15949]]]}}, {"id": "1747234", "type": "Feature", "properties": {"id": "1747234", "CVEGEO": "2120900110051019", "POBTOT": 0.0, "score_nse": 0.0, "NSE": null, "VIVTOT": 0.0, "GRAPROES": 0.0, "_ent": "21", "_mun": "209", "_loc": "0011"}, "geometry": {"type": "Polygon", "coordinates": [[[-97.58598, 18.16133], [-97.58522, 18.16125], [-97.58542, 18.15988], [-97.58603, 18.15984], [-97.58584, 18.16064], [-97.58598, 18.16133]]]}}, {"id": "1747235", "type": "Feature", "properties": {"id": "1747235", "CVEGEO": "2120900110051010", "POBTOT": 0.0, "score_nse": 0.0, "NSE": null, "VIVTOT": 0.0, "GRAPROES": 0.0, "_ent": "21", "_mun": "209", "_loc": "0011"}, "geometry": {"type": "Polygon", "coordinates": [[[-97.58457, 18.16087], [-97.58421, 18.16113], [-97.58397, 18.1609], [-97.58372, 18.15913], [-97.58431, 18.15904], [-97.58457, 18.16087]]]}}, {"id": "1747236", "type": "Feature", "properties": {"id": "1747236", "CVEGEO": "2120900110051016", "POBTOT": 0.0, "score_nse": 0.0, "NSE": null, "VIVTOT": 0.0, "GRAPROES": 0.0, "_ent": "21", "_mun": "209", "_loc": "0011"}, "geometry": {"type": "Polygon", "coordinates": [[[-97.5849, 18.16094], [-97.58466, 18.16092], [-97.58441, 18.15903], [-97.58543, 18.15891], [-97.5853, 18.16071], [-97.58506, 18.16137], [-97.5849, 18.16094]]]}}, {"id": "1747237", "type": "Feature", "properties": {"id": "1747237", "CVEGEO": "2120900110051008", "POBTOT": 0.0, "score_nse": 0.0, "NSE": null, "VIVTOT": 0.0, "GRAPROES": 0.0, "_ent": "21", "_mun": "209", "_loc": "0011"}, "geometry": {"type": "Polygon", "coordinates": [[[-97.58374, 18.15905], [-97.58372, 18.15864], [-97.58544, 18.1585], [-97.58534, 18.15887], [-97.58374, 18.15905]]]}}, {"id": "1747238", "type": "Feature", "properties": {"id": "1747238", "CVEGEO": "2120900110051003", "POBTOT": 0.0, "score_nse": 0.0, "NSE": null, "VIVTOT": 0.0, "GRAPROES": 0.0, "_ent": "21", "_mun": "209", "_loc": "0011"}, "geometry": {"type": "Polygon", "coordinates": [[[-97.58334, 18.15901], [-97.58336, 18.15884], [-97.58366, 18.15865], [-97.58363, 18.159], [-97.58334, 18.15901]]]}}, {"id": "1747277", "type": "Feature", "properties": {"id": "1747277", "CVEGEO": "2120900110051011", "POBTOT": 0.0, "score_nse": 0.0, "NSE": null, "VIVTOT": 0.0, "GRAPROES": 0.0, "_ent": "21", "_mun": "209", "_loc": "0011"}, "geometry": {"type": "Polygon", "coordinates": [[[-97.58173, 18.16185], [-97.58161, 18.1616], [-97.58187, 18.16155], [-97.58199, 18.1611], [-97.58144, 18.16094], [-97.58166, 18.16073], [-97.58248, 18.16105], [-97.58278, 18.16146], [-97.58284, 18.162], [-97.58173, 18.16185]]]}}]}