{"type": "FeatureCollection", "features": [{"id": "1892279", "type": "Feature", "properties": {"id": "1892279", "CVEGEO": "2405400100083001", "POBTOT": 0.0, "score_nse": 0.0, "NSE": null, "VIVTOT": 0.0, "GRAPROES": 0.0, "_ent": "24", "_mun": "054", "_loc": "0010"}, "geometry": {"type": "Polygon", "coordinates": [[[-99.04619, 21.34176], [-99.04583, 21.34191], [-99.04575, 21.34163], [-99.04611, 21.34146], [-99.04619, 21.34176]]]}}, {"id": "1892280", "type": "Feature", "properties": {"id": "1892280", "CVEGEO": "2405400100083002", "POBTOT": 0.0, "score_nse": 0.0, "NSE": null, "VIVTOT": 0.0, "GRAPROES": 0.0, "_ent": "24", "_mun": "054", "_loc": "0010"}, "geometry": {"type": "Polygon", "coordinates": [[[-99.04705, 21.34039], [-99.0468, 21.3402], [-99.04697, 21.34003], [-99.04723, 21.34019], [-99.04705, 21.34039]]]}}]}