{"type": "FeatureCollection", "features": [{"id": "1892393", "type": "Feature", "properties": {"id": "1892393", "CVEGEO": "2405400780026003", "POBTOT": 0.0, "score_nse": 0.0, "NSE": null, "VIVTOT": 0.0, "GRAPROES": 0.0, "_ent": "24", "_mun": "054", "_loc": "0078"}, "geometry": {"type": "Polygon", "coordinates": [[[-99.04649, 21.45734], [-99.04725, 21.45619], [-99.04744, 21.45616], [-99.04744, 21.45673], [-99.04728, 21.45704], [-99.04671, 21.45747], [-99.04649, 21.45734]]]}}, {"id": "1892474", "type": "Feature", "properties": {"id": "1892474", "CVEGEO": "2405400780026001", "POBTOT": 0.0, "score_nse": 0.0, "NSE": null, "VIVTOT": 0.0, "GRAPROES": 0.0, "_ent": "24", "_mun": "054", "_loc": "0078"}, "geometry": {"type": "Polygon", "coordinates": [[[-99.04494, 21.45752], [-99.04584, 21.45774], [-99.04503, 21.45881], [-99.0443, 21.45825], [-99.0442, 21.45799], [-99.04397, 21.45796], [-99.04494, 21.45752]]]}}, {"id": "1892633", "type": "Feature", "properties": {"id": "1892633", "CVEGEO": "2405400780026002", "POBTOT": 0.0, "score_nse": 0.0, "NSE": null, "VIVTOT": 0.0, "GRAPROES": 0.0, "_ent": "24", "_mun": "054", "_loc": "0078"}, "geometry": {"type": "Polygon", "coordinates": [[[-99.04634, 21.4574], [-99.04714, 21.45776], [-99.04647, 21.45844], [-99.0458, 21.45792], [-99.04634, 21.4574]]]}}, {"id": "1892661", "type": "Feature", "properties": {"id": "1892661", "CVEGEO": "2405400780026004", "POBTOT": 0.0, "score_nse": 0.0, "NSE": null, "VIVTOT": 0.0, "GRAPROES": 0.0, "_ent": "24", "_mun": "054", "_loc": "0078"}, "geometry": {"type": "Polygon", "coordinates": [[[-99.04703, 21.45733], [-99.04748, 21.45678], [-99.04756, 21.45626], [-99.04821, 21.45651], [-99.04827, 21.45681], [-99.04722, 21.45741], [-99.04703, 21.45733]]]}}]}