{"type": "FeatureCollection", "features": [{"id": "836638", "type": "Feature", "properties": {"id": "836638", "CVEGEO": "1302500640011004", "POBTOT": 0.0, "score_nse": 0.0, "NSE": null, "VIVTOT": 0.0, "GRAPROES": 0.0, "_ent": "13", "_mun": "025", "_loc": "0064"}, "geometry": {"type": "Polygon", "coordinates": [[[-98.28932, 21.06195], [-98.28891, 21.06117], [-98.29023, 21.06058], [-98.29017, 21.06087], [-98.28932, 21.06195]]]}}, {"id": "836639", "type": "Feature", "properties": {"id": "836639", "CVEGEO": "1302500640011014", "POBTOT": 0.0, "score_nse": 0.0, "NSE": null, "VIVTOT": 0.0, "GRAPROES": 0.0, "_ent": "13", "_mun": "025", "_loc": "0064"}, "geometry": {"type": "Polygon", "coordinates": [[[-98.29018, 21.06029], [-98.28973, 21.0602], [-98.28971, 21.05982], [-98.28992, 21.0595], [-98.29033, 21.05953], [-98.29018, 21.06029]]]}}, {"id": "836640", "type": "Feature", "properties": {"id": "836640", "CVEGEO": "1302500640011018", "POBTOT": 0.0, "score_nse": 0.0, "NSE": null, "VIVTOT": 0.0, "GRAPROES": 0.0, "_ent": "13", "_mun": "025", "_loc": "0064"}, "geometry": {"type": "Polygon", "coordinates": [[[-98.28919, 21.05942], [-98.28939, 21.05944], [-98.28988, 21.05948], [-98.28968, 21.05978], [-98.28904, 21.05972], [-98.28919, 21.05942]]]}}, {"id": "836641", "type": "Feature", "properties": {"id": "836641", "CVEGEO": "1302500640011020", "POBTOT": 0.0, "score_nse": 0.0, "NSE": null, "VIVTOT": 0.0, "GRAPROES": 0.0, "_ent": "13", "_mun": "025", "_loc": "0064"}, "geometry": {"type": "Polygon", "coordinates": [[[-98.29033, 21.05949], [-98.28991, 21.05945], [-98.28995, 21.05872], [-98.2905, 21.05879], [-98.29033, 21.05949]]]}}, {"id": "836642", "type": "Feature", "properties": {"id": "836642", "CVEGEO": "1302500640011013", "POBTOT": 0.0, "score_nse": 0.0, "NSE": null, "VIVTOT": 0.0, "GRAPROES": 0.0, "_ent": "13", "_mun": "025", "_loc": "0064"}, "geometry": {"type": "Polygon", "coordinates": [[[-98.28966, 21.05982], [-98.28968, 21.06019], [-98.28901, 21.06012], [-98.28903, 21.05976], [-98.28966, 21.05982]]]}}, {"id": "836643", "type": "Feature", "properties": {"id": "836643", "CVEGEO": "1302500640011008", "POBTOT": 0.0, "score_nse": 0.0, "NSE": null, "VIVTOT": 0.0, "GRAPROES": 0.0, "_ent": "13", "_mun": "025", "_loc": "0064"}, "geometry": {"type": "Polygon", "coordinates": [[[-98.28719, 21.06141], [-98.28718, 21.06123], [-98.28717, 21.06139], [-98.28678, 21.06099], [-98.28682, 21.06081], [-98.28718, 21.06068], [-98.28755, 21.05992], [-98.28849, 21.05944], [-98.28862, 21.0598], [-98.28785, 21.06015], [-98.28756, 21.06036], [-98.28749, 21.06055], [-98.28787, 21.06018], [-98.28898, 21.05975], [-98.28896, 21.06011], [-98.28829, 21.06049], [-98.28796, 21.0614], [-98.28719, 21.06141]]]}}, {"id": "836644", "type": "Feature", "properties": {"id": "836644", "CVEGEO": "1302500640011010", "POBTOT": 0.0, "score_nse": 0.0, "NSE": null, "VIVTOT": 0.0, "GRAPROES": 0.0, "_ent": "13", "_mun": "025", "_loc": "0064"}, "geometry": {"type": "Polygon", "coordinates": [[[-98.28888, 21.06113], [-98.28843, 21.06049], [-98.28896, 21.06018], [-98.29019, 21.06034], [-98.29006, 21.0606], [-98.28917, 21.06104], [-98.28888, 21.06113]]]}}, {"id": "836645", "type": "Feature", "properties": {"id": "836645", "CVEGEO": "1302500640011021", "POBTOT": 0.0, "score_nse": 0.0, "NSE": null, "VIVTOT": 0.0, "GRAPROES": 0.0, "_ent": "13", "_mun": "025", "_loc": "0064"}, "geometry": {"type": "Polygon", "coordinates": [[[-98.28986, 21.05944], [-98.28921, 21.05939], [-98.28922, 21.05874], [-98.28992, 21.05873], [-98.28986, 21.05944]]]}}, {"id": "836646", "type": "Feature", "properties": {"id": "836646", "CVEGEO": "1302500640011019", "POBTOT": 0.0, "score_nse": 0.0, "NSE": null, "VIVTOT": 0.0, "GRAPROES": 0.0, "_ent": "13", "_mun": "025", "_loc": "0064"}, "geometry": {"type": "Polygon", "coordinates": [[[-98.28898, 21.05971], [-98.28868, 21.05978], [-98.2886, 21.05911], [-98.28916, 21.05922], [-98.28898, 21.05971]]]}}, {"id": "836647", "type": "Feature", "properties": {"id": "836647", "CVEGEO": "1302500640011011", "POBTOT": 0.0, "score_nse": 0.0, "NSE": null, "VIVTOT": 0.0, "GRAPROES": 0.0, "_ent": "13", "_mun": "025", "_loc": "0064"}, "geometry": {"type": "Polygon", "coordinates": [[[-98.2874, 21.06512], [-98.28779, 21.06498], [-98.28805, 21.0646], [-98.28784, 21.06391], [-98.28855, 21.06352], [-98.28924, 21.06283], [-98.28944, 21.06411], [-98.29001, 21.0654], [-98.2897, 21.06568], [-98.28767, 21.06539], [-98.2874, 21.06512]]]}}, {"id": "836648", "type": "Feature", "properties": {"id": "836648", "CVEGEO": "1302500640011022", "POBTOT": 0.0, "score_nse": 0.0, "NSE": null, "VIVTOT": 0.0, "GRAPROES": 0.0, "_ent": "13", "_mun": "025", "_loc": "0064"}, "geometry": {"type": "Polygon", "coordinates": [[[-98.2886, 21.05907], [-98.28838, 21.05849], [-98.28888, 21.05832], [-98.28912, 21.05912], [-98.2886, 21.05907]]]}}, {"id": "836649", "type": "Feature", "properties": {"id": "836649", "CVEGEO": "1302500640011007", "POBTOT": 0.0, "score_nse": 0.0, "NSE": null, "VIVTOT": 0.0, "GRAPROES": 0.0, "_ent": "13", "_mun": "025", "_loc": "0064"}, "geometry": {"type": "Polygon", "coordinates": [[[-98.28713, 21.06359], [-98.28743, 21.06286], [-98.28776, 21.06304], [-98.28732, 21.06354], [-98.28713, 21.06359]]]}}, {"id": "836650", "type": "Feature", "properties": {"id": "836650", "CVEGEO": "1302500640011006", "POBTOT": 0.0, "score_nse": 0.0, "NSE": null, "VIVTOT": 0.0, "GRAPROES": 0.0, "_ent": "13", "_mun": "025", "_loc": "0064"}, "geometry": {"type": "Polygon", "coordinates": [[[-98.28748, 21.06405], [-98.28688, 21.0639], [-98.2878, 21.06307], [-98.28746, 21.06284], [-98.28759, 21.0623], [-98.28818, 21.06268], [-98.28811, 21.06306], [-98.28824, 21.06274], [-98.28855, 21.06265], [-98.28917, 21.06282], [-98.28846, 21.06351], [-98.28748, 21.06405]]]}}, {"id": "836651", "type": "Feature", "properties": {"id": "836651", "CVEGEO": "1302500640011001", "POBTOT": 0.0, "score_nse": 0.0, "NSE": null, "VIVTOT": 0.0, "GRAPROES": 0.0, "_ent": "13", "_mun": "025", "_loc": "0064"}, "geometry": {"type": "Polygon", "coordinates": [[[-98.28928, 21.06195], [-98.28921, 21.06277], [-98.2888, 21.06258], [-98.28822, 21.06264], [-98.28742, 21.06207], [-98.28809, 21.06127], [-98.28837, 21.0612], [-98.28884, 21.06118], [-98.28928, 21.06195]]]}}, {"id": "836652", "type": "Feature", "properties": {"id": "836652", "CVEGEO": "1302500640011017", "POBTOT": 0.0, "score_nse": 0.0, "NSE": null, "VIVTOT": 0.0, "GRAPROES": 0.0, "_ent": "13", "_mun": "025", "_loc": "0064"}, "geometry": {"type": "Polygon", "coordinates": [[[-98.28782, 21.06406], [-98.28794, 21.0647], [-98.28738, 21.0651], [-98.28684, 21.06401], [-98.28761, 21.06416], [-98.28782, 21.06406]]]}}, {"id": "836806", "type": "Feature", "properties": {"id": "836806", "CVEGEO": "1302500640011003", "POBTOT": 0.0, "score_nse": 0.0, "NSE": null, "VIVTOT": 0.0, "GRAPROES": 0.0, "_ent": "13", "_mun": "025", "_loc": "0064"}, "geometry": {"type": "Polygon", "coordinates": [[[-98.2882, 21.06116], [-98.28831, 21.06057], [-98.2884, 21.06051], [-98.2888, 21.06112], [-98.2882, 21.06116]]]}}, {"id": "836807", "type": "Feature", "properties": {"id": "836807", "CVEGEO": "1302500640011002", "POBTOT": 0.0, "score_nse": 0.0, "NSE": null, "VIVTOT": 0.0, "GRAPROES": 0.0, "_ent": "13", "_mun": "025", "_loc": "0064"}, "geometry": {"type": "Polygon", "coordinates": [[[-98.2874, 21.06199], [-98.28722, 21.06147], [-98.28794, 21.06143], [-98.28767, 21.06183], [-98.2874, 21.06199]]]}}]}