{"type": "FeatureCollection", "features": [{"id": "1536755", "type": "Feature", "properties": {"id": "1536755", "CVEGEO": "2017700170085006", "POBTOT": 0.0, "score_nse": 0.0, "NSE": null, "VIVTOT": 0.0, "GRAPROES": 0.0, "_ent": "20", "_mun": "177", "_loc": "0017"}, "geometry": {"type": "Polygon", "coordinates": [[[-97.02519, 17.52271], [-97.026, 17.52313], [-97.0259, 17.52428], [-97.02504, 17.52319], [-97.02519, 17.52271]]]}}, {"id": "1536873", "type": "Feature", "properties": {"id": "1536873", "CVEGEO": "2017700170085004", "POBTOT": 0.0, "score_nse": 0.0, "NSE": null, "VIVTOT": 0.0, "GRAPROES": 0.0, "_ent": "20", "_mun": "177", "_loc": "0017"}, "geometry": {"type": "Polygon", "coordinates": [[[-97.02587, 17.52434], [-97.0256, 17.52506], [-97.02495, 17.52517], [-97.02393, 17.52575], [-97.02253, 17.52608], [-97.02124, 17.52667], [-97.02127, 17.52611], [-97.02173, 17.52568], [-97.02431, 17.5242], [-97.0248, 17.52376], [-97.02503, 17.52326], [-97.02587, 17.52434]]]}}, {"id": "1536877", "type": "Feature", "properties": {"id": "1536877", "CVEGEO": "2017700170085003", "POBTOT": 0.0, "score_nse": 0.0, "NSE": null, "VIVTOT": 0.0, "GRAPROES": 0.0, "_ent": "20", "_mun": "177", "_loc": "0017"}, "geometry": {"type": "Polygon", "coordinates": [[[-97.02508, 17.52254], [-97.02466, 17.52267], [-97.02453, 17.52236], [-97.02409, 17.52223], [-97.02453, 17.52226], [-97.02508, 17.52254]]]}}, {"id": "1536878", "type": "Feature", "properties": {"id": "1536878", "CVEGEO": "2017700170085005", "POBTOT": 0.0, "score_nse": 0.0, "NSE": null, "VIVTOT": 0.0, "GRAPROES": 0.0, "_ent": "20", "_mun": "177", "_loc": "0017"}, "geometry": {"type": "Polygon", "coordinates": [[[-97.02529, 17.52249], [-97.0254, 17.52168], [-97.02555, 17.52141], [-97.02583, 17.52194], [-97.0258, 17.52268], [-97.02529, 17.52249]]]}}, {"id": "1536879", "type": "Feature", "properties": {"id": "1536879", "CVEGEO": "2017700170085002", "POBTOT": 0.0, "score_nse": 0.0, "NSE": null, "VIVTOT": 0.0, "GRAPROES": 0.0, "_ent": "20", "_mun": "177", "_loc": "0017"}, "geometry": {"type": "Polygon", "coordinates": [[[-97.02552, 17.52136], [-97.02531, 17.52189], [-97.02395, 17.52171], [-97.02531, 17.52194], [-97.02526, 17.52241], [-97.02431, 17.52206], [-97.02263, 17.52175], [-97.02208, 17.52128], [-97.02189, 17.52091], [-97.02233, 17.52134], [-97.02286, 17.52152], [-97.02326, 17.52138], [-97.02355, 17.52101], [-97.02442, 17.52078], [-97.02481, 17.52113], [-97.02552, 17.52136]]]}}, {"id": "1536896", "type": "Feature", "properties": {"id": "1536896", "CVEGEO": "2017700170085001", "POBTOT": 0.0, "score_nse": 0.0, "NSE": null, "VIVTOT": 0.0, "GRAPROES": 0.0, "_ent": "20", "_mun": "177", "_loc": "0017"}, "geometry": {"type": "Polygon", "coordinates": [[[-97.02514, 17.52262], [-97.02499, 17.52315], [-97.02474, 17.52309], [-97.02498, 17.52318], [-97.02484, 17.52356], [-97.02426, 17.52337], [-97.02482, 17.52361], [-97.02452, 17.52396], [-97.02368, 17.52431], [-97.02336, 17.52411], [-97.02362, 17.52406], [-97.02337, 17.52381], [-97.02361, 17.52376], [-97.02424, 17.52266], [-97.02361, 17.52224], [-97.02438, 17.52234], [-97.02463, 17.52271], [-97.02514, 17.52262]]]}}]}