{"type": "FeatureCollection", "features": [{"id": "1639135", "type": "Feature", "properties": {"id": "1639135", "CVEGEO": "2101000050047009", "POBTOT": 0.0, "score_nse": 0.0, "NSE": null, "VIVTOT": 0.0, "GRAPROES": 0.0, "_ent": "21", "_mun": "010", "_loc": "0005"}, "geometry": {"type": "Polygon", "coordinates": [[[-97.26642, 18.41167], [-97.26675, 18.41093], [-97.26694, 18.41112], [-97.26642, 18.41167]]]}}, {"id": "1639136", "type": "Feature", "properties": {"id": "1639136", "CVEGEO": "2101000050047007", "POBTOT": 0.0, "score_nse": 0.0, "NSE": null, "VIVTOT": 0.0, "GRAPROES": 0.0, "_ent": "21", "_mun": "010", "_loc": "0005"}, "geometry": {"type": "Polygon", "coordinates": [[[-97.26705, 18.41253], [-97.26634, 18.41189], [-97.267, 18.41118], [-97.26775, 18.41184], [-97.26705, 18.41253]]]}}, {"id": "1639137", "type": "Feature", "properties": {"id": "1639137", "CVEGEO": "2101000050047006", "POBTOT": 0.0, "score_nse": 0.0, "NSE": null, "VIVTOT": 0.0, "GRAPROES": 0.0, "_ent": "21", "_mun": "010", "_loc": "0005"}, "geometry": {"type": "Polygon", "coordinates": [[[-97.26925, 18.41504], [-97.26826, 18.415], [-97.26786, 18.4147], [-97.26937, 18.41332], [-97.27011, 18.41398], [-97.26984, 18.41427], [-97.27016, 18.41402], [-97.2708, 18.41473], [-97.27009, 18.41554], [-97.26925, 18.41504]]]}}, {"id": "1639154", "type": "Feature", "properties": {"id": "1639154", "CVEGEO": "2101000050047001", "POBTOT": 0.0, "score_nse": 0.0, "NSE": null, "VIVTOT": 0.0, "GRAPROES": 0.0, "_ent": "21", "_mun": "010", "_loc": "0005"}, "geometry": {"type": "Polygon", "coordinates": [[[-97.26859, 18.41393], [-97.26791, 18.41331], [-97.26859, 18.41259], [-97.26931, 18.41327], [-97.26859, 18.41393]]]}}, {"id": "1639161", "type": "Feature", "properties": {"id": "1639161", "CVEGEO": "2101000050047004", "POBTOT": 0.0, "score_nse": 0.0, "NSE": null, "VIVTOT": 0.0, "GRAPROES": 0.0, "_ent": "21", "_mun": "010", "_loc": "0005"}, "geometry": {"type": "Polygon", "coordinates": [[[-97.26937, 18.41321], [-97.26865, 18.41253], [-97.26932, 18.41185], [-97.27011, 18.41255], [-97.26937, 18.41321]]]}}, {"id": "1639162", "type": "Feature", "properties": {"id": "1639162", "CVEGEO": "2101000050047005", "POBTOT": 0.0, "score_nse": 0.0, "NSE": null, "VIVTOT": 0.0, "GRAPROES": 0.0, "_ent": "21", "_mun": "010", "_loc": "0005"}, "geometry": {"type": "Polygon", "coordinates": [[[-97.27016, 18.41393], [-97.26943, 18.41326], [-97.27016, 18.4126], [-97.27092, 18.41333], [-97.27016, 18.41393]]]}}, {"id": "1639172", "type": "Feature", "properties": {"id": "1639172", "CVEGEO": "2101000050047002", "POBTOT": 0.0, "score_nse": 0.0, "NSE": null, "VIVTOT": 0.0, "GRAPROES": 0.0, "_ent": "21", "_mun": "010", "_loc": "0005"}, "geometry": {"type": "Polygon", "coordinates": [[[-97.26785, 18.41325], [-97.26711, 18.41258], [-97.2678, 18.4119], [-97.26854, 18.41254], [-97.26785, 18.41325]]]}}, {"id": "1639194", "type": "Feature", "properties": {"id": "1639194", "CVEGEO": "2101000050047013", "POBTOT": 0.0, "score_nse": 0.0, "NSE": null, "VIVTOT": 0.0, "GRAPROES": 0.0, "_ent": "21", "_mun": "010", "_loc": "0005"}, "geometry": {"type": "Polygon", "coordinates": [[[-97.27096, 18.41337], [-97.2716, 18.41401], [-97.2709, 18.41467], [-97.27022, 18.41397], [-97.27096, 18.41337]]]}}, {"id": "1639195", "type": "Feature", "properties": {"id": "1639195", "CVEGEO": "2101000050047012", "POBTOT": 0.0, "score_nse": 0.0, "NSE": null, "VIVTOT": 0.0, "GRAPROES": 0.0, "_ent": "21", "_mun": "010", "_loc": "0005"}, "geometry": {"type": "Polygon", "coordinates": [[[-97.2663, 18.41195], [-97.267, 18.41259], [-97.26662, 18.41299], [-97.26602, 18.41261], [-97.2663, 18.41195]]]}}, {"id": "1639196", "type": "Feature", "properties": {"id": "1639196", "CVEGEO": "2101000050047010", "POBTOT": 0.0, "score_nse": 0.0, "NSE": null, "VIVTOT": 0.0, "GRAPROES": 0.0, "_ent": "21", "_mun": "010", "_loc": "0005"}, "geometry": {"type": "Polygon", "coordinates": [[[-97.26699, 18.41106], [-97.26678, 18.41086], [-97.26721, 18.40996], [-97.2677, 18.41041], [-97.26699, 18.41106]]]}}, {"id": "1639197", "type": "Feature", "properties": {"id": "1639197", "CVEGEO": "2101000050047008", "POBTOT": 0.0, "score_nse": 0.0, "NSE": null, "VIVTOT": 0.0, "GRAPROES": 0.0, "_ent": "21", "_mun": "010", "_loc": "0005"}, "geometry": {"type": "Polygon", "coordinates": [[[-97.2678, 18.41178], [-97.26706, 18.41114], [-97.26777, 18.41047], [-97.26847, 18.4111], [-97.2678, 18.41178]]]}}, {"id": "1639205", "type": "Feature", "properties": {"id": "1639205", "CVEGEO": "2101000050047014", "POBTOT": 0.0, "score_nse": 0.0, "NSE": null, "VIVTOT": 0.0, "GRAPROES": 0.0, "_ent": "21", "_mun": "010", "_loc": "0005"}, "geometry": {"type": "Polygon", "coordinates": [[[-97.26781, 18.41465], [-97.26719, 18.414], [-97.26785, 18.41335], [-97.26853, 18.41398], [-97.26781, 18.41465]]]}}, {"id": "1639215", "type": "Feature", "properties": {"id": "1639215", "CVEGEO": "2101000050047011", "POBTOT": 0.0, "score_nse": 0.0, "NSE": null, "VIVTOT": 0.0, "GRAPROES": 0.0, "_ent": "21", "_mun": "010", "_loc": "0005"}, "geometry": {"type": "Polygon", "coordinates": [[[-97.26725, 18.40989], [-97.26743, 18.40957], [-97.26774, 18.41032], [-97.26725, 18.40989]]]}}, {"id": "1639216", "type": "Feature", "properties": {"id": "1639216", "CVEGEO": "2101000050047003", "POBTOT": 0.0, "score_nse": 0.0, "NSE": null, "VIVTOT": 0.0, "GRAPROES": 0.0, "_ent": "21", "_mun": "010", "_loc": "0005"}, "geometry": {"type": "Polygon", "coordinates": [[[-97.2686, 18.41249], [-97.26787, 18.41182], [-97.26855, 18.41115], [-97.26927, 18.4118], [-97.2686, 18.41249]]]}}, {"id": "1639227", "type": "Feature", "properties": {"id": "1639227", "CVEGEO": "2101000050047015", "POBTOT": 0.0, "score_nse": 0.0, "NSE": null, "VIVTOT": 0.0, "GRAPROES": 0.0, "_ent": "21", "_mun": "010", "_loc": "0005"}, "geometry": {"type": "Polygon", "coordinates": [[[-97.26715, 18.41393], [-97.26652, 18.41337], [-97.26652, 18.4132], [-97.26706, 18.41264], [-97.26779, 18.4133], [-97.26715, 18.41393]]]}}, {"id": "1639288", "type": "Feature", "properties": {"id": "1639288", "CVEGEO": "2101000050047019", "POBTOT": 0.0, "score_nse": 0.0, "NSE": null, "VIVTOT": 0.0, "GRAPROES": 0.0, "_ent": "21", "_mun": "010", "_loc": "0005"}, "geometry": {"type": "Polygon", "coordinates": [[[-97.26575, 18.40857], [-97.26662, 18.40764], [-97.26717, 18.40893], [-97.26665, 18.4094], [-97.26575, 18.40857]]]}}, {"id": "1639289", "type": "Feature", "properties": {"id": "1639289", "CVEGEO": "2101000050047020", "POBTOT": 0.0, "score_nse": 0.0, "NSE": null, "VIVTOT": 0.0, "GRAPROES": 0.0, "_ent": "21", "_mun": "010", "_loc": "0005"}, "geometry": {"type": "Polygon", "coordinates": [[[-97.26524, 18.40815], [-97.26627, 18.40702], [-97.26658, 18.40759], [-97.2657, 18.40853], [-97.26524, 18.40815]]]}}, {"id": "1639290", "type": "Feature", "properties": {"id": "1639290", "CVEGEO": "2101000050047016", "POBTOT": 0.0, "score_nse": 0.0, "NSE": null, "VIVTOT": 0.0, "GRAPROES": 0.0, "_ent": "21", "_mun": "010", "_loc": "0005"}, "geometry": {"type": "Polygon", "coordinates": [[[-97.2651, 18.41108], [-97.26666, 18.40949], [-97.26716, 18.40996], [-97.26675, 18.41086], [-97.2651, 18.41108]]]}}, {"id": "1639291", "type": "Feature", "properties": {"id": "1639291", "CVEGEO": "2101000050047017", "POBTOT": 0.0, "score_nse": 0.0, "NSE": null, "VIVTOT": 0.0, "GRAPROES": 0.0, "_ent": "21", "_mun": "010", "_loc": "0005"}, "geometry": {"type": "Polygon", "coordinates": [[[-97.26716, 18.409], [-97.2674, 18.40949], [-97.26719, 18.40989], [-97.26671, 18.40943], [-97.26716, 18.409]]]}}, {"id": "1639292", "type": "Feature", "properties": {"id": "1639292", "CVEGEO": "2101000050047018", "POBTOT": 0.0, "score_nse": 0.0, "NSE": null, "VIVTOT": 0.0, "GRAPROES": 0.0, "_ent": "21", "_mun": "010", "_loc": "0005"}, "geometry": {"type": "Polygon", "coordinates": [[[-97.26425, 18.409], [-97.26521, 18.40821], [-97.2666, 18.40944], [-97.26493, 18.41106], [-97.2648, 18.41096], [-97.26463, 18.40958], [-97.26425, 18.409]]]}}]}