{"type": "FeatureCollection", "features": [{"id": "2377128", "type": "Feature", "properties": {"id": "2377128", "CVEGEO": "3016900510068008", "POBTOT": 0.0, "score_nse": 0.0, "NSE": null, "VIVTOT": 0.0, "GRAPROES": 0.0, "_ent": "30", "_mun": "169", "_loc": "0051"}, "geometry": {"type": "Polygon", "coordinates": [[[-95.71579, 18.11637], [-95.71626, 18.11638], [-95.71621, 18.11674], [-95.71631, 18.11638], [-95.71709, 18.11643], [-95.71697, 18.11706], [-95.7159, 18.1169], [-95.71579, 18.11637]]]}}, {"id": "2377129", "type": "Feature", "properties": {"id": "2377129", "CVEGEO": "3016900510068007", "POBTOT": 0.0, "score_nse": 0.0, "NSE": null, "VIVTOT": 0.0, "GRAPROES": 0.0, "_ent": "30", "_mun": "169", "_loc": "0051"}, "geometry": {"type": "Polygon", "coordinates": [[[-95.71654, 18.11507], [-95.71717, 18.11519], [-95.71705, 18.11634], [-95.71634, 18.11629], [-95.71654, 18.11507]]]}}, {"id": "2377386", "type": "Feature", "properties": {"id": "2377386", "CVEGEO": "3016900510068005", "POBTOT": 0.0, "score_nse": 0.0, "NSE": null, "VIVTOT": 0.0, "GRAPROES": 0.0, "_ent": "30", "_mun": "169", "_loc": "0051"}, "geometry": {"type": "Polygon", "coordinates": [[[-95.71575, 18.11637], [-95.71587, 18.11688], [-95.7139, 18.1166], [-95.71399, 18.11636], [-95.71575, 18.11637]]]}}, {"id": "2377387", "type": "Feature", "properties": {"id": "2377387", "CVEGEO": "3016900510068004", "POBTOT": 0.0, "score_nse": 0.0, "NSE": null, "VIVTOT": 0.0, "GRAPROES": 0.0, "_ent": "30", "_mun": "169", "_loc": "0051"}, "geometry": {"type": "Polygon", "coordinates": [[[-95.71543, 18.11626], [-95.71584, 18.11496], [-95.71648, 18.11506], [-95.71629, 18.11615], [-95.71602, 18.11616], [-95.71626, 18.11628], [-95.71543, 18.11626]]]}}, {"id": "2377388", "type": "Feature", "properties": {"id": "2377388", "CVEGEO": "3016900510068001", "POBTOT": 0.0, "score_nse": 0.0, "NSE": null, "VIVTOT": 0.0, "GRAPROES": 0.0, "_ent": "30", "_mun": "169", "_loc": "0051"}, "geometry": {"type": "Polygon", "coordinates": [[[-95.71423, 18.1158], [-95.71488, 18.11586], [-95.71492, 18.11574], [-95.71433, 18.1157], [-95.71452, 18.11519], [-95.71503, 18.11527], [-95.71506, 18.1152], [-95.71453, 18.11515], [-95.71459, 18.11498], [-95.71579, 18.11496], [-95.71533, 18.11626], [-95.71405, 18.11624], [-95.71423, 18.1158]]]}}, {"id": "2377466", "type": "Feature", "properties": {"id": "2377466", "CVEGEO": "3016900510068003", "POBTOT": 0.0, "score_nse": 0.0, "NSE": null, "VIVTOT": 0.0, "GRAPROES": 0.0, "_ent": "30", "_mun": "169", "_loc": "0051"}, "geometry": {"type": "Polygon", "coordinates": [[[-95.71417, 18.11467], [-95.71446, 18.11472], [-95.714, 18.11595], [-95.71348, 18.11564], [-95.71417, 18.11467]]]}}, {"id": "2377467", "type": "Feature", "properties": {"id": "2377467", "CVEGEO": "3016900510068002", "POBTOT": 0.0, "score_nse": 0.0, "NSE": null, "VIVTOT": 0.0, "GRAPROES": 0.0, "_ent": "30", "_mun": "169", "_loc": "0051"}, "geometry": {"type": "Polygon", "coordinates": [[[-95.71251, 18.11624], [-95.71167, 18.11591], [-95.71236, 18.11564], [-95.71318, 18.11559], [-95.71399, 18.11598], [-95.71383, 18.11637], [-95.71251, 18.11624]]]}}, {"id": "2377610", "type": "Feature", "properties": {"id": "2377610", "CVEGEO": "3016900510068006", "POBTOT": 0.0, "score_nse": 0.0, "NSE": null, "VIVTOT": 0.0, "GRAPROES": 0.0, "_ent": "30", "_mun": "169", "_loc": "0051"}, "geometry": {"type": "Polygon", "coordinates": [[[-95.7131, 18.11638], [-95.71379, 18.11651], [-95.71357, 18.11721], [-95.71303, 18.11709], [-95.7131, 18.11638]]]}}]}