{"type": "FeatureCollection", "features": [{"id": "2265627", "type": "Feature", "properties": {"id": "2265627", "CVEGEO": "3004000200030009", "POBTOT": 0.0, "score_nse": 0.0, "NSE": null, "VIVTOT": 0.0, "GRAPROES": 0.0, "_ent": "30", "_mun": "040", "_loc": "0020"}, "geometry": {"type": "Polygon", "coordinates": [[[-97.53929, 20.44482], [-97.53801, 20.44467], [-97.53907, 20.44318], [-97.53956, 20.44319], [-97.53929, 20.44482]]]}}, {"id": "2265628", "type": "Feature", "properties": {"id": "2265628", "CVEGEO": "3004000200030008", "POBTOT": 0.0, "score_nse": 0.0, "NSE": null, "VIVTOT": 0.0, "GRAPROES": 0.0, "_ent": "30", "_mun": "040", "_loc": "0020"}, "geometry": {"type": "Polygon", "coordinates": [[[-97.54052, 20.44409], [-97.54151, 20.44413], [-97.54132, 20.445], [-97.54039, 20.4449], [-97.54052, 20.44409]]]}}, {"id": "2265732", "type": "Feature", "properties": {"id": "2265732", "CVEGEO": "3004000200030010", "POBTOT": 0.0, "score_nse": 0.0, "NSE": null, "VIVTOT": 0.0, "GRAPROES": 0.0, "_ent": "30", "_mun": "040", "_loc": "0020"}, "geometry": {"type": "Polygon", "coordinates": [[[-97.53927, 20.44201], [-97.53805, 20.44175], [-97.53809, 20.44152], [-97.53984, 20.44175], [-97.53958, 20.44306], [-97.53935, 20.44306], [-97.53927, 20.44201]]]}}, {"id": "2265784", "type": "Feature", "properties": {"id": "2265784", "CVEGEO": "3004000200030003", "POBTOT": 0.0, "score_nse": 0.0, "NSE": null, "VIVTOT": 0.0, "GRAPROES": 0.0, "_ent": "30", "_mun": "040", "_loc": "0020"}, "geometry": {"type": "Polygon", "coordinates": [[[-97.53961, 20.44306], [-97.53983, 20.44216], [-97.54072, 20.44259], [-97.54063, 20.44311], [-97.53961, 20.44306]]]}}, {"id": "2265886", "type": "Feature", "properties": {"id": "2265886", "CVEGEO": "3004000200030017", "POBTOT": 0.0, "score_nse": 0.0, "NSE": null, "VIVTOT": 0.0, "GRAPROES": 0.0, "_ent": "30", "_mun": "040", "_loc": "0020"}, "geometry": {"type": "Polygon", "coordinates": [[[-97.53896, 20.44318], [-97.53806, 20.44449], [-97.53696, 20.44435], [-97.5369, 20.44424], [-97.5372, 20.4438], [-97.53716, 20.44138], [-97.53788, 20.44178], [-97.53925, 20.44204], [-97.53933, 20.44305], [-97.53896, 20.44318]]]}}, {"id": "2265887", "type": "Feature", "properties": {"id": "2265887", "CVEGEO": "3004000200030016", "POBTOT": 0.0, "score_nse": 0.0, "NSE": null, "VIVTOT": 0.0, "GRAPROES": 0.0, "_ent": "30", "_mun": "040", "_loc": "0020"}, "geometry": {"type": "Polygon", "coordinates": [[[-97.54202, 20.44163], [-97.54205, 20.44137], [-97.54309, 20.44142], [-97.54304, 20.4417], [-97.54202, 20.44163]]]}}, {"id": "2265888", "type": "Feature", "properties": {"id": "2265888", "CVEGEO": "3004000200030015", "POBTOT": 0.0, "score_nse": 0.0, "NSE": null, "VIVTOT": 0.0, "GRAPROES": 0.0, "_ent": "30", "_mun": "040", "_loc": "0020"}, "geometry": {"type": "Polygon", "coordinates": [[[-97.54097, 20.4416], [-97.541, 20.44129], [-97.54199, 20.44136], [-97.54197, 20.44165], [-97.54097, 20.4416]]]}}, {"id": "2265889", "type": "Feature", "properties": {"id": "2265889", "CVEGEO": "3004000200030014", "POBTOT": 0.0, "score_nse": 0.0, "NSE": null, "VIVTOT": 0.0, "GRAPROES": 0.0, "_ent": "30", "_mun": "040", "_loc": "0020"}, "geometry": {"type": "Polygon", "coordinates": [[[-97.54043, 20.44156], [-97.54046, 20.44128], [-97.54094, 20.4413], [-97.5409, 20.44157], [-97.54043, 20.44156]]]}}, {"id": "2265890", "type": "Feature", "properties": {"id": "2265890", "CVEGEO": "3004000200030013", "POBTOT": 0.0, "score_nse": 0.0, "NSE": null, "VIVTOT": 0.0, "GRAPROES": 0.0, "_ent": "30", "_mun": "040", "_loc": "0020"}, "geometry": {"type": "Polygon", "coordinates": [[[-97.54182, 20.44266], [-97.54203, 20.4417], [-97.54304, 20.44176], [-97.54284, 20.4426], [-97.54243, 20.44252], [-97.54182, 20.44266]]]}}, {"id": "2265891", "type": "Feature", "properties": {"id": "2265891", "CVEGEO": "3004000200030012", "POBTOT": 0.0, "score_nse": 0.0, "NSE": null, "VIVTOT": 0.0, "GRAPROES": 0.0, "_ent": "30", "_mun": "040", "_loc": "0020"}, "geometry": {"type": "Polygon", "coordinates": [[[-97.54078, 20.44256], [-97.54095, 20.44165], [-97.54197, 20.44169], [-97.54175, 20.44279], [-97.54078, 20.44256]]]}}, {"id": "2265892", "type": "Feature", "properties": {"id": "2265892", "CVEGEO": "3004000200030007", "POBTOT": 0.0, "score_nse": 0.0, "NSE": null, "VIVTOT": 0.0, "GRAPROES": 0.0, "_ent": "30", "_mun": "040", "_loc": "0020"}, "geometry": {"type": "Polygon", "coordinates": [[[-97.54232, 20.44511], [-97.54144, 20.44503], [-97.54159, 20.4441], [-97.54256, 20.44418], [-97.54232, 20.44511]]]}}, {"id": "2265893", "type": "Feature", "properties": {"id": "2265893", "CVEGEO": "3004000200030006", "POBTOT": 0.0, "score_nse": 0.0, "NSE": null, "VIVTOT": 0.0, "GRAPROES": 0.0, "_ent": "30", "_mun": "040", "_loc": "0020"}, "geometry": {"type": "Polygon", "coordinates": [[[-97.5416, 20.44406], [-97.54172, 20.44329], [-97.54275, 20.44336], [-97.54258, 20.44413], [-97.5416, 20.44406]]]}}, {"id": "2265894", "type": "Feature", "properties": {"id": "2265894", "CVEGEO": "3004000200030005", "POBTOT": 0.0, "score_nse": 0.0, "NSE": null, "VIVTOT": 0.0, "GRAPROES": 0.0, "_ent": "30", "_mun": "040", "_loc": "0020"}, "geometry": {"type": "Polygon", "coordinates": [[[-97.54272, 20.44328], [-97.54171, 20.44318], [-97.54182, 20.44268], [-97.54244, 20.44254], [-97.54285, 20.44262], [-97.54272, 20.44328]]]}}, {"id": "2265895", "type": "Feature", "properties": {"id": "2265895", "CVEGEO": "3004000200030004", "POBTOT": 0.0, "score_nse": 0.0, "NSE": null, "VIVTOT": 0.0, "GRAPROES": 0.0, "_ent": "30", "_mun": "040", "_loc": "0020"}, "geometry": {"type": "Polygon", "coordinates": [[[-97.54071, 20.44312], [-97.54081, 20.44257], [-97.54175, 20.44281], [-97.54167, 20.44319], [-97.54071, 20.44312]]]}}, {"id": "2265896", "type": "Feature", "properties": {"id": "2265896", "CVEGEO": "3004000200030002", "POBTOT": 0.0, "score_nse": 0.0, "NSE": null, "VIVTOT": 0.0, "GRAPROES": 0.0, "_ent": "30", "_mun": "040", "_loc": "0020"}, "geometry": {"type": "Polygon", "coordinates": [[[-97.53962, 20.4432], [-97.54059, 20.44323], [-97.54027, 20.44491], [-97.53935, 20.44482], [-97.53962, 20.4432]]]}}, {"id": "2265897", "type": "Feature", "properties": {"id": "2265897", "CVEGEO": "3004000200030001", "POBTOT": 0.0, "score_nse": 0.0, "NSE": null, "VIVTOT": 0.0, "GRAPROES": 0.0, "_ent": "30", "_mun": "040", "_loc": "0020"}, "geometry": {"type": "Polygon", "coordinates": [[[-97.54055, 20.444], [-97.5407, 20.4432], [-97.54168, 20.44328], [-97.54153, 20.44406], [-97.54055, 20.444]]]}}, {"id": "2266024", "type": "Feature", "properties": {"id": "2266024", "CVEGEO": "3004000200030011", "POBTOT": 0.0, "score_nse": 0.0, "NSE": null, "VIVTOT": 0.0, "GRAPROES": 0.0, "_ent": "30", "_mun": "040", "_loc": "0020"}, "geometry": {"type": "Polygon", "coordinates": [[[-97.54088, 20.44165], [-97.54071, 20.44257], [-97.54003, 20.44213], [-97.53982, 20.44214], [-97.53991, 20.4416], [-97.54088, 20.44165]]]}}]}