{"type": "FeatureCollection", "features": [{"id": "1434304", "type": "Feature", "properties": {"id": "1434304", "CVEGEO": "190160036019A009", "POBTOT": 0.0, "score_nse": 0.0, "NSE": null, "VIVTOT": 0.0, "GRAPROES": 0.0, "_ent": "19", "_mun": "016", "_loc": "0036"}, "geometry": {"type": "Polygon", "coordinates": [[[-99.83257, 25.74176], [-99.83249, 25.74165], [-99.83273, 25.74093], [-99.83379, 25.74067], [-99.83353, 25.74177], [-99.83257, 25.74176]]]}}, {"id": "1434305", "type": "Feature", "properties": {"id": "1434305", "CVEGEO": "190160036019A008", "POBTOT": 0.0, "score_nse": 0.0, "NSE": null, "VIVTOT": 0.0, "GRAPROES": 0.0, "_ent": "19", "_mun": "016", "_loc": "0036"}, "geometry": {"type": "Polygon", "coordinates": [[[-99.83362, 25.7418], [-99.83386, 25.74068], [-99.83511, 25.74091], [-99.83529, 25.74161], [-99.83362, 25.7418]]]}}, {"id": "1434306", "type": "Feature", "properties": {"id": "1434306", "CVEGEO": "190160036019A006", "POBTOT": 0.0, "score_nse": 0.0, "NSE": null, "VIVTOT": 0.0, "GRAPROES": 0.0, "_ent": "19", "_mun": "016", "_loc": "0036"}, "geometry": {"type": "Polygon", "coordinates": [[[-99.8266, 25.7429], [-99.82615, 25.74198], [-99.82654, 25.74154], [-99.82769, 25.74082], [-99.82858, 25.74148], [-99.82859, 25.7416], [-99.8266, 25.7429]]]}}, {"id": "1434307", "type": "Feature", "properties": {"id": "1434307", "CVEGEO": "190160036019A005", "POBTOT": 0.0, "score_nse": 0.0, "NSE": null, "VIVTOT": 0.0, "GRAPROES": 0.0, "_ent": "19", "_mun": "016", "_loc": "0036"}, "geometry": {"type": "Polygon", "coordinates": [[[-99.83014, 25.74055], [-99.8313, 25.74091], [-99.83256, 25.74096], [-99.8322, 25.74223], [-99.83236, 25.74391], [-99.8305, 25.74217], [-99.82974, 25.74116], [-99.83014, 25.74055]]]}}, {"id": "1434308", "type": "Feature", "properties": {"id": "1434308", "CVEGEO": "190160036019A004", "POBTOT": 0.0, "score_nse": 0.0, "NSE": null, "VIVTOT": 0.0, "GRAPROES": 0.0, "_ent": "19", "_mun": "016", "_loc": "0036"}, "geometry": {"type": "Polygon", "coordinates": [[[-99.82634, 25.74491], [-99.82551, 25.74381], [-99.8266, 25.74297], [-99.82723, 25.74415], [-99.82634, 25.74491]]]}}, {"id": "1434309", "type": "Feature", "properties": {"id": "1434309", "CVEGEO": "190160036019A003", "POBTOT": 0.0, "score_nse": 0.0, "NSE": null, "VIVTOT": 0.0, "GRAPROES": 0.0, "_ent": "19", "_mun": "016", "_loc": "0036"}, "geometry": {"type": "Polygon", "coordinates": [[[-99.83347, 25.74665], [-99.82814, 25.74618], [-99.82812, 25.74545], [-99.82667, 25.74292], [-99.82858, 25.74168], [-99.82969, 25.7412], [-99.83043, 25.74222], [-99.83233, 25.74395], [-99.83347, 25.74665]]]}}, {"id": "1434355", "type": "Feature", "properties": {"id": "1434355", "CVEGEO": "190160036019A011", "POBTOT": 0.0, "score_nse": 0.0, "NSE": null, "VIVTOT": 0.0, "GRAPROES": 0.0, "_ent": "19", "_mun": "016", "_loc": "0036"}, "geometry": {"type": "Polygon", "coordinates": [[[-99.83379, 25.74062], [-99.83276, 25.74078], [-99.83277, 25.74027], [-99.83213, 25.73933], [-99.83367, 25.73922], [-99.83387, 25.7397], [-99.83379, 25.74062]]]}}, {"id": "1434356", "type": "Feature", "properties": {"id": "1434356", "CVEGEO": "190160036019A010", "POBTOT": 0.0, "score_nse": 0.0, "NSE": null, "VIVTOT": 0.0, "GRAPROES": 0.0, "_ent": "19", "_mun": "016", "_loc": "0036"}, "geometry": {"type": "Polygon", "coordinates": [[[-99.83392, 25.73973], [-99.83372, 25.73907], [-99.83447, 25.73875], [-99.83508, 25.74078], [-99.83384, 25.74062], [-99.83392, 25.73973]]]}}, {"id": "1434357", "type": "Feature", "properties": {"id": "1434357", "CVEGEO": "190160036019A002", "POBTOT": 0.0, "score_nse": 0.0, "NSE": null, "VIVTOT": 0.0, "GRAPROES": 0.0, "_ent": "19", "_mun": "016", "_loc": "0036"}, "geometry": {"type": "Polygon", "coordinates": [[[-99.83372, 25.74685], [-99.83278, 25.74487], [-99.83251, 25.7441], [-99.83317, 25.74438], [-99.83343, 25.74474], [-99.83372, 25.74685]]]}}, {"id": "1434358", "type": "Feature", "properties": {"id": "1434358", "CVEGEO": "190160036019A001", "POBTOT": 0.0, "score_nse": 0.0, "NSE": null, "VIVTOT": 0.0, "GRAPROES": 0.0, "_ent": "19", "_mun": "016", "_loc": "0036"}, "geometry": {"type": "Polygon", "coordinates": [[[-99.83852, 25.74792], [-99.83448, 25.74852], [-99.83427, 25.74842], [-99.83381, 25.74693], [-99.83348, 25.7447], [-99.83323, 25.74436], [-99.83247, 25.744], [-99.83229, 25.74228], [-99.83244, 25.74178], [-99.83358, 25.74188], [-99.83668, 25.74151], [-99.83733, 25.74283], [-99.83852, 25.74792]]]}}, {"id": "1434497", "type": "Feature", "properties": {"id": "1434497", "CVEGEO": "190160036019A007", "POBTOT": 0.0, "score_nse": 0.0, "NSE": null, "VIVTOT": 0.0, "GRAPROES": 0.0, "_ent": "19", "_mun": "016", "_loc": "0036"}, "geometry": {"type": "Polygon", "coordinates": [[[-99.83536, 25.7416], [-99.83484, 25.73962], [-99.83535, 25.73948], [-99.83548, 25.73987], [-99.83608, 25.73976], [-99.83662, 25.74143], [-99.83536, 25.7416]]]}}, {"id": "1434498", "type": "Feature", "properties": {"id": "1434498", "CVEGEO": "190160036019A012", "POBTOT": 0.0, "score_nse": 0.0, "NSE": null, "VIVTOT": 0.0, "GRAPROES": 0.0, "_ent": "19", "_mun": "016", "_loc": "0036"}, "geometry": {"type": "Polygon", "coordinates": [[[-99.82866, 25.74158], [-99.82864, 25.74141], [-99.82723, 25.74046], [-99.82742, 25.74007], [-99.82788, 25.73993], [-99.82807, 25.73952], [-99.8291, 25.73974], [-99.83008, 25.73971], [-99.83198, 25.73936], [-99.83268, 25.74026], [-99.8326, 25.7409], [-99.83131, 25.74085], [-99.83046, 25.74049], [-99.83011, 25.7405], [-99.82967, 25.74116], [-99.82866, 25.74158]]]}}]}