{"type": "FeatureCollection", "features": [{"id": "2312409", "type": "Feature", "properties": {"id": "2312409", "CVEGEO": "3009400280101010", "POBTOT": 0.0, "score_nse": 0.0, "NSE": null, "VIVTOT": 0.0, "GRAPROES": 0.0, "_ent": "30", "_mun": "094", "_loc": "0028"}, "geometry": {"type": "Polygon", "coordinates": [[[-95.45969, 17.79791], [-95.45953, 17.79688], [-95.46047, 17.797], [-95.4606, 17.79768], [-95.45969, 17.79791]]]}}, {"id": "2312462", "type": "Feature", "properties": {"id": "2312462", "CVEGEO": "3009400280101009", "POBTOT": 0.0, "score_nse": 0.0, "NSE": null, "VIVTOT": 0.0, "GRAPROES": 0.0, "_ent": "30", "_mun": "094", "_loc": "0028"}, "geometry": {"type": "Polygon", "coordinates": [[[-95.45963, 17.79793], [-95.45907, 17.79828], [-95.45887, 17.79825], [-95.45922, 17.79783], [-95.45894, 17.79766], [-95.45892, 17.79674], [-95.45946, 17.79698], [-95.45963, 17.79793]]]}}, {"id": "2312654", "type": "Feature", "properties": {"id": "2312654", "CVEGEO": "3009400280101013", "POBTOT": 0.0, "score_nse": 0.0, "NSE": null, "VIVTOT": 0.0, "GRAPROES": 0.0, "_ent": "30", "_mun": "094", "_loc": "0028"}, "geometry": {"type": "Polygon", "coordinates": [[[-95.463, 17.8015], [-95.4625, 17.80153], [-95.46226, 17.80049], [-95.46284, 17.80038], [-95.463, 17.8015]]]}}, {"id": "2313235", "type": "Feature", "properties": {"id": "2313235", "CVEGEO": "3009400280101008", "POBTOT": 0.0, "score_nse": 0.0, "NSE": null, "VIVTOT": 0.0, "GRAPROES": 0.0, "_ent": "30", "_mun": "094", "_loc": "0028"}, "geometry": {"type": "Polygon", "coordinates": [[[-95.45873, 17.80011], [-95.45841, 17.7996], [-95.45856, 17.79915], [-95.45842, 17.7988], [-95.45849, 17.7983], [-95.45902, 17.79834], [-95.45964, 17.79799], [-95.45966, 17.79848], [-95.45946, 17.79851], [-95.45937, 17.79899], [-95.45954, 17.79949], [-95.45991, 17.79942], [-95.45997, 17.79988], [-95.45873, 17.80011]]]}}, {"id": "2313236", "type": "Feature", "properties": {"id": "2313236", "CVEGEO": "3009400280101007", "POBTOT": 0.0, "score_nse": 0.0, "NSE": null, "VIVTOT": 0.0, "GRAPROES": 0.0, "_ent": "30", "_mun": "094", "_loc": "0028"}, "geometry": {"type": "Polygon", "coordinates": [[[-95.46007, 17.80049], [-95.45876, 17.80031], [-95.45873, 17.80016], [-95.45997, 17.79993], [-95.46007, 17.80049]]]}}, {"id": "2313237", "type": "Feature", "properties": {"id": "2313237", "CVEGEO": "3009400280101004", "POBTOT": 0.0, "score_nse": 0.0, "NSE": null, "VIVTOT": 0.0, "GRAPROES": 0.0, "_ent": "30", "_mun": "094", "_loc": "0028"}, "geometry": {"type": "Polygon", "coordinates": [[[-95.46218, 17.80044], [-95.46127, 17.80059], [-95.46111, 17.79969], [-95.46202, 17.79947], [-95.46218, 17.80044]]]}}, {"id": "2313238", "type": "Feature", "properties": {"id": "2313238", "CVEGEO": "3009400280101002", "POBTOT": 0.0, "score_nse": 0.0, "NSE": null, "VIVTOT": 0.0, "GRAPROES": 0.0, "_ent": "30", "_mun": "094", "_loc": "0028"}, "geometry": {"type": "Polygon", "coordinates": [[[-95.46004, 17.79984], [-95.45996, 17.79935], [-95.45958, 17.79943], [-95.45942, 17.79884], [-95.45951, 17.79855], [-95.45975, 17.79848], [-95.45974, 17.79797], [-95.46061, 17.79773], [-95.46079, 17.79864], [-95.46051, 17.79875], [-95.46079, 17.79871], [-95.46098, 17.79962], [-95.46004, 17.79984]]]}}, {"id": "2313239", "type": "Feature", "properties": {"id": "2313239", "CVEGEO": "3009400280101001", "POBTOT": 0.0, "score_nse": 0.0, "NSE": null, "VIVTOT": 0.0, "GRAPROES": 0.0, "_ent": "30", "_mun": "094", "_loc": "0028"}, "geometry": {"type": "Polygon", "coordinates": [[[-95.46119, 17.80059], [-95.46112, 17.80088], [-95.46015, 17.8005], [-95.46004, 17.79991], [-95.461, 17.79971], [-95.46119, 17.80059]]]}}, {"id": "2313276", "type": "Feature", "properties": {"id": "2313276", "CVEGEO": "3009400280101018", "POBTOT": 0.0, "score_nse": 0.0, "NSE": null, "VIVTOT": 0.0, "GRAPROES": 0.0, "_ent": "30", "_mun": "094", "_loc": "0028"}, "geometry": {"type": "Polygon", "coordinates": [[[-95.46243, 17.80152], [-95.46142, 17.80108], [-95.46129, 17.80066], [-95.4622, 17.8005], [-95.46243, 17.80152]]]}}, {"id": "2313301", "type": "Feature", "properties": {"id": "2313301", "CVEGEO": "3009400280101012", "POBTOT": 0.0, "score_nse": 0.0, "NSE": null, "VIVTOT": 0.0, "GRAPROES": 0.0, "_ent": "30", "_mun": "094", "_loc": "0028"}, "geometry": {"type": "Polygon", "coordinates": [[[-95.46283, 17.80033], [-95.46224, 17.80044], [-95.46208, 17.79946], [-95.46263, 17.79935], [-95.46283, 17.80033]]]}}, {"id": "2313302", "type": "Feature", "properties": {"id": "2313302", "CVEGEO": "3009400280101011", "POBTOT": 0.0, "score_nse": 0.0, "NSE": null, "VIVTOT": 0.0, "GRAPROES": 0.0, "_ent": "30", "_mun": "094", "_loc": "0028"}, "geometry": {"type": "Polygon", "coordinates": [[[-95.46262, 17.79795], [-95.46206, 17.79795], [-95.46183, 17.79848], [-95.46085, 17.79863], [-95.46068, 17.79771], [-95.46127, 17.79757], [-95.46067, 17.79766], [-95.46054, 17.79699], [-95.46262, 17.79733], [-95.46262, 17.79795]]]}}, {"id": "2313658", "type": "Feature", "properties": {"id": "2313658", "CVEGEO": "3009400280101003", "POBTOT": 0.0, "score_nse": 0.0, "NSE": null, "VIVTOT": 0.0, "GRAPROES": 0.0, "_ent": "30", "_mun": "094", "_loc": "0028"}, "geometry": {"type": "Polygon", "coordinates": [[[-95.46108, 17.79963], [-95.46086, 17.79868], [-95.46187, 17.79852], [-95.46223, 17.79791], [-95.46263, 17.798], [-95.46263, 17.79928], [-95.46206, 17.79941], [-95.46191, 17.79899], [-95.46201, 17.79942], [-95.46108, 17.79963]]]}}]}