{"type": "FeatureCollection", "features": [{"id": "2426343", "type": "Feature", "properties": {"id": "2426343", "CVEGEO": "3104300010060025", "POBTOT": 26.0, "score_nse": 0.0, "NSE": "ND", "VIVTOT": 10.0, "GRAPROES": 7.35, "_ent": "31", "_mun": "043", "_loc": "0001"}, "geometry": {"type": "Polygon", "coordinates": [[[-88.41975, 20.62385], [-88.41954, 20.62235], [-88.42164, 20.62254], [-88.42142, 20.62392], [-88.41975, 20.62385]]]}}, {"id": "2426344", "type": "Feature", "properties": {"id": "2426344", "CVEGEO": "3104300010060019", "POBTOT": 29.0, "score_nse": 0.0, "NSE": "ND", "VIVTOT": 9.0, "GRAPROES": 7.47, "_ent": "31", "_mun": "043", "_loc": "0001"}, "geometry": {"type": "Polygon", "coordinates": [[[-88.41624, 20.62307], [-88.41638, 20.62215], [-88.41747, 20.62223], [-88.41743, 20.62307], [-88.41624, 20.62307]]]}}, {"id": "2426345", "type": "Feature", "properties": {"id": "2426345", "CVEGEO": "3104300010060029", "POBTOT": 10.0, "score_nse": 0.0, "NSE": "ND", "VIVTOT": 4.0, "GRAPROES": 0.0, "_ent": "31", "_mun": "043", "_loc": "0001"}, "geometry": {"type": "Polygon", "coordinates": [[[-88.41609, 20.62404], [-88.41625, 20.62315], [-88.41744, 20.62314], [-88.4171, 20.62415], [-88.41609, 20.62404]]]}}, {"id": "2426346", "type": "Feature", "properties": {"id": "2426346", "CVEGEO": "3104300060056018", "POBTOT": 0.0, "score_nse": 0.0, "NSE": null, "VIVTOT": 0.0, "GRAPROES": 0.0, "_ent": "31", "_mun": "043", "_loc": "0006"}, "geometry": {"type": "Polygon", "coordinates": [[[-88.4334, 20.57164], [-88.43288, 20.57018], [-88.43386, 20.57085], [-88.43413, 20.57135], [-88.43438, 20.57142], [-88.43341, 20.57223], [-88.4334, 20.57164]]]}}, {"id": "2426347", "type": "Feature", "properties": {"id": "2426347", "CVEGEO": "3104300010060024", "POBTOT": 8.0, "score_nse": 0.0, "NSE": "ND", "VIVTOT": 3.0, "GRAPROES": 7.17, "_ent": "31", "_mun": "043", "_loc": "0001"}, "geometry": {"type": "Polygon", "coordinates": [[[-88.42064, 20.62235], [-88.42067, 20.62217], [-88.42124, 20.62221], [-88.42123, 20.6224], [-88.42064, 20.62235]]]}}, {"id": "2426348", "type": "Feature", "properties": {"id": "2426348", "CVEGEO": "3104300010075016", "POBTOT": 12.0, "score_nse": 0.0, "NSE": "ND", "VIVTOT": 3.0, "GRAPROES": 9.82, "_ent": "31", "_mun": "043", "_loc": "0001"}, "geometry": {"type": "Polygon", "coordinates": [[[-88.41048, 20.62206], [-88.41119, 20.62198], [-88.41121, 20.62262], [-88.41054, 20.62291], [-88.41048, 20.62206]]]}}, {"id": "2426349", "type": "Feature", "properties": {"id": "2426349", "CVEGEO": "3104300010060028", "POBTOT": 7.0, "score_nse": 0.0, "NSE": "ND", "VIVTOT": 1.0, "GRAPROES": 0.0, "_ent": "31", "_mun": "043", "_loc": "0001"}, "geometry": {"type": "Polygon", "coordinates": [[[-88.41691, 20.62495], [-88.41622, 20.62495], [-88.41634, 20.62412], [-88.41705, 20.6242], [-88.41691, 20.62495]]]}}, {"id": "2426350", "type": "Feature", "properties": {"id": "2426350", "CVEGEO": "3104300010060006", "POBTOT": 67.0, "score_nse": 0.0, "NSE": "ND", "VIVTOT": 20.0, "GRAPROES": 5.7, "_ent": "31", "_mun": "043", "_loc": "0001"}, "geometry": {"type": "Polygon", "coordinates": [[[-88.41827, 20.6207], [-88.4181, 20.62195], [-88.41754, 20.6219], [-88.41753, 20.62014], [-88.41827, 20.6207]]]}}, {"id": "2426351", "type": "Feature", "properties": {"id": "2426351", "CVEGEO": "3104300010075013", "POBTOT": 46.0, "score_nse": 0.0, "NSE": "ND", "VIVTOT": 13.0, "GRAPROES": 7.23, "_ent": "31", "_mun": "043", "_loc": "0001"}, "geometry": {"type": "Polygon", "coordinates": [[[-88.413, 20.62302], [-88.41282, 20.62234], [-88.41287, 20.62188], [-88.41356, 20.62191], [-88.41318, 20.62305], [-88.413, 20.62302]]]}}, {"id": "2426352", "type": "Feature", "properties": {"id": "2426352", "CVEGEO": "310430001008A005", "POBTOT": 11.0, "score_nse": 0.0, "NSE": "ND", "VIVTOT": 6.0, "GRAPROES": 8.25, "_ent": "31", "_mun": "043", "_loc": "0001"}, "geometry": {"type": "Polygon", "coordinates": [[[-88.42133, 20.62212], [-88.4215, 20.62126], [-88.422, 20.62131], [-88.42193, 20.62217], [-88.42133, 20.62212]]]}}, {"id": "2426353", "type": "Feature", "properties": {"id": "2426353", "CVEGEO": "3104300010060027", "POBTOT": 45.0, "score_nse": 0.0, "NSE": "ND", "VIVTOT": 15.0, "GRAPROES": 7.56, "_ent": "31", "_mun": "043", "_loc": "0001"}, "geometry": {"type": "Polygon", "coordinates": [[[-88.41835, 20.62441], [-88.41815, 20.62558], [-88.41827, 20.62518], [-88.41915, 20.62515], [-88.41897, 20.62591], [-88.41808, 20.62622], [-88.41685, 20.62567], [-88.41709, 20.62422], [-88.41835, 20.62441]]]}}, {"id": "2426354", "type": "Feature", "properties": {"id": "2426354", "CVEGEO": "3104300010060001", "POBTOT": 97.0, "score_nse": 0.0, "NSE": "ND", "VIVTOT": 28.0, "GRAPROES": 8.07, "_ent": "31", "_mun": "043", "_loc": "0001"}, "geometry": {"type": "Polygon", "coordinates": [[[-88.41744, 20.62013], [-88.41746, 20.62189], [-88.41636, 20.62181], [-88.41648, 20.62023], [-88.41744, 20.62013]]]}}, {"id": "2426355", "type": "Feature", "properties": {"id": "2426355", "CVEGEO": "3104300010060040", "POBTOT": 7.0, "score_nse": 0.0, "NSE": "ND", "VIVTOT": 3.0, "GRAPROES": 0.0, "_ent": "31", "_mun": "043", "_loc": "0001"}, "geometry": {"type": "Polygon", "coordinates": [[[-88.41906, 20.62688], [-88.41895, 20.6266], [-88.42001, 20.62671], [-88.41979, 20.62727], [-88.41906, 20.62688]]]}}, {"id": "2426356", "type": "Feature", "properties": {"id": "2426356", "CVEGEO": "3104300010075024", "POBTOT": 78.0, "score_nse": 0.0, "NSE": "ND", "VIVTOT": 22.0, "GRAPROES": 6.19, "_ent": "31", "_mun": "043", "_loc": "0001"}, "geometry": {"type": "Polygon", "coordinates": [[[-88.40877, 20.62241], [-88.41039, 20.62211], [-88.41045, 20.62295], [-88.40928, 20.62344], [-88.40885, 20.62297], [-88.40877, 20.62241]]]}}, {"id": "2426357", "type": "Feature", "properties": {"id": "2426357", "CVEGEO": "3104300010075026", "POBTOT": 38.0, "score_nse": 0.0, "NSE": "ND", "VIVTOT": 16.0, "GRAPROES": 7.0, "_ent": "31", "_mun": "043", "_loc": "0001"}, "geometry": {"type": "Polygon", "coordinates": [[[-88.41515, 20.61605], [-88.41502, 20.61718], [-88.41405, 20.61709], [-88.41421, 20.61588], [-88.41515, 20.61605]]]}}, {"id": "2426358", "type": "Feature", "properties": {"id": "2426358", "CVEGEO": "310430001008A003", "POBTOT": 0.0, "score_nse": 0.0, "NSE": "ND", "VIVTOT": 0.0, "GRAPROES": 0.0, "_ent": "31", "_mun": "043", "_loc": "0001"}, "geometry": {"type": "Polygon", "coordinates": [[[-88.42132, 20.62221], [-88.42322, 20.62231], [-88.42321, 20.62257], [-88.42131, 20.62242], [-88.42132, 20.62221]]]}}, {"id": "2426359", "type": "Feature", "properties": {"id": "2426359", "CVEGEO": "3104300010060014", "POBTOT": 44.0, "score_nse": 0.0, "NSE": "ND", "VIVTOT": 10.0, "GRAPROES": 6.21, "_ent": "31", "_mun": "043", "_loc": "0001"}, "geometry": {"type": "Polygon", "coordinates": [[[-88.41958, 20.62093], [-88.41835, 20.62074], [-88.41843, 20.62002], [-88.4198, 20.61989], [-88.41958, 20.62093]]]}}, {"id": "2426360", "type": "Feature", "properties": {"id": "2426360", "CVEGEO": "3104300030056001", "POBTOT": 0.0, "score_nse": 0.0, "NSE": null, "VIVTOT": 0.0, "GRAPROES": 0.0, "_ent": "31", "_mun": "043", "_loc": "0003"}, "geometry": {"type": "Polygon", "coordinates": [[[-88.44182, 20.57455], [-88.44181, 20.57551], [-88.44162, 20.5755], [-88.44116, 20.57442], [-88.44182, 20.57455]]]}}, {"id": "2426361", "type": "Feature", "properties": {"id": "2426361", "CVEGEO": "3104300010075032", "POBTOT": 4.0, "score_nse": 0.0, "NSE": "ND", "VIVTOT": 5.0, "GRAPROES": 0.0, "_ent": "31", "_mun": "043", "_loc": "0001"}, "geometry": {"type": "Polygon", "coordinates": [[[-88.41196, 20.62676], [-88.41205, 20.62608], [-88.41269, 20.62608], [-88.4126, 20.62683], [-88.41196, 20.62676]]]}}, {"id": "2426362", "type": "Feature", "properties": {"id": "2426362", "CVEGEO": "3104300010060009", "POBTOT": 23.0, "score_nse": 0.0, "NSE": "ND", "VIVTOT": 11.0, "GRAPROES": 7.75, "_ent": "31", "_mun": "043", "_loc": "0001"}, "geometry": {"type": "Polygon", "coordinates": [[[-88.41442, 20.62147], [-88.41631, 20.62189], [-88.41628, 20.62204], [-88.41437, 20.62188], [-88.41442, 20.62147]]]}}, {"id": "2426363", "type": "Feature", "properties": {"id": "2426363", "CVEGEO": "3104300010075033", "POBTOT": 14.0, "score_nse": 34.36, "NSE": "D+", "VIVTOT": 10.0, "GRAPROES": 9.08, "_ent": "31", "_mun": "043", "_loc": "0001"}, "geometry": {"type": "Polygon", "coordinates": [[[-88.41501, 20.61724], [-88.41479, 20.61879], [-88.41381, 20.61877], [-88.41404, 20.61714], [-88.41501, 20.61724]]]}}, {"id": "2426364", "type": "Feature", "properties": {"id": "2426364", "CVEGEO": "3104300010075012", "POBTOT": 60.0, "score_nse": 0.0, "NSE": "ND", "VIVTOT": 14.0, "GRAPROES": 6.63, "_ent": "31", "_mun": "043", "_loc": "0001"}, "geometry": {"type": "Polygon", "coordinates": [[[-88.41364, 20.62194], [-88.41415, 20.62195], [-88.41421, 20.6231], [-88.41324, 20.62306], [-88.41364, 20.62194]]]}}, {"id": "2426365", "type": "Feature", "properties": {"id": "2426365", "CVEGEO": "3104300010075025", "POBTOT": 51.0, "score_nse": 0.0, "NSE": "ND", "VIVTOT": 16.0, "GRAPROES": 7.43, "_ent": "31", "_mun": "043", "_loc": "0001"}, "geometry": {"type": "Polygon", "coordinates": [[[-88.41268, 20.61725], [-88.41392, 20.61713], [-88.41371, 20.61875], [-88.41276, 20.61873], [-88.41268, 20.61725]]]}}, {"id": "2426366", "type": "Feature", "properties": {"id": "2426366", "CVEGEO": "3104300010075030", "POBTOT": 0.0, "score_nse": 0.0, "NSE": "ND", "VIVTOT": 0.0, "GRAPROES": 0.0, "_ent": "31", "_mun": "043", "_loc": "0001"}, "geometry": {"type": "Polygon", "coordinates": [[[-88.41442, 20.62607], [-88.41438, 20.62702], [-88.41332, 20.62692], [-88.41336, 20.62605], [-88.41442, 20.62607]]]}}, {"id": "2426367", "type": "Feature", "properties": {"id": "2426367", "CVEGEO": "3104300010060023", "POBTOT": 11.0, "score_nse": 0.0, "NSE": "ND", "VIVTOT": 5.0, "GRAPROES": 0.0, "_ent": "31", "_mun": "043", "_loc": "0001"}, "geometry": {"type": "Polygon", "coordinates": [[[-88.42086, 20.62114], [-88.4214, 20.62125], [-88.42123, 20.62212], [-88.42067, 20.6221], [-88.42086, 20.62114]]]}}, {"id": "2426368", "type": "Feature", "properties": {"id": "2426368", "CVEGEO": "3104300010075040", "POBTOT": 91.0, "score_nse": 0.0, "NSE": "ND", "VIVTOT": 23.0, "GRAPROES": 6.3, "_ent": "31", "_mun": "043", "_loc": "0001"}, "geometry": {"type": "Polygon", "coordinates": [[[-88.40967, 20.62399], [-88.40935, 20.62352], [-88.41122, 20.62272], [-88.41125, 20.62371], [-88.4109, 20.62457], [-88.40967, 20.62399]]]}}, {"id": "2426369", "type": "Feature", "properties": {"id": "2426369", "CVEGEO": "3104300010075037", "POBTOT": 7.0, "score_nse": 0.0, "NSE": "ND", "VIVTOT": 3.0, "GRAPROES": 0.0, "_ent": "31", "_mun": "043", "_loc": "0001"}, "geometry": {"type": "Polygon", "coordinates": [[[-88.41191, 20.61635], [-88.41236, 20.61624], [-88.41255, 20.61722], [-88.41202, 20.61731], [-88.41191, 20.61635]]]}}, {"id": "2426370", "type": "Feature", "properties": {"id": "2426370", "CVEGEO": "3104300060056006", "POBTOT": 0.0, "score_nse": 0.0, "NSE": null, "VIVTOT": 0.0, "GRAPROES": 0.0, "_ent": "31", "_mun": "043", "_loc": "0006"}, "geometry": {"type": "Polygon", "coordinates": [[[-88.43181, 20.56575], [-88.43249, 20.56558], [-88.43311, 20.56566], [-88.43299, 20.56631], [-88.43188, 20.56644], [-88.43181, 20.56575]]]}}, {"id": "2426371", "type": "Feature", "properties": {"id": "2426371", "CVEGEO": "3104300010075020", "POBTOT": 49.0, "score_nse": 0.0, "NSE": "ND", "VIVTOT": 13.0, "GRAPROES": 8.59, "_ent": "31", "_mun": "043", "_loc": "0001"}, "geometry": {"type": "Polygon", "coordinates": [[[-88.41423, 20.62317], [-88.41426, 20.62387], [-88.41303, 20.62388], [-88.41322, 20.62312], [-88.41423, 20.62317]]]}}, {"id": "2426372", "type": "Feature", "properties": {"id": "2426372", "CVEGEO": "3104300010075041", "POBTOT": 25.0, "score_nse": 0.0, "NSE": "ND", "VIVTOT": 9.0, "GRAPROES": 6.67, "_ent": "31", "_mun": "043", "_loc": "0001"}, "geometry": {"type": "Polygon", "coordinates": [[[-88.41134, 20.62374], [-88.41242, 20.62392], [-88.41295, 20.62394], [-88.41249, 20.62486], [-88.41099, 20.62459], [-88.41134, 20.62374]]]}}, {"id": "2426373", "type": "Feature", "properties": {"id": "2426373", "CVEGEO": "3104300010060015", "POBTOT": 74.0, "score_nse": 0.0, "NSE": "ND", "VIVTOT": 22.0, "GRAPROES": 7.41, "_ent": "31", "_mun": "043", "_loc": "0001"}, "geometry": {"type": "Polygon", "coordinates": [[[-88.41833, 20.62081], [-88.41956, 20.62097], [-88.41941, 20.62203], [-88.4188, 20.622], [-88.41885, 20.62148], [-88.4183, 20.62146], [-88.41833, 20.62081]]]}}, {"id": "2426374", "type": "Feature", "properties": {"id": "2426374", "CVEGEO": "3104300010060008", "POBTOT": 17.0, "score_nse": 0.0, "NSE": "ND", "VIVTOT": 5.0, "GRAPROES": 8.54, "_ent": "31", "_mun": "043", "_loc": "0001"}, "geometry": {"type": "Polygon", "coordinates": [[[-88.41738, 20.62213], [-88.41636, 20.62205], [-88.41637, 20.62188], [-88.4174, 20.62196], [-88.41738, 20.62213]]]}}, {"id": "2426375", "type": "Feature", "properties": {"id": "2426375", "CVEGEO": "3104300010075028", "POBTOT": 10.0, "score_nse": 0.0, "NSE": "ND", "VIVTOT": 6.0, "GRAPROES": 6.38, "_ent": "31", "_mun": "043", "_loc": "0001"}, "geometry": {"type": "Polygon", "coordinates": [[[-88.41278, 20.62542], [-88.41336, 20.62556], [-88.41331, 20.62602], [-88.41273, 20.62604], [-88.41278, 20.62542]]]}}, {"id": "2426376", "type": "Feature", "properties": {"id": "2426376", "CVEGEO": "3104300010075043", "POBTOT": 23.0, "score_nse": 0.0, "NSE": "ND", "VIVTOT": 6.0, "GRAPROES": 9.0, "_ent": "31", "_mun": "043", "_loc": "0001"}, "geometry": {"type": "Polygon", "coordinates": [[[-88.41505, 20.61403], [-88.41512, 20.61519], [-88.41445, 20.6151], [-88.41446, 20.61409], [-88.41505, 20.61403]]]}}, {"id": "2426377", "type": "Feature", "properties": {"id": "2426377", "CVEGEO": "3104300010060036", "POBTOT": 40.0, "score_nse": 0.0, "NSE": "ND", "VIVTOT": 17.0, "GRAPROES": 7.03, "_ent": "31", "_mun": "043", "_loc": "0001"}, "geometry": {"type": "Polygon", "coordinates": [[[-88.41839, 20.62375], [-88.41857, 20.62231], [-88.41948, 20.62236], [-88.4197, 20.62383], [-88.41839, 20.62375]]]}}, {"id": "2426378", "type": "Feature", "properties": {"id": "2426378", "CVEGEO": "3104300010060035", "POBTOT": 50.0, "score_nse": 0.0, "NSE": "ND", "VIVTOT": 19.0, "GRAPROES": 7.11, "_ent": "31", "_mun": "043", "_loc": "0001"}, "geometry": {"type": "Polygon", "coordinates": [[[-88.41917, 20.62508], [-88.41823, 20.62509], [-88.41843, 20.62387], [-88.41967, 20.62393], [-88.41917, 20.62508]]]}}, {"id": "2426379", "type": "Feature", "properties": {"id": "2426379", "CVEGEO": "3104300010075014", "POBTOT": 91.0, "score_nse": 0.0, "NSE": "ND", "VIVTOT": 28.0, "GRAPROES": 6.86, "_ent": "31", "_mun": "043", "_loc": "0001"}, "geometry": {"type": "Polygon", "coordinates": [[[-88.41141, 20.6237], [-88.41136, 20.62268], [-88.41279, 20.62192], [-88.41281, 20.62271], [-88.41297, 20.62308], [-88.41314, 20.6231], [-88.41296, 20.62389], [-88.41141, 20.6237]]]}}, {"id": "2426380", "type": "Feature", "properties": {"id": "2426380", "CVEGEO": "3104300010060033", "POBTOT": 76.0, "score_nse": 0.0, "NSE": "ND", "VIVTOT": 21.0, "GRAPROES": 7.83, "_ent": "31", "_mun": "043", "_loc": "0001"}, "geometry": {"type": "Polygon", "coordinates": [[[-88.41637, 20.62581], [-88.41619, 20.62758], [-88.41442, 20.6274], [-88.41444, 20.62704], [-88.41518, 20.62713], [-88.41445, 20.62698], [-88.41448, 20.62608], [-88.41637, 20.62581]]]}}, {"id": "2426381", "type": "Feature", "properties": {"id": "2426381", "CVEGEO": "3104300010075015", "POBTOT": 17.0, "score_nse": 0.0, "NSE": "ND", "VIVTOT": 5.0, "GRAPROES": 7.69, "_ent": "31", "_mun": "043", "_loc": "0001"}, "geometry": {"type": "Polygon", "coordinates": [[[-88.41129, 20.62198], [-88.41262, 20.62191], [-88.41133, 20.62257], [-88.41129, 20.62198]]]}}, {"id": "2426382", "type": "Feature", "properties": {"id": "2426382", "CVEGEO": "3104300010060013", "POBTOT": 25.0, "score_nse": 0.0, "NSE": "ND", "VIVTOT": 7.0, "GRAPROES": 8.05, "_ent": "31", "_mun": "043", "_loc": "0001"}, "geometry": {"type": "Polygon", "coordinates": [[[-88.41984, 20.61901], [-88.41972, 20.61983], [-88.41845, 20.61993], [-88.41853, 20.61893], [-88.41984, 20.61901]]]}}, {"id": "2426383", "type": "Feature", "properties": {"id": "2426383", "CVEGEO": "3104300010060018", "POBTOT": 58.0, "score_nse": 0.0, "NSE": "ND", "VIVTOT": 18.0, "GRAPROES": 6.19, "_ent": "31", "_mun": "043", "_loc": "0001"}, "geometry": {"type": "Polygon", "coordinates": [[[-88.41852, 20.62231], [-88.41832, 20.62434], [-88.41716, 20.62417], [-88.41749, 20.62324], [-88.41754, 20.6222], [-88.41852, 20.62231]]]}}, {"id": "2426384", "type": "Feature", "properties": {"id": "2426384", "CVEGEO": "3104300010060041", "POBTOT": 3.0, "score_nse": 0.0, "NSE": "ND", "VIVTOT": 1.0, "GRAPROES": 0.0, "_ent": "31", "_mun": "043", "_loc": "0001"}, "geometry": {"type": "Polygon", "coordinates": [[[-88.41872, 20.62605], [-88.41889, 20.62659], [-88.41887, 20.62675], [-88.41812, 20.62626], [-88.41872, 20.62605]]]}}, {"id": "2426385", "type": "Feature", "properties": {"id": "2426385", "CVEGEO": "3104300010060004", "POBTOT": 100.0, "score_nse": 0.0, "NSE": "ND", "VIVTOT": 29.0, "GRAPROES": 8.05, "_ent": "31", "_mun": "043", "_loc": "0001"}, "geometry": {"type": "Polygon", "coordinates": [[[-88.41848, 20.61897], [-88.41837, 20.61997], [-88.4166, 20.62011], [-88.41674, 20.61892], [-88.41848, 20.61897]]]}}, {"id": "2426386", "type": "Feature", "properties": {"id": "2426386", "CVEGEO": "3104300010060020", "POBTOT": 77.0, "score_nse": 0.0, "NSE": "ND", "VIVTOT": 22.0, "GRAPROES": 8.1, "_ent": "31", "_mun": "043", "_loc": "0001"}, "geometry": {"type": "Polygon", "coordinates": [[[-88.41432, 20.62309], [-88.41425, 20.62196], [-88.4163, 20.62214], [-88.41619, 20.62311], [-88.41432, 20.62309]]]}}, {"id": "2426387", "type": "Feature", "properties": {"id": "2426387", "CVEGEO": "3104300010075036", "POBTOT": 29.0, "score_nse": 0.0, "NSE": "ND", "VIVTOT": 11.0, "GRAPROES": 9.13, "_ent": "31", "_mun": "043", "_loc": "0001"}, "geometry": {"type": "Polygon", "coordinates": [[[-88.4134, 20.61575], [-88.41412, 20.61586], [-88.41394, 20.61708], [-88.41334, 20.61709], [-88.4134, 20.61575]]]}}, {"id": "2426388", "type": "Feature", "properties": {"id": "2426388", "CVEGEO": "3104300010075034", "POBTOT": 15.0, "score_nse": 0.0, "NSE": "ND", "VIVTOT": 5.0, "GRAPROES": 6.58, "_ent": "31", "_mun": "043", "_loc": "0001"}, "geometry": {"type": "Polygon", "coordinates": [[[-88.41417, 20.61579], [-88.4134, 20.61568], [-88.41346, 20.61501], [-88.41432, 20.61515], [-88.41417, 20.61579]]]}}, {"id": "2426389", "type": "Feature", "properties": {"id": "2426389", "CVEGEO": "3104300010075029", "POBTOT": 4.0, "score_nse": 0.0, "NSE": "ND", "VIVTOT": 4.0, "GRAPROES": 0.0, "_ent": "31", "_mun": "043", "_loc": "0001"}, "geometry": {"type": "Polygon", "coordinates": [[[-88.41234, 20.62529], [-88.41275, 20.62541], [-88.41267, 20.62603], [-88.41206, 20.62603], [-88.41234, 20.62529]]]}}, {"id": "2426390", "type": "Feature", "properties": {"id": "2426390", "CVEGEO": "3104300010060022", "POBTOT": 10.0, "score_nse": 0.0, "NSE": "ND", "VIVTOT": 6.0, "GRAPROES": 2.5, "_ent": "31", "_mun": "043", "_loc": "0001"}, "geometry": {"type": "Polygon", "coordinates": [[[-88.42088, 20.62105], [-88.42111, 20.61955], [-88.42159, 20.61946], [-88.42143, 20.62116], [-88.42088, 20.62105]]]}}, {"id": "2426391", "type": "Feature", "properties": {"id": "2426391", "CVEGEO": "3104300010075022", "POBTOT": 19.0, "score_nse": 0.0, "NSE": "ND", "VIVTOT": 7.0, "GRAPROES": 8.71, "_ent": "31", "_mun": "043", "_loc": "0001"}, "geometry": {"type": "Polygon", "coordinates": [[[-88.41432, 20.62391], [-88.41441, 20.62601], [-88.41337, 20.62599], [-88.41342, 20.62551], [-88.4124, 20.62522], [-88.41304, 20.62394], [-88.41432, 20.62391]]]}}, {"id": "2426392", "type": "Feature", "properties": {"id": "2426392", "CVEGEO": "3104300010060005", "POBTOT": 23.0, "score_nse": 0.0, "NSE": "ND", "VIVTOT": 6.0, "GRAPROES": 6.33, "_ent": "31", "_mun": "043", "_loc": "0001"}, "geometry": {"type": "Polygon", "coordinates": [[[-88.41837, 20.62006], [-88.41829, 20.62062], [-88.41763, 20.6201], [-88.41837, 20.62006]]]}}, {"id": "2426393", "type": "Feature", "properties": {"id": "2426393", "CVEGEO": "3104300010075002", "POBTOT": 74.0, "score_nse": 40.3774, "NSE": "D+", "VIVTOT": 17.0, "GRAPROES": 7.35, "_ent": "31", "_mun": "043", "_loc": "0001"}, "geometry": {"type": "Polygon", "coordinates": [[[-88.41135, 20.62181], [-88.41162, 20.62048], [-88.41276, 20.6205], [-88.41278, 20.62182], [-88.41135, 20.62181]]]}}, {"id": "2426394", "type": "Feature", "properties": {"id": "2426394", "CVEGEO": "3104300010075027", "POBTOT": 44.0, "score_nse": 0.0, "NSE": "ND", "VIVTOT": 13.0, "GRAPROES": 8.68, "_ent": "31", "_mun": "043", "_loc": "0001"}, "geometry": {"type": "Polygon", "coordinates": [[[-88.41509, 20.61527], [-88.41516, 20.61594], [-88.41424, 20.61582], [-88.41439, 20.61517], [-88.41509, 20.61527]]]}}, {"id": "2426395", "type": "Feature", "properties": {"id": "2426395", "CVEGEO": "3104300010075031", "POBTOT": 13.0, "score_nse": 0.0, "NSE": "ND", "VIVTOT": 5.0, "GRAPROES": 8.36, "_ent": "31", "_mun": "043", "_loc": "0001"}, "geometry": {"type": "Polygon", "coordinates": [[[-88.41325, 20.62691], [-88.41267, 20.62684], [-88.41273, 20.62609], [-88.41331, 20.62607], [-88.41325, 20.62691]]]}}, {"id": "2426396", "type": "Feature", "properties": {"id": "2426396", "CVEGEO": "3104300010060038", "POBTOT": 37.0, "score_nse": 0.0, "NSE": "ND", "VIVTOT": 13.0, "GRAPROES": 8.64, "_ent": "31", "_mun": "043", "_loc": "0001"}, "geometry": {"type": "Polygon", "coordinates": [[[-88.41948, 20.62204], [-88.41968, 20.621], [-88.42074, 20.62112], [-88.42059, 20.6221], [-88.41948, 20.62204]]]}}, {"id": "2426397", "type": "Feature", "properties": {"id": "2426397", "CVEGEO": "3104300010075008", "POBTOT": 8.0, "score_nse": 0.0, "NSE": "ND", "VIVTOT": 4.0, "GRAPROES": 5.71, "_ent": "31", "_mun": "043", "_loc": "0001"}, "geometry": {"type": "Polygon", "coordinates": [[[-88.41424, 20.62186], [-88.4138, 20.62184], [-88.41397, 20.6214], [-88.41429, 20.62141], [-88.41424, 20.62186]]]}}, {"id": "2426398", "type": "Feature", "properties": {"id": "2426398", "CVEGEO": "3104300010075004", "POBTOT": 50.0, "score_nse": 44.0291, "NSE": "C-", "VIVTOT": 14.0, "GRAPROES": 6.17, "_ent": "31", "_mun": "043", "_loc": "0001"}, "geometry": {"type": "Polygon", "coordinates": [[[-88.41355, 20.62035], [-88.41289, 20.62032], [-88.41276, 20.6188], [-88.41371, 20.61884], [-88.41355, 20.62035]]]}}, {"id": "2426399", "type": "Feature", "properties": {"id": "2426399", "CVEGEO": "3104300030056002", "POBTOT": 0.0, "score_nse": 0.0, "NSE": null, "VIVTOT": 0.0, "GRAPROES": 0.0, "_ent": "31", "_mun": "043", "_loc": "0003"}, "geometry": {"type": "Polygon", "coordinates": [[[-88.44177, 20.57369], [-88.4418, 20.57444], [-88.441, 20.57434], [-88.44104, 20.57411], [-88.44139, 20.57413], [-88.44157, 20.57367], [-88.44177, 20.57369]]]}}, {"id": "2426400", "type": "Feature", "properties": {"id": "2426400", "CVEGEO": "3104300010060042", "POBTOT": 46.0, "score_nse": 0.0, "NSE": "ND", "VIVTOT": 16.0, "GRAPROES": 6.59, "_ent": "31", "_mun": "043", "_loc": "0001"}, "geometry": {"type": "Polygon", "coordinates": [[[-88.42102, 20.61957], [-88.42077, 20.62103], [-88.41971, 20.62093], [-88.4199, 20.61986], [-88.42102, 20.61957]]]}}, {"id": "2426401", "type": "Feature", "properties": {"id": "2426401", "CVEGEO": "3104300010075001", "POBTOT": 56.0, "score_nse": 0.0, "NSE": "ND", "VIVTOT": 16.0, "GRAPROES": 7.95, "_ent": "31", "_mun": "043", "_loc": "0001"}, "geometry": {"type": "Polygon", "coordinates": [[[-88.41386, 20.62046], [-88.41381, 20.62127], [-88.41289, 20.62175], [-88.41287, 20.62043], [-88.41386, 20.62046]]]}}, {"id": "2426402", "type": "Feature", "properties": {"id": "2426402", "CVEGEO": "3104300060056007", "POBTOT": 0.0, "score_nse": 0.0, "NSE": null, "VIVTOT": 0.0, "GRAPROES": 0.0, "_ent": "31", "_mun": "043", "_loc": "0006"}, "geometry": {"type": "Polygon", "coordinates": [[[-88.43102, 20.56771], [-88.43107, 20.56586], [-88.43144, 20.56585], [-88.43147, 20.5661], [-88.4318, 20.56617], [-88.43189, 20.56771], [-88.43102, 20.56771]]]}}, {"id": "2426403", "type": "Feature", "properties": {"id": "2426403", "CVEGEO": "3104300010075009", "POBTOT": 18.0, "score_nse": 0.0, "NSE": "ND", "VIVTOT": 5.0, "GRAPROES": 9.85, "_ent": "31", "_mun": "043", "_loc": "0001"}, "geometry": {"type": "Polygon", "coordinates": [[[-88.41367, 20.62183], [-88.41317, 20.62182], [-88.41299, 20.6218], [-88.41382, 20.62141], [-88.41367, 20.62183]]]}}, {"id": "2426404", "type": "Feature", "properties": {"id": "2426404", "CVEGEO": "3104300010060030", "POBTOT": 81.0, "score_nse": 0.0, "NSE": "ND", "VIVTOT": 23.0, "GRAPROES": 7.28, "_ent": "31", "_mun": "043", "_loc": "0001"}, "geometry": {"type": "Polygon", "coordinates": [[[-88.41432, 20.62318], [-88.41616, 20.62315], [-88.41604, 20.62404], [-88.41436, 20.62385], [-88.41432, 20.62318]]]}}, {"id": "2426405", "type": "Feature", "properties": {"id": "2426405", "CVEGEO": "3104300010060037", "POBTOT": 8.0, "score_nse": 0.0, "NSE": "ND", "VIVTOT": 3.0, "GRAPROES": 8.33, "_ent": "31", "_mun": "043", "_loc": "0001"}, "geometry": {"type": "Polygon", "coordinates": [[[-88.42056, 20.62235], [-88.41946, 20.62226], [-88.41948, 20.62211], [-88.42057, 20.62217], [-88.42056, 20.62235]]]}}, {"id": "2426406", "type": "Feature", "properties": {"id": "2426406", "CVEGEO": "3104300010075010", "POBTOT": 43.0, "score_nse": 42.3433, "NSE": "C-", "VIVTOT": 11.0, "GRAPROES": 6.59, "_ent": "31", "_mun": "043", "_loc": "0001"}, "geometry": {"type": "Polygon", "coordinates": [[[-88.4112, 20.62188], [-88.41051, 20.62196], [-88.41041, 20.621], [-88.41134, 20.62101], [-88.4112, 20.62188]]]}}, {"id": "2426407", "type": "Feature", "properties": {"id": "2426407", "CVEGEO": "3104300060056012", "POBTOT": 0.0, "score_nse": 0.0, "NSE": null, "VIVTOT": 0.0, "GRAPROES": 0.0, "_ent": "31", "_mun": "043", "_loc": "0006"}, "geometry": {"type": "Polygon", "coordinates": [[[-88.4343, 20.56496], [-88.43396, 20.5657], [-88.43256, 20.56552], [-88.43295, 20.56465], [-88.4343, 20.56496]]]}}, {"id": "2426408", "type": "Feature", "properties": {"id": "2426408", "CVEGEO": "3104300010060007", "POBTOT": 11.0, "score_nse": 0.0, "NSE": "ND", "VIVTOT": 3.0, "GRAPROES": 0.0, "_ent": "31", "_mun": "043", "_loc": "0001"}, "geometry": {"type": "Polygon", "coordinates": [[[-88.41749, 20.62212], [-88.41751, 20.62195], [-88.41942, 20.6221], [-88.41941, 20.62227], [-88.41749, 20.62212]]]}}, {"id": "2426409", "type": "Feature", "properties": {"id": "2426409", "CVEGEO": "3104300030056003", "POBTOT": 0.0, "score_nse": 0.0, "NSE": null, "VIVTOT": 0.0, "GRAPROES": 0.0, "_ent": "31", "_mun": "043", "_loc": "0003"}, "geometry": {"type": "Polygon", "coordinates": [[[-88.44188, 20.57549], [-88.44197, 20.5746], [-88.44186, 20.5737], [-88.4424, 20.57388], [-88.44225, 20.57547], [-88.44188, 20.57549]]]}}, {"id": "2426410", "type": "Feature", "properties": {"id": "2426410", "CVEGEO": "3104300010060003", "POBTOT": 92.0, "score_nse": 0.0, "NSE": "ND", "VIVTOT": 23.0, "GRAPROES": 8.68, "_ent": "31", "_mun": "043", "_loc": "0001"}, "geometry": {"type": "Polygon", "coordinates": [[[-88.41642, 20.62002], [-88.41473, 20.62013], [-88.41488, 20.61887], [-88.41658, 20.61888], [-88.41642, 20.62002]]]}}, {"id": "2426411", "type": "Feature", "properties": {"id": "2426411", "CVEGEO": "3104300010075007", "POBTOT": 0.0, "score_nse": 0.0, "NSE": "ND", "VIVTOT": 0.0, "GRAPROES": 0.0, "_ent": "31", "_mun": "043", "_loc": "0001"}, "geometry": {"type": "Polygon", "coordinates": [[[-88.41456, 20.6204], [-88.41427, 20.62127], [-88.4139, 20.62127], [-88.41397, 20.6203], [-88.41456, 20.6204]]]}}, {"id": "2426412", "type": "Feature", "properties": {"id": "2426412", "CVEGEO": "3104300010060026", "POBTOT": 18.0, "score_nse": 0.0, "NSE": "ND", "VIVTOT": 8.0, "GRAPROES": 8.2, "_ent": "31", "_mun": "043", "_loc": "0001"}, "geometry": {"type": "Polygon", "coordinates": [[[-88.42084, 20.62398], [-88.42006, 20.62663], [-88.41969, 20.6266], [-88.41982, 20.62515], [-88.41928, 20.62509], [-88.41977, 20.62394], [-88.42084, 20.62398]]]}}, {"id": "2426413", "type": "Feature", "properties": {"id": "2426413", "CVEGEO": "3104300010060034", "POBTOT": 21.0, "score_nse": 0.0, "NSE": "ND", "VIVTOT": 7.0, "GRAPROES": 8.64, "_ent": "31", "_mun": "043", "_loc": "0001"}, "geometry": {"type": "Polygon", "coordinates": [[[-88.41963, 20.62659], [-88.41894, 20.62653], [-88.41878, 20.62604], [-88.41903, 20.62595], [-88.41925, 20.62514], [-88.41976, 20.62518], [-88.41975, 20.62569], [-88.41961, 20.62571], [-88.41963, 20.62659]]]}}, {"id": "2426414", "type": "Feature", "properties": {"id": "2426414", "CVEGEO": "3104300010075018", "POBTOT": 31.0, "score_nse": 33.584, "NSE": "D+", "VIVTOT": 10.0, "GRAPROES": 6.28, "_ent": "31", "_mun": "043", "_loc": "0001"}, "geometry": {"type": "Polygon", "coordinates": [[[-88.40725, 20.621], [-88.41029, 20.62098], [-88.41039, 20.62198], [-88.40721, 20.6225], [-88.40725, 20.621]]]}}, {"id": "2426415", "type": "Feature", "properties": {"id": "2426415", "CVEGEO": "3104300010060010", "POBTOT": 0.0, "score_nse": 0.0, "NSE": "ND", "VIVTOT": 0.0, "GRAPROES": 0.0, "_ent": "31", "_mun": "043", "_loc": "0001"}, "geometry": {"type": "Polygon", "coordinates": [[[-88.41466, 20.62025], [-88.41494, 20.6202], [-88.41468, 20.62134], [-88.41437, 20.62128], [-88.41466, 20.62025]]]}}, {"id": "2426416", "type": "Feature", "properties": {"id": "2426416", "CVEGEO": "3104300010060002", "POBTOT": 73.0, "score_nse": 49.819, "NSE": "C-", "VIVTOT": 21.0, "GRAPROES": 8.33, "_ent": "31", "_mun": "043", "_loc": "0001"}, "geometry": {"type": "Polygon", "coordinates": [[[-88.4163, 20.62176], [-88.41557, 20.62168], [-88.41472, 20.62136], [-88.41498, 20.6202], [-88.41636, 20.6201], [-88.4163, 20.62176]]]}}, {"id": "2426417", "type": "Feature", "properties": {"id": "2426417", "CVEGEO": "3104300010060011", "POBTOT": 65.0, "score_nse": 0.0, "NSE": "ND", "VIVTOT": 25.0, "GRAPROES": 6.64, "_ent": "31", "_mun": "043", "_loc": "0001"}, "geometry": {"type": "Polygon", "coordinates": [[[-88.41526, 20.61546], [-88.41515, 20.61459], [-88.41545, 20.6145], [-88.41514, 20.6145], [-88.4151, 20.61385], [-88.41607, 20.61409], [-88.41601, 20.6149], [-88.41707, 20.6154], [-88.41776, 20.61537], [-88.41665, 20.61874], [-88.41486, 20.61877], [-88.41526, 20.61546]]]}}, {"id": "2426418", "type": "Feature", "properties": {"id": "2426418", "CVEGEO": "3104300010075003", "POBTOT": 67.0, "score_nse": 0.0, "NSE": "ND", "VIVTOT": 17.0, "GRAPROES": 5.91, "_ent": "31", "_mun": "043", "_loc": "0001"}, "geometry": {"type": "Polygon", "coordinates": [[[-88.40868, 20.6204], [-88.40934, 20.6176], [-88.41136, 20.61771], [-88.41127, 20.61728], [-88.41256, 20.6173], [-88.41268, 20.61873], [-88.41224, 20.61873], [-88.41268, 20.61878], [-88.41275, 20.62034], [-88.4115, 20.6203], [-88.41133, 20.62083], [-88.40889, 20.62074], [-88.40868, 20.6204]]]}}, {"id": "2426419", "type": "Feature", "properties": {"id": "2426419", "CVEGEO": "3104300010060032", "POBTOT": 142.0, "score_nse": 40.2998, "NSE": "D+", "VIVTOT": 34.0, "GRAPROES": 7.14, "_ent": "31", "_mun": "043", "_loc": "0001"}, "geometry": {"type": "Polygon", "coordinates": [[[-88.41531, 20.625], [-88.4169, 20.62503], [-88.41681, 20.62561], [-88.41453, 20.62601], [-88.4144, 20.62394], [-88.41625, 20.62412], [-88.41614, 20.62496], [-88.41531, 20.625]]]}}, {"id": "2426420", "type": "Feature", "properties": {"id": "2426420", "CVEGEO": "3104300010060012", "POBTOT": 55.0, "score_nse": 0.0, "NSE": "ND", "VIVTOT": 25.0, "GRAPROES": 6.0, "_ent": "31", "_mun": "043", "_loc": "0001"}, "geometry": {"type": "Polygon", "coordinates": [[[-88.42, 20.61897], [-88.41674, 20.61874], [-88.41766, 20.61598], [-88.42183, 20.61693], [-88.42081, 20.61815], [-88.41957, 20.61773], [-88.41952, 20.61786], [-88.42072, 20.61824], [-88.42036, 20.61844], [-88.42, 20.61897]]]}}, {"id": "2426421", "type": "Feature", "properties": {"id": "2426421", "CVEGEO": "3104300010060021", "POBTOT": 10.0, "score_nse": 0.0, "NSE": "ND", "VIVTOT": 7.0, "GRAPROES": 5.75, "_ent": "31", "_mun": "043", "_loc": "0001"}, "geometry": {"type": "Polygon", "coordinates": [[[-88.41992, 20.61924], [-88.42131, 20.61761], [-88.42161, 20.6178], [-88.42149, 20.61938], [-88.4208, 20.61948], [-88.42076, 20.6187], [-88.42065, 20.61869], [-88.42076, 20.6195], [-88.41984, 20.61974], [-88.41992, 20.61924]]]}}, {"id": "2426422", "type": "Feature", "properties": {"id": "2426422", "CVEGEO": "3104300060056016", "POBTOT": 0.0, "score_nse": 0.0, "NSE": null, "VIVTOT": 0.0, "GRAPROES": 0.0, "_ent": "31", "_mun": "043", "_loc": "0006"}, "geometry": {"type": "Polygon", "coordinates": [[[-88.43385, 20.57077], [-88.43327, 20.57049], [-88.43282, 20.57005], [-88.43264, 20.56982], [-88.43282, 20.56965], [-88.43254, 20.56978], [-88.43213, 20.5689], [-88.43286, 20.56896], [-88.43479, 20.57128], [-88.4342, 20.57135], [-88.43385, 20.57077]]]}}, {"id": "2426423", "type": "Feature", "properties": {"id": "2426423", "CVEGEO": "3104300060056014", "POBTOT": 0.0, "score_nse": 0.0, "NSE": null, "VIVTOT": 0.0, "GRAPROES": 0.0, "_ent": "31", "_mun": "043", "_loc": "0006"}, "geometry": {"type": "Polygon", "coordinates": [[[-88.4325, 20.56774], [-88.43195, 20.56771], [-88.4319, 20.56652], [-88.43297, 20.56643], [-88.43294, 20.56703], [-88.43302, 20.56643], [-88.43381, 20.56629], [-88.43292, 20.56874], [-88.43211, 20.5688], [-88.43195, 20.56776], [-88.4325, 20.56774]]]}}, {"id": "2426424", "type": "Feature", "properties": {"id": "2426424", "CVEGEO": "3104300060056015", "POBTOT": 0.0, "score_nse": 0.0, "NSE": null, "VIVTOT": 0.0, "GRAPROES": 0.0, "_ent": "31", "_mun": "043", "_loc": "0006"}, "geometry": {"type": "Polygon", "coordinates": [[[-88.43012, 20.56853], [-88.43012, 20.56775], [-88.43092, 20.56775], [-88.43092, 20.56814], [-88.43096, 20.56775], [-88.43189, 20.56775], [-88.43195, 20.56858], [-88.43012, 20.56853]]]}}, {"id": "2426425", "type": "Feature", "properties": {"id": "2426425", "CVEGEO": "3104300060056010", "POBTOT": 0.0, "score_nse": 0.0, "NSE": null, "VIVTOT": 0.0, "GRAPROES": 0.0, "_ent": "31", "_mun": "043", "_loc": "0006"}, "geometry": {"type": "Polygon", "coordinates": [[[-88.43171, 20.56419], [-88.43309, 20.56424], [-88.43294, 20.56455], [-88.43162, 20.56482], [-88.43171, 20.56419]]]}}, {"id": "2426426", "type": "Feature", "properties": {"id": "2426426", "CVEGEO": "3104300060056009", "POBTOT": 0.0, "score_nse": 0.0, "NSE": null, "VIVTOT": 0.0, "GRAPROES": 0.0, "_ent": "31", "_mun": "043", "_loc": "0006"}, "geometry": {"type": "Polygon", "coordinates": [[[-88.43043, 20.56421], [-88.43166, 20.56421], [-88.43154, 20.56484], [-88.43025, 20.56478], [-88.43043, 20.56421]]]}}, {"id": "2426427", "type": "Feature", "properties": {"id": "2426427", "CVEGEO": "3104300010075017", "POBTOT": 1.0, "score_nse": 0.0, "NSE": "ND", "VIVTOT": 3.0, "GRAPROES": 0.0, "_ent": "31", "_mun": "043", "_loc": "0001"}, "geometry": {"type": "Polygon", "coordinates": [[[-88.40805, 20.62253], [-88.40868, 20.62241], [-88.40879, 20.623], [-88.40921, 20.62348], [-88.40791, 20.6241], [-88.40805, 20.62253]]]}}, {"id": "2426428", "type": "Feature", "properties": {"id": "2426428", "CVEGEO": "310430001008A002", "POBTOT": 4.0, "score_nse": 0.0, "NSE": "ND", "VIVTOT": 5.0, "GRAPROES": 0.0, "_ent": "31", "_mun": "043", "_loc": "0001"}, "geometry": {"type": "Polygon", "coordinates": [[[-88.42381, 20.62224], [-88.42327, 20.62222], [-88.42324, 20.62104], [-88.42377, 20.62107], [-88.42381, 20.62224]]]}}, {"id": "2426429", "type": "Feature", "properties": {"id": "2426429", "CVEGEO": "3104300010060039", "POBTOT": 5.0, "score_nse": 0.0, "NSE": "ND", "VIVTOT": 2.0, "GRAPROES": 0.0, "_ent": "31", "_mun": "043", "_loc": "0001"}, "geometry": {"type": "Polygon", "coordinates": [[[-88.422, 20.62121], [-88.42155, 20.62113], [-88.42163, 20.61941], [-88.42198, 20.61943], [-88.422, 20.62121]]]}}, {"id": "2426430", "type": "Feature", "properties": {"id": "2426430", "CVEGEO": "3104300010075005", "POBTOT": 48.0, "score_nse": 0.0, "NSE": "ND", "VIVTOT": 15.0, "GRAPROES": 7.77, "_ent": "31", "_mun": "043", "_loc": "0001"}, "geometry": {"type": "Polygon", "coordinates": [[[-88.41479, 20.61887], [-88.41459, 20.62031], [-88.41409, 20.62016], [-88.41412, 20.61995], [-88.41371, 20.61979], [-88.4138, 20.61885], [-88.41479, 20.61887]]]}}, {"id": "2426431", "type": "Feature", "properties": {"id": "2426431", "CVEGEO": "3104300060056013", "POBTOT": 0.0, "score_nse": 0.0, "NSE": null, "VIVTOT": 0.0, "GRAPROES": 0.0, "_ent": "31", "_mun": "043", "_loc": "0006"}, "geometry": {"type": "Polygon", "coordinates": [[[-88.43303, 20.56639], [-88.43318, 20.56567], [-88.43476, 20.56581], [-88.43469, 20.56623], [-88.43303, 20.56639]]]}}, {"id": "2426432", "type": "Feature", "properties": {"id": "2426432", "CVEGEO": "3104300060056008", "POBTOT": 0.0, "score_nse": 0.0, "NSE": null, "VIVTOT": 0.0, "GRAPROES": 0.0, "_ent": "31", "_mun": "043", "_loc": "0006"}, "geometry": {"type": "Polygon", "coordinates": [[[-88.43018, 20.56768], [-88.43016, 20.56573], [-88.43101, 20.56586], [-88.43091, 20.5668], [-88.43046, 20.56681], [-88.43091, 20.56685], [-88.43097, 20.5677], [-88.43018, 20.56768]]]}}, {"id": "2426433", "type": "Feature", "properties": {"id": "2426433", "CVEGEO": "3104300060056002", "POBTOT": 0.0, "score_nse": 0.0, "NSE": null, "VIVTOT": 0.0, "GRAPROES": 0.0, "_ent": "31", "_mun": "043", "_loc": "0006"}, "geometry": {"type": "Polygon", "coordinates": [[[-88.43027, 20.56484], [-88.43144, 20.56491], [-88.43145, 20.5658], [-88.43019, 20.56569], [-88.43027, 20.56484]]]}}, {"id": "2426434", "type": "Feature", "properties": {"id": "2426434", "CVEGEO": "310430001008A001", "POBTOT": 15.0, "score_nse": 0.0, "NSE": "ND", "VIVTOT": 5.0, "GRAPROES": 9.0, "_ent": "31", "_mun": "043", "_loc": "0001"}, "geometry": {"type": "Polygon", "coordinates": [[[-88.42314, 20.62223], [-88.42202, 20.62217], [-88.42212, 20.62089], [-88.42318, 20.62103], [-88.42314, 20.62223]]]}}, {"id": "2426435", "type": "Feature", "properties": {"id": "2426435", "CVEGEO": "3104300010075006", "POBTOT": 25.0, "score_nse": 0.0, "NSE": "ND", "VIVTOT": 7.0, "GRAPROES": 9.0, "_ent": "31", "_mun": "043", "_loc": "0001"}, "geometry": {"type": "Polygon", "coordinates": [[[-88.41402, 20.62023], [-88.41367, 20.62022], [-88.41372, 20.61987], [-88.41404, 20.61997], [-88.41402, 20.62023]]]}}, {"id": "2426436", "type": "Feature", "properties": {"id": "2426436", "CVEGEO": "3104300060056020", "POBTOT": 0.0, "score_nse": 0.0, "NSE": null, "VIVTOT": 0.0, "GRAPROES": 0.0, "_ent": "31", "_mun": "043", "_loc": "0006"}, "geometry": {"type": "Polygon", "coordinates": [[[-88.42985, 20.56458], [-88.4302, 20.56461], [-88.43012, 20.56565], [-88.42981, 20.5655], [-88.42994, 20.56529], [-88.42985, 20.56458]]]}}, {"id": "2426437", "type": "Feature", "properties": {"id": "2426437", "CVEGEO": "3104300010060016", "POBTOT": 0.0, "score_nse": 0.0, "NSE": "ND", "VIVTOT": 0.0, "GRAPROES": 0.0, "_ent": "31", "_mun": "043", "_loc": "0001"}, "geometry": {"type": "Polygon", "coordinates": [[[-88.41874, 20.622], [-88.41815, 20.62194], [-88.4182, 20.6215], [-88.41879, 20.62154], [-88.41874, 20.622]]]}}, {"id": "2426438", "type": "Feature", "properties": {"id": "2426438", "CVEGEO": "3104300010075021", "POBTOT": 63.0, "score_nse": 39.1861, "NSE": "D+", "VIVTOT": 23.0, "GRAPROES": 7.52, "_ent": "31", "_mun": "043", "_loc": "0001"}, "geometry": {"type": "Polygon", "coordinates": [[[-88.41154, 20.62699], [-88.4106, 20.6259], [-88.40796, 20.62418], [-88.40869, 20.6238], [-88.4089, 20.62411], [-88.40875, 20.62377], [-88.40928, 20.62354], [-88.40961, 20.62401], [-88.4107, 20.62458], [-88.41245, 20.62493], [-88.41201, 20.62589], [-88.41136, 20.62539], [-88.412, 20.62599], [-88.41188, 20.62672], [-88.41438, 20.62706], [-88.41435, 20.62762], [-88.41154, 20.62699]]]}}, {"id": "2426439", "type": "Feature", "properties": {"id": "2426439", "CVEGEO": "3104300060056011", "POBTOT": 0.0, "score_nse": 0.0, "NSE": null, "VIVTOT": 0.0, "GRAPROES": 0.0, "_ent": "31", "_mun": "043", "_loc": "0006"}, "geometry": {"type": "Polygon", "coordinates": [[[-88.43325, 20.56405], [-88.43354, 20.56389], [-88.43418, 20.56397], [-88.43394, 20.56471], [-88.43302, 20.56455], [-88.43325, 20.56405]]]}}, {"id": "2426440", "type": "Feature", "properties": {"id": "2426440", "CVEGEO": "3104300010075038", "POBTOT": 0.0, "score_nse": 0.0, "NSE": null, "VIVTOT": 0.0, "GRAPROES": 0.0, "_ent": "31", "_mun": "043", "_loc": "0001"}, "geometry": {"type": "Polygon", "coordinates": [[[-88.41329, 20.61711], [-88.41266, 20.6172], [-88.4124, 20.61591], [-88.41249, 20.61484], [-88.41337, 20.61496], [-88.41329, 20.61711]]]}}, {"id": "2426441", "type": "Feature", "properties": {"id": "2426441", "CVEGEO": "3104300010075042", "POBTOT": 34.0, "score_nse": 0.0, "NSE": "ND", "VIVTOT": 11.0, "GRAPROES": 5.95, "_ent": "31", "_mun": "043", "_loc": "0001"}, "geometry": {"type": "Polygon", "coordinates": [[[-88.4125, 20.61421], [-88.41436, 20.61411], [-88.41434, 20.6151], [-88.41249, 20.61478], [-88.4125, 20.61421]]]}}, {"id": "2426442", "type": "Feature", "properties": {"id": "2426442", "CVEGEO": "3104300060056017", "POBTOT": 0.0, "score_nse": 0.0, "NSE": null, "VIVTOT": 0.0, "GRAPROES": 0.0, "_ent": "31", "_mun": "043", "_loc": "0006"}, "geometry": {"type": "Polygon", "coordinates": [[[-88.43305, 20.5723], [-88.43268, 20.57135], [-88.43163, 20.57157], [-88.43142, 20.56965], [-88.43166, 20.56938], [-88.43168, 20.56861], [-88.43194, 20.56863], [-88.43246, 20.56974], [-88.43177, 20.5697], [-88.43217, 20.56991], [-88.43249, 20.5698], [-88.43336, 20.57196], [-88.433, 20.57285], [-88.43233, 20.573], [-88.43226, 20.57266], [-88.4327, 20.5726], [-88.43305, 20.5723]]]}}, {"id": "2426443", "type": "Feature", "properties": {"id": "2426443", "CVEGEO": "3104300060056005", "POBTOT": 0.0, "score_nse": 0.0, "NSE": null, "VIVTOT": 0.0, "GRAPROES": 0.0, "_ent": "31", "_mun": "043", "_loc": "0006"}, "geometry": {"type": "Polygon", "coordinates": [[[-88.43287, 20.56468], [-88.43242, 20.56556], [-88.43207, 20.5656], [-88.43204, 20.56541], [-88.43151, 20.56538], [-88.43154, 20.5649], [-88.43287, 20.56468]]]}}]}