{"type": "FeatureCollection", "features": [{"id": "2453047", "type": "Feature", "properties": {"id": "2453047", "CVEGEO": "3108200010054037", "POBTOT": 34.0, "score_nse": 0.0, "NSE": "ND", "VIVTOT": 13.0, "GRAPROES": 8.3, "_ent": "31", "_mun": "082", "_loc": "0001"}, "geometry": {"type": "Polygon", "coordinates": [[[-89.27066, 21.20905], [-89.27195, 21.20917], [-89.27181, 21.21042], [-89.27051, 21.21023], [-89.27066, 21.20905]]]}}, {"id": "2453048", "type": "Feature", "properties": {"id": "2453048", "CVEGEO": "310820001004A001", "POBTOT": 40.0, "score_nse": 0.0, "NSE": "ND", "VIVTOT": 15.0, "GRAPROES": 8.45, "_ent": "31", "_mun": "082", "_loc": "0001"}, "geometry": {"type": "Polygon", "coordinates": [[[-89.27306, 21.19671], [-89.27293, 21.19749], [-89.27146, 21.19724], [-89.27154, 21.19653], [-89.27306, 21.19671]]]}}, {"id": "2453049", "type": "Feature", "properties": {"id": "2453049", "CVEGEO": "310820001004A016", "POBTOT": 32.0, "score_nse": 43.8151, "NSE": "C-", "VIVTOT": 23.0, "GRAPROES": 9.03, "_ent": "31", "_mun": "082", "_loc": "0001"}, "geometry": {"type": "Polygon", "coordinates": [[[-89.2771, 21.20473], [-89.277, 21.20564], [-89.27539, 21.20528], [-89.27551, 21.20437], [-89.2771, 21.20473]]]}}, {"id": "2453050", "type": "Feature", "properties": {"id": "2453050", "CVEGEO": "3108200010054043", "POBTOT": 5.0, "score_nse": 0.0, "NSE": "ND", "VIVTOT": 2.0, "GRAPROES": 0.0, "_ent": "31", "_mun": "082", "_loc": "0001"}, "geometry": {"type": "Polygon", "coordinates": [[[-89.26773, 21.2072], [-89.26808, 21.20725], [-89.26806, 21.20771], [-89.26755, 21.20768], [-89.26773, 21.2072]]]}}, {"id": "2453051", "type": "Feature", "properties": {"id": "2453051", "CVEGEO": "3108200010069006", "POBTOT": 33.0, "score_nse": 0.0, "NSE": "ND", "VIVTOT": 16.0, "GRAPROES": 10.28, "_ent": "31", "_mun": "082", "_loc": "0001"}, "geometry": {"type": "Polygon", "coordinates": [[[-89.26659, 21.20279], [-89.268, 21.2029], [-89.26795, 21.20435], [-89.26652, 21.20416], [-89.26659, 21.20279]]]}}, {"id": "2453052", "type": "Feature", "properties": {"id": "2453052", "CVEGEO": "3108200010054032", "POBTOT": 49.0, "score_nse": 0.0, "NSE": "ND", "VIVTOT": 20.0, "GRAPROES": 8.87, "_ent": "31", "_mun": "082", "_loc": "0001"}, "geometry": {"type": "Polygon", "coordinates": [[[-89.27076, 21.20758], [-89.27208, 21.20781], [-89.27199, 21.20891], [-89.27179, 21.20905], [-89.2707, 21.20896], [-89.27076, 21.20758]]]}}, {"id": "2453053", "type": "Feature", "properties": {"id": "2453053", "CVEGEO": "310820001004A006", "POBTOT": 56.0, "score_nse": 46.76, "NSE": "C-", "VIVTOT": 30.0, "GRAPROES": 9.19, "_ent": "31", "_mun": "082", "_loc": "0001"}, "geometry": {"type": "Polygon", "coordinates": [[[-89.27541, 21.19703], [-89.27447, 21.19828], [-89.27431, 21.20014], [-89.27285, 21.20001], [-89.27317, 21.19666], [-89.2733, 21.19656], [-89.27541, 21.19703]]]}}, {"id": "2453054", "type": "Feature", "properties": {"id": "2453054", "CVEGEO": "310820001004A013", "POBTOT": 5.0, "score_nse": 0.0, "NSE": "ND", "VIVTOT": 2.0, "GRAPROES": 0.0, "_ent": "31", "_mun": "082", "_loc": "0001"}, "geometry": {"type": "Polygon", "coordinates": [[[-89.27609, 21.19894], [-89.27963, 21.19919], [-89.27946, 21.20059], [-89.27589, 21.20026], [-89.27609, 21.19894]]]}}, {"id": "2453055", "type": "Feature", "properties": {"id": "2453055", "CVEGEO": "3108200010054005", "POBTOT": 23.0, "score_nse": 0.0, "NSE": "ND", "VIVTOT": 19.0, "GRAPROES": 10.39, "_ent": "31", "_mun": "082", "_loc": "0001"}, "geometry": {"type": "Polygon", "coordinates": [[[-89.27555, 21.20313], [-89.27543, 21.20424], [-89.27409, 21.20396], [-89.2742, 21.20307], [-89.27555, 21.20313]]]}}, {"id": "2453056", "type": "Feature", "properties": {"id": "2453056", "CVEGEO": "310820001004A017", "POBTOT": 42.0, "score_nse": 41.84, "NSE": "D+", "VIVTOT": 24.0, "GRAPROES": 7.52, "_ent": "31", "_mun": "082", "_loc": "0001"}, "geometry": {"type": "Polygon", "coordinates": [[[-89.27532, 21.20532], [-89.27526, 21.2067], [-89.27382, 21.20652], [-89.27394, 21.20516], [-89.27532, 21.20532]]]}}, {"id": "2453057", "type": "Feature", "properties": {"id": "2453057", "CVEGEO": "3108200010069030", "POBTOT": 6.0, "score_nse": 0.0, "NSE": "ND", "VIVTOT": 6.0, "GRAPROES": 0.0, "_ent": "31", "_mun": "082", "_loc": "0001"}, "geometry": {"type": "Polygon", "coordinates": [[[-89.26203, 21.20239], [-89.25948, 21.2022], [-89.25883, 21.20214], [-89.25907, 21.20143], [-89.26205, 21.20163], [-89.26203, 21.20239]]]}}, {"id": "2453058", "type": "Feature", "properties": {"id": "2453058", "CVEGEO": "3108200010054009", "POBTOT": 74.0, "score_nse": 53.0023, "NSE": "C-", "VIVTOT": 33.0, "GRAPROES": 9.19, "_ent": "31", "_mun": "082", "_loc": "0001"}, "geometry": {"type": "Polygon", "coordinates": [[[-89.26941, 21.20595], [-89.26949, 21.20463], [-89.271, 21.20479], [-89.27079, 21.2061], [-89.26941, 21.20595]]]}}, {"id": "2453059", "type": "Feature", "properties": {"id": "2453059", "CVEGEO": "3108200010069026", "POBTOT": 27.0, "score_nse": 0.0, "NSE": "ND", "VIVTOT": 15.0, "GRAPROES": 9.19, "_ent": "31", "_mun": "082", "_loc": "0001"}, "geometry": {"type": "Polygon", "coordinates": [[[-89.2657, 21.2097], [-89.26596, 21.209], [-89.26459, 21.20892], [-89.26297, 21.20817], [-89.26319, 21.2068], [-89.26625, 21.20701], [-89.26604, 21.2084], [-89.26471, 21.20826], [-89.26665, 21.20853], [-89.26618, 21.20969], [-89.2657, 21.2097]]]}}, {"id": "2453060", "type": "Feature", "properties": {"id": "2453060", "CVEGEO": "3108200010069005", "POBTOT": 60.0, "score_nse": 39.843, "NSE": "D+", "VIVTOT": 32.0, "GRAPROES": 8.19, "_ent": "31", "_mun": "082", "_loc": "0001"}, "geometry": {"type": "Polygon", "coordinates": [[[-89.26674, 21.20102], [-89.26818, 21.20109], [-89.268, 21.20283], [-89.26662, 21.20272], [-89.26674, 21.20102]]]}}, {"id": "2453061", "type": "Feature", "properties": {"id": "2453061", "CVEGEO": "3108200010069015", "POBTOT": 40.0, "score_nse": 0.0, "NSE": "ND", "VIVTOT": 24.0, "GRAPROES": 7.67, "_ent": "31", "_mun": "082", "_loc": "0001"}, "geometry": {"type": "Polygon", "coordinates": [[[-89.26673, 21.20094], [-89.26688, 21.19961], [-89.26824, 21.19969], [-89.26819, 21.20104], [-89.26673, 21.20094]]]}}, {"id": "2453062", "type": "Feature", "properties": {"id": "2453062", "CVEGEO": "3108200010069002", "POBTOT": 41.0, "score_nse": 0.0, "NSE": "ND", "VIVTOT": 18.0, "GRAPROES": 6.68, "_ent": "31", "_mun": "082", "_loc": "0001"}, "geometry": {"type": "Polygon", "coordinates": [[[-89.26352, 21.20385], [-89.26363, 21.2026], [-89.26499, 21.20269], [-89.26488, 21.20399], [-89.26352, 21.20385]]]}}, {"id": "2453063", "type": "Feature", "properties": {"id": "2453063", "CVEGEO": "310820001004A024", "POBTOT": 0.0, "score_nse": 10.0, "NSE": "E", "VIVTOT": 2.0, "GRAPROES": 0.0, "_ent": "31", "_mun": "082", "_loc": "0001"}, "geometry": {"type": "Polygon", "coordinates": [[[-89.27893, 21.20504], [-89.27925, 21.20282], [-89.28185, 21.20409], [-89.28168, 21.2056], [-89.27893, 21.20504]]]}}, {"id": "2453064", "type": "Feature", "properties": {"id": "2453064", "CVEGEO": "3108200010054006", "POBTOT": 48.0, "score_nse": 57.4347, "NSE": "C", "VIVTOT": 19.0, "GRAPROES": 9.41, "_ent": "31", "_mun": "082", "_loc": "0001"}, "geometry": {"type": "Polygon", "coordinates": [[[-89.27399, 21.20511], [-89.2741, 21.20407], [-89.27541, 21.20434], [-89.27531, 21.20527], [-89.27399, 21.20511]]]}}, {"id": "2453065", "type": "Feature", "properties": {"id": "2453065", "CVEGEO": "3108200010069001", "POBTOT": 45.0, "score_nse": 0.0, "NSE": "ND", "VIVTOT": 23.0, "GRAPROES": 8.13, "_ent": "31", "_mun": "082", "_loc": "0001"}, "geometry": {"type": "Polygon", "coordinates": [[[-89.2665, 21.20284], [-89.26639, 21.20415], [-89.26499, 21.20402], [-89.26508, 21.20268], [-89.2665, 21.20284]]]}}, {"id": "2453066", "type": "Feature", "properties": {"id": "2453066", "CVEGEO": "3108200010054014", "POBTOT": 49.0, "score_nse": 50.152, "NSE": "C-", "VIVTOT": 30.0, "GRAPROES": 10.62, "_ent": "31", "_mun": "082", "_loc": "0001"}, "geometry": {"type": "Polygon", "coordinates": [[[-89.27425, 21.20153], [-89.27418, 21.20297], [-89.27267, 21.20295], [-89.27277, 21.20142], [-89.27425, 21.20153]]]}}, {"id": "2453067", "type": "Feature", "properties": {"id": "2453067", "CVEGEO": "3108200010069024", "POBTOT": 22.0, "score_nse": 0.0, "NSE": "ND", "VIVTOT": 12.0, "GRAPROES": 9.61, "_ent": "31", "_mun": "082", "_loc": "0001"}, "geometry": {"type": "Polygon", "coordinates": [[[-89.26544, 21.19875], [-89.26535, 21.19949], [-89.26395, 21.19945], [-89.26402, 21.19863], [-89.26544, 21.19875]]]}}, {"id": "2453068", "type": "Feature", "properties": {"id": "2453068", "CVEGEO": "310820001004A020", "POBTOT": 74.0, "score_nse": 47.4198, "NSE": "C-", "VIVTOT": 39.0, "GRAPROES": 9.89, "_ent": "31", "_mun": "082", "_loc": "0001"}, "geometry": {"type": "Polygon", "coordinates": [[[-89.27176, 21.21229], [-89.27204, 21.20921], [-89.27416, 21.20936], [-89.27346, 21.20921], [-89.27362, 21.20794], [-89.27487, 21.20803], [-89.27517, 21.20782], [-89.27532, 21.20733], [-89.2754, 21.20534], [-89.27698, 21.20571], [-89.27686, 21.20664], [-89.27712, 21.20667], [-89.2769, 21.2066], [-89.27717, 21.20475], [-89.27891, 21.20512], [-89.27867, 21.20715], [-89.27663, 21.20703], [-89.27657, 21.20811], [-89.2754, 21.20802], [-89.27518, 21.20941], [-89.27552, 21.20943], [-89.27543, 21.21055], [-89.27385, 21.21038], [-89.27368, 21.21248], [-89.27176, 21.21229]]]}}, {"id": "2453069", "type": "Feature", "properties": {"id": "2453069", "CVEGEO": "3108200010069009", "POBTOT": 18.0, "score_nse": 0.0, "NSE": "ND", "VIVTOT": 11.0, "GRAPROES": 6.17, "_ent": "31", "_mun": "082", "_loc": "0001"}, "geometry": {"type": "Polygon", "coordinates": [[[-89.26486, 21.20405], [-89.2648, 21.20539], [-89.26342, 21.20524], [-89.26353, 21.20392], [-89.26486, 21.20405]]]}}, {"id": "2453070", "type": "Feature", "properties": {"id": "2453070", "CVEGEO": "3108200010054008", "POBTOT": 59.0, "score_nse": 0.0, "NSE": "ND", "VIVTOT": 28.0, "GRAPROES": 8.77, "_ent": "31", "_mun": "082", "_loc": "0001"}, "geometry": {"type": "Polygon", "coordinates": [[[-89.27107, 21.20481], [-89.27235, 21.20504], [-89.27223, 21.2063], [-89.27093, 21.20611], [-89.27107, 21.20481]]]}}, {"id": "2453071", "type": "Feature", "properties": {"id": "2453071", "CVEGEO": "3108200010069013", "POBTOT": 48.0, "score_nse": 0.0, "NSE": "ND", "VIVTOT": 21.0, "GRAPROES": 7.18, "_ent": "31", "_mun": "082", "_loc": "0001"}, "geometry": {"type": "Polygon", "coordinates": [[[-89.26393, 21.19952], [-89.26532, 21.19955], [-89.26519, 21.20087], [-89.26383, 21.2008], [-89.26393, 21.19952]]]}}, {"id": "2453072", "type": "Feature", "properties": {"id": "2453072", "CVEGEO": "3108200010069029", "POBTOT": 28.0, "score_nse": 25.8628, "NSE": "D", "VIVTOT": 13.0, "GRAPROES": 5.25, "_ent": "31", "_mun": "082", "_loc": "0001"}, "geometry": {"type": "Polygon", "coordinates": [[[-89.26402, 21.19859], [-89.26432, 21.19753], [-89.26489, 21.19769], [-89.2648, 21.19864], [-89.26402, 21.19859]]]}}, {"id": "2453073", "type": "Feature", "properties": {"id": "2453073", "CVEGEO": "3108200010069003", "POBTOT": 91.0, "score_nse": 42.2124, "NSE": "C-", "VIVTOT": 37.0, "GRAPROES": 8.54, "_ent": "31", "_mun": "082", "_loc": "0001"}, "geometry": {"type": "Polygon", "coordinates": [[[-89.26521, 21.20095], [-89.265, 21.20259], [-89.26364, 21.2025], [-89.2638, 21.20087], [-89.26521, 21.20095]]]}}, {"id": "2453074", "type": "Feature", "properties": {"id": "2453074", "CVEGEO": "3108200010054027", "POBTOT": 58.0, "score_nse": 47.2265, "NSE": "C-", "VIVTOT": 26.0, "GRAPROES": 9.82, "_ent": "31", "_mun": "082", "_loc": "0001"}, "geometry": {"type": "Polygon", "coordinates": [[[-89.27435, 21.2002], [-89.27428, 21.20147], [-89.2728, 21.20135], [-89.27289, 21.20007], [-89.27435, 21.2002]]]}}, {"id": "2453075", "type": "Feature", "properties": {"id": "2453075", "CVEGEO": "3108200010069011", "POBTOT": 61.0, "score_nse": 0.0, "NSE": "ND", "VIVTOT": 26.0, "GRAPROES": 7.96, "_ent": "31", "_mun": "082", "_loc": "0001"}, "geometry": {"type": "Polygon", "coordinates": [[[-89.26212, 21.20245], [-89.26356, 21.2026], [-89.26345, 21.20383], [-89.26209, 21.2037], [-89.26212, 21.20245]]]}}, {"id": "2453076", "type": "Feature", "properties": {"id": "2453076", "CVEGEO": "3108200010054019", "POBTOT": 36.0, "score_nse": 40.0685, "NSE": "D+", "VIVTOT": 23.0, "GRAPROES": 7.11, "_ent": "31", "_mun": "082", "_loc": "0001"}, "geometry": {"type": "Polygon", "coordinates": [[[-89.27078, 21.20619], [-89.27071, 21.20751], [-89.26926, 21.20735], [-89.26939, 21.20602], [-89.27078, 21.20619]]]}}, {"id": "2453077", "type": "Feature", "properties": {"id": "2453077", "CVEGEO": "310820001004A004", "POBTOT": 45.0, "score_nse": 46.976, "NSE": "C-", "VIVTOT": 22.0, "GRAPROES": 10.38, "_ent": "31", "_mun": "082", "_loc": "0001"}, "geometry": {"type": "Polygon", "coordinates": [[[-89.27351, 21.19206], [-89.27309, 21.1966], [-89.27155, 21.19647], [-89.27188, 21.19188], [-89.27351, 21.19206]]]}}, {"id": "2453078", "type": "Feature", "properties": {"id": "2453078", "CVEGEO": "3108200010054012", "POBTOT": 39.0, "score_nse": 43.2581, "NSE": "C-", "VIVTOT": 27.0, "GRAPROES": 8.65, "_ent": "31", "_mun": "082", "_loc": "0001"}, "geometry": {"type": "Polygon", "coordinates": [[[-89.2711, 21.20297], [-89.26964, 21.20293], [-89.26973, 21.20122], [-89.27118, 21.2013], [-89.2711, 21.20297]]]}}, {"id": "2453079", "type": "Feature", "properties": {"id": "2453079", "CVEGEO": "3108200010054033", "POBTOT": 64.0, "score_nse": 48.4782, "NSE": "C-", "VIVTOT": 26.0, "GRAPROES": 10.24, "_ent": "31", "_mun": "082", "_loc": "0001"}, "geometry": {"type": "Polygon", "coordinates": [[[-89.26906, 21.20876], [-89.26923, 21.20741], [-89.27067, 21.20757], [-89.27059, 21.20893], [-89.26906, 21.20876]]]}}, {"id": "2453080", "type": "Feature", "properties": {"id": "2453080", "CVEGEO": "3108200010054031", "POBTOT": 31.0, "score_nse": 45.5518, "NSE": "C-", "VIVTOT": 17.0, "GRAPROES": 9.19, "_ent": "31", "_mun": "082", "_loc": "0001"}, "geometry": {"type": "Polygon", "coordinates": [[[-89.27219, 21.20775], [-89.27354, 21.20793], [-89.27334, 21.20922], [-89.27209, 21.209], [-89.27219, 21.20775]]]}}, {"id": "2453081", "type": "Feature", "properties": {"id": "2453081", "CVEGEO": "3108200010054007", "POBTOT": 50.0, "score_nse": 44.8947, "NSE": "C-", "VIVTOT": 30.0, "GRAPROES": 8.64, "_ent": "31", "_mun": "082", "_loc": "0001"}, "geometry": {"type": "Polygon", "coordinates": [[[-89.27243, 21.20498], [-89.27389, 21.20522], [-89.27373, 21.20649], [-89.27236, 21.20631], [-89.27243, 21.20498]]]}}, {"id": "2453082", "type": "Feature", "properties": {"id": "2453082", "CVEGEO": "3108200010069017", "POBTOT": 32.0, "score_nse": 0.0, "NSE": "ND", "VIVTOT": 12.0, "GRAPROES": 10.22, "_ent": "31", "_mun": "082", "_loc": "0001"}, "geometry": {"type": "Polygon", "coordinates": [[[-89.26487, 21.20545], [-89.26633, 21.20562], [-89.26624, 21.20695], [-89.26481, 21.20678], [-89.26487, 21.20545]]]}}, {"id": "2453083", "type": "Feature", "properties": {"id": "2453083", "CVEGEO": "3108200010069031", "POBTOT": 23.0, "score_nse": 0.0, "NSE": "ND", "VIVTOT": 11.0, "GRAPROES": 9.36, "_ent": "31", "_mun": "082", "_loc": "0001"}, "geometry": {"type": "Polygon", "coordinates": [[[-89.26766, 21.20721], [-89.26711, 21.20852], [-89.26612, 21.20839], [-89.2663, 21.20702], [-89.26766, 21.20721]]]}}, {"id": "2453084", "type": "Feature", "properties": {"id": "2453084", "CVEGEO": "3108200010069010", "POBTOT": 5.0, "score_nse": 0.0, "NSE": "ND", "VIVTOT": 8.0, "GRAPROES": 0.0, "_ent": "31", "_mun": "082", "_loc": "0001"}, "geometry": {"type": "Polygon", "coordinates": [[[-89.25581, 21.20524], [-89.25618, 21.20403], [-89.25663, 21.20408], [-89.25713, 21.2025], [-89.25788, 21.20231], [-89.26202, 21.20245], [-89.26205, 21.20375], [-89.26346, 21.20391], [-89.26334, 21.20524], [-89.2595, 21.20505], [-89.25727, 21.20516], [-89.25678, 21.20536], [-89.25581, 21.20524]]]}}, {"id": "2453085", "type": "Feature", "properties": {"id": "2453085", "CVEGEO": "3108200010054004", "POBTOT": 27.0, "score_nse": 47.398, "NSE": "C-", "VIVTOT": 20.0, "GRAPROES": 8.74, "_ent": "31", "_mun": "082", "_loc": "0001"}, "geometry": {"type": "Polygon", "coordinates": [[[-89.27263, 21.20302], [-89.27413, 21.20307], [-89.274, 21.20394], [-89.27255, 21.20365], [-89.27263, 21.20302]]]}}, {"id": "2453086", "type": "Feature", "properties": {"id": "2453086", "CVEGEO": "3108200010054035", "POBTOT": 70.0, "score_nse": 0.0, "NSE": "ND", "VIVTOT": 35.0, "GRAPROES": 8.74, "_ent": "31", "_mun": "082", "_loc": "0001"}, "geometry": {"type": "Polygon", "coordinates": [[[-89.27127, 21.19988], [-89.26975, 21.19973], [-89.26983, 21.19845], [-89.27132, 21.1986], [-89.27127, 21.19988]]]}}, {"id": "2453087", "type": "Feature", "properties": {"id": "2453087", "CVEGEO": "3108200010054002", "POBTOT": 17.0, "score_nse": 46.954, "NSE": "C-", "VIVTOT": 20.0, "GRAPROES": 10.93, "_ent": "31", "_mun": "082", "_loc": "0001"}, "geometry": {"type": "Polygon", "coordinates": [[[-89.27115, 21.20367], [-89.2724, 21.20369], [-89.27236, 21.2049], [-89.27107, 21.20474], [-89.27115, 21.20367]]]}}, {"id": "2453088", "type": "Feature", "properties": {"id": "2453088", "CVEGEO": "310820001004A023", "POBTOT": 0.0, "score_nse": 0.0, "NSE": "ND", "VIVTOT": 0.0, "GRAPROES": 0.0, "_ent": "31", "_mun": "082", "_loc": "0001"}, "geometry": {"type": "Polygon", "coordinates": [[[-89.27951, 21.20069], [-89.28217, 21.20103], [-89.28185, 21.20401], [-89.27924, 21.20275], [-89.27951, 21.20069]]]}}, {"id": "2453089", "type": "Feature", "properties": {"id": "2453089", "CVEGEO": "3108200010069023", "POBTOT": 68.0, "score_nse": 0.0, "NSE": "ND", "VIVTOT": 22.0, "GRAPROES": 8.37, "_ent": "31", "_mun": "082", "_loc": "0001"}, "geometry": {"type": "Polygon", "coordinates": [[[-89.26395, 21.19864], [-89.26371, 21.20082], [-89.26267, 21.20075], [-89.26295, 21.19863], [-89.26395, 21.19864]]]}}, {"id": "2453090", "type": "Feature", "properties": {"id": "2453090", "CVEGEO": "3108200010054030", "POBTOT": 62.0, "score_nse": 0.0, "NSE": "ND", "VIVTOT": 19.0, "GRAPROES": 8.64, "_ent": "31", "_mun": "082", "_loc": "0001"}, "geometry": {"type": "Polygon", "coordinates": [[[-89.27897, 21.20431], [-89.27885, 21.20502], [-89.27719, 21.20468], [-89.27729, 21.20401], [-89.27897, 21.20431]]]}}, {"id": "2453091", "type": "Feature", "properties": {"id": "2453091", "CVEGEO": "3108200010054034", "POBTOT": 31.0, "score_nse": 0.0, "NSE": "ND", "VIVTOT": 17.0, "GRAPROES": 9.57, "_ent": "31", "_mun": "082", "_loc": "0001"}, "geometry": {"type": "Polygon", "coordinates": [[[-89.26811, 21.20785], [-89.26813, 21.20726], [-89.26913, 21.2074], [-89.26896, 21.20875], [-89.26723, 21.20853], [-89.26752, 21.20774], [-89.26811, 21.20785]]]}}, {"id": "2453092", "type": "Feature", "properties": {"id": "2453092", "CVEGEO": "3108200010054017", "POBTOT": 64.0, "score_nse": 0.0, "NSE": "ND", "VIVTOT": 28.0, "GRAPROES": 7.06, "_ent": "31", "_mun": "082", "_loc": "0001"}, "geometry": {"type": "Polygon", "coordinates": [[[-89.27373, 21.20656], [-89.27355, 21.20784], [-89.27218, 21.20768], [-89.27232, 21.20637], [-89.27373, 21.20656]]]}}, {"id": "2453093", "type": "Feature", "properties": {"id": "2453093", "CVEGEO": "3108200010069028", "POBTOT": 2.0, "score_nse": 0.0, "NSE": "ND", "VIVTOT": 3.0, "GRAPROES": 0.0, "_ent": "31", "_mun": "082", "_loc": "0001"}, "geometry": {"type": "Polygon", "coordinates": [[[-89.2593, 21.19979], [-89.25873, 21.20218], [-89.25802, 21.2022], [-89.25704, 21.20134], [-89.25712, 21.20024], [-89.25841, 21.2004], [-89.25854, 21.19917], [-89.25893, 21.19919], [-89.2593, 21.19979]]]}}, {"id": "2453094", "type": "Feature", "properties": {"id": "2453094", "CVEGEO": "3108200010054011", "POBTOT": 1.0, "score_nse": 0.0, "NSE": "ND", "VIVTOT": 1.0, "GRAPROES": 0.0, "_ent": "31", "_mun": "082", "_loc": "0001"}, "geometry": {"type": "Polygon", "coordinates": [[[-89.27107, 21.2031], [-89.27102, 21.20361], [-89.26964, 21.20358], [-89.26965, 21.20303], [-89.27107, 21.2031]]]}}, {"id": "2453095", "type": "Feature", "properties": {"id": "2453095", "CVEGEO": "310820001004A022", "POBTOT": 22.0, "score_nse": 0.0, "NSE": "ND", "VIVTOT": 10.0, "GRAPROES": 8.61, "_ent": "31", "_mun": "082", "_loc": "0001"}, "geometry": {"type": "Polygon", "coordinates": [[[-89.27495, 21.20796], [-89.27363, 21.20786], [-89.27379, 21.20657], [-89.27526, 21.20676], [-89.27517, 21.20777], [-89.27495, 21.20796]]]}}, {"id": "2453096", "type": "Feature", "properties": {"id": "2453096", "CVEGEO": "3108200010069021", "POBTOT": 29.0, "score_nse": 0.0, "NSE": "ND", "VIVTOT": 16.0, "GRAPROES": 8.92, "_ent": "31", "_mun": "082", "_loc": "0001"}, "geometry": {"type": "Polygon", "coordinates": [[[-89.25929, 21.20045], [-89.26207, 21.20078], [-89.26205, 21.20157], [-89.25909, 21.20135], [-89.25929, 21.20045]]]}}, {"id": "2453097", "type": "Feature", "properties": {"id": "2453097", "CVEGEO": "3108200010054028", "POBTOT": 39.0, "score_nse": 0.0, "NSE": "ND", "VIVTOT": 17.0, "GRAPROES": 9.39, "_ent": "31", "_mun": "082", "_loc": "0001"}, "geometry": {"type": "Polygon", "coordinates": [[[-89.27578, 21.20031], [-89.27572, 21.20159], [-89.27436, 21.20147], [-89.27444, 21.2002], [-89.27578, 21.20031]]]}}, {"id": "2453098", "type": "Feature", "properties": {"id": "2453098", "CVEGEO": "3108200010069007", "POBTOT": 48.0, "score_nse": 0.0, "NSE": "ND", "VIVTOT": 28.0, "GRAPROES": 8.05, "_ent": "31", "_mun": "082", "_loc": "0001"}, "geometry": {"type": "Polygon", "coordinates": [[[-89.26794, 21.20449], [-89.26783, 21.20573], [-89.26644, 21.20556], [-89.2665, 21.20425], [-89.26794, 21.20449]]]}}, {"id": "2453099", "type": "Feature", "properties": {"id": "2453099", "CVEGEO": "3108200010069012", "POBTOT": 83.0, "score_nse": 46.2473, "NSE": "C-", "VIVTOT": 36.0, "GRAPROES": 8.97, "_ent": "31", "_mun": "082", "_loc": "0001"}, "geometry": {"type": "Polygon", "coordinates": [[[-89.26372, 21.20087], [-89.26357, 21.2025], [-89.2621, 21.20239], [-89.26215, 21.20079], [-89.26372, 21.20087]]]}}, {"id": "2453100", "type": "Feature", "properties": {"id": "2453100", "CVEGEO": "3108200010054022", "POBTOT": 27.0, "score_nse": 0.0, "NSE": "ND", "VIVTOT": 25.0, "GRAPROES": 8.7, "_ent": "31", "_mun": "082", "_loc": "0001"}, "geometry": {"type": "Polygon", "coordinates": [[[-89.26953, 21.20301], [-89.26942, 21.20452], [-89.26798, 21.20436], [-89.26811, 21.20291], [-89.26953, 21.20301]]]}}, {"id": "2453101", "type": "Feature", "properties": {"id": "2453101", "CVEGEO": "3108200010054015", "POBTOT": 37.0, "score_nse": 62.3093, "NSE": "C", "VIVTOT": 15.0, "GRAPROES": 12.26, "_ent": "31", "_mun": "082", "_loc": "0001"}, "geometry": {"type": "Polygon", "coordinates": [[[-89.2757, 21.20166], [-89.27558, 21.20303], [-89.27425, 21.20296], [-89.27433, 21.20155], [-89.2757, 21.20166]]]}}, {"id": "2453102", "type": "Feature", "properties": {"id": "2453102", "CVEGEO": "3108200010054025", "POBTOT": 43.0, "score_nse": 0.0, "NSE": "ND", "VIVTOT": 20.0, "GRAPROES": 9.8, "_ent": "31", "_mun": "082", "_loc": "0001"}, "geometry": {"type": "Polygon", "coordinates": [[[-89.2713, 21.19996], [-89.2712, 21.20124], [-89.26974, 21.20115], [-89.26981, 21.1998], [-89.2713, 21.19996]]]}}, {"id": "2453103", "type": "Feature", "properties": {"id": "2453103", "CVEGEO": "3108200010069027", "POBTOT": 22.0, "score_nse": 0.0, "NSE": "ND", "VIVTOT": 9.0, "GRAPROES": 6.85, "_ent": "31", "_mun": "082", "_loc": "0001"}, "geometry": {"type": "Polygon", "coordinates": [[[-89.25659, 21.20109], [-89.25792, 21.20219], [-89.25566, 21.20292], [-89.25659, 21.20109]]]}}, {"id": "2453104", "type": "Feature", "properties": {"id": "2453104", "CVEGEO": "3108200010054029", "POBTOT": 45.0, "score_nse": 0.0, "NSE": "ND", "VIVTOT": 15.0, "GRAPROES": 9.36, "_ent": "31", "_mun": "082", "_loc": "0001"}, "geometry": {"type": "Polygon", "coordinates": [[[-89.27911, 21.20346], [-89.27898, 21.20424], [-89.2773, 21.20394], [-89.27738, 21.20327], [-89.27911, 21.20346]]]}}, {"id": "2453105", "type": "Feature", "properties": {"id": "2453105", "CVEGEO": "310820001004A019", "POBTOT": 2.0, "score_nse": 0.0, "NSE": "ND", "VIVTOT": 1.0, "GRAPROES": 0.0, "_ent": "31", "_mun": "082", "_loc": "0001"}, "geometry": {"type": "Polygon", "coordinates": [[[-89.27911, 21.2034], [-89.27738, 21.20322], [-89.2775, 21.20212], [-89.27916, 21.20283], [-89.27911, 21.2034]]]}}, {"id": "2453106", "type": "Feature", "properties": {"id": "2453106", "CVEGEO": "310820001004A002", "POBTOT": 72.0, "score_nse": 0.0, "NSE": "ND", "VIVTOT": 37.0, "GRAPROES": 8.03, "_ent": "31", "_mun": "082", "_loc": "0001"}, "geometry": {"type": "Polygon", "coordinates": [[[-89.27132, 21.19852], [-89.26984, 21.19838], [-89.26999, 21.19637], [-89.27148, 21.19653], [-89.27132, 21.19852]]]}}, {"id": "2453107", "type": "Feature", "properties": {"id": "2453107", "CVEGEO": "3108200010069016", "POBTOT": 64.0, "score_nse": 43.0554, "NSE": "C-", "VIVTOT": 26.0, "GRAPROES": 8.36, "_ent": "31", "_mun": "082", "_loc": "0001"}, "geometry": {"type": "Polygon", "coordinates": [[[-89.26641, 21.20564], [-89.2678, 21.2058], [-89.26767, 21.20712], [-89.26632, 21.20696], [-89.26641, 21.20564]]]}}, {"id": "2453108", "type": "Feature", "properties": {"id": "2453108", "CVEGEO": "3108200010069014", "POBTOT": 28.0, "score_nse": 0.0, "NSE": "ND", "VIVTOT": 18.0, "GRAPROES": 8.2, "_ent": "31", "_mun": "082", "_loc": "0001"}, "geometry": {"type": "Polygon", "coordinates": [[[-89.26664, 21.20093], [-89.26528, 21.20088], [-89.26545, 21.19956], [-89.26678, 21.1996], [-89.26664, 21.20093]]]}}, {"id": "2453109", "type": "Feature", "properties": {"id": "2453109", "CVEGEO": "3108200010054041", "POBTOT": 21.0, "score_nse": 0.0, "NSE": "ND", "VIVTOT": 9.0, "GRAPROES": 9.13, "_ent": "31", "_mun": "082", "_loc": "0001"}, "geometry": {"type": "Polygon", "coordinates": [[[-89.26809, 21.20909], [-89.2682, 21.2087], [-89.26896, 21.20883], [-89.2689, 21.20921], [-89.26809, 21.20909]]]}}, {"id": "2453110", "type": "Feature", "properties": {"id": "2453110", "CVEGEO": "3108200010054024", "POBTOT": 34.0, "score_nse": 45.4339, "NSE": "C-", "VIVTOT": 17.0, "GRAPROES": 8.93, "_ent": "31", "_mun": "082", "_loc": "0001"}, "geometry": {"type": "Polygon", "coordinates": [[[-89.2697, 21.1998], [-89.26966, 21.20114], [-89.26829, 21.20105], [-89.26832, 21.1997], [-89.2697, 21.1998]]]}}, {"id": "2453111", "type": "Feature", "properties": {"id": "2453111", "CVEGEO": "310820001004A010", "POBTOT": 20.0, "score_nse": 0.0, "NSE": "ND", "VIVTOT": 11.0, "GRAPROES": 6.53, "_ent": "31", "_mun": "082", "_loc": "0001"}, "geometry": {"type": "Polygon", "coordinates": [[[-89.2746, 21.19834], [-89.27623, 21.19629], [-89.27676, 21.1963], [-89.27609, 21.19769], [-89.27578, 21.20025], [-89.27445, 21.20015], [-89.2746, 21.19834]]]}}, {"id": "2453112", "type": "Feature", "properties": {"id": "2453112", "CVEGEO": "3108200010054018", "POBTOT": 41.0, "score_nse": 0.0, "NSE": "ND", "VIVTOT": 21.0, "GRAPROES": 9.06, "_ent": "31", "_mun": "082", "_loc": "0001"}, "geometry": {"type": "Polygon", "coordinates": [[[-89.27096, 21.20619], [-89.27223, 21.20642], [-89.27205, 21.20767], [-89.27078, 21.20752], [-89.27096, 21.20619]]]}}, {"id": "2453113", "type": "Feature", "properties": {"id": "2453113", "CVEGEO": "3108200010054003", "POBTOT": 0.0, "score_nse": 0.0, "NSE": "ND", "VIVTOT": 0.0, "GRAPROES": 0.0, "_ent": "31", "_mun": "082", "_loc": "0001"}, "geometry": {"type": "Polygon", "coordinates": [[[-89.27125, 21.20357], [-89.27125, 21.20311], [-89.27252, 21.20315], [-89.27249, 21.20362], [-89.27125, 21.20357]]]}}, {"id": "2453114", "type": "Feature", "properties": {"id": "2453114", "CVEGEO": "3108200010054001", "POBTOT": 38.0, "score_nse": 50.4298, "NSE": "C-", "VIVTOT": 26.0, "GRAPROES": 10.18, "_ent": "31", "_mun": "082", "_loc": "0001"}, "geometry": {"type": "Polygon", "coordinates": [[[-89.27249, 21.20492], [-89.27257, 21.20375], [-89.27401, 21.20403], [-89.27387, 21.20509], [-89.27249, 21.20492]]]}}, {"id": "2453115", "type": "Feature", "properties": {"id": "2453115", "CVEGEO": "310820001004A014", "POBTOT": 8.0, "score_nse": 0.0, "NSE": "ND", "VIVTOT": 4.0, "GRAPROES": 5.83, "_ent": "31", "_mun": "082", "_loc": "0001"}, "geometry": {"type": "Polygon", "coordinates": [[[-89.2758, 21.20161], [-89.27588, 21.20032], [-89.27945, 21.20068], [-89.27919, 21.20267], [-89.27685, 21.20171], [-89.2758, 21.20161]]]}}, {"id": "2453116", "type": "Feature", "properties": {"id": "2453116", "CVEGEO": "3108200010054026", "POBTOT": 43.0, "score_nse": 0.0, "NSE": "ND", "VIVTOT": 17.0, "GRAPROES": 9.36, "_ent": "31", "_mun": "082", "_loc": "0001"}, "geometry": {"type": "Polygon", "coordinates": [[[-89.2728, 21.20007], [-89.27269, 21.20133], [-89.27131, 21.20124], [-89.27139, 21.19996], [-89.2728, 21.20007]]]}}, {"id": "2453117", "type": "Feature", "properties": {"id": "2453117", "CVEGEO": "3108200010054020", "POBTOT": 45.0, "score_nse": 0.0, "NSE": "ND", "VIVTOT": 21.0, "GRAPROES": 9.57, "_ent": "31", "_mun": "082", "_loc": "0001"}, "geometry": {"type": "Polygon", "coordinates": [[[-89.26929, 21.206], [-89.26913, 21.20732], [-89.26774, 21.20714], [-89.26788, 21.20583], [-89.26929, 21.206]]]}}, {"id": "2453118", "type": "Feature", "properties": {"id": "2453118", "CVEGEO": "3108200010069018", "POBTOT": 30.0, "score_nse": 0.0, "NSE": "ND", "VIVTOT": 12.0, "GRAPROES": 10.23, "_ent": "31", "_mun": "082", "_loc": "0001"}, "geometry": {"type": "Polygon", "coordinates": [[[-89.2648, 21.20546], [-89.26477, 21.20679], [-89.2632, 21.20672], [-89.26339, 21.20529], [-89.2648, 21.20546]]]}}, {"id": "2453119", "type": "Feature", "properties": {"id": "2453119", "CVEGEO": "3108200010054016", "POBTOT": 46.0, "score_nse": 52.5955, "NSE": "C-", "VIVTOT": 16.0, "GRAPROES": 9.54, "_ent": "31", "_mun": "082", "_loc": "0001"}, "geometry": {"type": "Polygon", "coordinates": [[[-89.27563, 21.2031], [-89.27732, 21.20318], [-89.27713, 21.20469], [-89.27551, 21.20431], [-89.27563, 21.2031]]]}}, {"id": "2453120", "type": "Feature", "properties": {"id": "2453120", "CVEGEO": "310820001004A003", "POBTOT": 30.0, "score_nse": 0.0, "NSE": "ND", "VIVTOT": 20.0, "GRAPROES": 9.52, "_ent": "31", "_mun": "082", "_loc": "0001"}, "geometry": {"type": "Polygon", "coordinates": [[[-89.27149, 21.19646], [-89.26999, 21.19631], [-89.27005, 21.19531], [-89.27156, 21.19544], [-89.27149, 21.19646]]]}}, {"id": "2453121", "type": "Feature", "properties": {"id": "2453121", "CVEGEO": "310820001004A015", "POBTOT": 6.0, "score_nse": 0.0, "NSE": "ND", "VIVTOT": 4.0, "GRAPROES": 0.0, "_ent": "31", "_mun": "082", "_loc": "0001"}, "geometry": {"type": "Polygon", "coordinates": [[[-89.27564, 21.20303], [-89.27579, 21.20167], [-89.2768, 21.20178], [-89.27747, 21.20206], [-89.27731, 21.20313], [-89.27564, 21.20303]]]}}, {"id": "2453122", "type": "Feature", "properties": {"id": "2453122", "CVEGEO": "3108200010069004", "POBTOT": 79.0, "score_nse": 44.0265, "NSE": "C-", "VIVTOT": 32.0, "GRAPROES": 8.39, "_ent": "31", "_mun": "082", "_loc": "0001"}, "geometry": {"type": "Polygon", "coordinates": [[[-89.26664, 21.20106], [-89.26649, 21.20273], [-89.26507, 21.20259], [-89.26528, 21.20096], [-89.26664, 21.20106]]]}}, {"id": "2453123", "type": "Feature", "properties": {"id": "2453123", "CVEGEO": "310820001004A007", "POBTOT": 101.0, "score_nse": 54.7428, "NSE": "C-", "VIVTOT": 39.0, "GRAPROES": 10.93, "_ent": "31", "_mun": "082", "_loc": "0001"}, "geometry": {"type": "Polygon", "coordinates": [[[-89.27278, 21.19999], [-89.27133, 21.19988], [-89.2715, 21.19736], [-89.27297, 21.19758], [-89.27278, 21.19999]]]}}, {"id": "2453124", "type": "Feature", "properties": {"id": "2453124", "CVEGEO": "310820001004A029", "POBTOT": 3.0, "score_nse": 0.0, "NSE": "ND", "VIVTOT": 2.0, "GRAPROES": 0.0, "_ent": "31", "_mun": "082", "_loc": "0001"}, "geometry": {"type": "Polygon", "coordinates": [[[-89.27564, 21.19129], [-89.27551, 21.19214], [-89.27361, 21.192], [-89.2737, 21.19113], [-89.27564, 21.19129]]]}}, {"id": "2453125", "type": "Feature", "properties": {"id": "2453125", "CVEGEO": "3108200010073001", "POBTOT": 23.0, "score_nse": 0.0, "NSE": "ND", "VIVTOT": 9.0, "GRAPROES": 6.33, "_ent": "31", "_mun": "082", "_loc": "0001"}, "geometry": {"type": "Polygon", "coordinates": [[[-89.26116, 21.20797], [-89.26141, 21.2066], [-89.26313, 21.20683], [-89.26291, 21.20816], [-89.26116, 21.20797]]]}}, {"id": "2453126", "type": "Feature", "properties": {"id": "2453126", "CVEGEO": "3108200010054021", "POBTOT": 43.0, "score_nse": 0.0, "NSE": "ND", "VIVTOT": 22.0, "GRAPROES": 6.0, "_ent": "31", "_mun": "082", "_loc": "0001"}, "geometry": {"type": "Polygon", "coordinates": [[[-89.26801, 21.20443], [-89.26937, 21.2046], [-89.26929, 21.20593], [-89.26791, 21.20576], [-89.26801, 21.20443]]]}}, {"id": "2453127", "type": "Feature", "properties": {"id": "2453127", "CVEGEO": "3108200010054040", "POBTOT": 52.0, "score_nse": 53.2985, "NSE": "C-", "VIVTOT": 16.0, "GRAPROES": 8.86, "_ent": "31", "_mun": "082", "_loc": "0001"}, "geometry": {"type": "Polygon", "coordinates": [[[-89.26798, 21.20952], [-89.26807, 21.20915], [-89.2689, 21.2093], [-89.26886, 21.20968], [-89.26798, 21.20952]]]}}, {"id": "2453128", "type": "Feature", "properties": {"id": "2453128", "CVEGEO": "3108200010069008", "POBTOT": 14.0, "score_nse": 0.0, "NSE": "ND", "VIVTOT": 11.0, "GRAPROES": 8.0, "_ent": "31", "_mun": "082", "_loc": "0001"}, "geometry": {"type": "Polygon", "coordinates": [[[-89.26641, 21.20421], [-89.26633, 21.20557], [-89.26487, 21.20538], [-89.26495, 21.20407], [-89.26641, 21.20421]]]}}, {"id": "2453129", "type": "Feature", "properties": {"id": "2453129", "CVEGEO": "3108200010054023", "POBTOT": 57.0, "score_nse": 44.3901, "NSE": "C-", "VIVTOT": 27.0, "GRAPROES": 7.7, "_ent": "31", "_mun": "082", "_loc": "0001"}, "geometry": {"type": "Polygon", "coordinates": [[[-89.26825, 21.20111], [-89.26963, 21.2012], [-89.26953, 21.20294], [-89.26809, 21.20283], [-89.26825, 21.20111]]]}}, {"id": "2453130", "type": "Feature", "properties": {"id": "2453130", "CVEGEO": "310820001004A009", "POBTOT": 18.0, "score_nse": 0.0, "NSE": "ND", "VIVTOT": 8.0, "GRAPROES": 10.0, "_ent": "31", "_mun": "082", "_loc": "0001"}, "geometry": {"type": "Polygon", "coordinates": [[[-89.27156, 21.19537], [-89.27003, 21.19524], [-89.27007, 21.1946], [-89.27159, 21.19473], [-89.27156, 21.19537]]]}}, {"id": "2453131", "type": "Feature", "properties": {"id": "2453131", "CVEGEO": "310820001004A033", "POBTOT": 0.0, "score_nse": 0.0, "NSE": "ND", "VIVTOT": 0.0, "GRAPROES": 0.0, "_ent": "31", "_mun": "082", "_loc": "0001"}, "geometry": {"type": "Polygon", "coordinates": [[[-89.26998, 21.19525], [-89.26879, 21.19507], [-89.269, 21.193], [-89.2701, 21.19311], [-89.26998, 21.19525]]]}}, {"id": "2453132", "type": "Feature", "properties": {"id": "2453132", "CVEGEO": "310820001004A031", "POBTOT": 0.0, "score_nse": 10.0, "NSE": "E", "VIVTOT": 1.0, "GRAPROES": 0.0, "_ent": "31", "_mun": "082", "_loc": "0001"}, "geometry": {"type": "Polygon", "coordinates": [[[-89.27155, 21.19468], [-89.27005, 21.19453], [-89.27014, 21.19312], [-89.27053, 21.19317], [-89.27075, 21.19175], [-89.2718, 21.19186], [-89.27155, 21.19468]]]}}, {"id": "2453133", "type": "Feature", "properties": {"id": "2453133", "CVEGEO": "3108200010054010", "POBTOT": 38.0, "score_nse": 46.0701, "NSE": "C-", "VIVTOT": 21.0, "GRAPROES": 9.0, "_ent": "31", "_mun": "082", "_loc": "0001"}, "geometry": {"type": "Polygon", "coordinates": [[[-89.26953, 21.20453], [-89.26958, 21.20394], [-89.26993, 21.20394], [-89.26995, 21.2037], [-89.27107, 21.20369], [-89.27099, 21.20471], [-89.26953, 21.20453]]]}}, {"id": "2453134", "type": "Feature", "properties": {"id": "2453134", "CVEGEO": "3108200010054013", "POBTOT": 32.0, "score_nse": 49.672, "NSE": "C-", "VIVTOT": 25.0, "GRAPROES": 11.07, "_ent": "31", "_mun": "082", "_loc": "0001"}, "geometry": {"type": "Polygon", "coordinates": [[[-89.27116, 21.20292], [-89.27129, 21.20129], [-89.27265, 21.20141], [-89.27251, 21.20291], [-89.27116, 21.20292]]]}}, {"id": "2453135", "type": "Feature", "properties": {"id": "2453135", "CVEGEO": "310820001004A008", "POBTOT": 72.0, "score_nse": 45.5996, "NSE": "C-", "VIVTOT": 31.0, "GRAPROES": 8.65, "_ent": "31", "_mun": "082", "_loc": "0001"}, "geometry": {"type": "Polygon", "coordinates": [[[-89.26967, 21.19973], [-89.26834, 21.19963], [-89.26844, 21.19554], [-89.26877, 21.19557], [-89.26879, 21.19511], [-89.26996, 21.19528], [-89.26991, 21.19679], [-89.26891, 21.19683], [-89.2699, 21.19688], [-89.26967, 21.19973]]]}}, {"id": "2453136", "type": "Feature", "properties": {"id": "2453136", "CVEGEO": "3108200010054042", "POBTOT": 0.0, "score_nse": 0.0, "NSE": "ND", "VIVTOT": 0.0, "GRAPROES": 0.0, "_ent": "31", "_mun": "082", "_loc": "0001"}, "geometry": {"type": "Polygon", "coordinates": [[[-89.26991, 21.20392], [-89.26958, 21.20389], [-89.26959, 21.2037], [-89.26991, 21.2037], [-89.26991, 21.20392]]]}}, {"id": "2453137", "type": "Feature", "properties": {"id": "2453137", "CVEGEO": "310820001004A018", "POBTOT": 0.0, "score_nse": 0.0, "NSE": "ND", "VIVTOT": 0.0, "GRAPROES": 0.0, "_ent": "31", "_mun": "082", "_loc": "0001"}, "geometry": {"type": "Polygon", "coordinates": [[[-89.27377, 21.1895], [-89.27352, 21.19199], [-89.26952, 21.19148], [-89.26985, 21.18916], [-89.27377, 21.1895]]]}}, {"id": "2453138", "type": "Feature", "properties": {"id": "2453138", "CVEGEO": "3108200010069022", "POBTOT": 19.0, "score_nse": 0.0, "NSE": "ND", "VIVTOT": 5.0, "GRAPROES": 6.54, "_ent": "31", "_mun": "082", "_loc": "0001"}, "geometry": {"type": "Polygon", "coordinates": [[[-89.26427, 21.19739], [-89.26394, 21.19858], [-89.26215, 21.19856], [-89.26231, 21.19766], [-89.26295, 21.1977], [-89.26311, 21.19733], [-89.26427, 21.19739]]]}}, {"id": "2453139", "type": "Feature", "properties": {"id": "2453139", "CVEGEO": "310820001004A032", "POBTOT": 42.0, "score_nse": 0.0, "NSE": "ND", "VIVTOT": 14.0, "GRAPROES": 7.45, "_ent": "31", "_mun": "082", "_loc": "0001"}, "geometry": {"type": "Polygon", "coordinates": [[[-89.26827, 21.19963], [-89.26548, 21.19948], [-89.26552, 21.19877], [-89.26593, 21.19873], [-89.26486, 21.19864], [-89.26492, 21.19761], [-89.26832, 21.19785], [-89.26827, 21.19963]]]}}, {"id": "2453140", "type": "Feature", "properties": {"id": "2453140", "CVEGEO": "3108200010054038", "POBTOT": 26.0, "score_nse": 0.0, "NSE": "ND", "VIVTOT": 11.0, "GRAPROES": 8.95, "_ent": "31", "_mun": "082", "_loc": "0001"}, "geometry": {"type": "Polygon", "coordinates": [[[-89.2718, 21.21046], [-89.27162, 21.21214], [-89.27023, 21.21198], [-89.27032, 21.21089], [-89.26886, 21.21051], [-89.26902, 21.20885], [-89.27058, 21.20902], [-89.27034, 21.21079], [-89.27046, 21.21031], [-89.2718, 21.21046]]]}}, {"id": "2453141", "type": "Feature", "properties": {"id": "2453141", "CVEGEO": "3108200010054039", "POBTOT": 83.0, "score_nse": 52.552, "NSE": "C-", "VIVTOT": 30.0, "GRAPROES": 9.54, "_ent": "31", "_mun": "082", "_loc": "0001"}, "geometry": {"type": "Polygon", "coordinates": [[[-89.2667, 21.20853], [-89.26811, 21.20871], [-89.26779, 21.20996], [-89.26792, 21.20996], [-89.26797, 21.20959], [-89.26833, 21.20965], [-89.2683, 21.21013], [-89.26845, 21.20967], [-89.26885, 21.20975], [-89.26881, 21.21058], [-89.26734, 21.21031], [-89.26726, 21.21059], [-89.26593, 21.21049], [-89.2667, 21.20853]]]}}, {"id": "2453142", "type": "Feature", "properties": {"id": "2453142", "CVEGEO": "310820001004A005", "POBTOT": 12.0, "score_nse": 0.0, "NSE": "ND", "VIVTOT": 6.0, "GRAPROES": 10.57, "_ent": "31", "_mun": "082", "_loc": "0001"}, "geometry": {"type": "Polygon", "coordinates": [[[-89.27444, 21.19488], [-89.27632, 21.19511], [-89.27693, 21.19517], [-89.27546, 21.19697], [-89.27423, 21.1967], [-89.27431, 21.19592], [-89.27468, 21.19595], [-89.27432, 21.19586], [-89.27444, 21.19488]]]}}, {"id": "2453143", "type": "Feature", "properties": {"id": "2453143", "CVEGEO": "310820001004A028", "POBTOT": 8.0, "score_nse": 0.0, "NSE": "ND", "VIVTOT": 4.0, "GRAPROES": 7.14, "_ent": "31", "_mun": "082", "_loc": "0001"}, "geometry": {"type": "Polygon", "coordinates": [[[-89.27418, 21.19666], [-89.27333, 21.19648], [-89.2732, 21.1963], [-89.27336, 21.19473], [-89.27434, 21.19485], [-89.27418, 21.19666]]]}}, {"id": "2453144", "type": "Feature", "properties": {"id": "2453144", "CVEGEO": "310820001004A030", "POBTOT": 4.0, "score_nse": 0.0, "NSE": "ND", "VIVTOT": 4.0, "GRAPROES": 0.0, "_ent": "31", "_mun": "082", "_loc": "0001"}, "geometry": {"type": "Polygon", "coordinates": [[[-89.27392, 21.19473], [-89.27339, 21.19469], [-89.27359, 21.19207], [-89.27425, 21.19215], [-89.27392, 21.19473]]]}}, {"id": "2453145", "type": "Feature", "properties": {"id": "2453145", "CVEGEO": "3108200010069019", "POBTOT": 11.0, "score_nse": 0.0, "NSE": "ND", "VIVTOT": 8.0, "GRAPROES": 10.0, "_ent": "31", "_mun": "082", "_loc": "0001"}, "geometry": {"type": "Polygon", "coordinates": [[[-89.2604, 21.20644], [-89.26058, 21.20508], [-89.26123, 21.20509], [-89.26119, 21.20591], [-89.26129, 21.2051], [-89.26331, 21.20529], [-89.26312, 21.20672], [-89.2604, 21.20644]]]}}]}