{"type": "FeatureCollection", "features": [{"id": "1057847", "type": "Feature", "properties": {"id": "1057847", "CVEGEO": "1501600590115001", "POBTOT": 0.0, "score_nse": 0.0, "NSE": null, "VIVTOT": 0.0, "GRAPROES": 0.0, "_ent": "15", "_mun": "016", "_loc": "0059"}, "geometry": {"type": "Polygon", "coordinates": [[[-98.76956, 19.70442], [-98.76929, 19.70453], [-98.76903, 19.7044], [-98.76884, 19.70377], [-98.76932, 19.70364], [-98.76956, 19.70442]]]}}, {"id": "1057848", "type": "Feature", "properties": {"id": "1057848", "CVEGEO": "1501600590115002", "POBTOT": 0.0, "score_nse": 0.0, "NSE": null, "VIVTOT": 0.0, "GRAPROES": 0.0, "_ent": "15", "_mun": "016", "_loc": "0059"}, "geometry": {"type": "Polygon", "coordinates": [[[-98.76896, 19.70441], [-98.76798, 19.70398], [-98.76879, 19.70378], [-98.76896, 19.70441]]]}}, {"id": "1057849", "type": "Feature", "properties": {"id": "1057849", "CVEGEO": "1501600590115003", "POBTOT": 0.0, "score_nse": 0.0, "NSE": null, "VIVTOT": 0.0, "GRAPROES": 0.0, "_ent": "15", "_mun": "016", "_loc": "0059"}, "geometry": {"type": "Polygon", "coordinates": [[[-98.7701, 19.70489], [-98.76945, 19.70461], [-98.76994, 19.70437], [-98.7701, 19.70489]]]}}, {"id": "1057850", "type": "Feature", "properties": {"id": "1057850", "CVEGEO": "1501600590115004", "POBTOT": 0.0, "score_nse": 0.0, "NSE": null, "VIVTOT": 0.0, "GRAPROES": 0.0, "_ent": "15", "_mun": "016", "_loc": "0059"}, "geometry": {"type": "Polygon", "coordinates": [[[-98.76899, 19.70463], [-98.76817, 19.70481], [-98.76796, 19.70414], [-98.76899, 19.70463]]]}}, {"id": "1057851", "type": "Feature", "properties": {"id": "1057851", "CVEGEO": "1501600590115005", "POBTOT": 0.0, "score_nse": 0.0, "NSE": null, "VIVTOT": 0.0, "GRAPROES": 0.0, "_ent": "15", "_mun": "016", "_loc": "0059"}, "geometry": {"type": "Polygon", "coordinates": [[[-98.76675, 19.70198], [-98.76521, 19.70209], [-98.76537, 19.70188], [-98.76667, 19.70156], [-98.76675, 19.70198]]]}}, {"id": "1057852", "type": "Feature", "properties": {"id": "1057852", "CVEGEO": "1501600590115006", "POBTOT": 0.0, "score_nse": 0.0, "NSE": null, "VIVTOT": 0.0, "GRAPROES": 0.0, "_ent": "15", "_mun": "016", "_loc": "0059"}, "geometry": {"type": "Polygon", "coordinates": [[[-98.76597, 19.70302], [-98.76564, 19.70286], [-98.7655, 19.70217], [-98.76678, 19.70209], [-98.76684, 19.70237], [-98.76586, 19.70261], [-98.76597, 19.70302]]]}}, {"id": "1057853", "type": "Feature", "properties": {"id": "1057853", "CVEGEO": "1501600590115007", "POBTOT": 0.0, "score_nse": 0.0, "NSE": null, "VIVTOT": 0.0, "GRAPROES": 0.0, "_ent": "15", "_mun": "016", "_loc": "0059"}, "geometry": {"type": "Polygon", "coordinates": [[[-98.76551, 19.7028], [-98.76431, 19.70226], [-98.76538, 19.70217], [-98.76551, 19.7028]]]}}, {"id": "1057854", "type": "Feature", "properties": {"id": "1057854", "CVEGEO": "1501600590115008", "POBTOT": 0.0, "score_nse": 0.0, "NSE": null, "VIVTOT": 0.0, "GRAPROES": 0.0, "_ent": "15", "_mun": "016", "_loc": "0059"}, "geometry": {"type": "Polygon", "coordinates": [[[-98.76802, 19.70111], [-98.76544, 19.70179], [-98.76625, 19.70074], [-98.7678, 19.70031], [-98.76802, 19.70111]]]}}, {"id": "1057855", "type": "Feature", "properties": {"id": "1057855", "CVEGEO": "1501600590115009", "POBTOT": 0.0, "score_nse": 0.0, "NSE": null, "VIVTOT": 0.0, "GRAPROES": 0.0, "_ent": "15", "_mun": "016", "_loc": "0059"}, "geometry": {"type": "Polygon", "coordinates": [[[-98.76825, 19.69821], [-98.76869, 19.70002], [-98.76782, 19.70023], [-98.76748, 19.69916], [-98.76825, 19.69821]]]}}]}