{"type": "FeatureCollection", "features": [{"id": "1673783", "type": "Feature", "properties": {"id": "1673783", "CVEGEO": "2109200030042008", "POBTOT": 0.0, "score_nse": 0.0, "NSE": null, "VIVTOT": 0.0, "GRAPROES": 0.0, "_ent": "21", "_mun": "092", "_loc": "0003"}, "geometry": {"type": "Polygon", "coordinates": [[[-97.80524, 18.54447], [-97.80327, 18.54605], [-97.80157, 18.54793], [-97.80423, 18.54387], [-97.80524, 18.54447]]]}}, {"id": "1673784", "type": "Feature", "properties": {"id": "1673784", "CVEGEO": "2109200030042007", "POBTOT": 0.0, "score_nse": 0.0, "NSE": null, "VIVTOT": 0.0, "GRAPROES": 0.0, "_ent": "21", "_mun": "092", "_loc": "0003"}, "geometry": {"type": "Polygon", "coordinates": [[[-97.80449, 18.53727], [-97.80177, 18.53645], [-97.80183, 18.5358], [-97.80215, 18.53597], [-97.80265, 18.53576], [-97.80366, 18.536], [-97.8047, 18.53594], [-97.80449, 18.53727]]]}}, {"id": "1673785", "type": "Feature", "properties": {"id": "1673785", "CVEGEO": "2109200030042002", "POBTOT": 0.0, "score_nse": 0.0, "NSE": null, "VIVTOT": 0.0, "GRAPROES": 0.0, "_ent": "21", "_mun": "092", "_loc": "0003"}, "geometry": {"type": "Polygon", "coordinates": [[[-97.80701, 18.53768], [-97.80449, 18.53823], [-97.80455, 18.53737], [-97.80523, 18.53749], [-97.80456, 18.53728], [-97.80476, 18.53596], [-97.80521, 18.53608], [-97.80552, 18.536], [-97.80643, 18.53683], [-97.80701, 18.53768]]]}}, {"id": "1673854", "type": "Feature", "properties": {"id": "1673854", "CVEGEO": "2109200030042001", "POBTOT": 0.0, "score_nse": 0.0, "NSE": null, "VIVTOT": 0.0, "GRAPROES": 0.0, "_ent": "21", "_mun": "092", "_loc": "0003"}, "geometry": {"type": "Polygon", "coordinates": [[[-97.80444, 18.53954], [-97.80452, 18.53832], [-97.80527, 18.53815], [-97.80519, 18.53969], [-97.80444, 18.53954]]]}}, {"id": "1673884", "type": "Feature", "properties": {"id": "1673884", "CVEGEO": "2109200030042009", "POBTOT": 0.0, "score_nse": 0.0, "NSE": null, "VIVTOT": 0.0, "GRAPROES": 0.0, "_ent": "21", "_mun": "092", "_loc": "0003"}, "geometry": {"type": "Polygon", "coordinates": [[[-97.80437, 18.53951], [-97.80306, 18.53927], [-97.80294, 18.53878], [-97.8044, 18.53831], [-97.80437, 18.53951]]]}}, {"id": "1673898", "type": "Feature", "properties": {"id": "1673898", "CVEGEO": "2109200030042010", "POBTOT": 0.0, "score_nse": 0.0, "NSE": null, "VIVTOT": 0.0, "GRAPROES": 0.0, "_ent": "21", "_mun": "092", "_loc": "0003"}, "geometry": {"type": "Polygon", "coordinates": [[[-97.80677, 18.53927], [-97.80528, 18.53924], [-97.80531, 18.5382], [-97.80695, 18.53773], [-97.80677, 18.53927]]]}}, {"id": "1673899", "type": "Feature", "properties": {"id": "1673899", "CVEGEO": "2109200030042011", "POBTOT": 0.0, "score_nse": 0.0, "NSE": null, "VIVTOT": 0.0, "GRAPROES": 0.0, "_ent": "21", "_mun": "092", "_loc": "0003"}, "geometry": {"type": "Polygon", "coordinates": [[[-97.80294, 18.53866], [-97.80302, 18.53798], [-97.80357, 18.53706], [-97.80448, 18.53733], [-97.8044, 18.53823], [-97.80294, 18.53866]]]}}, {"id": "1673902", "type": "Feature", "properties": {"id": "1673902", "CVEGEO": "2109200030042004", "POBTOT": 0.0, "score_nse": 0.0, "NSE": null, "VIVTOT": 0.0, "GRAPROES": 0.0, "_ent": "21", "_mun": "092", "_loc": "0003"}, "geometry": {"type": "Polygon", "coordinates": [[[-97.81043, 18.54069], [-97.80532, 18.54441], [-97.80429, 18.54378], [-97.80493, 18.54142], [-97.80528, 18.53928], [-97.8068, 18.5393], [-97.80699, 18.53776], [-97.80789, 18.53853], [-97.80853, 18.53882], [-97.8092, 18.5398], [-97.81043, 18.54069]]]}}, {"id": "1673904", "type": "Feature", "properties": {"id": "1673904", "CVEGEO": "2109200030042005", "POBTOT": 0.0, "score_nse": 0.0, "NSE": null, "VIVTOT": 0.0, "GRAPROES": 0.0, "_ent": "21", "_mun": "092", "_loc": "0003"}, "geometry": {"type": "Polygon", "coordinates": [[[-97.80436, 18.54039], [-97.80438, 18.54009], [-97.80468, 18.54006], [-97.80438, 18.54004], [-97.80441, 18.53961], [-97.80518, 18.53977], [-97.805, 18.54056], [-97.80436, 18.54039]]]}}]}