{"type": "FeatureCollection", "features": [{"id": "1615586", "type": "Feature", "properties": {"id": "1615586", "CVEGEO": "204090002001A003", "POBTOT": 0.0, "score_nse": 0.0, "NSE": null, "VIVTOT": 0.0, "GRAPROES": 0.0, "_ent": "20", "_mun": "409", "_loc": "0002"}, "geometry": {"type": "Polygon", "coordinates": [[[-96.61019, 17.022], [-96.61165, 17.02237], [-96.6117, 17.02311], [-96.61039, 17.02281], [-96.60998, 17.02234], [-96.61019, 17.022]]]}}, {"id": "1615595", "type": "Feature", "properties": {"id": "1615595", "CVEGEO": "204090002001A010", "POBTOT": 0.0, "score_nse": 0.0, "NSE": null, "VIVTOT": 0.0, "GRAPROES": 0.0, "_ent": "20", "_mun": "409", "_loc": "0002"}, "geometry": {"type": "Polygon", "coordinates": [[[-96.61328, 17.02351], [-96.61237, 17.02316], [-96.61282, 17.02289], [-96.61313, 17.02233], [-96.61369, 17.02257], [-96.61372, 17.02333], [-96.61344, 17.02331], [-96.61328, 17.02351]]]}}, {"id": "1615610", "type": "Feature", "properties": {"id": "1615610", "CVEGEO": "204090002001A006", "POBTOT": 0.0, "score_nse": 0.0, "NSE": null, "VIVTOT": 0.0, "GRAPROES": 0.0, "_ent": "20", "_mun": "409", "_loc": "0002"}, "geometry": {"type": "Polygon", "coordinates": [[[-96.61229, 17.02173], [-96.6132, 17.02198], [-96.61266, 17.02294], [-96.61176, 17.02321], [-96.61172, 17.02244], [-96.61229, 17.02173]]]}}, {"id": "1615656", "type": "Feature", "properties": {"id": "1615656", "CVEGEO": "204090002001A004", "POBTOT": 0.0, "score_nse": 0.0, "NSE": null, "VIVTOT": 0.0, "GRAPROES": 0.0, "_ent": "20", "_mun": "409", "_loc": "0002"}, "geometry": {"type": "Polygon", "coordinates": [[[-96.61186, 17.02329], [-96.61106, 17.02434], [-96.61057, 17.0235], [-96.61049, 17.02301], [-96.61128, 17.02317], [-96.61118, 17.02345], [-96.61131, 17.02318], [-96.61186, 17.02329]]]}}, {"id": "1615670", "type": "Feature", "properties": {"id": "1615670", "CVEGEO": "204090002001A009", "POBTOT": 0.0, "score_nse": 0.0, "NSE": null, "VIVTOT": 0.0, "GRAPROES": 0.0, "_ent": "20", "_mun": "409", "_loc": "0002"}, "geometry": {"type": "Polygon", "coordinates": [[[-96.61098, 17.02439], [-96.6103, 17.02572], [-96.60912, 17.02548], [-96.61027, 17.02577], [-96.60997, 17.02639], [-96.60786, 17.02598], [-96.60851, 17.02492], [-96.6104, 17.02344], [-96.61098, 17.02439]]]}}, {"id": "1615671", "type": "Feature", "properties": {"id": "1615671", "CVEGEO": "204090002001A012", "POBTOT": 0.0, "score_nse": 0.0, "NSE": null, "VIVTOT": 0.0, "GRAPROES": 0.0, "_ent": "20", "_mun": "409", "_loc": "0002"}, "geometry": {"type": "Polygon", "coordinates": [[[-96.61262, 17.02634], [-96.6123, 17.02694], [-96.61003, 17.02638], [-96.61103, 17.02445], [-96.61262, 17.02634]]]}}, {"id": "1615672", "type": "Feature", "properties": {"id": "1615672", "CVEGEO": "204090002001A013", "POBTOT": 0.0, "score_nse": 0.0, "NSE": null, "VIVTOT": 0.0, "GRAPROES": 0.0, "_ent": "20", "_mun": "409", "_loc": "0002"}, "geometry": {"type": "Polygon", "coordinates": [[[-96.60936, 17.0218], [-96.60867, 17.02127], [-96.609, 17.01995], [-96.60864, 17.02124], [-96.60833, 17.02092], [-96.60894, 17.01853], [-96.61098, 17.0199], [-96.61057, 17.02161], [-96.61026, 17.02147], [-96.60992, 17.02174], [-96.60936, 17.0218]]]}}, {"id": "1615675", "type": "Feature", "properties": {"id": "1615675", "CVEGEO": "204090002001A001", "POBTOT": 0.0, "score_nse": 0.0, "NSE": null, "VIVTOT": 0.0, "GRAPROES": 0.0, "_ent": "20", "_mun": "409", "_loc": "0002"}, "geometry": {"type": "Polygon", "coordinates": [[[-96.61041, 17.02333], [-96.60964, 17.02384], [-96.60836, 17.02311], [-96.6096, 17.02386], [-96.60872, 17.0246], [-96.60758, 17.02396], [-96.60832, 17.02102], [-96.60957, 17.02205], [-96.60932, 17.02272], [-96.6096, 17.02211], [-96.60988, 17.02236], [-96.6097, 17.02279], [-96.60995, 17.02242], [-96.61037, 17.02292], [-96.61041, 17.02333]]]}}, {"id": "1615676", "type": "Feature", "properties": {"id": "1615676", "CVEGEO": "204090002001A011", "POBTOT": 0.0, "score_nse": 0.0, "NSE": null, "VIVTOT": 0.0, "GRAPROES": 0.0, "_ent": "20", "_mun": "409", "_loc": "0002"}, "geometry": {"type": "Polygon", "coordinates": [[[-96.6087, 17.02462], [-96.60859, 17.02471], [-96.60781, 17.02427], [-96.60857, 17.02473], [-96.60777, 17.02597], [-96.60712, 17.02582], [-96.60758, 17.024], [-96.6087, 17.02462]]]}}, {"id": "1615688", "type": "Feature", "properties": {"id": "1615688", "CVEGEO": "204090002001A005", "POBTOT": 0.0, "score_nse": 0.0, "NSE": null, "VIVTOT": 0.0, "GRAPROES": 0.0, "_ent": "20", "_mun": "409", "_loc": "0002"}, "geometry": {"type": "Polygon", "coordinates": [[[-96.60993, 17.02229], [-96.60952, 17.02179], [-96.60994, 17.02178], [-96.61027, 17.02152], [-96.611, 17.02186], [-96.6116, 17.02201], [-96.6106, 17.02162], [-96.61101, 17.01992], [-96.61347, 17.02126], [-96.61322, 17.02192], [-96.6122, 17.02169], [-96.6117, 17.02232], [-96.61025, 17.02194], [-96.61006, 17.02198], [-96.60993, 17.02229]]]}}, {"id": "1615689", "type": "Feature", "properties": {"id": "1615689", "CVEGEO": "204090002001A007", "POBTOT": 0.0, "score_nse": 0.0, "NSE": null, "VIVTOT": 0.0, "GRAPROES": 0.0, "_ent": "20", "_mun": "409", "_loc": "0002"}, "geometry": {"type": "Polygon", "coordinates": [[[-96.61277, 17.02637], [-96.6111, 17.02441], [-96.61196, 17.02327], [-96.61227, 17.02319], [-96.61279, 17.02333], [-96.61287, 17.02348], [-96.61277, 17.02637]]]}}]}