{"type": "FeatureCollection", "features": [{"id": "1726998", "type": "Feature", "properties": {"id": "1726998", "CVEGEO": "2116400270397030", "POBTOT": 0.0, "score_nse": 0.0, "NSE": null, "VIVTOT": 0.0, "GRAPROES": 0.0, "_ent": "21", "_mun": "164", "_loc": "0027"}, "geometry": {"type": "Polygon", "coordinates": [[[-97.86059, 18.97701], [-97.86286, 18.97722], [-97.86302, 18.97818], [-97.86342, 18.9788], [-97.86018, 18.97836], [-97.86059, 18.97701]]]}}, {"id": "1727052", "type": "Feature", "properties": {"id": "1727052", "CVEGEO": "2116400270397015", "POBTOT": 0.0, "score_nse": 0.0, "NSE": null, "VIVTOT": 0.0, "GRAPROES": 0.0, "_ent": "21", "_mun": "164", "_loc": "0027"}, "geometry": {"type": "Polygon", "coordinates": [[[-97.86948, 18.98173], [-97.86944, 18.98148], [-97.86987, 18.98158], [-97.86929, 18.98241], [-97.86833, 18.98216], [-97.86875, 18.98134], [-97.86938, 18.98146], [-97.86948, 18.98173]]]}}, {"id": "1727053", "type": "Feature", "properties": {"id": "1727053", "CVEGEO": "2116400270397013", "POBTOT": 0.0, "score_nse": 0.0, "NSE": null, "VIVTOT": 0.0, "GRAPROES": 0.0, "_ent": "21", "_mun": "164", "_loc": "0027"}, "geometry": {"type": "Polygon", "coordinates": [[[-97.86771, 18.98103], [-97.86778, 18.98079], [-97.86904, 18.98058], [-97.8687, 18.98126], [-97.86771, 18.98103]]]}}, {"id": "1727054", "type": "Feature", "properties": {"id": "1727054", "CVEGEO": "2116400270397011", "POBTOT": 0.0, "score_nse": 0.0, "NSE": null, "VIVTOT": 0.0, "GRAPROES": 0.0, "_ent": "21", "_mun": "164", "_loc": "0027"}, "geometry": {"type": "Polygon", "coordinates": [[[-97.86413, 18.98109], [-97.86383, 18.98084], [-97.86389, 18.97997], [-97.86574, 18.98021], [-97.86492, 18.98191], [-97.86432, 18.98162], [-97.86413, 18.98109]]]}}, {"id": "1727055", "type": "Feature", "properties": {"id": "1727055", "CVEGEO": "2116400270397010", "POBTOT": 0.0, "score_nse": 0.0, "NSE": null, "VIVTOT": 0.0, "GRAPROES": 0.0, "_ent": "21", "_mun": "164", "_loc": "0027"}, "geometry": {"type": "Polygon", "coordinates": [[[-97.86489, 18.98197], [-97.86457, 18.98261], [-97.86437, 18.98172], [-97.86489, 18.98197]]]}}, {"id": "1727056", "type": "Feature", "properties": {"id": "1727056", "CVEGEO": "2116400270397009", "POBTOT": 0.0, "score_nse": 0.0, "NSE": null, "VIVTOT": 0.0, "GRAPROES": 0.0, "_ent": "21", "_mun": "164", "_loc": "0027"}, "geometry": {"type": "Polygon", "coordinates": [[[-97.86485, 18.98271], [-97.86473, 18.98285], [-97.86458, 18.98277], [-97.86495, 18.982], [-97.86581, 18.98242], [-97.8656, 18.98286], [-97.86543, 18.98284], [-97.86558, 18.9829], [-97.86544, 18.9832], [-97.86478, 18.98287], [-97.86485, 18.98271]]]}}, {"id": "1727146", "type": "Feature", "properties": {"id": "1727146", "CVEGEO": "2116400270397007", "POBTOT": 0.0, "score_nse": 0.0, "NSE": null, "VIVTOT": 0.0, "GRAPROES": 0.0, "_ent": "21", "_mun": "164", "_loc": "0027"}, "geometry": {"type": "Polygon", "coordinates": [[[-97.86686, 18.98284], [-97.86777, 18.98311], [-97.8674, 18.98386], [-97.86647, 18.98364], [-97.86659, 18.98339], [-97.86705, 18.98351], [-97.86662, 18.98334], [-97.86686, 18.98284]]]}}, {"id": "1727468", "type": "Feature", "properties": {"id": "1727468", "CVEGEO": "2116400270397019", "POBTOT": 0.0, "score_nse": 0.0, "NSE": null, "VIVTOT": 0.0, "GRAPROES": 0.0, "_ent": "21", "_mun": "164", "_loc": "0027"}, "geometry": {"type": "Polygon", "coordinates": [[[-97.86607, 18.98448], [-97.86644, 18.98371], [-97.86737, 18.98393], [-97.86695, 18.98477], [-97.86607, 18.98448]]]}}, {"id": "1727469", "type": "Feature", "properties": {"id": "1727469", "CVEGEO": "2116400270397018", "POBTOT": 0.0, "score_nse": 0.0, "NSE": null, "VIVTOT": 0.0, "GRAPROES": 0.0, "_ent": "21", "_mun": "164", "_loc": "0027"}, "geometry": {"type": "Polygon", "coordinates": [[[-97.86702, 18.9848], [-97.86744, 18.98395], [-97.86808, 18.9841], [-97.86747, 18.98496], [-97.86702, 18.9848]]]}}, {"id": "1727531", "type": "Feature", "properties": {"id": "1727531", "CVEGEO": "2116400270397024", "POBTOT": 0.0, "score_nse": 0.0, "NSE": null, "VIVTOT": 0.0, "GRAPROES": 0.0, "_ent": "21", "_mun": "164", "_loc": "0027"}, "geometry": {"type": "Polygon", "coordinates": [[[-97.86509, 18.98411], [-97.86522, 18.98382], [-97.86562, 18.98396], [-97.86549, 18.98427], [-97.86509, 18.98411]]]}}, {"id": "1727532", "type": "Feature", "properties": {"id": "1727532", "CVEGEO": "2116400270397023", "POBTOT": 0.0, "score_nse": 0.0, "NSE": null, "VIVTOT": 0.0, "GRAPROES": 0.0, "_ent": "21", "_mun": "164", "_loc": "0027"}, "geometry": {"type": "Polygon", "coordinates": [[[-97.86579, 18.9849], [-97.86521, 18.98429], [-97.86514, 18.98421], [-97.86597, 18.98453], [-97.86579, 18.9849]]]}}, {"id": "1727533", "type": "Feature", "properties": {"id": "1727533", "CVEGEO": "2116400270397021", "POBTOT": 0.0, "score_nse": 0.0, "NSE": null, "VIVTOT": 0.0, "GRAPROES": 0.0, "_ent": "21", "_mun": "164", "_loc": "0027"}, "geometry": {"type": "Polygon", "coordinates": [[[-97.86503, 18.98404], [-97.8646, 18.98324], [-97.86458, 18.98286], [-97.8654, 18.98327], [-97.86503, 18.98404]]]}}, {"id": "1727534", "type": "Feature", "properties": {"id": "1727534", "CVEGEO": "2116400270397020", "POBTOT": 0.0, "score_nse": 0.0, "NSE": null, "VIVTOT": 0.0, "GRAPROES": 0.0, "_ent": "21", "_mun": "164", "_loc": "0027"}, "geometry": {"type": "Polygon", "coordinates": [[[-97.866, 18.98446], [-97.86557, 18.9843], [-97.86576, 18.98381], [-97.86526, 18.98376], [-97.86547, 18.9833], [-97.86635, 18.98374], [-97.866, 18.98446]]]}}, {"id": "1727535", "type": "Feature", "properties": {"id": "1727535", "CVEGEO": "2116400270397017", "POBTOT": 0.0, "score_nse": 0.0, "NSE": null, "VIVTOT": 0.0, "GRAPROES": 0.0, "_ent": "21", "_mun": "164", "_loc": "0027"}, "geometry": {"type": "Polygon", "coordinates": [[[-97.86747, 18.98388], [-97.86785, 18.98313], [-97.86861, 18.98336], [-97.86813, 18.98404], [-97.86747, 18.98388]]]}}, {"id": "1727536", "type": "Feature", "properties": {"id": "1727536", "CVEGEO": "2116400270397006", "POBTOT": 0.0, "score_nse": 0.0, "NSE": null, "VIVTOT": 0.0, "GRAPROES": 0.0, "_ent": "21", "_mun": "164", "_loc": "0027"}, "geometry": {"type": "Polygon", "coordinates": [[[-97.86823, 18.98221], [-97.86781, 18.98305], [-97.86689, 18.98278], [-97.86728, 18.98197], [-97.86823, 18.98221]]]}}, {"id": "1727537", "type": "Feature", "properties": {"id": "1727537", "CVEGEO": "2116400270397005", "POBTOT": 0.0, "score_nse": 0.0, "NSE": null, "VIVTOT": 0.0, "GRAPROES": 0.0, "_ent": "21", "_mun": "164", "_loc": "0027"}, "geometry": {"type": "Polygon", "coordinates": [[[-97.86731, 18.9819], [-97.86769, 18.98108], [-97.86867, 18.98132], [-97.86826, 18.98214], [-97.86731, 18.9819]]]}}, {"id": "1727538", "type": "Feature", "properties": {"id": "1727538", "CVEGEO": "2116400270397004", "POBTOT": 0.0, "score_nse": 0.0, "NSE": null, "VIVTOT": 0.0, "GRAPROES": 0.0, "_ent": "21", "_mun": "164", "_loc": "0027"}, "geometry": {"type": "Polygon", "coordinates": [[[-97.86721, 18.98194], [-97.86632, 18.98153], [-97.86674, 18.98065], [-97.867, 18.98079], [-97.86684, 18.98119], [-97.86705, 18.98082], [-97.8676, 18.9811], [-97.86721, 18.98194]]]}}, {"id": "1727539", "type": "Feature", "properties": {"id": "1727539", "CVEGEO": "2116400270397002", "POBTOT": 0.0, "score_nse": 0.0, "NSE": null, "VIVTOT": 0.0, "GRAPROES": 0.0, "_ent": "21", "_mun": "164", "_loc": "0027"}, "geometry": {"type": "Polygon", "coordinates": [[[-97.86499, 18.98194], [-97.86536, 18.98116], [-97.86622, 18.98156], [-97.86584, 18.98235], [-97.86499, 18.98194]]]}}, {"id": "1727540", "type": "Feature", "properties": {"id": "1727540", "CVEGEO": "2116400270397001", "POBTOT": 0.0, "score_nse": 0.0, "NSE": null, "VIVTOT": 0.0, "GRAPROES": 0.0, "_ent": "21", "_mun": "164", "_loc": "0027"}, "geometry": {"type": "Polygon", "coordinates": [[[-97.86679, 18.98281], [-97.86591, 18.98238], [-97.86629, 18.9816], [-97.86717, 18.98201], [-97.86679, 18.98281]]]}}, {"id": "1727737", "type": "Feature", "properties": {"id": "1727737", "CVEGEO": "2116400270397026", "POBTOT": 0.0, "score_nse": 0.0, "NSE": null, "VIVTOT": 0.0, "GRAPROES": 0.0, "_ent": "21", "_mun": "164", "_loc": "0027"}, "geometry": {"type": "Polygon", "coordinates": [[[-97.86706, 18.97968], [-97.86722, 18.97951], [-97.86803, 18.98002], [-97.86793, 18.9802], [-97.86706, 18.97968]]]}}, {"id": "1727738", "type": "Feature", "properties": {"id": "1727738", "CVEGEO": "2116400270397014", "POBTOT": 0.0, "score_nse": 0.0, "NSE": null, "VIVTOT": 0.0, "GRAPROES": 0.0, "_ent": "21", "_mun": "164", "_loc": "0027"}, "geometry": {"type": "Polygon", "coordinates": [[[-97.86911, 18.98061], [-97.87021, 18.9811], [-97.86991, 18.98152], [-97.86878, 18.98127], [-97.86911, 18.98061]]]}}, {"id": "1727813", "type": "Feature", "properties": {"id": "1727813", "CVEGEO": "2116400270397031", "POBTOT": 0.0, "score_nse": 0.0, "NSE": null, "VIVTOT": 0.0, "GRAPROES": 0.0, "_ent": "21", "_mun": "164", "_loc": "0027"}, "geometry": {"type": "Polygon", "coordinates": [[[-97.86818, 18.98006], [-97.86894, 18.98048], [-97.86781, 18.98072], [-97.86818, 18.98006]]]}}, {"id": "1727850", "type": "Feature", "properties": {"id": "1727850", "CVEGEO": "2116400270397027", "POBTOT": 0.0, "score_nse": 0.0, "NSE": null, "VIVTOT": 0.0, "GRAPROES": 0.0, "_ent": "21", "_mun": "164", "_loc": "0027"}, "geometry": {"type": "Polygon", "coordinates": [[[-97.86822, 18.97998], [-97.86943, 18.97788], [-97.86973, 18.97797], [-97.86945, 18.97783], [-97.86971, 18.97738], [-97.87138, 18.97838], [-97.86986, 18.97908], [-97.86902, 18.98036], [-97.86822, 18.97998]]]}}, {"id": "1727905", "type": "Feature", "properties": {"id": "1727905", "CVEGEO": "2116400270397016", "POBTOT": 0.0, "score_nse": 0.0, "NSE": null, "VIVTOT": 0.0, "GRAPROES": 0.0, "_ent": "21", "_mun": "164", "_loc": "0027"}, "geometry": {"type": "Polygon", "coordinates": [[[-97.86865, 18.98329], [-97.86818, 18.98315], [-97.86831, 18.98275], [-97.86814, 18.98314], [-97.86788, 18.98307], [-97.8683, 18.98223], [-97.86924, 18.98247], [-97.86888, 18.98297], [-97.86866, 18.9829], [-97.86885, 18.98301], [-97.86865, 18.98329]]]}}, {"id": "1727911", "type": "Feature", "properties": {"id": "1727911", "CVEGEO": "2116400270397032", "POBTOT": 0.0, "score_nse": 0.0, "NSE": null, "VIVTOT": 0.0, "GRAPROES": 0.0, "_ent": "21", "_mun": "164", "_loc": "0027"}, "geometry": {"type": "Polygon", "coordinates": [[[-97.86699, 18.97599], [-97.86713, 18.9758], [-97.86962, 18.97731], [-97.86809, 18.97996], [-97.86729, 18.97946], [-97.86847, 18.97716], [-97.86699, 18.97599]]]}}, {"id": "1727912", "type": "Feature", "properties": {"id": "1727912", "CVEGEO": "2116400270397022", "POBTOT": 0.0, "score_nse": 0.0, "NSE": null, "VIVTOT": 0.0, "GRAPROES": 0.0, "_ent": "21", "_mun": "164", "_loc": "0027"}, "geometry": {"type": "Polygon", "coordinates": [[[-97.86708, 18.97575], [-97.86693, 18.97596], [-97.86485, 18.97458], [-97.86492, 18.97444], [-97.86708, 18.97575]]]}}, {"id": "1727923", "type": "Feature", "properties": {"id": "1727923", "CVEGEO": "2116400270397003", "POBTOT": 0.0, "score_nse": 0.0, "NSE": null, "VIVTOT": 0.0, "GRAPROES": 0.0, "_ent": "21", "_mun": "164", "_loc": "0027"}, "geometry": {"type": "Polygon", "coordinates": [[[-97.86625, 18.9815], [-97.86539, 18.9811], [-97.86581, 18.98024], [-97.86608, 18.98035], [-97.86593, 18.9807], [-97.86613, 18.98037], [-97.86667, 18.98062], [-97.86652, 18.98094], [-97.86611, 18.98079], [-97.86649, 18.98099], [-97.86625, 18.9815]]]}}, {"id": "1727970", "type": "Feature", "properties": {"id": "1727970", "CVEGEO": "2116400270397028", "POBTOT": 0.0, "score_nse": 0.0, "NSE": null, "VIVTOT": 0.0, "GRAPROES": 0.0, "_ent": "21", "_mun": "164", "_loc": "0027"}, "geometry": {"type": "Polygon", "coordinates": [[[-97.86491, 18.98417], [-97.86327, 18.98302], [-97.86373, 18.98229], [-97.86438, 18.98279], [-97.86441, 18.98329], [-97.86491, 18.98417]]]}}, {"id": "1727982", "type": "Feature", "properties": {"id": "1727982", "CVEGEO": "2116400270397033", "POBTOT": 0.0, "score_nse": 0.0, "NSE": null, "VIVTOT": 0.0, "GRAPROES": 0.0, "_ent": "21", "_mun": "164", "_loc": "0027"}, "geometry": {"type": "Polygon", "coordinates": [[[-97.86438, 18.9827], [-97.86377, 18.98224], [-97.86413, 18.98165], [-97.8644, 18.9823], [-97.86438, 18.9827]]]}}, {"id": "1728149", "type": "Feature", "properties": {"id": "1728149", "CVEGEO": "2116400270397012", "POBTOT": 0.0, "score_nse": 0.0, "NSE": null, "VIVTOT": 0.0, "GRAPROES": 0.0, "_ent": "21", "_mun": "164", "_loc": "0027"}, "geometry": {"type": "Polygon", "coordinates": [[[-97.86607, 18.98025], [-97.8639, 18.97989], [-97.86399, 18.97939], [-97.86379, 18.97891], [-97.86417, 18.97897], [-97.86408, 18.97945], [-97.86421, 18.97898], [-97.86441, 18.97901], [-97.86427, 18.97961], [-97.86446, 18.97903], [-97.86508, 18.97912], [-97.86677, 18.97955], [-97.86786, 18.98028], [-97.86759, 18.98101], [-97.86611, 18.98026], [-97.86627, 18.97986], [-97.86607, 18.98025]]]}}, {"id": "1728150", "type": "Feature", "properties": {"id": "1728150", "CVEGEO": "2116400270397025", "POBTOT": 0.0, "score_nse": 0.0, "NSE": null, "VIVTOT": 0.0, "GRAPROES": 0.0, "_ent": "21", "_mun": "164", "_loc": "0027"}, "geometry": {"type": "Polygon", "coordinates": [[[-97.86363, 18.97898], [-97.86351, 18.97944], [-97.86367, 18.98014], [-97.86333, 18.98064], [-97.86173, 18.98002], [-97.86246, 18.97873], [-97.86363, 18.97898]]]}}, {"id": "1728151", "type": "Feature", "properties": {"id": "1728151", "CVEGEO": "2116400270397029", "POBTOT": 0.0, "score_nse": 0.0, "NSE": null, "VIVTOT": 0.0, "GRAPROES": 0.0, "_ent": "21", "_mun": "164", "_loc": "0027"}, "geometry": {"type": "Polygon", "coordinates": [[[-97.86405, 18.97804], [-97.86316, 18.97762], [-97.86314, 18.97742], [-97.86488, 18.97478], [-97.86586, 18.97539], [-97.86495, 18.97664], [-97.86589, 18.97543], [-97.86685, 18.97607], [-97.86534, 18.97827], [-97.86692, 18.97611], [-97.86832, 18.97714], [-97.86768, 18.97858], [-97.86702, 18.97959], [-97.86674, 18.97942], [-97.86396, 18.97881], [-97.86341, 18.97836], [-97.86318, 18.97771], [-97.86406, 18.9781], [-97.86436, 18.97772], [-97.86405, 18.97804]]]}}, {"id": "1728152", "type": "Feature", "properties": {"id": "1728152", "CVEGEO": "2116400270397034", "POBTOT": 0.0, "score_nse": 0.0, "NSE": null, "VIVTOT": 0.0, "GRAPROES": 0.0, "_ent": "21", "_mun": "164", "_loc": "0027"}, "geometry": {"type": "Polygon", "coordinates": [[[-97.8637, 18.97913], [-97.86385, 18.97947], [-97.86373, 18.98083], [-97.86339, 18.9807], [-97.86372, 18.9802], [-97.86373, 18.97963], [-97.86358, 18.97942], [-97.8637, 18.97913]]]}}, {"id": "1728170", "type": "Feature", "properties": {"id": "1728170", "CVEGEO": "2116400270397008", "POBTOT": 0.0, "score_nse": 0.0, "NSE": null, "VIVTOT": 0.0, "GRAPROES": 0.0, "_ent": "21", "_mun": "164", "_loc": "0027"}, "geometry": {"type": "Polygon", "coordinates": [[[-97.86638, 18.98367], [-97.8655, 18.98324], [-97.86561, 18.98301], [-97.86579, 18.98305], [-97.86564, 18.98296], [-97.86588, 18.98245], [-97.86676, 18.98287], [-97.86654, 18.98333], [-97.86631, 18.98325], [-97.86652, 18.98338], [-97.86638, 18.98367]]]}}]}