{"type": "FeatureCollection", "features": [{"id": "1013242", "type": "Feature", "properties": {"id": "1013242", "CVEGEO": "1410200220021011", "POBTOT": 0.0, "score_nse": 0.0, "NSE": null, "VIVTOT": 0.0, "GRAPROES": 0.0, "_ent": "14", "_mun": "102", "_loc": "0022"}, "geometry": {"type": "Polygon", "coordinates": [[[-103.946, 19.82676], [-103.94432, 19.82586], [-103.94459, 19.82522], [-103.94509, 19.82545], [-103.94486, 19.82587], [-103.94614, 19.82652], [-103.946, 19.82676]]]}}, {"id": "1013243", "type": "Feature", "properties": {"id": "1013243", "CVEGEO": "1410200220021010", "POBTOT": 0.0, "score_nse": 0.0, "NSE": null, "VIVTOT": 0.0, "GRAPROES": 0.0, "_ent": "14", "_mun": "102", "_loc": "0022"}, "geometry": {"type": "Polygon", "coordinates": [[[-103.94492, 19.82586], [-103.94516, 19.82548], [-103.94594, 19.82588], [-103.9457, 19.82626], [-103.94492, 19.82586]]]}}, {"id": "1013263", "type": "Feature", "properties": {"id": "1013263", "CVEGEO": "1410200220021002", "POBTOT": 0.0, "score_nse": 0.0, "NSE": null, "VIVTOT": 0.0, "GRAPROES": 0.0, "_ent": "14", "_mun": "102", "_loc": "0022"}, "geometry": {"type": "Polygon", "coordinates": [[[-103.94481, 19.82451], [-103.94483, 19.82415], [-103.94521, 19.82439], [-103.945, 19.82447], [-103.94481, 19.82451]]]}}, {"id": "1013264", "type": "Feature", "properties": {"id": "1013264", "CVEGEO": "1410200220021001", "POBTOT": 0.0, "score_nse": 0.0, "NSE": null, "VIVTOT": 0.0, "GRAPROES": 0.0, "_ent": "14", "_mun": "102", "_loc": "0022"}, "geometry": {"type": "Polygon", "coordinates": [[[-103.94529, 19.82336], [-103.94592, 19.82394], [-103.94564, 19.82425], [-103.94524, 19.82435], [-103.94483, 19.82411], [-103.94487, 19.82371], [-103.94529, 19.82336]]]}}, {"id": "1013295", "type": "Feature", "properties": {"id": "1013295", "CVEGEO": "1410200220021007", "POBTOT": 0.0, "score_nse": 0.0, "NSE": null, "VIVTOT": 0.0, "GRAPROES": 0.0, "_ent": "14", "_mun": "102", "_loc": "0022"}, "geometry": {"type": "Polygon", "coordinates": [[[-103.94484, 19.82474], [-103.94618, 19.82542], [-103.94596, 19.82582], [-103.94465, 19.82514], [-103.94484, 19.82474]]]}}, {"id": "1013296", "type": "Feature", "properties": {"id": "1013296", "CVEGEO": "1410200220021006", "POBTOT": 0.0, "score_nse": 0.0, "NSE": null, "VIVTOT": 0.0, "GRAPROES": 0.0, "_ent": "14", "_mun": "102", "_loc": "0022"}, "geometry": {"type": "Polygon", "coordinates": [[[-103.94645, 19.82602], [-103.94602, 19.82584], [-103.94622, 19.82545], [-103.94646, 19.82558], [-103.94645, 19.82602]]]}}, {"id": "1013385", "type": "Feature", "properties": {"id": "1013385", "CVEGEO": "1410200220021009", "POBTOT": 0.0, "score_nse": 0.0, "NSE": null, "VIVTOT": 0.0, "GRAPROES": 0.0, "_ent": "14", "_mun": "102", "_loc": "0022"}, "geometry": {"type": "Polygon", "coordinates": [[[-103.94644, 19.82608], [-103.94618, 19.82648], [-103.94576, 19.82627], [-103.946, 19.8259], [-103.94644, 19.82608]]]}}, {"id": "1013397", "type": "Feature", "properties": {"id": "1013397", "CVEGEO": "1410200220021004", "POBTOT": 0.0, "score_nse": 0.0, "NSE": null, "VIVTOT": 0.0, "GRAPROES": 0.0, "_ent": "14", "_mun": "102", "_loc": "0022"}, "geometry": {"type": "Polygon", "coordinates": [[[-103.94478, 19.82304], [-103.94447, 19.82404], [-103.94288, 19.82374], [-103.94289, 19.82339], [-103.94327, 19.82303], [-103.94451, 19.82291], [-103.94478, 19.82304]]]}}, {"id": "1013398", "type": "Feature", "properties": {"id": "1013398", "CVEGEO": "1410200220021003", "POBTOT": 0.0, "score_nse": 0.0, "NSE": null, "VIVTOT": 0.0, "GRAPROES": 0.0, "_ent": "14", "_mun": "102", "_loc": "0022"}, "geometry": {"type": "Polygon", "coordinates": [[[-103.94503, 19.82316], [-103.9449, 19.82322], [-103.94472, 19.82458], [-103.94429, 19.82573], [-103.94392, 19.82556], [-103.94455, 19.8244], [-103.94489, 19.82308], [-103.94503, 19.82316]]]}}, {"id": "1013442", "type": "Feature", "properties": {"id": "1013442", "CVEGEO": "1410200220021005", "POBTOT": 0.0, "score_nse": 0.0, "NSE": null, "VIVTOT": 0.0, "GRAPROES": 0.0, "_ent": "14", "_mun": "102", "_loc": "0022"}, "geometry": {"type": "Polygon", "coordinates": [[[-103.9454, 19.82279], [-103.94601, 19.82298], [-103.94676, 19.82293], [-103.94691, 19.82513], [-103.94658, 19.82553], [-103.94483, 19.82466], [-103.94482, 19.82455], [-103.94526, 19.82443], [-103.94594, 19.82486], [-103.94609, 19.82488], [-103.94528, 19.8244], [-103.94571, 19.82428], [-103.94599, 19.82395], [-103.94517, 19.82312], [-103.9454, 19.82279]]]}}, {"id": "1013477", "type": "Feature", "properties": {"id": "1013477", "CVEGEO": "1410200220021008", "POBTOT": 0.0, "score_nse": 0.0, "NSE": null, "VIVTOT": 0.0, "GRAPROES": 0.0, "_ent": "14", "_mun": "102", "_loc": "0022"}, "geometry": {"type": "Polygon", "coordinates": [[[-103.94288, 19.82312], [-103.9426, 19.82309], [-103.94225, 19.8227], [-103.94194, 19.82259], [-103.94238, 19.8215], [-103.94289, 19.82153], [-103.94289, 19.82223], [-103.94312, 19.82291], [-103.94288, 19.82312]]]}}, {"id": "1013478", "type": "Feature", "properties": {"id": "1013478", "CVEGEO": "1410200220021013", "POBTOT": 0.0, "score_nse": 0.0, "NSE": null, "VIVTOT": 0.0, "GRAPROES": 0.0, "_ent": "14", "_mun": "102", "_loc": "0022"}, "geometry": {"type": "Polygon", "coordinates": [[[-103.94278, 19.82322], [-103.94277, 19.82367], [-103.94233, 19.82328], [-103.94278, 19.82322]]]}}]}