{"type": "FeatureCollection", "features": [{"id": "1013291", "type": "Feature", "properties": {"id": "1013291", "CVEGEO": "1410200260017001", "POBTOT": 0.0, "score_nse": 0.0, "NSE": null, "VIVTOT": 0.0, "GRAPROES": 0.0, "_ent": "14", "_mun": "102", "_loc": "0026"}, "geometry": {"type": "Polygon", "coordinates": [[[-103.94055, 19.91379], [-103.93976, 19.91456], [-103.93949, 19.91456], [-103.93925, 19.91433], [-103.93925, 19.91385], [-103.93966, 19.91325], [-103.94055, 19.91379]]]}}, {"id": "1013292", "type": "Feature", "properties": {"id": "1013292", "CVEGEO": "1410200260017005", "POBTOT": 0.0, "score_nse": 0.0, "NSE": null, "VIVTOT": 0.0, "GRAPROES": 0.0, "_ent": "14", "_mun": "102", "_loc": "0026"}, "geometry": {"type": "Polygon", "coordinates": [[[-103.9405, 19.91368], [-103.93968, 19.9132], [-103.93982, 19.91273], [-103.94077, 19.9133], [-103.9405, 19.91368]]]}}, {"id": "1013378", "type": "Feature", "properties": {"id": "1013378", "CVEGEO": "1410200260017004", "POBTOT": 0.0, "score_nse": 0.0, "NSE": null, "VIVTOT": 0.0, "GRAPROES": 0.0, "_ent": "14", "_mun": "102", "_loc": "0026"}, "geometry": {"type": "Polygon", "coordinates": [[[-103.93785, 19.91322], [-103.93891, 19.91305], [-103.93956, 19.9132], [-103.93927, 19.91376], [-103.9386, 19.91387], [-103.93803, 19.91352], [-103.93785, 19.91322]]]}}, {"id": "1013383", "type": "Feature", "properties": {"id": "1013383", "CVEGEO": "1410200260017003", "POBTOT": 0.0, "score_nse": 0.0, "NSE": null, "VIVTOT": 0.0, "GRAPROES": 0.0, "_ent": "14", "_mun": "102", "_loc": "0026"}, "geometry": {"type": "Polygon", "coordinates": [[[-103.93863, 19.91448], [-103.93797, 19.91447], [-103.93793, 19.91412], [-103.93837, 19.91379], [-103.93861, 19.91391], [-103.93873, 19.91432], [-103.93863, 19.91448]]]}}, {"id": "1013384", "type": "Feature", "properties": {"id": "1013384", "CVEGEO": "1410200260017002", "POBTOT": 0.0, "score_nse": 0.0, "NSE": null, "VIVTOT": 0.0, "GRAPROES": 0.0, "_ent": "14", "_mun": "102", "_loc": "0026"}, "geometry": {"type": "Polygon", "coordinates": [[[-103.93918, 19.91425], [-103.9389, 19.91437], [-103.93917, 19.91432], [-103.93946, 19.91458], [-103.93973, 19.91459], [-103.93974, 19.91485], [-103.93923, 19.9148], [-103.93917, 19.91503], [-103.93865, 19.91499], [-103.93878, 19.91439], [-103.9387, 19.91395], [-103.93916, 19.91386], [-103.93918, 19.91425]]]}}]}