{"type": "FeatureCollection", "features": [{"id": "924833", "type": "Feature", "properties": {"id": "924833", "CVEGEO": "1403700200017005", "POBTOT": 0.0, "score_nse": 0.0, "NSE": null, "VIVTOT": 0.0, "GRAPROES": 0.0, "_ent": "14", "_mun": "037", "_loc": "0020"}, "geometry": {"type": "Polygon", "coordinates": [[[-104.28605, 19.85477], [-104.28665, 19.85394], [-104.28761, 19.85452], [-104.28806, 19.85496], [-104.28946, 19.85702], [-104.28844, 19.85669], [-104.28675, 19.85541], [-104.28605, 19.85477]]]}}, {"id": "924834", "type": "Feature", "properties": {"id": "924834", "CVEGEO": "1403700200017004", "POBTOT": 0.0, "score_nse": 0.0, "NSE": null, "VIVTOT": 0.0, "GRAPROES": 0.0, "_ent": "14", "_mun": "037", "_loc": "0020"}, "geometry": {"type": "Polygon", "coordinates": [[[-104.28521, 19.85403], [-104.28509, 19.8537], [-104.28473, 19.85327], [-104.28462, 19.85269], [-104.2842, 19.85227], [-104.28447, 19.85211], [-104.28481, 19.85257], [-104.28577, 19.85334], [-104.28521, 19.85403]]]}}, {"id": "924835", "type": "Feature", "properties": {"id": "924835", "CVEGEO": "1403700200017003", "POBTOT": 0.0, "score_nse": 0.0, "NSE": null, "VIVTOT": 0.0, "GRAPROES": 0.0, "_ent": "14", "_mun": "037", "_loc": "0020"}, "geometry": {"type": "Polygon", "coordinates": [[[-104.28571, 19.85507], [-104.28448, 19.85414], [-104.28295, 19.85165], [-104.28299, 19.85149], [-104.28331, 19.85214], [-104.28385, 19.85215], [-104.28432, 19.85254], [-104.28502, 19.85398], [-104.28578, 19.85462], [-104.28561, 19.85463], [-104.28596, 19.85476], [-104.28571, 19.85507]]]}}, {"id": "924836", "type": "Feature", "properties": {"id": "924836", "CVEGEO": "1403700200017002", "POBTOT": 0.0, "score_nse": 0.0, "NSE": null, "VIVTOT": 0.0, "GRAPROES": 0.0, "_ent": "14", "_mun": "037", "_loc": "0020"}, "geometry": {"type": "Polygon", "coordinates": [[[-104.28568, 19.85533], [-104.28612, 19.85558], [-104.28542, 19.85607], [-104.2851, 19.85579], [-104.28486, 19.85487], [-104.28447, 19.85419], [-104.28558, 19.85503], [-104.28568, 19.85533]]]}}, {"id": "925084", "type": "Feature", "properties": {"id": "925084", "CVEGEO": "1403700200017011", "POBTOT": 0.0, "score_nse": 0.0, "NSE": null, "VIVTOT": 0.0, "GRAPROES": 0.0, "_ent": "14", "_mun": "037", "_loc": "0020"}, "geometry": {"type": "Polygon", "coordinates": [[[-104.28527, 19.85408], [-104.28584, 19.85339], [-104.28658, 19.8539], [-104.28602, 19.85469], [-104.28527, 19.85408]]]}}, {"id": "925085", "type": "Feature", "properties": {"id": "925085", "CVEGEO": "1403700200017009", "POBTOT": 0.0, "score_nse": 0.0, "NSE": null, "VIVTOT": 0.0, "GRAPROES": 0.0, "_ent": "14", "_mun": "037", "_loc": "0020"}, "geometry": {"type": "Polygon", "coordinates": [[[-104.28797, 19.8573], [-104.2885, 19.85686], [-104.28925, 19.85755], [-104.29012, 19.85799], [-104.28975, 19.85834], [-104.28797, 19.8573]]]}}, {"id": "925086", "type": "Feature", "properties": {"id": "925086", "CVEGEO": "1403700200017008", "POBTOT": 0.0, "score_nse": 0.0, "NSE": null, "VIVTOT": 0.0, "GRAPROES": 0.0, "_ent": "14", "_mun": "037", "_loc": "0020"}, "geometry": {"type": "Polygon", "coordinates": [[[-104.28343, 19.85106], [-104.28418, 19.85187], [-104.28442, 19.85205], [-104.28412, 19.85224], [-104.28384, 19.85205], [-104.28332, 19.85207], [-104.28299, 19.85141], [-104.28343, 19.85106]]]}}, {"id": "925087", "type": "Feature", "properties": {"id": "925087", "CVEGEO": "1403700200017007", "POBTOT": 0.0, "score_nse": 0.0, "NSE": null, "VIVTOT": 0.0, "GRAPROES": 0.0, "_ent": "14", "_mun": "037", "_loc": "0020"}, "geometry": {"type": "Polygon", "coordinates": [[[-104.28848, 19.85855], [-104.2871, 19.85791], [-104.28626, 19.85674], [-104.28552, 19.85611], [-104.28621, 19.85565], [-104.28755, 19.85717], [-104.2896, 19.85834], [-104.28867, 19.85914], [-104.28848, 19.85855]]]}}, {"id": "925088", "type": "Feature", "properties": {"id": "925088", "CVEGEO": "1403700200017006", "POBTOT": 0.0, "score_nse": 0.0, "NSE": null, "VIVTOT": 0.0, "GRAPROES": 0.0, "_ent": "14", "_mun": "037", "_loc": "0020"}, "geometry": {"type": "Polygon", "coordinates": [[[-104.28671, 19.85549], [-104.2884, 19.85682], [-104.28786, 19.85726], [-104.28632, 19.8558], [-104.28671, 19.85549]]]}}, {"id": "925175", "type": "Feature", "properties": {"id": "925175", "CVEGEO": "1403700200017001", "POBTOT": 0.0, "score_nse": 0.0, "NSE": null, "VIVTOT": 0.0, "GRAPROES": 0.0, "_ent": "14", "_mun": "037", "_loc": "0020"}, "geometry": {"type": "Polygon", "coordinates": [[[-104.28665, 19.85549], [-104.28645, 19.85563], [-104.28571, 19.85519], [-104.286, 19.85482], [-104.28665, 19.85549]]]}}]}