{"type": "FeatureCollection", "features": [{"id": "1534914", "type": "Feature", "properties": {"id": "1534914", "CVEGEO": "2015900110053015", "POBTOT": 0.0, "score_nse": 0.0, "NSE": null, "VIVTOT": 0.0, "GRAPROES": 0.0, "_ent": "20", "_mun": "159", "_loc": "0011"}, "geometry": {"type": "Polygon", "coordinates": [[[-97.05257, 16.14531], [-97.05274, 16.14455], [-97.05297, 16.1455], [-97.05273, 16.14615], [-97.05257, 16.14531]]]}}, {"id": "1534950", "type": "Feature", "properties": {"id": "1534950", "CVEGEO": "2015900110053001", "POBTOT": 0.0, "score_nse": 0.0, "NSE": null, "VIVTOT": 0.0, "GRAPROES": 0.0, "_ent": "20", "_mun": "159", "_loc": "0011"}, "geometry": {"type": "Polygon", "coordinates": [[[-97.04998, 16.14013], [-97.04958, 16.14032], [-97.04933, 16.13985], [-97.04976, 16.13964], [-97.04998, 16.14013]]]}}, {"id": "1534951", "type": "Feature", "properties": {"id": "1534951", "CVEGEO": "2015900110053005", "POBTOT": 0.0, "score_nse": 0.0, "NSE": null, "VIVTOT": 0.0, "GRAPROES": 0.0, "_ent": "20", "_mun": "159", "_loc": "0011"}, "geometry": {"type": "Polygon", "coordinates": [[[-97.04997, 16.14117], [-97.0496, 16.14129], [-97.04924, 16.14054], [-97.04956, 16.14039], [-97.04997, 16.14117]]]}}, {"id": "1534952", "type": "Feature", "properties": {"id": "1534952", "CVEGEO": "2015900110053013", "POBTOT": 0.0, "score_nse": 0.0, "NSE": null, "VIVTOT": 0.0, "GRAPROES": 0.0, "_ent": "20", "_mun": "159", "_loc": "0011"}, "geometry": {"type": "Polygon", "coordinates": [[[-97.05107, 16.14278], [-97.05059, 16.14155], [-97.05053, 16.14112], [-97.05095, 16.14104], [-97.0509, 16.14143], [-97.05107, 16.14197], [-97.05202, 16.14344], [-97.05159, 16.14333], [-97.05107, 16.14278]]]}}, {"id": "1534953", "type": "Feature", "properties": {"id": "1534953", "CVEGEO": "2015900110053012", "POBTOT": 0.0, "score_nse": 0.0, "NSE": null, "VIVTOT": 0.0, "GRAPROES": 0.0, "_ent": "20", "_mun": "159", "_loc": "0011"}, "geometry": {"type": "Polygon", "coordinates": [[[-97.05251, 16.14527], [-97.05109, 16.14348], [-97.05214, 16.14383], [-97.05253, 16.14418], [-97.05267, 16.14466], [-97.05251, 16.14527]]]}}, {"id": "1534962", "type": "Feature", "properties": {"id": "1534962", "CVEGEO": "2015900110053010", "POBTOT": 0.0, "score_nse": 0.0, "NSE": null, "VIVTOT": 0.0, "GRAPROES": 0.0, "_ent": "20", "_mun": "159", "_loc": "0011"}, "geometry": {"type": "Polygon", "coordinates": [[[-97.04983, 16.14202], [-97.04941, 16.14167], [-97.04891, 16.14171], [-97.04954, 16.14137], [-97.04983, 16.14202]]]}}, {"id": "1534965", "type": "Feature", "properties": {"id": "1534965", "CVEGEO": "2015900110053002", "POBTOT": 0.0, "score_nse": 0.0, "NSE": null, "VIVTOT": 0.0, "GRAPROES": 0.0, "_ent": "20", "_mun": "159", "_loc": "0011"}, "geometry": {"type": "Polygon", "coordinates": [[[-97.04998, 16.13949], [-97.04926, 16.13982], [-97.04954, 16.14034], [-97.04918, 16.14052], [-97.04955, 16.14132], [-97.0492, 16.14151], [-97.04896, 16.14122], [-97.04874, 16.1403], [-97.0493, 16.13879], [-97.04979, 16.13838], [-97.05009, 16.13855], [-97.04998, 16.13949]]]}}, {"id": "1534966", "type": "Feature", "properties": {"id": "1534966", "CVEGEO": "2015900110053007", "POBTOT": 0.0, "score_nse": 0.0, "NSE": null, "VIVTOT": 0.0, "GRAPROES": 0.0, "_ent": "20", "_mun": "159", "_loc": "0011"}, "geometry": {"type": "Polygon", "coordinates": [[[-97.05183, 16.14129], [-97.05183, 16.14156], [-97.05187, 16.14128], [-97.05153, 16.1409], [-97.05272, 16.1406], [-97.05223, 16.14211], [-97.05227, 16.14247], [-97.05194, 16.14309], [-97.05184, 16.14263], [-97.05185, 16.14306], [-97.05111, 16.14195], [-97.05093, 16.14135], [-97.05107, 16.141], [-97.0515, 16.14091], [-97.05183, 16.14129]]]}}, {"id": "1534968", "type": "Feature", "properties": {"id": "1534968", "CVEGEO": "2015900110053011", "POBTOT": 0.0, "score_nse": 0.0, "NSE": null, "VIVTOT": 0.0, "GRAPROES": 0.0, "_ent": "20", "_mun": "159", "_loc": "0011"}, "geometry": {"type": "Polygon", "coordinates": [[[-97.04916, 16.14153], [-97.04789, 16.14196], [-97.04616, 16.14155], [-97.04535, 16.14175], [-97.04446, 16.14143], [-97.04296, 16.14124], [-97.04394, 16.14099], [-97.04439, 16.14065], [-97.04552, 16.14063], [-97.04598, 16.14103], [-97.04725, 16.14154], [-97.04813, 16.1416], [-97.04892, 16.14124], [-97.04916, 16.14153]]]}}, {"id": "1534996", "type": "Feature", "properties": {"id": "1534996", "CVEGEO": "2015900110053003", "POBTOT": 0.0, "score_nse": 0.0, "NSE": null, "VIVTOT": 0.0, "GRAPROES": 0.0, "_ent": "20", "_mun": "159", "_loc": "0011"}, "geometry": {"type": "Polygon", "coordinates": [[[-97.05044, 16.14107], [-97.05003, 16.14115], [-97.04961, 16.14036], [-97.05004, 16.14016], [-97.0498, 16.13963], [-97.05008, 16.1395], [-97.05044, 16.14107]]]}}, {"id": "1535012", "type": "Feature", "properties": {"id": "1535012", "CVEGEO": "2015900110053006", "POBTOT": 0.0, "score_nse": 0.0, "NSE": null, "VIVTOT": 0.0, "GRAPROES": 0.0, "_ent": "20", "_mun": "159", "_loc": "0011"}, "geometry": {"type": "Polygon", "coordinates": [[[-97.05337, 16.13971], [-97.05269, 16.14052], [-97.05219, 16.14066], [-97.05228, 16.14027], [-97.05139, 16.14007], [-97.05222, 16.1403], [-97.05214, 16.14066], [-97.05103, 16.14092], [-97.05079, 16.14066], [-97.05052, 16.13967], [-97.05081, 16.13956], [-97.05055, 16.13956], [-97.05047, 16.13897], [-97.05062, 16.13864], [-97.05107, 16.13842], [-97.05126, 16.13779], [-97.05238, 16.13692], [-97.05257, 16.13737], [-97.05236, 16.13811], [-97.05246, 16.13866], [-97.05275, 16.13919], [-97.05337, 16.13971]]]}}, {"id": "1535013", "type": "Feature", "properties": {"id": "1535013", "CVEGEO": "2015900110053008", "POBTOT": 0.0, "score_nse": 0.0, "NSE": null, "VIVTOT": 0.0, "GRAPROES": 0.0, "_ent": "20", "_mun": "159", "_loc": "0011"}, "geometry": {"type": "Polygon", "coordinates": [[[-97.05041, 16.14114], [-97.05028, 16.14221], [-97.05002, 16.14236], [-97.04986, 16.142], [-97.05002, 16.14168], [-97.04983, 16.14127], [-97.05041, 16.14114]]]}}, {"id": "1535014", "type": "Feature", "properties": {"id": "1535014", "CVEGEO": "2015900110053017", "POBTOT": 0.0, "score_nse": 0.0, "NSE": null, "VIVTOT": 0.0, "GRAPROES": 0.0, "_ent": "20", "_mun": "159", "_loc": "0011"}, "geometry": {"type": "Polygon", "coordinates": [[[-97.04986, 16.14198], [-97.04959, 16.14135], [-97.04981, 16.14128], [-97.05, 16.14169], [-97.04986, 16.14198]]]}}]}