{"type": "FeatureCollection", "features": [{"id": "697718", "type": "Feature", "properties": {"id": "697718", "CVEGEO": "1103700450013002", "POBTOT": 0.0, "score_nse": 0.0, "NSE": null, "VIVTOT": 0.0, "GRAPROES": 0.0, "_ent": "11", "_mun": "037", "_loc": "0045"}, "geometry": {"type": "Polygon", "coordinates": [[[-101.39127, 21.04265], [-101.39059, 21.04321], [-101.38973, 21.04286], [-101.38963, 21.04242], [-101.39041, 21.0419], [-101.39104, 21.04188], [-101.39127, 21.04265]]]}}, {"id": "697982", "type": "Feature", "properties": {"id": "697982", "CVEGEO": "1103700450013010", "POBTOT": 0.0, "score_nse": 0.0, "NSE": null, "VIVTOT": 0.0, "GRAPROES": 0.0, "_ent": "11", "_mun": "037", "_loc": "0045"}, "geometry": {"type": "Polygon", "coordinates": [[[-101.39401, 21.03888], [-101.39597, 21.03963], [-101.39609, 21.04008], [-101.39597, 21.04047], [-101.39454, 21.04183], [-101.39319, 21.04179], [-101.39301, 21.04126], [-101.39257, 21.04101], [-101.39334, 21.03985], [-101.39333, 21.03946], [-101.39369, 21.03935], [-101.39345, 21.03914], [-101.39401, 21.03888]]]}}, {"id": "697985", "type": "Feature", "properties": {"id": "697985", "CVEGEO": "1103700450013003", "POBTOT": 0.0, "score_nse": 0.0, "NSE": null, "VIVTOT": 0.0, "GRAPROES": 0.0, "_ent": "11", "_mun": "037", "_loc": "0045"}, "geometry": {"type": "Polygon", "coordinates": [[[-101.39379, 21.04227], [-101.39303, 21.04231], [-101.39287, 21.04197], [-101.39299, 21.0423], [-101.39174, 21.04236], [-101.39129, 21.0426], [-101.39071, 21.04049], [-101.39119, 21.04087], [-101.39169, 21.04076], [-101.39185, 21.04095], [-101.39227, 21.0409], [-101.39236, 21.04108], [-101.39273, 21.04112], [-101.39303, 21.04143], [-101.39316, 21.04189], [-101.39377, 21.0418], [-101.39379, 21.04227]]]}}, {"id": "698616", "type": "Feature", "properties": {"id": "698616", "CVEGEO": "1103700450013017", "POBTOT": 0.0, "score_nse": 0.0, "NSE": null, "VIVTOT": 0.0, "GRAPROES": 0.0, "_ent": "11", "_mun": "037", "_loc": "0045"}, "geometry": {"type": "Polygon", "coordinates": [[[-101.40062, 21.03989], [-101.40009, 21.03949], [-101.39988, 21.03956], [-101.39965, 21.03911], [-101.39911, 21.03892], [-101.3989, 21.03912], [-101.3981, 21.03902], [-101.39778, 21.03867], [-101.39724, 21.03841], [-101.39652, 21.03869], [-101.39622, 21.03862], [-101.39675, 21.03828], [-101.39766, 21.03812], [-101.40012, 21.03845], [-101.40077, 21.03977], [-101.40062, 21.03989]]]}}, {"id": "698618", "type": "Feature", "properties": {"id": "698618", "CVEGEO": "1103700450013008", "POBTOT": 0.0, "score_nse": 0.0, "NSE": null, "VIVTOT": 0.0, "GRAPROES": 0.0, "_ent": "11", "_mun": "037", "_loc": "0045"}, "geometry": {"type": "Polygon", "coordinates": [[[-101.38972, 21.04374], [-101.38936, 21.04364], [-101.38943, 21.04327], [-101.38984, 21.04337], [-101.38972, 21.04374]]]}}, {"id": "698619", "type": "Feature", "properties": {"id": "698619", "CVEGEO": "1103700450013007", "POBTOT": 0.0, "score_nse": 0.0, "NSE": null, "VIVTOT": 0.0, "GRAPROES": 0.0, "_ent": "11", "_mun": "037", "_loc": "0045"}, "geometry": {"type": "Polygon", "coordinates": [[[-101.39034, 21.04318], [-101.38985, 21.04335], [-101.38984, 21.04317], [-101.39034, 21.04318]]]}}, {"id": "699242", "type": "Feature", "properties": {"id": "699242", "CVEGEO": "1103700450013021", "POBTOT": 0.0, "score_nse": 0.0, "NSE": null, "VIVTOT": 0.0, "GRAPROES": 0.0, "_ent": "11", "_mun": "037", "_loc": "0045"}, "geometry": {"type": "Polygon", "coordinates": [[[-101.39374, 21.04425], [-101.3953, 21.04376], [-101.39573, 21.04369], [-101.39519, 21.0444], [-101.39446, 21.04481], [-101.39311, 21.04491], [-101.39286, 21.04507], [-101.39283, 21.04483], [-101.39374, 21.04425]]]}}, {"id": "699243", "type": "Feature", "properties": {"id": "699243", "CVEGEO": "1103700450013011", "POBTOT": 0.0, "score_nse": 0.0, "NSE": null, "VIVTOT": 0.0, "GRAPROES": 0.0, "_ent": "11", "_mun": "037", "_loc": "0045"}, "geometry": {"type": "Polygon", "coordinates": [[[-101.39743, 21.04387], [-101.39537, 21.04314], [-101.39408, 21.04224], [-101.39408, 21.04183], [-101.39458, 21.04212], [-101.39444, 21.04192], [-101.39612, 21.04033], [-101.396, 21.03962], [-101.39541, 21.03919], [-101.39613, 21.03868], [-101.39695, 21.03866], [-101.39715, 21.03844], [-101.39769, 21.03865], [-101.39804, 21.03907], [-101.39894, 21.03917], [-101.39908, 21.03897], [-101.39965, 21.03917], [-101.39985, 21.03959], [-101.40011, 21.03956], [-101.40058, 21.03992], [-101.40021, 21.04041], [-101.40016, 21.04132], [-101.39979, 21.0416], [-101.39872, 21.04185], [-101.39816, 21.04228], [-101.39743, 21.04387]]]}}, {"id": "699593", "type": "Feature", "properties": {"id": "699593", "CVEGEO": "1103700450013012", "POBTOT": 0.0, "score_nse": 0.0, "NSE": null, "VIVTOT": 0.0, "GRAPROES": 0.0, "_ent": "11", "_mun": "037", "_loc": "0045"}, "geometry": {"type": "Polygon", "coordinates": [[[-101.395, 21.04599], [-101.39485, 21.0461], [-101.39497, 21.04668], [-101.39468, 21.04675], [-101.39424, 21.04659], [-101.39447, 21.04629], [-101.39411, 21.04616], [-101.39473, 21.04553], [-101.395, 21.04599]]]}}, {"id": "700008", "type": "Feature", "properties": {"id": "700008", "CVEGEO": "1103700450013022", "POBTOT": 0.0, "score_nse": 0.0, "NSE": null, "VIVTOT": 0.0, "GRAPROES": 0.0, "_ent": "11", "_mun": "037", "_loc": "0045"}, "geometry": {"type": "Polygon", "coordinates": [[[-101.38951, 21.03307], [-101.38889, 21.0336], [-101.38867, 21.03294], [-101.38956, 21.03267], [-101.38951, 21.03307]]]}}, {"id": "700073", "type": "Feature", "properties": {"id": "700073", "CVEGEO": "1103700450013001", "POBTOT": 0.0, "score_nse": 0.0, "NSE": null, "VIVTOT": 0.0, "GRAPROES": 0.0, "_ent": "11", "_mun": "037", "_loc": "0045"}, "geometry": {"type": "Polygon", "coordinates": [[[-101.39378, 21.04231], [-101.39294, 21.04298], [-101.39329, 21.0434], [-101.39347, 21.04397], [-101.39332, 21.04422], [-101.39298, 21.0443], [-101.39262, 21.044], [-101.3921, 21.04396], [-101.39178, 21.04372], [-101.39133, 21.0427], [-101.39151, 21.04249], [-101.39215, 21.04234], [-101.39378, 21.04231]]]}}, {"id": "700074", "type": "Feature", "properties": {"id": "700074", "CVEGEO": "1103700450013016", "POBTOT": 0.0, "score_nse": 0.0, "NSE": null, "VIVTOT": 0.0, "GRAPROES": 0.0, "_ent": "11", "_mun": "037", "_loc": "0045"}, "geometry": {"type": "Polygon", "coordinates": [[[-101.39111, 21.03658], [-101.3913, 21.03655], [-101.39147, 21.03692], [-101.39219, 21.03678], [-101.39226, 21.03697], [-101.39488, 21.03784], [-101.39509, 21.0381], [-101.39536, 21.03813], [-101.39606, 21.03864], [-101.39529, 21.03916], [-101.39408, 21.03887], [-101.39366, 21.03842], [-101.39296, 21.03844], [-101.39231, 21.03774], [-101.39169, 21.03764], [-101.3913, 21.03724], [-101.39101, 21.0372], [-101.39111, 21.03658]]]}}, {"id": "700668", "type": "Feature", "properties": {"id": "700668", "CVEGEO": "1103700450013025", "POBTOT": 0.0, "score_nse": 0.0, "NSE": null, "VIVTOT": 0.0, "GRAPROES": 0.0, "_ent": "11", "_mun": "037", "_loc": "0045"}, "geometry": {"type": "Polygon", "coordinates": [[[-101.39203, 21.04417], [-101.39219, 21.04402], [-101.39239, 21.04403], [-101.39203, 21.04417]]]}}, {"id": "701103", "type": "Feature", "properties": {"id": "701103", "CVEGEO": "1103700450013005", "POBTOT": 0.0, "score_nse": 0.0, "NSE": null, "VIVTOT": 0.0, "GRAPROES": 0.0, "_ent": "11", "_mun": "037", "_loc": "0045"}, "geometry": {"type": "Polygon", "coordinates": [[[-101.39119, 21.04432], [-101.38997, 21.04404], [-101.3898, 21.04385], [-101.3898, 21.04349], [-101.39049, 21.04322], [-101.39062, 21.04326], [-101.39023, 21.0435], [-101.39009, 21.04364], [-101.39006, 21.04375], [-101.3907, 21.04327], [-101.39165, 21.04366], [-101.39129, 21.04366], [-101.39087, 21.0439], [-101.3913, 21.04368], [-101.3917, 21.04369], [-101.39204, 21.04398], [-101.39199, 21.04418], [-101.39144, 21.04409], [-101.39119, 21.04432]]]}}, {"id": "701104", "type": "Feature", "properties": {"id": "701104", "CVEGEO": "1103700450013013", "POBTOT": 0.0, "score_nse": 0.0, "NSE": null, "VIVTOT": 0.0, "GRAPROES": 0.0, "_ent": "11", "_mun": "037", "_loc": "0045"}, "geometry": {"type": "Polygon", "coordinates": [[[-101.39297, 21.04435], [-101.39297, 21.04473], [-101.39244, 21.04499], [-101.39132, 21.04452], [-101.39145, 21.04412], [-101.39162, 21.04425], [-101.39256, 21.04404], [-101.39297, 21.04435]]]}}, {"id": "701105", "type": "Feature", "properties": {"id": "701105", "CVEGEO": "1103700450013026", "POBTOT": 0.0, "score_nse": 0.0, "NSE": null, "VIVTOT": 0.0, "GRAPROES": 0.0, "_ent": "11", "_mun": "037", "_loc": "0045"}, "geometry": {"type": "Polygon", "coordinates": [[[-101.39299, 21.04435], [-101.39348, 21.04432], [-101.39342, 21.04443], [-101.393, 21.04472], [-101.39299, 21.04435]]]}}, {"id": "701227", "type": "Feature", "properties": {"id": "701227", "CVEGEO": "1103700450013004", "POBTOT": 0.0, "score_nse": 0.0, "NSE": null, "VIVTOT": 0.0, "GRAPROES": 0.0, "_ent": "11", "_mun": "037", "_loc": "0045"}, "geometry": {"type": "Polygon", "coordinates": [[[-101.39511, 21.04312], [-101.39614, 21.04352], [-101.39598, 21.04366], [-101.39527, 21.04372], [-101.39353, 21.04426], [-101.39343, 21.04357], [-101.39307, 21.04298], [-101.39383, 21.04237], [-101.39395, 21.04178], [-101.39405, 21.04231], [-101.3945, 21.04271], [-101.39511, 21.04312]]]}}, {"id": "701228", "type": "Feature", "properties": {"id": "701228", "CVEGEO": "1103700450013009", "POBTOT": 0.0, "score_nse": 0.0, "NSE": null, "VIVTOT": 0.0, "GRAPROES": 0.0, "_ent": "11", "_mun": "037", "_loc": "0045"}, "geometry": {"type": "Polygon", "coordinates": [[[-101.39305, 21.03849], [-101.39241, 21.03911], [-101.39093, 21.03934], [-101.39114, 21.03905], [-101.39074, 21.03791], [-101.3908, 21.03727], [-101.39129, 21.03729], [-101.39167, 21.03767], [-101.39232, 21.03779], [-101.39305, 21.03849]]]}}, {"id": "701229", "type": "Feature", "properties": {"id": "701229", "CVEGEO": "1103700450013027", "POBTOT": 0.0, "score_nse": 0.0, "NSE": null, "VIVTOT": 0.0, "GRAPROES": 0.0, "_ent": "11", "_mun": "037", "_loc": "0045"}, "geometry": {"type": "Polygon", "coordinates": [[[-101.39578, 21.04371], [-101.39645, 21.04357], [-101.39749, 21.04397], [-101.39728, 21.04425], [-101.39698, 21.04428], [-101.39583, 21.04404], [-101.39578, 21.04371]]]}}]}