{"type": "FeatureCollection", "features": [{"id": "2367172", "type": "Feature", "properties": {"id": "2367172", "CVEGEO": "3015502290132009", "POBTOT": 0.0, "score_nse": 0.0, "NSE": null, "VIVTOT": 0.0, "GRAPROES": 0.0, "_ent": "30", "_mun": "155", "_loc": "0229"}, "geometry": {"type": "Polygon", "coordinates": [[[-98.25135, 21.32968], [-98.25076, 21.32922], [-98.24993, 21.32942], [-98.24986, 21.32908], [-98.25034, 21.32874], [-98.25169, 21.32865], [-98.25192, 21.32886], [-98.25195, 21.32933], [-98.25184, 21.32955], [-98.25135, 21.32968]]]}}, {"id": "2367173", "type": "Feature", "properties": {"id": "2367173", "CVEGEO": "3015502290132002", "POBTOT": 0.0, "score_nse": 0.0, "NSE": null, "VIVTOT": 0.0, "GRAPROES": 0.0, "_ent": "30", "_mun": "155", "_loc": "0229"}, "geometry": {"type": "Polygon", "coordinates": [[[-98.25032, 21.33632], [-98.25002, 21.33746], [-98.24976, 21.33764], [-98.24821, 21.33658], [-98.24747, 21.33651], [-98.24692, 21.33556], [-98.24761, 21.33532], [-98.2469, 21.3355], [-98.24609, 21.3344], [-98.24601, 21.33379], [-98.24643, 21.333], [-98.24565, 21.33159], [-98.2466, 21.33134], [-98.24736, 21.33155], [-98.24835, 21.33232], [-98.2483, 21.33262], [-98.24761, 21.33283], [-98.24764, 21.33323], [-98.24842, 21.33363], [-98.24925, 21.33347], [-98.24993, 21.3337], [-98.2503, 21.33422], [-98.25037, 21.33489], [-98.25003, 21.33542], [-98.24973, 21.33558], [-98.25055, 21.33612], [-98.25032, 21.33632]]]}}, {"id": "2367477", "type": "Feature", "properties": {"id": "2367477", "CVEGEO": "3015502290132001", "POBTOT": 0.0, "score_nse": 0.0, "NSE": null, "VIVTOT": 0.0, "GRAPROES": 0.0, "_ent": "30", "_mun": "155", "_loc": "0229"}, "geometry": {"type": "Polygon", "coordinates": [[[-98.24967, 21.33309], [-98.24839, 21.33349], [-98.24805, 21.33343], [-98.24771, 21.33297], [-98.24844, 21.33259], [-98.24846, 21.3323], [-98.24967, 21.33309]]]}}, {"id": "2367704", "type": "Feature", "properties": {"id": "2367704", "CVEGEO": "3015502290132010", "POBTOT": 0.0, "score_nse": 0.0, "NSE": null, "VIVTOT": 0.0, "GRAPROES": 0.0, "_ent": "30", "_mun": "155", "_loc": "0229"}, "geometry": {"type": "Polygon", "coordinates": [[[-98.24888, 21.32899], [-98.24904, 21.32827], [-98.2487, 21.32747], [-98.24912, 21.32553], [-98.24984, 21.32476], [-98.24976, 21.32464], [-98.25013, 21.32421], [-98.25228, 21.32726], [-98.25198, 21.32743], [-98.25147, 21.32862], [-98.25032, 21.32866], [-98.24908, 21.32959], [-98.24779, 21.32943], [-98.24888, 21.32899]]]}}, {"id": "2367938", "type": "Feature", "properties": {"id": "2367938", "CVEGEO": "3015502290132007", "POBTOT": 0.0, "score_nse": 0.0, "NSE": null, "VIVTOT": 0.0, "GRAPROES": 0.0, "_ent": "30", "_mun": "155", "_loc": "0229"}, "geometry": {"type": "Polygon", "coordinates": [[[-98.24559, 21.33161], [-98.24632, 21.33301], [-98.24592, 21.33376], [-98.24598, 21.33433], [-98.24707, 21.33589], [-98.24651, 21.33605], [-98.24538, 21.33587], [-98.24558, 21.33562], [-98.24533, 21.33586], [-98.24508, 21.33571], [-98.24434, 21.33462], [-98.24424, 21.3333], [-98.24469, 21.33301], [-98.24492, 21.33253], [-98.24518, 21.33274], [-98.24496, 21.33242], [-98.24559, 21.33161]]]}}, {"id": "2368180", "type": "Feature", "properties": {"id": "2368180", "CVEGEO": "3015502290132012", "POBTOT": 0.0, "score_nse": 0.0, "NSE": null, "VIVTOT": 0.0, "GRAPROES": 0.0, "_ent": "30", "_mun": "155", "_loc": "0229"}, "geometry": {"type": "Polygon", "coordinates": [[[-98.25008, 21.33546], [-98.25042, 21.33493], [-98.25073, 21.33542], [-98.25127, 21.33583], [-98.25059, 21.33609], [-98.24982, 21.33558], [-98.25008, 21.33546]]]}}, {"id": "2368181", "type": "Feature", "properties": {"id": "2368181", "CVEGEO": "3015502290132011", "POBTOT": 0.0, "score_nse": 0.0, "NSE": null, "VIVTOT": 0.0, "GRAPROES": 0.0, "_ent": "30", "_mun": "155", "_loc": "0229"}, "geometry": {"type": "Polygon", "coordinates": [[[-98.25036, 21.33418], [-98.24995, 21.33365], [-98.2492, 21.33341], [-98.24988, 21.3331], [-98.25035, 21.3332], [-98.25089, 21.33367], [-98.25047, 21.33488], [-98.25036, 21.33418]]]}}]}