{"type": "FeatureCollection", "features": [{"id": "1958934", "type": "Feature", "properties": {"id": "1958934", "CVEGEO": "2501004790971007", "POBTOT": 0.0, "score_nse": 0.0, "NSE": null, "VIVTOT": 0.0, "GRAPROES": 0.0, "_ent": "25", "_mun": "010", "_loc": "0479"}, "geometry": {"type": "Polygon", "coordinates": [[[-108.88628, 25.99632], [-108.8877, 25.99522], [-108.88818, 25.99564], [-108.88692, 25.99701], [-108.88628, 25.99632]]]}}, {"id": "1958935", "type": "Feature", "properties": {"id": "1958935", "CVEGEO": "2501004790971004", "POBTOT": 0.0, "score_nse": 0.0, "NSE": null, "VIVTOT": 0.0, "GRAPROES": 0.0, "_ent": "25", "_mun": "010", "_loc": "0479"}, "geometry": {"type": "Polygon", "coordinates": [[[-108.89457, 25.98753], [-108.89413, 25.98681], [-108.8953, 25.98629], [-108.89606, 25.98736], [-108.89526, 25.98763], [-108.89457, 25.98753]]]}}, {"id": "1959691", "type": "Feature", "properties": {"id": "1959691", "CVEGEO": "2501004790971002", "POBTOT": 0.0, "score_nse": 0.0, "NSE": null, "VIVTOT": 0.0, "GRAPROES": 0.0, "_ent": "25", "_mun": "010", "_loc": "0479"}, "geometry": {"type": "Polygon", "coordinates": [[[-108.8919, 25.98873], [-108.89281, 25.98832], [-108.89317, 25.98891], [-108.89308, 25.98911], [-108.89185, 25.98897], [-108.8919, 25.98873]]]}}, {"id": "1959692", "type": "Feature", "properties": {"id": "1959692", "CVEGEO": "2501004790971001", "POBTOT": 0.0, "score_nse": 0.0, "NSE": null, "VIVTOT": 0.0, "GRAPROES": 0.0, "_ent": "25", "_mun": "010", "_loc": "0479"}, "geometry": {"type": "Polygon", "coordinates": [[[-108.89222, 25.98846], [-108.89186, 25.98866], [-108.89132, 25.98772], [-108.89177, 25.98773], [-108.89222, 25.98846]]]}}, {"id": "1960954", "type": "Feature", "properties": {"id": "1960954", "CVEGEO": "2501004790971003", "POBTOT": 0.0, "score_nse": 0.0, "NSE": null, "VIVTOT": 0.0, "GRAPROES": 0.0, "_ent": "25", "_mun": "010", "_loc": "0479"}, "geometry": {"type": "Polygon", "coordinates": [[[-108.89182, 25.98875], [-108.89084, 25.98868], [-108.89071, 25.98787], [-108.89124, 25.98773], [-108.89182, 25.98875]]]}}, {"id": "1961587", "type": "Feature", "properties": {"id": "1961587", "CVEGEO": "2501004790971005", "POBTOT": 0.0, "score_nse": 0.0, "NSE": null, "VIVTOT": 0.0, "GRAPROES": 0.0, "_ent": "25", "_mun": "010", "_loc": "0479"}, "geometry": {"type": "Polygon", "coordinates": [[[-108.88872, 25.99478], [-108.88922, 25.99421], [-108.88954, 25.99449], [-108.88888, 25.99508], [-108.88872, 25.99478]]]}}]}