{"type": "FeatureCollection", "features": [{"id": "1423825", "type": "Feature", "properties": {"id": "1423825", "CVEGEO": "1900906740087005", "POBTOT": 0.0, "score_nse": 0.0, "NSE": null, "VIVTOT": 0.0, "GRAPROES": 0.0, "_ent": "19", "_mun": "009", "_loc": "0674"}, "geometry": {"type": "Polygon", "coordinates": [[[-99.99099, 25.43237], [-99.98956, 25.43209], [-99.98957, 25.43204], [-99.9902, 25.43147], [-99.99081, 25.43129], [-99.99099, 25.43237]]]}}, {"id": "1423826", "type": "Feature", "properties": {"id": "1423826", "CVEGEO": "1900906740087004", "POBTOT": 0.0, "score_nse": 0.0, "NSE": null, "VIVTOT": 0.0, "GRAPROES": 0.0, "_ent": "19", "_mun": "009", "_loc": "0674"}, "geometry": {"type": "Polygon", "coordinates": [[[-99.99238, 25.43265], [-99.99104, 25.43237], [-99.99086, 25.43128], [-99.99208, 25.43097], [-99.99238, 25.43265]]]}}, {"id": "1423827", "type": "Feature", "properties": {"id": "1423827", "CVEGEO": "1900906740087003", "POBTOT": 0.0, "score_nse": 0.0, "NSE": null, "VIVTOT": 0.0, "GRAPROES": 0.0, "_ent": "19", "_mun": "009", "_loc": "0674"}, "geometry": {"type": "Polygon", "coordinates": [[[-99.99309, 25.43272], [-99.99248, 25.43264], [-99.99222, 25.43107], [-99.99305, 25.43096], [-99.99292, 25.43147], [-99.99309, 25.43272]]]}}, {"id": "1423828", "type": "Feature", "properties": {"id": "1423828", "CVEGEO": "1900906740087002", "POBTOT": 0.0, "score_nse": 0.0, "NSE": null, "VIVTOT": 0.0, "GRAPROES": 0.0, "_ent": "19", "_mun": "009", "_loc": "0674"}, "geometry": {"type": "Polygon", "coordinates": [[[-99.99434, 25.4333], [-99.99341, 25.43389], [-99.99297, 25.43156], [-99.99312, 25.43095], [-99.99377, 25.43088], [-99.9936, 25.43154], [-99.99394, 25.43313], [-99.99434, 25.4333]]]}}, {"id": "1423829", "type": "Feature", "properties": {"id": "1423829", "CVEGEO": "1900906740087001", "POBTOT": 0.0, "score_nse": 0.0, "NSE": null, "VIVTOT": 0.0, "GRAPROES": 0.0, "_ent": "19", "_mun": "009", "_loc": "0674"}, "geometry": {"type": "Polygon", "coordinates": [[[-99.99342, 25.43503], [-99.99301, 25.43518], [-99.99265, 25.43277], [-99.9931, 25.43284], [-99.9934, 25.43399], [-99.99342, 25.43503]]]}}]}