{"type": "FeatureCollection", "features": [{"id": "1690306", "type": "Feature", "properties": {"id": "1690306", "CVEGEO": "2111401891321004", "POBTOT": 0.0, "score_nse": 0.0, "NSE": null, "VIVTOT": 0.0, "GRAPROES": 0.0, "_ent": "21", "_mun": "114", "_loc": "0189"}, "geometry": {"type": "Polygon", "coordinates": [[[-98.20658, 18.95266], [-98.20724, 18.95256], [-98.20772, 18.95338], [-98.20671, 18.95289], [-98.20658, 18.95266]]]}}, {"id": "1692343", "type": "Feature", "properties": {"id": "1692343", "CVEGEO": "2111401891321006", "POBTOT": 0.0, "score_nse": 0.0, "NSE": null, "VIVTOT": 0.0, "GRAPROES": 0.0, "_ent": "21", "_mun": "114", "_loc": "0189"}, "geometry": {"type": "Polygon", "coordinates": [[[-98.20513, 18.95146], [-98.20514, 18.95109], [-98.20509, 18.95145], [-98.20484, 18.95134], [-98.20493, 18.95093], [-98.2056, 18.95108], [-98.20545, 18.9516], [-98.20513, 18.95146]]]}}, {"id": "1692344", "type": "Feature", "properties": {"id": "1692344", "CVEGEO": "2111401891321005", "POBTOT": 0.0, "score_nse": 0.0, "NSE": null, "VIVTOT": 0.0, "GRAPROES": 0.0, "_ent": "21", "_mun": "114", "_loc": "0189"}, "geometry": {"type": "Polygon", "coordinates": [[[-98.20479, 18.95194], [-98.20491, 18.95143], [-98.20529, 18.9516], [-98.20521, 18.95186], [-98.20531, 18.95161], [-98.20571, 18.95179], [-98.20558, 18.95232], [-98.20479, 18.95194]]]}}, {"id": "1695576", "type": "Feature", "properties": {"id": "1695576", "CVEGEO": "2111401891321003", "POBTOT": 0.0, "score_nse": 0.0, "NSE": null, "VIVTOT": 0.0, "GRAPROES": 0.0, "_ent": "21", "_mun": "114", "_loc": "0189"}, "geometry": {"type": "Polygon", "coordinates": [[[-98.20656, 18.95258], [-98.20605, 18.95203], [-98.20638, 18.95179], [-98.20719, 18.95252], [-98.20656, 18.95258]]]}}, {"id": "1695577", "type": "Feature", "properties": {"id": "1695577", "CVEGEO": "2111401891321002", "POBTOT": 0.0, "score_nse": 0.0, "NSE": null, "VIVTOT": 0.0, "GRAPROES": 0.0, "_ent": "21", "_mun": "114", "_loc": "0189"}, "geometry": {"type": "Polygon", "coordinates": [[[-98.20607, 18.95193], [-98.20549, 18.95163], [-98.20565, 18.95108], [-98.20646, 18.95129], [-98.20633, 18.95174], [-98.20607, 18.95193]]]}}, {"id": "1695578", "type": "Feature", "properties": {"id": "1695578", "CVEGEO": "2111401891321001", "POBTOT": 0.0, "score_nse": 0.0, "NSE": null, "VIVTOT": 0.0, "GRAPROES": 0.0, "_ent": "21", "_mun": "114", "_loc": "0189"}, "geometry": {"type": "Polygon", "coordinates": [[[-98.20575, 18.95191], [-98.20605, 18.95212], [-98.2066, 18.95283], [-98.20562, 18.95236], [-98.20575, 18.95191]]]}}]}