{"type": "FeatureCollection", "features": [{"id": "1688408", "type": "Feature", "properties": {"id": "1688408", "CVEGEO": "2111403681088016", "POBTOT": 0.0, "score_nse": 0.0, "NSE": null, "VIVTOT": 0.0, "GRAPROES": 0.0, "_ent": "21", "_mun": "114", "_loc": "0368"}, "geometry": {"type": "Polygon", "coordinates": [[[-98.15968, 18.96938], [-98.15915, 18.96936], [-98.15865, 18.96857], [-98.15802, 18.96801], [-98.15898, 18.9683], [-98.1594, 18.9689], [-98.15975, 18.96908], [-98.16007, 18.96973], [-98.15987, 18.97039], [-98.15943, 18.97036], [-98.15938, 18.96986], [-98.1598, 18.96981], [-98.15968, 18.96938]]]}}, {"id": "1690121", "type": "Feature", "properties": {"id": "1690121", "CVEGEO": "2111403681088005", "POBTOT": 0.0, "score_nse": 0.0, "NSE": null, "VIVTOT": 0.0, "GRAPROES": 0.0, "_ent": "21", "_mun": "114", "_loc": "0368"}, "geometry": {"type": "Polygon", "coordinates": [[[-98.16165, 18.97039], [-98.16129, 18.97057], [-98.16113, 18.97008], [-98.16126, 18.97058], [-98.16091, 18.97064], [-98.1609, 18.96973], [-98.16147, 18.96963], [-98.16165, 18.97039]]]}}, {"id": "1690122", "type": "Feature", "properties": {"id": "1690122", "CVEGEO": "2111403681088004", "POBTOT": 0.0, "score_nse": 0.0, "NSE": null, "VIVTOT": 0.0, "GRAPROES": 0.0, "_ent": "21", "_mun": "114", "_loc": "0368"}, "geometry": {"type": "Polygon", "coordinates": [[[-98.15979, 18.96905], [-98.15903, 18.96829], [-98.15922, 18.96821], [-98.15966, 18.96844], [-98.16002, 18.96883], [-98.16049, 18.96985], [-98.16013, 18.96983], [-98.15979, 18.96905]]]}}, {"id": "1690123", "type": "Feature", "properties": {"id": "1690123", "CVEGEO": "2111403681088001", "POBTOT": 0.0, "score_nse": 0.0, "NSE": null, "VIVTOT": 0.0, "GRAPROES": 0.0, "_ent": "21", "_mun": "114", "_loc": "0368"}, "geometry": {"type": "Polygon", "coordinates": [[[-98.16025, 18.9711], [-98.16055, 18.96978], [-98.16085, 18.96977], [-98.16073, 18.97232], [-98.16029, 18.97234], [-98.16025, 18.9711]]]}}, {"id": "1690124", "type": "Feature", "properties": {"id": "1690124", "CVEGEO": "2111403681088018", "POBTOT": 0.0, "score_nse": 0.0, "NSE": null, "VIVTOT": 0.0, "GRAPROES": 0.0, "_ent": "21", "_mun": "114", "_loc": "0368"}, "geometry": {"type": "Polygon", "coordinates": [[[-98.16194, 18.96913], [-98.16148, 18.96933], [-98.16141, 18.96894], [-98.16102, 18.96844], [-98.16132, 18.96817], [-98.16194, 18.96913]]]}}, {"id": "1690125", "type": "Feature", "properties": {"id": "1690125", "CVEGEO": "2111403681088002", "POBTOT": 0.0, "score_nse": 0.0, "NSE": null, "VIVTOT": 0.0, "GRAPROES": 0.0, "_ent": "21", "_mun": "114", "_loc": "0368"}, "geometry": {"type": "Polygon", "coordinates": [[[-98.15982, 18.97092], [-98.16009, 18.96989], [-98.16049, 18.9699], [-98.16022, 18.97096], [-98.15982, 18.97092]]]}}, {"id": "1690126", "type": "Feature", "properties": {"id": "1690126", "CVEGEO": "2111403681088017", "POBTOT": 0.0, "score_nse": 0.0, "NSE": null, "VIVTOT": 0.0, "GRAPROES": 0.0, "_ent": "21", "_mun": "114", "_loc": "0368"}, "geometry": {"type": "Polygon", "coordinates": [[[-98.15919, 18.96942], [-98.15964, 18.96943], [-98.15975, 18.9698], [-98.15936, 18.96981], [-98.15919, 18.96942]]]}}, {"id": "1690127", "type": "Feature", "properties": {"id": "1690127", "CVEGEO": "2111403681088012", "POBTOT": 0.0, "score_nse": 0.0, "NSE": null, "VIVTOT": 0.0, "GRAPROES": 0.0, "_ent": "21", "_mun": "114", "_loc": "0368"}, "geometry": {"type": "Polygon", "coordinates": [[[-98.16224, 18.96983], [-98.16241, 18.97016], [-98.16173, 18.97036], [-98.16163, 18.97002], [-98.16224, 18.96983]]]}}, {"id": "1690128", "type": "Feature", "properties": {"id": "1690128", "CVEGEO": "2111403681088011", "POBTOT": 0.0, "score_nse": 0.0, "NSE": null, "VIVTOT": 0.0, "GRAPROES": 0.0, "_ent": "21", "_mun": "114", "_loc": "0368"}, "geometry": {"type": "Polygon", "coordinates": [[[-98.16152, 18.96961], [-98.16202, 18.96942], [-98.16218, 18.96975], [-98.16161, 18.96995], [-98.16152, 18.96961]]]}}, {"id": "1690206", "type": "Feature", "properties": {"id": "1690206", "CVEGEO": "2111403681088023", "POBTOT": 0.0, "score_nse": 0.0, "NSE": null, "VIVTOT": 0.0, "GRAPROES": 0.0, "_ent": "21", "_mun": "114", "_loc": "0368"}, "geometry": {"type": "Polygon", "coordinates": [[[-98.16148, 18.96937], [-98.16195, 18.96916], [-98.16202, 18.96936], [-98.16151, 18.96957], [-98.16148, 18.96937]]]}}, {"id": "1690207", "type": "Feature", "properties": {"id": "1690207", "CVEGEO": "2111403681088024", "POBTOT": 0.0, "score_nse": 0.0, "NSE": null, "VIVTOT": 0.0, "GRAPROES": 0.0, "_ent": "21", "_mun": "114", "_loc": "0368"}, "geometry": {"type": "Polygon", "coordinates": [[[-98.16144, 18.97056], [-98.16136, 18.97228], [-98.16082, 18.97231], [-98.16089, 18.97073], [-98.16144, 18.97056]]]}}, {"id": "1697607", "type": "Feature", "properties": {"id": "1697607", "CVEGEO": "2111403681088022", "POBTOT": 0.0, "score_nse": 0.0, "NSE": null, "VIVTOT": 0.0, "GRAPROES": 0.0, "_ent": "21", "_mun": "114", "_loc": "0368"}, "geometry": {"type": "Polygon", "coordinates": [[[-98.15984, 18.9678], [-98.16118, 18.96865], [-98.16146, 18.96959], [-98.1609, 18.96969], [-98.16067, 18.96875], [-98.15965, 18.96794], [-98.15984, 18.9678]]]}}, {"id": "1697642", "type": "Feature", "properties": {"id": "1697642", "CVEGEO": "2111403681088008", "POBTOT": 0.0, "score_nse": 0.0, "NSE": null, "VIVTOT": 0.0, "GRAPROES": 0.0, "_ent": "21", "_mun": "114", "_loc": "0368"}, "geometry": {"type": "Polygon", "coordinates": [[[-98.16022, 18.97235], [-98.15983, 18.97237], [-98.15979, 18.97101], [-98.16018, 18.97108], [-98.16022, 18.97235]]]}}, {"id": "1697643", "type": "Feature", "properties": {"id": "1697643", "CVEGEO": "2111403681088010", "POBTOT": 0.0, "score_nse": 0.0, "NSE": null, "VIVTOT": 0.0, "GRAPROES": 0.0, "_ent": "21", "_mun": "114", "_loc": "0368"}, "geometry": {"type": "Polygon", "coordinates": [[[-98.16055, 18.96973], [-98.15969, 18.96839], [-98.15924, 18.96818], [-98.15961, 18.96806], [-98.1604, 18.9686], [-98.16067, 18.96888], [-98.16084, 18.96972], [-98.16055, 18.96973]]]}}, {"id": "1697644", "type": "Feature", "properties": {"id": "1697644", "CVEGEO": "2111403681088025", "POBTOT": 0.0, "score_nse": 0.0, "NSE": null, "VIVTOT": 0.0, "GRAPROES": 0.0, "_ent": "21", "_mun": "114", "_loc": "0368"}, "geometry": {"type": "Polygon", "coordinates": [[[-98.16054, 18.96808], [-98.16013, 18.96785], [-98.1603, 18.96717], [-98.16073, 18.96729], [-98.16054, 18.96808]]]}}, {"id": "1698370", "type": "Feature", "properties": {"id": "1698370", "CVEGEO": "2111403681088015", "POBTOT": 0.0, "score_nse": 0.0, "NSE": null, "VIVTOT": 0.0, "GRAPROES": 0.0, "_ent": "21", "_mun": "114", "_loc": "0368"}, "geometry": {"type": "Polygon", "coordinates": [[[-98.16244, 18.97024], [-98.16238, 18.97096], [-98.16225, 18.97116], [-98.16206, 18.97033], [-98.16244, 18.97024]]]}}, {"id": "1698754", "type": "Feature", "properties": {"id": "1698754", "CVEGEO": "2111403681088028", "POBTOT": 0.0, "score_nse": 0.0, "NSE": null, "VIVTOT": 0.0, "GRAPROES": 0.0, "_ent": "21", "_mun": "114", "_loc": "0368"}, "geometry": {"type": "Polygon", "coordinates": [[[-98.16134, 18.96812], [-98.16177, 18.96758], [-98.16228, 18.96778], [-98.1628, 18.96769], [-98.1627, 18.96812], [-98.16233, 18.96811], [-98.16229, 18.96831], [-98.16177, 18.96864], [-98.16134, 18.96812]]]}}, {"id": "1698755", "type": "Feature", "properties": {"id": "1698755", "CVEGEO": "2111403681088013", "POBTOT": 0.0, "score_nse": 0.0, "NSE": null, "VIVTOT": 0.0, "GRAPROES": 0.0, "_ent": "21", "_mun": "114", "_loc": "0368"}, "geometry": {"type": "Polygon", "coordinates": [[[-98.1618, 18.96869], [-98.16233, 18.96835], [-98.16236, 18.96817], [-98.16269, 18.96818], [-98.16237, 18.96963], [-98.16225, 18.96966], [-98.1618, 18.96869]]]}}, {"id": "1698756", "type": "Feature", "properties": {"id": "1698756", "CVEGEO": "2111403681088006", "POBTOT": 0.0, "score_nse": 0.0, "NSE": null, "VIVTOT": 0.0, "GRAPROES": 0.0, "_ent": "21", "_mun": "114", "_loc": "0368"}, "geometry": {"type": "Polygon", "coordinates": [[[-98.16224, 18.97159], [-98.1623, 18.97224], [-98.1614, 18.97228], [-98.16149, 18.97053], [-98.16171, 18.97043], [-98.16206, 18.97187], [-98.16204, 18.9716], [-98.16224, 18.97159]]]}}, {"id": "1698757", "type": "Feature", "properties": {"id": "1698757", "CVEGEO": "2111403681088027", "POBTOT": 0.0, "score_nse": 0.0, "NSE": null, "VIVTOT": 0.0, "GRAPROES": 0.0, "_ent": "21", "_mun": "114", "_loc": "0368"}, "geometry": {"type": "Polygon", "coordinates": [[[-98.16198, 18.97036], [-98.1622, 18.97127], [-98.16224, 18.97155], [-98.16203, 18.97157], [-98.16176, 18.97042], [-98.16198, 18.97036]]]}}, {"id": "1699256", "type": "Feature", "properties": {"id": "1699256", "CVEGEO": "2111403681088026", "POBTOT": 0.0, "score_nse": 0.0, "NSE": null, "VIVTOT": 0.0, "GRAPROES": 0.0, "_ent": "21", "_mun": "114", "_loc": "0368"}, "geometry": {"type": "Polygon", "coordinates": [[[-98.16098, 18.9684], [-98.16059, 18.96811], [-98.16078, 18.96731], [-98.16112, 18.96737], [-98.16105, 18.96774], [-98.16115, 18.96738], [-98.16161, 18.96762], [-98.16098, 18.9684]]]}}]}