{"type": "FeatureCollection", "features": [{"id": "343897", "type": "Feature", "properties": {"id": "343897", "CVEGEO": "0709700320212021", "POBTOT": 0.0, "score_nse": 0.0, "NSE": null, "VIVTOT": 0.0, "GRAPROES": 0.0, "_ent": "07", "_mun": "097", "_loc": "0032"}, "geometry": {"type": "Polygon", "coordinates": [[[-93.5233, 15.75836], [-93.5235, 15.75804], [-93.52413, 15.75839], [-93.52395, 15.75875], [-93.5233, 15.75836]]]}}, {"id": "343898", "type": "Feature", "properties": {"id": "343898", "CVEGEO": "0709700320212020", "POBTOT": 0.0, "score_nse": 0.0, "NSE": null, "VIVTOT": 0.0, "GRAPROES": 0.0, "_ent": "07", "_mun": "097", "_loc": "0032"}, "geometry": {"type": "Polygon", "coordinates": [[[-93.52326, 15.75841], [-93.52394, 15.75881], [-93.52384, 15.75933], [-93.52349, 15.75938], [-93.52304, 15.75874], [-93.52326, 15.75841]]]}}, {"id": "343899", "type": "Feature", "properties": {"id": "343899", "CVEGEO": "0709700320212019", "POBTOT": 0.0, "score_nse": 0.0, "NSE": null, "VIVTOT": 0.0, "GRAPROES": 0.0, "_ent": "07", "_mun": "097", "_loc": "0032"}, "geometry": {"type": "Polygon", "coordinates": [[[-93.53025, 15.7591], [-93.53067, 15.75932], [-93.53029, 15.75988], [-93.52986, 15.75961], [-93.53025, 15.7591]]]}}, {"id": "343900", "type": "Feature", "properties": {"id": "343900", "CVEGEO": "0709700320212018", "POBTOT": 0.0, "score_nse": 0.0, "NSE": null, "VIVTOT": 0.0, "GRAPROES": 0.0, "_ent": "07", "_mun": "097", "_loc": "0032"}, "geometry": {"type": "Polygon", "coordinates": [[[-93.52681, 15.75753], [-93.52797, 15.75713], [-93.52816, 15.75733], [-93.52767, 15.7576], [-93.5273, 15.75804], [-93.52681, 15.75753]]]}}, {"id": "343901", "type": "Feature", "properties": {"id": "343901", "CVEGEO": "0709700320212017", "POBTOT": 0.0, "score_nse": 0.0, "NSE": null, "VIVTOT": 0.0, "GRAPROES": 0.0, "_ent": "07", "_mun": "097", "_loc": "0032"}, "geometry": {"type": "Polygon", "coordinates": [[[-93.52749, 15.7572], [-93.52681, 15.75628], [-93.52702, 15.756], [-93.52792, 15.75708], [-93.52749, 15.7572]]]}}, {"id": "343902", "type": "Feature", "properties": {"id": "343902", "CVEGEO": "0709700320212016", "POBTOT": 0.0, "score_nse": 0.0, "NSE": null, "VIVTOT": 0.0, "GRAPROES": 0.0, "_ent": "07", "_mun": "097", "_loc": "0032"}, "geometry": {"type": "Polygon", "coordinates": [[[-93.52631, 15.75901], [-93.52667, 15.75831], [-93.52696, 15.75854], [-93.52655, 15.75915], [-93.52631, 15.75901]]]}}, {"id": "343903", "type": "Feature", "properties": {"id": "343903", "CVEGEO": "0709700320212015", "POBTOT": 0.0, "score_nse": 0.0, "NSE": null, "VIVTOT": 0.0, "GRAPROES": 0.0, "_ent": "07", "_mun": "097", "_loc": "0032"}, "geometry": {"type": "Polygon", "coordinates": [[[-93.52734, 15.75808], [-93.52771, 15.75764], [-93.5282, 15.75738], [-93.5285, 15.75773], [-93.52789, 15.75843], [-93.52734, 15.75808]]]}}, {"id": "343904", "type": "Feature", "properties": {"id": "343904", "CVEGEO": "0709700320212014", "POBTOT": 0.0, "score_nse": 0.0, "NSE": null, "VIVTOT": 0.0, "GRAPROES": 0.0, "_ent": "07", "_mun": "097", "_loc": "0032"}, "geometry": {"type": "Polygon", "coordinates": [[[-93.52794, 15.75846], [-93.52853, 15.75777], [-93.52874, 15.758], [-93.52817, 15.75861], [-93.52794, 15.75846]]]}}, {"id": "343905", "type": "Feature", "properties": {"id": "343905", "CVEGEO": "0709700320212002", "POBTOT": 0.0, "score_nse": 0.0, "NSE": null, "VIVTOT": 0.0, "GRAPROES": 0.0, "_ent": "07", "_mun": "097", "_loc": "0032"}, "geometry": {"type": "Polygon", "coordinates": [[[-93.52754, 15.76003], [-93.5266, 15.75918], [-93.52701, 15.75857], [-93.52807, 15.75936], [-93.52754, 15.76003]]]}}, {"id": "344167", "type": "Feature", "properties": {"id": "344167", "CVEGEO": "0709700320212008", "POBTOT": 0.0, "score_nse": 0.0, "NSE": null, "VIVTOT": 0.0, "GRAPROES": 0.0, "_ent": "07", "_mun": "097", "_loc": "0032"}, "geometry": {"type": "Polygon", "coordinates": [[[-93.52587, 15.75756], [-93.5263, 15.75701], [-93.52727, 15.75809], [-93.52699, 15.75849], [-93.52587, 15.75756]]]}}, {"id": "344198", "type": "Feature", "properties": {"id": "344198", "CVEGEO": "0709700320212006", "POBTOT": 0.0, "score_nse": 0.0, "NSE": null, "VIVTOT": 0.0, "GRAPROES": 0.0, "_ent": "07", "_mun": "097", "_loc": "0032"}, "geometry": {"type": "Polygon", "coordinates": [[[-93.52649, 15.75919], [-93.52645, 15.75932], [-93.52528, 15.7594], [-93.52475, 15.75993], [-93.52405, 15.76009], [-93.52379, 15.76045], [-93.52329, 15.76063], [-93.52275, 15.76108], [-93.52329, 15.76017], [-93.52381, 15.75978], [-93.5242, 15.75981], [-93.52448, 15.7596], [-93.5245, 15.75934], [-93.52431, 15.75923], [-93.52408, 15.75917], [-93.5239, 15.75933], [-93.52399, 15.75884], [-93.52426, 15.75893], [-93.524, 15.75878], [-93.52418, 15.75842], [-93.52477, 15.75879], [-93.52582, 15.75889], [-93.52649, 15.75919]]]}}, {"id": "344199", "type": "Feature", "properties": {"id": "344199", "CVEGEO": "0709700320212005", "POBTOT": 0.0, "score_nse": 0.0, "NSE": null, "VIVTOT": 0.0, "GRAPROES": 0.0, "_ent": "07", "_mun": "097", "_loc": "0032"}, "geometry": {"type": "Polygon", "coordinates": [[[-93.52912, 15.75922], [-93.52978, 15.75962], [-93.52958, 15.75995], [-93.52982, 15.75967], [-93.5306, 15.76012], [-93.52953, 15.76143], [-93.52825, 15.76058], [-93.52912, 15.75922]]]}}, {"id": "344200", "type": "Feature", "properties": {"id": "344200", "CVEGEO": "0709700320212004", "POBTOT": 0.0, "score_nse": 0.0, "NSE": null, "VIVTOT": 0.0, "GRAPROES": 0.0, "_ent": "07", "_mun": "097", "_loc": "0032"}, "geometry": {"type": "Polygon", "coordinates": [[[-93.5285, 15.75888], [-93.52907, 15.75919], [-93.52869, 15.75972], [-93.52815, 15.75934], [-93.5285, 15.75888]]]}}, {"id": "344431", "type": "Feature", "properties": {"id": "344431", "CVEGEO": "0709700320212003", "POBTOT": 0.0, "score_nse": 0.0, "NSE": null, "VIVTOT": 0.0, "GRAPROES": 0.0, "_ent": "07", "_mun": "097", "_loc": "0032"}, "geometry": {"type": "Polygon", "coordinates": [[[-93.52704, 15.75853], [-93.52732, 15.75812], [-93.52845, 15.75885], [-93.5281, 15.75931], [-93.52704, 15.75853]]]}}, {"id": "344666", "type": "Feature", "properties": {"id": "344666", "CVEGEO": "0709700320212012", "POBTOT": 0.0, "score_nse": 0.0, "NSE": null, "VIVTOT": 0.0, "GRAPROES": 0.0, "_ent": "07", "_mun": "097", "_loc": "0032"}, "geometry": {"type": "Polygon", "coordinates": [[[-93.53156, 15.75994], [-93.53075, 15.76014], [-93.53035, 15.7599], [-93.53072, 15.75935], [-93.53148, 15.75969], [-93.53156, 15.75994]]]}}, {"id": "344667", "type": "Feature", "properties": {"id": "344667", "CVEGEO": "0709700320212011", "POBTOT": 0.0, "score_nse": 0.0, "NSE": null, "VIVTOT": 0.0, "GRAPROES": 0.0, "_ent": "07", "_mun": "097", "_loc": "0032"}, "geometry": {"type": "Polygon", "coordinates": [[[-93.52958, 15.75867], [-93.5302, 15.75907], [-93.52981, 15.75958], [-93.52915, 15.75918], [-93.52958, 15.75867]]]}}, {"id": "344668", "type": "Feature", "properties": {"id": "344668", "CVEGEO": "0709700320212010", "POBTOT": 0.0, "score_nse": 0.0, "NSE": null, "VIVTOT": 0.0, "GRAPROES": 0.0, "_ent": "07", "_mun": "097", "_loc": "0032"}, "geometry": {"type": "Polygon", "coordinates": [[[-93.52822, 15.75863], [-93.52878, 15.75803], [-93.52953, 15.75864], [-93.5291, 15.75915], [-93.52822, 15.75863]]]}}, {"id": "344669", "type": "Feature", "properties": {"id": "344669", "CVEGEO": "0709700320212009", "POBTOT": 0.0, "score_nse": 0.0, "NSE": null, "VIVTOT": 0.0, "GRAPROES": 0.0, "_ent": "07", "_mun": "097", "_loc": "0032"}, "geometry": {"type": "Polygon", "coordinates": [[[-93.52633, 15.75696], [-93.52678, 15.75633], [-93.52743, 15.75721], [-93.52677, 15.75748], [-93.52633, 15.75696]]]}}, {"id": "344932", "type": "Feature", "properties": {"id": "344932", "CVEGEO": "0709700320212001", "POBTOT": 0.0, "score_nse": 0.0, "NSE": null, "VIVTOT": 0.0, "GRAPROES": 0.0, "_ent": "07", "_mun": "097", "_loc": "0032"}, "geometry": {"type": "Polygon", "coordinates": [[[-93.52811, 15.75939], [-93.52866, 15.75976], [-93.52821, 15.76054], [-93.52758, 15.76007], [-93.52811, 15.75939]]]}}, {"id": "346194", "type": "Feature", "properties": {"id": "346194", "CVEGEO": "0709700320212007", "POBTOT": 0.0, "score_nse": 0.0, "NSE": null, "VIVTOT": 0.0, "GRAPROES": 0.0, "_ent": "07", "_mun": "097", "_loc": "0032"}, "geometry": {"type": "Polygon", "coordinates": [[[-93.52574, 15.75831], [-93.52627, 15.75794], [-93.52663, 15.75826], [-93.52626, 15.75898], [-93.52492, 15.75879], [-93.52584, 15.75759], [-93.52622, 15.75791], [-93.52592, 15.75803], [-93.52574, 15.75831]]]}}]}