{"type": "FeatureCollection", "features": [{"id": "345004", "type": "Feature", "properties": {"id": "345004", "CVEGEO": "0709714470119001", "POBTOT": 0.0, "score_nse": 0.0, "NSE": null, "VIVTOT": 0.0, "GRAPROES": 0.0, "_ent": "07", "_mun": "097", "_loc": "1447"}, "geometry": {"type": "Polygon", "coordinates": [[[-93.77919, 16.09027], [-93.77891, 16.08851], [-93.77928, 16.08835], [-93.77951, 16.09023], [-93.77919, 16.09027]]]}}, {"id": "345005", "type": "Feature", "properties": {"id": "345005", "CVEGEO": "0709714470119018", "POBTOT": 0.0, "score_nse": 0.0, "NSE": null, "VIVTOT": 0.0, "GRAPROES": 0.0, "_ent": "07", "_mun": "097", "_loc": "1447"}, "geometry": {"type": "Polygon", "coordinates": [[[-93.78061, 16.08773], [-93.781, 16.08757], [-93.78132, 16.08986], [-93.78089, 16.08997], [-93.78061, 16.08773]]]}}, {"id": "345006", "type": "Feature", "properties": {"id": "345006", "CVEGEO": "0709714470119005", "POBTOT": 0.0, "score_nse": 0.0, "NSE": null, "VIVTOT": 0.0, "GRAPROES": 0.0, "_ent": "07", "_mun": "097", "_loc": "1447"}, "geometry": {"type": "Polygon", "coordinates": [[[-93.77933, 16.08825], [-93.77913, 16.08683], [-93.77952, 16.08667], [-93.77971, 16.08808], [-93.77933, 16.08825]]]}}, {"id": "345205", "type": "Feature", "properties": {"id": "345205", "CVEGEO": "0709714470119007", "POBTOT": 0.0, "score_nse": 0.0, "NSE": null, "VIVTOT": 0.0, "GRAPROES": 0.0, "_ent": "07", "_mun": "097", "_loc": "1447"}, "geometry": {"type": "Polygon", "coordinates": [[[-93.77832, 16.09043], [-93.77806, 16.08887], [-93.77844, 16.08869], [-93.77873, 16.09035], [-93.77832, 16.09043]]]}}, {"id": "345206", "type": "Feature", "properties": {"id": "345206", "CVEGEO": "0709714470119028", "POBTOT": 0.0, "score_nse": 0.0, "NSE": null, "VIVTOT": 0.0, "GRAPROES": 0.0, "_ent": "07", "_mun": "097", "_loc": "1447"}, "geometry": {"type": "Polygon", "coordinates": [[[-93.7777, 16.08642], [-93.77806, 16.08605], [-93.77822, 16.0872], [-93.77784, 16.08736], [-93.7777, 16.08642]]]}}, {"id": "345207", "type": "Feature", "properties": {"id": "345207", "CVEGEO": "0709714470119027", "POBTOT": 0.0, "score_nse": 0.0, "NSE": null, "VIVTOT": 0.0, "GRAPROES": 0.0, "_ent": "07", "_mun": "097", "_loc": "1447"}, "geometry": {"type": "Polygon", "coordinates": [[[-93.77732, 16.08691], [-93.77765, 16.08648], [-93.77779, 16.08739], [-93.77742, 16.08754], [-93.77732, 16.08691]]]}}, {"id": "345208", "type": "Feature", "properties": {"id": "345208", "CVEGEO": "0709714470119031", "POBTOT": 0.0, "score_nse": 0.0, "NSE": null, "VIVTOT": 0.0, "GRAPROES": 0.0, "_ent": "07", "_mun": "097", "_loc": "1447"}, "geometry": {"type": "Polygon", "coordinates": [[[-93.77888, 16.0852], [-93.77931, 16.08525], [-93.77951, 16.08665], [-93.77913, 16.0868], [-93.77888, 16.0852]]]}}, {"id": "345209", "type": "Feature", "properties": {"id": "345209", "CVEGEO": "0709714470119030", "POBTOT": 0.0, "score_nse": 0.0, "NSE": null, "VIVTOT": 0.0, "GRAPROES": 0.0, "_ent": "07", "_mun": "097", "_loc": "1447"}, "geometry": {"type": "Polygon", "coordinates": [[[-93.77849, 16.08558], [-93.77884, 16.08523], [-93.77908, 16.08683], [-93.7787, 16.08698], [-93.77849, 16.08558]]]}}, {"id": "345210", "type": "Feature", "properties": {"id": "345210", "CVEGEO": "0709714470119011", "POBTOT": 0.0, "score_nse": 0.0, "NSE": null, "VIVTOT": 0.0, "GRAPROES": 0.0, "_ent": "07", "_mun": "097", "_loc": "1447"}, "geometry": {"type": "Polygon", "coordinates": [[[-93.77787, 16.09051], [-93.77765, 16.08906], [-93.77801, 16.08891], [-93.77827, 16.09044], [-93.77787, 16.09051]]]}}, {"id": "345211", "type": "Feature", "properties": {"id": "345211", "CVEGEO": "0709714470119012", "POBTOT": 0.0, "score_nse": 0.0, "NSE": null, "VIVTOT": 0.0, "GRAPROES": 0.0, "_ent": "07", "_mun": "097", "_loc": "1447"}, "geometry": {"type": "Polygon", "coordinates": [[[-93.77764, 16.08901], [-93.77742, 16.08758], [-93.7778, 16.08743], [-93.77801, 16.08885], [-93.77764, 16.08901]]]}}, {"id": "345212", "type": "Feature", "properties": {"id": "345212", "CVEGEO": "0709714470119008", "POBTOT": 0.0, "score_nse": 0.0, "NSE": null, "VIVTOT": 0.0, "GRAPROES": 0.0, "_ent": "07", "_mun": "097", "_loc": "1447"}, "geometry": {"type": "Polygon", "coordinates": [[[-93.77806, 16.08882], [-93.77786, 16.0874], [-93.77823, 16.08724], [-93.77843, 16.08865], [-93.77806, 16.08882]]]}}, {"id": "345213", "type": "Feature", "properties": {"id": "345213", "CVEGEO": "0709714470119010", "POBTOT": 0.0, "score_nse": 0.0, "NSE": null, "VIVTOT": 0.0, "GRAPROES": 0.0, "_ent": "07", "_mun": "097", "_loc": "1447"}, "geometry": {"type": "Polygon", "coordinates": [[[-93.77998, 16.09015], [-93.77977, 16.08813], [-93.78016, 16.08796], [-93.78039, 16.09008], [-93.77998, 16.09015]]]}}, {"id": "345214", "type": "Feature", "properties": {"id": "345214", "CVEGEO": "0709714470119032", "POBTOT": 0.0, "score_nse": 0.0, "NSE": null, "VIVTOT": 0.0, "GRAPROES": 0.0, "_ent": "07", "_mun": "097", "_loc": "1447"}, "geometry": {"type": "Polygon", "coordinates": [[[-93.77956, 16.08662], [-93.77936, 16.08526], [-93.77982, 16.08536], [-93.77996, 16.08645], [-93.77956, 16.08662]]]}}, {"id": "345215", "type": "Feature", "properties": {"id": "345215", "CVEGEO": "0709714470119009", "POBTOT": 0.0, "score_nse": 0.0, "NSE": null, "VIVTOT": 0.0, "GRAPROES": 0.0, "_ent": "07", "_mun": "097", "_loc": "1447"}, "geometry": {"type": "Polygon", "coordinates": [[[-93.77976, 16.08806], [-93.77957, 16.08666], [-93.77995, 16.08649], [-93.78015, 16.0879], [-93.77976, 16.08806]]]}}, {"id": "345216", "type": "Feature", "properties": {"id": "345216", "CVEGEO": "0709714470119013", "POBTOT": 0.0, "score_nse": 0.0, "NSE": null, "VIVTOT": 0.0, "GRAPROES": 0.0, "_ent": "07", "_mun": "097", "_loc": "1447"}, "geometry": {"type": "Polygon", "coordinates": [[[-93.78019, 16.08787], [-93.78, 16.08648], [-93.78038, 16.08633], [-93.78057, 16.08772], [-93.78019, 16.08787]]]}}, {"id": "345217", "type": "Feature", "properties": {"id": "345217", "CVEGEO": "0709714470119034", "POBTOT": 0.0, "score_nse": 0.0, "NSE": null, "VIVTOT": 0.0, "GRAPROES": 0.0, "_ent": "07", "_mun": "097", "_loc": "1447"}, "geometry": {"type": "Polygon", "coordinates": [[[-93.78042, 16.08628], [-93.7803, 16.08546], [-93.78069, 16.08555], [-93.78078, 16.08614], [-93.78042, 16.08628]]]}}, {"id": "345218", "type": "Feature", "properties": {"id": "345218", "CVEGEO": "0709714470119033", "POBTOT": 0.0, "score_nse": 0.0, "NSE": null, "VIVTOT": 0.0, "GRAPROES": 0.0, "_ent": "07", "_mun": "097", "_loc": "1447"}, "geometry": {"type": "Polygon", "coordinates": [[[-93.78, 16.08645], [-93.77987, 16.08537], [-93.78025, 16.08545], [-93.78037, 16.0863], [-93.78, 16.08645]]]}}, {"id": "345219", "type": "Feature", "properties": {"id": "345219", "CVEGEO": "0709714470119026", "POBTOT": 0.0, "score_nse": 0.0, "NSE": null, "VIVTOT": 0.0, "GRAPROES": 0.0, "_ent": "07", "_mun": "097", "_loc": "1447"}, "geometry": {"type": "Polygon", "coordinates": [[[-93.77693, 16.08754], [-93.77728, 16.08697], [-93.77737, 16.08756], [-93.77696, 16.08775], [-93.77693, 16.08754]]]}}, {"id": "345220", "type": "Feature", "properties": {"id": "345220", "CVEGEO": "0709714470119029", "POBTOT": 0.0, "score_nse": 0.0, "NSE": null, "VIVTOT": 0.0, "GRAPROES": 0.0, "_ent": "07", "_mun": "097", "_loc": "1447"}, "geometry": {"type": "Polygon", "coordinates": [[[-93.77811, 16.08601], [-93.77844, 16.08563], [-93.77865, 16.08701], [-93.77826, 16.08718], [-93.77811, 16.08601]]]}}, {"id": "345337", "type": "Feature", "properties": {"id": "345337", "CVEGEO": "0709714470119037", "POBTOT": 0.0, "score_nse": 0.0, "NSE": null, "VIVTOT": 0.0, "GRAPROES": 0.0, "_ent": "07", "_mun": "097", "_loc": "1447"}, "geometry": {"type": "Polygon", "coordinates": [[[-93.78139, 16.08699], [-93.7813, 16.08616], [-93.78175, 16.08602], [-93.78171, 16.0869], [-93.78139, 16.08699]]]}}, {"id": "345346", "type": "Feature", "properties": {"id": "345346", "CVEGEO": "0709714470119036", "POBTOT": 0.0, "score_nse": 0.0, "NSE": null, "VIVTOT": 0.0, "GRAPROES": 0.0, "_ent": "07", "_mun": "097", "_loc": "1447"}, "geometry": {"type": "Polygon", "coordinates": [[[-93.78129, 16.0861], [-93.78125, 16.08567], [-93.78178, 16.08578], [-93.78177, 16.08596], [-93.78129, 16.0861]]]}}, {"id": "345352", "type": "Feature", "properties": {"id": "345352", "CVEGEO": "0709714470119025", "POBTOT": 0.0, "score_nse": 0.0, "NSE": null, "VIVTOT": 0.0, "GRAPROES": 0.0, "_ent": "07", "_mun": "097", "_loc": "1447"}, "geometry": {"type": "Polygon", "coordinates": [[[-93.77637, 16.08827], [-93.77687, 16.08763], [-93.77707, 16.08879], [-93.77649, 16.08898], [-93.77637, 16.08827]]]}}, {"id": "345353", "type": "Feature", "properties": {"id": "345353", "CVEGEO": "0709714470119022", "POBTOT": 0.0, "score_nse": 0.0, "NSE": null, "VIVTOT": 0.0, "GRAPROES": 0.0, "_ent": "07", "_mun": "097", "_loc": "1447"}, "geometry": {"type": "Polygon", "coordinates": [[[-93.78144, 16.08741], [-93.7817, 16.0873], [-93.78165, 16.08849], [-93.78162, 16.08849], [-93.78144, 16.08741]]]}}, {"id": "345475", "type": "Feature", "properties": {"id": "345475", "CVEGEO": "0709714470119014", "POBTOT": 0.0, "score_nse": 0.0, "NSE": null, "VIVTOT": 0.0, "GRAPROES": 0.0, "_ent": "07", "_mun": "097", "_loc": "1447"}, "geometry": {"type": "Polygon", "coordinates": [[[-93.78045, 16.09006], [-93.78021, 16.08793], [-93.78057, 16.08777], [-93.78083, 16.09001], [-93.78045, 16.09006]]]}}, {"id": "345510", "type": "Feature", "properties": {"id": "345510", "CVEGEO": "0709714470119004", "POBTOT": 0.0, "score_nse": 0.0, "NSE": null, "VIVTOT": 0.0, "GRAPROES": 0.0, "_ent": "07", "_mun": "097", "_loc": "1447"}, "geometry": {"type": "Polygon", "coordinates": [[[-93.7789, 16.08845], [-93.77872, 16.08701], [-93.77908, 16.08687], [-93.77926, 16.08828], [-93.7789, 16.08845]]]}}, {"id": "345511", "type": "Feature", "properties": {"id": "345511", "CVEGEO": "0709714470119002", "POBTOT": 0.0, "score_nse": 0.0, "NSE": null, "VIVTOT": 0.0, "GRAPROES": 0.0, "_ent": "07", "_mun": "097", "_loc": "1447"}, "geometry": {"type": "Polygon", "coordinates": [[[-93.77877, 16.09035], [-93.77849, 16.08867], [-93.77886, 16.08853], [-93.77914, 16.09029], [-93.77877, 16.09035]]]}}, {"id": "345512", "type": "Feature", "properties": {"id": "345512", "CVEGEO": "0709714470119038", "POBTOT": 0.0, "score_nse": 0.0, "NSE": null, "VIVTOT": 0.0, "GRAPROES": 0.0, "_ent": "07", "_mun": "097", "_loc": "1447"}, "geometry": {"type": "Polygon", "coordinates": [[[-93.78143, 16.08734], [-93.7814, 16.08702], [-93.78171, 16.08694], [-93.78169, 16.08723], [-93.78143, 16.08734]]]}}, {"id": "345513", "type": "Feature", "properties": {"id": "345513", "CVEGEO": "0709714470119003", "POBTOT": 0.0, "score_nse": 0.0, "NSE": null, "VIVTOT": 0.0, "GRAPROES": 0.0, "_ent": "07", "_mun": "097", "_loc": "1447"}, "geometry": {"type": "Polygon", "coordinates": [[[-93.77847, 16.08861], [-93.77826, 16.08723], [-93.77866, 16.08705], [-93.77885, 16.08846], [-93.77847, 16.08861]]]}}, {"id": "345562", "type": "Feature", "properties": {"id": "345562", "CVEGEO": "0709714470119006", "POBTOT": 0.0, "score_nse": 0.0, "NSE": null, "VIVTOT": 0.0, "GRAPROES": 0.0, "_ent": "07", "_mun": "097", "_loc": "1447"}, "geometry": {"type": "Polygon", "coordinates": [[[-93.77956, 16.09022], [-93.77933, 16.08833], [-93.77972, 16.08815], [-93.77994, 16.09016], [-93.77956, 16.09022]]]}}, {"id": "345563", "type": "Feature", "properties": {"id": "345563", "CVEGEO": "0709714470119015", "POBTOT": 0.0, "score_nse": 0.0, "NSE": null, "VIVTOT": 0.0, "GRAPROES": 0.0, "_ent": "07", "_mun": "097", "_loc": "1447"}, "geometry": {"type": "Polygon", "coordinates": [[[-93.7774, 16.09064], [-93.7772, 16.08924], [-93.77759, 16.08908], [-93.77781, 16.09052], [-93.7774, 16.09064]]]}}, {"id": "345564", "type": "Feature", "properties": {"id": "345564", "CVEGEO": "0709714470119016", "POBTOT": 0.0, "score_nse": 0.0, "NSE": null, "VIVTOT": 0.0, "GRAPROES": 0.0, "_ent": "07", "_mun": "097", "_loc": "1447"}, "geometry": {"type": "Polygon", "coordinates": [[[-93.77719, 16.0892], [-93.77696, 16.08779], [-93.77737, 16.0876], [-93.77759, 16.08903], [-93.77719, 16.0892]]]}}, {"id": "345719", "type": "Feature", "properties": {"id": "345719", "CVEGEO": "0709714470119019", "POBTOT": 0.0, "score_nse": 0.0, "NSE": null, "VIVTOT": 0.0, "GRAPROES": 0.0, "_ent": "07", "_mun": "097", "_loc": "1447"}, "geometry": {"type": "Polygon", "coordinates": [[[-93.77698, 16.09078], [-93.77679, 16.08939], [-93.77715, 16.08926], [-93.77736, 16.09065], [-93.77698, 16.09078]]]}}, {"id": "345720", "type": "Feature", "properties": {"id": "345720", "CVEGEO": "0709714470119017", "POBTOT": 0.0, "score_nse": 0.0, "NSE": null, "VIVTOT": 0.0, "GRAPROES": 0.0, "_ent": "07", "_mun": "097", "_loc": "1447"}, "geometry": {"type": "Polygon", "coordinates": [[[-93.78061, 16.08769], [-93.78042, 16.08631], [-93.78079, 16.08617], [-93.78099, 16.08754], [-93.78061, 16.08769]]]}}, {"id": "345778", "type": "Feature", "properties": {"id": "345778", "CVEGEO": "0709714470119020", "POBTOT": 0.0, "score_nse": 0.0, "NSE": null, "VIVTOT": 0.0, "GRAPROES": 0.0, "_ent": "07", "_mun": "097", "_loc": "1447"}, "geometry": {"type": "Polygon", "coordinates": [[[-93.77679, 16.08935], [-93.7767, 16.08895], [-93.77707, 16.08883], [-93.77714, 16.08921], [-93.77679, 16.08935]]]}}, {"id": "345782", "type": "Feature", "properties": {"id": "345782", "CVEGEO": "0709714470119024", "POBTOT": 0.0, "score_nse": 0.0, "NSE": null, "VIVTOT": 0.0, "GRAPROES": 0.0, "_ent": "07", "_mun": "097", "_loc": "1447"}, "geometry": {"type": "Polygon", "coordinates": [[[-93.77657, 16.08943], [-93.7765, 16.089], [-93.77665, 16.08896], [-93.77673, 16.08938], [-93.77657, 16.08943]]]}}, {"id": "345916", "type": "Feature", "properties": {"id": "345916", "CVEGEO": "0709714470119023", "POBTOT": 0.0, "score_nse": 0.0, "NSE": null, "VIVTOT": 0.0, "GRAPROES": 0.0, "_ent": "07", "_mun": "097", "_loc": "1447"}, "geometry": {"type": "Polygon", "coordinates": [[[-93.77674, 16.08941], [-93.77693, 16.09081], [-93.77678, 16.09087], [-93.77657, 16.08947], [-93.77674, 16.08941]]]}}, {"id": "345917", "type": "Feature", "properties": {"id": "345917", "CVEGEO": "0709714470119021", "POBTOT": 0.0, "score_nse": 0.0, "NSE": null, "VIVTOT": 0.0, "GRAPROES": 0.0, "_ent": "07", "_mun": "097", "_loc": "1447"}, "geometry": {"type": "Polygon", "coordinates": [[[-93.78137, 16.08741], [-93.78163, 16.08981], [-93.78136, 16.08985], [-93.78104, 16.08755], [-93.78137, 16.08741]]]}}, {"id": "345918", "type": "Feature", "properties": {"id": "345918", "CVEGEO": "0709714470119035", "POBTOT": 0.0, "score_nse": 0.0, "NSE": null, "VIVTOT": 0.0, "GRAPROES": 0.0, "_ent": "07", "_mun": "097", "_loc": "1447"}, "geometry": {"type": "Polygon", "coordinates": [[[-93.78104, 16.08751], [-93.78084, 16.08613], [-93.78076, 16.08556], [-93.78117, 16.08565], [-93.78139, 16.08737], [-93.78104, 16.08751]]]}}]}