{"type": "FeatureCollection", "features": [{"id": "345195", "type": "Feature", "properties": {"id": "345195", "CVEGEO": "0709714670138002", "POBTOT": 0.0, "score_nse": 0.0, "NSE": null, "VIVTOT": 0.0, "GRAPROES": 0.0, "_ent": "07", "_mun": "097", "_loc": "1467"}, "geometry": {"type": "Polygon", "coordinates": [[[-93.64355, 15.97166], [-93.64393, 15.9712], [-93.64405, 15.97128], [-93.6437, 15.97174], [-93.64355, 15.97166]]]}}, {"id": "345196", "type": "Feature", "properties": {"id": "345196", "CVEGEO": "0709714670138001", "POBTOT": 0.0, "score_nse": 0.0, "NSE": null, "VIVTOT": 0.0, "GRAPROES": 0.0, "_ent": "07", "_mun": "097", "_loc": "1467"}, "geometry": {"type": "Polygon", "coordinates": [[[-93.64211, 15.9717], [-93.64238, 15.97102], [-93.64368, 15.9718], [-93.6433, 15.9723], [-93.64211, 15.9717]]]}}, {"id": "345334", "type": "Feature", "properties": {"id": "345334", "CVEGEO": "0709714670138004", "POBTOT": 0.0, "score_nse": 0.0, "NSE": null, "VIVTOT": 0.0, "GRAPROES": 0.0, "_ent": "07", "_mun": "097", "_loc": "1467"}, "geometry": {"type": "Polygon", "coordinates": [[[-93.64241, 15.97096], [-93.64273, 15.97048], [-93.64319, 15.97077], [-93.64289, 15.97125], [-93.64241, 15.97096]]]}}, {"id": "345728", "type": "Feature", "properties": {"id": "345728", "CVEGEO": "0709714670138003", "POBTOT": 0.0, "score_nse": 0.0, "NSE": null, "VIVTOT": 0.0, "GRAPROES": 0.0, "_ent": "07", "_mun": "097", "_loc": "1467"}, "geometry": {"type": "Polygon", "coordinates": [[[-93.64293, 15.97129], [-93.64324, 15.97081], [-93.64386, 15.97117], [-93.64351, 15.97164], [-93.64293, 15.97129]]]}}, {"id": "345872", "type": "Feature", "properties": {"id": "345872", "CVEGEO": "0709714670138005", "POBTOT": 0.0, "score_nse": 0.0, "NSE": null, "VIVTOT": 0.0, "GRAPROES": 0.0, "_ent": "07", "_mun": "097", "_loc": "1467"}, "geometry": {"type": "Polygon", "coordinates": [[[-93.64276, 15.97043], [-93.64321, 15.97006], [-93.64446, 15.97082], [-93.64407, 15.97123], [-93.64276, 15.97043]]]}}]}