{"type": "FeatureCollection", "features": [{"id": "1153877", "type": "Feature", "properties": {"id": "1153877", "CVEGEO": "1508600010073051", "POBTOT": 38.0, "score_nse": 65.5653, "NSE": "C", "VIVTOT": 12.0, "GRAPROES": 11.71, "_ent": "15", "_mun": "086", "_loc": "0001"}, "geometry": {"type": "Polygon", "coordinates": [[[-100.04163, 19.0456], [-100.04004, 19.04523], [-100.03976, 19.04464], [-100.04027, 19.04499], [-100.04135, 19.04522], [-100.04169, 19.0455], [-100.04163, 19.0456]]]}}, {"id": "1153880", "type": "Feature", "properties": {"id": "1153880", "CVEGEO": "1508600010143001", "POBTOT": 46.0, "score_nse": 59.0213, "NSE": "C", "VIVTOT": 18.0, "GRAPROES": 11.36, "_ent": "15", "_mun": "086", "_loc": "0001"}, "geometry": {"type": "Polygon", "coordinates": [[[-100.04307, 19.04266], [-100.04358, 19.04328], [-100.04409, 19.04365], [-100.04381, 19.04379], [-100.04321, 19.04342], [-100.04289, 19.04291], [-100.04307, 19.04266]]]}}, {"id": "1153881", "type": "Feature", "properties": {"id": "1153881", "CVEGEO": "1508600010073056", "POBTOT": 55.0, "score_nse": 0.0, "NSE": "ND", "VIVTOT": 17.0, "GRAPROES": 9.78, "_ent": "15", "_mun": "086", "_loc": "0001"}, "geometry": {"type": "Polygon", "coordinates": [[[-100.04564, 19.04747], [-100.04554, 19.048], [-100.04506, 19.04797], [-100.04502, 19.04752], [-100.04404, 19.0471], [-100.0449, 19.04632], [-100.04529, 19.04533], [-100.04511, 19.045], [-100.04516, 19.04476], [-100.04576, 19.04505], [-100.04561, 19.04536], [-100.0457, 19.04576], [-100.04525, 19.04701], [-100.04564, 19.04747]]]}}, {"id": "1153882", "type": "Feature", "properties": {"id": "1153882", "CVEGEO": "1508600010073021", "POBTOT": 4.0, "score_nse": 0.0, "NSE": "ND", "VIVTOT": 1.0, "GRAPROES": 0.0, "_ent": "15", "_mun": "086", "_loc": "0001"}, "geometry": {"type": "Polygon", "coordinates": [[[-100.04812, 19.04489], [-100.04916, 19.04457], [-100.0495, 19.04469], [-100.04816, 19.04501], [-100.04812, 19.04489]]]}}, {"id": "1153892", "type": "Feature", "properties": {"id": "1153892", "CVEGEO": "1508600010073055", "POBTOT": 0.0, "score_nse": 0.0, "NSE": "ND", "VIVTOT": 0.0, "GRAPROES": 0.0, "_ent": "15", "_mun": "086", "_loc": "0001"}, "geometry": {"type": "Polygon", "coordinates": [[[-100.0467, 19.04777], [-100.04691, 19.04783], [-100.04678, 19.04821], [-100.04692, 19.04829], [-100.04602, 19.04864], [-100.04566, 19.04858], [-100.0451, 19.04803], [-100.04564, 19.048], [-100.04569, 19.04746], [-100.04659, 19.04745], [-100.0467, 19.04777]]]}}, {"id": "1153893", "type": "Feature", "properties": {"id": "1153893", "CVEGEO": "1508600010073024", "POBTOT": 25.0, "score_nse": 55.8382, "NSE": "C", "VIVTOT": 13.0, "GRAPROES": 11.71, "_ent": "15", "_mun": "086", "_loc": "0001"}, "geometry": {"type": "Polygon", "coordinates": [[[-100.05392, 19.04704], [-100.05449, 19.04736], [-100.05347, 19.04742], [-100.05305, 19.04691], [-100.05392, 19.04704]]]}}, {"id": "1153920", "type": "Feature", "properties": {"id": "1153920", "CVEGEO": "1508600010143004", "POBTOT": 90.0, "score_nse": 65.2897, "NSE": "C", "VIVTOT": 39.0, "GRAPROES": 13.1, "_ent": "15", "_mun": "086", "_loc": "0001"}, "geometry": {"type": "Polygon", "coordinates": [[[-100.04432, 19.04435], [-100.04386, 19.04447], [-100.04353, 19.04433], [-100.04284, 19.043], [-100.04358, 19.04372], [-100.04417, 19.04397], [-100.04432, 19.04435]]]}}, {"id": "1153921", "type": "Feature", "properties": {"id": "1153921", "CVEGEO": "1508600010143003", "POBTOT": 9.0, "score_nse": 0.0, "NSE": "ND", "VIVTOT": 4.0, "GRAPROES": 6.6, "_ent": "15", "_mun": "086", "_loc": "0001"}, "geometry": {"type": "Polygon", "coordinates": [[[-100.04439, 19.04432], [-100.04398, 19.04381], [-100.04405, 19.04369], [-100.04523, 19.04439], [-100.04478, 19.04424], [-100.04439, 19.04432]]]}}, {"id": "1153922", "type": "Feature", "properties": {"id": "1153922", "CVEGEO": "1508600010073041", "POBTOT": 14.0, "score_nse": 0.0, "NSE": "ND", "VIVTOT": 6.0, "GRAPROES": 8.25, "_ent": "15", "_mun": "086", "_loc": "0001"}, "geometry": {"type": "Polygon", "coordinates": [[[-100.04332, 19.04265], [-100.04164, 19.04137], [-100.04134, 19.04144], [-100.04085, 19.04199], [-100.04059, 19.0419], [-100.04051, 19.04163], [-100.04119, 19.04106], [-100.04188, 19.04102], [-100.04377, 19.04223], [-100.04386, 19.04241], [-100.04347, 19.04239], [-100.04332, 19.04265]]]}}, {"id": "1153924", "type": "Feature", "properties": {"id": "1153924", "CVEGEO": "1508600010073026", "POBTOT": 7.0, "score_nse": 0.0, "NSE": "ND", "VIVTOT": 3.0, "GRAPROES": 0.0, "_ent": "15", "_mun": "086", "_loc": "0001"}, "geometry": {"type": "Polygon", "coordinates": [[[-100.05408, 19.04852], [-100.05447, 19.04816], [-100.05447, 19.04795], [-100.05464, 19.04791], [-100.05453, 19.04765], [-100.05471, 19.04749], [-100.05478, 19.04788], [-100.05403, 19.04931], [-100.05327, 19.04895], [-100.0534, 19.04865], [-100.05408, 19.04852]]]}}, {"id": "1153925", "type": "Feature", "properties": {"id": "1153925", "CVEGEO": "1508600010073012", "POBTOT": 30.0, "score_nse": 63.368, "NSE": "C", "VIVTOT": 12.0, "GRAPROES": 13.1, "_ent": "15", "_mun": "086", "_loc": "0001"}, "geometry": {"type": "Polygon", "coordinates": [[[-100.04367, 19.04494], [-100.04318, 19.04481], [-100.04252, 19.04456], [-100.04265, 19.0443], [-100.04351, 19.04468], [-100.04367, 19.04494]]]}}, {"id": "1153926", "type": "Feature", "properties": {"id": "1153926", "CVEGEO": "1508600010073009", "POBTOT": 120.0, "score_nse": 0.0, "NSE": "ND", "VIVTOT": 35.0, "GRAPROES": 11.23, "_ent": "15", "_mun": "086", "_loc": "0001"}, "geometry": {"type": "Polygon", "coordinates": [[[-100.04108, 19.04394], [-100.04077, 19.04437], [-100.04078, 19.04441], [-100.04096, 19.04459], [-100.04072, 19.04481], [-100.04099, 19.0446], [-100.04079, 19.04438], [-100.0411, 19.04395], [-100.04178, 19.04486], [-100.04168, 19.04517], [-100.04035, 19.04496], [-100.04049, 19.04481], [-100.04028, 19.04447], [-100.04085, 19.04382], [-100.04108, 19.04394]]]}}, {"id": "1153930", "type": "Feature", "properties": {"id": "1153930", "CVEGEO": "1508600010073038", "POBTOT": 22.0, "score_nse": 40.7218, "NSE": "D+", "VIVTOT": 22.0, "GRAPROES": 10.07, "_ent": "15", "_mun": "086", "_loc": "0001"}, "geometry": {"type": "Polygon", "coordinates": [[[-100.03859, 19.04266], [-100.03851, 19.04325], [-100.03768, 19.04377], [-100.03785, 19.04405], [-100.03702, 19.04398], [-100.03618, 19.04425], [-100.03527, 19.04406], [-100.03524, 19.04391], [-100.03626, 19.04395], [-100.03741, 19.04354], [-100.03806, 19.04319], [-100.03837, 19.04263], [-100.03907, 19.04241], [-100.03895, 19.04261], [-100.03859, 19.04266]]]}}, {"id": "1153951", "type": "Feature", "properties": {"id": "1153951", "CVEGEO": "1508600010073017", "POBTOT": 17.0, "score_nse": 52.7, "NSE": "C-", "VIVTOT": 10.0, "GRAPROES": 12.25, "_ent": "15", "_mun": "086", "_loc": "0001"}, "geometry": {"type": "Polygon", "coordinates": [[[-100.04552, 19.04487], [-100.04489, 19.04464], [-100.04433, 19.04469], [-100.04436, 19.04448], [-100.0448, 19.04436], [-100.04519, 19.0445], [-100.04552, 19.04487]]]}}, {"id": "1153952", "type": "Feature", "properties": {"id": "1153952", "CVEGEO": "1508600010073005", "POBTOT": 191.0, "score_nse": 0.0, "NSE": "ND", "VIVTOT": 9.0, "GRAPROES": 6.9, "_ent": "15", "_mun": "086", "_loc": "0001"}, "geometry": {"type": "Polygon", "coordinates": [[[-100.04185, 19.04333], [-100.04199, 19.04256], [-100.04212, 19.04249], [-100.04267, 19.04283], [-100.04275, 19.04299], [-100.04249, 19.04363], [-100.04185, 19.04333]]]}}, {"id": "1153953", "type": "Feature", "properties": {"id": "1153953", "CVEGEO": "1508600010073004", "POBTOT": 9.0, "score_nse": 0.0, "NSE": "ND", "VIVTOT": 9.0, "GRAPROES": 12.0, "_ent": "15", "_mun": "086", "_loc": "0001"}, "geometry": {"type": "Polygon", "coordinates": [[[-100.04196, 19.04258], [-100.04181, 19.04333], [-100.04124, 19.04309], [-100.04104, 19.04342], [-100.04018, 19.04301], [-100.04021, 19.04249], [-100.04037, 19.04227], [-100.04105, 19.04246], [-100.04149, 19.04208], [-100.04204, 19.04243], [-100.04197, 19.04254], [-100.0415, 19.04233], [-100.04196, 19.04258]]]}}, {"id": "1153977", "type": "Feature", "properties": {"id": "1153977", "CVEGEO": "1508600010073046", "POBTOT": 67.0, "score_nse": 0.0, "NSE": "ND", "VIVTOT": 21.0, "GRAPROES": 11.36, "_ent": "15", "_mun": "086", "_loc": "0001"}, "geometry": {"type": "Polygon", "coordinates": [[[-100.0405, 19.0456], [-100.04003, 19.04565], [-100.03984, 19.04552], [-100.04003, 19.04525], [-100.04164, 19.04561], [-100.04165, 19.0454], [-100.04136, 19.04523], [-100.04182, 19.04507], [-100.04207, 19.04523], [-100.04184, 19.04488], [-100.04235, 19.04514], [-100.04259, 19.04505], [-100.04347, 19.04542], [-100.04452, 19.04559], [-100.04464, 19.04577], [-100.04268, 19.04653], [-100.04022, 19.04567], [-100.0405, 19.0456]]]}}, {"id": "1153980", "type": "Feature", "properties": {"id": "1153980", "CVEGEO": "1508600010073014", "POBTOT": 11.0, "score_nse": 0.0, "NSE": "ND", "VIVTOT": 2.0, "GRAPROES": 0.0, "_ent": "15", "_mun": "086", "_loc": "0001"}, "geometry": {"type": "Polygon", "coordinates": [[[-100.03989, 19.04212], [-100.04035, 19.04225], [-100.04018, 19.04247], [-100.04015, 19.043], [-100.03895, 19.04298], [-100.03895, 19.04273], [-100.03912, 19.04284], [-100.03949, 19.0427], [-100.03956, 19.04234], [-100.03975, 19.04235], [-100.03989, 19.04212]]]}}, {"id": "1153981", "type": "Feature", "properties": {"id": "1153981", "CVEGEO": "1508600010073013", "POBTOT": 92.0, "score_nse": 66.3652, "NSE": "C", "VIVTOT": 27.0, "GRAPROES": 12.51, "_ent": "15", "_mun": "086", "_loc": "0001"}, "geometry": {"type": "Polygon", "coordinates": [[[-100.04432, 19.04454], [-100.04409, 19.04507], [-100.04378, 19.04495], [-100.0436, 19.04466], [-100.04272, 19.04426], [-100.0425, 19.04371], [-100.04277, 19.04305], [-100.04347, 19.04437], [-100.04385, 19.04456], [-100.04432, 19.04454]]]}}, {"id": "1153988", "type": "Feature", "properties": {"id": "1153988", "CVEGEO": "1508600010073039", "POBTOT": 14.0, "score_nse": 0.0, "NSE": "ND", "VIVTOT": 11.0, "GRAPROES": 15.2, "_ent": "15", "_mun": "086", "_loc": "0001"}, "geometry": {"type": "Polygon", "coordinates": [[[-100.03639, 19.04338], [-100.03641, 19.04357], [-100.03599, 19.04388], [-100.03456, 19.04394], [-100.03411, 19.04381], [-100.03506, 19.04379], [-100.03576, 19.04319], [-100.03711, 19.04291], [-100.03764, 19.04255], [-100.0378, 19.04279], [-100.03788, 19.04265], [-100.03814, 19.04275], [-100.03798, 19.04318], [-100.03768, 19.04335], [-100.03604, 19.04389], [-100.03646, 19.04358], [-100.03639, 19.04338]]]}}, {"id": "1154002", "type": "Feature", "properties": {"id": "1154002", "CVEGEO": "1508600010073035", "POBTOT": 192.0, "score_nse": 64.4733, "NSE": "C", "VIVTOT": 60.0, "GRAPROES": 12.12, "_ent": "15", "_mun": "086", "_loc": "0001"}, "geometry": {"type": "Polygon", "coordinates": [[[-100.03297, 19.04715], [-100.0329, 19.04655], [-100.03391, 19.04641], [-100.03683, 19.0454], [-100.03773, 19.04532], [-100.03928, 19.04564], [-100.03728, 19.04578], [-100.03523, 19.04684], [-100.03423, 19.04756], [-100.03376, 19.04752], [-100.03386, 19.04717], [-100.03297, 19.04715]]]}}, {"id": "1154003", "type": "Feature", "properties": {"id": "1154003", "CVEGEO": "1508600010073031", "POBTOT": 42.0, "score_nse": 0.0, "NSE": "ND", "VIVTOT": 16.0, "GRAPROES": 10.68, "_ent": "15", "_mun": "086", "_loc": "0001"}, "geometry": {"type": "Polygon", "coordinates": [[[-100.03433, 19.04793], [-100.03282, 19.04755], [-100.03434, 19.04757], [-100.03525, 19.04687], [-100.03721, 19.04589], [-100.03661, 19.04654], [-100.0353, 19.04712], [-100.03474, 19.04776], [-100.03433, 19.04793]]]}}, {"id": "1154004", "type": "Feature", "properties": {"id": "1154004", "CVEGEO": "1508600010073019", "POBTOT": 12.0, "score_nse": 0.0, "NSE": "ND", "VIVTOT": 8.0, "GRAPROES": 8.7, "_ent": "15", "_mun": "086", "_loc": "0001"}, "geometry": {"type": "Polygon", "coordinates": [[[-100.04453, 19.04551], [-100.04422, 19.04558], [-100.04325, 19.04523], [-100.04339, 19.04491], [-100.04392, 19.04506], [-100.04453, 19.04551]]]}}, {"id": "1154005", "type": "Feature", "properties": {"id": "1154005", "CVEGEO": "1508600010073011", "POBTOT": 4.0, "score_nse": 0.0, "NSE": "ND", "VIVTOT": 3.0, "GRAPROES": 0.0, "_ent": "15", "_mun": "086", "_loc": "0001"}, "geometry": {"type": "Polygon", "coordinates": [[[-100.04035, 19.04353], [-100.04026, 19.04364], [-100.03971, 19.04341], [-100.03982, 19.04322], [-100.04035, 19.04353]]]}}, {"id": "1154006", "type": "Feature", "properties": {"id": "1154006", "CVEGEO": "1508600010073006", "POBTOT": 16.0, "score_nse": 57.5143, "NSE": "C", "VIVTOT": 14.0, "GRAPROES": 12.8, "_ent": "15", "_mun": "086", "_loc": "0001"}, "geometry": {"type": "Polygon", "coordinates": [[[-100.04245, 19.04369], [-100.04266, 19.04426], [-100.04152, 19.04369], [-100.04173, 19.04334], [-100.04245, 19.04369]]]}}, {"id": "1154017", "type": "Feature", "properties": {"id": "1154017", "CVEGEO": "1508600010073027", "POBTOT": 70.0, "score_nse": 61.6311, "NSE": "C", "VIVTOT": 26.0, "GRAPROES": 12.09, "_ent": "15", "_mun": "086", "_loc": "0001"}, "geometry": {"type": "Polygon", "coordinates": [[[-100.05308, 19.04736], [-100.05282, 19.0469], [-100.05324, 19.0472], [-100.05331, 19.04755], [-100.05303, 19.04785], [-100.05262, 19.04791], [-100.05199, 19.04781], [-100.05136, 19.04738], [-100.05104, 19.04737], [-100.04995, 19.04797], [-100.04893, 19.04897], [-100.04851, 19.04888], [-100.0476, 19.04817], [-100.04681, 19.04822], [-100.047, 19.04783], [-100.04832, 19.04827], [-100.04925, 19.04765], [-100.0494, 19.04649], [-100.05001, 19.04635], [-100.05059, 19.04657], [-100.05097, 19.04585], [-100.05159, 19.04655], [-100.05226, 19.04693], [-100.05271, 19.04692], [-100.05308, 19.04736]]]}}, {"id": "1154018", "type": "Feature", "properties": {"id": "1154018", "CVEGEO": "1508600010073015", "POBTOT": 75.0, "score_nse": 0.0, "NSE": "ND", "VIVTOT": 29.0, "GRAPROES": 11.64, "_ent": "15", "_mun": "086", "_loc": "0001"}, "geometry": {"type": "Polygon", "coordinates": [[[-100.04324, 19.04521], [-100.0423, 19.04508], [-100.04179, 19.04482], [-100.04162, 19.04456], [-100.04181, 19.04428], [-100.0422, 19.04446], [-100.04212, 19.04466], [-100.04221, 19.04447], [-100.04337, 19.0449], [-100.04324, 19.04521]]]}}, {"id": "1154019", "type": "Feature", "properties": {"id": "1154019", "CVEGEO": "1508600010073003", "POBTOT": 14.0, "score_nse": 0.0, "NSE": "ND", "VIVTOT": 5.0, "GRAPROES": 13.45, "_ent": "15", "_mun": "086", "_loc": "0001"}, "geometry": {"type": "Polygon", "coordinates": [[[-100.04051, 19.0432], [-100.04034, 19.04346], [-100.03978, 19.04306], [-100.04016, 19.04305], [-100.04051, 19.0432]]]}}, {"id": "1154023", "type": "Feature", "properties": {"id": "1154023", "CVEGEO": "1508600010073001", "POBTOT": 0.0, "score_nse": 0.0, "NSE": "ND", "VIVTOT": 0.0, "GRAPROES": 0.0, "_ent": "15", "_mun": "086", "_loc": "0001"}, "geometry": {"type": "Polygon", "coordinates": [[[-100.04167, 19.04333], [-100.04148, 19.04365], [-100.04107, 19.04344], [-100.04124, 19.04314], [-100.04167, 19.04333]]]}}, {"id": "1154024", "type": "Feature", "properties": {"id": "1154024", "CVEGEO": "1508600010073007", "POBTOT": 16.0, "score_nse": 0.0, "NSE": "ND", "VIVTOT": 1.0, "GRAPROES": 0.0, "_ent": "15", "_mun": "086", "_loc": "0001"}, "geometry": {"type": "Polygon", "coordinates": [[[-100.04189, 19.04394], [-100.04175, 19.04419], [-100.04131, 19.04402], [-100.04149, 19.04374], [-100.04189, 19.04394]]]}}, {"id": "1154025", "type": "Feature", "properties": {"id": "1154025", "CVEGEO": "1508600010073002", "POBTOT": 2.0, "score_nse": 0.0, "NSE": "ND", "VIVTOT": 1.0, "GRAPROES": 0.0, "_ent": "15", "_mun": "086", "_loc": "0001"}, "geometry": {"type": "Polygon", "coordinates": [[[-100.04127, 19.04398], [-100.04039, 19.04352], [-100.04054, 19.04321], [-100.04144, 19.04371], [-100.04127, 19.04398]]]}}, {"id": "1154026", "type": "Feature", "properties": {"id": "1154026", "CVEGEO": "1508600010073025", "POBTOT": 0.0, "score_nse": 0.0, "NSE": "ND", "VIVTOT": 0.0, "GRAPROES": 0.0, "_ent": "15", "_mun": "086", "_loc": "0001"}, "geometry": {"type": "Polygon", "coordinates": [[[-100.05381, 19.04814], [-100.0531, 19.04789], [-100.05367, 19.04755], [-100.05447, 19.04744], [-100.05448, 19.04779], [-100.05419, 19.04833], [-100.05367, 19.04855], [-100.05381, 19.04814]]]}}, {"id": "1154037", "type": "Feature", "properties": {"id": "1154037", "CVEGEO": "1508600010073054", "POBTOT": 4.0, "score_nse": 0.0, "NSE": "ND", "VIVTOT": 4.0, "GRAPROES": 0.0, "_ent": "15", "_mun": "086", "_loc": "0001"}, "geometry": {"type": "Polygon", "coordinates": [[[-100.04161, 19.04455], [-100.04135, 19.04409], [-100.04179, 19.04428], [-100.04161, 19.04455]]]}}, {"id": "1154040", "type": "Feature", "properties": {"id": "1154040", "CVEGEO": "1508600010073020", "POBTOT": 95.0, "score_nse": 54.2003, "NSE": "C-", "VIVTOT": 31.0, "GRAPROES": 10.41, "_ent": "15", "_mun": "086", "_loc": "0001"}, "geometry": {"type": "Polygon", "coordinates": [[[-100.04765, 19.04501], [-100.04809, 19.0449], [-100.04814, 19.04502], [-100.04728, 19.04524], [-100.04581, 19.045], [-100.04554, 19.04478], [-100.04589, 19.0446], [-100.04765, 19.04501]]]}}, {"id": "1154045", "type": "Feature", "properties": {"id": "1154045", "CVEGEO": "1508600010073018", "POBTOT": 23.0, "score_nse": 59.7389, "NSE": "C", "VIVTOT": 11.0, "GRAPROES": 13.59, "_ent": "15", "_mun": "086", "_loc": "0001"}, "geometry": {"type": "Polygon", "coordinates": [[[-100.04454, 19.0454], [-100.04411, 19.04513], [-100.04435, 19.04476], [-100.04513, 19.04474], [-100.04502, 19.04502], [-100.04523, 19.04537], [-100.04496, 19.04598], [-100.04467, 19.04584], [-100.04454, 19.0454]]]}}, {"id": "1154046", "type": "Feature", "properties": {"id": "1154046", "CVEGEO": "1508600010073028", "POBTOT": 100.0, "score_nse": 62.0979, "NSE": "C", "VIVTOT": 37.0, "GRAPROES": 11.79, "_ent": "15", "_mun": "086", "_loc": "0001"}, "geometry": {"type": "Polygon", "coordinates": [[[-100.05074, 19.04519], [-100.0527, 19.04673], [-100.05274, 19.04687], [-100.05229, 19.0469], [-100.05163, 19.04655], [-100.05055, 19.04534], [-100.05074, 19.04519]]]}}, {"id": "1154047", "type": "Feature", "properties": {"id": "1154047", "CVEGEO": "1508600010073047", "POBTOT": 143.0, "score_nse": 53.948, "NSE": "C-", "VIVTOT": 63.0, "GRAPROES": 11.14, "_ent": "15", "_mun": "086", "_loc": "0001"}, "geometry": {"type": "Polygon", "coordinates": [[[-100.04672, 19.04776], [-100.04657, 19.04743], [-100.04561, 19.04742], [-100.0453, 19.04712], [-100.04581, 19.04506], [-100.04749, 19.04529], [-100.04918, 19.04475], [-100.04975, 19.04505], [-100.04971, 19.04523], [-100.04955, 19.04536], [-100.04952, 19.04549], [-100.04973, 19.04525], [-100.04978, 19.04505], [-100.04928, 19.04475], [-100.04953, 19.04477], [-100.05014, 19.04495], [-100.05095, 19.04583], [-100.05057, 19.04655], [-100.05001, 19.04632], [-100.0494, 19.04643], [-100.04922, 19.04762], [-100.04858, 19.048], [-100.04891, 19.04769], [-100.04909, 19.04618], [-100.04888, 19.0468], [-100.04889, 19.04763], [-100.04829, 19.04824], [-100.04672, 19.04776]]]}}, {"id": "1154048", "type": "Feature", "properties": {"id": "1154048", "CVEGEO": "1508600010073052", "POBTOT": 7.0, "score_nse": 0.0, "NSE": "ND", "VIVTOT": 2.0, "GRAPROES": 0.0, "_ent": "15", "_mun": "086", "_loc": "0001"}, "geometry": {"type": "Polygon", "coordinates": [[[-100.03656, 19.04215], [-100.03762, 19.04253], [-100.0371, 19.04288], [-100.03671, 19.04287], [-100.03652, 19.04267], [-100.03656, 19.04215]]]}}, {"id": "1154086", "type": "Feature", "properties": {"id": "1154086", "CVEGEO": "1508600010143006", "POBTOT": 52.0, "score_nse": 48.34, "NSE": "C-", "VIVTOT": 19.0, "GRAPROES": 9.47, "_ent": "15", "_mun": "086", "_loc": "0001"}, "geometry": {"type": "Polygon", "coordinates": [[[-100.04306, 19.04259], [-100.04281, 19.04295], [-100.0425, 19.04257], [-100.0415, 19.04198], [-100.04094, 19.04241], [-100.04011, 19.04204], [-100.03985, 19.04207], [-100.03949, 19.04234], [-100.03945, 19.04266], [-100.03913, 19.04277], [-100.039, 19.04264], [-100.03956, 19.04185], [-100.04043, 19.04177], [-100.04063, 19.04202], [-100.04089, 19.04205], [-100.04138, 19.04151], [-100.04161, 19.04145], [-100.04181, 19.04162], [-100.0417, 19.04182], [-100.04184, 19.04165], [-100.04306, 19.04259]]]}}, {"id": "1154087", "type": "Feature", "properties": {"id": "1154087", "CVEGEO": "1508600010073023", "POBTOT": 117.0, "score_nse": 56.5092, "NSE": "C", "VIVTOT": 69.0, "GRAPROES": 12.0, "_ent": "15", "_mun": "086", "_loc": "0001"}, "geometry": {"type": "Polygon", "coordinates": [[[-100.05356, 19.04618], [-100.05317, 19.04632], [-100.05279, 19.0467], [-100.05078, 19.04514], [-100.05076, 19.04485], [-100.05099, 19.04466], [-100.05073, 19.04482], [-100.05063, 19.04506], [-100.04919, 19.04455], [-100.0476, 19.04497], [-100.04683, 19.04468], [-100.0469, 19.04448], [-100.0468, 19.04468], [-100.04588, 19.04454], [-100.04549, 19.04469], [-100.04543, 19.04456], [-100.04603, 19.04429], [-100.04629, 19.04399], [-100.0467, 19.04406], [-100.04738, 19.04474], [-100.04773, 19.04486], [-100.04923, 19.04384], [-100.05029, 19.04415], [-100.05196, 19.04382], [-100.0528, 19.04415], [-100.05298, 19.04489], [-100.05332, 19.04526], [-100.0529, 19.04583], [-100.0538, 19.04578], [-100.05456, 19.04646], [-100.05475, 19.04716], [-100.0546, 19.04737], [-100.05388, 19.04699], [-100.05284, 19.04674], [-100.05356, 19.04618]]]}}, {"id": "1154089", "type": "Feature", "properties": {"id": "1154089", "CVEGEO": "1508600010073016", "POBTOT": 5.0, "score_nse": 0.0, "NSE": "ND", "VIVTOT": 11.0, "GRAPROES": 0.0, "_ent": "15", "_mun": "086", "_loc": "0001"}, "geometry": {"type": "Polygon", "coordinates": [[[-100.04249, 19.04455], [-100.04177, 19.0442], [-100.04191, 19.04395], [-100.04262, 19.04429], [-100.04249, 19.04455]]]}}, {"id": "1154094", "type": "Feature", "properties": {"id": "1154094", "CVEGEO": "1508600010073053", "POBTOT": 58.0, "score_nse": 61.3255, "NSE": "C", "VIVTOT": 19.0, "GRAPROES": 12.16, "_ent": "15", "_mun": "086", "_loc": "0001"}, "geometry": {"type": "Polygon", "coordinates": [[[-100.03471, 19.04301], [-100.03583, 19.04312], [-100.03558, 19.0433], [-100.03471, 19.04328], [-100.03409, 19.04303], [-100.03349, 19.04251], [-100.03327, 19.04238], [-100.03302, 19.04233], [-100.03278, 19.04236], [-100.03325, 19.0424], [-100.03394, 19.04296], [-100.03454, 19.04329], [-100.03551, 19.04336], [-100.03491, 19.0438], [-100.03404, 19.04376], [-100.03351, 19.04337], [-100.03302, 19.04322], [-100.0326, 19.04273], [-100.03212, 19.04265], [-100.03202, 19.04219], [-100.03248, 19.042], [-100.0333, 19.0421], [-100.03471, 19.04301]]]}}, {"id": "1154103", "type": "Feature", "properties": {"id": "1154103", "CVEGEO": "1508600010073037", "POBTOT": 27.0, "score_nse": 0.0, "NSE": "ND", "VIVTOT": 14.0, "GRAPROES": 11.05, "_ent": "15", "_mun": "086", "_loc": "0001"}, "geometry": {"type": "Polygon", "coordinates": [[[-100.03771, 19.04261], [-100.03854, 19.04149], [-100.0398, 19.0417], [-100.0394, 19.04187], [-100.03907, 19.04236], [-100.03834, 19.04192], [-100.03883, 19.04237], [-100.03817, 19.04272], [-100.03789, 19.04261], [-100.03782, 19.04275], [-100.03771, 19.04261]]]}}, {"id": "1154104", "type": "Feature", "properties": {"id": "1154104", "CVEGEO": "1508600010073010", "POBTOT": 534.0, "score_nse": 51.4603, "NSE": "C-", "VIVTOT": 194.0, "GRAPROES": 10.13, "_ent": "15", "_mun": "086", "_loc": "0001"}, "geometry": {"type": "Polygon", "coordinates": [[[-100.04083, 19.04381], [-100.04024, 19.04446], [-100.04045, 19.04481], [-100.04033, 19.04495], [-100.03973, 19.04459], [-100.03997, 19.04524], [-100.03966, 19.04554], [-100.03805, 19.04535], [-100.03814, 19.04533], [-100.03819, 19.04506], [-100.03842, 19.04495], [-100.03817, 19.04503], [-100.03811, 19.04531], [-100.03669, 19.04538], [-100.03314, 19.04652], [-100.03345, 19.0459], [-100.03476, 19.04515], [-100.0372, 19.04479], [-100.03736, 19.04484], [-100.03725, 19.04507], [-100.03827, 19.04493], [-100.03836, 19.04479], [-100.03819, 19.04459], [-100.03915, 19.04404], [-100.03852, 19.04367], [-100.03781, 19.04392], [-100.03774, 19.04379], [-100.03861, 19.0433], [-100.03859, 19.04293], [-100.03878, 19.04266], [-100.03891, 19.04268], [-100.03886, 19.04293], [-100.03869, 19.04292], [-100.03864, 19.04334], [-100.03792, 19.04378], [-100.03794, 19.0438], [-100.03862, 19.0434], [-100.03869, 19.04329], [-100.03871, 19.04296], [-100.03885, 19.04295], [-100.03906, 19.0431], [-100.0397, 19.04304], [-100.03981, 19.04321], [-100.03968, 19.04341], [-100.03952, 19.04336], [-100.0393, 19.04336], [-100.03926, 19.04339], [-100.03966, 19.04342], [-100.03953, 19.04381], [-100.03969, 19.04343], [-100.04027, 19.04369], [-100.04008, 19.04403], [-100.03981, 19.04388], [-100.04, 19.04403], [-100.04009, 19.04405], [-100.04019, 19.04396], [-100.04037, 19.04357], [-100.04083, 19.04381]]]}}, {"id": "1154105", "type": "Feature", "properties": {"id": "1154105", "CVEGEO": "1508600010073030", "POBTOT": 0.0, "score_nse": 0.0, "NSE": null, "VIVTOT": 0.0, "GRAPROES": 0.0, "_ent": "15", "_mun": "086", "_loc": "0001"}, "geometry": {"type": "Polygon", "coordinates": [[[-100.05053, 19.04531], [-100.05026, 19.04499], [-100.05069, 19.04517], [-100.05053, 19.04531]]]}}]}