{"type": "FeatureCollection", "features": [{"id": "1153899", "type": "Feature", "properties": {"id": "1153899", "CVEGEO": "1508600650139001", "POBTOT": 0.0, "score_nse": 0.0, "NSE": null, "VIVTOT": 0.0, "GRAPROES": 0.0, "_ent": "15", "_mun": "086", "_loc": "0065"}, "geometry": {"type": "Polygon", "coordinates": [[[-99.98637, 19.06006], [-99.98352, 19.06152], [-99.98324, 19.06246], [-99.98239, 19.06412], [-99.98232, 19.06344], [-99.98254, 19.06301], [-99.98228, 19.06186], [-99.98267, 19.06097], [-99.98343, 19.06013], [-99.98384, 19.05974], [-99.98599, 19.0598], [-99.98637, 19.06006]]]}}, {"id": "1153983", "type": "Feature", "properties": {"id": "1153983", "CVEGEO": "1508600650139003", "POBTOT": 0.0, "score_nse": 0.0, "NSE": null, "VIVTOT": 0.0, "GRAPROES": 0.0, "_ent": "15", "_mun": "086", "_loc": "0065"}, "geometry": {"type": "Polygon", "coordinates": [[[-99.99384, 19.05231], [-99.9953, 19.05155], [-99.99604, 19.05154], [-99.99708, 19.05073], [-99.99678, 19.05165], [-99.9962, 19.05241], [-99.99619, 19.05299], [-99.99498, 19.05554], [-99.99341, 19.05654], [-99.99285, 19.05595], [-99.99241, 19.05587], [-99.99227, 19.0555], [-99.99188, 19.05519], [-99.99127, 19.05495], [-99.99154, 19.05431], [-99.9911, 19.05384], [-99.99279, 19.05278], [-99.99377, 19.05234], [-99.99375, 19.05321], [-99.99279, 19.05383], [-99.99308, 19.05375], [-99.99381, 19.05324], [-99.99384, 19.05231]]]}}, {"id": "1154100", "type": "Feature", "properties": {"id": "1154100", "CVEGEO": "1508600650139002", "POBTOT": 0.0, "score_nse": 0.0, "NSE": null, "VIVTOT": 0.0, "GRAPROES": 0.0, "_ent": "15", "_mun": "086", "_loc": "0065"}, "geometry": {"type": "Polygon", "coordinates": [[[-99.99107, 19.05387], [-99.99148, 19.05439], [-99.99118, 19.05478], [-99.99121, 19.05497], [-99.99221, 19.05552], [-99.99237, 19.05588], [-99.99187, 19.05579], [-99.99219, 19.05591], [-99.99267, 19.0559], [-99.99336, 19.05657], [-99.99267, 19.05694], [-99.99125, 19.05697], [-99.9903, 19.05722], [-99.99012, 19.05689], [-99.98885, 19.05649], [-99.98884, 19.05626], [-99.98986, 19.0554], [-99.98982, 19.05537], [-99.98878, 19.05624], [-99.98881, 19.0565], [-99.98902, 19.05668], [-99.99002, 19.0569], [-99.99025, 19.05724], [-99.98956, 19.0577], [-99.98908, 19.05708], [-99.98951, 19.05772], [-99.98832, 19.05842], [-99.98738, 19.05952], [-99.9864, 19.06003], [-99.986, 19.05977], [-99.98386, 19.0597], [-99.98371, 19.05783], [-99.984, 19.05693], [-99.98431, 19.05707], [-99.98518, 19.05717], [-99.9855, 19.05737], [-99.98586, 19.05742], [-99.98519, 19.05713], [-99.98401, 19.05689], [-99.98483, 19.05517], [-99.98616, 19.0537], [-99.98705, 19.05323], [-99.9881, 19.05321], [-99.98993, 19.05227], [-99.99003, 19.05204], [-99.99043, 19.0524], [-99.9901, 19.05283], [-99.99026, 19.05305], [-99.99166, 19.05305], [-99.99221, 19.05276], [-99.99272, 19.05277], [-99.99103, 19.05384], [-99.9895, 19.05452], [-99.98844, 19.05468], [-99.98768, 19.05486], [-99.98688, 19.05551], [-99.98671, 19.05575], [-99.9877, 19.0549], [-99.98951, 19.05456], [-99.99107, 19.05387]]]}}, {"id": "1154101", "type": "Feature", "properties": {"id": "1154101", "CVEGEO": "1508600650139004", "POBTOT": 0.0, "score_nse": 0.0, "NSE": null, "VIVTOT": 0.0, "GRAPROES": 0.0, "_ent": "15", "_mun": "086", "_loc": "0065"}, "geometry": {"type": "Polygon", "coordinates": [[[-99.98501, 19.05416], [-99.98494, 19.05395], [-99.98542, 19.05383], [-99.98623, 19.05298], [-99.98647, 19.05219], [-99.98688, 19.05199], [-99.98736, 19.05205], [-99.98776, 19.05162], [-99.98818, 19.05161], [-99.98853, 19.05099], [-99.98926, 19.05079], [-99.98942, 19.05092], [-99.989, 19.05109], [-99.98873, 19.0514], [-99.98868, 19.05171], [-99.98843, 19.05194], [-99.9887, 19.05172], [-99.98902, 19.05111], [-99.98944, 19.05094], [-99.99044, 19.05218], [-99.99043, 19.05235], [-99.99003, 19.05201], [-99.98986, 19.05226], [-99.9881, 19.05318], [-99.98698, 19.05323], [-99.98609, 19.05371], [-99.98543, 19.05444], [-99.98501, 19.05416]]]}}]}