{"type": "FeatureCollection", "features": [{"id": "860110", "type": "Feature", "properties": {"id": "860110", "CVEGEO": "1304900390028001", "POBTOT": 0.0, "score_nse": 0.0, "NSE": null, "VIVTOT": 0.0, "GRAPROES": 0.0, "_ent": "13", "_mun": "049", "_loc": "0039"}, "geometry": {"type": "Polygon", "coordinates": [[[-99.0192, 21.2336], [-99.0195, 21.23333], [-99.01968, 21.23355], [-99.0192, 21.2336]]]}}, {"id": "860185", "type": "Feature", "properties": {"id": "860185", "CVEGEO": "1304900390028019", "POBTOT": 0.0, "score_nse": 0.0, "NSE": null, "VIVTOT": 0.0, "GRAPROES": 0.0, "_ent": "13", "_mun": "049", "_loc": "0039"}, "geometry": {"type": "Polygon", "coordinates": [[[-99.01953, 21.23413], [-99.01993, 21.23392], [-99.02026, 21.2344], [-99.01969, 21.23452], [-99.01953, 21.23413]]]}}, {"id": "860230", "type": "Feature", "properties": {"id": "860230", "CVEGEO": "1304900390028015", "POBTOT": 0.0, "score_nse": 0.0, "NSE": null, "VIVTOT": 0.0, "GRAPROES": 0.0, "_ent": "13", "_mun": "049", "_loc": "0039"}, "geometry": {"type": "Polygon", "coordinates": [[[-99.0203, 21.24166], [-99.02014, 21.2417], [-99.02017, 21.24192], [-99.0194, 21.24112], [-99.01916, 21.23858], [-99.01776, 21.23791], [-99.0181, 21.23598], [-99.01839, 21.23539], [-99.01955, 21.23601], [-99.01888, 21.23601], [-99.02036, 21.23615], [-99.02059, 21.23609], [-99.02058, 21.23593], [-99.02134, 21.23669], [-99.02082, 21.23707], [-99.02138, 21.23673], [-99.02173, 21.23687], [-99.02182, 21.23725], [-99.02224, 21.23778], [-99.0219, 21.23782], [-99.02226, 21.23784], [-99.02392, 21.23947], [-99.02251, 21.23946], [-99.02169, 21.2392], [-99.02164, 21.24062], [-99.02129, 21.24067], [-99.02073, 21.24046], [-99.02058, 21.24114], [-99.02069, 21.24134], [-99.02106, 21.24116], [-99.0214, 21.2417], [-99.02101, 21.24153], [-99.02053, 21.242], [-99.0203, 21.24166]]]}}, {"id": "860231", "type": "Feature", "properties": {"id": "860231", "CVEGEO": "1304900390028014", "POBTOT": 0.0, "score_nse": 0.0, "NSE": null, "VIVTOT": 0.0, "GRAPROES": 0.0, "_ent": "13", "_mun": "049", "_loc": "0039"}, "geometry": {"type": "Polygon", "coordinates": [[[-99.02147, 21.23674], [-99.0206, 21.23589], [-99.02067, 21.2357], [-99.02103, 21.23558], [-99.02148, 21.23567], [-99.02179, 21.23674], [-99.02147, 21.23674]]]}}, {"id": "860232", "type": "Feature", "properties": {"id": "860232", "CVEGEO": "1304900390028010", "POBTOT": 0.0, "score_nse": 0.0, "NSE": null, "VIVTOT": 0.0, "GRAPROES": 0.0, "_ent": "13", "_mun": "049", "_loc": "0039"}, "geometry": {"type": "Polygon", "coordinates": [[[-99.02054, 21.23555], [-99.02092, 21.23496], [-99.02135, 21.23557], [-99.02069, 21.23561], [-99.02056, 21.23585], [-99.02054, 21.23555]]]}}, {"id": "860233", "type": "Feature", "properties": {"id": "860233", "CVEGEO": "1304900390028007", "POBTOT": 0.0, "score_nse": 0.0, "NSE": null, "VIVTOT": 0.0, "GRAPROES": 0.0, "_ent": "13", "_mun": "049", "_loc": "0039"}, "geometry": {"type": "Polygon", "coordinates": [[[-99.01848, 21.2339], [-99.01809, 21.234], [-99.01779, 21.23382], [-99.01787, 21.23339], [-99.01839, 21.23354], [-99.01878, 21.23387], [-99.019, 21.23376], [-99.01884, 21.23402], [-99.01848, 21.2339]]]}}, {"id": "860234", "type": "Feature", "properties": {"id": "860234", "CVEGEO": "1304900390028004", "POBTOT": 0.0, "score_nse": 0.0, "NSE": null, "VIVTOT": 0.0, "GRAPROES": 0.0, "_ent": "13", "_mun": "049", "_loc": "0039"}, "geometry": {"type": "Polygon", "coordinates": [[[-99.02049, 21.23478], [-99.0202, 21.23412], [-99.01956, 21.2333], [-99.0197, 21.2332], [-99.01989, 21.23316], [-99.02021, 21.23354], [-99.01997, 21.23317], [-99.02091, 21.23359], [-99.02078, 21.23398], [-99.02106, 21.23364], [-99.02192, 21.23385], [-99.02158, 21.23462], [-99.02124, 21.23463], [-99.02079, 21.23492], [-99.02049, 21.23478]]]}}, {"id": "860235", "type": "Feature", "properties": {"id": "860235", "CVEGEO": "1304900390028003", "POBTOT": 0.0, "score_nse": 0.0, "NSE": null, "VIVTOT": 0.0, "GRAPROES": 0.0, "_ent": "13", "_mun": "049", "_loc": "0039"}, "geometry": {"type": "Polygon", "coordinates": [[[-99.01909, 21.23253], [-99.01949, 21.23327], [-99.01878, 21.23381], [-99.01861, 21.23364], [-99.0188, 21.23328], [-99.01859, 21.23341], [-99.0189, 21.23266], [-99.01909, 21.23253]]]}}, {"id": "860236", "type": "Feature", "properties": {"id": "860236", "CVEGEO": "1304900390028002", "POBTOT": 0.0, "score_nse": 0.0, "NSE": null, "VIVTOT": 0.0, "GRAPROES": 0.0, "_ent": "13", "_mun": "049", "_loc": "0039"}, "geometry": {"type": "Polygon", "coordinates": [[[-99.01918, 21.23363], [-99.01968, 21.23358], [-99.01992, 21.23387], [-99.0195, 21.23411], [-99.01966, 21.23451], [-99.01926, 21.2348], [-99.01885, 21.23416], [-99.01918, 21.23363]]]}}, {"id": "860300", "type": "Feature", "properties": {"id": "860300", "CVEGEO": "1304900390028022", "POBTOT": 0.0, "score_nse": 0.0, "NSE": null, "VIVTOT": 0.0, "GRAPROES": 0.0, "_ent": "13", "_mun": "049", "_loc": "0039"}, "geometry": {"type": "Polygon", "coordinates": [[[-99.01889, 21.23205], [-99.01842, 21.2326], [-99.01788, 21.23292], [-99.01777, 21.23285], [-99.01786, 21.23221], [-99.01842, 21.23138], [-99.01889, 21.23205]]]}}, {"id": "860301", "type": "Feature", "properties": {"id": "860301", "CVEGEO": "1304900390028017", "POBTOT": 0.0, "score_nse": 0.0, "NSE": null, "VIVTOT": 0.0, "GRAPROES": 0.0, "_ent": "13", "_mun": "049", "_loc": "0039"}, "geometry": {"type": "Polygon", "coordinates": [[[-99.02002, 21.23311], [-99.01955, 21.23322], [-99.01897, 21.2322], [-99.01937, 21.23234], [-99.01986, 21.23276], [-99.02001, 21.23298], [-99.02024, 21.23316], [-99.02035, 21.23332], [-99.02002, 21.23311]]]}}, {"id": "860319", "type": "Feature", "properties": {"id": "860319", "CVEGEO": "1304900390028011", "POBTOT": 0.0, "score_nse": 0.0, "NSE": null, "VIVTOT": 0.0, "GRAPROES": 0.0, "_ent": "13", "_mun": "049", "_loc": "0039"}, "geometry": {"type": "Polygon", "coordinates": [[[-99.01834, 21.23533], [-99.01816, 21.23474], [-99.0186, 21.23472], [-99.01915, 21.23492], [-99.01946, 21.2346], [-99.02027, 21.23444], [-99.0205, 21.23493], [-99.0208, 21.23497], [-99.0205, 21.23532], [-99.02055, 21.23605], [-99.02034, 21.2361], [-99.01909, 21.23578], [-99.01834, 21.23533]]]}}, {"id": "860329", "type": "Feature", "properties": {"id": "860329", "CVEGEO": "1304900390028020", "POBTOT": 0.0, "score_nse": 0.0, "NSE": null, "VIVTOT": 0.0, "GRAPROES": 0.0, "_ent": "13", "_mun": "049", "_loc": "0039"}, "geometry": {"type": "Polygon", "coordinates": [[[-99.02522, 21.23763], [-99.02428, 21.23771], [-99.02357, 21.23731], [-99.02277, 21.23712], [-99.02223, 21.23758], [-99.02188, 21.23712], [-99.02234, 21.23683], [-99.02324, 21.23675], [-99.02522, 21.23763]]]}}, {"id": "860330", "type": "Feature", "properties": {"id": "860330", "CVEGEO": "1304900390028016", "POBTOT": 0.0, "score_nse": 0.0, "NSE": null, "VIVTOT": 0.0, "GRAPROES": 0.0, "_ent": "13", "_mun": "049", "_loc": "0039"}, "geometry": {"type": "Polygon", "coordinates": [[[-99.0226, 21.23725], [-99.02333, 21.23734], [-99.02272, 21.23826], [-99.02224, 21.23762], [-99.0226, 21.23725]]]}}, {"id": "860331", "type": "Feature", "properties": {"id": "860331", "CVEGEO": "1304900390028026", "POBTOT": 0.0, "score_nse": 0.0, "NSE": null, "VIVTOT": 0.0, "GRAPROES": 0.0, "_ent": "13", "_mun": "049", "_loc": "0039"}, "geometry": {"type": "Polygon", "coordinates": [[[-99.02397, 21.23946], [-99.02276, 21.2383], [-99.0231, 21.23764], [-99.02338, 21.23739], [-99.02363, 21.23738], [-99.0242, 21.23774], [-99.02362, 21.23795], [-99.02347, 21.2384], [-99.02416, 21.23853], [-99.02434, 21.23948], [-99.02397, 21.23946]]]}}, {"id": "860459", "type": "Feature", "properties": {"id": "860459", "CVEGEO": "1304900390028006", "POBTOT": 0.0, "score_nse": 0.0, "NSE": null, "VIVTOT": 0.0, "GRAPROES": 0.0, "_ent": "13", "_mun": "049", "_loc": "0039"}, "geometry": {"type": "Polygon", "coordinates": [[[-99.01923, 21.23484], [-99.01857, 21.23453], [-99.01879, 21.23473], [-99.01817, 21.23469], [-99.018, 21.23441], [-99.01749, 21.23411], [-99.0178, 21.23391], [-99.01866, 21.23399], [-99.01923, 21.23484]]]}}, {"id": "860460", "type": "Feature", "properties": {"id": "860460", "CVEGEO": "1304900390028008", "POBTOT": 0.0, "score_nse": 0.0, "NSE": null, "VIVTOT": 0.0, "GRAPROES": 0.0, "_ent": "13", "_mun": "049", "_loc": "0039"}, "geometry": {"type": "Polygon", "coordinates": [[[-99.01803, 21.23333], [-99.01811, 21.23276], [-99.01842, 21.23262], [-99.01825, 21.23296], [-99.01891, 21.23216], [-99.01907, 21.2325], [-99.01875, 21.23284], [-99.01858, 21.2336], [-99.01803, 21.23333]]]}}, {"id": "860461", "type": "Feature", "properties": {"id": "860461", "CVEGEO": "1304900390028029", "POBTOT": 0.0, "score_nse": 0.0, "NSE": null, "VIVTOT": 0.0, "GRAPROES": 0.0, "_ent": "13", "_mun": "049", "_loc": "0039"}, "geometry": {"type": "Polygon", "coordinates": [[[-99.01835, 21.22992], [-99.01864, 21.23096], [-99.01854, 21.23128], [-99.01833, 21.23141], [-99.01791, 21.23106], [-99.01802, 21.23076], [-99.01781, 21.23003], [-99.01835, 21.22992]]]}}]}