{"type": "FeatureCollection", "features": [{"id": "2381344", "type": "Feature", "properties": {"id": "2381344", "CVEGEO": "3017401380015018", "POBTOT": 0.0, "score_nse": 0.0, "NSE": null, "VIVTOT": 0.0, "GRAPROES": 0.0, "_ent": "30", "_mun": "174", "_loc": "0138"}, "geometry": {"type": "Polygon", "coordinates": [[[-96.57909, 18.6065], [-96.57944, 18.60675], [-96.57844, 18.60717], [-96.57804, 18.60628], [-96.57879, 18.606], [-96.57909, 18.6065]]]}}, {"id": "2381345", "type": "Feature", "properties": {"id": "2381345", "CVEGEO": "3017401380015017", "POBTOT": 0.0, "score_nse": 0.0, "NSE": null, "VIVTOT": 0.0, "GRAPROES": 0.0, "_ent": "30", "_mun": "174", "_loc": "0138"}, "geometry": {"type": "Polygon", "coordinates": [[[-96.57802, 18.60623], [-96.57772, 18.60554], [-96.57849, 18.60533], [-96.5788, 18.60593], [-96.57802, 18.60623]]]}}, {"id": "2381346", "type": "Feature", "properties": {"id": "2381346", "CVEGEO": "3017401380015015", "POBTOT": 0.0, "score_nse": 0.0, "NSE": null, "VIVTOT": 0.0, "GRAPROES": 0.0, "_ent": "30", "_mun": "174", "_loc": "0138"}, "geometry": {"type": "Polygon", "coordinates": [[[-96.57655, 18.60504], [-96.57623, 18.60438], [-96.57702, 18.60401], [-96.57734, 18.60471], [-96.57655, 18.60504]]]}}, {"id": "2381347", "type": "Feature", "properties": {"id": "2381347", "CVEGEO": "3017401380015014", "POBTOT": 0.0, "score_nse": 0.0, "NSE": null, "VIVTOT": 0.0, "GRAPROES": 0.0, "_ent": "30", "_mun": "174", "_loc": "0138"}, "geometry": {"type": "Polygon", "coordinates": [[[-96.57724, 18.60387], [-96.57616, 18.60436], [-96.57649, 18.60504], [-96.57577, 18.60534], [-96.57548, 18.60468], [-96.57578, 18.60452], [-96.57543, 18.60467], [-96.57511, 18.60425], [-96.57695, 18.60331], [-96.57724, 18.60387]]]}}, {"id": "2381348", "type": "Feature", "properties": {"id": "2381348", "CVEGEO": "3017401380015011", "POBTOT": 0.0, "score_nse": 0.0, "NSE": null, "VIVTOT": 0.0, "GRAPROES": 0.0, "_ent": "30", "_mun": "174", "_loc": "0138"}, "geometry": {"type": "Polygon", "coordinates": [[[-96.57489, 18.60757], [-96.57451, 18.60686], [-96.57525, 18.60655], [-96.57562, 18.60727], [-96.57489, 18.60757]]]}}, {"id": "2381349", "type": "Feature", "properties": {"id": "2381349", "CVEGEO": "3017401380015010", "POBTOT": 0.0, "score_nse": 0.0, "NSE": null, "VIVTOT": 0.0, "GRAPROES": 0.0, "_ent": "30", "_mun": "174", "_loc": "0138"}, "geometry": {"type": "Polygon", "coordinates": [[[-96.57597, 18.60807], [-96.57523, 18.60838], [-96.5749, 18.60763], [-96.57563, 18.60735], [-96.57597, 18.60807]]]}}, {"id": "2381350", "type": "Feature", "properties": {"id": "2381350", "CVEGEO": "3017401380015009", "POBTOT": 0.0, "score_nse": 0.0, "NSE": null, "VIVTOT": 0.0, "GRAPROES": 0.0, "_ent": "30", "_mun": "174", "_loc": "0138"}, "geometry": {"type": "Polygon", "coordinates": [[[-96.57604, 18.60805], [-96.57569, 18.6073], [-96.57643, 18.60698], [-96.57677, 18.60773], [-96.57604, 18.60805]]]}}, {"id": "2381351", "type": "Feature", "properties": {"id": "2381351", "CVEGEO": "3017401380015008", "POBTOT": 0.0, "score_nse": 0.0, "NSE": null, "VIVTOT": 0.0, "GRAPROES": 0.0, "_ent": "30", "_mun": "174", "_loc": "0138"}, "geometry": {"type": "Polygon", "coordinates": [[[-96.57758, 18.60742], [-96.57684, 18.60771], [-96.57649, 18.60695], [-96.57722, 18.60665], [-96.57758, 18.60742]]]}}, {"id": "2381352", "type": "Feature", "properties": {"id": "2381352", "CVEGEO": "3017401380015007", "POBTOT": 0.0, "score_nse": 0.0, "NSE": null, "VIVTOT": 0.0, "GRAPROES": 0.0, "_ent": "30", "_mun": "174", "_loc": "0138"}, "geometry": {"type": "Polygon", "coordinates": [[[-96.57763, 18.6074], [-96.57726, 18.60663], [-96.578, 18.60633], [-96.57836, 18.60712], [-96.57763, 18.6074]]]}}, {"id": "2381353", "type": "Feature", "properties": {"id": "2381353", "CVEGEO": "3017401380015006", "POBTOT": 0.0, "score_nse": 0.0, "NSE": null, "VIVTOT": 0.0, "GRAPROES": 0.0, "_ent": "30", "_mun": "174", "_loc": "0138"}, "geometry": {"type": "Polygon", "coordinates": [[[-96.57724, 18.60658], [-96.5769, 18.60585], [-96.57765, 18.60556], [-96.57799, 18.60628], [-96.57724, 18.60658]]]}}, {"id": "2381354", "type": "Feature", "properties": {"id": "2381354", "CVEGEO": "3017401380015005", "POBTOT": 0.0, "score_nse": 0.0, "NSE": null, "VIVTOT": 0.0, "GRAPROES": 0.0, "_ent": "30", "_mun": "174", "_loc": "0138"}, "geometry": {"type": "Polygon", "coordinates": [[[-96.57685, 18.6058], [-96.57657, 18.60509], [-96.57735, 18.60477], [-96.57765, 18.60549], [-96.57685, 18.6058]]]}}, {"id": "2381355", "type": "Feature", "properties": {"id": "2381355", "CVEGEO": "3017401380015004", "POBTOT": 0.0, "score_nse": 0.0, "NSE": null, "VIVTOT": 0.0, "GRAPROES": 0.0, "_ent": "30", "_mun": "174", "_loc": "0138"}, "geometry": {"type": "Polygon", "coordinates": [[[-96.57608, 18.60614], [-96.57576, 18.60542], [-96.57651, 18.60511], [-96.57681, 18.60582], [-96.57608, 18.60614]]]}}, {"id": "2381356", "type": "Feature", "properties": {"id": "2381356", "CVEGEO": "3017401380015003", "POBTOT": 0.0, "score_nse": 0.0, "NSE": null, "VIVTOT": 0.0, "GRAPROES": 0.0, "_ent": "30", "_mun": "174", "_loc": "0138"}, "geometry": {"type": "Polygon", "coordinates": [[[-96.5753, 18.60649], [-96.57497, 18.60574], [-96.5757, 18.60546], [-96.57603, 18.60619], [-96.5753, 18.60649]]]}}, {"id": "2381357", "type": "Feature", "properties": {"id": "2381357", "CVEGEO": "3017401380015002", "POBTOT": 0.0, "score_nse": 0.0, "NSE": null, "VIVTOT": 0.0, "GRAPROES": 0.0, "_ent": "30", "_mun": "174", "_loc": "0138"}, "geometry": {"type": "Polygon", "coordinates": [[[-96.57568, 18.60725], [-96.57532, 18.60654], [-96.57605, 18.60623], [-96.57639, 18.60693], [-96.57568, 18.60725]]]}}, {"id": "2381358", "type": "Feature", "properties": {"id": "2381358", "CVEGEO": "3017401380015001", "POBTOT": 0.0, "score_nse": 0.0, "NSE": null, "VIVTOT": 0.0, "GRAPROES": 0.0, "_ent": "30", "_mun": "174", "_loc": "0138"}, "geometry": {"type": "Polygon", "coordinates": [[[-96.57645, 18.6069], [-96.5761, 18.6062], [-96.57685, 18.60587], [-96.57719, 18.60659], [-96.57645, 18.6069]]]}}, {"id": "2382216", "type": "Feature", "properties": {"id": "2382216", "CVEGEO": "3017401380015012", "POBTOT": 0.0, "score_nse": 0.0, "NSE": null, "VIVTOT": 0.0, "GRAPROES": 0.0, "_ent": "30", "_mun": "174", "_loc": "0138"}, "geometry": {"type": "Polygon", "coordinates": [[[-96.57446, 18.60681], [-96.57411, 18.60614], [-96.57491, 18.60579], [-96.57522, 18.60649], [-96.57446, 18.60681]]]}}, {"id": "2382358", "type": "Feature", "properties": {"id": "2382358", "CVEGEO": "3017401380015019", "POBTOT": 0.0, "score_nse": 0.0, "NSE": null, "VIVTOT": 0.0, "GRAPROES": 0.0, "_ent": "30", "_mun": "174", "_loc": "0138"}, "geometry": {"type": "Polygon", "coordinates": [[[-96.57406, 18.60606], [-96.57338, 18.60474], [-96.57444, 18.605], [-96.57427, 18.60514], [-96.57465, 18.60511], [-96.5749, 18.6057], [-96.57406, 18.60606]]]}}, {"id": "2382469", "type": "Feature", "properties": {"id": "2382469", "CVEGEO": "3017401380015013", "POBTOT": 0.0, "score_nse": 0.0, "NSE": null, "VIVTOT": 0.0, "GRAPROES": 0.0, "_ent": "30", "_mun": "174", "_loc": "0138"}, "geometry": {"type": "Polygon", "coordinates": [[[-96.57499, 18.60566], [-96.57469, 18.605], [-96.5754, 18.60474], [-96.57566, 18.60539], [-96.57499, 18.60566]]]}}, {"id": "2382470", "type": "Feature", "properties": {"id": "2382470", "CVEGEO": "3017401380015016", "POBTOT": 0.0, "score_nse": 0.0, "NSE": null, "VIVTOT": 0.0, "GRAPROES": 0.0, "_ent": "30", "_mun": "174", "_loc": "0138"}, "geometry": {"type": "Polygon", "coordinates": [[[-96.57806, 18.60394], [-96.57757, 18.60428], [-96.5779, 18.60416], [-96.57802, 18.60436], [-96.5774, 18.6047], [-96.57707, 18.604], [-96.57726, 18.60391], [-96.57739, 18.60402], [-96.57681, 18.6029], [-96.57712, 18.6028], [-96.57806, 18.60394]]]}}, {"id": "2382471", "type": "Feature", "properties": {"id": "2382471", "CVEGEO": "3017401380015020", "POBTOT": 0.0, "score_nse": 0.0, "NSE": null, "VIVTOT": 0.0, "GRAPROES": 0.0, "_ent": "30", "_mun": "174", "_loc": "0138"}, "geometry": {"type": "Polygon", "coordinates": [[[-96.57779, 18.60461], [-96.57799, 18.60505], [-96.57854, 18.60477], [-96.57892, 18.60537], [-96.57869, 18.60541], [-96.57845, 18.60518], [-96.57768, 18.60542], [-96.57739, 18.60477], [-96.57779, 18.60461]]]}}, {"id": "2382472", "type": "Feature", "properties": {"id": "2382472", "CVEGEO": "3017401380015021", "POBTOT": 0.0, "score_nse": 0.0, "NSE": null, "VIVTOT": 0.0, "GRAPROES": 0.0, "_ent": "30", "_mun": "174", "_loc": "0138"}, "geometry": {"type": "Polygon", "coordinates": [[[-96.57462, 18.60722], [-96.57406, 18.60745], [-96.57352, 18.60656], [-96.5738, 18.60615], [-96.57401, 18.60606], [-96.57462, 18.60722]]]}}, {"id": "2382473", "type": "Feature", "properties": {"id": "2382473", "CVEGEO": "3017401380015022", "POBTOT": 0.0, "score_nse": 0.0, "NSE": null, "VIVTOT": 0.0, "GRAPROES": 0.0, "_ent": "30", "_mun": "174", "_loc": "0138"}, "geometry": {"type": "Polygon", "coordinates": [[[-96.57348, 18.60779], [-96.57467, 18.6073], [-96.57494, 18.60787], [-96.57369, 18.60829], [-96.57348, 18.60779]]]}}, {"id": "2382474", "type": "Feature", "properties": {"id": "2382474", "CVEGEO": "3017401380015023", "POBTOT": 0.0, "score_nse": 0.0, "NSE": null, "VIVTOT": 0.0, "GRAPROES": 0.0, "_ent": "30", "_mun": "174", "_loc": "0138"}, "geometry": {"type": "Polygon", "coordinates": [[[-96.57458, 18.605], [-96.57448, 18.60475], [-96.57513, 18.60439], [-96.57531, 18.6045], [-96.57534, 18.60469], [-96.57458, 18.605]]]}}]}