{"type": "FeatureCollection", "features": [{"id": "361495", "type": "Feature", "properties": {"id": "361495", "CVEGEO": "0804900110417004", "POBTOT": 0.0, "score_nse": 0.0, "NSE": null, "VIVTOT": 0.0, "GRAPROES": 0.0, "_ent": "08", "_mun": "049", "_loc": "0011"}, "geometry": {"type": "Polygon", "coordinates": [[[-106.77112, 27.26041], [-106.77025, 27.26053], [-106.77008, 27.25936], [-106.77034, 27.25834], [-106.7707, 27.25841], [-106.7709, 27.25866], [-106.77112, 27.26041]]]}}, {"id": "361506", "type": "Feature", "properties": {"id": "361506", "CVEGEO": "0804900110417015", "POBTOT": 0.0, "score_nse": 0.0, "NSE": null, "VIVTOT": 0.0, "GRAPROES": 0.0, "_ent": "08", "_mun": "049", "_loc": "0011"}, "geometry": {"type": "Polygon", "coordinates": [[[-106.75866, 27.26009], [-106.75804, 27.25991], [-106.75806, 27.25955], [-106.75864, 27.25918], [-106.75874, 27.25894], [-106.75903, 27.25899], [-106.75894, 27.2593], [-106.75871, 27.25929], [-106.75893, 27.25934], [-106.75893, 27.25997], [-106.75866, 27.26009]]]}}, {"id": "361507", "type": "Feature", "properties": {"id": "361507", "CVEGEO": "0804900110417014", "POBTOT": 0.0, "score_nse": 0.0, "NSE": null, "VIVTOT": 0.0, "GRAPROES": 0.0, "_ent": "08", "_mun": "049", "_loc": "0011"}, "geometry": {"type": "Polygon", "coordinates": [[[-106.75932, 27.26051], [-106.75898, 27.26053], [-106.759, 27.26032], [-106.75927, 27.25917], [-106.75962, 27.25935], [-106.75932, 27.26051]]]}}, {"id": "361508", "type": "Feature", "properties": {"id": "361508", "CVEGEO": "0804900110417013", "POBTOT": 0.0, "score_nse": 0.0, "NSE": null, "VIVTOT": 0.0, "GRAPROES": 0.0, "_ent": "08", "_mun": "049", "_loc": "0011"}, "geometry": {"type": "Polygon", "coordinates": [[[-106.76026, 27.26224], [-106.7591, 27.2619], [-106.75908, 27.26128], [-106.75974, 27.26129], [-106.75986, 27.26179], [-106.76029, 27.26197], [-106.76026, 27.26224]]]}}, {"id": "361521", "type": "Feature", "properties": {"id": "361521", "CVEGEO": "0804900110417018", "POBTOT": 0.0, "score_nse": 0.0, "NSE": null, "VIVTOT": 0.0, "GRAPROES": 0.0, "_ent": "08", "_mun": "049", "_loc": "0011"}, "geometry": {"type": "Polygon", "coordinates": [[[-106.77104, 27.26101], [-106.77045, 27.26108], [-106.77034, 27.2606], [-106.77096, 27.26053], [-106.77104, 27.26101]]]}}, {"id": "361522", "type": "Feature", "properties": {"id": "361522", "CVEGEO": "0804900110417011", "POBTOT": 0.0, "score_nse": 0.0, "NSE": null, "VIVTOT": 0.0, "GRAPROES": 0.0, "_ent": "08", "_mun": "049", "_loc": "0011"}, "geometry": {"type": "Polygon", "coordinates": [[[-106.76064, 27.26335], [-106.76022, 27.26323], [-106.76037, 27.26289], [-106.76017, 27.26271], [-106.76016, 27.26239], [-106.76094, 27.26246], [-106.76089, 27.26279], [-106.76075, 27.26278], [-106.7609, 27.2629], [-106.76085, 27.26314], [-106.76064, 27.26335]]]}}, {"id": "361544", "type": "Feature", "properties": {"id": "361544", "CVEGEO": "0804900110417012", "POBTOT": 0.0, "score_nse": 0.0, "NSE": null, "VIVTOT": 0.0, "GRAPROES": 0.0, "_ent": "08", "_mun": "049", "_loc": "0011"}, "geometry": {"type": "Polygon", "coordinates": [[[-106.75983, 27.26324], [-106.75816, 27.26307], [-106.75768, 27.2629], [-106.758, 27.26268], [-106.75816, 27.26205], [-106.75886, 27.26189], [-106.76017, 27.2623], [-106.76009, 27.26262], [-106.76027, 27.2629], [-106.75983, 27.26324]]]}}, {"id": "361545", "type": "Feature", "properties": {"id": "361545", "CVEGEO": "0804900110417005", "POBTOT": 0.0, "score_nse": 0.0, "NSE": null, "VIVTOT": 0.0, "GRAPROES": 0.0, "_ent": "08", "_mun": "049", "_loc": "0011"}, "geometry": {"type": "Polygon", "coordinates": [[[-106.77272, 27.2619], [-106.77222, 27.26163], [-106.77139, 27.2615], [-106.77053, 27.26111], [-106.77108, 27.26107], [-106.77121, 27.26065], [-106.77152, 27.26074], [-106.77287, 27.26179], [-106.77272, 27.2619]]]}}, {"id": "361560", "type": "Feature", "properties": {"id": "361560", "CVEGEO": "0804900110417010", "POBTOT": 0.0, "score_nse": 0.0, "NSE": null, "VIVTOT": 0.0, "GRAPROES": 0.0, "_ent": "08", "_mun": "049", "_loc": "0011"}, "geometry": {"type": "Polygon", "coordinates": [[[-106.76113, 27.26367], [-106.76068, 27.26347], [-106.76092, 27.26313], [-106.76103, 27.26249], [-106.76167, 27.26275], [-106.76136, 27.2631], [-106.7615, 27.26333], [-106.76113, 27.26367]]]}}, {"id": "361561", "type": "Feature", "properties": {"id": "361561", "CVEGEO": "0804900110417009", "POBTOT": 0.0, "score_nse": 0.0, "NSE": null, "VIVTOT": 0.0, "GRAPROES": 0.0, "_ent": "08", "_mun": "049", "_loc": "0011"}, "geometry": {"type": "Polygon", "coordinates": [[[-106.77421, 27.26122], [-106.77387, 27.261], [-106.77319, 27.26096], [-106.77261, 27.26062], [-106.77269, 27.26036], [-106.77409, 27.26045], [-106.77442, 27.26088], [-106.77421, 27.26122]]]}}, {"id": "361562", "type": "Feature", "properties": {"id": "361562", "CVEGEO": "0804900110417007", "POBTOT": 0.0, "score_nse": 0.0, "NSE": null, "VIVTOT": 0.0, "GRAPROES": 0.0, "_ent": "08", "_mun": "049", "_loc": "0011"}, "geometry": {"type": "Polygon", "coordinates": [[[-106.76663, 27.26144], [-106.76649, 27.26241], [-106.76568, 27.26253], [-106.7658, 27.26223], [-106.76562, 27.26164], [-106.76663, 27.26144]]]}}, {"id": "361583", "type": "Feature", "properties": {"id": "361583", "CVEGEO": "0804900110417017", "POBTOT": 0.0, "score_nse": 0.0, "NSE": null, "VIVTOT": 0.0, "GRAPROES": 0.0, "_ent": "08", "_mun": "049", "_loc": "0011"}, "geometry": {"type": "Polygon", "coordinates": [[[-106.77043, 27.2616], [-106.77047, 27.26113], [-106.7713, 27.26158], [-106.77043, 27.2616]]]}}, {"id": "361584", "type": "Feature", "properties": {"id": "361584", "CVEGEO": "0804900110417016", "POBTOT": 0.0, "score_nse": 0.0, "NSE": null, "VIVTOT": 0.0, "GRAPROES": 0.0, "_ent": "08", "_mun": "049", "_loc": "0011"}, "geometry": {"type": "Polygon", "coordinates": [[[-106.75641, 27.26178], [-106.75567, 27.26266], [-106.75494, 27.26188], [-106.75396, 27.26158], [-106.75358, 27.26163], [-106.75334, 27.26198], [-106.75257, 27.2617], [-106.75305, 27.26088], [-106.75364, 27.26069], [-106.75365, 27.2604], [-106.75398, 27.26036], [-106.754, 27.26066], [-106.75376, 27.26077], [-106.75401, 27.26074], [-106.75402, 27.26107], [-106.75353, 27.26122], [-106.75402, 27.26115], [-106.75523, 27.26142], [-106.75615, 27.26108], [-106.75684, 27.26151], [-106.75641, 27.26178]]]}}, {"id": "361585", "type": "Feature", "properties": {"id": "361585", "CVEGEO": "0804900110417003", "POBTOT": 0.0, "score_nse": 0.0, "NSE": null, "VIVTOT": 0.0, "GRAPROES": 0.0, "_ent": "08", "_mun": "049", "_loc": "0011"}, "geometry": {"type": "Polygon", "coordinates": [[[-106.77017, 27.26054], [-106.76819, 27.26097], [-106.76811, 27.26012], [-106.76834, 27.25971], [-106.76907, 27.25987], [-106.77001, 27.25943], [-106.7701, 27.26], [-106.76924, 27.25992], [-106.76902, 27.25998], [-106.77006, 27.26006], [-106.77017, 27.26054]]]}}, {"id": "361586", "type": "Feature", "properties": {"id": "361586", "CVEGEO": "0804900110417002", "POBTOT": 0.0, "score_nse": 0.0, "NSE": null, "VIVTOT": 0.0, "GRAPROES": 0.0, "_ent": "08", "_mun": "049", "_loc": "0011"}, "geometry": {"type": "Polygon", "coordinates": [[[-106.76804, 27.26006], [-106.76815, 27.26098], [-106.76772, 27.26122], [-106.76694, 27.26133], [-106.76706, 27.26026], [-106.76804, 27.26006]]]}}, {"id": "361587", "type": "Feature", "properties": {"id": "361587", "CVEGEO": "0804900110417001", "POBTOT": 0.0, "score_nse": 0.0, "NSE": null, "VIVTOT": 0.0, "GRAPROES": 0.0, "_ent": "08", "_mun": "049", "_loc": "0011"}, "geometry": {"type": "Polygon", "coordinates": [[[-106.7703, 27.26061], [-106.77043, 27.26127], [-106.7702, 27.26183], [-106.77017, 27.26248], [-106.76882, 27.26254], [-106.7684, 27.26228], [-106.76841, 27.26249], [-106.76781, 27.2625], [-106.7678, 27.26184], [-106.76756, 27.26236], [-106.76671, 27.26242], [-106.76656, 27.26224], [-106.76659, 27.26187], [-106.76698, 27.26143], [-106.7703, 27.26061]]]}}, {"id": "361606", "type": "Feature", "properties": {"id": "361606", "CVEGEO": "0804900110417008", "POBTOT": 0.0, "score_nse": 0.0, "NSE": null, "VIVTOT": 0.0, "GRAPROES": 0.0, "_ent": "08", "_mun": "049", "_loc": "0011"}, "geometry": {"type": "Polygon", "coordinates": [[[-106.77223, 27.2599], [-106.77212, 27.25817], [-106.77326, 27.25825], [-106.7736, 27.25873], [-106.77337, 27.25902], [-106.77364, 27.25943], [-106.77358, 27.25987], [-106.77288, 27.25951], [-106.77223, 27.2599]]]}}, {"id": "361631", "type": "Feature", "properties": {"id": "361631", "CVEGEO": "0804900110417019", "POBTOT": 0.0, "score_nse": 0.0, "NSE": null, "VIVTOT": 0.0, "GRAPROES": 0.0, "_ent": "08", "_mun": "049", "_loc": "0011"}, "geometry": {"type": "Polygon", "coordinates": [[[-106.76103, 27.26245], [-106.7603, 27.26228], [-106.76035, 27.26198], [-106.76006, 27.26187], [-106.76041, 27.26144], [-106.76131, 27.26165], [-106.76103, 27.26245]]]}}, {"id": "361680", "type": "Feature", "properties": {"id": "361680", "CVEGEO": "0804900110417006", "POBTOT": 0.0, "score_nse": 0.0, "NSE": null, "VIVTOT": 0.0, "GRAPROES": 0.0, "_ent": "08", "_mun": "049", "_loc": "0011"}, "geometry": {"type": "Polygon", "coordinates": [[[-106.7655, 27.26271], [-106.76651, 27.26248], [-106.76628, 27.26371], [-106.76561, 27.26373], [-106.7655, 27.26271]]]}}]}