{"type": "FeatureCollection", "features": [{"id": "771679", "type": "Feature", "properties": {"id": "771679", "CVEGEO": "1203201020350009", "POBTOT": 0.0, "score_nse": 0.0, "NSE": null, "VIVTOT": 0.0, "GRAPROES": 0.0, "_ent": "12", "_mun": "032", "_loc": "0102"}, "geometry": {"type": "Polygon", "coordinates": [[[-100.01301, 17.76142], [-100.01281, 17.7601], [-100.01249, 17.75945], [-100.01357, 17.75967], [-100.01324, 17.76111], [-100.01301, 17.76142]]]}}, {"id": "771680", "type": "Feature", "properties": {"id": "771680", "CVEGEO": "1203201020350008", "POBTOT": 0.0, "score_nse": 0.0, "NSE": null, "VIVTOT": 0.0, "GRAPROES": 0.0, "_ent": "12", "_mun": "032", "_loc": "0102"}, "geometry": {"type": "Polygon", "coordinates": [[[-100.01305, 17.7615], [-100.01334, 17.76114], [-100.01345, 17.76064], [-100.01372, 17.76063], [-100.0139, 17.7604], [-100.01427, 17.76053], [-100.01362, 17.76125], [-100.01305, 17.7615]]]}}, {"id": "771681", "type": "Feature", "properties": {"id": "771681", "CVEGEO": "1203201020350007", "POBTOT": 0.0, "score_nse": 0.0, "NSE": null, "VIVTOT": 0.0, "GRAPROES": 0.0, "_ent": "12", "_mun": "032", "_loc": "0102"}, "geometry": {"type": "Polygon", "coordinates": [[[-100.01152, 17.76238], [-100.01185, 17.76207], [-100.01201, 17.76152], [-100.01245, 17.7609], [-100.01248, 17.76175], [-100.01152, 17.76238]]]}}, {"id": "771682", "type": "Feature", "properties": {"id": "771682", "CVEGEO": "1203201020350006", "POBTOT": 0.0, "score_nse": 0.0, "NSE": null, "VIVTOT": 0.0, "GRAPROES": 0.0, "_ent": "12", "_mun": "032", "_loc": "0102"}, "geometry": {"type": "Polygon", "coordinates": [[[-100.0144, 17.76198], [-100.01413, 17.76162], [-100.01458, 17.76095], [-100.01409, 17.76157], [-100.01359, 17.76134], [-100.01441, 17.76049], [-100.01493, 17.7604], [-100.01563, 17.76177], [-100.0144, 17.76198]]]}}, {"id": "771683", "type": "Feature", "properties": {"id": "771683", "CVEGEO": "1203201020350005", "POBTOT": 0.0, "score_nse": 0.0, "NSE": null, "VIVTOT": 0.0, "GRAPROES": 0.0, "_ent": "12", "_mun": "032", "_loc": "0102"}, "geometry": {"type": "Polygon", "coordinates": [[[-100.0124, 17.76189], [-100.01253, 17.76179], [-100.01255, 17.76126], [-100.01278, 17.76119], [-100.01282, 17.76076], [-100.01296, 17.76146], [-100.01261, 17.76179], [-100.0124, 17.76189]]]}}, {"id": "771828", "type": "Feature", "properties": {"id": "771828", "CVEGEO": "1203201020350004", "POBTOT": 0.0, "score_nse": 0.0, "NSE": null, "VIVTOT": 0.0, "GRAPROES": 0.0, "_ent": "12", "_mun": "032", "_loc": "0102"}, "geometry": {"type": "Polygon", "coordinates": [[[-100.01675, 17.76235], [-100.0165, 17.76182], [-100.01654, 17.76133], [-100.0172, 17.76183], [-100.01668, 17.76262], [-100.01675, 17.76235]]]}}, {"id": "771829", "type": "Feature", "properties": {"id": "771829", "CVEGEO": "1203201020350003", "POBTOT": 0.0, "score_nse": 0.0, "NSE": null, "VIVTOT": 0.0, "GRAPROES": 0.0, "_ent": "12", "_mun": "032", "_loc": "0102"}, "geometry": {"type": "Polygon", "coordinates": [[[-100.01727, 17.76084], [-100.01666, 17.76065], [-100.01682, 17.76022], [-100.01719, 17.76014], [-100.01737, 17.76039], [-100.01727, 17.76084]]]}}, {"id": "771830", "type": "Feature", "properties": {"id": "771830", "CVEGEO": "1203201020350001", "POBTOT": 0.0, "score_nse": 0.0, "NSE": null, "VIVTOT": 0.0, "GRAPROES": 0.0, "_ent": "12", "_mun": "032", "_loc": "0102"}, "geometry": {"type": "Polygon", "coordinates": [[[-100.01305, 17.76343], [-100.01306, 17.7625], [-100.01275, 17.76183], [-100.01351, 17.76137], [-100.01407, 17.76162], [-100.0143, 17.76199], [-100.01373, 17.76215], [-100.01314, 17.7634], [-100.01323, 17.76241], [-100.01303, 17.7618], [-100.01317, 17.76292], [-100.01305, 17.76343]]]}}, {"id": "772107", "type": "Feature", "properties": {"id": "772107", "CVEGEO": "1203201020350010", "POBTOT": 0.0, "score_nse": 0.0, "NSE": null, "VIVTOT": 0.0, "GRAPROES": 0.0, "_ent": "12", "_mun": "032", "_loc": "0102"}, "geometry": {"type": "Polygon", "coordinates": [[[-100.01206, 17.76261], [-100.01277, 17.76284], [-100.0128, 17.76327], [-100.01199, 17.76288], [-100.01206, 17.76261]]]}}, {"id": "772115", "type": "Feature", "properties": {"id": "772115", "CVEGEO": "1203201020350002", "POBTOT": 0.0, "score_nse": 0.0, "NSE": null, "VIVTOT": 0.0, "GRAPROES": 0.0, "_ent": "12", "_mun": "032", "_loc": "0102"}, "geometry": {"type": "Polygon", "coordinates": [[[-100.01291, 17.76338], [-100.0127, 17.76273], [-100.01153, 17.76254], [-100.01244, 17.76198], [-100.01266, 17.762], [-100.01299, 17.76274], [-100.01291, 17.76338]]]}}]}