{"type": "FeatureCollection", "features": [{"id": "850264", "type": "Feature", "properties": {"id": "850264", "CVEGEO": "1304400330036014", "POBTOT": 0.0, "score_nse": 0.0, "NSE": null, "VIVTOT": 0.0, "GRAPROES": 0.0, "_ent": "13", "_mun": "044", "_loc": "0033"}, "geometry": {"type": "Polygon", "coordinates": [[[-99.54022, 20.17131], [-99.54059, 20.17233], [-99.54096, 20.17346], [-99.53999, 20.17258], [-99.53842, 20.17268], [-99.53851, 20.17173], [-99.54022, 20.17131]]]}}, {"id": "850265", "type": "Feature", "properties": {"id": "850265", "CVEGEO": "1304400330036002", "POBTOT": 0.0, "score_nse": 0.0, "NSE": null, "VIVTOT": 0.0, "GRAPROES": 0.0, "_ent": "13", "_mun": "044", "_loc": "0033"}, "geometry": {"type": "Polygon", "coordinates": [[[-99.5346, 20.1704], [-99.53511, 20.17036], [-99.53482, 20.1707], [-99.5348, 20.1711], [-99.53429, 20.17108], [-99.53422, 20.17094], [-99.5346, 20.1704]]]}}, {"id": "850300", "type": "Feature", "properties": {"id": "850300", "CVEGEO": "1304400330036018", "POBTOT": 0.0, "score_nse": 0.0, "NSE": null, "VIVTOT": 0.0, "GRAPROES": 0.0, "_ent": "13", "_mun": "044", "_loc": "0033"}, "geometry": {"type": "Polygon", "coordinates": [[[-99.54227, 20.17253], [-99.54198, 20.17414], [-99.54226, 20.17473], [-99.54122, 20.17412], [-99.54025, 20.17115], [-99.53991, 20.17072], [-99.53823, 20.17021], [-99.53949, 20.1701], [-99.54046, 20.17123], [-99.54227, 20.17253]]]}}, {"id": "850337", "type": "Feature", "properties": {"id": "850337", "CVEGEO": "1304400330036025", "POBTOT": 0.0, "score_nse": 0.0, "NSE": null, "VIVTOT": 0.0, "GRAPROES": 0.0, "_ent": "13", "_mun": "044", "_loc": "0033"}, "geometry": {"type": "Polygon", "coordinates": [[[-99.53938, 20.17523], [-99.53853, 20.1727], [-99.53996, 20.17266], [-99.54046, 20.17311], [-99.54006, 20.17369], [-99.54052, 20.17316], [-99.54099, 20.17358], [-99.54114, 20.17412], [-99.54086, 20.17452], [-99.54092, 20.1752], [-99.53938, 20.17523]]]}}, {"id": "850338", "type": "Feature", "properties": {"id": "850338", "CVEGEO": "1304400330036013", "POBTOT": 0.0, "score_nse": 0.0, "NSE": null, "VIVTOT": 0.0, "GRAPROES": 0.0, "_ent": "13", "_mun": "044", "_loc": "0033"}, "geometry": {"type": "Polygon", "coordinates": [[[-99.53848, 20.17166], [-99.53777, 20.17079], [-99.53817, 20.17027], [-99.53986, 20.17078], [-99.5402, 20.17124], [-99.53848, 20.17166]]]}}, {"id": "850339", "type": "Feature", "properties": {"id": "850339", "CVEGEO": "1304400330036010", "POBTOT": 0.0, "score_nse": 0.0, "NSE": null, "VIVTOT": 0.0, "GRAPROES": 0.0, "_ent": "13", "_mun": "044", "_loc": "0033"}, "geometry": {"type": "Polygon", "coordinates": [[[-99.53289, 20.17106], [-99.53057, 20.17214], [-99.52997, 20.17229], [-99.52983, 20.17213], [-99.52985, 20.17137], [-99.531, 20.17113], [-99.53166, 20.17035], [-99.5324, 20.17022], [-99.53273, 20.17034], [-99.53289, 20.17106]]]}}, {"id": "850340", "type": "Feature", "properties": {"id": "850340", "CVEGEO": "1304400330036003", "POBTOT": 0.0, "score_nse": 0.0, "NSE": null, "VIVTOT": 0.0, "GRAPROES": 0.0, "_ent": "13", "_mun": "044", "_loc": "0033"}, "geometry": {"type": "Polygon", "coordinates": [[[-99.53463, 20.17029], [-99.53378, 20.17129], [-99.5331, 20.17137], [-99.53301, 20.17122], [-99.53302, 20.17137], [-99.5328, 20.17138], [-99.53266, 20.17117], [-99.53296, 20.17112], [-99.53286, 20.17055], [-99.53357, 20.17018], [-99.53463, 20.17029]]]}}, {"id": "850389", "type": "Feature", "properties": {"id": "850389", "CVEGEO": "1304400330036021", "POBTOT": 0.0, "score_nse": 0.0, "NSE": null, "VIVTOT": 0.0, "GRAPROES": 0.0, "_ent": "13", "_mun": "044", "_loc": "0033"}, "geometry": {"type": "Polygon", "coordinates": [[[-99.54461, 20.17485], [-99.54237, 20.17475], [-99.54208, 20.17414], [-99.54237, 20.1726], [-99.5441, 20.17407], [-99.54461, 20.17485]]]}}, {"id": "850398", "type": "Feature", "properties": {"id": "850398", "CVEGEO": "1304400330036027", "POBTOT": 0.0, "score_nse": 0.0, "NSE": null, "VIVTOT": 0.0, "GRAPROES": 0.0, "_ent": "13", "_mun": "044", "_loc": "0033"}, "geometry": {"type": "Polygon", "coordinates": [[[-99.54074, 20.16943], [-99.53955, 20.17], [-99.5382, 20.16871], [-99.53931, 20.16926], [-99.54075, 20.16904], [-99.54074, 20.16943]]]}}, {"id": "850399", "type": "Feature", "properties": {"id": "850399", "CVEGEO": "1304400330036020", "POBTOT": 0.0, "score_nse": 0.0, "NSE": null, "VIVTOT": 0.0, "GRAPROES": 0.0, "_ent": "13", "_mun": "044", "_loc": "0033"}, "geometry": {"type": "Polygon", "coordinates": [[[-99.53887, 20.16901], [-99.53842, 20.16862], [-99.53811, 20.16862], [-99.5374, 20.1682], [-99.53371, 20.16672], [-99.5322, 20.16587], [-99.53132, 20.16519], [-99.53078, 20.16401], [-99.53145, 20.1632], [-99.53213, 20.16491], [-99.53279, 20.1655], [-99.53504, 20.16611], [-99.53645, 20.16733], [-99.5373, 20.16761], [-99.54063, 20.16717], [-99.54212, 20.1662], [-99.54307, 20.16508], [-99.54453, 20.16441], [-99.54373, 20.16508], [-99.54311, 20.167], [-99.54261, 20.16709], [-99.54255, 20.16726], [-99.54308, 20.16708], [-99.54303, 20.16721], [-99.54169, 20.16867], [-99.53953, 20.16916], [-99.53887, 20.16901]]]}}, {"id": "850468", "type": "Feature", "properties": {"id": "850468", "CVEGEO": "1304400330036015", "POBTOT": 0.0, "score_nse": 0.0, "NSE": null, "VIVTOT": 0.0, "GRAPROES": 0.0, "_ent": "13", "_mun": "044", "_loc": "0033"}, "geometry": {"type": "Polygon", "coordinates": [[[-99.53762, 20.17437], [-99.53767, 20.17405], [-99.53714, 20.17356], [-99.53786, 20.17283], [-99.53841, 20.17277], [-99.53893, 20.17439], [-99.53762, 20.17437]]]}}, {"id": "850488", "type": "Feature", "properties": {"id": "850488", "CVEGEO": "1304400330036023", "POBTOT": 0.0, "score_nse": 0.0, "NSE": null, "VIVTOT": 0.0, "GRAPROES": 0.0, "_ent": "13", "_mun": "044", "_loc": "0033"}, "geometry": {"type": "Polygon", "coordinates": [[[-99.53146, 20.16293], [-99.53216, 20.16289], [-99.53277, 20.1638], [-99.53313, 20.16387], [-99.53331, 20.16443], [-99.53217, 20.16482], [-99.53146, 20.16293]]]}}, {"id": "850489", "type": "Feature", "properties": {"id": "850489", "CVEGEO": "1304400330036022", "POBTOT": 0.0, "score_nse": 0.0, "NSE": null, "VIVTOT": 0.0, "GRAPROES": 0.0, "_ent": "13", "_mun": "044", "_loc": "0033"}, "geometry": {"type": "Polygon", "coordinates": [[[-99.5322, 20.16488], [-99.53334, 20.16449], [-99.53384, 20.16485], [-99.5341, 20.16576], [-99.53283, 20.16543], [-99.5322, 20.16488]]]}}, {"id": "850526", "type": "Feature", "properties": {"id": "850526", "CVEGEO": "1304400330036019", "POBTOT": 0.0, "score_nse": 0.0, "NSE": null, "VIVTOT": 0.0, "GRAPROES": 0.0, "_ent": "13", "_mun": "044", "_loc": "0033"}, "geometry": {"type": "Polygon", "coordinates": [[[-99.53831, 20.16748], [-99.53661, 20.16733], [-99.5377, 20.16731], [-99.53823, 20.16694], [-99.53754, 20.16727], [-99.53646, 20.16724], [-99.53508, 20.16604], [-99.53418, 20.16578], [-99.53391, 20.16488], [-99.53519, 20.16524], [-99.53361, 20.16468], [-99.53317, 20.16385], [-99.54103, 20.16391], [-99.54573, 20.16318], [-99.54462, 20.16428], [-99.54303, 20.16502], [-99.54229, 20.16594], [-99.54095, 20.16695], [-99.54019, 20.16723], [-99.53831, 20.16748]]]}}, {"id": "850529", "type": "Feature", "properties": {"id": "850529", "CVEGEO": "1304400330036004", "POBTOT": 0.0, "score_nse": 0.0, "NSE": null, "VIVTOT": 0.0, "GRAPROES": 0.0, "_ent": "13", "_mun": "044", "_loc": "0033"}, "geometry": {"type": "Polygon", "coordinates": [[[-99.53163, 20.17028], [-99.53097, 20.17106], [-99.52982, 20.1713], [-99.52962, 20.17077], [-99.52955, 20.16978], [-99.52994, 20.1695], [-99.53155, 20.16933], [-99.53243, 20.1689], [-99.53328, 20.16946], [-99.53351, 20.17013], [-99.53284, 20.17048], [-99.53256, 20.17016], [-99.53163, 20.17028]]]}}, {"id": "850615", "type": "Feature", "properties": {"id": "850615", "CVEGEO": "1304400330036008", "POBTOT": 0.0, "score_nse": 0.0, "NSE": null, "VIVTOT": 0.0, "GRAPROES": 0.0, "_ent": "13", "_mun": "044", "_loc": "0033"}, "geometry": {"type": "Polygon", "coordinates": [[[-99.53125, 20.17421], [-99.53204, 20.17353], [-99.53264, 20.17244], [-99.53324, 20.17188], [-99.53343, 20.1714], [-99.53385, 20.17133], [-99.53405, 20.17109], [-99.53427, 20.17116], [-99.53467, 20.17236], [-99.5365, 20.17404], [-99.53635, 20.17433], [-99.53313, 20.17423], [-99.532, 20.17405], [-99.53125, 20.17421]]]}}, {"id": "850616", "type": "Feature", "properties": {"id": "850616", "CVEGEO": "1304400330036006", "POBTOT": 0.0, "score_nse": 0.0, "NSE": null, "VIVTOT": 0.0, "GRAPROES": 0.0, "_ent": "13", "_mun": "044", "_loc": "0033"}, "geometry": {"type": "Polygon", "coordinates": [[[-99.53532, 20.16895], [-99.53802, 20.16874], [-99.53935, 20.16997], [-99.53785, 20.17013], [-99.53596, 20.1692], [-99.53505, 20.16938], [-99.53532, 20.16895]]]}}, {"id": "850617", "type": "Feature", "properties": {"id": "850617", "CVEGEO": "1304400330036011", "POBTOT": 0.0, "score_nse": 0.0, "NSE": null, "VIVTOT": 0.0, "GRAPROES": 0.0, "_ent": "13", "_mun": "044", "_loc": "0033"}, "geometry": {"type": "Polygon", "coordinates": [[[-99.53152, 20.16924], [-99.52991, 20.16942], [-99.52954, 20.16967], [-99.52927, 20.16891], [-99.52943, 20.16818], [-99.53052, 20.16789], [-99.53056, 20.16721], [-99.53154, 20.16731], [-99.53222, 20.16783], [-99.53232, 20.16888], [-99.53152, 20.16924]]]}}, {"id": "850635", "type": "Feature", "properties": {"id": "850635", "CVEGEO": "1304400330036005", "POBTOT": 0.0, "score_nse": 0.0, "NSE": null, "VIVTOT": 0.0, "GRAPROES": 0.0, "_ent": "13", "_mun": "044", "_loc": "0033"}, "geometry": {"type": "Polygon", "coordinates": [[[-99.53254, 20.16885], [-99.53348, 20.16867], [-99.53526, 20.16892], [-99.535, 20.16937], [-99.53355, 20.1695], [-99.53255, 20.16903], [-99.53254, 20.16885]]]}}, {"id": "850636", "type": "Feature", "properties": {"id": "850636", "CVEGEO": "1304400330036001", "POBTOT": 0.0, "score_nse": 0.0, "NSE": null, "VIVTOT": 0.0, "GRAPROES": 0.0, "_ent": "13", "_mun": "044", "_loc": "0033"}, "geometry": {"type": "Polygon", "coordinates": [[[-99.53767, 20.17014], [-99.5352, 20.17033], [-99.53368, 20.17017], [-99.53343, 20.16969], [-99.53586, 20.16927], [-99.53767, 20.17014]]]}}, {"id": "850637", "type": "Feature", "properties": {"id": "850637", "CVEGEO": "1304400330036009", "POBTOT": 0.0, "score_nse": 0.0, "NSE": null, "VIVTOT": 0.0, "GRAPROES": 0.0, "_ent": "13", "_mun": "044", "_loc": "0033"}, "geometry": {"type": "Polygon", "coordinates": [[[-99.53118, 20.1741], [-99.53096, 20.17397], [-99.53043, 20.17406], [-99.53038, 20.17269], [-99.53004, 20.17234], [-99.5306, 20.1722], [-99.53225, 20.17128], [-99.53252, 20.17122], [-99.53284, 20.17146], [-99.53335, 20.17142], [-99.53318, 20.17183], [-99.53252, 20.17248], [-99.53194, 20.17357], [-99.53118, 20.1741]]]}}, {"id": "850690", "type": "Feature", "properties": {"id": "850690", "CVEGEO": "1304400330036017", "POBTOT": 0.0, "score_nse": 0.0, "NSE": null, "VIVTOT": 0.0, "GRAPROES": 0.0, "_ent": "13", "_mun": "044", "_loc": "0033"}, "geometry": {"type": "Polygon", "coordinates": [[[-99.53431, 20.16705], [-99.53798, 20.16866], [-99.53527, 20.16879], [-99.53469, 20.16814], [-99.53384, 20.16769], [-99.53397, 20.16756], [-99.53425, 20.16766], [-99.53441, 20.16729], [-99.53431, 20.16705]]]}}, {"id": "850691", "type": "Feature", "properties": {"id": "850691", "CVEGEO": "1304400330036012", "POBTOT": 0.0, "score_nse": 0.0, "NSE": null, "VIVTOT": 0.0, "GRAPROES": 0.0, "_ent": "13", "_mun": "044", "_loc": "0033"}, "geometry": {"type": "Polygon", "coordinates": [[[-99.53247, 20.16875], [-99.53239, 20.16781], [-99.53354, 20.16815], [-99.53357, 20.16796], [-99.53404, 20.16794], [-99.53464, 20.1682], [-99.53519, 20.1688], [-99.5335, 20.16858], [-99.53247, 20.16875]]]}}, {"id": "850693", "type": "Feature", "properties": {"id": "850693", "CVEGEO": "1304400330036028", "POBTOT": 0.0, "score_nse": 0.0, "NSE": null, "VIVTOT": 0.0, "GRAPROES": 0.0, "_ent": "13", "_mun": "044", "_loc": "0033"}, "geometry": {"type": "Polygon", "coordinates": [[[-99.54997, 20.16554], [-99.55034, 20.16643], [-99.55045, 20.16824], [-99.55105, 20.16967], [-99.55091, 20.17075], [-99.55048, 20.17129], [-99.54877, 20.17261], [-99.54846, 20.17372], [-99.54872, 20.17458], [-99.54752, 20.17498], [-99.54531, 20.17487], [-99.54509, 20.17427], [-99.54473, 20.17388], [-99.54428, 20.17247], [-99.54394, 20.17216], [-99.54331, 20.17195], [-99.54293, 20.17083], [-99.5426, 20.17063], [-99.54248, 20.17006], [-99.54165, 20.16988], [-99.54139, 20.16903], [-99.5429, 20.16746], [-99.54411, 20.1674], [-99.54518, 20.16707], [-99.5468, 20.16611], [-99.54797, 20.16578], [-99.54997, 20.16554]]]}}, {"id": "850694", "type": "Feature", "properties": {"id": "850694", "CVEGEO": "1304400330036007", "POBTOT": 0.0, "score_nse": 0.0, "NSE": null, "VIVTOT": 0.0, "GRAPROES": 0.0, "_ent": "13", "_mun": "044", "_loc": "0033"}, "geometry": {"type": "Polygon", "coordinates": [[[-99.53844, 20.17173], [-99.53831, 20.17261], [-99.53777, 20.17265], [-99.53711, 20.17221], [-99.53675, 20.1717], [-99.53643, 20.17153], [-99.53663, 20.17022], [-99.5381, 20.17024], [-99.5375, 20.17086], [-99.53772, 20.17084], [-99.53844, 20.17173]]]}}, {"id": "850703", "type": "Feature", "properties": {"id": "850703", "CVEGEO": "1304400330036035", "POBTOT": 0.0, "score_nse": 0.0, "NSE": null, "VIVTOT": 0.0, "GRAPROES": 0.0, "_ent": "13", "_mun": "044", "_loc": "0033"}, "geometry": {"type": "Polygon", "coordinates": [[[-99.53422, 20.1676], [-99.53395, 20.16747], [-99.53369, 20.16759], [-99.53337, 20.16725], [-99.53345, 20.167], [-99.5337, 20.16684], [-99.53428, 20.16704], [-99.53422, 20.1676]]]}}, {"id": "850704", "type": "Feature", "properties": {"id": "850704", "CVEGEO": "1304400330036034", "POBTOT": 0.0, "score_nse": 0.0, "NSE": null, "VIVTOT": 0.0, "GRAPROES": 0.0, "_ent": "13", "_mun": "044", "_loc": "0033"}, "geometry": {"type": "Polygon", "coordinates": [[[-99.53332, 20.16722], [-99.53272, 20.16714], [-99.53206, 20.16682], [-99.53259, 20.16716], [-99.5312, 20.16719], [-99.53088, 20.16693], [-99.53065, 20.16641], [-99.53082, 20.16544], [-99.5305, 20.16445], [-99.53132, 20.16536], [-99.53364, 20.16681], [-99.53332, 20.16722]]]}}, {"id": "850705", "type": "Feature", "properties": {"id": "850705", "CVEGEO": "1304400330036033", "POBTOT": 0.0, "score_nse": 0.0, "NSE": null, "VIVTOT": 0.0, "GRAPROES": 0.0, "_ent": "13", "_mun": "044", "_loc": "0033"}, "geometry": {"type": "Polygon", "coordinates": [[[-99.53328, 20.16729], [-99.53363, 20.16764], [-99.53399, 20.16789], [-99.53354, 20.1679], [-99.53351, 20.16808], [-99.53285, 20.16785], [-99.53328, 20.16729]]]}}, {"id": "850706", "type": "Feature", "properties": {"id": "850706", "CVEGEO": "1304400330036032", "POBTOT": 0.0, "score_nse": 0.0, "NSE": null, "VIVTOT": 0.0, "GRAPROES": 0.0, "_ent": "13", "_mun": "044", "_loc": "0033"}, "geometry": {"type": "Polygon", "coordinates": [[[-99.5328, 20.16782], [-99.53235, 20.16773], [-99.53176, 20.16728], [-99.53323, 20.16726], [-99.5328, 20.16782]]]}}, {"id": "850708", "type": "Feature", "properties": {"id": "850708", "CVEGEO": "1304400330036031", "POBTOT": 0.0, "score_nse": 0.0, "NSE": null, "VIVTOT": 0.0, "GRAPROES": 0.0, "_ent": "13", "_mun": "044", "_loc": "0033"}, "geometry": {"type": "Polygon", "coordinates": [[[-99.54991, 20.16547], [-99.54678, 20.16598], [-99.54511, 20.16699], [-99.54393, 20.16734], [-99.54296, 20.16739], [-99.54379, 20.16512], [-99.54582, 20.16321], [-99.54675, 20.16275], [-99.54701, 20.16269], [-99.54826, 20.16316], [-99.54991, 20.16547]]]}}, {"id": "850709", "type": "Feature", "properties": {"id": "850709", "CVEGEO": "1304400330036030", "POBTOT": 0.0, "score_nse": 0.0, "NSE": null, "VIVTOT": 0.0, "GRAPROES": 0.0, "_ent": "13", "_mun": "044", "_loc": "0033"}, "geometry": {"type": "Polygon", "coordinates": [[[-99.54523, 20.17487], [-99.54504, 20.17484], [-99.54397, 20.17339], [-99.54246, 20.17235], [-99.54124, 20.16982], [-99.5409, 20.16943], [-99.5413, 20.16908], [-99.54161, 20.16994], [-99.5424, 20.17007], [-99.54255, 20.17068], [-99.54296, 20.17104], [-99.54326, 20.17202], [-99.54387, 20.17221], [-99.54424, 20.17253], [-99.54466, 20.17392], [-99.54502, 20.1743], [-99.54523, 20.17487]]]}}, {"id": "850710", "type": "Feature", "properties": {"id": "850710", "CVEGEO": "1304400330036029", "POBTOT": 0.0, "score_nse": 0.0, "NSE": null, "VIVTOT": 0.0, "GRAPROES": 0.0, "_ent": "13", "_mun": "044", "_loc": "0033"}, "geometry": {"type": "Polygon", "coordinates": [[[-99.53814, 20.17272], [-99.53778, 20.17281], [-99.53664, 20.17395], [-99.53475, 20.17235], [-99.53438, 20.17119], [-99.53483, 20.17117], [-99.53526, 20.17093], [-99.53542, 20.17106], [-99.53527, 20.17087], [-99.53489, 20.17099], [-99.53491, 20.1707], [-99.5352, 20.17036], [-99.53656, 20.17022], [-99.53637, 20.17111], [-99.53643, 20.17169], [-99.53672, 20.17175], [-99.53706, 20.17224], [-99.53766, 20.17267], [-99.53814, 20.17272]]]}}, {"id": "850713", "type": "Feature", "properties": {"id": "850713", "CVEGEO": "1304400330036036", "POBTOT": 0.0, "score_nse": 0.0, "NSE": null, "VIVTOT": 0.0, "GRAPROES": 0.0, "_ent": "13", "_mun": "044", "_loc": "0033"}, "geometry": {"type": "Polygon", "coordinates": [[[-99.54234, 20.17229], [-99.54057, 20.17105], [-99.53964, 20.17004], [-99.54087, 20.16943], [-99.54234, 20.17229]]]}}]}