{"type": "FeatureCollection", "features": [{"id": "1567234", "type": "Feature", "properties": {"id": "1567234", "CVEGEO": "204260014003A001", "POBTOT": 0.0, "score_nse": 0.0, "NSE": null, "VIVTOT": 0.0, "GRAPROES": 0.0, "_ent": "20", "_mun": "426", "_loc": "0014"}, "geometry": {"type": "Polygon", "coordinates": [[[-97.05568, 16.97843], [-97.05542, 16.97863], [-97.05573, 16.97848], [-97.05581, 16.97862], [-97.05565, 16.97934], [-97.05462, 16.97931], [-97.05437, 16.97914], [-97.05456, 16.97875], [-97.05484, 16.97888], [-97.05504, 16.97879], [-97.0546, 16.97872], [-97.05459, 16.97838], [-97.05496, 16.97811], [-97.05529, 16.97822], [-97.05544, 16.97796], [-97.05578, 16.97796], [-97.05568, 16.97843]]]}}]}