{"type": "FeatureCollection", "features": [{"id": "685001", "type": "Feature", "properties": {"id": "685001", "CVEGEO": "1103002140101021", "POBTOT": 0.0, "score_nse": 0.0, "NSE": null, "VIVTOT": 0.0, "GRAPROES": 0.0, "_ent": "11", "_mun": "030", "_loc": "0214"}, "geometry": {"type": "Polygon", "coordinates": [[[-101.06257, 21.63682], [-101.06211, 21.63756], [-101.06194, 21.63759], [-101.06092, 21.63678], [-101.06113, 21.63629], [-101.06257, 21.63682]]]}}, {"id": "685002", "type": "Feature", "properties": {"id": "685002", "CVEGEO": "1103002140101020", "POBTOT": 0.0, "score_nse": 0.0, "NSE": null, "VIVTOT": 0.0, "GRAPROES": 0.0, "_ent": "11", "_mun": "030", "_loc": "0214"}, "geometry": {"type": "Polygon", "coordinates": [[[-101.05697, 21.63395], [-101.05604, 21.63369], [-101.0558, 21.63346], [-101.0558, 21.63283], [-101.05676, 21.63336], [-101.05697, 21.63395]]]}}, {"id": "685003", "type": "Feature", "properties": {"id": "685003", "CVEGEO": "1103002140101019", "POBTOT": 0.0, "score_nse": 0.0, "NSE": null, "VIVTOT": 0.0, "GRAPROES": 0.0, "_ent": "11", "_mun": "030", "_loc": "0214"}, "geometry": {"type": "Polygon", "coordinates": [[[-101.05744, 21.63167], [-101.05649, 21.6308], [-101.05768, 21.62962], [-101.05799, 21.62972], [-101.05744, 21.63167]]]}}, {"id": "685004", "type": "Feature", "properties": {"id": "685004", "CVEGEO": "1103002140101017", "POBTOT": 0.0, "score_nse": 0.0, "NSE": null, "VIVTOT": 0.0, "GRAPROES": 0.0, "_ent": "11", "_mun": "030", "_loc": "0214"}, "geometry": {"type": "Polygon", "coordinates": [[[-101.06146, 21.63551], [-101.06174, 21.63481], [-101.06357, 21.63516], [-101.06307, 21.63597], [-101.06146, 21.63551]]]}}, {"id": "685005", "type": "Feature", "properties": {"id": "685005", "CVEGEO": "1103002140101015", "POBTOT": 0.0, "score_nse": 0.0, "NSE": null, "VIVTOT": 0.0, "GRAPROES": 0.0, "_ent": "11", "_mun": "030", "_loc": "0214"}, "geometry": {"type": "Polygon", "coordinates": [[[-101.05919, 21.63071], [-101.05883, 21.62997], [-101.05806, 21.62957], [-101.05822, 21.62904], [-101.05865, 21.6287], [-101.05954, 21.6295], [-101.05957, 21.6305], [-101.05936, 21.63077], [-101.05919, 21.63071]]]}}, {"id": "685006", "type": "Feature", "properties": {"id": "685006", "CVEGEO": "1103002140101005", "POBTOT": 0.0, "score_nse": 0.0, "NSE": null, "VIVTOT": 0.0, "GRAPROES": 0.0, "_ent": "11", "_mun": "030", "_loc": "0214"}, "geometry": {"type": "Polygon", "coordinates": [[[-101.06087, 21.63669], [-101.06002, 21.63596], [-101.05927, 21.63555], [-101.05926, 21.6347], [-101.06087, 21.63456], [-101.06163, 21.63485], [-101.06139, 21.63544], [-101.0612, 21.63538], [-101.06137, 21.63549], [-101.06087, 21.63669]]]}}, {"id": "685007", "type": "Feature", "properties": {"id": "685007", "CVEGEO": "1103002140101004", "POBTOT": 0.0, "score_nse": 0.0, "NSE": null, "VIVTOT": 0.0, "GRAPROES": 0.0, "_ent": "11", "_mun": "030", "_loc": "0214"}, "geometry": {"type": "Polygon", "coordinates": [[[-101.06085, 21.63368], [-101.05928, 21.63366], [-101.05927, 21.63342], [-101.05964, 21.63331], [-101.05927, 21.63336], [-101.05929, 21.63282], [-101.05988, 21.63282], [-101.05929, 21.63274], [-101.05937, 21.63242], [-101.05975, 21.63223], [-101.06127, 21.63263], [-101.06085, 21.63368]]]}}, {"id": "685008", "type": "Feature", "properties": {"id": "685008", "CVEGEO": "1103002140101003", "POBTOT": 0.0, "score_nse": 0.0, "NSE": null, "VIVTOT": 0.0, "GRAPROES": 0.0, "_ent": "11", "_mun": "030", "_loc": "0214"}, "geometry": {"type": "Polygon", "coordinates": [[[-101.05824, 21.63376], [-101.05724, 21.6341], [-101.05702, 21.63398], [-101.05679, 21.63334], [-101.05582, 21.6328], [-101.05622, 21.63271], [-101.05786, 21.63305], [-101.05643, 21.63264], [-101.05725, 21.63169], [-101.05775, 21.63194], [-101.05921, 21.63218], [-101.0592, 21.63365], [-101.05833, 21.63374], [-101.05823, 21.63364], [-101.05824, 21.63376]]]}}, {"id": "685009", "type": "Feature", "properties": {"id": "685009", "CVEGEO": "1103002140101002", "POBTOT": 0.0, "score_nse": 0.0, "NSE": null, "VIVTOT": 0.0, "GRAPROES": 0.0, "_ent": "11", "_mun": "030", "_loc": "0214"}, "geometry": {"type": "Polygon", "coordinates": [[[-101.05894, 21.63467], [-101.05869, 21.63417], [-101.05786, 21.6342], [-101.05792, 21.63396], [-101.05916, 21.63373], [-101.05917, 21.63465], [-101.05894, 21.63467]]]}}, {"id": "685010", "type": "Feature", "properties": {"id": "685010", "CVEGEO": "1103002140101001", "POBTOT": 0.0, "score_nse": 0.0, "NSE": null, "VIVTOT": 0.0, "GRAPROES": 0.0, "_ent": "11", "_mun": "030", "_loc": "0214"}, "geometry": {"type": "Polygon", "coordinates": [[[-101.0611, 21.63449], [-101.05924, 21.63463], [-101.05926, 21.63374], [-101.06113, 21.63378], [-101.0611, 21.63449]]]}}, {"id": "685930", "type": "Feature", "properties": {"id": "685930", "CVEGEO": "1103002140101014", "POBTOT": 0.0, "score_nse": 0.0, "NSE": null, "VIVTOT": 0.0, "GRAPROES": 0.0, "_ent": "11", "_mun": "030", "_loc": "0214"}, "geometry": {"type": "Polygon", "coordinates": [[[-101.0581, 21.63488], [-101.05673, 21.63545], [-101.05557, 21.63523], [-101.05677, 21.63394], [-101.0581, 21.63488]]]}}, {"id": "685948", "type": "Feature", "properties": {"id": "685948", "CVEGEO": "1103002140101006", "POBTOT": 0.0, "score_nse": 0.0, "NSE": null, "VIVTOT": 0.0, "GRAPROES": 0.0, "_ent": "11", "_mun": "030", "_loc": "0214"}, "geometry": {"type": "Polygon", "coordinates": [[[-101.05921, 21.63545], [-101.05838, 21.63505], [-101.05839, 21.63484], [-101.05915, 21.63474], [-101.05921, 21.63545]]]}}, {"id": "686319", "type": "Feature", "properties": {"id": "686319", "CVEGEO": "1103002140101012", "POBTOT": 0.0, "score_nse": 0.0, "NSE": null, "VIVTOT": 0.0, "GRAPROES": 0.0, "_ent": "11", "_mun": "030", "_loc": "0214"}, "geometry": {"type": "Polygon", "coordinates": [[[-101.06049, 21.63652], [-101.0594, 21.63715], [-101.059, 21.63716], [-101.05871, 21.63756], [-101.05802, 21.63747], [-101.05836, 21.6366], [-101.05922, 21.63562], [-101.05999, 21.63603], [-101.06049, 21.63652]]]}}, {"id": "686396", "type": "Feature", "properties": {"id": "686396", "CVEGEO": "1103002140101013", "POBTOT": 0.0, "score_nse": 0.0, "NSE": null, "VIVTOT": 0.0, "GRAPROES": 0.0, "_ent": "11", "_mun": "030", "_loc": "0214"}, "geometry": {"type": "Polygon", "coordinates": [[[-101.05917, 21.63558], [-101.05831, 21.63655], [-101.05797, 21.63736], [-101.0572, 21.63719], [-101.05733, 21.63521], [-101.05813, 21.63495], [-101.05839, 21.63512], [-101.0583, 21.63548], [-101.05843, 21.63516], [-101.05917, 21.63558]]]}}, {"id": "686397", "type": "Feature", "properties": {"id": "686397", "CVEGEO": "1103002140101011", "POBTOT": 0.0, "score_nse": 0.0, "NSE": null, "VIVTOT": 0.0, "GRAPROES": 0.0, "_ent": "11", "_mun": "030", "_loc": "0214"}, "geometry": {"type": "Polygon", "coordinates": [[[-101.06115, 21.63624], [-101.06142, 21.63558], [-101.06304, 21.63606], [-101.0626, 21.63677], [-101.06115, 21.63624]]]}}, {"id": "686398", "type": "Feature", "properties": {"id": "686398", "CVEGEO": "1103002140101010", "POBTOT": 0.0, "score_nse": 0.0, "NSE": null, "VIVTOT": 0.0, "GRAPROES": 0.0, "_ent": "11", "_mun": "030", "_loc": "0214"}, "geometry": {"type": "Polygon", "coordinates": [[[-101.06133, 21.63253], [-101.0593, 21.63211], [-101.05943, 21.63086], [-101.05967, 21.63055], [-101.05984, 21.6307], [-101.05976, 21.63111], [-101.06143, 21.63229], [-101.06133, 21.63253]]]}}, {"id": "686399", "type": "Feature", "properties": {"id": "686399", "CVEGEO": "1103002140101009", "POBTOT": 0.0, "score_nse": 0.0, "NSE": null, "VIVTOT": 0.0, "GRAPROES": 0.0, "_ent": "11", "_mun": "030", "_loc": "0214"}, "geometry": {"type": "Polygon", "coordinates": [[[-101.05762, 21.63108], [-101.05782, 21.63086], [-101.05806, 21.62974], [-101.05887, 21.63013], [-101.05908, 21.63062], [-101.05872, 21.63059], [-101.05828, 21.63155], [-101.05854, 21.63199], [-101.05753, 21.63171], [-101.05762, 21.63108]]]}}, {"id": "687107", "type": "Feature", "properties": {"id": "687107", "CVEGEO": "1103002140101007", "POBTOT": 0.0, "score_nse": 0.0, "NSE": null, "VIVTOT": 0.0, "GRAPROES": 0.0, "_ent": "11", "_mun": "030", "_loc": "0214"}, "geometry": {"type": "Polygon", "coordinates": [[[-101.05885, 21.63463], [-101.05816, 21.63484], [-101.05759, 21.63431], [-101.05862, 21.63421], [-101.05885, 21.63463]]]}}, {"id": "687402", "type": "Feature", "properties": {"id": "687402", "CVEGEO": "1103002140101008", "POBTOT": 0.0, "score_nse": 0.0, "NSE": null, "VIVTOT": 0.0, "GRAPROES": 0.0, "_ent": "11", "_mun": "030", "_loc": "0214"}, "geometry": {"type": "Polygon", "coordinates": [[[-101.05778, 21.63417], [-101.05732, 21.63415], [-101.05784, 21.63396], [-101.05778, 21.63417]]]}}, {"id": "688042", "type": "Feature", "properties": {"id": "688042", "CVEGEO": "1103002140101018", "POBTOT": 0.0, "score_nse": 0.0, "NSE": null, "VIVTOT": 0.0, "GRAPROES": 0.0, "_ent": "11", "_mun": "030", "_loc": "0214"}, "geometry": {"type": "Polygon", "coordinates": [[[-101.06189, 21.63455], [-101.06176, 21.63476], [-101.06134, 21.63463], [-101.06117, 21.63446], [-101.06118, 21.63377], [-101.06156, 21.63371], [-101.06093, 21.63368], [-101.06136, 21.63263], [-101.06453, 21.63352], [-101.06413, 21.6342], [-101.06189, 21.63374], [-101.06189, 21.63455]]]}}, {"id": "688043", "type": "Feature", "properties": {"id": "688043", "CVEGEO": "1103002140101016", "POBTOT": 0.0, "score_nse": 0.0, "NSE": null, "VIVTOT": 0.0, "GRAPROES": 0.0, "_ent": "11", "_mun": "030", "_loc": "0214"}, "geometry": {"type": "Polygon", "coordinates": [[[-101.06203, 21.63391], [-101.06408, 21.6343], [-101.06361, 21.63509], [-101.06198, 21.63475], [-101.06203, 21.63391]]]}}, {"id": "688095", "type": "Feature", "properties": {"id": "688095", "CVEGEO": "1103002140101022", "POBTOT": 0.0, "score_nse": 0.0, "NSE": null, "VIVTOT": 0.0, "GRAPROES": 0.0, "_ent": "11", "_mun": "030", "_loc": "0214"}, "geometry": {"type": "Polygon", "coordinates": [[[-101.06153, 21.63252], [-101.06178, 21.632], [-101.06488, 21.63286], [-101.06465, 21.63339], [-101.06153, 21.63252]]]}}]}