{"type": "FeatureCollection", "features": [{"id": "706657", "type": "Feature", "properties": {"id": "706657", "CVEGEO": "110420035009A002", "POBTOT": 0.0, "score_nse": 0.0, "NSE": null, "VIVTOT": 0.0, "GRAPROES": 0.0, "_ent": "11", "_mun": "042", "_loc": "0035"}, "geometry": {"type": "Polygon", "coordinates": [[[-101.21242, 20.32329], [-101.21225, 20.32258], [-101.21175, 20.32221], [-101.20939, 20.32172], [-101.20815, 20.32184], [-101.20821, 20.32155], [-101.20885, 20.32143], [-101.21211, 20.32204], [-101.21261, 20.32279], [-101.21242, 20.32329]]]}}, {"id": "706658", "type": "Feature", "properties": {"id": "706658", "CVEGEO": "110420035009A001", "POBTOT": 0.0, "score_nse": 0.0, "NSE": null, "VIVTOT": 0.0, "GRAPROES": 0.0, "_ent": "11", "_mun": "042", "_loc": "0035"}, "geometry": {"type": "Polygon", "coordinates": [[[-101.212, 20.32238], [-101.21227, 20.32306], [-101.21203, 20.32315], [-101.21228, 20.3231], [-101.21247, 20.32395], [-101.21176, 20.32562], [-101.21165, 20.32557], [-101.2122, 20.3243], [-101.21192, 20.3235], [-101.2117, 20.3236], [-101.21156, 20.32334], [-101.21183, 20.32322], [-101.21171, 20.32298], [-101.21053, 20.32245], [-101.21006, 20.32244], [-101.21019, 20.3223], [-101.20965, 20.32204], [-101.20809, 20.32211], [-101.20825, 20.32187], [-101.20906, 20.32173], [-101.21038, 20.32196], [-101.21038, 20.32221], [-101.21044, 20.32197], [-101.212, 20.32238]]]}}]}