{"type": "FeatureCollection", "features": [{"id": "705880", "type": "Feature", "properties": {"id": "705880", "CVEGEO": "1104200850013009", "POBTOT": 0.0, "score_nse": 0.0, "NSE": null, "VIVTOT": 0.0, "GRAPROES": 0.0, "_ent": "11", "_mun": "042", "_loc": "0085"}, "geometry": {"type": "Polygon", "coordinates": [[[-101.39235, 20.47494], [-101.39188, 20.47403], [-101.39257, 20.47373], [-101.39235, 20.47494]]]}}, {"id": "705881", "type": "Feature", "properties": {"id": "705881", "CVEGEO": "1104200850013015", "POBTOT": 0.0, "score_nse": 0.0, "NSE": null, "VIVTOT": 0.0, "GRAPROES": 0.0, "_ent": "11", "_mun": "042", "_loc": "0085"}, "geometry": {"type": "Polygon", "coordinates": [[[-101.39251, 20.47549], [-101.39287, 20.47618], [-101.39217, 20.47663], [-101.39251, 20.47549]]]}}, {"id": "705882", "type": "Feature", "properties": {"id": "705882", "CVEGEO": "1104200850013004", "POBTOT": 0.0, "score_nse": 0.0, "NSE": null, "VIVTOT": 0.0, "GRAPROES": 0.0, "_ent": "11", "_mun": "042", "_loc": "0085"}, "geometry": {"type": "Polygon", "coordinates": [[[-101.39098, 20.47742], [-101.3906, 20.4777], [-101.38986, 20.47793], [-101.3898, 20.47745], [-101.38958, 20.47749], [-101.38955, 20.47732], [-101.38903, 20.4775], [-101.3885, 20.47714], [-101.38878, 20.4771], [-101.38896, 20.47651], [-101.38925, 20.47702], [-101.39001, 20.47713], [-101.39004, 20.47742], [-101.39004, 20.47713], [-101.39039, 20.47715], [-101.39039, 20.47739], [-101.39043, 20.47716], [-101.39169, 20.4773], [-101.39098, 20.47742]]]}}, {"id": "705883", "type": "Feature", "properties": {"id": "705883", "CVEGEO": "1104200850013003", "POBTOT": 0.0, "score_nse": 0.0, "NSE": null, "VIVTOT": 0.0, "GRAPROES": 0.0, "_ent": "11", "_mun": "042", "_loc": "0085"}, "geometry": {"type": "Polygon", "coordinates": [[[-101.39171, 20.47724], [-101.39154, 20.47717], [-101.39149, 20.4768], [-101.39148, 20.47716], [-101.39066, 20.47715], [-101.39066, 20.4766], [-101.39078, 20.47656], [-101.3908, 20.47638], [-101.39112, 20.47632], [-101.39105, 20.4761], [-101.39108, 20.47631], [-101.39073, 20.47625], [-101.39076, 20.47654], [-101.39049, 20.47664], [-101.39049, 20.47615], [-101.3908, 20.47611], [-101.39052, 20.47611], [-101.39044, 20.47589], [-101.39049, 20.47612], [-101.3902, 20.47612], [-101.39044, 20.47615], [-101.39044, 20.47664], [-101.39002, 20.47703], [-101.38951, 20.47704], [-101.38902, 20.47644], [-101.38978, 20.47621], [-101.38899, 20.47641], [-101.38873, 20.47586], [-101.38937, 20.47566], [-101.3895, 20.47602], [-101.39072, 20.47569], [-101.39111, 20.4758], [-101.39122, 20.47605], [-101.39163, 20.47603], [-101.39177, 20.47659], [-101.39211, 20.47662], [-101.39171, 20.47724]]]}}, {"id": "705934", "type": "Feature", "properties": {"id": "705934", "CVEGEO": "1104200850013013", "POBTOT": 0.0, "score_nse": 0.0, "NSE": null, "VIVTOT": 0.0, "GRAPROES": 0.0, "_ent": "11", "_mun": "042", "_loc": "0085"}, "geometry": {"type": "Polygon", "coordinates": [[[-101.39797, 20.47833], [-101.39792, 20.47761], [-101.39882, 20.47734], [-101.39901, 20.47824], [-101.39797, 20.47833]]]}}, {"id": "706797", "type": "Feature", "properties": {"id": "706797", "CVEGEO": "1104200850013007", "POBTOT": 0.0, "score_nse": 0.0, "NSE": null, "VIVTOT": 0.0, "GRAPROES": 0.0, "_ent": "11", "_mun": "042", "_loc": "0085"}, "geometry": {"type": "Polygon", "coordinates": [[[-101.39293, 20.47614], [-101.39238, 20.47502], [-101.39332, 20.47453], [-101.39352, 20.47489], [-101.39401, 20.47467], [-101.39391, 20.47551], [-101.39293, 20.47614]]]}}, {"id": "706798", "type": "Feature", "properties": {"id": "706798", "CVEGEO": "1104200850013014", "POBTOT": 0.0, "score_nse": 0.0, "NSE": null, "VIVTOT": 0.0, "GRAPROES": 0.0, "_ent": "11", "_mun": "042", "_loc": "0085"}, "geometry": {"type": "Polygon", "coordinates": [[[-101.38724, 20.47366], [-101.38673, 20.47287], [-101.38648, 20.47296], [-101.38625, 20.47262], [-101.38598, 20.47255], [-101.38572, 20.47182], [-101.38663, 20.47241], [-101.38727, 20.47304], [-101.38752, 20.47356], [-101.38724, 20.47366]]]}}, {"id": "706800", "type": "Feature", "properties": {"id": "706800", "CVEGEO": "1104200850013001", "POBTOT": 0.0, "score_nse": 0.0, "NSE": null, "VIVTOT": 0.0, "GRAPROES": 0.0, "_ent": "11", "_mun": "042", "_loc": "0085"}, "geometry": {"type": "Polygon", "coordinates": [[[-101.39025, 20.47705], [-101.39022, 20.4769], [-101.39061, 20.47663], [-101.3906, 20.47713], [-101.39025, 20.47705]]]}}, {"id": "707295", "type": "Feature", "properties": {"id": "707295", "CVEGEO": "1104200850013002", "POBTOT": 0.0, "score_nse": 0.0, "NSE": null, "VIVTOT": 0.0, "GRAPROES": 0.0, "_ent": "11", "_mun": "042", "_loc": "0085"}, "geometry": {"type": "Polygon", "coordinates": [[[-101.38761, 20.4772], [-101.3878, 20.47687], [-101.38762, 20.47538], [-101.38832, 20.47517], [-101.38848, 20.47553], [-101.38807, 20.47567], [-101.3885, 20.47557], [-101.38888, 20.4764], [-101.38822, 20.4764], [-101.38815, 20.47661], [-101.38824, 20.47644], [-101.38886, 20.47644], [-101.3888, 20.47667], [-101.38834, 20.47672], [-101.38879, 20.4767], [-101.3887, 20.47706], [-101.38761, 20.4772]]]}}, {"id": "707489", "type": "Feature", "properties": {"id": "707489", "CVEGEO": "1104200850013006", "POBTOT": 0.0, "score_nse": 0.0, "NSE": null, "VIVTOT": 0.0, "GRAPROES": 0.0, "_ent": "11", "_mun": "042", "_loc": "0085"}, "geometry": {"type": "Polygon", "coordinates": [[[-101.38872, 20.47583], [-101.38839, 20.47511], [-101.38895, 20.4749], [-101.38925, 20.47566], [-101.38872, 20.47583]]]}}, {"id": "707603", "type": "Feature", "properties": {"id": "707603", "CVEGEO": "1104200850013016", "POBTOT": 0.0, "score_nse": 0.0, "NSE": null, "VIVTOT": 0.0, "GRAPROES": 0.0, "_ent": "11", "_mun": "042", "_loc": "0085"}, "geometry": {"type": "Polygon", "coordinates": [[[-101.38733, 20.47724], [-101.38614, 20.47745], [-101.386, 20.47706], [-101.38692, 20.47685], [-101.38699, 20.477], [-101.38729, 20.47695], [-101.38733, 20.47724]]]}}, {"id": "707762", "type": "Feature", "properties": {"id": "707762", "CVEGEO": "1104200850013018", "POBTOT": 0.0, "score_nse": 0.0, "NSE": null, "VIVTOT": 0.0, "GRAPROES": 0.0, "_ent": "11", "_mun": "042", "_loc": "0085"}, "geometry": {"type": "Polygon", "coordinates": [[[-101.38479, 20.47588], [-101.38561, 20.47756], [-101.38504, 20.47771], [-101.38436, 20.47598], [-101.38479, 20.47588]]]}}, {"id": "707768", "type": "Feature", "properties": {"id": "707768", "CVEGEO": "1104200850013011", "POBTOT": 0.0, "score_nse": 0.0, "NSE": null, "VIVTOT": 0.0, "GRAPROES": 0.0, "_ent": "11", "_mun": "042", "_loc": "0085"}, "geometry": {"type": "Polygon", "coordinates": [[[-101.38456, 20.4778], [-101.3842, 20.47788], [-101.38349, 20.47619], [-101.38387, 20.4761], [-101.38456, 20.4778]]]}}, {"id": "707788", "type": "Feature", "properties": {"id": "707788", "CVEGEO": "1104200850013021", "POBTOT": 0.0, "score_nse": 0.0, "NSE": null, "VIVTOT": 0.0, "GRAPROES": 0.0, "_ent": "11", "_mun": "042", "_loc": "0085"}, "geometry": {"type": "Polygon", "coordinates": [[[-101.38619, 20.47822], [-101.38509, 20.47783], [-101.3851, 20.47777], [-101.38591, 20.47757], [-101.38619, 20.47822]]]}}, {"id": "707790", "type": "Feature", "properties": {"id": "707790", "CVEGEO": "1104200850013017", "POBTOT": 0.0, "score_nse": 0.0, "NSE": null, "VIVTOT": 0.0, "GRAPROES": 0.0, "_ent": "11", "_mun": "042", "_loc": "0085"}, "geometry": {"type": "Polygon", "coordinates": [[[-101.38608, 20.47745], [-101.38567, 20.47755], [-101.38484, 20.47586], [-101.38507, 20.4758], [-101.38573, 20.47715], [-101.38594, 20.4771], [-101.38608, 20.47745]]]}}, {"id": "707791", "type": "Feature", "properties": {"id": "707791", "CVEGEO": "1104200850013019", "POBTOT": 0.0, "score_nse": 0.0, "NSE": null, "VIVTOT": 0.0, "GRAPROES": 0.0, "_ent": "11", "_mun": "042", "_loc": "0085"}, "geometry": {"type": "Polygon", "coordinates": [[[-101.38606, 20.47789], [-101.38593, 20.47756], [-101.38649, 20.47744], [-101.38663, 20.47779], [-101.38606, 20.47789]]]}}, {"id": "707792", "type": "Feature", "properties": {"id": "707792", "CVEGEO": "1104200850013005", "POBTOT": 0.0, "score_nse": 0.0, "NSE": null, "VIVTOT": 0.0, "GRAPROES": 0.0, "_ent": "11", "_mun": "042", "_loc": "0085"}, "geometry": {"type": "Polygon", "coordinates": [[[-101.3883, 20.47737], [-101.38768, 20.47738], [-101.38709, 20.47851], [-101.3867, 20.47782], [-101.38714, 20.47771], [-101.38668, 20.47779], [-101.38654, 20.47744], [-101.38827, 20.47716], [-101.3883, 20.47737]]]}}, {"id": "707793", "type": "Feature", "properties": {"id": "707793", "CVEGEO": "1104200850013020", "POBTOT": 0.0, "score_nse": 0.0, "NSE": null, "VIVTOT": 0.0, "GRAPROES": 0.0, "_ent": "11", "_mun": "042", "_loc": "0085"}, "geometry": {"type": "Polygon", "coordinates": [[[-101.38686, 20.4784], [-101.38622, 20.47823], [-101.38609, 20.47793], [-101.38665, 20.47783], [-101.38686, 20.4784]]]}}, {"id": "707794", "type": "Feature", "properties": {"id": "707794", "CVEGEO": "1104200850013022", "POBTOT": 0.0, "score_nse": 0.0, "NSE": null, "VIVTOT": 0.0, "GRAPROES": 0.0, "_ent": "11", "_mun": "042", "_loc": "0085"}, "geometry": {"type": "Polygon", "coordinates": [[[-101.385, 20.47771], [-101.38463, 20.47779], [-101.38393, 20.47608], [-101.38431, 20.47599], [-101.385, 20.47771]]]}}]}