{"type": "FeatureCollection", "features": [{"id": "704980", "type": "Feature", "properties": {"id": "704980", "CVEGEO": "1104201000013012", "POBTOT": 0.0, "score_nse": 0.0, "NSE": null, "VIVTOT": 0.0, "GRAPROES": 0.0, "_ent": "11", "_mun": "042", "_loc": "0100"}, "geometry": {"type": "Polygon", "coordinates": [[[-101.3636, 20.50275], [-101.36397, 20.50114], [-101.36406, 20.50091], [-101.36462, 20.50132], [-101.36424, 20.50286], [-101.3636, 20.50275]]]}}, {"id": "705069", "type": "Feature", "properties": {"id": "705069", "CVEGEO": "1104201000013015", "POBTOT": 0.0, "score_nse": 0.0, "NSE": null, "VIVTOT": 0.0, "GRAPROES": 0.0, "_ent": "11", "_mun": "042", "_loc": "0100"}, "geometry": {"type": "Polygon", "coordinates": [[[-101.36578, 20.50432], [-101.36461, 20.50408], [-101.36472, 20.50372], [-101.36532, 20.50379], [-101.36472, 20.50369], [-101.3648, 20.50337], [-101.36541, 20.50347], [-101.36481, 20.50335], [-101.36489, 20.50299], [-101.3664, 20.5032], [-101.36578, 20.50432]]]}}, {"id": "705181", "type": "Feature", "properties": {"id": "705181", "CVEGEO": "1104201000013022", "POBTOT": 0.0, "score_nse": 0.0, "NSE": null, "VIVTOT": 0.0, "GRAPROES": 0.0, "_ent": "11", "_mun": "042", "_loc": "0100"}, "geometry": {"type": "Polygon", "coordinates": [[[-101.36541, 20.50873], [-101.36538, 20.50857], [-101.3645, 20.50861], [-101.36456, 20.50763], [-101.36421, 20.50514], [-101.36502, 20.50542], [-101.36588, 20.50867], [-101.36541, 20.50873]]]}}, {"id": "705182", "type": "Feature", "properties": {"id": "705182", "CVEGEO": "1104201000013021", "POBTOT": 0.0, "score_nse": 0.0, "NSE": null, "VIVTOT": 0.0, "GRAPROES": 0.0, "_ent": "11", "_mun": "042", "_loc": "0100"}, "geometry": {"type": "Polygon", "coordinates": [[[-101.3659, 20.50308], [-101.36606, 20.50225], [-101.36504, 20.50226], [-101.36509, 20.50156], [-101.36524, 20.5014], [-101.36634, 20.50124], [-101.36638, 20.50315], [-101.3659, 20.50308]]]}}, {"id": "705183", "type": "Feature", "properties": {"id": "705183", "CVEGEO": "1104201000013020", "POBTOT": 0.0, "score_nse": 0.0, "NSE": null, "VIVTOT": 0.0, "GRAPROES": 0.0, "_ent": "11", "_mun": "042", "_loc": "0100"}, "geometry": {"type": "Polygon", "coordinates": [[[-101.36382, 20.5006], [-101.36398, 20.50035], [-101.36407, 20.50081], [-101.36382, 20.5006]]]}}, {"id": "705184", "type": "Feature", "properties": {"id": "705184", "CVEGEO": "1104201000013018", "POBTOT": 0.0, "score_nse": 0.0, "NSE": null, "VIVTOT": 0.0, "GRAPROES": 0.0, "_ent": "11", "_mun": "042", "_loc": "0100"}, "geometry": {"type": "Polygon", "coordinates": [[[-101.36003, 20.50281], [-101.36042, 20.50172], [-101.36078, 20.50185], [-101.36036, 20.50291], [-101.36003, 20.50281]]]}}, {"id": "705185", "type": "Feature", "properties": {"id": "705185", "CVEGEO": "1104201000013017", "POBTOT": 0.0, "score_nse": 0.0, "NSE": null, "VIVTOT": 0.0, "GRAPROES": 0.0, "_ent": "11", "_mun": "042", "_loc": "0100"}, "geometry": {"type": "Polygon", "coordinates": [[[-101.36277, 20.50701], [-101.3624, 20.50697], [-101.36267, 20.50758], [-101.3618, 20.50783], [-101.36125, 20.50649], [-101.36168, 20.50635], [-101.36121, 20.50641], [-101.36102, 20.50597], [-101.36205, 20.5058], [-101.36099, 20.50591], [-101.36085, 20.5049], [-101.36112, 20.50447], [-101.36166, 20.50457], [-101.36173, 20.50436], [-101.36214, 20.50444], [-101.36344, 20.50499], [-101.36414, 20.50507], [-101.3642, 20.50532], [-101.36297, 20.50534], [-101.36422, 20.50536], [-101.36425, 20.50577], [-101.36256, 20.50578], [-101.36277, 20.50701]]]}}, {"id": "705186", "type": "Feature", "properties": {"id": "705186", "CVEGEO": "1104201000013016", "POBTOT": 0.0, "score_nse": 0.0, "NSE": null, "VIVTOT": 0.0, "GRAPROES": 0.0, "_ent": "11", "_mun": "042", "_loc": "0100"}, "geometry": {"type": "Polygon", "coordinates": [[[-101.36502, 20.50537], [-101.3642, 20.50508], [-101.36424, 20.50482], [-101.3646, 20.50414], [-101.3652, 20.50427], [-101.36502, 20.50537]]]}}, {"id": "705748", "type": "Feature", "properties": {"id": "705748", "CVEGEO": "1104201000013011", "POBTOT": 0.0, "score_nse": 0.0, "NSE": null, "VIVTOT": 0.0, "GRAPROES": 0.0, "_ent": "11", "_mun": "042", "_loc": "0100"}, "geometry": {"type": "Polygon", "coordinates": [[[-101.36243, 20.50258], [-101.36375, 20.5007], [-101.36402, 20.50089], [-101.36355, 20.50275], [-101.36243, 20.50258]]]}}, {"id": "705749", "type": "Feature", "properties": {"id": "705749", "CVEGEO": "1104201000013010", "POBTOT": 0.0, "score_nse": 0.0, "NSE": null, "VIVTOT": 0.0, "GRAPROES": 0.0, "_ent": "11", "_mun": "042", "_loc": "0100"}, "geometry": {"type": "Polygon", "coordinates": [[[-101.3627, 20.50125], [-101.36248, 20.50235], [-101.3609, 20.50184], [-101.36101, 20.50148], [-101.36209, 20.50192], [-101.36221, 20.50152], [-101.36239, 20.50155], [-101.36247, 20.50114], [-101.3627, 20.50125]]]}}, {"id": "705750", "type": "Feature", "properties": {"id": "705750", "CVEGEO": "1104201000013009", "POBTOT": 0.0, "score_nse": 0.0, "NSE": null, "VIVTOT": 0.0, "GRAPROES": 0.0, "_ent": "11", "_mun": "042", "_loc": "0100"}, "geometry": {"type": "Polygon", "coordinates": [[[-101.3604, 20.50292], [-101.36081, 20.50186], [-101.36118, 20.50201], [-101.36085, 20.50302], [-101.3604, 20.50292]]]}}, {"id": "705751", "type": "Feature", "properties": {"id": "705751", "CVEGEO": "1104201000013008", "POBTOT": 0.0, "score_nse": 0.0, "NSE": null, "VIVTOT": 0.0, "GRAPROES": 0.0, "_ent": "11", "_mun": "042", "_loc": "0100"}, "geometry": {"type": "Polygon", "coordinates": [[[-101.36415, 20.50502], [-101.36302, 20.50478], [-101.36307, 20.50464], [-101.36417, 20.50483], [-101.36415, 20.50502]]]}}, {"id": "705752", "type": "Feature", "properties": {"id": "705752", "CVEGEO": "1104201000013006", "POBTOT": 0.0, "score_nse": 0.0, "NSE": null, "VIVTOT": 0.0, "GRAPROES": 0.0, "_ent": "11", "_mun": "042", "_loc": "0100"}, "geometry": {"type": "Polygon", "coordinates": [[[-101.36383, 20.50473], [-101.36182, 20.50423], [-101.36192, 20.50376], [-101.36398, 20.50395], [-101.36383, 20.50473]]]}}, {"id": "705753", "type": "Feature", "properties": {"id": "705753", "CVEGEO": "1104201000013005", "POBTOT": 0.0, "score_nse": 0.0, "NSE": null, "VIVTOT": 0.0, "GRAPROES": 0.0, "_ent": "11", "_mun": "042", "_loc": "0100"}, "geometry": {"type": "Polygon", "coordinates": [[[-101.36388, 20.50474], [-101.36402, 20.50396], [-101.36456, 20.50401], [-101.36419, 20.5048], [-101.36388, 20.50474]]]}}, {"id": "705778", "type": "Feature", "properties": {"id": "705778", "CVEGEO": "1104201000013002", "POBTOT": 0.0, "score_nse": 0.0, "NSE": null, "VIVTOT": 0.0, "GRAPROES": 0.0, "_ent": "11", "_mun": "042", "_loc": "0100"}, "geometry": {"type": "Polygon", "coordinates": [[[-101.36152, 20.50372], [-101.3608, 20.50351], [-101.36126, 20.50201], [-101.36245, 20.5024], [-101.36152, 20.50372]]]}}, {"id": "705847", "type": "Feature", "properties": {"id": "705847", "CVEGEO": "1104201000013007", "POBTOT": 0.0, "score_nse": 0.0, "NSE": null, "VIVTOT": 0.0, "GRAPROES": 0.0, "_ent": "11", "_mun": "042", "_loc": "0100"}, "geometry": {"type": "Polygon", "coordinates": [[[-101.36215, 20.50299], [-101.36238, 20.50263], [-101.36423, 20.50291], [-101.36415, 20.50326], [-101.36215, 20.50299]]]}}, {"id": "706601", "type": "Feature", "properties": {"id": "706601", "CVEGEO": "1104201000013013", "POBTOT": 0.0, "score_nse": 0.0, "NSE": null, "VIVTOT": 0.0, "GRAPROES": 0.0, "_ent": "11", "_mun": "042", "_loc": "0100"}, "geometry": {"type": "Polygon", "coordinates": [[[-101.36429, 20.50286], [-101.36442, 20.50233], [-101.36466, 20.50136], [-101.36504, 20.50173], [-101.36482, 20.50293], [-101.36429, 20.50286]]]}}, {"id": "706769", "type": "Feature", "properties": {"id": "706769", "CVEGEO": "1104201000013004", "POBTOT": 0.0, "score_nse": 0.0, "NSE": null, "VIVTOT": 0.0, "GRAPROES": 0.0, "_ent": "11", "_mun": "042", "_loc": "0100"}, "geometry": {"type": "Polygon", "coordinates": [[[-101.36403, 20.50392], [-101.36428, 20.50291], [-101.36481, 20.50297], [-101.36456, 20.50397], [-101.36403, 20.50392]]]}}, {"id": "706770", "type": "Feature", "properties": {"id": "706770", "CVEGEO": "1104201000013003", "POBTOT": 0.0, "score_nse": 0.0, "NSE": null, "VIVTOT": 0.0, "GRAPROES": 0.0, "_ent": "11", "_mun": "042", "_loc": "0100"}, "geometry": {"type": "Polygon", "coordinates": [[[-101.36191, 20.50333], [-101.36212, 20.50302], [-101.36414, 20.50329], [-101.36407, 20.50358], [-101.36191, 20.50333]]]}}, {"id": "706785", "type": "Feature", "properties": {"id": "706785", "CVEGEO": "1104201000013001", "POBTOT": 0.0, "score_nse": 0.0, "NSE": null, "VIVTOT": 0.0, "GRAPROES": 0.0, "_ent": "11", "_mun": "042", "_loc": "0100"}, "geometry": {"type": "Polygon", "coordinates": [[[-101.36398, 20.50392], [-101.36352, 20.50389], [-101.36164, 20.5037], [-101.36188, 20.50338], [-101.36406, 20.50361], [-101.36398, 20.50392]]]}}, {"id": "707026", "type": "Feature", "properties": {"id": "707026", "CVEGEO": "1104201000013014", "POBTOT": 0.0, "score_nse": 0.0, "NSE": null, "VIVTOT": 0.0, "GRAPROES": 0.0, "_ent": "11", "_mun": "042", "_loc": "0100"}, "geometry": {"type": "Polygon", "coordinates": [[[-101.36491, 20.50294], [-101.36503, 20.50232], [-101.36599, 20.50231], [-101.36584, 20.50307], [-101.36491, 20.50294]]]}}, {"id": "707972", "type": "Feature", "properties": {"id": "707972", "CVEGEO": "1104201000013019", "POBTOT": 0.0, "score_nse": 0.0, "NSE": null, "VIVTOT": 0.0, "GRAPROES": 0.0, "_ent": "11", "_mun": "042", "_loc": "0100"}, "geometry": {"type": "Polygon", "coordinates": [[[-101.36411, 20.49993], [-101.36387, 20.50021], [-101.36352, 20.49993], [-101.36167, 20.49935], [-101.36235, 20.49888], [-101.36283, 20.49889], [-101.36425, 20.49937], [-101.36411, 20.49993]]]}}]}