{"type": "FeatureCollection", "features": [{"id": "1736537", "type": "Feature", "properties": {"id": "1736537", "CVEGEO": "211830010002A015", "POBTOT": 0.0, "score_nse": 0.0, "NSE": null, "VIVTOT": 0.0, "GRAPROES": 0.0, "_ent": "21", "_mun": "183", "_loc": "0010"}, "geometry": {"type": "Polygon", "coordinates": [[[-97.90334, 20.11128], [-97.90369, 20.11119], [-97.90357, 20.11203], [-97.90336, 20.11199], [-97.90334, 20.11128]]]}}, {"id": "1736544", "type": "Feature", "properties": {"id": "1736544", "CVEGEO": "211830010002A011", "POBTOT": 0.0, "score_nse": 0.0, "NSE": null, "VIVTOT": 0.0, "GRAPROES": 0.0, "_ent": "21", "_mun": "183", "_loc": "0010"}, "geometry": {"type": "Polygon", "coordinates": [[[-97.90224, 20.10958], [-97.90232, 20.10911], [-97.90354, 20.11022], [-97.90298, 20.11084], [-97.90243, 20.11021], [-97.90224, 20.10958]]]}}, {"id": "1736545", "type": "Feature", "properties": {"id": "1736545", "CVEGEO": "211830010002A001", "POBTOT": 0.0, "score_nse": 0.0, "NSE": null, "VIVTOT": 0.0, "GRAPROES": 0.0, "_ent": "21", "_mun": "183", "_loc": "0010"}, "geometry": {"type": "Polygon", "coordinates": [[[-97.90388, 20.11123], [-97.90443, 20.11131], [-97.90468, 20.11155], [-97.90435, 20.11199], [-97.90388, 20.11123]]]}}, {"id": "1736546", "type": "Feature", "properties": {"id": "1736546", "CVEGEO": "211830010002A003", "POBTOT": 0.0, "score_nse": 0.0, "NSE": null, "VIVTOT": 0.0, "GRAPROES": 0.0, "_ent": "21", "_mun": "183", "_loc": "0010"}, "geometry": {"type": "Polygon", "coordinates": [[[-97.90359, 20.11029], [-97.90378, 20.11115], [-97.90333, 20.11123], [-97.90303, 20.11089], [-97.90359, 20.11029]]]}}, {"id": "1736547", "type": "Feature", "properties": {"id": "1736547", "CVEGEO": "211830010002A004", "POBTOT": 0.0, "score_nse": 0.0, "NSE": null, "VIVTOT": 0.0, "GRAPROES": 0.0, "_ent": "21", "_mun": "183", "_loc": "0010"}, "geometry": {"type": "Polygon", "coordinates": [[[-97.90384, 20.11113], [-97.90368, 20.11034], [-97.9042, 20.11091], [-97.90404, 20.11117], [-97.90384, 20.11113]]]}}, {"id": "1736548", "type": "Feature", "properties": {"id": "1736548", "CVEGEO": "211830010002A002", "POBTOT": 0.0, "score_nse": 0.0, "NSE": null, "VIVTOT": 0.0, "GRAPROES": 0.0, "_ent": "21", "_mun": "183", "_loc": "0010"}, "geometry": {"type": "Polygon", "coordinates": [[[-97.90381, 20.1112], [-97.90429, 20.11202], [-97.90412, 20.11224], [-97.90369, 20.11169], [-97.90381, 20.1112]]]}}, {"id": "1736549", "type": "Feature", "properties": {"id": "1736549", "CVEGEO": "211830010002A005", "POBTOT": 0.0, "score_nse": 0.0, "NSE": null, "VIVTOT": 0.0, "GRAPROES": 0.0, "_ent": "21", "_mun": "183", "_loc": "0010"}, "geometry": {"type": "Polygon", "coordinates": [[[-97.90684, 20.11172], [-97.90679, 20.11266], [-97.905, 20.11171], [-97.90441, 20.11122], [-97.90408, 20.11117], [-97.90423, 20.11094], [-97.90448, 20.11109], [-97.90501, 20.11036], [-97.90449, 20.11099], [-97.90416, 20.11067], [-97.90491, 20.10973], [-97.90573, 20.10985], [-97.90644, 20.11041], [-97.90704, 20.11144], [-97.90684, 20.11172]]]}}, {"id": "1736550", "type": "Feature", "properties": {"id": "1736550", "CVEGEO": "211830010002A009", "POBTOT": 0.0, "score_nse": 0.0, "NSE": null, "VIVTOT": 0.0, "GRAPROES": 0.0, "_ent": "21", "_mun": "183", "_loc": "0010"}, "geometry": {"type": "Polygon", "coordinates": [[[-97.90746, 20.1123], [-97.90725, 20.11287], [-97.90684, 20.11269], [-97.90685, 20.11188], [-97.90708, 20.11151], [-97.90746, 20.1123]]]}}, {"id": "1736554", "type": "Feature", "properties": {"id": "1736554", "CVEGEO": "211830010002A014", "POBTOT": 0.0, "score_nse": 0.0, "NSE": null, "VIVTOT": 0.0, "GRAPROES": 0.0, "_ent": "21", "_mun": "183", "_loc": "0010"}, "geometry": {"type": "Polygon", "coordinates": [[[-97.90749, 20.11236], [-97.90757, 20.11255], [-97.90783, 20.11316], [-97.9073, 20.11289], [-97.90749, 20.11236]]]}}, {"id": "1736555", "type": "Feature", "properties": {"id": "1736555", "CVEGEO": "211830010002A018", "POBTOT": 0.0, "score_nse": 0.0, "NSE": null, "VIVTOT": 0.0, "GRAPROES": 0.0, "_ent": "21", "_mun": "183", "_loc": "0010"}, "geometry": {"type": "Polygon", "coordinates": [[[-97.90293, 20.10955], [-97.90264, 20.1093], [-97.90292, 20.10887], [-97.90328, 20.10911], [-97.90293, 20.10955]]]}}, {"id": "1736563", "type": "Feature", "properties": {"id": "1736563", "CVEGEO": "211830010002A022", "POBTOT": 0.0, "score_nse": 0.0, "NSE": null, "VIVTOT": 0.0, "GRAPROES": 0.0, "_ent": "21", "_mun": "183", "_loc": "0010"}, "geometry": {"type": "Polygon", "coordinates": [[[-97.90355, 20.10922], [-97.90392, 20.10867], [-97.90414, 20.10888], [-97.90381, 20.10938], [-97.90355, 20.10922]]]}}, {"id": "1736575", "type": "Feature", "properties": {"id": "1736575", "CVEGEO": "211830010002A008", "POBTOT": 0.0, "score_nse": 0.0, "NSE": null, "VIVTOT": 0.0, "GRAPROES": 0.0, "_ent": "21", "_mun": "183", "_loc": "0010"}, "geometry": {"type": "Polygon", "coordinates": [[[-97.90342, 20.10998], [-97.90295, 20.10957], [-97.9033, 20.10913], [-97.90379, 20.10942], [-97.90342, 20.10998]]]}}, {"id": "1736580", "type": "Feature", "properties": {"id": "1736580", "CVEGEO": "211830010002A017", "POBTOT": 0.0, "score_nse": 0.0, "NSE": null, "VIVTOT": 0.0, "GRAPROES": 0.0, "_ent": "21", "_mun": "183", "_loc": "0010"}, "geometry": {"type": "Polygon", "coordinates": [[[-97.90035, 20.10793], [-97.89976, 20.10787], [-97.89988, 20.1075], [-97.90039, 20.10745], [-97.90207, 20.10858], [-97.90239, 20.11027], [-97.90222, 20.1104], [-97.90152, 20.11037], [-97.90126, 20.10903], [-97.90051, 20.10857], [-97.90035, 20.10793]]]}}, {"id": "1736592", "type": "Feature", "properties": {"id": "1736592", "CVEGEO": "211830010002A016", "POBTOT": 0.0, "score_nse": 0.0, "NSE": null, "VIVTOT": 0.0, "GRAPROES": 0.0, "_ent": "21", "_mun": "183", "_loc": "0010"}, "geometry": {"type": "Polygon", "coordinates": [[[-97.90201, 20.11217], [-97.90134, 20.11185], [-97.90123, 20.11156], [-97.90177, 20.11072], [-97.90242, 20.11032], [-97.90325, 20.11127], [-97.90331, 20.11181], [-97.9032, 20.11222], [-97.90287, 20.11235], [-97.90219, 20.11201], [-97.90201, 20.11217]]]}}, {"id": "1736593", "type": "Feature", "properties": {"id": "1736593", "CVEGEO": "211830010002A012", "POBTOT": 0.0, "score_nse": 0.0, "NSE": null, "VIVTOT": 0.0, "GRAPROES": 0.0, "_ent": "21", "_mun": "183", "_loc": "0010"}, "geometry": {"type": "Polygon", "coordinates": [[[-97.90352, 20.10922], [-97.9029, 20.10883], [-97.9026, 20.10925], [-97.9023, 20.10899], [-97.90216, 20.10861], [-97.9034, 20.1085], [-97.9039, 20.10865], [-97.90352, 20.10922]]]}}, {"id": "1736595", "type": "Feature", "properties": {"id": "1736595", "CVEGEO": "211830010002A021", "POBTOT": 0.0, "score_nse": 0.0, "NSE": null, "VIVTOT": 0.0, "GRAPROES": 0.0, "_ent": "21", "_mun": "183", "_loc": "0010"}, "geometry": {"type": "Polygon", "coordinates": [[[-97.90348, 20.11325], [-97.90329, 20.11217], [-97.90335, 20.11204], [-97.90362, 20.11207], [-97.90376, 20.11174], [-97.90376, 20.11197], [-97.90408, 20.11228], [-97.90391, 20.11287], [-97.90348, 20.11325]]]}}, {"id": "1736602", "type": "Feature", "properties": {"id": "1736602", "CVEGEO": "211830010002A006", "POBTOT": 0.0, "score_nse": 0.0, "NSE": null, "VIVTOT": 0.0, "GRAPROES": 0.0, "_ent": "21", "_mun": "183", "_loc": "0010"}, "geometry": {"type": "Polygon", "coordinates": [[[-97.90784, 20.11325], [-97.90786, 20.11399], [-97.90767, 20.11705], [-97.90715, 20.11633], [-97.90695, 20.1153], [-97.90504, 20.11305], [-97.90439, 20.11206], [-97.90475, 20.1116], [-97.90574, 20.11212], [-97.90538, 20.11255], [-97.90553, 20.11268], [-97.90545, 20.11256], [-97.90578, 20.11216], [-97.90784, 20.11325]]]}}, {"id": "1736603", "type": "Feature", "properties": {"id": "1736603", "CVEGEO": "211830010002A019", "POBTOT": 0.0, "score_nse": 0.0, "NSE": null, "VIVTOT": 0.0, "GRAPROES": 0.0, "_ent": "21", "_mun": "183", "_loc": "0010"}, "geometry": {"type": "Polygon", "coordinates": [[[-97.90412, 20.11058], [-97.90371, 20.11026], [-97.90428, 20.10949], [-97.90366, 20.11023], [-97.90347, 20.11002], [-97.90423, 20.10894], [-97.90484, 20.10968], [-97.90412, 20.11058]]]}}]}