{"type": "FeatureCollection", "features": [{"id": "1473895", "type": "Feature", "properties": {"id": "1473895", "CVEGEO": "1903302630862026", "POBTOT": 0.0, "score_nse": 0.0, "NSE": null, "VIVTOT": 0.0, "GRAPROES": 0.0, "_ent": "19", "_mun": "033", "_loc": "0263"}, "geometry": {"type": "Polygon", "coordinates": [[[-99.58948, 24.80998], [-99.58916, 24.81029], [-99.58892, 24.80991], [-99.58928, 24.80962], [-99.58948, 24.80998]]]}}, {"id": "1473896", "type": "Feature", "properties": {"id": "1473896", "CVEGEO": "1903302630862025", "POBTOT": 0.0, "score_nse": 0.0, "NSE": null, "VIVTOT": 0.0, "GRAPROES": 0.0, "_ent": "19", "_mun": "033", "_loc": "0263"}, "geometry": {"type": "Polygon", "coordinates": [[[-99.58953, 24.80992], [-99.58933, 24.80957], [-99.58971, 24.80922], [-99.58988, 24.80958], [-99.58953, 24.80992]]]}}, {"id": "1474234", "type": "Feature", "properties": {"id": "1474234", "CVEGEO": "1903302630862028", "POBTOT": 0.0, "score_nse": 0.0, "NSE": null, "VIVTOT": 0.0, "GRAPROES": 0.0, "_ent": "19", "_mun": "033", "_loc": "0263"}, "geometry": {"type": "Polygon", "coordinates": [[[-99.5893, 24.80951], [-99.58909, 24.80913], [-99.58944, 24.80881], [-99.58968, 24.80916], [-99.5893, 24.80951]]]}}, {"id": "1474235", "type": "Feature", "properties": {"id": "1474235", "CVEGEO": "1903302630862004", "POBTOT": 0.0, "score_nse": 0.0, "NSE": null, "VIVTOT": 0.0, "GRAPROES": 0.0, "_ent": "19", "_mun": "033", "_loc": "0263"}, "geometry": {"type": "Polygon", "coordinates": [[[-99.58406, 24.81374], [-99.58405, 24.81341], [-99.58444, 24.8134], [-99.58444, 24.81375], [-99.58406, 24.81374]]]}}, {"id": "1474362", "type": "Feature", "properties": {"id": "1474362", "CVEGEO": "1903302630862008", "POBTOT": 0.0, "score_nse": 0.0, "NSE": null, "VIVTOT": 0.0, "GRAPROES": 0.0, "_ent": "19", "_mun": "033", "_loc": "0263"}, "geometry": {"type": "Polygon", "coordinates": [[[-99.58403, 24.81288], [-99.58445, 24.81289], [-99.58445, 24.81332], [-99.58405, 24.81334], [-99.58403, 24.81288]]]}}, {"id": "1474995", "type": "Feature", "properties": {"id": "1474995", "CVEGEO": "1903302630862007", "POBTOT": 0.0, "score_nse": 0.0, "NSE": null, "VIVTOT": 0.0, "GRAPROES": 0.0, "_ent": "19", "_mun": "033", "_loc": "0263"}, "geometry": {"type": "Polygon", "coordinates": [[[-99.58507, 24.81331], [-99.58452, 24.81332], [-99.58453, 24.81289], [-99.58506, 24.8129], [-99.58507, 24.81331]]]}}, {"id": "1475002", "type": "Feature", "properties": {"id": "1475002", "CVEGEO": "1903302630862003", "POBTOT": 0.0, "score_nse": 0.0, "NSE": null, "VIVTOT": 0.0, "GRAPROES": 0.0, "_ent": "19", "_mun": "033", "_loc": "0263"}, "geometry": {"type": "Polygon", "coordinates": [[[-99.58452, 24.81375], [-99.58452, 24.81339], [-99.58507, 24.81338], [-99.58507, 24.81375], [-99.58452, 24.81375]]]}}, {"id": "1475003", "type": "Feature", "properties": {"id": "1475003", "CVEGEO": "1903302630862002", "POBTOT": 0.0, "score_nse": 0.0, "NSE": null, "VIVTOT": 0.0, "GRAPROES": 0.0, "_ent": "19", "_mun": "033", "_loc": "0263"}, "geometry": {"type": "Polygon", "coordinates": [[[-99.58513, 24.81337], [-99.58563, 24.81336], [-99.58566, 24.81376], [-99.58515, 24.81376], [-99.58513, 24.81337]]]}}, {"id": "1475004", "type": "Feature", "properties": {"id": "1475004", "CVEGEO": "1903302630862001", "POBTOT": 0.0, "score_nse": 0.0, "NSE": null, "VIVTOT": 0.0, "GRAPROES": 0.0, "_ent": "19", "_mun": "033", "_loc": "0263"}, "geometry": {"type": "Polygon", "coordinates": [[[-99.58572, 24.81337], [-99.58622, 24.81336], [-99.58623, 24.81377], [-99.58573, 24.81377], [-99.58572, 24.81337]]]}}, {"id": "1475035", "type": "Feature", "properties": {"id": "1475035", "CVEGEO": "1903302630862006", "POBTOT": 0.0, "score_nse": 0.0, "NSE": null, "VIVTOT": 0.0, "GRAPROES": 0.0, "_ent": "19", "_mun": "033", "_loc": "0263"}, "geometry": {"type": "Polygon", "coordinates": [[[-99.58563, 24.81329], [-99.58512, 24.81332], [-99.58511, 24.81288], [-99.58562, 24.81287], [-99.58563, 24.81329]]]}}, {"id": "1475036", "type": "Feature", "properties": {"id": "1475036", "CVEGEO": "1903302630862005", "POBTOT": 0.0, "score_nse": 0.0, "NSE": null, "VIVTOT": 0.0, "GRAPROES": 0.0, "_ent": "19", "_mun": "033", "_loc": "0263"}, "geometry": {"type": "Polygon", "coordinates": [[[-99.58622, 24.8133], [-99.58571, 24.81331], [-99.58569, 24.81286], [-99.5862, 24.81284], [-99.58622, 24.8133]]]}}, {"id": "1475142", "type": "Feature", "properties": {"id": "1475142", "CVEGEO": "1903302630862051", "POBTOT": 0.0, "score_nse": 0.0, "NSE": null, "VIVTOT": 0.0, "GRAPROES": 0.0, "_ent": "19", "_mun": "033", "_loc": "0263"}, "geometry": {"type": "Polygon", "coordinates": [[[-99.58905, 24.8113], [-99.58994, 24.81047], [-99.59055, 24.81089], [-99.58935, 24.81167], [-99.58905, 24.8113]]]}}, {"id": "1475143", "type": "Feature", "properties": {"id": "1475143", "CVEGEO": "1903302630862047", "POBTOT": 0.0, "score_nse": 0.0, "NSE": null, "VIVTOT": 0.0, "GRAPROES": 0.0, "_ent": "19", "_mun": "033", "_loc": "0263"}, "geometry": {"type": "Polygon", "coordinates": [[[-99.58778, 24.8123], [-99.58816, 24.81197], [-99.58845, 24.81238], [-99.58805, 24.81269], [-99.58778, 24.8123]]]}}, {"id": "1475144", "type": "Feature", "properties": {"id": "1475144", "CVEGEO": "1903302630862049", "POBTOT": 0.0, "score_nse": 0.0, "NSE": null, "VIVTOT": 0.0, "GRAPROES": 0.0, "_ent": "19", "_mun": "033", "_loc": "0263"}, "geometry": {"type": "Polygon", "coordinates": [[[-99.58851, 24.81234], [-99.58821, 24.81193], [-99.58857, 24.81162], [-99.58887, 24.81211], [-99.58851, 24.81234]]]}}, {"id": "1475145", "type": "Feature", "properties": {"id": "1475145", "CVEGEO": "1903302630862042", "POBTOT": 0.0, "score_nse": 0.0, "NSE": null, "VIVTOT": 0.0, "GRAPROES": 0.0, "_ent": "19", "_mun": "033", "_loc": "0263"}, "geometry": {"type": "Polygon", "coordinates": [[[-99.58633, 24.81283], [-99.58699, 24.81282], [-99.58697, 24.81328], [-99.5863, 24.8133], [-99.58633, 24.81283]]]}}, {"id": "1475146", "type": "Feature", "properties": {"id": "1475146", "CVEGEO": "1903302630862041", "POBTOT": 0.0, "score_nse": 0.0, "NSE": null, "VIVTOT": 0.0, "GRAPROES": 0.0, "_ent": "19", "_mun": "033", "_loc": "0263"}, "geometry": {"type": "Polygon", "coordinates": [[[-99.58635, 24.81335], [-99.58698, 24.81334], [-99.58697, 24.81378], [-99.5863, 24.81378], [-99.58635, 24.81335]]]}}, {"id": "1475147", "type": "Feature", "properties": {"id": "1475147", "CVEGEO": "1903302630862048", "POBTOT": 0.0, "score_nse": 0.0, "NSE": null, "VIVTOT": 0.0, "GRAPROES": 0.0, "_ent": "19", "_mun": "033", "_loc": "0263"}, "geometry": {"type": "Polygon", "coordinates": [[[-99.58812, 24.81194], [-99.58776, 24.81228], [-99.58747, 24.81185], [-99.58788, 24.81153], [-99.58812, 24.81194]]]}}, {"id": "1475148", "type": "Feature", "properties": {"id": "1475148", "CVEGEO": "1903302630862050", "POBTOT": 0.0, "score_nse": 0.0, "NSE": null, "VIVTOT": 0.0, "GRAPROES": 0.0, "_ent": "19", "_mun": "033", "_loc": "0263"}, "geometry": {"type": "Polygon", "coordinates": [[[-99.58893, 24.81207], [-99.58862, 24.81158], [-99.58898, 24.81133], [-99.58929, 24.81193], [-99.58893, 24.81207]]]}}, {"id": "1475485", "type": "Feature", "properties": {"id": "1475485", "CVEGEO": "1903302630862037", "POBTOT": 0.0, "score_nse": 0.0, "NSE": null, "VIVTOT": 0.0, "GRAPROES": 0.0, "_ent": "19", "_mun": "033", "_loc": "0263"}, "geometry": {"type": "Polygon", "coordinates": [[[-99.5894, 24.80877], [-99.58909, 24.80909], [-99.5888, 24.80852], [-99.58926, 24.80833], [-99.5894, 24.80877]]]}}, {"id": "1475486", "type": "Feature", "properties": {"id": "1475486", "CVEGEO": "1903302630862038", "POBTOT": 0.0, "score_nse": 0.0, "NSE": null, "VIVTOT": 0.0, "GRAPROES": 0.0, "_ent": "19", "_mun": "033", "_loc": "0263"}, "geometry": {"type": "Polygon", "coordinates": [[[-99.58905, 24.80912], [-99.58865, 24.80944], [-99.58807, 24.80876], [-99.58868, 24.80857], [-99.58905, 24.80912]]]}}, {"id": "1475487", "type": "Feature", "properties": {"id": "1475487", "CVEGEO": "1903302630862034", "POBTOT": 0.0, "score_nse": 0.0, "NSE": null, "VIVTOT": 0.0, "GRAPROES": 0.0, "_ent": "19", "_mun": "033", "_loc": "0263"}, "geometry": {"type": "Polygon", "coordinates": [[[-99.58861, 24.80947], [-99.58817, 24.80974], [-99.58772, 24.80886], [-99.58802, 24.80877], [-99.58861, 24.80947]]]}}, {"id": "1475488", "type": "Feature", "properties": {"id": "1475488", "CVEGEO": "1903302630862053", "POBTOT": 0.0, "score_nse": 0.0, "NSE": null, "VIVTOT": 0.0, "GRAPROES": 0.0, "_ent": "19", "_mun": "033", "_loc": "0263"}, "geometry": {"type": "Polygon", "coordinates": [[[-99.5879, 24.80929], [-99.5876, 24.80942], [-99.58744, 24.80893], [-99.58769, 24.80891], [-99.5879, 24.80929]]]}}, {"id": "1475489", "type": "Feature", "properties": {"id": "1475489", "CVEGEO": "1903302630862035", "POBTOT": 0.0, "score_nse": 0.0, "NSE": null, "VIVTOT": 0.0, "GRAPROES": 0.0, "_ent": "19", "_mun": "033", "_loc": "0263"}, "geometry": {"type": "Polygon", "coordinates": [[[-99.58811, 24.80978], [-99.58682, 24.81039], [-99.58671, 24.80994], [-99.58692, 24.80977], [-99.58788, 24.80936], [-99.58811, 24.80978]]]}}, {"id": "1475490", "type": "Feature", "properties": {"id": "1475490", "CVEGEO": "1903302630862046", "POBTOT": 0.0, "score_nse": 0.0, "NSE": null, "VIVTOT": 0.0, "GRAPROES": 0.0, "_ent": "19", "_mun": "033", "_loc": "0263"}, "geometry": {"type": "Polygon", "coordinates": [[[-99.58678, 24.8104], [-99.58629, 24.81058], [-99.58592, 24.81092], [-99.58571, 24.81007], [-99.58663, 24.80982], [-99.58678, 24.8104]]]}}, {"id": "1475491", "type": "Feature", "properties": {"id": "1475491", "CVEGEO": "1903302630862016", "POBTOT": 0.0, "score_nse": 0.0, "NSE": null, "VIVTOT": 0.0, "GRAPROES": 0.0, "_ent": "19", "_mun": "033", "_loc": "0263"}, "geometry": {"type": "Polygon", "coordinates": [[[-99.58626, 24.8118], [-99.58574, 24.81182], [-99.5857, 24.81125], [-99.58624, 24.8107], [-99.58626, 24.8118]]]}}, {"id": "1475492", "type": "Feature", "properties": {"id": "1475492", "CVEGEO": "1903302630862033", "POBTOT": 0.0, "score_nse": 0.0, "NSE": null, "VIVTOT": 0.0, "GRAPROES": 0.0, "_ent": "19", "_mun": "033", "_loc": "0263"}, "geometry": {"type": "Polygon", "coordinates": [[[-99.58588, 24.81095], [-99.58554, 24.81133], [-99.58514, 24.81025], [-99.58566, 24.81009], [-99.58588, 24.81095]]]}}, {"id": "1475493", "type": "Feature", "properties": {"id": "1475493", "CVEGEO": "1903302630862043", "POBTOT": 0.0, "score_nse": 0.0, "NSE": null, "VIVTOT": 0.0, "GRAPROES": 0.0, "_ent": "19", "_mun": "033", "_loc": "0263"}, "geometry": {"type": "Polygon", "coordinates": [[[-99.58705, 24.81275], [-99.58631, 24.81277], [-99.58632, 24.81232], [-99.58695, 24.81231], [-99.58705, 24.81275]]]}}, {"id": "1475494", "type": "Feature", "properties": {"id": "1475494", "CVEGEO": "1903302630862009", "POBTOT": 0.0, "score_nse": 0.0, "NSE": null, "VIVTOT": 0.0, "GRAPROES": 0.0, "_ent": "19", "_mun": "033", "_loc": "0263"}, "geometry": {"type": "Polygon", "coordinates": [[[-99.58624, 24.81234], [-99.58623, 24.81277], [-99.58574, 24.81278], [-99.58573, 24.81235], [-99.58624, 24.81234]]]}}, {"id": "1475495", "type": "Feature", "properties": {"id": "1475495", "CVEGEO": "1903302630862012", "POBTOT": 0.0, "score_nse": 0.0, "NSE": null, "VIVTOT": 0.0, "GRAPROES": 0.0, "_ent": "19", "_mun": "033", "_loc": "0263"}, "geometry": {"type": "Polygon", "coordinates": [[[-99.58449, 24.81281], [-99.58401, 24.81282], [-99.58399, 24.81241], [-99.58448, 24.8123], [-99.58449, 24.81281]]]}}, {"id": "1475496", "type": "Feature", "properties": {"id": "1475496", "CVEGEO": "1903302630862014", "POBTOT": 0.0, "score_nse": 0.0, "NSE": null, "VIVTOT": 0.0, "GRAPROES": 0.0, "_ent": "19", "_mun": "033", "_loc": "0263"}, "geometry": {"type": "Polygon", "coordinates": [[[-99.58568, 24.81231], [-99.58516, 24.81232], [-99.58497, 24.81213], [-99.58515, 24.81193], [-99.58567, 24.81188], [-99.58568, 24.81231]]]}}, {"id": "1475497", "type": "Feature", "properties": {"id": "1475497", "CVEGEO": "1903302630862052", "POBTOT": 0.0, "score_nse": 0.0, "NSE": null, "VIVTOT": 0.0, "GRAPROES": 0.0, "_ent": "19", "_mun": "033", "_loc": "0263"}, "geometry": {"type": "Polygon", "coordinates": [[[-99.58568, 24.81182], [-99.58519, 24.81188], [-99.58565, 24.81131], [-99.58568, 24.81182]]]}}, {"id": "1475498", "type": "Feature", "properties": {"id": "1475498", "CVEGEO": "1903302630862044", "POBTOT": 0.0, "score_nse": 0.0, "NSE": null, "VIVTOT": 0.0, "GRAPROES": 0.0, "_ent": "19", "_mun": "033", "_loc": "0263"}, "geometry": {"type": "Polygon", "coordinates": [[[-99.58698, 24.81228], [-99.58631, 24.81227], [-99.58631, 24.81185], [-99.587, 24.81193], [-99.58698, 24.81228]]]}}, {"id": "1475499", "type": "Feature", "properties": {"id": "1475499", "CVEGEO": "1903302630862013", "POBTOT": 0.0, "score_nse": 0.0, "NSE": null, "VIVTOT": 0.0, "GRAPROES": 0.0, "_ent": "19", "_mun": "033", "_loc": "0263"}, "geometry": {"type": "Polygon", "coordinates": [[[-99.58623, 24.81228], [-99.58572, 24.8123], [-99.5857, 24.81186], [-99.58624, 24.81183], [-99.58623, 24.81228]]]}}, {"id": "1475500", "type": "Feature", "properties": {"id": "1475500", "CVEGEO": "1903302630862045", "POBTOT": 0.0, "score_nse": 0.0, "NSE": null, "VIVTOT": 0.0, "GRAPROES": 0.0, "_ent": "19", "_mun": "033", "_loc": "0263"}, "geometry": {"type": "Polygon", "coordinates": [[[-99.58691, 24.81186], [-99.58633, 24.81179], [-99.58632, 24.81137], [-99.5869, 24.81142], [-99.58691, 24.81186]]]}}, {"id": "1475501", "type": "Feature", "properties": {"id": "1475501", "CVEGEO": "1903302630862017", "POBTOT": 0.0, "score_nse": 0.0, "NSE": null, "VIVTOT": 0.0, "GRAPROES": 0.0, "_ent": "19", "_mun": "033", "_loc": "0263"}, "geometry": {"type": "Polygon", "coordinates": [[[-99.58379, 24.81225], [-99.58347, 24.81219], [-99.58359, 24.81154], [-99.58393, 24.81156], [-99.58379, 24.81225]]]}}, {"id": "1475502", "type": "Feature", "properties": {"id": "1475502", "CVEGEO": "1903302630862019", "POBTOT": 0.0, "score_nse": 0.0, "NSE": null, "VIVTOT": 0.0, "GRAPROES": 0.0, "_ent": "19", "_mun": "033", "_loc": "0263"}, "geometry": {"type": "Polygon", "coordinates": [[[-99.59021, 24.81017], [-99.58985, 24.81048], [-99.58957, 24.80998], [-99.58993, 24.80962], [-99.59021, 24.81017]]]}}, {"id": "1475503", "type": "Feature", "properties": {"id": "1475503", "CVEGEO": "1903302630862054", "POBTOT": 0.0, "score_nse": 0.0, "NSE": null, "VIVTOT": 0.0, "GRAPROES": 0.0, "_ent": "19", "_mun": "033", "_loc": "0263"}, "geometry": {"type": "Polygon", "coordinates": [[[-99.58884, 24.80719], [-99.58827, 24.80736], [-99.58808, 24.80686], [-99.58863, 24.80669], [-99.58884, 24.80719]]]}}, {"id": "1475504", "type": "Feature", "properties": {"id": "1475504", "CVEGEO": "1903302630862039", "POBTOT": 0.0, "score_nse": 0.0, "NSE": null, "VIVTOT": 0.0, "GRAPROES": 0.0, "_ent": "19", "_mun": "033", "_loc": "0263"}, "geometry": {"type": "Polygon", "coordinates": [[[-99.58398, 24.81332], [-99.58345, 24.81332], [-99.58336, 24.8126], [-99.58395, 24.81241], [-99.58398, 24.81332]]]}}, {"id": "1475505", "type": "Feature", "properties": {"id": "1475505", "CVEGEO": "1903302630862040", "POBTOT": 0.0, "score_nse": 0.0, "NSE": null, "VIVTOT": 0.0, "GRAPROES": 0.0, "_ent": "19", "_mun": "033", "_loc": "0263"}, "geometry": {"type": "Polygon", "coordinates": [[[-99.58399, 24.81336], [-99.584, 24.81376], [-99.58347, 24.81377], [-99.58347, 24.81336], [-99.58399, 24.81336]]]}}, {"id": "1475506", "type": "Feature", "properties": {"id": "1475506", "CVEGEO": "1903302630862029", "POBTOT": 0.0, "score_nse": 0.0, "NSE": null, "VIVTOT": 0.0, "GRAPROES": 0.0, "_ent": "19", "_mun": "033", "_loc": "0263"}, "geometry": {"type": "Polygon", "coordinates": [[[-99.58865, 24.8095], [-99.58905, 24.80918], [-99.58926, 24.80961], [-99.5889, 24.80989], [-99.58865, 24.8095]]]}}, {"id": "1475507", "type": "Feature", "properties": {"id": "1475507", "CVEGEO": "1903302630862021", "POBTOT": 0.0, "score_nse": 0.0, "NSE": null, "VIVTOT": 0.0, "GRAPROES": 0.0, "_ent": "19", "_mun": "033", "_loc": "0263"}, "geometry": {"type": "Polygon", "coordinates": [[[-99.58876, 24.81074], [-99.58912, 24.81045], [-99.58936, 24.81093], [-99.58899, 24.8112], [-99.58876, 24.81074]]]}}, {"id": "1475508", "type": "Feature", "properties": {"id": "1475508", "CVEGEO": "1903302630862020", "POBTOT": 0.0, "score_nse": 0.0, "NSE": null, "VIVTOT": 0.0, "GRAPROES": 0.0, "_ent": "19", "_mun": "033", "_loc": "0263"}, "geometry": {"type": "Polygon", "coordinates": [[[-99.58956, 24.81005], [-99.58981, 24.81051], [-99.58941, 24.81088], [-99.58916, 24.8104], [-99.58956, 24.81005]]]}}, {"id": "1475509", "type": "Feature", "properties": {"id": "1475509", "CVEGEO": "1903302630862027", "POBTOT": 0.0, "score_nse": 0.0, "NSE": null, "VIVTOT": 0.0, "GRAPROES": 0.0, "_ent": "19", "_mun": "033", "_loc": "0263"}, "geometry": {"type": "Polygon", "coordinates": [[[-99.58874, 24.81071], [-99.58843, 24.81032], [-99.58889, 24.80999], [-99.58914, 24.81038], [-99.58874, 24.81071]]]}}, {"id": "1475510", "type": "Feature", "properties": {"id": "1475510", "CVEGEO": "1903302630862031", "POBTOT": 0.0, "score_nse": 0.0, "NSE": null, "VIVTOT": 0.0, "GRAPROES": 0.0, "_ent": "19", "_mun": "033", "_loc": "0263"}, "geometry": {"type": "Polygon", "coordinates": [[[-99.58833, 24.81033], [-99.58798, 24.8106], [-99.58765, 24.8101], [-99.588, 24.80999], [-99.58833, 24.81033]]]}}, {"id": "1475511", "type": "Feature", "properties": {"id": "1475511", "CVEGEO": "1903302630862030", "POBTOT": 0.0, "score_nse": 0.0, "NSE": null, "VIVTOT": 0.0, "GRAPROES": 0.0, "_ent": "19", "_mun": "033", "_loc": "0263"}, "geometry": {"type": "Polygon", "coordinates": [[[-99.58887, 24.80995], [-99.58841, 24.8103], [-99.58807, 24.80992], [-99.5886, 24.80953], [-99.58887, 24.80995]]]}}, {"id": "1475512", "type": "Feature", "properties": {"id": "1475512", "CVEGEO": "1903302630862023", "POBTOT": 0.0, "score_nse": 0.0, "NSE": null, "VIVTOT": 0.0, "GRAPROES": 0.0, "_ent": "19", "_mun": "033", "_loc": "0263"}, "geometry": {"type": "Polygon", "coordinates": [[[-99.58828, 24.8111], [-99.58799, 24.81066], [-99.58833, 24.81039], [-99.58864, 24.81076], [-99.58828, 24.8111]]]}}, {"id": "1475513", "type": "Feature", "properties": {"id": "1475513", "CVEGEO": "1903302630862055", "POBTOT": 0.0, "score_nse": 0.0, "NSE": null, "VIVTOT": 0.0, "GRAPROES": 0.0, "_ent": "19", "_mun": "033", "_loc": "0263"}, "geometry": {"type": "Polygon", "coordinates": [[[-99.58776, 24.80817], [-99.58718, 24.80833], [-99.58698, 24.80781], [-99.58758, 24.80764], [-99.58776, 24.80817]]]}}, {"id": "1475514", "type": "Feature", "properties": {"id": "1475514", "CVEGEO": "1903302630862056", "POBTOT": 0.0, "score_nse": 0.0, "NSE": null, "VIVTOT": 0.0, "GRAPROES": 0.0, "_ent": "19", "_mun": "033", "_loc": "0263"}, "geometry": {"type": "Polygon", "coordinates": [[[-99.58631, 24.80798], [-99.58572, 24.80815], [-99.58551, 24.8076], [-99.58611, 24.80742], [-99.58631, 24.80798]]]}}, {"id": "1475515", "type": "Feature", "properties": {"id": "1475515", "CVEGEO": "1903302630862057", "POBTOT": 0.0, "score_nse": 0.0, "NSE": null, "VIVTOT": 0.0, "GRAPROES": 0.0, "_ent": "19", "_mun": "033", "_loc": "0263"}, "geometry": {"type": "Polygon", "coordinates": [[[-99.58397, 24.80931], [-99.58275, 24.80967], [-99.58257, 24.80912], [-99.58377, 24.80875], [-99.58397, 24.80931]]]}}, {"id": "1475782", "type": "Feature", "properties": {"id": "1475782", "CVEGEO": "1903302630862024", "POBTOT": 0.0, "score_nse": 0.0, "NSE": null, "VIVTOT": 0.0, "GRAPROES": 0.0, "_ent": "19", "_mun": "033", "_loc": "0263"}, "geometry": {"type": "Polygon", "coordinates": [[[-99.58824, 24.81114], [-99.58777, 24.81157], [-99.58724, 24.81026], [-99.58759, 24.81011], [-99.58824, 24.81114]]]}}, {"id": "1475783", "type": "Feature", "properties": {"id": "1475783", "CVEGEO": "1903302630862058", "POBTOT": 0.0, "score_nse": 0.0, "NSE": null, "VIVTOT": 0.0, "GRAPROES": 0.0, "_ent": "19", "_mun": "033", "_loc": "0263"}, "geometry": {"type": "Polygon", "coordinates": [[[-99.58743, 24.81094], [-99.58695, 24.81091], [-99.58694, 24.81039], [-99.58719, 24.81029], [-99.58743, 24.81094]]]}}, {"id": "1475838", "type": "Feature", "properties": {"id": "1475838", "CVEGEO": "1903302630862059", "POBTOT": 0.0, "score_nse": 0.0, "NSE": null, "VIVTOT": 0.0, "GRAPROES": 0.0, "_ent": "19", "_mun": "033", "_loc": "0263"}, "geometry": {"type": "Polygon", "coordinates": [[[-99.58222, 24.81336], [-99.58339, 24.81336], [-99.5834, 24.81377], [-99.58223, 24.81377], [-99.58222, 24.81336]]]}}, {"id": "1475839", "type": "Feature", "properties": {"id": "1475839", "CVEGEO": "1903302630862060", "POBTOT": 0.0, "score_nse": 0.0, "NSE": null, "VIVTOT": 0.0, "GRAPROES": 0.0, "_ent": "19", "_mun": "033", "_loc": "0263"}, "geometry": {"type": "Polygon", "coordinates": [[[-99.58222, 24.8128], [-99.5833, 24.81267], [-99.58338, 24.81331], [-99.58222, 24.81332], [-99.58222, 24.8128]]]}}]}