{"type": "FeatureCollection", "features": [{"id": "259091", "type": "Feature", "properties": {"id": "259091", "CVEGEO": "0702700560059002", "POBTOT": 0.0, "score_nse": 0.0, "NSE": null, "VIVTOT": 0.0, "GRAPROES": 0.0, "_ent": "07", "_mun": "027", "_loc": "0056"}, "geometry": {"type": "Polygon", "coordinates": [[[-92.98946, 16.67907], [-92.99034, 16.67885], [-92.99016, 16.67926], [-92.99016, 16.67964], [-92.99042, 16.67882], [-92.99074, 16.67871], [-92.99053, 16.6792], [-92.99079, 16.67869], [-92.99211, 16.67822], [-92.99156, 16.67952], [-92.99216, 16.67819], [-92.99294, 16.67791], [-92.99246, 16.67881], [-92.99236, 16.67911], [-92.993, 16.67789], [-92.99366, 16.67767], [-92.99378, 16.67971], [-92.99287, 16.67998], [-92.99291, 16.68016], [-92.98859, 16.68099], [-92.98882, 16.67901], [-92.98946, 16.67907]]]}}, {"id": "259092", "type": "Feature", "properties": {"id": "259092", "CVEGEO": "0702700560059003", "POBTOT": 0.0, "score_nse": 0.0, "NSE": null, "VIVTOT": 0.0, "GRAPROES": 0.0, "_ent": "07", "_mun": "027", "_loc": "0056"}, "geometry": {"type": "Polygon", "coordinates": [[[-92.99382, 16.67762], [-92.9979, 16.67632], [-92.99814, 16.67674], [-92.99807, 16.67698], [-92.99566, 16.67741], [-92.99468, 16.67781], [-92.99382, 16.67871], [-92.99374, 16.67767], [-92.99434, 16.67792], [-92.99382, 16.67762]]]}}, {"id": "259093", "type": "Feature", "properties": {"id": "259093", "CVEGEO": "0702700560059004", "POBTOT": 0.0, "score_nse": 0.0, "NSE": null, "VIVTOT": 0.0, "GRAPROES": 0.0, "_ent": "07", "_mun": "027", "_loc": "0056"}, "geometry": {"type": "Polygon", "coordinates": [[[-92.9885, 16.67813], [-92.98819, 16.67877], [-92.98777, 16.6787], [-92.98783, 16.67853], [-92.98738, 16.67831], [-92.98765, 16.67775], [-92.9885, 16.67813]]]}}, {"id": "259094", "type": "Feature", "properties": {"id": "259094", "CVEGEO": "0702700560059005", "POBTOT": 0.0, "score_nse": 0.0, "NSE": null, "VIVTOT": 0.0, "GRAPROES": 0.0, "_ent": "07", "_mun": "027", "_loc": "0056"}, "geometry": {"type": "Polygon", "coordinates": [[[-92.99819, 16.67675], [-92.99796, 16.6763], [-92.99901, 16.67593], [-92.99889, 16.67644], [-92.99909, 16.67684], [-92.99809, 16.67713], [-92.99819, 16.67675]]]}}, {"id": "259095", "type": "Feature", "properties": {"id": "259095", "CVEGEO": "0702700560059006", "POBTOT": 0.0, "score_nse": 0.0, "NSE": null, "VIVTOT": 0.0, "GRAPROES": 0.0, "_ent": "07", "_mun": "027", "_loc": "0056"}, "geometry": {"type": "Polygon", "coordinates": [[[-93.00008, 16.67631], [-92.9997, 16.67675], [-92.99905, 16.6767], [-92.99893, 16.67646], [-92.99906, 16.67592], [-92.99938, 16.67572], [-93.00008, 16.67631]]]}}, {"id": "259096", "type": "Feature", "properties": {"id": "259096", "CVEGEO": "0702700560059008", "POBTOT": 0.0, "score_nse": 0.0, "NSE": null, "VIVTOT": 0.0, "GRAPROES": 0.0, "_ent": "07", "_mun": "027", "_loc": "0056"}, "geometry": {"type": "Polygon", "coordinates": [[[-92.98779, 16.67981], [-92.98809, 16.6789], [-92.98877, 16.679], [-92.98861, 16.67964], [-92.98805, 16.67954], [-92.98797, 16.67983], [-92.98779, 16.67981]]]}}, {"id": "259097", "type": "Feature", "properties": {"id": "259097", "CVEGEO": "0702700560059009", "POBTOT": 0.0, "score_nse": 0.0, "NSE": null, "VIVTOT": 0.0, "GRAPROES": 0.0, "_ent": "07", "_mun": "027", "_loc": "0056"}, "geometry": {"type": "Polygon", "coordinates": [[[-92.98723, 16.67909], [-92.98734, 16.67876], [-92.98806, 16.67889], [-92.98777, 16.67973], [-92.98755, 16.67982], [-92.98728, 16.67978], [-92.98752, 16.67917], [-92.98723, 16.67909]]]}}, {"id": "259098", "type": "Feature", "properties": {"id": "259098", "CVEGEO": "0702700560059011", "POBTOT": 0.0, "score_nse": 0.0, "NSE": null, "VIVTOT": 0.0, "GRAPROES": 0.0, "_ent": "07", "_mun": "027", "_loc": "0056"}, "geometry": {"type": "Polygon", "coordinates": [[[-92.98505, 16.67874], [-92.98401, 16.67824], [-92.9847, 16.67761], [-92.98494, 16.67801], [-92.98552, 16.67831], [-92.98505, 16.67874]]]}}, {"id": "259099", "type": "Feature", "properties": {"id": "259099", "CVEGEO": "0702700560059012", "POBTOT": 0.0, "score_nse": 0.0, "NSE": null, "VIVTOT": 0.0, "GRAPROES": 0.0, "_ent": "07", "_mun": "027", "_loc": "0056"}, "geometry": {"type": "Polygon", "coordinates": [[[-92.98713, 16.67833], [-92.98701, 16.67859], [-92.98578, 16.67828], [-92.98605, 16.6775], [-92.98681, 16.67772], [-92.98608, 16.67745], [-92.9861, 16.67703], [-92.98699, 16.67746], [-92.98611, 16.67699], [-92.98614, 16.6765], [-92.98782, 16.6772], [-92.98733, 16.67825], [-92.98734, 16.67839], [-92.98775, 16.67854], [-92.98773, 16.67869], [-92.98706, 16.67859], [-92.98713, 16.67833]]]}}, {"id": "259215", "type": "Feature", "properties": {"id": "259215", "CVEGEO": "0702700560059007", "POBTOT": 0.0, "score_nse": 0.0, "NSE": null, "VIVTOT": 0.0, "GRAPROES": 0.0, "_ent": "07", "_mun": "027", "_loc": "0056"}, "geometry": {"type": "Polygon", "coordinates": [[[-92.99608, 16.67651], [-92.99687, 16.6757], [-92.99727, 16.67594], [-92.99836, 16.67446], [-92.9994, 16.67537], [-92.99977, 16.67524], [-92.99896, 16.67583], [-92.99809, 16.67615], [-92.99831, 16.67599], [-92.99838, 16.67579], [-92.99786, 16.67623], [-92.99761, 16.67598], [-92.99778, 16.67625], [-92.9961, 16.67678], [-92.99608, 16.67651]]]}}, {"id": "259216", "type": "Feature", "properties": {"id": "259216", "CVEGEO": "0702700560059010", "POBTOT": 0.0, "score_nse": 0.0, "NSE": null, "VIVTOT": 0.0, "GRAPROES": 0.0, "_ent": "07", "_mun": "027", "_loc": "0056"}, "geometry": {"type": "Polygon", "coordinates": [[[-92.98628, 16.67859], [-92.98606, 16.67956], [-92.98567, 16.6795], [-92.98598, 16.67968], [-92.98546, 16.67989], [-92.98516, 16.67983], [-92.98498, 16.67905], [-92.98515, 16.67873], [-92.98557, 16.6783], [-92.98593, 16.67845], [-92.98583, 16.6788], [-92.9857, 16.67898], [-92.98566, 16.67913], [-92.98587, 16.67879], [-92.98597, 16.67847], [-92.98628, 16.67859]]]}}]}