{"type": "FeatureCollection", "features": [{"id": "2279041", "type": "Feature", "properties": {"id": "2279041", "CVEGEO": "3005600030011006", "POBTOT": 0.0, "score_nse": 0.0, "NSE": null, "VIVTOT": 0.0, "GRAPROES": 0.0, "_ent": "30", "_mun": "056", "_loc": "0003"}, "geometry": {"type": "Polygon", "coordinates": [[[-98.5133, 21.25827], [-98.51221, 21.25849], [-98.51109, 21.25917], [-98.51093, 21.25893], [-98.51149, 21.25871], [-98.51214, 21.25817], [-98.51232, 21.25826], [-98.51318, 21.2575], [-98.5133, 21.25827]]]}}, {"id": "2279042", "type": "Feature", "properties": {"id": "2279042", "CVEGEO": "3005600030011005", "POBTOT": 0.0, "score_nse": 0.0, "NSE": null, "VIVTOT": 0.0, "GRAPROES": 0.0, "_ent": "30", "_mun": "056", "_loc": "0003"}, "geometry": {"type": "Polygon", "coordinates": [[[-98.51337, 21.25808], [-98.51323, 21.25747], [-98.51371, 21.25734], [-98.51383, 21.25789], [-98.51337, 21.25808]]]}}, {"id": "2279043", "type": "Feature", "properties": {"id": "2279043", "CVEGEO": "3005600030011004", "POBTOT": 0.0, "score_nse": 0.0, "NSE": null, "VIVTOT": 0.0, "GRAPROES": 0.0, "_ent": "30", "_mun": "056", "_loc": "0003"}, "geometry": {"type": "Polygon", "coordinates": [[[-98.51121, 21.25768], [-98.51116, 21.25711], [-98.51262, 21.25669], [-98.51292, 21.25732], [-98.51121, 21.25768]]]}}, {"id": "2279044", "type": "Feature", "properties": {"id": "2279044", "CVEGEO": "3005600030011003", "POBTOT": 0.0, "score_nse": 0.0, "NSE": null, "VIVTOT": 0.0, "GRAPROES": 0.0, "_ent": "30", "_mun": "056", "_loc": "0003"}, "geometry": {"type": "Polygon", "coordinates": [[[-98.51155, 21.25858], [-98.51082, 21.2589], [-98.5104, 21.25797], [-98.51077, 21.25785], [-98.51089, 21.25812], [-98.51083, 21.25784], [-98.51127, 21.25774], [-98.51155, 21.25858]]]}}, {"id": "2279045", "type": "Feature", "properties": {"id": "2279045", "CVEGEO": "3005600030011002", "POBTOT": 0.0, "score_nse": 0.0, "NSE": null, "VIVTOT": 0.0, "GRAPROES": 0.0, "_ent": "30", "_mun": "056", "_loc": "0003"}, "geometry": {"type": "Polygon", "coordinates": [[[-98.51313, 21.25747], [-98.51229, 21.25816], [-98.51186, 21.25763], [-98.51295, 21.25738], [-98.51313, 21.25747]]]}}, {"id": "2279146", "type": "Feature", "properties": {"id": "2279146", "CVEGEO": "3005600030011001", "POBTOT": 0.0, "score_nse": 0.0, "NSE": null, "VIVTOT": 0.0, "GRAPROES": 0.0, "_ent": "30", "_mun": "056", "_loc": "0003"}, "geometry": {"type": "Polygon", "coordinates": [[[-98.51211, 21.25809], [-98.51162, 21.25855], [-98.51133, 21.25771], [-98.5118, 21.25764], [-98.51211, 21.25809]]]}}, {"id": "2279188", "type": "Feature", "properties": {"id": "2279188", "CVEGEO": "3005600030011007", "POBTOT": 0.0, "score_nse": 0.0, "NSE": null, "VIVTOT": 0.0, "GRAPROES": 0.0, "_ent": "30", "_mun": "056", "_loc": "0003"}, "geometry": {"type": "Polygon", "coordinates": [[[-98.51077, 21.25891], [-98.51057, 21.259], [-98.51023, 21.25802], [-98.51035, 21.25798], [-98.51077, 21.25891]]]}}]}