{"type": "FeatureCollection", "features": [{"id": "1134190", "type": "Feature", "properties": {"id": "1134190", "CVEGEO": "1506200090103030", "POBTOT": 0.0, "score_nse": 0.0, "NSE": null, "VIVTOT": 0.0, "GRAPROES": 0.0, "_ent": "15", "_mun": "062", "_loc": "0009"}, "geometry": {"type": "Polygon", "coordinates": [[[-99.44597, 19.263], [-99.44664, 19.26306], [-99.44689, 19.26348], [-99.44595, 19.26347], [-99.44597, 19.263]]]}}, {"id": "1134313", "type": "Feature", "properties": {"id": "1134313", "CVEGEO": "1506200090103035", "POBTOT": 0.0, "score_nse": 0.0, "NSE": null, "VIVTOT": 0.0, "GRAPROES": 0.0, "_ent": "15", "_mun": "062", "_loc": "0009"}, "geometry": {"type": "Polygon", "coordinates": [[[-99.44327, 19.2624], [-99.44447, 19.26239], [-99.44444, 19.26303], [-99.44323, 19.26288], [-99.44327, 19.2624]]]}}, {"id": "1134314", "type": "Feature", "properties": {"id": "1134314", "CVEGEO": "1506200090103033", "POBTOT": 0.0, "score_nse": 0.0, "NSE": null, "VIVTOT": 0.0, "GRAPROES": 0.0, "_ent": "15", "_mun": "062", "_loc": "0009"}, "geometry": {"type": "Polygon", "coordinates": [[[-99.44172, 19.26278], [-99.44152, 19.26408], [-99.44094, 19.26398], [-99.44118, 19.26272], [-99.44172, 19.26278]]]}}, {"id": "1134315", "type": "Feature", "properties": {"id": "1134315", "CVEGEO": "1506200090103032", "POBTOT": 0.0, "score_nse": 0.0, "NSE": null, "VIVTOT": 0.0, "GRAPROES": 0.0, "_ent": "15", "_mun": "062", "_loc": "0009"}, "geometry": {"type": "Polygon", "coordinates": [[[-99.44112, 19.26272], [-99.44086, 19.26397], [-99.44033, 19.26388], [-99.44056, 19.26265], [-99.44112, 19.26272]]]}}, {"id": "1134325", "type": "Feature", "properties": {"id": "1134325", "CVEGEO": "1506200090103007", "POBTOT": 0.0, "score_nse": 0.0, "NSE": null, "VIVTOT": 0.0, "GRAPROES": 0.0, "_ent": "15", "_mun": "062", "_loc": "0009"}, "geometry": {"type": "Polygon", "coordinates": [[[-99.44482, 19.26355], [-99.44462, 19.26429], [-99.44557, 19.26452], [-99.44596, 19.26479], [-99.44421, 19.26455], [-99.44446, 19.26348], [-99.44482, 19.26355]]]}}, {"id": "1134416", "type": "Feature", "properties": {"id": "1134416", "CVEGEO": "1506200090103003", "POBTOT": 0.0, "score_nse": 0.0, "NSE": null, "VIVTOT": 0.0, "GRAPROES": 0.0, "_ent": "15", "_mun": "062", "_loc": "0009"}, "geometry": {"type": "Polygon", "coordinates": [[[-99.44553, 19.26315], [-99.44592, 19.26305], [-99.44566, 19.2645], [-99.44534, 19.26441], [-99.44553, 19.26315]]]}}, {"id": "1134417", "type": "Feature", "properties": {"id": "1134417", "CVEGEO": "1506200090103002", "POBTOT": 0.0, "score_nse": 0.0, "NSE": null, "VIVTOT": 0.0, "GRAPROES": 0.0, "_ent": "15", "_mun": "062", "_loc": "0009"}, "geometry": {"type": "Polygon", "coordinates": [[[-99.44602, 19.26427], [-99.4458, 19.26419], [-99.44596, 19.26353], [-99.4466, 19.26354], [-99.44644, 19.26434], [-99.44665, 19.26354], [-99.4469, 19.26354], [-99.44688, 19.26492], [-99.44572, 19.26454], [-99.4458, 19.26424], [-99.44602, 19.26427]]]}}, {"id": "1134449", "type": "Feature", "properties": {"id": "1134449", "CVEGEO": "1506200090103028", "POBTOT": 0.0, "score_nse": 0.0, "NSE": null, "VIVTOT": 0.0, "GRAPROES": 0.0, "_ent": "15", "_mun": "062", "_loc": "0009"}, "geometry": {"type": "Polygon", "coordinates": [[[-99.44307, 19.26445], [-99.44691, 19.26502], [-99.44696, 19.26525], [-99.44304, 19.26477], [-99.44307, 19.26445]]]}}, {"id": "1134450", "type": "Feature", "properties": {"id": "1134450", "CVEGEO": "1506200090103026", "POBTOT": 0.0, "score_nse": 0.0, "NSE": null, "VIVTOT": 0.0, "GRAPROES": 0.0, "_ent": "15", "_mun": "062", "_loc": "0009"}, "geometry": {"type": "Polygon", "coordinates": [[[-99.44525, 19.26237], [-99.4454, 19.26218], [-99.44659, 19.263], [-99.4449, 19.26311], [-99.44483, 19.26348], [-99.44448, 19.26341], [-99.44482, 19.2624], [-99.44525, 19.26237]]]}}, {"id": "1134451", "type": "Feature", "properties": {"id": "1134451", "CVEGEO": "1506200090103015", "POBTOT": 0.0, "score_nse": 0.0, "NSE": null, "VIVTOT": 0.0, "GRAPROES": 0.0, "_ent": "15", "_mun": "062", "_loc": "0009"}, "geometry": {"type": "Polygon", "coordinates": [[[-99.44525, 19.26043], [-99.44531, 19.26164], [-99.44384, 19.26169], [-99.44353, 19.26043], [-99.44525, 19.26043]]]}}, {"id": "1134529", "type": "Feature", "properties": {"id": "1134529", "CVEGEO": "1506200090103023", "POBTOT": 0.0, "score_nse": 0.0, "NSE": null, "VIVTOT": 0.0, "GRAPROES": 0.0, "_ent": "15", "_mun": "062", "_loc": "0009"}, "geometry": {"type": "Polygon", "coordinates": [[[-99.44499, 19.26321], [-99.44544, 19.26319], [-99.44526, 19.26438], [-99.44471, 19.26424], [-99.44499, 19.26321]]]}}, {"id": "1134530", "type": "Feature", "properties": {"id": "1134530", "CVEGEO": "1506200090103022", "POBTOT": 0.0, "score_nse": 0.0, "NSE": null, "VIVTOT": 0.0, "GRAPROES": 0.0, "_ent": "15", "_mun": "062", "_loc": "0009"}, "geometry": {"type": "Polygon", "coordinates": [[[-99.44697, 19.26487], [-99.44701, 19.26362], [-99.4476, 19.26362], [-99.44759, 19.26398], [-99.44798, 19.26449], [-99.44697, 19.26487]]]}}, {"id": "1134531", "type": "Feature", "properties": {"id": "1134531", "CVEGEO": "1506200090103019", "POBTOT": 0.0, "score_nse": 0.0, "NSE": null, "VIVTOT": 0.0, "GRAPROES": 0.0, "_ent": "15", "_mun": "062", "_loc": "0009"}, "geometry": {"type": "Polygon", "coordinates": [[[-99.43827, 19.26364], [-99.44301, 19.26444], [-99.44298, 19.26476], [-99.43821, 19.26391], [-99.43827, 19.26364]]]}}, {"id": "1134532", "type": "Feature", "properties": {"id": "1134532", "CVEGEO": "1506200090103018", "POBTOT": 0.0, "score_nse": 0.0, "NSE": null, "VIVTOT": 0.0, "GRAPROES": 0.0, "_ent": "15", "_mun": "062", "_loc": "0009"}, "geometry": {"type": "Polygon", "coordinates": [[[-99.4425, 19.26288], [-99.44312, 19.26295], [-99.44278, 19.26427], [-99.44224, 19.26419], [-99.4425, 19.26288]]]}}, {"id": "1134638", "type": "Feature", "properties": {"id": "1134638", "CVEGEO": "1506200090103038", "POBTOT": 0.0, "score_nse": 0.0, "NSE": null, "VIVTOT": 0.0, "GRAPROES": 0.0, "_ent": "15", "_mun": "062", "_loc": "0009"}, "geometry": {"type": "Polygon", "coordinates": [[[-99.4453, 19.26176], [-99.44517, 19.26232], [-99.44479, 19.26233], [-99.44323, 19.26232], [-99.44311, 19.26182], [-99.4453, 19.26176]]]}}, {"id": "1134639", "type": "Feature", "properties": {"id": "1134639", "CVEGEO": "1506200090103036", "POBTOT": 0.0, "score_nse": 0.0, "NSE": null, "VIVTOT": 0.0, "GRAPROES": 0.0, "_ent": "15", "_mun": "062", "_loc": "0009"}, "geometry": {"type": "Polygon", "coordinates": [[[-99.44396, 19.25886], [-99.4443, 19.25928], [-99.44412, 19.26033], [-99.44352, 19.26032], [-99.44332, 19.25857], [-99.44396, 19.25886]]]}}, {"id": "1134640", "type": "Feature", "properties": {"id": "1134640", "CVEGEO": "1506200090103011", "POBTOT": 0.0, "score_nse": 0.0, "NSE": null, "VIVTOT": 0.0, "GRAPROES": 0.0, "_ent": "15", "_mun": "062", "_loc": "0009"}, "geometry": {"type": "Polygon", "coordinates": [[[-99.44319, 19.26286], [-99.44056, 19.26256], [-99.44067, 19.26182], [-99.44243, 19.26201], [-99.44299, 19.2619], [-99.44319, 19.26286]]]}}, {"id": "1134641", "type": "Feature", "properties": {"id": "1134641", "CVEGEO": "1506200090103010", "POBTOT": 0.0, "score_nse": 0.0, "NSE": null, "VIVTOT": 0.0, "GRAPROES": 0.0, "_ent": "15", "_mun": "062", "_loc": "0009"}, "geometry": {"type": "Polygon", "coordinates": [[[-99.44242, 19.26288], [-99.44216, 19.26417], [-99.44158, 19.26408], [-99.44181, 19.26282], [-99.44242, 19.26288]]]}}, {"id": "1134702", "type": "Feature", "properties": {"id": "1134702", "CVEGEO": "1506200090103031", "POBTOT": 0.0, "score_nse": 0.0, "NSE": null, "VIVTOT": 0.0, "GRAPROES": 0.0, "_ent": "15", "_mun": "062", "_loc": "0009"}, "geometry": {"type": "Polygon", "coordinates": [[[-99.43607, 19.26347], [-99.43639, 19.26329], [-99.43819, 19.26363], [-99.43813, 19.26388], [-99.43607, 19.26347]]]}}, {"id": "1134703", "type": "Feature", "properties": {"id": "1134703", "CVEGEO": "1506200090103004", "POBTOT": 0.0, "score_nse": 0.0, "NSE": null, "VIVTOT": 0.0, "GRAPROES": 0.0, "_ent": "15", "_mun": "062", "_loc": "0009"}, "geometry": {"type": "Polygon", "coordinates": [[[-99.44542, 19.26174], [-99.44721, 19.26168], [-99.44688, 19.26253], [-99.44695, 19.2634], [-99.44667, 19.263], [-99.44543, 19.26209], [-99.44542, 19.26174]]]}}, {"id": "1134730", "type": "Feature", "properties": {"id": "1134730", "CVEGEO": "1506200090103021", "POBTOT": 0.0, "score_nse": 0.0, "NSE": null, "VIVTOT": 0.0, "GRAPROES": 0.0, "_ent": "15", "_mun": "062", "_loc": "0009"}, "geometry": {"type": "Polygon", "coordinates": [[[-99.44727, 19.26169], [-99.44847, 19.26154], [-99.44842, 19.26196], [-99.44725, 19.262], [-99.44727, 19.26169]]]}}, {"id": "1134762", "type": "Feature", "properties": {"id": "1134762", "CVEGEO": "1506200090103040", "POBTOT": 0.0, "score_nse": 0.0, "NSE": null, "VIVTOT": 0.0, "GRAPROES": 0.0, "_ent": "15", "_mun": "062", "_loc": "0009"}, "geometry": {"type": "Polygon", "coordinates": [[[-99.44837, 19.26205], [-99.44853, 19.26154], [-99.44948, 19.26142], [-99.44948, 19.26303], [-99.44854, 19.26256], [-99.44861, 19.26215], [-99.44837, 19.26205]]]}}, {"id": "1134763", "type": "Feature", "properties": {"id": "1134763", "CVEGEO": "1506200090103001", "POBTOT": 0.0, "score_nse": 0.0, "NSE": null, "VIVTOT": 0.0, "GRAPROES": 0.0, "_ent": "15", "_mun": "062", "_loc": "0009"}, "geometry": {"type": "Polygon", "coordinates": [[[-99.44701, 19.26305], [-99.44768, 19.26297], [-99.44803, 19.26265], [-99.44848, 19.26266], [-99.44818, 19.26434], [-99.44803, 19.26446], [-99.44768, 19.26399], [-99.4477, 19.26355], [-99.447, 19.26357], [-99.44701, 19.26305]]]}}, {"id": "1134764", "type": "Feature", "properties": {"id": "1134764", "CVEGEO": "1506200090103039", "POBTOT": 0.0, "score_nse": 0.0, "NSE": null, "VIVTOT": 0.0, "GRAPROES": 0.0, "_ent": "15", "_mun": "062", "_loc": "0009"}, "geometry": {"type": "Polygon", "coordinates": [[[-99.44853, 19.26269], [-99.44906, 19.26299], [-99.44895, 19.26398], [-99.44824, 19.26427], [-99.44853, 19.26269]]]}}, {"id": "1134803", "type": "Feature", "properties": {"id": "1134803", "CVEGEO": "1506200090103005", "POBTOT": 0.0, "score_nse": 0.0, "NSE": null, "VIVTOT": 0.0, "GRAPROES": 0.0, "_ent": "15", "_mun": "062", "_loc": "0009"}, "geometry": {"type": "Polygon", "coordinates": [[[-99.44708, 19.26226], [-99.44724, 19.26204], [-99.44829, 19.26206], [-99.4486, 19.2622], [-99.44852, 19.26256], [-99.44804, 19.26257], [-99.44769, 19.2629], [-99.44702, 19.26298], [-99.44708, 19.26226]]]}}, {"id": "1134832", "type": "Feature", "properties": {"id": "1134832", "CVEGEO": "1506200090103014", "POBTOT": 0.0, "score_nse": 0.0, "NSE": null, "VIVTOT": 0.0, "GRAPROES": 0.0, "_ent": "15", "_mun": "062", "_loc": "0009"}, "geometry": {"type": "Polygon", "coordinates": [[[-99.43979, 19.26255], [-99.43979, 19.26176], [-99.44055, 19.2618], [-99.44045, 19.26255], [-99.43979, 19.26255]]]}}, {"id": "1134833", "type": "Feature", "properties": {"id": "1134833", "CVEGEO": "1506200090103042", "POBTOT": 0.0, "score_nse": 0.0, "NSE": null, "VIVTOT": 0.0, "GRAPROES": 0.0, "_ent": "15", "_mun": "062", "_loc": "0009"}, "geometry": {"type": "Polygon", "coordinates": [[[-99.4391, 19.26255], [-99.4378, 19.26262], [-99.4363, 19.2627], [-99.43632, 19.26246], [-99.43802, 19.26227], [-99.43903, 19.26187], [-99.4391, 19.26255]]]}}, {"id": "1134834", "type": "Feature", "properties": {"id": "1134834", "CVEGEO": "1506200090103043", "POBTOT": 0.0, "score_nse": 0.0, "NSE": null, "VIVTOT": 0.0, "GRAPROES": 0.0, "_ent": "15", "_mun": "062", "_loc": "0009"}, "geometry": {"type": "Polygon", "coordinates": [[[-99.43971, 19.26175], [-99.43973, 19.26255], [-99.43919, 19.26255], [-99.4391, 19.26185], [-99.43971, 19.26175]]]}}, {"id": "1134863", "type": "Feature", "properties": {"id": "1134863", "CVEGEO": "1506200090103008", "POBTOT": 0.0, "score_nse": 0.0, "NSE": null, "VIVTOT": 0.0, "GRAPROES": 0.0, "_ent": "15", "_mun": "062", "_loc": "0009"}, "geometry": {"type": "Polygon", "coordinates": [[[-99.4435, 19.26302], [-99.44347, 19.26441], [-99.44283, 19.26429], [-99.44316, 19.26296], [-99.4435, 19.26302]]]}}, {"id": "1134864", "type": "Feature", "properties": {"id": "1134864", "CVEGEO": "1506200090103013", "POBTOT": 0.0, "score_nse": 0.0, "NSE": null, "VIVTOT": 0.0, "GRAPROES": 0.0, "_ent": "15", "_mun": "062", "_loc": "0009"}, "geometry": {"type": "Polygon", "coordinates": [[[-99.43652, 19.2628], [-99.43914, 19.26263], [-99.43973, 19.26262], [-99.43951, 19.26374], [-99.43895, 19.26365], [-99.43905, 19.26326], [-99.43889, 19.26364], [-99.43827, 19.26353], [-99.43828, 19.26328], [-99.43822, 19.26353], [-99.43676, 19.26327], [-99.43652, 19.2628]]]}}, {"id": "1134865", "type": "Feature", "properties": {"id": "1134865", "CVEGEO": "1506200090103044", "POBTOT": 0.0, "score_nse": 0.0, "NSE": null, "VIVTOT": 0.0, "GRAPROES": 0.0, "_ent": "15", "_mun": "062", "_loc": "0009"}, "geometry": {"type": "Polygon", "coordinates": [[[-99.44413, 19.26451], [-99.44353, 19.26441], [-99.44358, 19.26303], [-99.44445, 19.26316], [-99.44413, 19.26451]]]}}, {"id": "1134866", "type": "Feature", "properties": {"id": "1134866", "CVEGEO": "1506200090103045", "POBTOT": 0.0, "score_nse": 0.0, "NSE": null, "VIVTOT": 0.0, "GRAPROES": 0.0, "_ent": "15", "_mun": "062", "_loc": "0009"}, "geometry": {"type": "Polygon", "coordinates": [[[-99.43979, 19.26262], [-99.44045, 19.26263], [-99.44024, 19.26386], [-99.43956, 19.26375], [-99.43979, 19.26262]]]}}, {"id": "1134885", "type": "Feature", "properties": {"id": "1134885", "CVEGEO": "1506200090103016", "POBTOT": 0.0, "score_nse": 0.0, "NSE": null, "VIVTOT": 0.0, "GRAPROES": 0.0, "_ent": "15", "_mun": "062", "_loc": "0009"}, "geometry": {"type": "Polygon", "coordinates": [[[-99.44534, 19.26045], [-99.44573, 19.25862], [-99.44734, 19.25861], [-99.4489, 19.25902], [-99.44916, 19.25929], [-99.44957, 19.2593], [-99.44956, 19.25963], [-99.44784, 19.2595], [-99.44956, 19.25969], [-99.44953, 19.26043], [-99.44891, 19.26048], [-99.44953, 19.26049], [-99.44949, 19.26133], [-99.44837, 19.26145], [-99.44833, 19.2607], [-99.44832, 19.26146], [-99.4454, 19.26166], [-99.44534, 19.26045]]]}}, {"id": "1134886", "type": "Feature", "properties": {"id": "1134886", "CVEGEO": "1506200090103020", "POBTOT": 0.0, "score_nse": 0.0, "NSE": null, "VIVTOT": 0.0, "GRAPROES": 0.0, "_ent": "15", "_mun": "062", "_loc": "0009"}, "geometry": {"type": "Polygon", "coordinates": [[[-99.44451, 19.25931], [-99.44438, 19.25937], [-99.44403, 19.25883], [-99.44338, 19.25855], [-99.44322, 19.25816], [-99.44436, 19.25835], [-99.44456, 19.25856], [-99.44563, 19.25865], [-99.4454, 19.25974], [-99.44451, 19.25931]]]}}, {"id": "1134887", "type": "Feature", "properties": {"id": "1134887", "CVEGEO": "1506200090103046", "POBTOT": 0.0, "score_nse": 0.0, "NSE": null, "VIVTOT": 0.0, "GRAPROES": 0.0, "_ent": "15", "_mun": "062", "_loc": "0009"}, "geometry": {"type": "Polygon", "coordinates": [[[-99.44454, 19.25935], [-99.44539, 19.25981], [-99.44527, 19.26036], [-99.44421, 19.26033], [-99.44434, 19.25946], [-99.44454, 19.25935]]]}}]}