{"type": "FeatureCollection", "features": [{"id": "2249539", "type": "Feature", "properties": {"id": "2249539", "CVEGEO": "3002301830025007", "POBTOT": 0.0, "score_nse": 0.0, "NSE": null, "VIVTOT": 0.0, "GRAPROES": 0.0, "_ent": "30", "_mun": "023", "_loc": "0183"}, "geometry": {"type": "Polygon", "coordinates": [[[-97.01945, 19.96475], [-97.02092, 19.9646], [-97.02208, 19.96458], [-97.02202, 19.96516], [-97.02082, 19.96473], [-97.02003, 19.9649], [-97.01945, 19.96475]]]}}, {"id": "2249540", "type": "Feature", "properties": {"id": "2249540", "CVEGEO": "3002301830025006", "POBTOT": 0.0, "score_nse": 0.0, "NSE": null, "VIVTOT": 0.0, "GRAPROES": 0.0, "_ent": "30", "_mun": "023", "_loc": "0183"}, "geometry": {"type": "Polygon", "coordinates": [[[-97.02094, 19.96407], [-97.02215, 19.96405], [-97.0221, 19.96452], [-97.02092, 19.96453], [-97.02094, 19.96407]]]}}, {"id": "2249541", "type": "Feature", "properties": {"id": "2249541", "CVEGEO": "3002301830025005", "POBTOT": 0.0, "score_nse": 0.0, "NSE": null, "VIVTOT": 0.0, "GRAPROES": 0.0, "_ent": "30", "_mun": "023", "_loc": "0183"}, "geometry": {"type": "Polygon", "coordinates": [[[-97.02096, 19.964], [-97.02097, 19.96364], [-97.02213, 19.96361], [-97.02213, 19.964], [-97.02096, 19.964]]]}}, {"id": "2249542", "type": "Feature", "properties": {"id": "2249542", "CVEGEO": "3002301830025003", "POBTOT": 0.0, "score_nse": 0.0, "NSE": null, "VIVTOT": 0.0, "GRAPROES": 0.0, "_ent": "30", "_mun": "023", "_loc": "0183"}, "geometry": {"type": "Polygon", "coordinates": [[[-97.01857, 19.96489], [-97.01826, 19.96413], [-97.01979, 19.96386], [-97.01962, 19.96408], [-97.01858, 19.96432], [-97.01875, 19.96482], [-97.01857, 19.96489]]]}}, {"id": "2249543", "type": "Feature", "properties": {"id": "2249543", "CVEGEO": "3002301830025002", "POBTOT": 0.0, "score_nse": 0.0, "NSE": null, "VIVTOT": 0.0, "GRAPROES": 0.0, "_ent": "30", "_mun": "023", "_loc": "0183"}, "geometry": {"type": "Polygon", "coordinates": [[[-97.01882, 19.96482], [-97.01864, 19.96435], [-97.01963, 19.96413], [-97.01961, 19.96466], [-97.01882, 19.96482]]]}}, {"id": "2249544", "type": "Feature", "properties": {"id": "2249544", "CVEGEO": "3002301830025001", "POBTOT": 0.0, "score_nse": 0.0, "NSE": null, "VIVTOT": 0.0, "GRAPROES": 0.0, "_ent": "30", "_mun": "023", "_loc": "0183"}, "geometry": {"type": "Polygon", "coordinates": [[[-97.02084, 19.96455], [-97.01968, 19.96465], [-97.01969, 19.96413], [-97.02085, 19.96409], [-97.02084, 19.96455]]]}}, {"id": "2249560", "type": "Feature", "properties": {"id": "2249560", "CVEGEO": "3002301830025004", "POBTOT": 0.0, "score_nse": 0.0, "NSE": null, "VIVTOT": 0.0, "GRAPROES": 0.0, "_ent": "30", "_mun": "023", "_loc": "0183"}, "geometry": {"type": "Polygon", "coordinates": [[[-97.0197, 19.96406], [-97.01986, 19.96386], [-97.02087, 19.96367], [-97.02087, 19.964], [-97.0197, 19.96406]]]}}, {"id": "2250035", "type": "Feature", "properties": {"id": "2250035", "CVEGEO": "3002301830025008", "POBTOT": 0.0, "score_nse": 0.0, "NSE": null, "VIVTOT": 0.0, "GRAPROES": 0.0, "_ent": "30", "_mun": "023", "_loc": "0183"}, "geometry": {"type": "Polygon", "coordinates": [[[-97.01597, 19.96542], [-97.01628, 19.96549], [-97.01802, 19.9651], [-97.01818, 19.9654], [-97.01806, 19.96509], [-97.01881, 19.96489], [-97.01929, 19.96572], [-97.01591, 19.96588], [-97.01597, 19.96542]]]}}]}