{"type": "FeatureCollection", "features": [{"id": "1145041", "type": "Feature", "properties": {"id": "1145041", "CVEGEO": "150790013005A005", "POBTOT": 0.0, "score_nse": 0.0, "NSE": null, "VIVTOT": 0.0, "GRAPROES": 0.0, "_ent": "15", "_mun": "079", "_loc": "0013"}, "geometry": {"type": "Polygon", "coordinates": [[[-99.45568, 20.00238], [-99.45615, 20.00048], [-99.45622, 19.99862], [-99.4577, 19.99863], [-99.45758, 19.9993], [-99.458, 20.0006], [-99.45568, 20.00238]]]}}, {"id": "1145042", "type": "Feature", "properties": {"id": "1145042", "CVEGEO": "150790013005A004", "POBTOT": 0.0, "score_nse": 0.0, "NSE": null, "VIVTOT": 0.0, "GRAPROES": 0.0, "_ent": "15", "_mun": "079", "_loc": "0013"}, "geometry": {"type": "Polygon", "coordinates": [[[-99.45587, 20.00518], [-99.45496, 20.00484], [-99.45565, 20.00257], [-99.45808, 20.00072], [-99.45978, 20.00199], [-99.45849, 20.00386], [-99.45809, 20.00491], [-99.45587, 20.00518]]]}}, {"id": "1145043", "type": "Feature", "properties": {"id": "1145043", "CVEGEO": "150790013005A003", "POBTOT": 0.0, "score_nse": 0.0, "NSE": null, "VIVTOT": 0.0, "GRAPROES": 0.0, "_ent": "15", "_mun": "079", "_loc": "0013"}, "geometry": {"type": "Polygon", "coordinates": [[[-99.45815, 20.00491], [-99.45897, 20.00318], [-99.45983, 20.00201], [-99.46014, 20.00224], [-99.45924, 20.00308], [-99.45898, 20.00401], [-99.45926, 20.00475], [-99.45815, 20.00491]]]}}, {"id": "1145044", "type": "Feature", "properties": {"id": "1145044", "CVEGEO": "150790013005A001", "POBTOT": 0.0, "score_nse": 0.0, "NSE": null, "VIVTOT": 0.0, "GRAPROES": 0.0, "_ent": "15", "_mun": "079", "_loc": "0013"}, "geometry": {"type": "Polygon", "coordinates": [[[-99.45417, 19.99622], [-99.45497, 19.99289], [-99.45553, 19.99122], [-99.45679, 19.99175], [-99.45678, 19.99299], [-99.45702, 19.99382], [-99.4568, 19.99266], [-99.45684, 19.99173], [-99.45555, 19.99117], [-99.45591, 19.99042], [-99.45866, 19.99127], [-99.46124, 19.99174], [-99.46146, 19.99244], [-99.46105, 19.99266], [-99.46036, 19.99379], [-99.46189, 19.99421], [-99.46143, 19.99609], [-99.45934, 19.99614], [-99.45847, 19.99656], [-99.45836, 19.99643], [-99.45907, 19.9952], [-99.45751, 19.9951], [-99.45698, 19.99396], [-99.45742, 19.99514], [-99.45898, 19.99531], [-99.4582, 19.99655], [-99.45772, 19.99851], [-99.45646, 19.99853], [-99.45699, 19.99752], [-99.45729, 19.99559], [-99.45719, 19.99477], [-99.45707, 19.99478], [-99.45721, 19.99544], [-99.45687, 19.99758], [-99.45635, 19.99854], [-99.45617, 19.99854], [-99.45417, 19.99622]]]}}, {"id": "1145061", "type": "Feature", "properties": {"id": "1145061", "CVEGEO": "150790013005A006", "POBTOT": 0.0, "score_nse": 0.0, "NSE": null, "VIVTOT": 0.0, "GRAPROES": 0.0, "_ent": "15", "_mun": "079", "_loc": "0013"}, "geometry": {"type": "Polygon", "coordinates": [[[-99.46047, 19.99375], [-99.46071, 19.99317], [-99.46129, 19.99254], [-99.46222, 19.9928], [-99.4619, 19.99413], [-99.46047, 19.99375]]]}}]}