{"type": "FeatureCollection", "features": [{"id": "1989299", "type": "Feature", "properties": {"id": "1989299", "CVEGEO": "2501702180953038", "POBTOT": 0.0, "score_nse": 0.0, "NSE": null, "VIVTOT": 0.0, "GRAPROES": 0.0, "_ent": "25", "_mun": "017", "_loc": "0218"}, "geometry": {"type": "Polygon", "coordinates": [[[-108.13304, 25.83935], [-108.13343, 25.8392], [-108.13361, 25.83978], [-108.13343, 25.83988], [-108.13304, 25.83935]]]}}, {"id": "1989300", "type": "Feature", "properties": {"id": "1989300", "CVEGEO": "2501702180953036", "POBTOT": 0.0, "score_nse": 0.0, "NSE": null, "VIVTOT": 0.0, "GRAPROES": 0.0, "_ent": "25", "_mun": "017", "_loc": "0218"}, "geometry": {"type": "Polygon", "coordinates": [[[-108.14427, 25.84091], [-108.14475, 25.84069], [-108.14493, 25.84111], [-108.14447, 25.84137], [-108.14427, 25.84091]]]}}, {"id": "1989301", "type": "Feature", "properties": {"id": "1989301", "CVEGEO": "2501702180953035", "POBTOT": 0.0, "score_nse": 0.0, "NSE": null, "VIVTOT": 0.0, "GRAPROES": 0.0, "_ent": "25", "_mun": "017", "_loc": "0218"}, "geometry": {"type": "Polygon", "coordinates": [[[-108.14226, 25.83335], [-108.14177, 25.83224], [-108.14145, 25.83188], [-108.14177, 25.83172], [-108.14222, 25.83223], [-108.14185, 25.83217], [-108.14226, 25.83231], [-108.14282, 25.83323], [-108.14282, 25.8334], [-108.14228, 25.83375], [-108.14204, 25.83347], [-108.14226, 25.83335]]]}}, {"id": "1989302", "type": "Feature", "properties": {"id": "1989302", "CVEGEO": "2501702180953034", "POBTOT": 0.0, "score_nse": 0.0, "NSE": null, "VIVTOT": 0.0, "GRAPROES": 0.0, "_ent": "25", "_mun": "017", "_loc": "0218"}, "geometry": {"type": "Polygon", "coordinates": [[[-108.14137, 25.83119], [-108.14218, 25.83085], [-108.14211, 25.83197], [-108.14137, 25.83119]]]}}, {"id": "1989303", "type": "Feature", "properties": {"id": "1989303", "CVEGEO": "2501702180953033", "POBTOT": 0.0, "score_nse": 0.0, "NSE": null, "VIVTOT": 0.0, "GRAPROES": 0.0, "_ent": "25", "_mun": "017", "_loc": "0218"}, "geometry": {"type": "Polygon", "coordinates": [[[-108.14149, 25.83033], [-108.14164, 25.83055], [-108.14133, 25.83078], [-108.14126, 25.83057], [-108.14149, 25.83033]]]}}, {"id": "1989304", "type": "Feature", "properties": {"id": "1989304", "CVEGEO": "2501702180953020", "POBTOT": 0.0, "score_nse": 0.0, "NSE": null, "VIVTOT": 0.0, "GRAPROES": 0.0, "_ent": "25", "_mun": "017", "_loc": "0218"}, "geometry": {"type": "Polygon", "coordinates": [[[-108.14478, 25.83688], [-108.14606, 25.83932], [-108.14589, 25.83958], [-108.14575, 25.83963], [-108.14427, 25.8367], [-108.14502, 25.83639], [-108.14517, 25.83673], [-108.14478, 25.83688]]]}}, {"id": "1989305", "type": "Feature", "properties": {"id": "1989305", "CVEGEO": "2501702180953019", "POBTOT": 0.0, "score_nse": 0.0, "NSE": null, "VIVTOT": 0.0, "GRAPROES": 0.0, "_ent": "25", "_mun": "017", "_loc": "0218"}, "geometry": {"type": "Polygon", "coordinates": [[[-108.14424, 25.83662], [-108.14321, 25.83352], [-108.14381, 25.83325], [-108.14501, 25.83628], [-108.14424, 25.83662]]]}}, {"id": "1989306", "type": "Feature", "properties": {"id": "1989306", "CVEGEO": "2501702180953018", "POBTOT": 0.0, "score_nse": 0.0, "NSE": null, "VIVTOT": 0.0, "GRAPROES": 0.0, "_ent": "25", "_mun": "017", "_loc": "0218"}, "geometry": {"type": "Polygon", "coordinates": [[[-108.13823, 25.83681], [-108.13901, 25.83643], [-108.13966, 25.83725], [-108.1393, 25.8378], [-108.13894, 25.83788], [-108.13823, 25.83681]]]}}, {"id": "1989307", "type": "Feature", "properties": {"id": "1989307", "CVEGEO": "2501702180953017", "POBTOT": 0.0, "score_nse": 0.0, "NSE": null, "VIVTOT": 0.0, "GRAPROES": 0.0, "_ent": "25", "_mun": "017", "_loc": "0218"}, "geometry": {"type": "Polygon", "coordinates": [[[-108.13994, 25.83919], [-108.13936, 25.83821], [-108.13939, 25.83802], [-108.13998, 25.83773], [-108.14039, 25.83908], [-108.13994, 25.83919]]]}}, {"id": "1989618", "type": "Feature", "properties": {"id": "1989618", "CVEGEO": "2501702180953001", "POBTOT": 0.0, "score_nse": 0.0, "NSE": null, "VIVTOT": 0.0, "GRAPROES": 0.0, "_ent": "25", "_mun": "017", "_loc": "0218"}, "geometry": {"type": "Polygon", "coordinates": [[[-108.14106, 25.83683], [-108.14029, 25.8375], [-108.1396, 25.83767], [-108.1403, 25.83663], [-108.14253, 25.83586], [-108.14273, 25.8363], [-108.14106, 25.83683]]]}}, {"id": "1990377", "type": "Feature", "properties": {"id": "1990377", "CVEGEO": "2501702180953028", "POBTOT": 0.0, "score_nse": 0.0, "NSE": null, "VIVTOT": 0.0, "GRAPROES": 0.0, "_ent": "25", "_mun": "017", "_loc": "0218"}, "geometry": {"type": "Polygon", "coordinates": [[[-108.13499, 25.83929], [-108.13541, 25.8394], [-108.13544, 25.83964], [-108.13465, 25.8397], [-108.13377, 25.83999], [-108.1335, 25.83915], [-108.13499, 25.83929]]]}}, {"id": "1990378", "type": "Feature", "properties": {"id": "1990378", "CVEGEO": "2501702180953027", "POBTOT": 0.0, "score_nse": 0.0, "NSE": null, "VIVTOT": 0.0, "GRAPROES": 0.0, "_ent": "25", "_mun": "017", "_loc": "0218"}, "geometry": {"type": "Polygon", "coordinates": [[[-108.14533, 25.84204], [-108.14477, 25.84132], [-108.1455, 25.84094], [-108.14608, 25.84102], [-108.14626, 25.8412], [-108.14611, 25.84097], [-108.14566, 25.84092], [-108.14557, 25.84078], [-108.14593, 25.84011], [-108.14583, 25.83974], [-108.14606, 25.83955], [-108.14711, 25.84132], [-108.14533, 25.84204]]]}}, {"id": "1990379", "type": "Feature", "properties": {"id": "1990379", "CVEGEO": "2501702180953026", "POBTOT": 0.0, "score_nse": 0.0, "NSE": null, "VIVTOT": 0.0, "GRAPROES": 0.0, "_ent": "25", "_mun": "017", "_loc": "0218"}, "geometry": {"type": "Polygon", "coordinates": [[[-108.14511, 25.83625], [-108.14391, 25.8332], [-108.14429, 25.83302], [-108.14559, 25.83605], [-108.14511, 25.83625]]]}}, {"id": "1990380", "type": "Feature", "properties": {"id": "1990380", "CVEGEO": "2501702180953025", "POBTOT": 0.0, "score_nse": 0.0, "NSE": null, "VIVTOT": 0.0, "GRAPROES": 0.0, "_ent": "25", "_mun": "017", "_loc": "0218"}, "geometry": {"type": "Polygon", "coordinates": [[[-108.14279, 25.83289], [-108.1434, 25.83262], [-108.14362, 25.83309], [-108.14308, 25.83336], [-108.14279, 25.83289]]]}}, {"id": "1990381", "type": "Feature", "properties": {"id": "1990381", "CVEGEO": "2501702180953023", "POBTOT": 0.0, "score_nse": 0.0, "NSE": null, "VIVTOT": 0.0, "GRAPROES": 0.0, "_ent": "25", "_mun": "017", "_loc": "0218"}, "geometry": {"type": "Polygon", "coordinates": [[[-108.13769, 25.83601], [-108.13849, 25.83579], [-108.13881, 25.83645], [-108.1382, 25.83675], [-108.13769, 25.83601]]]}}, {"id": "1990382", "type": "Feature", "properties": {"id": "1990382", "CVEGEO": "2501702180953005", "POBTOT": 0.0, "score_nse": 0.0, "NSE": null, "VIVTOT": 0.0, "GRAPROES": 0.0, "_ent": "25", "_mun": "017", "_loc": "0218"}, "geometry": {"type": "Polygon", "coordinates": [[[-108.14342, 25.83754], [-108.14287, 25.83635], [-108.14381, 25.83598], [-108.14437, 25.83722], [-108.14342, 25.83754]]]}}, {"id": "1990454", "type": "Feature", "properties": {"id": "1990454", "CVEGEO": "2501702180953031", "POBTOT": 0.0, "score_nse": 0.0, "NSE": null, "VIVTOT": 0.0, "GRAPROES": 0.0, "_ent": "25", "_mun": "017", "_loc": "0218"}, "geometry": {"type": "Polygon", "coordinates": [[[-108.14087, 25.83096], [-108.13996, 25.83078], [-108.13975, 25.83053], [-108.13985, 25.83046], [-108.13972, 25.83028], [-108.13993, 25.83011], [-108.13976, 25.82983], [-108.14001, 25.82969], [-108.14028, 25.83028], [-108.14087, 25.83096]]]}}, {"id": "1990523", "type": "Feature", "properties": {"id": "1990523", "CVEGEO": "2501702180953029", "POBTOT": 0.0, "score_nse": 0.0, "NSE": null, "VIVTOT": 0.0, "GRAPROES": 0.0, "_ent": "25", "_mun": "017", "_loc": "0218"}, "geometry": {"type": "Polygon", "coordinates": [[[-108.13538, 25.8393], [-108.13349, 25.83908], [-108.13295, 25.83823], [-108.13369, 25.83793], [-108.13397, 25.83769], [-108.13293, 25.83816], [-108.13263, 25.83774], [-108.13346, 25.83749], [-108.13341, 25.83725], [-108.13419, 25.83699], [-108.13436, 25.83776], [-108.13489, 25.83886], [-108.13513, 25.83895], [-108.13644, 25.83846], [-108.13663, 25.83882], [-108.13538, 25.8393]]]}}, {"id": "1990660", "type": "Feature", "properties": {"id": "1990660", "CVEGEO": "2501702180953021", "POBTOT": 0.0, "score_nse": 0.0, "NSE": null, "VIVTOT": 0.0, "GRAPROES": 0.0, "_ent": "25", "_mun": "017", "_loc": "0218"}, "geometry": {"type": "Polygon", "coordinates": [[[-108.14541, 25.83924], [-108.1458, 25.84012], [-108.14566, 25.84061], [-108.14501, 25.84108], [-108.14437, 25.83958], [-108.14541, 25.83924]]]}}, {"id": "1990888", "type": "Feature", "properties": {"id": "1990888", "CVEGEO": "2501702180953013", "POBTOT": 0.0, "score_nse": 0.0, "NSE": null, "VIVTOT": 0.0, "GRAPROES": 0.0, "_ent": "25", "_mun": "017", "_loc": "0218"}, "geometry": {"type": "Polygon", "coordinates": [[[-108.14346, 25.83761], [-108.14442, 25.83729], [-108.14537, 25.8392], [-108.14433, 25.83952], [-108.14346, 25.83761]]]}}, {"id": "1990889", "type": "Feature", "properties": {"id": "1990889", "CVEGEO": "2501702180953011", "POBTOT": 0.0, "score_nse": 0.0, "NSE": null, "VIVTOT": 0.0, "GRAPROES": 0.0, "_ent": "25", "_mun": "017", "_loc": "0218"}, "geometry": {"type": "Polygon", "coordinates": [[[-108.14088, 25.83453], [-108.14183, 25.83393], [-108.14194, 25.83407], [-108.14133, 25.83486], [-108.14088, 25.83453]]]}}, {"id": "1990890", "type": "Feature", "properties": {"id": "1990890", "CVEGEO": "2501702180953010", "POBTOT": 0.0, "score_nse": 0.0, "NSE": null, "VIVTOT": 0.0, "GRAPROES": 0.0, "_ent": "25", "_mun": "017", "_loc": "0218"}, "geometry": {"type": "Polygon", "coordinates": [[[-108.13976, 25.83602], [-108.13889, 25.83642], [-108.13856, 25.83578], [-108.14095, 25.83462], [-108.14128, 25.83492], [-108.14017, 25.83661], [-108.13976, 25.83602]]]}}, {"id": "1990891", "type": "Feature", "properties": {"id": "1990891", "CVEGEO": "2501702180953009", "POBTOT": 0.0, "score_nse": 0.0, "NSE": null, "VIVTOT": 0.0, "GRAPROES": 0.0, "_ent": "25", "_mun": "017", "_loc": "0218"}, "geometry": {"type": "Polygon", "coordinates": [[[-108.13908, 25.8364], [-108.13975, 25.83609], [-108.14012, 25.83664], [-108.13972, 25.83721], [-108.13908, 25.8364]]]}}, {"id": "1990892", "type": "Feature", "properties": {"id": "1990892", "CVEGEO": "2501702180953007", "POBTOT": 0.0, "score_nse": 0.0, "NSE": null, "VIVTOT": 0.0, "GRAPROES": 0.0, "_ent": "25", "_mun": "017", "_loc": "0218"}, "geometry": {"type": "Polygon", "coordinates": [[[-108.14006, 25.83783], [-108.14075, 25.83727], [-108.14135, 25.83724], [-108.14182, 25.83804], [-108.14032, 25.83852], [-108.14006, 25.83783]]]}}, {"id": "1990893", "type": "Feature", "properties": {"id": "1990893", "CVEGEO": "2501702180953006", "POBTOT": 0.0, "score_nse": 0.0, "NSE": null, "VIVTOT": 0.0, "GRAPROES": 0.0, "_ent": "25", "_mun": "017", "_loc": "0218"}, "geometry": {"type": "Polygon", "coordinates": [[[-108.14188, 25.83801], [-108.14142, 25.83718], [-108.14098, 25.83725], [-108.14084, 25.83714], [-108.14117, 25.83688], [-108.14277, 25.83637], [-108.14329, 25.83758], [-108.14188, 25.83801]]]}}, {"id": "1991309", "type": "Feature", "properties": {"id": "1991309", "CVEGEO": "2501702180953030", "POBTOT": 0.0, "score_nse": 0.0, "NSE": null, "VIVTOT": 0.0, "GRAPROES": 0.0, "_ent": "25", "_mun": "017", "_loc": "0218"}, "geometry": {"type": "Polygon", "coordinates": [[[-108.13742, 25.83603], [-108.13722, 25.83567], [-108.13756, 25.8355], [-108.1378, 25.83592], [-108.13742, 25.83603]]]}}, {"id": "1991310", "type": "Feature", "properties": {"id": "1991310", "CVEGEO": "2501702180953004", "POBTOT": 0.0, "score_nse": 0.0, "NSE": null, "VIVTOT": 0.0, "GRAPROES": 0.0, "_ent": "25", "_mun": "017", "_loc": "0218"}, "geometry": {"type": "Polygon", "coordinates": [[[-108.14265, 25.83582], [-108.14355, 25.83549], [-108.14374, 25.83592], [-108.14284, 25.83626], [-108.14265, 25.83582]]]}}, {"id": "1991566", "type": "Feature", "properties": {"id": "1991566", "CVEGEO": "2501702180953037", "POBTOT": 0.0, "score_nse": 0.0, "NSE": null, "VIVTOT": 0.0, "GRAPROES": 0.0, "_ent": "25", "_mun": "017", "_loc": "0218"}, "geometry": {"type": "Polygon", "coordinates": [[[-108.13734, 25.83614], [-108.1376, 25.83603], [-108.1381, 25.83679], [-108.13742, 25.83711], [-108.13719, 25.83675], [-108.13756, 25.83659], [-108.13734, 25.83614]]]}}, {"id": "1991649", "type": "Feature", "properties": {"id": "1991649", "CVEGEO": "2501702180953022", "POBTOT": 0.0, "score_nse": 0.0, "NSE": null, "VIVTOT": 0.0, "GRAPROES": 0.0, "_ent": "25", "_mun": "017", "_loc": "0218"}, "geometry": {"type": "Polygon", "coordinates": [[[-108.13683, 25.83749], [-108.13814, 25.83681], [-108.13852, 25.8374], [-108.13787, 25.83773], [-108.13852, 25.83744], [-108.13882, 25.83786], [-108.13808, 25.83823], [-108.13776, 25.83774], [-108.13724, 25.83795], [-108.13683, 25.83749]]]}}, {"id": "1991840", "type": "Feature", "properties": {"id": "1991840", "CVEGEO": "2501702180953040", "POBTOT": 0.0, "score_nse": 0.0, "NSE": null, "VIVTOT": 0.0, "GRAPROES": 0.0, "_ent": "25", "_mun": "017", "_loc": "0218"}, "geometry": {"type": "Polygon", "coordinates": [[[-108.14126, 25.83937], [-108.14086, 25.83949], [-108.14066, 25.83889], [-108.14046, 25.83893], [-108.14033, 25.83854], [-108.1409, 25.83836], [-108.14126, 25.83937]]]}}, {"id": "1991841", "type": "Feature", "properties": {"id": "1991841", "CVEGEO": "2501702180953016", "POBTOT": 0.0, "score_nse": 0.0, "NSE": null, "VIVTOT": 0.0, "GRAPROES": 0.0, "_ent": "25", "_mun": "017", "_loc": "0218"}, "geometry": {"type": "Polygon", "coordinates": [[[-108.14096, 25.83835], [-108.14166, 25.83812], [-108.14208, 25.83912], [-108.14133, 25.83935], [-108.14096, 25.83835]]]}}, {"id": "1991843", "type": "Feature", "properties": {"id": "1991843", "CVEGEO": "2501702180953032", "POBTOT": 0.0, "score_nse": 0.0, "NSE": null, "VIVTOT": 0.0, "GRAPROES": 0.0, "_ent": "25", "_mun": "017", "_loc": "0218"}, "geometry": {"type": "Polygon", "coordinates": [[[-108.14112, 25.83117], [-108.14027, 25.83012], [-108.14052, 25.82991], [-108.14091, 25.83008], [-108.14112, 25.82997], [-108.14147, 25.83031], [-108.14113, 25.83054], [-108.14133, 25.83105], [-108.14112, 25.83117]]]}}, {"id": "1992036", "type": "Feature", "properties": {"id": "1992036", "CVEGEO": "2501702180953002", "POBTOT": 0.0, "score_nse": 0.0, "NSE": null, "VIVTOT": 0.0, "GRAPROES": 0.0, "_ent": "25", "_mun": "017", "_loc": "0218"}, "geometry": {"type": "Polygon", "coordinates": [[[-108.14047, 25.83647], [-108.14235, 25.83391], [-108.14308, 25.83356], [-108.14352, 25.8354], [-108.14047, 25.83647]]]}}, {"id": "1992103", "type": "Feature", "properties": {"id": "1992103", "CVEGEO": "2501702180953014", "POBTOT": 0.0, "score_nse": 0.0, "NSE": null, "VIVTOT": 0.0, "GRAPROES": 0.0, "_ent": "25", "_mun": "017", "_loc": "0218"}, "geometry": {"type": "Polygon", "coordinates": [[[-108.14453, 25.84016], [-108.1441, 25.84033], [-108.14419, 25.84055], [-108.14374, 25.84058], [-108.14344, 25.84002], [-108.14295, 25.84017], [-108.14225, 25.8391], [-108.14215, 25.83914], [-108.14176, 25.83814], [-108.14257, 25.83786], [-108.14306, 25.83908], [-108.14286, 25.83924], [-108.14309, 25.83913], [-108.14357, 25.84], [-108.14264, 25.83784], [-108.14337, 25.83763], [-108.14453, 25.84016]]]}}]}