{"type": "FeatureCollection", "features": [{"id": "1990185", "type": "Feature", "properties": {"id": "1990185", "CVEGEO": "2501702190972001", "POBTOT": 0.0, "score_nse": 0.0, "NSE": null, "VIVTOT": 0.0, "GRAPROES": 0.0, "_ent": "25", "_mun": "017", "_loc": "0219"}, "geometry": {"type": "Polygon", "coordinates": [[[-107.74428, 25.7567], [-107.74418, 25.75587], [-107.74427, 25.75569], [-107.74488, 25.75679], [-107.7445, 25.75686], [-107.74428, 25.7567]]]}}, {"id": "1990451", "type": "Feature", "properties": {"id": "1990451", "CVEGEO": "2501702190972011", "POBTOT": 0.0, "score_nse": 0.0, "NSE": null, "VIVTOT": 0.0, "GRAPROES": 0.0, "_ent": "25", "_mun": "017", "_loc": "0219"}, "geometry": {"type": "Polygon", "coordinates": [[[-107.74218, 25.7579], [-107.74183, 25.7574], [-107.74248, 25.7575], [-107.74218, 25.7579]]]}}, {"id": "1990452", "type": "Feature", "properties": {"id": "1990452", "CVEGEO": "2501702190972009", "POBTOT": 0.0, "score_nse": 0.0, "NSE": null, "VIVTOT": 0.0, "GRAPROES": 0.0, "_ent": "25", "_mun": "017", "_loc": "0219"}, "geometry": {"type": "Polygon", "coordinates": [[[-107.74543, 25.75895], [-107.74534, 25.75813], [-107.74567, 25.75791], [-107.7459, 25.75896], [-107.74543, 25.75895]]]}}, {"id": "1990453", "type": "Feature", "properties": {"id": "1990453", "CVEGEO": "2501702190972002", "POBTOT": 0.0, "score_nse": 0.0, "NSE": null, "VIVTOT": 0.0, "GRAPROES": 0.0, "_ent": "25", "_mun": "017", "_loc": "0219"}, "geometry": {"type": "Polygon", "coordinates": [[[-107.74437, 25.75502], [-107.74489, 25.75506], [-107.745, 25.75522], [-107.7448, 25.75587], [-107.74505, 25.75605], [-107.74589, 25.75609], [-107.74638, 25.75578], [-107.74676, 25.75602], [-107.74606, 25.75693], [-107.74526, 25.75697], [-107.74531, 25.7568], [-107.74492, 25.75669], [-107.74406, 25.7552], [-107.74437, 25.75502]]]}}, {"id": "1990882", "type": "Feature", "properties": {"id": "1990882", "CVEGEO": "2501702190972008", "POBTOT": 0.0, "score_nse": 0.0, "NSE": null, "VIVTOT": 0.0, "GRAPROES": 0.0, "_ent": "25", "_mun": "017", "_loc": "0219"}, "geometry": {"type": "Polygon", "coordinates": [[[-107.74614, 25.75872], [-107.74566, 25.75767], [-107.74625, 25.75758], [-107.74614, 25.75719], [-107.74624, 25.75691], [-107.74675, 25.75667], [-107.7471, 25.75679], [-107.74738, 25.75723], [-107.74676, 25.75738], [-107.74642, 25.75832], [-107.74662, 25.7584], [-107.74651, 25.75863], [-107.74673, 25.75902], [-107.746, 25.75897], [-107.74614, 25.75872]]]}}, {"id": "1990883", "type": "Feature", "properties": {"id": "1990883", "CVEGEO": "2501702190972007", "POBTOT": 0.0, "score_nse": 0.0, "NSE": null, "VIVTOT": 0.0, "GRAPROES": 0.0, "_ent": "25", "_mun": "017", "_loc": "0219"}, "geometry": {"type": "Polygon", "coordinates": [[[-107.74372, 25.75669], [-107.74362, 25.7565], [-107.74363, 25.7567], [-107.74255, 25.75742], [-107.74217, 25.75714], [-107.74323, 25.75672], [-107.74391, 25.75591], [-107.74407, 25.75644], [-107.74372, 25.75669]]]}}, {"id": "1990884", "type": "Feature", "properties": {"id": "1990884", "CVEGEO": "2501702190972006", "POBTOT": 0.0, "score_nse": 0.0, "NSE": null, "VIVTOT": 0.0, "GRAPROES": 0.0, "_ent": "25", "_mun": "017", "_loc": "0219"}, "geometry": {"type": "Polygon", "coordinates": [[[-107.74389, 25.75715], [-107.74347, 25.75696], [-107.74343, 25.75679], [-107.74408, 25.75646], [-107.74441, 25.7569], [-107.74389, 25.75715]]]}}, {"id": "1990886", "type": "Feature", "properties": {"id": "1990886", "CVEGEO": "2501702190972004", "POBTOT": 0.0, "score_nse": 0.0, "NSE": null, "VIVTOT": 0.0, "GRAPROES": 0.0, "_ent": "25", "_mun": "017", "_loc": "0219"}, "geometry": {"type": "Polygon", "coordinates": [[[-107.74533, 25.75807], [-107.74516, 25.7576], [-107.74481, 25.75715], [-107.74523, 25.75711], [-107.74558, 25.75765], [-107.74566, 25.75787], [-107.74533, 25.75807]]]}}, {"id": "1990887", "type": "Feature", "properties": {"id": "1990887", "CVEGEO": "2501702190972003", "POBTOT": 0.0, "score_nse": 0.0, "NSE": null, "VIVTOT": 0.0, "GRAPROES": 0.0, "_ent": "25", "_mun": "017", "_loc": "0219"}, "geometry": {"type": "Polygon", "coordinates": [[[-107.74528, 25.757], [-107.74606, 25.757], [-107.7462, 25.75752], [-107.74562, 25.75761], [-107.74528, 25.757]]]}}, {"id": "1991908", "type": "Feature", "properties": {"id": "1991908", "CVEGEO": "2501702190972005", "POBTOT": 0.0, "score_nse": 0.0, "NSE": null, "VIVTOT": 0.0, "GRAPROES": 0.0, "_ent": "25", "_mun": "017", "_loc": "0219"}, "geometry": {"type": "Polygon", "coordinates": [[[-107.74417, 25.75802], [-107.74288, 25.75717], [-107.74328, 25.75699], [-107.74428, 25.7573], [-107.74421, 25.75713], [-107.74446, 25.75701], [-107.74509, 25.75764], [-107.7452, 25.75792], [-107.74493, 25.75784], [-107.74522, 25.75808], [-107.74417, 25.75802]]]}}]}