{"type": "FeatureCollection", "features": [{"id": "2250369", "type": "Feature", "properties": {"id": "2250369", "CVEGEO": "3002500010072002", "POBTOT": 6.0, "score_nse": 0.0, "NSE": "ND", "VIVTOT": 1.0, "GRAPROES": 0.0, "_ent": "30", "_mun": "025", "_loc": "0001"}, "geometry": {"type": "Polygon", "coordinates": [[[-97.14463, 19.34972], [-97.14492, 19.35088], [-97.14376, 19.35113], [-97.14372, 19.35137], [-97.14351, 19.35105], [-97.14463, 19.34972]]]}}, {"id": "2250370", "type": "Feature", "properties": {"id": "2250370", "CVEGEO": "3002500010180002", "POBTOT": 13.0, "score_nse": 0.0, "NSE": "ND", "VIVTOT": 4.0, "GRAPROES": 4.75, "_ent": "30", "_mun": "025", "_loc": "0001"}, "geometry": {"type": "Polygon", "coordinates": [[[-97.14314, 19.35089], [-97.14351, 19.35147], [-97.14273, 19.35204], [-97.14258, 19.35137], [-97.14314, 19.35089]]]}}, {"id": "2250371", "type": "Feature", "properties": {"id": "2250371", "CVEGEO": "3002500010195001", "POBTOT": 0.0, "score_nse": 10.0, "NSE": "E", "VIVTOT": 1.0, "GRAPROES": 0.0, "_ent": "30", "_mun": "025", "_loc": "0001"}, "geometry": {"type": "Polygon", "coordinates": [[[-97.15166, 19.35582], [-97.15157, 19.35628], [-97.15052, 19.35621], [-97.15043, 19.3552], [-97.15166, 19.35582]]]}}, {"id": "2250372", "type": "Feature", "properties": {"id": "2250372", "CVEGEO": "3002500010180001", "POBTOT": 0.0, "score_nse": 10.0, "NSE": "E", "VIVTOT": 2.0, "GRAPROES": 0.0, "_ent": "30", "_mun": "025", "_loc": "0001"}, "geometry": {"type": "Polygon", "coordinates": [[[-97.1427, 19.35206], [-97.14109, 19.35337], [-97.1406, 19.35362], [-97.14049, 19.35321], [-97.14256, 19.3514], [-97.1427, 19.35206]]]}}, {"id": "2250373", "type": "Feature", "properties": {"id": "2250373", "CVEGEO": "3002500010161022", "POBTOT": 14.0, "score_nse": 0.0, "NSE": "ND", "VIVTOT": 2.0, "GRAPROES": 0.0, "_ent": "30", "_mun": "025", "_loc": "0001"}, "geometry": {"type": "Polygon", "coordinates": [[[-97.14932, 19.34921], [-97.14907, 19.34953], [-97.14868, 19.34945], [-97.14929, 19.34898], [-97.14932, 19.34921]]]}}, {"id": "2250374", "type": "Feature", "properties": {"id": "2250374", "CVEGEO": "3002500010161021", "POBTOT": 112.0, "score_nse": 0.0, "NSE": "ND", "VIVTOT": 32.0, "GRAPROES": 4.99, "_ent": "30", "_mun": "025", "_loc": "0001"}, "geometry": {"type": "Polygon", "coordinates": [[[-97.14866, 19.34941], [-97.1479, 19.34762], [-97.14744, 19.34699], [-97.14852, 19.34656], [-97.14928, 19.34891], [-97.14866, 19.34941]]]}}, {"id": "2250375", "type": "Feature", "properties": {"id": "2250375", "CVEGEO": "3002500010161020", "POBTOT": 30.0, "score_nse": 0.0, "NSE": "ND", "VIVTOT": 8.0, "GRAPROES": 5.71, "_ent": "30", "_mun": "025", "_loc": "0001"}, "geometry": {"type": "Polygon", "coordinates": [[[-97.1428, 19.35276], [-97.14169, 19.35325], [-97.14279, 19.35213], [-97.1428, 19.35276]]]}}, {"id": "2250376", "type": "Feature", "properties": {"id": "2250376", "CVEGEO": "3002500010161013", "POBTOT": 160.0, "score_nse": 0.0, "NSE": "ND", "VIVTOT": 44.0, "GRAPROES": 6.66, "_ent": "30", "_mun": "025", "_loc": "0001"}, "geometry": {"type": "Polygon", "coordinates": [[[-97.14867, 19.3512], [-97.14796, 19.35147], [-97.14738, 19.35084], [-97.14864, 19.35034], [-97.14867, 19.3512]]]}}, {"id": "2250377", "type": "Feature", "properties": {"id": "2250377", "CVEGEO": "3002500010161012", "POBTOT": 77.0, "score_nse": 0.0, "NSE": "ND", "VIVTOT": 27.0, "GRAPROES": 6.3, "_ent": "30", "_mun": "025", "_loc": "0001"}, "geometry": {"type": "Polygon", "coordinates": [[[-97.14862, 19.35022], [-97.1473, 19.35077], [-97.14702, 19.35003], [-97.14803, 19.34966], [-97.14855, 19.34974], [-97.14862, 19.35022]]]}}, {"id": "2250378", "type": "Feature", "properties": {"id": "2250378", "CVEGEO": "3002500010161011", "POBTOT": 68.0, "score_nse": 42.0353, "NSE": "C-", "VIVTOT": 22.0, "GRAPROES": 6.12, "_ent": "30", "_mun": "025", "_loc": "0001"}, "geometry": {"type": "Polygon", "coordinates": [[[-97.14868, 19.34957], [-97.14784, 19.34954], [-97.14694, 19.34987], [-97.14652, 19.34852], [-97.14729, 19.34813], [-97.14795, 19.348], [-97.14868, 19.34957]]]}}, {"id": "2250379", "type": "Feature", "properties": {"id": "2250379", "CVEGEO": "3002500010161009", "POBTOT": 2.0, "score_nse": 0.0, "NSE": "ND", "VIVTOT": 2.0, "GRAPROES": 0.0, "_ent": "30", "_mun": "025", "_loc": "0001"}, "geometry": {"type": "Polygon", "coordinates": [[[-97.14584, 19.35076], [-97.14482, 19.35139], [-97.14377, 19.35149], [-97.14383, 19.35117], [-97.14584, 19.35076]]]}}, {"id": "2250380", "type": "Feature", "properties": {"id": "2250380", "CVEGEO": "3002500010161008", "POBTOT": 50.0, "score_nse": 0.0, "NSE": "ND", "VIVTOT": 14.0, "GRAPROES": 5.21, "_ent": "30", "_mun": "025", "_loc": "0001"}, "geometry": {"type": "Polygon", "coordinates": [[[-97.14391, 19.35226], [-97.14296, 19.3527], [-97.14285, 19.35209], [-97.1435, 19.35163], [-97.14391, 19.35226]]]}}, {"id": "2250381", "type": "Feature", "properties": {"id": "2250381", "CVEGEO": "3002500010161007", "POBTOT": 23.0, "score_nse": 0.0, "NSE": "ND", "VIVTOT": 12.0, "GRAPROES": 5.31, "_ent": "30", "_mun": "025", "_loc": "0001"}, "geometry": {"type": "Polygon", "coordinates": [[[-97.14416, 19.35283], [-97.14407, 19.3523], [-97.14486, 19.35196], [-97.14519, 19.35268], [-97.14416, 19.35283]]]}}, {"id": "2250382", "type": "Feature", "properties": {"id": "2250382", "CVEGEO": "3002500010161006", "POBTOT": 0.0, "score_nse": 0.0, "NSE": "ND", "VIVTOT": 0.0, "GRAPROES": 0.0, "_ent": "30", "_mun": "025", "_loc": "0001"}, "geometry": {"type": "Polygon", "coordinates": [[[-97.14685, 19.35391], [-97.14623, 19.35426], [-97.14559, 19.3527], [-97.14641, 19.35262], [-97.14685, 19.35391]]]}}, {"id": "2250383", "type": "Feature", "properties": {"id": "2250383", "CVEGEO": "3002500010161005", "POBTOT": 67.0, "score_nse": 56.4438, "NSE": "C", "VIVTOT": 17.0, "GRAPROES": 8.41, "_ent": "30", "_mun": "025", "_loc": "0001"}, "geometry": {"type": "Polygon", "coordinates": [[[-97.14707, 19.35365], [-97.14696, 19.35384], [-97.14654, 19.35262], [-97.14778, 19.35216], [-97.14805, 19.35355], [-97.14707, 19.35365]]]}}, {"id": "2250384", "type": "Feature", "properties": {"id": "2250384", "CVEGEO": "3002500010161004", "POBTOT": 137.0, "score_nse": 0.0, "NSE": "ND", "VIVTOT": 42.0, "GRAPROES": 7.6, "_ent": "30", "_mun": "025", "_loc": "0001"}, "geometry": {"type": "Polygon", "coordinates": [[[-97.1481, 19.352], [-97.14646, 19.35255], [-97.14615, 19.35136], [-97.14726, 19.35088], [-97.14796, 19.35154], [-97.1481, 19.352]]]}}, {"id": "2250385", "type": "Feature", "properties": {"id": "2250385", "CVEGEO": "3002500010157028", "POBTOT": 20.0, "score_nse": 35.1067, "NSE": "D+", "VIVTOT": 6.0, "GRAPROES": 2.77, "_ent": "30", "_mun": "025", "_loc": "0001"}, "geometry": {"type": "Polygon", "coordinates": [[[-97.14989, 19.35349], [-97.15088, 19.35293], [-97.15137, 19.3537], [-97.15134, 19.35417], [-97.15044, 19.35503], [-97.14987, 19.35507], [-97.14945, 19.35349], [-97.14989, 19.35349]]]}}, {"id": "2250386", "type": "Feature", "properties": {"id": "2250386", "CVEGEO": "3002500010157027", "POBTOT": 24.0, "score_nse": 0.0, "NSE": "ND", "VIVTOT": 6.0, "GRAPROES": 6.88, "_ent": "30", "_mun": "025", "_loc": "0001"}, "geometry": {"type": "Polygon", "coordinates": [[[-97.15174, 19.35258], [-97.15242, 19.35343], [-97.15284, 19.35367], [-97.15147, 19.3542], [-97.15144, 19.35365], [-97.15094, 19.3529], [-97.15127, 19.35253], [-97.15174, 19.35258]]]}}, {"id": "2250387", "type": "Feature", "properties": {"id": "2250387", "CVEGEO": "3002500010157026", "POBTOT": 0.0, "score_nse": 0.0, "NSE": "ND", "VIVTOT": 0.0, "GRAPROES": 0.0, "_ent": "30", "_mun": "025", "_loc": "0001"}, "geometry": {"type": "Polygon", "coordinates": [[[-97.15373, 19.35471], [-97.15302, 19.35449], [-97.15319, 19.35391], [-97.15386, 19.3542], [-97.15373, 19.35471]]]}}, {"id": "2250388", "type": "Feature", "properties": {"id": "2250388", "CVEGEO": "3002500010157025", "POBTOT": 46.0, "score_nse": 0.0, "NSE": "ND", "VIVTOT": 18.0, "GRAPROES": 3.07, "_ent": "30", "_mun": "025", "_loc": "0001"}, "geometry": {"type": "Polygon", "coordinates": [[[-97.15391, 19.35421], [-97.15517, 19.35476], [-97.15561, 19.35529], [-97.1542, 19.3553], [-97.15435, 19.35496], [-97.15376, 19.35474], [-97.15391, 19.35421]]]}}, {"id": "2250389", "type": "Feature", "properties": {"id": "2250389", "CVEGEO": "3002500010157024", "POBTOT": 40.0, "score_nse": 0.0, "NSE": "ND", "VIVTOT": 8.0, "GRAPROES": 5.0, "_ent": "30", "_mun": "025", "_loc": "0001"}, "geometry": {"type": "Polygon", "coordinates": [[[-97.15629, 19.35587], [-97.15573, 19.35529], [-97.15524, 19.35472], [-97.15617, 19.35468], [-97.15629, 19.35587]]]}}, {"id": "2250390", "type": "Feature", "properties": {"id": "2250390", "CVEGEO": "3002500010157023", "POBTOT": 24.0, "score_nse": 0.0, "NSE": "ND", "VIVTOT": 16.0, "GRAPROES": 2.78, "_ent": "30", "_mun": "025", "_loc": "0001"}, "geometry": {"type": "Polygon", "coordinates": [[[-97.15804, 19.35374], [-97.15871, 19.35455], [-97.1593, 19.35475], [-97.15622, 19.3546], [-97.15599, 19.35283], [-97.15804, 19.35374]]]}}, {"id": "2250391", "type": "Feature", "properties": {"id": "2250391", "CVEGEO": "3002500010157021", "POBTOT": 99.0, "score_nse": 0.0, "NSE": "ND", "VIVTOT": 31.0, "GRAPROES": 6.36, "_ent": "30", "_mun": "025", "_loc": "0001"}, "geometry": {"type": "Polygon", "coordinates": [[[-97.15163, 19.35241], [-97.15117, 19.35248], [-97.15091, 19.35282], [-97.14981, 19.3517], [-97.15139, 19.35137], [-97.15163, 19.35241]]]}}, {"id": "2250392", "type": "Feature", "properties": {"id": "2250392", "CVEGEO": "3002500010157020", "POBTOT": 18.0, "score_nse": 0.0, "NSE": "ND", "VIVTOT": 8.0, "GRAPROES": 6.55, "_ent": "30", "_mun": "025", "_loc": "0001"}, "geometry": {"type": "Polygon", "coordinates": [[[-97.15147, 19.35135], [-97.15263, 19.35116], [-97.15259, 19.35342], [-97.15159, 19.35204], [-97.15147, 19.35135]]]}}, {"id": "2250393", "type": "Feature", "properties": {"id": "2250393", "CVEGEO": "3002500010157019", "POBTOT": 35.0, "score_nse": 0.0, "NSE": "ND", "VIVTOT": 14.0, "GRAPROES": 3.78, "_ent": "30", "_mun": "025", "_loc": "0001"}, "geometry": {"type": "Polygon", "coordinates": [[[-97.15268, 19.35114], [-97.15301, 19.35107], [-97.15429, 19.35181], [-97.15422, 19.35422], [-97.15264, 19.35344], [-97.15258, 19.35217], [-97.15268, 19.35114]]]}}, {"id": "2250394", "type": "Feature", "properties": {"id": "2250394", "CVEGEO": "3002500010157018", "POBTOT": 149.0, "score_nse": 0.0, "NSE": "ND", "VIVTOT": 52.0, "GRAPROES": 4.04, "_ent": "30", "_mun": "025", "_loc": "0001"}, "geometry": {"type": "Polygon", "coordinates": [[[-97.15435, 19.35185], [-97.15528, 19.35238], [-97.15543, 19.35414], [-97.15539, 19.35462], [-97.15519, 19.35466], [-97.15428, 19.35422], [-97.15435, 19.35185]]]}}, {"id": "2250395", "type": "Feature", "properties": {"id": "2250395", "CVEGEO": "3002500010157017", "POBTOT": 64.0, "score_nse": 0.0, "NSE": "ND", "VIVTOT": 20.0, "GRAPROES": 3.87, "_ent": "30", "_mun": "025", "_loc": "0001"}, "geometry": {"type": "Polygon", "coordinates": [[[-97.15537, 19.35246], [-97.15593, 19.3528], [-97.15613, 19.35368], [-97.15616, 19.35458], [-97.15546, 19.35461], [-97.15537, 19.35246]]]}}, {"id": "2250396", "type": "Feature", "properties": {"id": "2250396", "CVEGEO": "3002500010157016", "POBTOT": 66.0, "score_nse": 0.0, "NSE": "ND", "VIVTOT": 21.0, "GRAPROES": 4.08, "_ent": "30", "_mun": "025", "_loc": "0001"}, "geometry": {"type": "Polygon", "coordinates": [[[-97.15769, 19.35258], [-97.15742, 19.35332], [-97.15557, 19.35247], [-97.15304, 19.35102], [-97.15305, 19.35089], [-97.15363, 19.35117], [-97.15466, 19.351], [-97.15532, 19.35168], [-97.15589, 19.35171], [-97.15731, 19.35267], [-97.15769, 19.35258]]]}}, {"id": "2250397", "type": "Feature", "properties": {"id": "2250397", "CVEGEO": "3002500010157013", "POBTOT": 29.0, "score_nse": 0.0, "NSE": "ND", "VIVTOT": 12.0, "GRAPROES": 4.75, "_ent": "30", "_mun": "025", "_loc": "0001"}, "geometry": {"type": "Polygon", "coordinates": [[[-97.15484, 19.34594], [-97.15183, 19.34647], [-97.15191, 19.34554], [-97.15465, 19.34528], [-97.15484, 19.34594]]]}}, {"id": "2250398", "type": "Feature", "properties": {"id": "2250398", "CVEGEO": "3002500010157011", "POBTOT": 0.0, "score_nse": 0.0, "NSE": "ND", "VIVTOT": 0.0, "GRAPROES": 0.0, "_ent": "30", "_mun": "025", "_loc": "0001"}, "geometry": {"type": "Polygon", "coordinates": [[[-97.15043, 19.34798], [-97.15002, 19.3482], [-97.14991, 19.34825], [-97.15012, 19.34802], [-97.15043, 19.34798]]]}}, {"id": "2250399", "type": "Feature", "properties": {"id": "2250399", "CVEGEO": "3002500010157010", "POBTOT": 3.0, "score_nse": 0.0, "NSE": "ND", "VIVTOT": 3.0, "GRAPROES": 0.0, "_ent": "30", "_mun": "025", "_loc": "0001"}, "geometry": {"type": "Polygon", "coordinates": [[[-97.15112, 19.3489], [-97.15001, 19.34909], [-97.14992, 19.3483], [-97.15046, 19.34802], [-97.15112, 19.3489]]]}}, {"id": "2250400", "type": "Feature", "properties": {"id": "2250400", "CVEGEO": "3002500010157009", "POBTOT": 139.0, "score_nse": 44.273, "NSE": "C-", "VIVTOT": 39.0, "GRAPROES": 7.61, "_ent": "30", "_mun": "025", "_loc": "0001"}, "geometry": {"type": "Polygon", "coordinates": [[[-97.15293, 19.35099], [-97.14876, 19.35183], [-97.14865, 19.34987], [-97.14925, 19.35012], [-97.14965, 19.35055], [-97.15026, 19.35057], [-97.15116, 19.35025], [-97.15185, 19.35093], [-97.15293, 19.35099]]]}}, {"id": "2250401", "type": "Feature", "properties": {"id": "2250401", "CVEGEO": "3002500010157008", "POBTOT": 24.0, "score_nse": 0.0, "NSE": "ND", "VIVTOT": 8.0, "GRAPROES": 4.35, "_ent": "30", "_mun": "025", "_loc": "0001"}, "geometry": {"type": "Polygon", "coordinates": [[[-97.15542, 19.35164], [-97.15468, 19.35091], [-97.15388, 19.35113], [-97.15304, 19.35083], [-97.15309, 19.35028], [-97.15367, 19.3503], [-97.15401, 19.35008], [-97.15545, 19.35011], [-97.15586, 19.35055], [-97.15668, 19.35098], [-97.15676, 19.35153], [-97.15663, 19.35216], [-97.15593, 19.35167], [-97.15542, 19.35164]]]}}, {"id": "2250402", "type": "Feature", "properties": {"id": "2250402", "CVEGEO": "3002500010157003", "POBTOT": 85.0, "score_nse": 37.542, "NSE": "D+", "VIVTOT": 24.0, "GRAPROES": 5.04, "_ent": "30", "_mun": "025", "_loc": "0001"}, "geometry": {"type": "Polygon", "coordinates": [[[-97.14988, 19.35042], [-97.14955, 19.35026], [-97.14938, 19.34995], [-97.14888, 19.34985], [-97.14871, 19.34967], [-97.14997, 19.34917], [-97.15112, 19.34896], [-97.152, 19.34836], [-97.15314, 19.34814], [-97.15287, 19.34837], [-97.15252, 19.34996], [-97.15215, 19.35008], [-97.15185, 19.34988], [-97.15106, 19.34978], [-97.15025, 19.35036], [-97.14988, 19.35042]]]}}, {"id": "2250403", "type": "Feature", "properties": {"id": "2250403", "CVEGEO": "3002500010157002", "POBTOT": 20.0, "score_nse": 0.0, "NSE": "ND", "VIVTOT": 8.0, "GRAPROES": 5.64, "_ent": "30", "_mun": "025", "_loc": "0001"}, "geometry": {"type": "Polygon", "coordinates": [[[-97.15269, 19.35026], [-97.15299, 19.35029], [-97.15294, 19.35085], [-97.15188, 19.35086], [-97.15123, 19.35014], [-97.15042, 19.35037], [-97.15059, 19.35007], [-97.15106, 19.34983], [-97.15181, 19.34991], [-97.15224, 19.35014], [-97.15255, 19.34999], [-97.15289, 19.34848], [-97.15315, 19.34822], [-97.15303, 19.35017], [-97.15269, 19.35026]]]}}, {"id": "2250405", "type": "Feature", "properties": {"id": "2250405", "CVEGEO": "3002500010157001", "POBTOT": 141.0, "score_nse": 38.5807, "NSE": "D+", "VIVTOT": 44.0, "GRAPROES": 6.46, "_ent": "30", "_mun": "025", "_loc": "0001"}, "geometry": {"type": "Polygon", "coordinates": [[[-97.15586, 19.34817], [-97.1542, 19.34965], [-97.15385, 19.35016], [-97.15312, 19.35023], [-97.15332, 19.34848], [-97.15485, 19.34751], [-97.15538, 19.34734], [-97.15586, 19.34817]]]}}, {"id": "2250406", "type": "Feature", "properties": {"id": "2250406", "CVEGEO": "3002500010104005", "POBTOT": 24.0, "score_nse": 0.0, "NSE": "ND", "VIVTOT": 9.0, "GRAPROES": 1.31, "_ent": "30", "_mun": "025", "_loc": "0001"}, "geometry": {"type": "Polygon", "coordinates": [[[-97.15936, 19.35382], [-97.15847, 19.35381], [-97.15746, 19.35334], [-97.15775, 19.35258], [-97.15931, 19.35296], [-97.15936, 19.35382]]]}}, {"id": "2250407", "type": "Feature", "properties": {"id": "2250407", "CVEGEO": "3002500010104004", "POBTOT": 61.0, "score_nse": 0.0, "NSE": "ND", "VIVTOT": 16.0, "GRAPROES": 3.22, "_ent": "30", "_mun": "025", "_loc": "0001"}, "geometry": {"type": "Polygon", "coordinates": [[[-97.15624, 19.35469], [-97.15935, 19.35477], [-97.15963, 19.35493], [-97.15628, 19.3552], [-97.15624, 19.35469]]]}}, {"id": "2250408", "type": "Feature", "properties": {"id": "2250408", "CVEGEO": "3002500010104003", "POBTOT": 0.0, "score_nse": 10.0, "NSE": "E", "VIVTOT": 3.0, "GRAPROES": 0.0, "_ent": "30", "_mun": "025", "_loc": "0001"}, "geometry": {"type": "Polygon", "coordinates": [[[-97.15933, 19.35467], [-97.1614, 19.35426], [-97.16199, 19.35403], [-97.16199, 19.35439], [-97.16141, 19.35475], [-97.16022, 19.35636], [-97.15992, 19.35627], [-97.15976, 19.35591], [-97.15978, 19.35498], [-97.15933, 19.35467]]]}}, {"id": "2250409", "type": "Feature", "properties": {"id": "2250409", "CVEGEO": "3002500010104002", "POBTOT": 0.0, "score_nse": 0.0, "NSE": "ND", "VIVTOT": 0.0, "GRAPROES": 0.0, "_ent": "30", "_mun": "025", "_loc": "0001"}, "geometry": {"type": "Polygon", "coordinates": [[[-97.16045, 19.35393], [-97.16053, 19.35433], [-97.16016, 19.35439], [-97.15997, 19.35393], [-97.16045, 19.35393]]]}}, {"id": "2250413", "type": "Feature", "properties": {"id": "2250413", "CVEGEO": "3002500010161015", "POBTOT": 82.0, "score_nse": 0.0, "NSE": "ND", "VIVTOT": 31.0, "GRAPROES": 8.85, "_ent": "30", "_mun": "025", "_loc": "0001"}, "geometry": {"type": "Polygon", "coordinates": [[[-97.14933, 19.35343], [-97.14815, 19.35353], [-97.14787, 19.35214], [-97.14891, 19.35189], [-97.14933, 19.35343]]]}}, {"id": "2250445", "type": "Feature", "properties": {"id": "2250445", "CVEGEO": "3002500010161027", "POBTOT": 10.0, "score_nse": 0.0, "NSE": "ND", "VIVTOT": 4.0, "GRAPROES": 2.22, "_ent": "30", "_mun": "025", "_loc": "0001"}, "geometry": {"type": "Polygon", "coordinates": [[[-97.14941, 19.34929], [-97.14935, 19.34896], [-97.14985, 19.34832], [-97.14994, 19.3491], [-97.14941, 19.34929]]]}}, {"id": "2250446", "type": "Feature", "properties": {"id": "2250446", "CVEGEO": "3002500010161026", "POBTOT": 8.0, "score_nse": 0.0, "NSE": "ND", "VIVTOT": 3.0, "GRAPROES": 2.71, "_ent": "30", "_mun": "025", "_loc": "0001"}, "geometry": {"type": "Polygon", "coordinates": [[[-97.14984, 19.34817], [-97.14958, 19.34876], [-97.14934, 19.34892], [-97.14921, 19.34839], [-97.14984, 19.34817]]]}}, {"id": "2250447", "type": "Feature", "properties": {"id": "2250447", "CVEGEO": "3002500010161025", "POBTOT": 33.0, "score_nse": 0.0, "NSE": "ND", "VIVTOT": 12.0, "GRAPROES": 3.74, "_ent": "30", "_mun": "025", "_loc": "0001"}, "geometry": {"type": "Polygon", "coordinates": [[[-97.14982, 19.34812], [-97.14919, 19.34833], [-97.14903, 19.34777], [-97.14975, 19.3476], [-97.14982, 19.34812]]]}}, {"id": "2250448", "type": "Feature", "properties": {"id": "2250448", "CVEGEO": "3002500010161017", "POBTOT": 45.0, "score_nse": 0.0, "NSE": "ND", "VIVTOT": 17.0, "GRAPROES": 6.56, "_ent": "30", "_mun": "025", "_loc": "0001"}, "geometry": {"type": "Polygon", "coordinates": [[[-97.14849, 19.35541], [-97.14721, 19.35545], [-97.147, 19.35459], [-97.1471, 19.35373], [-97.14807, 19.35362], [-97.14849, 19.35541]]]}}, {"id": "2250449", "type": "Feature", "properties": {"id": "2250449", "CVEGEO": "3002500010161016", "POBTOT": 40.0, "score_nse": 0.0, "NSE": "ND", "VIVTOT": 9.0, "GRAPROES": 6.87, "_ent": "30", "_mun": "025", "_loc": "0001"}, "geometry": {"type": "Polygon", "coordinates": [[[-97.14978, 19.35511], [-97.14856, 19.3554], [-97.14816, 19.35359], [-97.14935, 19.3535], [-97.14978, 19.35511]]]}}, {"id": "2250450", "type": "Feature", "properties": {"id": "2250450", "CVEGEO": "3002500010157022", "POBTOT": 64.0, "score_nse": 0.0, "NSE": "ND", "VIVTOT": 17.0, "GRAPROES": 7.04, "_ent": "30", "_mun": "025", "_loc": "0001"}, "geometry": {"type": "Polygon", "coordinates": [[[-97.15083, 19.35286], [-97.14989, 19.35341], [-97.14943, 19.35343], [-97.149, 19.35188], [-97.14972, 19.35171], [-97.15083, 19.35286]]]}}, {"id": "2250451", "type": "Feature", "properties": {"id": "2250451", "CVEGEO": "3002500010157012", "POBTOT": 57.0, "score_nse": 0.0, "NSE": "ND", "VIVTOT": 17.0, "GRAPROES": 4.55, "_ent": "30", "_mun": "025", "_loc": "0001"}, "geometry": {"type": "Polygon", "coordinates": [[[-97.15179, 19.34841], [-97.15118, 19.34884], [-97.15067, 19.34826], [-97.15055, 19.34801], [-97.15068, 19.34782], [-97.15077, 19.34702], [-97.15058, 19.34787], [-97.1499, 19.34806], [-97.14977, 19.34698], [-97.15041, 19.34546], [-97.15184, 19.34556], [-97.15179, 19.34841]]]}}, {"id": "2250452", "type": "Feature", "properties": {"id": "2250452", "CVEGEO": "3002500010157007", "POBTOT": 9.0, "score_nse": 0.0, "NSE": "ND", "VIVTOT": 7.0, "GRAPROES": 0.0, "_ent": "30", "_mun": "025", "_loc": "0001"}, "geometry": {"type": "Polygon", "coordinates": [[[-97.15408, 19.35003], [-97.15516, 19.34891], [-97.15555, 19.34963], [-97.15554, 19.35007], [-97.15408, 19.35003]]]}}, {"id": "2250453", "type": "Feature", "properties": {"id": "2250453", "CVEGEO": "3002500010157005", "POBTOT": 38.0, "score_nse": 0.0, "NSE": "ND", "VIVTOT": 16.0, "GRAPROES": 3.82, "_ent": "30", "_mun": "025", "_loc": "0001"}, "geometry": {"type": "Polygon", "coordinates": [[[-97.15515, 19.34706], [-97.15354, 19.34802], [-97.15322, 19.34807], [-97.153, 19.34636], [-97.15486, 19.346], [-97.15515, 19.34706]]]}}, {"id": "2250454", "type": "Feature", "properties": {"id": "2250454", "CVEGEO": "3002500010157004", "POBTOT": 73.0, "score_nse": 0.0, "NSE": "ND", "VIVTOT": 31.0, "GRAPROES": 3.83, "_ent": "30", "_mun": "025", "_loc": "0001"}, "geometry": {"type": "Polygon", "coordinates": [[[-97.15313, 19.34807], [-97.15185, 19.34834], [-97.15181, 19.34653], [-97.15293, 19.34635], [-97.15313, 19.34807]]]}}, {"id": "2250455", "type": "Feature", "properties": {"id": "2250455", "CVEGEO": "3002500010091003", "POBTOT": 0.0, "score_nse": 0.0, "NSE": "ND", "VIVTOT": 0.0, "GRAPROES": 0.0, "_ent": "30", "_mun": "025", "_loc": "0001"}, "geometry": {"type": "Polygon", "coordinates": [[[-97.15054, 19.35515], [-97.15148, 19.35536], [-97.15152, 19.3555], [-97.15133, 19.35563], [-97.15102, 19.35554], [-97.15054, 19.35515]]]}}, {"id": "2250456", "type": "Feature", "properties": {"id": "2250456", "CVEGEO": "3002500010091002", "POBTOT": 21.0, "score_nse": 0.0, "NSE": "ND", "VIVTOT": 7.0, "GRAPROES": 3.58, "_ent": "30", "_mun": "025", "_loc": "0001"}, "geometry": {"type": "Polygon", "coordinates": [[[-97.15115, 19.35454], [-97.15154, 19.3547], [-97.15157, 19.35536], [-97.15059, 19.35503], [-97.15115, 19.35454]]]}}, {"id": "2250498", "type": "Feature", "properties": {"id": "2250498", "CVEGEO": "3002500010161001", "POBTOT": 40.0, "score_nse": 0.0, "NSE": "ND", "VIVTOT": 21.0, "GRAPROES": 6.28, "_ent": "30", "_mun": "025", "_loc": "0001"}, "geometry": {"type": "Polygon", "coordinates": [[[-97.14639, 19.35257], [-97.14529, 19.35265], [-97.14493, 19.35193], [-97.14606, 19.35138], [-97.14639, 19.35257]]]}}, {"id": "2250511", "type": "Feature", "properties": {"id": "2250511", "CVEGEO": "3002500010176001", "POBTOT": 2.0, "score_nse": 0.0, "NSE": "ND", "VIVTOT": 2.0, "GRAPROES": 0.0, "_ent": "30", "_mun": "025", "_loc": "0001"}, "geometry": {"type": "Polygon", "coordinates": [[[-97.15635, 19.35614], [-97.15553, 19.3564], [-97.15547, 19.35614], [-97.15573, 19.3558], [-97.15576, 19.35542], [-97.15635, 19.35614]]]}}, {"id": "2250512", "type": "Feature", "properties": {"id": "2250512", "CVEGEO": "3002500010161019", "POBTOT": 44.0, "score_nse": 0.0, "NSE": "ND", "VIVTOT": 12.0, "GRAPROES": 5.26, "_ent": "30", "_mun": "025", "_loc": "0001"}, "geometry": {"type": "Polygon", "coordinates": [[[-97.14408, 19.35284], [-97.14218, 19.35315], [-97.14398, 19.35234], [-97.14408, 19.35284]]]}}, {"id": "2250522", "type": "Feature", "properties": {"id": "2250522", "CVEGEO": "3002500010161018", "POBTOT": 0.0, "score_nse": 0.0, "NSE": "ND", "VIVTOT": 0.0, "GRAPROES": 0.0, "_ent": "30", "_mun": "025", "_loc": "0001"}, "geometry": {"type": "Polygon", "coordinates": [[[-97.14692, 19.35398], [-97.14699, 19.35479], [-97.14717, 19.35545], [-97.14663, 19.35534], [-97.14627, 19.35436], [-97.14692, 19.35398]]]}}, {"id": "2250523", "type": "Feature", "properties": {"id": "2250523", "CVEGEO": "3002500010161003", "POBTOT": 45.0, "score_nse": 0.0, "NSE": "ND", "VIVTOT": 12.0, "GRAPROES": 6.78, "_ent": "30", "_mun": "025", "_loc": "0001"}, "geometry": {"type": "Polygon", "coordinates": [[[-97.14718, 19.35082], [-97.14612, 19.35128], [-97.14598, 19.35085], [-97.14691, 19.35005], [-97.14718, 19.35082]]]}}, {"id": "2250524", "type": "Feature", "properties": {"id": "2250524", "CVEGEO": "3002500010161002", "POBTOT": 70.0, "score_nse": 0.0, "NSE": "ND", "VIVTOT": 29.0, "GRAPROES": 5.76, "_ent": "30", "_mun": "025", "_loc": "0001"}, "geometry": {"type": "Polygon", "coordinates": [[[-97.14606, 19.35129], [-97.14399, 19.35222], [-97.1437, 19.35171], [-97.14495, 19.3515], [-97.14589, 19.35087], [-97.14606, 19.35129]]]}}, {"id": "2250529", "type": "Feature", "properties": {"id": "2250529", "CVEGEO": "3002500010161010", "POBTOT": 29.0, "score_nse": 0.0, "NSE": "ND", "VIVTOT": 12.0, "GRAPROES": 8.0, "_ent": "30", "_mun": "025", "_loc": "0001"}, "geometry": {"type": "Polygon", "coordinates": [[[-97.14688, 19.34991], [-97.14589, 19.35064], [-97.14541, 19.34902], [-97.14647, 19.34858], [-97.14688, 19.34991]]]}}, {"id": "2250530", "type": "Feature", "properties": {"id": "2250530", "CVEGEO": "3002500010157015", "POBTOT": 2.0, "score_nse": 0.0, "NSE": "ND", "VIVTOT": 3.0, "GRAPROES": 0.0, "_ent": "30", "_mun": "025", "_loc": "0001"}, "geometry": {"type": "Polygon", "coordinates": [[[-97.15735, 19.35115], [-97.15729, 19.35253], [-97.15672, 19.35219], [-97.15676, 19.35093], [-97.15597, 19.35048], [-97.15683, 19.35038], [-97.15735, 19.35115]]]}}, {"id": "2250531", "type": "Feature", "properties": {"id": "2250531", "CVEGEO": "3002500010157014", "POBTOT": 28.0, "score_nse": 0.0, "NSE": "ND", "VIVTOT": 13.0, "GRAPROES": 4.0, "_ent": "30", "_mun": "025", "_loc": "0001"}, "geometry": {"type": "Polygon", "coordinates": [[[-97.15527, 19.34885], [-97.15587, 19.34834], [-97.15676, 19.3503], [-97.15585, 19.35042], [-97.15559, 19.35011], [-97.15562, 19.34961], [-97.15527, 19.34885]]]}}, {"id": "2250532", "type": "Feature", "properties": {"id": "2250532", "CVEGEO": "3002500010157006", "POBTOT": 4.0, "score_nse": 0.0, "NSE": "ND", "VIVTOT": 5.0, "GRAPROES": 0.0, "_ent": "30", "_mun": "025", "_loc": "0001"}, "geometry": {"type": "Polygon", "coordinates": [[[-97.1552, 19.34728], [-97.15489, 19.34736], [-97.15325, 19.34842], [-97.15324, 19.34814], [-97.15359, 19.34805], [-97.15469, 19.34727], [-97.15496, 19.34712], [-97.1552, 19.34728]]]}}, {"id": "2250533", "type": "Feature", "properties": {"id": "2250533", "CVEGEO": "3002500010104001", "POBTOT": 56.0, "score_nse": 0.0, "NSE": "ND", "VIVTOT": 15.0, "GRAPROES": 3.72, "_ent": "30", "_mun": "025", "_loc": "0001"}, "geometry": {"type": "Polygon", "coordinates": [[[-97.16009, 19.35442], [-97.15899, 19.35458], [-97.1581, 19.35374], [-97.15988, 19.35394], [-97.16009, 19.35442]]]}}, {"id": "2250536", "type": "Feature", "properties": {"id": "2250536", "CVEGEO": "3002500010161024", "POBTOT": 12.0, "score_nse": 0.0, "NSE": "ND", "VIVTOT": 6.0, "GRAPROES": 6.88, "_ent": "30", "_mun": "025", "_loc": "0001"}, "geometry": {"type": "Polygon", "coordinates": [[[-97.14901, 19.34768], [-97.14887, 19.34716], [-97.14969, 19.34694], [-97.14975, 19.34754], [-97.14901, 19.34768]]]}}, {"id": "2250537", "type": "Feature", "properties": {"id": "2250537", "CVEGEO": "3002500010161023", "POBTOT": 0.0, "score_nse": 0.0, "NSE": "ND", "VIVTOT": 0.0, "GRAPROES": 0.0, "_ent": "30", "_mun": "025", "_loc": "0001"}, "geometry": {"type": "Polygon", "coordinates": [[[-97.14851, 19.35556], [-97.14724, 19.35565], [-97.14721, 19.35548], [-97.1484, 19.35549], [-97.14851, 19.35556]]]}}, {"id": "2250538", "type": "Feature", "properties": {"id": "2250538", "CVEGEO": "3002500010161014", "POBTOT": 0.0, "score_nse": 0.0, "NSE": "ND", "VIVTOT": 0.0, "GRAPROES": 0.0, "_ent": "30", "_mun": "025", "_loc": "0001"}, "geometry": {"type": "Polygon", "coordinates": [[[-97.14862, 19.35186], [-97.14835, 19.35192], [-97.14821, 19.3515], [-97.14858, 19.35134], [-97.14862, 19.35186]]]}}, {"id": "2250539", "type": "Feature", "properties": {"id": "2250539", "CVEGEO": "3002500010091001", "POBTOT": 8.0, "score_nse": 0.0, "NSE": "ND", "VIVTOT": 4.0, "GRAPROES": 2.0, "_ent": "30", "_mun": "025", "_loc": "0001"}, "geometry": {"type": "Polygon", "coordinates": [[[-97.15144, 19.35424], [-97.15188, 19.35424], [-97.15209, 19.35404], [-97.15226, 19.35542], [-97.15166, 19.35539], [-97.15162, 19.35468], [-97.15121, 19.35448], [-97.15144, 19.35424]]]}}, {"id": "2250579", "type": "Feature", "properties": {"id": "2250579", "CVEGEO": "3002500010087002", "POBTOT": 39.0, "score_nse": 0.0, "NSE": "ND", "VIVTOT": 15.0, "GRAPROES": 6.58, "_ent": "30", "_mun": "025", "_loc": "0001"}, "geometry": {"type": "Polygon", "coordinates": [[[-97.14719, 19.35571], [-97.14735, 19.35753], [-97.1471, 19.35795], [-97.14694, 19.35571], [-97.14719, 19.35571]]]}}, {"id": "2250580", "type": "Feature", "properties": {"id": "2250580", "CVEGEO": "3002500010087001", "POBTOT": 12.0, "score_nse": 0.0, "NSE": "ND", "VIVTOT": 3.0, "GRAPROES": 4.78, "_ent": "30", "_mun": "025", "_loc": "0001"}, "geometry": {"type": "Polygon", "coordinates": [[[-97.14727, 19.35572], [-97.14853, 19.35567], [-97.14869, 19.35734], [-97.14742, 19.35751], [-97.14727, 19.35572]]]}}, {"id": "2250581", "type": "Feature", "properties": {"id": "2250581", "CVEGEO": "3002500010072001", "POBTOT": 21.0, "score_nse": 0.0, "NSE": "ND", "VIVTOT": 12.0, "GRAPROES": 6.17, "_ent": "30", "_mun": "025", "_loc": "0001"}, "geometry": {"type": "Polygon", "coordinates": [[[-97.14465, 19.34969], [-97.14535, 19.34904], [-97.14583, 19.35066], [-97.14495, 19.35087], [-97.14465, 19.34969]]]}}]}