{"type": "FeatureCollection", "features": [{"id": "1605766", "type": "Feature", "properties": {"id": "1605766", "CVEGEO": "2020700880086022", "POBTOT": 0.0, "score_nse": 0.0, "NSE": null, "VIVTOT": 0.0, "GRAPROES": 0.0, "_ent": "20", "_mun": "207", "_loc": "0088"}, "geometry": {"type": "Polygon", "coordinates": [[[-95.1819, 17.21923], [-95.18238, 17.21934], [-95.18306, 17.21938], [-95.1823, 17.21993], [-95.1819, 17.21923]]]}}, {"id": "1606127", "type": "Feature", "properties": {"id": "1606127", "CVEGEO": "2020700880086001", "POBTOT": 0.0, "score_nse": 0.0, "NSE": null, "VIVTOT": 0.0, "GRAPROES": 0.0, "_ent": "20", "_mun": "207", "_loc": "0088"}, "geometry": {"type": "Polygon", "coordinates": [[[-95.18071, 17.21765], [-95.18093, 17.21771], [-95.18117, 17.21774], [-95.18093, 17.21792], [-95.18071, 17.21765]]]}}, {"id": "1606128", "type": "Feature", "properties": {"id": "1606128", "CVEGEO": "2020700880086003", "POBTOT": 0.0, "score_nse": 0.0, "NSE": null, "VIVTOT": 0.0, "GRAPROES": 0.0, "_ent": "20", "_mun": "207", "_loc": "0088"}, "geometry": {"type": "Polygon", "coordinates": [[[-95.17963, 17.21763], [-95.17995, 17.21732], [-95.18038, 17.21721], [-95.18064, 17.21765], [-95.18038, 17.21795], [-95.17963, 17.21763]]]}}, {"id": "1606129", "type": "Feature", "properties": {"id": "1606129", "CVEGEO": "2020700880086019", "POBTOT": 0.0, "score_nse": 0.0, "NSE": null, "VIVTOT": 0.0, "GRAPROES": 0.0, "_ent": "20", "_mun": "207", "_loc": "0088"}, "geometry": {"type": "Polygon", "coordinates": [[[-95.18316, 17.21932], [-95.18245, 17.21817], [-95.18312, 17.21763], [-95.18387, 17.21866], [-95.18316, 17.21932]]]}}, {"id": "1606130", "type": "Feature", "properties": {"id": "1606130", "CVEGEO": "2020700880086030", "POBTOT": 0.0, "score_nse": 0.0, "NSE": null, "VIVTOT": 0.0, "GRAPROES": 0.0, "_ent": "20", "_mun": "207", "_loc": "0088"}, "geometry": {"type": "Polygon", "coordinates": [[[-95.18184, 17.21875], [-95.18208, 17.21899], [-95.18247, 17.21926], [-95.18187, 17.2192], [-95.18161, 17.21876], [-95.18184, 17.21875]]]}}, {"id": "1606131", "type": "Feature", "properties": {"id": "1606131", "CVEGEO": "2020700880086028", "POBTOT": 0.0, "score_nse": 0.0, "NSE": null, "VIVTOT": 0.0, "GRAPROES": 0.0, "_ent": "20", "_mun": "207", "_loc": "0088"}, "geometry": {"type": "Polygon", "coordinates": [[[-95.18075, 17.21425], [-95.18102, 17.21431], [-95.18144, 17.21505], [-95.18066, 17.21544], [-95.18027, 17.21483], [-95.18075, 17.21425]]]}}, {"id": "1606209", "type": "Feature", "properties": {"id": "1606209", "CVEGEO": "2020700880086026", "POBTOT": 0.0, "score_nse": 0.0, "NSE": null, "VIVTOT": 0.0, "GRAPROES": 0.0, "_ent": "20", "_mun": "207", "_loc": "0088"}, "geometry": {"type": "Polygon", "coordinates": [[[-95.17926, 17.21511], [-95.17983, 17.2161], [-95.1791, 17.21669], [-95.17873, 17.21582], [-95.17926, 17.21511]]]}}, {"id": "1606214", "type": "Feature", "properties": {"id": "1606214", "CVEGEO": "2020700880086021", "POBTOT": 0.0, "score_nse": 0.0, "NSE": null, "VIVTOT": 0.0, "GRAPROES": 0.0, "_ent": "20", "_mun": "207", "_loc": "0088"}, "geometry": {"type": "Polygon", "coordinates": [[[-95.18251, 17.21923], [-95.18179, 17.21864], [-95.1824, 17.21819], [-95.18239, 17.21882], [-95.18297, 17.21907], [-95.18306, 17.21935], [-95.18251, 17.21923]]]}}, {"id": "1606215", "type": "Feature", "properties": {"id": "1606215", "CVEGEO": "2020700880086023", "POBTOT": 0.0, "score_nse": 0.0, "NSE": null, "VIVTOT": 0.0, "GRAPROES": 0.0, "_ent": "20", "_mun": "207", "_loc": "0088"}, "geometry": {"type": "Polygon", "coordinates": [[[-95.18086, 17.21937], [-95.18157, 17.2188], [-95.18202, 17.21954], [-95.18192, 17.21968], [-95.18207, 17.21962], [-95.18226, 17.21997], [-95.1816, 17.22046], [-95.18086, 17.21937]]]}}, {"id": "1606216", "type": "Feature", "properties": {"id": "1606216", "CVEGEO": "2020700880086024", "POBTOT": 0.0, "score_nse": 0.0, "NSE": null, "VIVTOT": 0.0, "GRAPROES": 0.0, "_ent": "20", "_mun": "207", "_loc": "0088"}, "geometry": {"type": "Polygon", "coordinates": [[[-95.17988, 17.22005], [-95.18079, 17.21937], [-95.18159, 17.22057], [-95.18067, 17.2211], [-95.17988, 17.22005]]]}}, {"id": "1606217", "type": "Feature", "properties": {"id": "1606217", "CVEGEO": "2020700880086020", "POBTOT": 0.0, "score_nse": 0.0, "NSE": null, "VIVTOT": 0.0, "GRAPROES": 0.0, "_ent": "20", "_mun": "207", "_loc": "0088"}, "geometry": {"type": "Polygon", "coordinates": [[[-95.18284, 17.21895], [-95.18244, 17.21873], [-95.18248, 17.21836], [-95.18284, 17.21895]]]}}, {"id": "1606218", "type": "Feature", "properties": {"id": "1606218", "CVEGEO": "2020700880086009", "POBTOT": 0.0, "score_nse": 0.0, "NSE": null, "VIVTOT": 0.0, "GRAPROES": 0.0, "_ent": "20", "_mun": "207", "_loc": "0088"}, "geometry": {"type": "Polygon", "coordinates": [[[-95.17939, 17.2191], [-95.18023, 17.21852], [-95.18076, 17.21933], [-95.18003, 17.21986], [-95.17939, 17.2191]]]}}, {"id": "1606219", "type": "Feature", "properties": {"id": "1606219", "CVEGEO": "2020700880086008", "POBTOT": 0.0, "score_nse": 0.0, "NSE": null, "VIVTOT": 0.0, "GRAPROES": 0.0, "_ent": "20", "_mun": "207", "_loc": "0088"}, "geometry": {"type": "Polygon", "coordinates": [[[-95.1809, 17.21799], [-95.18154, 17.21873], [-95.18083, 17.21932], [-95.18027, 17.21849], [-95.1809, 17.21799]]]}}, {"id": "1606220", "type": "Feature", "properties": {"id": "1606220", "CVEGEO": "2020700880086014", "POBTOT": 0.0, "score_nse": 0.0, "NSE": null, "VIVTOT": 0.0, "GRAPROES": 0.0, "_ent": "20", "_mun": "207", "_loc": "0088"}, "geometry": {"type": "Polygon", "coordinates": [[[-95.18038, 17.21711], [-95.18021, 17.21653], [-95.18041, 17.21641], [-95.18085, 17.21669], [-95.18038, 17.21711]]]}}, {"id": "1606221", "type": "Feature", "properties": {"id": "1606221", "CVEGEO": "2020700880086007", "POBTOT": 0.0, "score_nse": 0.0, "NSE": null, "VIVTOT": 0.0, "GRAPROES": 0.0, "_ent": "20", "_mun": "207", "_loc": "0088"}, "geometry": {"type": "Polygon", "coordinates": [[[-95.18151, 17.21863], [-95.18096, 17.21795], [-95.18119, 17.21778], [-95.18153, 17.2181], [-95.18205, 17.21815], [-95.18217, 17.21829], [-95.18151, 17.21863]]]}}, {"id": "1606222", "type": "Feature", "properties": {"id": "1606222", "CVEGEO": "2020700880086027", "POBTOT": 0.0, "score_nse": 0.0, "NSE": null, "VIVTOT": 0.0, "GRAPROES": 0.0, "_ent": "20", "_mun": "207", "_loc": "0088"}, "geometry": {"type": "Polygon", "coordinates": [[[-95.17939, 17.21523], [-95.17957, 17.21513], [-95.17978, 17.21593], [-95.18004, 17.21597], [-95.17982, 17.21604], [-95.17939, 17.21523]]]}}, {"id": "1606223", "type": "Feature", "properties": {"id": "1606223", "CVEGEO": "2020700880086004", "POBTOT": 0.0, "score_nse": 0.0, "NSE": null, "VIVTOT": 0.0, "GRAPROES": 0.0, "_ent": "20", "_mun": "207", "_loc": "0088"}, "geometry": {"type": "Polygon", "coordinates": [[[-95.18055, 17.21698], [-95.18094, 17.21748], [-95.18082, 17.21763], [-95.18041, 17.21715], [-95.18055, 17.21698]]]}}, {"id": "1606224", "type": "Feature", "properties": {"id": "1606224", "CVEGEO": "2020700880086010", "POBTOT": 0.0, "score_nse": 0.0, "NSE": null, "VIVTOT": 0.0, "GRAPROES": 0.0, "_ent": "20", "_mun": "207", "_loc": "0088"}, "geometry": {"type": "Polygon", "coordinates": [[[-95.17907, 17.21856], [-95.17997, 17.2182], [-95.18021, 17.21849], [-95.17936, 17.21895], [-95.17907, 17.21856]]]}}, {"id": "1606225", "type": "Feature", "properties": {"id": "1606225", "CVEGEO": "2020700880086013", "POBTOT": 0.0, "score_nse": 0.0, "NSE": null, "VIVTOT": 0.0, "GRAPROES": 0.0, "_ent": "20", "_mun": "207", "_loc": "0088"}, "geometry": {"type": "Polygon", "coordinates": [[[-95.18027, 17.21716], [-95.17955, 17.21762], [-95.17911, 17.21674], [-95.17987, 17.21615], [-95.18015, 17.21651], [-95.18027, 17.21716]]]}}, {"id": "1606226", "type": "Feature", "properties": {"id": "1606226", "CVEGEO": "2020700880086012", "POBTOT": 0.0, "score_nse": 0.0, "NSE": null, "VIVTOT": 0.0, "GRAPROES": 0.0, "_ent": "20", "_mun": "207", "_loc": "0088"}, "geometry": {"type": "Polygon", "coordinates": [[[-95.17842, 17.21714], [-95.17907, 17.21676], [-95.1795, 17.21763], [-95.17868, 17.21777], [-95.17842, 17.21714]]]}}, {"id": "1606227", "type": "Feature", "properties": {"id": "1606227", "CVEGEO": "2020700880086002", "POBTOT": 0.0, "score_nse": 0.0, "NSE": null, "VIVTOT": 0.0, "GRAPROES": 0.0, "_ent": "20", "_mun": "207", "_loc": "0088"}, "geometry": {"type": "Polygon", "coordinates": [[[-95.18, 17.21818], [-95.18051, 17.21797], [-95.18066, 17.21768], [-95.18088, 17.21797], [-95.18024, 17.21846], [-95.18, 17.21818]]]}}, {"id": "1606228", "type": "Feature", "properties": {"id": "1606228", "CVEGEO": "2020700880086011", "POBTOT": 0.0, "score_nse": 0.0, "NSE": null, "VIVTOT": 0.0, "GRAPROES": 0.0, "_ent": "20", "_mun": "207", "_loc": "0088"}, "geometry": {"type": "Polygon", "coordinates": [[[-95.17984, 17.21819], [-95.17878, 17.21781], [-95.17966, 17.2177], [-95.18034, 17.21796], [-95.17984, 17.21819]]]}}, {"id": "1606229", "type": "Feature", "properties": {"id": "1606229", "CVEGEO": "2020700880086017", "POBTOT": 0.0, "score_nse": 0.0, "NSE": null, "VIVTOT": 0.0, "GRAPROES": 0.0, "_ent": "20", "_mun": "207", "_loc": "0088"}, "geometry": {"type": "Polygon", "coordinates": [[[-95.18059, 17.21548], [-95.18008, 17.21592], [-95.17983, 17.21594], [-95.1796, 17.21512], [-95.18022, 17.21486], [-95.18059, 17.21548]]]}}, {"id": "1606230", "type": "Feature", "properties": {"id": "1606230", "CVEGEO": "2020700880086015", "POBTOT": 0.0, "score_nse": 0.0, "NSE": null, "VIVTOT": 0.0, "GRAPROES": 0.0, "_ent": "20", "_mun": "207", "_loc": "0088"}, "geometry": {"type": "Polygon", "coordinates": [[[-95.18184, 17.21727], [-95.18238, 17.21813], [-95.18219, 17.21826], [-95.18207, 17.21812], [-95.18154, 17.21807], [-95.18122, 17.21775], [-95.18184, 17.21727]]]}}, {"id": "1606301", "type": "Feature", "properties": {"id": "1606301", "CVEGEO": "2020700880086025", "POBTOT": 0.0, "score_nse": 0.0, "NSE": null, "VIVTOT": 0.0, "GRAPROES": 0.0, "_ent": "20", "_mun": "207", "_loc": "0088"}, "geometry": {"type": "Polygon", "coordinates": [[[-95.17868, 17.21584], [-95.17904, 17.21671], [-95.17876, 17.21692], [-95.17846, 17.21647], [-95.17871, 17.21694], [-95.17824, 17.217], [-95.17777, 17.21653], [-95.17868, 17.21584]]]}}, {"id": "1606302", "type": "Feature", "properties": {"id": "1606302", "CVEGEO": "2020700880086018", "POBTOT": 0.0, "score_nse": 0.0, "NSE": null, "VIVTOT": 0.0, "GRAPROES": 0.0, "_ent": "20", "_mun": "207", "_loc": "0088"}, "geometry": {"type": "Polygon", "coordinates": [[[-95.18105, 17.21604], [-95.18044, 17.21634], [-95.18035, 17.21605], [-95.18011, 17.21597], [-95.18062, 17.21553], [-95.18105, 17.21604]]]}}, {"id": "1606303", "type": "Feature", "properties": {"id": "1606303", "CVEGEO": "2020700880086016", "POBTOT": 0.0, "score_nse": 0.0, "NSE": null, "VIVTOT": 0.0, "GRAPROES": 0.0, "_ent": "20", "_mun": "207", "_loc": "0088"}, "geometry": {"type": "Polygon", "coordinates": [[[-95.1812, 17.2177], [-95.18087, 17.21764], [-95.18097, 17.21746], [-95.18058, 17.21698], [-95.18128, 17.21651], [-95.1818, 17.21724], [-95.1812, 17.2177]]]}}, {"id": "1606304", "type": "Feature", "properties": {"id": "1606304", "CVEGEO": "2020700880086006", "POBTOT": 0.0, "score_nse": 0.0, "NSE": null, "VIVTOT": 0.0, "GRAPROES": 0.0, "_ent": "20", "_mun": "207", "_loc": "0088"}, "geometry": {"type": "Polygon", "coordinates": [[[-95.18143, 17.21653], [-95.18219, 17.21608], [-95.18306, 17.21757], [-95.18242, 17.21809], [-95.18143, 17.21653]]]}}, {"id": "1606305", "type": "Feature", "properties": {"id": "1606305", "CVEGEO": "2020700880086005", "POBTOT": 0.0, "score_nse": 0.0, "NSE": null, "VIVTOT": 0.0, "GRAPROES": 0.0, "_ent": "20", "_mun": "207", "_loc": "0088"}, "geometry": {"type": "Polygon", "coordinates": [[[-95.18141, 17.21646], [-95.18069, 17.2155], [-95.18148, 17.2151], [-95.18216, 17.21602], [-95.18141, 17.21646]]]}}, {"id": "1606313", "type": "Feature", "properties": {"id": "1606313", "CVEGEO": "2020700880086031", "POBTOT": 0.0, "score_nse": 0.0, "NSE": null, "VIVTOT": 0.0, "GRAPROES": 0.0, "_ent": "20", "_mun": "207", "_loc": "0088"}, "geometry": {"type": "Polygon", "coordinates": [[[-95.18038, 17.21637], [-95.18018, 17.21647], [-95.17991, 17.21612], [-95.18006, 17.216], [-95.18032, 17.2161], [-95.18038, 17.21637]]]}}, {"id": "1606314", "type": "Feature", "properties": {"id": "1606314", "CVEGEO": "2020700880086029", "POBTOT": 0.0, "score_nse": 0.0, "NSE": null, "VIVTOT": 0.0, "GRAPROES": 0.0, "_ent": "20", "_mun": "207", "_loc": "0088"}, "geometry": {"type": "Polygon", "coordinates": [[[-95.18088, 17.21667], [-95.18044, 17.21639], [-95.18108, 17.21609], [-95.18126, 17.21646], [-95.18088, 17.21667]]]}}]}