{"type": "FeatureCollection", "features": [{"id": "1069935", "type": "Feature", "properties": {"id": "1069935", "CVEGEO": "1502600060111007", "POBTOT": 0.0, "score_nse": 0.0, "NSE": null, "VIVTOT": 0.0, "GRAPROES": 0.0, "_ent": "15", "_mun": "026", "_loc": "0006"}, "geometry": {"type": "Polygon", "coordinates": [[[-99.59724, 19.79482], [-99.5966, 19.79496], [-99.59617, 19.79479], [-99.59505, 19.79482], [-99.59501, 19.79404], [-99.59637, 19.79345], [-99.5984, 19.79368], [-99.59837, 19.7932], [-99.59871, 19.79272], [-99.60074, 19.794], [-99.60066, 19.79535], [-99.60102, 19.79617], [-99.59878, 19.79824], [-99.59778, 19.79791], [-99.59678, 19.79668], [-99.59745, 19.79597], [-99.59736, 19.79591], [-99.59674, 19.79662], [-99.59643, 19.79624], [-99.59597, 19.7961], [-99.59539, 19.79636], [-99.59501, 19.79546], [-99.59506, 19.79488], [-99.59616, 19.79483], [-99.59661, 19.795], [-99.59724, 19.79482]]]}}, {"id": "1069951", "type": "Feature", "properties": {"id": "1069951", "CVEGEO": "1502600060111006", "POBTOT": 0.0, "score_nse": 0.0, "NSE": null, "VIVTOT": 0.0, "GRAPROES": 0.0, "_ent": "15", "_mun": "026", "_loc": "0006"}, "geometry": {"type": "Polygon", "coordinates": [[[-99.59805, 19.79063], [-99.60042, 19.79323], [-99.60073, 19.79392], [-99.59865, 19.79264], [-99.59832, 19.79316], [-99.59835, 19.79366], [-99.59749, 19.79347], [-99.59725, 19.79288], [-99.59711, 19.79152], [-99.59719, 19.7929], [-99.59742, 19.79346], [-99.59615, 19.79343], [-99.595, 19.79397], [-99.59391, 19.79147], [-99.59587, 19.79091], [-99.59598, 19.79076], [-99.59582, 19.79052], [-99.59635, 19.78986], [-99.59699, 19.79024], [-99.59785, 19.78982], [-99.59805, 19.79063]]]}}, {"id": "1069965", "type": "Feature", "properties": {"id": "1069965", "CVEGEO": "1502600060111002", "POBTOT": 0.0, "score_nse": 0.0, "NSE": null, "VIVTOT": 0.0, "GRAPROES": 0.0, "_ent": "15", "_mun": "026", "_loc": "0006"}, "geometry": {"type": "Polygon", "coordinates": [[[-99.59329, 19.79517], [-99.59315, 19.79404], [-99.59274, 19.79319], [-99.5925, 19.79203], [-99.59205, 19.79157], [-99.59191, 19.79105], [-99.59164, 19.79076], [-99.59157, 19.78998], [-99.5936, 19.79102], [-99.59483, 19.79367], [-99.59501, 19.79456], [-99.59493, 19.79541], [-99.59329, 19.79517]]]}}, {"id": "1070017", "type": "Feature", "properties": {"id": "1070017", "CVEGEO": "1502600060111003", "POBTOT": 0.0, "score_nse": 0.0, "NSE": null, "VIVTOT": 0.0, "GRAPROES": 0.0, "_ent": "15", "_mun": "026", "_loc": "0006"}, "geometry": {"type": "Polygon", "coordinates": [[[-99.59349, 19.79079], [-99.59327, 19.79067], [-99.59093, 19.78961], [-99.59261, 19.78835], [-99.59349, 19.79079]]]}}, {"id": "1070038", "type": "Feature", "properties": {"id": "1070038", "CVEGEO": "1502600060111008", "POBTOT": 0.0, "score_nse": 0.0, "NSE": null, "VIVTOT": 0.0, "GRAPROES": 0.0, "_ent": "15", "_mun": "026", "_loc": "0006"}, "geometry": {"type": "Polygon", "coordinates": [[[-99.6001, 19.80002], [-99.59852, 19.79864], [-99.59914, 19.79802], [-99.60036, 19.79942], [-99.6001, 19.80002]]]}}, {"id": "1070039", "type": "Feature", "properties": {"id": "1070039", "CVEGEO": "1502600060111001", "POBTOT": 0.0, "score_nse": 0.0, "NSE": null, "VIVTOT": 0.0, "GRAPROES": 0.0, "_ent": "15", "_mun": "026", "_loc": "0006"}, "geometry": {"type": "Polygon", "coordinates": [[[-99.59875, 19.79829], [-99.59805, 19.79914], [-99.59772, 19.79886], [-99.59762, 19.79831], [-99.59794, 19.79798], [-99.59875, 19.79829]]]}}, {"id": "1070119", "type": "Feature", "properties": {"id": "1070119", "CVEGEO": "1502600060111005", "POBTOT": 0.0, "score_nse": 0.0, "NSE": null, "VIVTOT": 0.0, "GRAPROES": 0.0, "_ent": "15", "_mun": "026", "_loc": "0006"}, "geometry": {"type": "Polygon", "coordinates": [[[-99.5971, 19.78786], [-99.59784, 19.78975], [-99.59692, 19.79019], [-99.59631, 19.7898], [-99.59624, 19.78958], [-99.59639, 19.78942], [-99.59645, 19.78913], [-99.5962, 19.78958], [-99.59627, 19.78984], [-99.59578, 19.79051], [-99.5959, 19.79082], [-99.5939, 19.79143], [-99.59306, 19.7897], [-99.59274, 19.78824], [-99.59539, 19.78645], [-99.59584, 19.7871], [-99.5971, 19.78786]]]}}, {"id": "1070167", "type": "Feature", "properties": {"id": "1070167", "CVEGEO": "1502600060111011", "POBTOT": 0.0, "score_nse": 0.0, "NSE": null, "VIVTOT": 0.0, "GRAPROES": 0.0, "_ent": "15", "_mun": "026", "_loc": "0006"}, "geometry": {"type": "Polygon", "coordinates": [[[-99.60141, 19.79987], [-99.60188, 19.80006], [-99.6024, 19.80065], [-99.60233, 19.80132], [-99.60173, 19.8029], [-99.60178, 19.80404], [-99.60044, 19.8042], [-99.60037, 19.80363], [-99.59906, 19.80322], [-99.59966, 19.80203], [-99.60046, 19.80115], [-99.60072, 19.80117], [-99.60107, 19.80074], [-99.60106, 19.80039], [-99.60141, 19.79987]]]}}, {"id": "1070168", "type": "Feature", "properties": {"id": "1070168", "CVEGEO": "1502600060111012", "POBTOT": 0.0, "score_nse": 0.0, "NSE": null, "VIVTOT": 0.0, "GRAPROES": 0.0, "_ent": "15", "_mun": "026", "_loc": "0006"}, "geometry": {"type": "Polygon", "coordinates": [[[-99.59927, 19.80457], [-99.59873, 19.80389], [-99.59794, 19.80369], [-99.59788, 19.80333], [-99.59803, 19.80307], [-99.5986, 19.8031], [-99.59896, 19.80329], [-99.59927, 19.80457]]]}}, {"id": "1070169", "type": "Feature", "properties": {"id": "1070169", "CVEGEO": "1502600060111013", "POBTOT": 0.0, "score_nse": 0.0, "NSE": null, "VIVTOT": 0.0, "GRAPROES": 0.0, "_ent": "15", "_mun": "026", "_loc": "0006"}, "geometry": {"type": "Polygon", "coordinates": [[[-99.60311, 19.79823], [-99.60298, 19.79852], [-99.60138, 19.79977], [-99.60063, 19.79951], [-99.59919, 19.79794], [-99.60061, 19.79649], [-99.60115, 19.79614], [-99.602, 19.7968], [-99.60311, 19.79823]]]}}]}