{"type": "FeatureCollection", "features": [{"id": "1848459", "type": "Feature", "properties": {"id": "1848459", "CVEGEO": "2401305870288001", "POBTOT": 0.0, "score_nse": 0.0, "NSE": null, "VIVTOT": 0.0, "GRAPROES": 0.0, "_ent": "24", "_mun": "013", "_loc": "0587"}, "geometry": {"type": "Polygon", "coordinates": [[[-98.93901, 21.98548], [-98.93903, 21.9849], [-98.93995, 21.98493], [-98.93993, 21.98551], [-98.93901, 21.98548]]]}}, {"id": "1848460", "type": "Feature", "properties": {"id": "1848460", "CVEGEO": "2401305870288002", "POBTOT": 0.0, "score_nse": 0.0, "NSE": null, "VIVTOT": 0.0, "GRAPROES": 0.0, "_ent": "24", "_mun": "013", "_loc": "0587"}, "geometry": {"type": "Polygon", "coordinates": [[[-98.93898, 21.98611], [-98.939, 21.98552], [-98.93993, 21.98555], [-98.9399, 21.98616], [-98.93898, 21.98611]]]}}, {"id": "1848461", "type": "Feature", "properties": {"id": "1848461", "CVEGEO": "2401305870288003", "POBTOT": 0.0, "score_nse": 0.0, "NSE": null, "VIVTOT": 0.0, "GRAPROES": 0.0, "_ent": "24", "_mun": "013", "_loc": "0587"}, "geometry": {"type": "Polygon", "coordinates": [[[-98.93882, 21.9861], [-98.9387, 21.98552], [-98.93896, 21.98552], [-98.93895, 21.98611], [-98.93882, 21.9861]]]}}, {"id": "1848462", "type": "Feature", "properties": {"id": "1848462", "CVEGEO": "2401305870288004", "POBTOT": 0.0, "score_nse": 0.0, "NSE": null, "VIVTOT": 0.0, "GRAPROES": 0.0, "_ent": "24", "_mun": "013", "_loc": "0587"}, "geometry": {"type": "Polygon", "coordinates": [[[-98.93869, 21.98547], [-98.93851, 21.98518], [-98.93826, 21.98487], [-98.93899, 21.98489], [-98.93897, 21.98548], [-98.93869, 21.98547]]]}}, {"id": "1848463", "type": "Feature", "properties": {"id": "1848463", "CVEGEO": "2401305870288005", "POBTOT": 0.0, "score_nse": 0.0, "NSE": null, "VIVTOT": 0.0, "GRAPROES": 0.0, "_ent": "24", "_mun": "013", "_loc": "0587"}, "geometry": {"type": "Polygon", "coordinates": [[[-98.93824, 21.98483], [-98.93772, 21.98423], [-98.93901, 21.98427], [-98.93899, 21.98485], [-98.93824, 21.98483]]]}}, {"id": "1848464", "type": "Feature", "properties": {"id": "1848464", "CVEGEO": "2401305870288006", "POBTOT": 0.0, "score_nse": 0.0, "NSE": null, "VIVTOT": 0.0, "GRAPROES": 0.0, "_ent": "24", "_mun": "013", "_loc": "0587"}, "geometry": {"type": "Polygon", "coordinates": [[[-98.93903, 21.98486], [-98.93906, 21.98428], [-98.93998, 21.9843], [-98.93996, 21.98489], [-98.93903, 21.98486]]]}}, {"id": "1848465", "type": "Feature", "properties": {"id": "1848465", "CVEGEO": "2401305870288007", "POBTOT": 0.0, "score_nse": 0.0, "NSE": null, "VIVTOT": 0.0, "GRAPROES": 0.0, "_ent": "24", "_mun": "013", "_loc": "0587"}, "geometry": {"type": "Polygon", "coordinates": [[[-98.94001, 21.98489], [-98.94003, 21.9843], [-98.94093, 21.98432], [-98.94091, 21.98492], [-98.94001, 21.98489]]]}}, {"id": "1848466", "type": "Feature", "properties": {"id": "1848466", "CVEGEO": "2401305870288008", "POBTOT": 0.0, "score_nse": 0.0, "NSE": null, "VIVTOT": 0.0, "GRAPROES": 0.0, "_ent": "24", "_mun": "013", "_loc": "0587"}, "geometry": {"type": "Polygon", "coordinates": [[[-98.93998, 21.98551], [-98.94001, 21.98493], [-98.94091, 21.98496], [-98.94089, 21.98554], [-98.93998, 21.98551]]]}}, {"id": "1848467", "type": "Feature", "properties": {"id": "1848467", "CVEGEO": "2401305870288009", "POBTOT": 0.0, "score_nse": 0.0, "NSE": null, "VIVTOT": 0.0, "GRAPROES": 0.0, "_ent": "24", "_mun": "013", "_loc": "0587"}, "geometry": {"type": "Polygon", "coordinates": [[[-98.93995, 21.98616], [-98.93998, 21.98555], [-98.94089, 21.98559], [-98.94086, 21.9862], [-98.93995, 21.98616]]]}}, {"id": "1848468", "type": "Feature", "properties": {"id": "1848468", "CVEGEO": "2401305870288010", "POBTOT": 0.0, "score_nse": 0.0, "NSE": null, "VIVTOT": 0.0, "GRAPROES": 0.0, "_ent": "24", "_mun": "013", "_loc": "0587"}, "geometry": {"type": "Polygon", "coordinates": [[[-98.93992, 21.98701], [-98.93996, 21.9862], [-98.94086, 21.98625], [-98.9408, 21.98748], [-98.94066, 21.98757], [-98.93992, 21.98701]]]}}, {"id": "1848469", "type": "Feature", "properties": {"id": "1848469", "CVEGEO": "2401305870288011", "POBTOT": 0.0, "score_nse": 0.0, "NSE": null, "VIVTOT": 0.0, "GRAPROES": 0.0, "_ent": "24", "_mun": "013", "_loc": "0587"}, "geometry": {"type": "Polygon", "coordinates": [[[-98.93986, 21.98699], [-98.93898, 21.9863], [-98.93898, 21.98615], [-98.9399, 21.9862], [-98.93986, 21.98699]]]}}, {"id": "1848470", "type": "Feature", "properties": {"id": "1848470", "CVEGEO": "2401305870288012", "POBTOT": 0.0, "score_nse": 0.0, "NSE": null, "VIVTOT": 0.0, "GRAPROES": 0.0, "_ent": "24", "_mun": "013", "_loc": "0587"}, "geometry": {"type": "Polygon", "coordinates": [[[-98.9377, 21.98419], [-98.93731, 21.98364], [-98.93904, 21.98365], [-98.93901, 21.98424], [-98.9377, 21.98419]]]}}, {"id": "1848471", "type": "Feature", "properties": {"id": "1848471", "CVEGEO": "2401305870288013", "POBTOT": 0.0, "score_nse": 0.0, "NSE": null, "VIVTOT": 0.0, "GRAPROES": 0.0, "_ent": "24", "_mun": "013", "_loc": "0587"}, "geometry": {"type": "Polygon", "coordinates": [[[-98.93906, 21.98424], [-98.93908, 21.98365], [-98.94, 21.98367], [-98.93998, 21.98426], [-98.93906, 21.98424]]]}}, {"id": "1848472", "type": "Feature", "properties": {"id": "1848472", "CVEGEO": "2401305870288014", "POBTOT": 0.0, "score_nse": 0.0, "NSE": null, "VIVTOT": 0.0, "GRAPROES": 0.0, "_ent": "24", "_mun": "013", "_loc": "0587"}, "geometry": {"type": "Polygon", "coordinates": [[[-98.94091, 21.9862], [-98.94094, 21.98559], [-98.94188, 21.98563], [-98.94182, 21.98622], [-98.94091, 21.9862]]]}}, {"id": "1848473", "type": "Feature", "properties": {"id": "1848473", "CVEGEO": "2401305870288015", "POBTOT": 0.0, "score_nse": 0.0, "NSE": null, "VIVTOT": 0.0, "GRAPROES": 0.0, "_ent": "24", "_mun": "013", "_loc": "0587"}, "geometry": {"type": "Polygon", "coordinates": [[[-98.94004, 21.98425], [-98.94006, 21.98367], [-98.94093, 21.9837], [-98.94092, 21.98427], [-98.94004, 21.98425]]]}}]}