{"type": "FeatureCollection", "features": [{"id": "2371079", "type": "Feature", "properties": {"id": "2371079", "CVEGEO": "3016000410541013", "POBTOT": 45.0, "score_nse": 54.5089, "NSE": "C-", "VIVTOT": 18.0, "GRAPROES": 11.16, "_ent": "30", "_mun": "160", "_loc": "0041"}, "geometry": {"type": "Polygon", "coordinates": [[[-97.68339, 20.93068], [-97.68263, 20.93145], [-97.68256, 20.93133], [-97.68249, 20.93062], [-97.68327, 20.93004], [-97.68363, 20.93021], [-97.68339, 20.93068]]]}}, {"id": "2371080", "type": "Feature", "properties": {"id": "2371080", "CVEGEO": "3016000410541011", "POBTOT": 79.0, "score_nse": 0.0, "NSE": "ND", "VIVTOT": 23.0, "GRAPROES": 9.15, "_ent": "30", "_mun": "160", "_loc": "0041"}, "geometry": {"type": "Polygon", "coordinates": [[[-97.68149, 20.93208], [-97.68094, 20.93162], [-97.68073, 20.93097], [-97.68217, 20.93113], [-97.68149, 20.93208]]]}}, {"id": "2371792", "type": "Feature", "properties": {"id": "2371792", "CVEGEO": "3016000410541012", "POBTOT": 29.0, "score_nse": 65.44, "NSE": "C", "VIVTOT": 10.0, "GRAPROES": 10.85, "_ent": "30", "_mun": "160", "_loc": "0041"}, "geometry": {"type": "Polygon", "coordinates": [[[-97.68241, 20.93063], [-97.6822, 20.93109], [-97.68074, 20.93092], [-97.68073, 20.93086], [-97.68241, 20.93063]]]}}, {"id": "2371795", "type": "Feature", "properties": {"id": "2371795", "CVEGEO": "3016000410541022", "POBTOT": 59.0, "score_nse": 0.0, "NSE": "ND", "VIVTOT": 24.0, "GRAPROES": 9.62, "_ent": "30", "_mun": "160", "_loc": "0041"}, "geometry": {"type": "Polygon", "coordinates": [[[-97.684, 20.93024], [-97.68317, 20.92985], [-97.68279, 20.92917], [-97.6841, 20.92919], [-97.68452, 20.92933], [-97.68462, 20.92946], [-97.68432, 20.92981], [-97.68414, 20.92975], [-97.684, 20.93024]]]}}, {"id": "2371796", "type": "Feature", "properties": {"id": "2371796", "CVEGEO": "3016000410541018", "POBTOT": 125.0, "score_nse": 0.0, "NSE": "ND", "VIVTOT": 31.0, "GRAPROES": 7.28, "_ent": "30", "_mun": "160", "_loc": "0041"}, "geometry": {"type": "Polygon", "coordinates": [[[-97.67951, 20.93492], [-97.67952, 20.93472], [-97.6836, 20.93586], [-97.68324, 20.93611], [-97.67951, 20.93492]]]}}, {"id": "2372293", "type": "Feature", "properties": {"id": "2372293", "CVEGEO": "3016000410541038", "POBTOT": 10.0, "score_nse": 0.0, "NSE": "ND", "VIVTOT": 3.0, "GRAPROES": 7.5, "_ent": "30", "_mun": "160", "_loc": "0041"}, "geometry": {"type": "Polygon", "coordinates": [[[-97.68017, 20.92962], [-97.67969, 20.9292], [-97.6797, 20.92915], [-97.68011, 20.92901], [-97.68017, 20.92962]]]}}, {"id": "2372707", "type": "Feature", "properties": {"id": "2372707", "CVEGEO": "3016000410541039", "POBTOT": 30.0, "score_nse": 0.0, "NSE": "ND", "VIVTOT": 9.0, "GRAPROES": 7.52, "_ent": "30", "_mun": "160", "_loc": "0041"}, "geometry": {"type": "Polygon", "coordinates": [[[-97.67836, 20.93015], [-97.67893, 20.92975], [-97.67956, 20.93068], [-97.67863, 20.93065], [-97.67836, 20.93015]]]}}, {"id": "2372708", "type": "Feature", "properties": {"id": "2372708", "CVEGEO": "3016000410541014", "POBTOT": 135.0, "score_nse": 56.68, "NSE": "C", "VIVTOT": 40.0, "GRAPROES": 9.89, "_ent": "30", "_mun": "160", "_loc": "0041"}, "geometry": {"type": "Polygon", "coordinates": [[[-97.68603, 20.9325], [-97.68537, 20.93347], [-97.6846, 20.93277], [-97.68497, 20.9323], [-97.68532, 20.93249], [-97.68503, 20.93225], [-97.68526, 20.93195], [-97.68546, 20.93204], [-97.68529, 20.93176], [-97.68568, 20.93124], [-97.68615, 20.9316], [-97.68619, 20.93185], [-97.68596, 20.93188], [-97.6862, 20.9319], [-97.68603, 20.9325]]]}}, {"id": "2372709", "type": "Feature", "properties": {"id": "2372709", "CVEGEO": "3016000410541010", "POBTOT": 174.0, "score_nse": 0.0, "NSE": "ND", "VIVTOT": 65.0, "GRAPROES": 8.64, "_ent": "30", "_mun": "160", "_loc": "0041"}, "geometry": {"type": "Polygon", "coordinates": [[[-97.67955, 20.93083], [-97.67934, 20.93119], [-97.6797, 20.93087], [-97.67986, 20.93101], [-97.67979, 20.93086], [-97.68056, 20.93089], [-97.6806, 20.93114], [-97.68, 20.93158], [-97.68063, 20.9312], [-97.68083, 20.93174], [-97.68212, 20.93354], [-97.68175, 20.93532], [-97.67954, 20.93466], [-97.67972, 20.93238], [-97.67993, 20.93221], [-97.67867, 20.93068], [-97.67958, 20.93071], [-97.67969, 20.93083], [-97.67955, 20.93083]]]}}, {"id": "2372912", "type": "Feature", "properties": {"id": "2372912", "CVEGEO": "3016000410541028", "POBTOT": 0.0, "score_nse": 0.0, "NSE": "ND", "VIVTOT": 0.0, "GRAPROES": 0.0, "_ent": "30", "_mun": "160", "_loc": "0041"}, "geometry": {"type": "Polygon", "coordinates": [[[-97.68334, 20.93614], [-97.68389, 20.93569], [-97.68506, 20.93644], [-97.69299, 20.939], [-97.69299, 20.93972], [-97.68482, 20.93697], [-97.68334, 20.93614]]]}}, {"id": "2372913", "type": "Feature", "properties": {"id": "2372913", "CVEGEO": "3016000410541027", "POBTOT": 124.0, "score_nse": 0.0, "NSE": "ND", "VIVTOT": 53.0, "GRAPROES": 7.96, "_ent": "30", "_mun": "160", "_loc": "0041"}, "geometry": {"type": "Polygon", "coordinates": [[[-97.69298, 20.93882], [-97.68497, 20.93625], [-97.684, 20.93558], [-97.68508, 20.93408], [-97.68758, 20.93439], [-97.68839, 20.93339], [-97.69124, 20.9356], [-97.69296, 20.93655], [-97.69298, 20.93882]]]}}, {"id": "2372914", "type": "Feature", "properties": {"id": "2372914", "CVEGEO": "3016000410541017", "POBTOT": 49.0, "score_nse": 60.0663, "NSE": "C", "VIVTOT": 14.0, "GRAPROES": 9.68, "_ent": "30", "_mun": "160", "_loc": "0041"}, "geometry": {"type": "Polygon", "coordinates": [[[-97.68227, 20.93543], [-97.68273, 20.93432], [-97.68381, 20.93561], [-97.68362, 20.93583], [-97.68227, 20.93543]]]}}, {"id": "2372917", "type": "Feature", "properties": {"id": "2372917", "CVEGEO": "3016000410541035", "POBTOT": 112.0, "score_nse": 41.5423, "NSE": "D+", "VIVTOT": 35.0, "GRAPROES": 7.66, "_ent": "30", "_mun": "160", "_loc": "0041"}, "geometry": {"type": "Polygon", "coordinates": [[[-97.68706, 20.92953], [-97.68659, 20.92958], [-97.68661, 20.92998], [-97.6859, 20.93046], [-97.68552, 20.92978], [-97.68628, 20.92941], [-97.68549, 20.92974], [-97.68489, 20.92894], [-97.68609, 20.92906], [-97.68709, 20.92937], [-97.68706, 20.92953]]]}}, {"id": "2372918", "type": "Feature", "properties": {"id": "2372918", "CVEGEO": "3016000410541034", "POBTOT": 30.0, "score_nse": 35.128, "NSE": "D+", "VIVTOT": 10.0, "GRAPROES": 7.43, "_ent": "30", "_mun": "160", "_loc": "0041"}, "geometry": {"type": "Polygon", "coordinates": [[[-97.68562, 20.93034], [-97.68502, 20.92994], [-97.6853, 20.92963], [-97.68562, 20.93034]]]}}, {"id": "2373006", "type": "Feature", "properties": {"id": "2373006", "CVEGEO": "3016000410541032", "POBTOT": 40.0, "score_nse": 37.6966, "NSE": "D+", "VIVTOT": 14.0, "GRAPROES": 6.8, "_ent": "30", "_mun": "160", "_loc": "0041"}, "geometry": {"type": "Polygon", "coordinates": [[[-97.68276, 20.92911], [-97.68262, 20.92885], [-97.68481, 20.92894], [-97.68527, 20.92959], [-97.68499, 20.92989], [-97.68457, 20.92928], [-97.68434, 20.92918], [-97.68276, 20.92911]]]}}, {"id": "2373008", "type": "Feature", "properties": {"id": "2373008", "CVEGEO": "3016000410541025", "POBTOT": 4.0, "score_nse": 0.0, "NSE": "ND", "VIVTOT": 2.0, "GRAPROES": 0.0, "_ent": "30", "_mun": "160", "_loc": "0041"}, "geometry": {"type": "Polygon", "coordinates": [[[-97.68616, 20.93234], [-97.68625, 20.93189], [-97.68622, 20.93165], [-97.68659, 20.93199], [-97.68616, 20.93234]]]}}, {"id": "2373009", "type": "Feature", "properties": {"id": "2373009", "CVEGEO": "3016000410541024", "POBTOT": 49.0, "score_nse": 0.0, "NSE": "ND", "VIVTOT": 21.0, "GRAPROES": 10.81, "_ent": "30", "_mun": "160", "_loc": "0041"}, "geometry": {"type": "Polygon", "coordinates": [[[-97.68581, 20.93059], [-97.68615, 20.93147], [-97.68456, 20.93049], [-97.68498, 20.93], [-97.68581, 20.93059]]]}}, {"id": "2373010", "type": "Feature", "properties": {"id": "2373010", "CVEGEO": "3016000410541023", "POBTOT": 37.0, "score_nse": 0.0, "NSE": "ND", "VIVTOT": 9.0, "GRAPROES": 9.08, "_ent": "30", "_mun": "160", "_loc": "0041"}, "geometry": {"type": "Polygon", "coordinates": [[[-97.68451, 20.93046], [-97.68406, 20.93027], [-97.6842, 20.92986], [-97.6848, 20.93013], [-97.68451, 20.93046]]]}}, {"id": "2373011", "type": "Feature", "properties": {"id": "2373011", "CVEGEO": "3016000410541015", "POBTOT": 13.0, "score_nse": 0.0, "NSE": "ND", "VIVTOT": 5.0, "GRAPROES": 12.5, "_ent": "30", "_mun": "160", "_loc": "0041"}, "geometry": {"type": "Polygon", "coordinates": [[[-97.68365, 20.93404], [-97.68393, 20.93362], [-97.68494, 20.93407], [-97.68478, 20.9343], [-97.68365, 20.93404]]]}}, {"id": "2373012", "type": "Feature", "properties": {"id": "2373012", "CVEGEO": "3016000410541008", "POBTOT": 106.0, "score_nse": 48.1837, "NSE": "C-", "VIVTOT": 31.0, "GRAPROES": 8.84, "_ent": "30", "_mun": "160", "_loc": "0041"}, "geometry": {"type": "Polygon", "coordinates": [[[-97.68359, 20.93403], [-97.68298, 20.93392], [-97.68336, 20.93332], [-97.68342, 20.93349], [-97.68364, 20.93347], [-97.68358, 20.93361], [-97.68367, 20.9335], [-97.68387, 20.93359], [-97.68359, 20.93403]]]}}, {"id": "2373013", "type": "Feature", "properties": {"id": "2373013", "CVEGEO": "3016000410541006", "POBTOT": 76.0, "score_nse": 56.7677, "NSE": "C", "VIVTOT": 31.0, "GRAPROES": 11.2, "_ent": "30", "_mun": "160", "_loc": "0041"}, "geometry": {"type": "Polygon", "coordinates": [[[-97.68403, 20.93222], [-97.68489, 20.93076], [-97.68564, 20.93119], [-97.68497, 20.93221], [-97.68471, 20.93205], [-97.68494, 20.93225], [-97.68454, 20.93272], [-97.68403, 20.93222]]]}}, {"id": "2373745", "type": "Feature", "properties": {"id": "2373745", "CVEGEO": "3016000410541037", "POBTOT": 90.0, "score_nse": 0.0, "NSE": "ND", "VIVTOT": 36.0, "GRAPROES": 8.45, "_ent": "30", "_mun": "160", "_loc": "0041"}, "geometry": {"type": "Polygon", "coordinates": [[[-97.69296, 20.93645], [-97.69147, 20.93568], [-97.69014, 20.93467], [-97.69296, 20.93423], [-97.69296, 20.93645]]]}}, {"id": "2373747", "type": "Feature", "properties": {"id": "2373747", "CVEGEO": "3016000410541026", "POBTOT": 16.0, "score_nse": 0.0, "NSE": "ND", "VIVTOT": 6.0, "GRAPROES": 8.07, "_ent": "30", "_mun": "160", "_loc": "0041"}, "geometry": {"type": "Polygon", "coordinates": [[[-97.6876, 20.93423], [-97.68511, 20.93397], [-97.68621, 20.93237], [-97.68664, 20.93204], [-97.68829, 20.93333], [-97.6876, 20.93423]]]}}, {"id": "2373748", "type": "Feature", "properties": {"id": "2373748", "CVEGEO": "3016000410541021", "POBTOT": 129.0, "score_nse": 45.0874, "NSE": "C-", "VIVTOT": 41.0, "GRAPROES": 8.49, "_ent": "30", "_mun": "160", "_loc": "0041"}, "geometry": {"type": "Polygon", "coordinates": [[[-97.68083, 20.92918], [-97.68087, 20.9288], [-97.68254, 20.92885], [-97.68323, 20.93001], [-97.68262, 20.93053], [-97.6824, 20.93057], [-97.68242, 20.93032], [-97.68236, 20.93058], [-97.68222, 20.9306], [-97.68108, 20.9292], [-97.6811, 20.92899], [-97.68099, 20.9292], [-97.68083, 20.92918]]]}}, {"id": "2373749", "type": "Feature", "properties": {"id": "2373749", "CVEGEO": "3016000410541020", "POBTOT": 27.0, "score_nse": 83.6667, "NSE": "C+", "VIVTOT": 6.0, "GRAPROES": 10.65, "_ent": "30", "_mun": "160", "_loc": "0041"}, "geometry": {"type": "Polygon", "coordinates": [[[-97.68077, 20.92995], [-97.68177, 20.93], [-97.68216, 20.93061], [-97.68071, 20.9308], [-97.68077, 20.92995]]]}}, {"id": "2373750", "type": "Feature", "properties": {"id": "2373750", "CVEGEO": "3016000410541009", "POBTOT": 81.0, "score_nse": 0.0, "NSE": "ND", "VIVTOT": 22.0, "GRAPROES": 9.57, "_ent": "30", "_mun": "160", "_loc": "0041"}, "geometry": {"type": "Polygon", "coordinates": [[[-97.68183, 20.93534], [-97.68217, 20.93361], [-97.68266, 20.93425], [-97.68222, 20.93542], [-97.68183, 20.93534]]]}}, {"id": "2373751", "type": "Feature", "properties": {"id": "2373751", "CVEGEO": "3016000410541003", "POBTOT": 25.0, "score_nse": 0.0, "NSE": "ND", "VIVTOT": 12.0, "GRAPROES": 10.06, "_ent": "30", "_mun": "160", "_loc": "0041"}, "geometry": {"type": "Polygon", "coordinates": [[[-97.68212, 20.93323], [-97.68149, 20.93244], [-97.68121, 20.93201], [-97.68231, 20.93268], [-97.68212, 20.93323]]]}}, {"id": "2373755", "type": "Feature", "properties": {"id": "2373755", "CVEGEO": "3016000410541031", "POBTOT": 21.0, "score_nse": 61.99, "NSE": "C", "VIVTOT": 8.0, "GRAPROES": 11.72, "_ent": "30", "_mun": "160", "_loc": "0041"}, "geometry": {"type": "Polygon", "coordinates": [[[-97.68077, 20.9299], [-97.68083, 20.92925], [-97.68114, 20.92928], [-97.68175, 20.92996], [-97.68077, 20.9299]]]}}, {"id": "2373756", "type": "Feature", "properties": {"id": "2373756", "CVEGEO": "3016000410541029", "POBTOT": 132.0, "score_nse": 0.0, "NSE": "ND", "VIVTOT": 34.0, "GRAPROES": 8.36, "_ent": "30", "_mun": "160", "_loc": "0041"}, "geometry": {"type": "Polygon", "coordinates": [[[-97.68055, 20.93084], [-97.68032, 20.93069], [-97.68031, 20.93084], [-97.68002, 20.93084], [-97.68001, 20.93059], [-97.67996, 20.93083], [-97.67969, 20.93075], [-97.67899, 20.92959], [-97.67946, 20.92933], [-97.67984, 20.92937], [-97.68024, 20.92979], [-97.68055, 20.93084]]]}}, {"id": "2373890", "type": "Feature", "properties": {"id": "2373890", "CVEGEO": "3016000410541033", "POBTOT": 3.0, "score_nse": 0.0, "NSE": "ND", "VIVTOT": 2.0, "GRAPROES": 0.0, "_ent": "30", "_mun": "160", "_loc": "0041"}, "geometry": {"type": "Polygon", "coordinates": [[[-97.68487, 20.93005], [-97.68439, 20.92982], [-97.68466, 20.9295], [-97.68495, 20.92996], [-97.68487, 20.93005]]]}}, {"id": "2373926", "type": "Feature", "properties": {"id": "2373926", "CVEGEO": "3016000410541030", "POBTOT": 9.0, "score_nse": 0.0, "NSE": "ND", "VIVTOT": 3.0, "GRAPROES": 6.0, "_ent": "30", "_mun": "160", "_loc": "0041"}, "geometry": {"type": "Polygon", "coordinates": [[[-97.68074, 20.92881], [-97.68065, 20.92962], [-97.68056, 20.93044], [-97.68023, 20.92965], [-97.68016, 20.92901], [-97.68074, 20.92881]]]}}, {"id": "2374130", "type": "Feature", "properties": {"id": "2374130", "CVEGEO": "3016000410541016", "POBTOT": 87.0, "score_nse": 43.817, "NSE": "C-", "VIVTOT": 40.0, "GRAPROES": 9.79, "_ent": "30", "_mun": "160", "_loc": "0041"}, "geometry": {"type": "Polygon", "coordinates": [[[-97.68477, 20.93435], [-97.6839, 20.93546], [-97.68362, 20.93509], [-97.68391, 20.93476], [-97.68362, 20.93452], [-97.68384, 20.93477], [-97.68359, 20.93506], [-97.68331, 20.93469], [-97.68351, 20.93441], [-97.68327, 20.93465], [-97.68285, 20.93414], [-97.68296, 20.93397], [-97.68408, 20.9342], [-97.68404, 20.93432], [-97.68413, 20.93421], [-97.68477, 20.93435]]]}}, {"id": "2374131", "type": "Feature", "properties": {"id": "2374131", "CVEGEO": "3016000410541002", "POBTOT": 74.0, "score_nse": 59.7434, "NSE": "C", "VIVTOT": 28.0, "GRAPROES": 9.98, "_ent": "30", "_mun": "160", "_loc": "0041"}, "geometry": {"type": "Polygon", "coordinates": [[[-97.68251, 20.9337], [-97.68278, 20.93351], [-97.68248, 20.93366], [-97.68217, 20.93327], [-97.68236, 20.93271], [-97.68331, 20.93328], [-97.68281, 20.93407], [-97.68251, 20.9337]]]}}, {"id": "2374203", "type": "Feature", "properties": {"id": "2374203", "CVEGEO": "3016000410541007", "POBTOT": 110.0, "score_nse": 53.7, "NSE": "C-", "VIVTOT": 50.0, "GRAPROES": 9.55, "_ent": "30", "_mun": "160", "_loc": "0041"}, "geometry": {"type": "Polygon", "coordinates": [[[-97.68527, 20.93349], [-97.68493, 20.93395], [-97.6834, 20.93326], [-97.68352, 20.93308], [-97.68382, 20.93324], [-97.68355, 20.93302], [-97.68399, 20.93227], [-97.6843, 20.93257], [-97.68416, 20.93276], [-97.68435, 20.93263], [-97.68527, 20.93349]]]}}, {"id": "2374276", "type": "Feature", "properties": {"id": "2374276", "CVEGEO": "3016000410541005", "POBTOT": 118.0, "score_nse": 0.0, "NSE": "ND", "VIVTOT": 38.0, "GRAPROES": 9.45, "_ent": "30", "_mun": "160", "_loc": "0041"}, "geometry": {"type": "Polygon", "coordinates": [[[-97.68483, 20.93072], [-97.68398, 20.93218], [-97.68294, 20.93119], [-97.68368, 20.93023], [-97.68483, 20.93072]]]}}, {"id": "2374380", "type": "Feature", "properties": {"id": "2374380", "CVEGEO": "3016000410541001", "POBTOT": 215.0, "score_nse": 0.0, "NSE": "ND", "VIVTOT": 82.0, "GRAPROES": 8.1, "_ent": "30", "_mun": "160", "_loc": "0041"}, "geometry": {"type": "Polygon", "coordinates": [[[-97.68394, 20.93222], [-97.68371, 20.93262], [-97.68321, 20.93237], [-97.68368, 20.93267], [-97.68335, 20.93322], [-97.6824, 20.93265], [-97.68257, 20.93217], [-97.68298, 20.93241], [-97.68269, 20.93219], [-97.68284, 20.93213], [-97.68257, 20.93214], [-97.68265, 20.93154], [-97.68291, 20.93122], [-97.68394, 20.93222]]]}}, {"id": "2374381", "type": "Feature", "properties": {"id": "2374381", "CVEGEO": "3016000410541004", "POBTOT": 84.0, "score_nse": 48.592, "NSE": "C-", "VIVTOT": 25.0, "GRAPROES": 9.84, "_ent": "30", "_mun": "160", "_loc": "0041"}, "geometry": {"type": "Polygon", "coordinates": [[[-97.68249, 20.93209], [-97.68222, 20.93204], [-97.68248, 20.93214], [-97.68233, 20.93259], [-97.68155, 20.93212], [-97.68245, 20.93085], [-97.68249, 20.93209]]]}}, {"id": "2374382", "type": "Feature", "properties": {"id": "2374382", "CVEGEO": "3016000410541036", "POBTOT": 165.0, "score_nse": 0.0, "NSE": "ND", "VIVTOT": 60.0, "GRAPROES": 9.79, "_ent": "30", "_mun": "160", "_loc": "0041"}, "geometry": {"type": "Polygon", "coordinates": [[[-97.69214, 20.93269], [-97.69207, 20.93424], [-97.69005, 20.9346], [-97.68862, 20.93345], [-97.68954, 20.93347], [-97.68854, 20.93339], [-97.68673, 20.932], [-97.68716, 20.93133], [-97.6867, 20.93197], [-97.68631, 20.93163], [-97.687, 20.93093], [-97.68671, 20.93119], [-97.68646, 20.93073], [-97.68667, 20.93122], [-97.68627, 20.93158], [-97.6859, 20.93063], [-97.68667, 20.93003], [-97.68699, 20.93], [-97.68689, 20.93065], [-97.6873, 20.93161], [-97.68778, 20.93224], [-97.68877, 20.93226], [-97.68903, 20.93272], [-97.69214, 20.93269]]]}}, {"id": "2374383", "type": "Feature", "properties": {"id": "2374383", "CVEGEO": "3016000410541040", "POBTOT": 0.0, "score_nse": 0.0, "NSE": null, "VIVTOT": 0.0, "GRAPROES": 0.0, "_ent": "30", "_mun": "160", "_loc": "0041"}, "geometry": {"type": "Polygon", "coordinates": [[[-97.68704, 20.92959], [-97.68699, 20.92996], [-97.6867, 20.92997], [-97.68668, 20.92964], [-97.68704, 20.92959]]]}}]}