{"type": "FeatureCollection", "features": [{"id": "2388911", "type": "Feature", "properties": {"id": "2388911", "CVEGEO": "3018900590094018", "POBTOT": 0.0, "score_nse": 0.0, "NSE": null, "VIVTOT": 0.0, "GRAPROES": 0.0, "_ent": "30", "_mun": "189", "_loc": "0059"}, "geometry": {"type": "Polygon", "coordinates": [[[-97.43, 20.82601], [-97.42938, 20.82645], [-97.42909, 20.82617], [-97.42983, 20.82564], [-97.43, 20.82601]]]}}, {"id": "2388912", "type": "Feature", "properties": {"id": "2388912", "CVEGEO": "3018900590094016", "POBTOT": 0.0, "score_nse": 0.0, "NSE": null, "VIVTOT": 0.0, "GRAPROES": 0.0, "_ent": "30", "_mun": "189", "_loc": "0059"}, "geometry": {"type": "Polygon", "coordinates": [[[-97.4299, 20.82559], [-97.43099, 20.82489], [-97.43132, 20.82517], [-97.43006, 20.82595], [-97.4299, 20.82559]]]}}, {"id": "2388913", "type": "Feature", "properties": {"id": "2388913", "CVEGEO": "3018900590094012", "POBTOT": 0.0, "score_nse": 0.0, "NSE": null, "VIVTOT": 0.0, "GRAPROES": 0.0, "_ent": "30", "_mun": "189", "_loc": "0059"}, "geometry": {"type": "Polygon", "coordinates": [[[-97.431, 20.82479], [-97.43041, 20.82428], [-97.42959, 20.824], [-97.43076, 20.82335], [-97.43125, 20.82466], [-97.431, 20.82479]]]}}, {"id": "2388915", "type": "Feature", "properties": {"id": "2388915", "CVEGEO": "3018900590094009", "POBTOT": 0.0, "score_nse": 0.0, "NSE": null, "VIVTOT": 0.0, "GRAPROES": 0.0, "_ent": "30", "_mun": "189", "_loc": "0059"}, "geometry": {"type": "Polygon", "coordinates": [[[-97.43363, 20.82399], [-97.43332, 20.82414], [-97.4327, 20.82407], [-97.43237, 20.82321], [-97.43332, 20.82317], [-97.43363, 20.82399]]]}}, {"id": "2388916", "type": "Feature", "properties": {"id": "2388916", "CVEGEO": "3018900590094004", "POBTOT": 0.0, "score_nse": 0.0, "NSE": null, "VIVTOT": 0.0, "GRAPROES": 0.0, "_ent": "30", "_mun": "189", "_loc": "0059"}, "geometry": {"type": "Polygon", "coordinates": [[[-97.4313, 20.82321], [-97.43081, 20.82328], [-97.4305, 20.82243], [-97.43099, 20.82235], [-97.4313, 20.82321]]]}}, {"id": "2389104", "type": "Feature", "properties": {"id": "2389104", "CVEGEO": "3018900590094014", "POBTOT": 0.0, "score_nse": 0.0, "NSE": null, "VIVTOT": 0.0, "GRAPROES": 0.0, "_ent": "30", "_mun": "189", "_loc": "0059"}, "geometry": {"type": "Polygon", "coordinates": [[[-97.43041, 20.82239], [-97.42964, 20.82259], [-97.42893, 20.8216], [-97.43008, 20.82153], [-97.43041, 20.82239]]]}}, {"id": "2389105", "type": "Feature", "properties": {"id": "2389105", "CVEGEO": "3018900590094007", "POBTOT": 0.0, "score_nse": 0.0, "NSE": null, "VIVTOT": 0.0, "GRAPROES": 0.0, "_ent": "30", "_mun": "189", "_loc": "0059"}, "geometry": {"type": "Polygon", "coordinates": [[[-97.4329, 20.82216], [-97.43205, 20.82221], [-97.43178, 20.82137], [-97.43209, 20.82131], [-97.4329, 20.82216]]]}}, {"id": "2389293", "type": "Feature", "properties": {"id": "2389293", "CVEGEO": "3018900590094020", "POBTOT": 0.0, "score_nse": 0.0, "NSE": null, "VIVTOT": 0.0, "GRAPROES": 0.0, "_ent": "30", "_mun": "189", "_loc": "0059"}, "geometry": {"type": "Polygon", "coordinates": [[[-97.43136, 20.82511], [-97.43106, 20.82484], [-97.43135, 20.82471], [-97.43117, 20.82423], [-97.43164, 20.82419], [-97.4319, 20.82485], [-97.43136, 20.82511]]]}}, {"id": "2389294", "type": "Feature", "properties": {"id": "2389294", "CVEGEO": "3018900590094019", "POBTOT": 0.0, "score_nse": 0.0, "NSE": null, "VIVTOT": 0.0, "GRAPROES": 0.0, "_ent": "30", "_mun": "189", "_loc": "0059"}, "geometry": {"type": "Polygon", "coordinates": [[[-97.42906, 20.82611], [-97.42834, 20.82476], [-97.4295, 20.82404], [-97.42947, 20.82478], [-97.42978, 20.82555], [-97.42906, 20.82611]]]}}, {"id": "2389295", "type": "Feature", "properties": {"id": "2389295", "CVEGEO": "3018900590094017", "POBTOT": 0.0, "score_nse": 0.0, "NSE": null, "VIVTOT": 0.0, "GRAPROES": 0.0, "_ent": "30", "_mun": "189", "_loc": "0059"}, "geometry": {"type": "Polygon", "coordinates": [[[-97.43094, 20.82486], [-97.42988, 20.82552], [-97.42955, 20.82477], [-97.42956, 20.82405], [-97.43035, 20.82435], [-97.43094, 20.82486]]]}}, {"id": "2389296", "type": "Feature", "properties": {"id": "2389296", "CVEGEO": "3018900590094015", "POBTOT": 0.0, "score_nse": 0.0, "NSE": null, "VIVTOT": 0.0, "GRAPROES": 0.0, "_ent": "30", "_mun": "189", "_loc": "0059"}, "geometry": {"type": "Polygon", "coordinates": [[[-97.43336, 20.82317], [-97.43369, 20.82316], [-97.4342, 20.8238], [-97.43368, 20.82397], [-97.43336, 20.82317]]]}}, {"id": "2389297", "type": "Feature", "properties": {"id": "2389297", "CVEGEO": "3018900590094013", "POBTOT": 0.0, "score_nse": 0.0, "NSE": null, "VIVTOT": 0.0, "GRAPROES": 0.0, "_ent": "30", "_mun": "189", "_loc": "0059"}, "geometry": {"type": "Polygon", "coordinates": [[[-97.43044, 20.82245], [-97.43073, 20.8233], [-97.43005, 20.82361], [-97.42968, 20.82265], [-97.43044, 20.82245]]]}}, {"id": "2389298", "type": "Feature", "properties": {"id": "2389298", "CVEGEO": "3018900590094010", "POBTOT": 0.0, "score_nse": 0.0, "NSE": null, "VIVTOT": 0.0, "GRAPROES": 0.0, "_ent": "30", "_mun": "189", "_loc": "0059"}, "geometry": {"type": "Polygon", "coordinates": [[[-97.43312, 20.82421], [-97.43195, 20.82483], [-97.4317, 20.82419], [-97.43264, 20.82412], [-97.43312, 20.82421]]]}}, {"id": "2389299", "type": "Feature", "properties": {"id": "2389299", "CVEGEO": "3018900590094008", "POBTOT": 0.0, "score_nse": 0.0, "NSE": null, "VIVTOT": 0.0, "GRAPROES": 0.0, "_ent": "30", "_mun": "189", "_loc": "0059"}, "geometry": {"type": "Polygon", "coordinates": [[[-97.43328, 20.82311], [-97.43235, 20.82315], [-97.43207, 20.82227], [-97.43294, 20.82223], [-97.43328, 20.82311]]]}}, {"id": "2389300", "type": "Feature", "properties": {"id": "2389300", "CVEGEO": "3018900590094006", "POBTOT": 0.0, "score_nse": 0.0, "NSE": null, "VIVTOT": 0.0, "GRAPROES": 0.0, "_ent": "30", "_mun": "189", "_loc": "0059"}, "geometry": {"type": "Polygon", "coordinates": [[[-97.43199, 20.82222], [-97.43103, 20.82229], [-97.43074, 20.82146], [-97.43172, 20.82138], [-97.43199, 20.82222]]]}}, {"id": "2389972", "type": "Feature", "properties": {"id": "2389972", "CVEGEO": "3018900590094005", "POBTOT": 0.0, "score_nse": 0.0, "NSE": null, "VIVTOT": 0.0, "GRAPROES": 0.0, "_ent": "30", "_mun": "189", "_loc": "0059"}, "geometry": {"type": "Polygon", "coordinates": [[[-97.43099, 20.82229], [-97.43047, 20.82239], [-97.43013, 20.82151], [-97.43068, 20.82146], [-97.43099, 20.82229]]]}}, {"id": "2389973", "type": "Feature", "properties": {"id": "2389973", "CVEGEO": "3018900590094003", "POBTOT": 0.0, "score_nse": 0.0, "NSE": null, "VIVTOT": 0.0, "GRAPROES": 0.0, "_ent": "30", "_mun": "189", "_loc": "0059"}, "geometry": {"type": "Polygon", "coordinates": [[[-97.43163, 20.82415], [-97.43113, 20.82417], [-97.43082, 20.82332], [-97.43131, 20.82326], [-97.43163, 20.82415]]]}}, {"id": "2389974", "type": "Feature", "properties": {"id": "2389974", "CVEGEO": "3018900590094002", "POBTOT": 0.0, "score_nse": 0.0, "NSE": null, "VIVTOT": 0.0, "GRAPROES": 0.0, "_ent": "30", "_mun": "189", "_loc": "0059"}, "geometry": {"type": "Polygon", "coordinates": [[[-97.43263, 20.82408], [-97.43167, 20.82415], [-97.43136, 20.82326], [-97.43232, 20.82322], [-97.43263, 20.82408]]]}}, {"id": "2389975", "type": "Feature", "properties": {"id": "2389975", "CVEGEO": "3018900590094001", "POBTOT": 0.0, "score_nse": 0.0, "NSE": null, "VIVTOT": 0.0, "GRAPROES": 0.0, "_ent": "30", "_mun": "189", "_loc": "0059"}, "geometry": {"type": "Polygon", "coordinates": [[[-97.43228, 20.82316], [-97.43135, 20.82321], [-97.43105, 20.82235], [-97.43201, 20.82228], [-97.43228, 20.82316]]]}}]}