{"type": "FeatureCollection", "features": [{"id": "2186744", "type": "Feature", "properties": {"id": "2186744", "CVEGEO": "2803302560077022", "POBTOT": 0.0, "score_nse": 0.0, "NSE": null, "VIVTOT": 0.0, "GRAPROES": 0.0, "_ent": "28", "_mun": "033", "_loc": "0256"}, "geometry": {"type": "Polygon", "coordinates": [[[-97.95419, 25.83148], [-97.95419, 25.83191], [-97.94939, 25.83189], [-97.94941, 25.83149], [-97.95419, 25.83148]]]}}, {"id": "2186745", "type": "Feature", "properties": {"id": "2186745", "CVEGEO": "2803302560077007", "POBTOT": 0.0, "score_nse": 0.0, "NSE": null, "VIVTOT": 0.0, "GRAPROES": 0.0, "_ent": "28", "_mun": "033", "_loc": "0256"}, "geometry": {"type": "Polygon", "coordinates": [[[-97.95231, 25.83329], [-97.9532, 25.83329], [-97.9532, 25.83427], [-97.95228, 25.83427], [-97.95231, 25.83329]]]}}, {"id": "2186746", "type": "Feature", "properties": {"id": "2186746", "CVEGEO": "2803302560077006", "POBTOT": 0.0, "score_nse": 0.0, "NSE": null, "VIVTOT": 0.0, "GRAPROES": 0.0, "_ent": "28", "_mun": "033", "_loc": "0256"}, "geometry": {"type": "Polygon", "coordinates": [[[-97.95329, 25.8333], [-97.95419, 25.83331], [-97.9542, 25.83426], [-97.9533, 25.83426], [-97.95329, 25.8333]]]}}, {"id": "2186991", "type": "Feature", "properties": {"id": "2186991", "CVEGEO": "2803302560077021", "POBTOT": 0.0, "score_nse": 0.0, "NSE": null, "VIVTOT": 0.0, "GRAPROES": 0.0, "_ent": "28", "_mun": "033", "_loc": "0256"}, "geometry": {"type": "Polygon", "coordinates": [[[-97.95434, 25.83191], [-97.95432, 25.83147], [-97.95914, 25.83146], [-97.95915, 25.8319], [-97.95434, 25.83191]]]}}, {"id": "2186992", "type": "Feature", "properties": {"id": "2186992", "CVEGEO": "2803302560077020", "POBTOT": 0.0, "score_nse": 0.0, "NSE": null, "VIVTOT": 0.0, "GRAPROES": 0.0, "_ent": "28", "_mun": "033", "_loc": "0256"}, "geometry": {"type": "Polygon", "coordinates": [[[-97.95025, 25.8322], [-97.95026, 25.83316], [-97.94937, 25.83316], [-97.94937, 25.83222], [-97.95025, 25.8322]]]}}, {"id": "2186993", "type": "Feature", "properties": {"id": "2186993", "CVEGEO": "2803302560077019", "POBTOT": 0.0, "score_nse": 0.0, "NSE": null, "VIVTOT": 0.0, "GRAPROES": 0.0, "_ent": "28", "_mun": "033", "_loc": "0256"}, "geometry": {"type": "Polygon", "coordinates": [[[-97.95123, 25.8322], [-97.95123, 25.83316], [-97.95037, 25.83316], [-97.95034, 25.8322], [-97.95123, 25.8322]]]}}, {"id": "2186994", "type": "Feature", "properties": {"id": "2186994", "CVEGEO": "2803302560077018", "POBTOT": 0.0, "score_nse": 0.0, "NSE": null, "VIVTOT": 0.0, "GRAPROES": 0.0, "_ent": "28", "_mun": "033", "_loc": "0256"}, "geometry": {"type": "Polygon", "coordinates": [[[-97.95133, 25.83316], [-97.95133, 25.8322], [-97.95223, 25.83219], [-97.95222, 25.83316], [-97.95133, 25.83316]]]}}, {"id": "2186995", "type": "Feature", "properties": {"id": "2186995", "CVEGEO": "2803302560077017", "POBTOT": 0.0, "score_nse": 0.0, "NSE": null, "VIVTOT": 0.0, "GRAPROES": 0.0, "_ent": "28", "_mun": "033", "_loc": "0256"}, "geometry": {"type": "Polygon", "coordinates": [[[-97.95231, 25.83316], [-97.95232, 25.83219], [-97.9532, 25.83221], [-97.95319, 25.83317], [-97.95231, 25.83316]]]}}, {"id": "2186996", "type": "Feature", "properties": {"id": "2186996", "CVEGEO": "2803302560077016", "POBTOT": 0.0, "score_nse": 0.0, "NSE": null, "VIVTOT": 0.0, "GRAPROES": 0.0, "_ent": "28", "_mun": "033", "_loc": "0256"}, "geometry": {"type": "Polygon", "coordinates": [[[-97.95329, 25.83221], [-97.95419, 25.83219], [-97.95419, 25.83317], [-97.95329, 25.83316], [-97.95329, 25.83221]]]}}, {"id": "2186997", "type": "Feature", "properties": {"id": "2186997", "CVEGEO": "2803302560077015", "POBTOT": 0.0, "score_nse": 0.0, "NSE": null, "VIVTOT": 0.0, "GRAPROES": 0.0, "_ent": "28", "_mun": "033", "_loc": "0256"}, "geometry": {"type": "Polygon", "coordinates": [[[-97.95529, 25.8322], [-97.9553, 25.83317], [-97.95441, 25.83316], [-97.95441, 25.8322], [-97.95529, 25.8322]]]}}, {"id": "2186999", "type": "Feature", "properties": {"id": "2186999", "CVEGEO": "2803302560077005", "POBTOT": 0.0, "score_nse": 0.0, "NSE": null, "VIVTOT": 0.0, "GRAPROES": 0.0, "_ent": "28", "_mun": "033", "_loc": "0256"}, "geometry": {"type": "Polygon", "coordinates": [[[-97.95443, 25.83426], [-97.95442, 25.8333], [-97.95529, 25.8333], [-97.9553, 25.83426], [-97.95443, 25.83426]]]}}, {"id": "2187000", "type": "Feature", "properties": {"id": "2187000", "CVEGEO": "2803302560077004", "POBTOT": 0.0, "score_nse": 0.0, "NSE": null, "VIVTOT": 0.0, "GRAPROES": 0.0, "_ent": "28", "_mun": "033", "_loc": "0256"}, "geometry": {"type": "Polygon", "coordinates": [[[-97.95539, 25.83427], [-97.95539, 25.8333], [-97.95629, 25.83329], [-97.95628, 25.83427], [-97.95539, 25.83427]]]}}, {"id": "2187001", "type": "Feature", "properties": {"id": "2187001", "CVEGEO": "2803302560077003", "POBTOT": 0.0, "score_nse": 0.0, "NSE": null, "VIVTOT": 0.0, "GRAPROES": 0.0, "_ent": "28", "_mun": "033", "_loc": "0256"}, "geometry": {"type": "Polygon", "coordinates": [[[-97.95638, 25.83426], [-97.95637, 25.83329], [-97.95725, 25.83329], [-97.95724, 25.83425], [-97.95638, 25.83426]]]}}, {"id": "2187002", "type": "Feature", "properties": {"id": "2187002", "CVEGEO": "2803302560077002", "POBTOT": 0.0, "score_nse": 0.0, "NSE": null, "VIVTOT": 0.0, "GRAPROES": 0.0, "_ent": "28", "_mun": "033", "_loc": "0256"}, "geometry": {"type": "Polygon", "coordinates": [[[-97.95735, 25.83329], [-97.95822, 25.8333], [-97.95823, 25.83426], [-97.95734, 25.83425], [-97.95735, 25.83329]]]}}, {"id": "2187003", "type": "Feature", "properties": {"id": "2187003", "CVEGEO": "2803302560077001", "POBTOT": 0.0, "score_nse": 0.0, "NSE": null, "VIVTOT": 0.0, "GRAPROES": 0.0, "_ent": "28", "_mun": "033", "_loc": "0256"}, "geometry": {"type": "Polygon", "coordinates": [[[-97.95923, 25.83332], [-97.95921, 25.83428], [-97.95832, 25.83426], [-97.95831, 25.8333], [-97.95923, 25.83332]]]}}, {"id": "2187120", "type": "Feature", "properties": {"id": "2187120", "CVEGEO": "2803302560077023", "POBTOT": 0.0, "score_nse": 0.0, "NSE": null, "VIVTOT": 0.0, "GRAPROES": 0.0, "_ent": "28", "_mun": "033", "_loc": "0256"}, "geometry": {"type": "Polygon", "coordinates": [[[-97.94941, 25.83139], [-97.9494, 25.83095], [-97.95914, 25.83097], [-97.95914, 25.83141], [-97.94941, 25.83139]]]}}, {"id": "2187252", "type": "Feature", "properties": {"id": "2187252", "CVEGEO": "2803302560077014", "POBTOT": 0.0, "score_nse": 0.0, "NSE": null, "VIVTOT": 0.0, "GRAPROES": 0.0, "_ent": "28", "_mun": "033", "_loc": "0256"}, "geometry": {"type": "Polygon", "coordinates": [[[-97.95538, 25.83317], [-97.95539, 25.83219], [-97.95626, 25.83219], [-97.95629, 25.83317], [-97.95538, 25.83317]]]}}, {"id": "2187253", "type": "Feature", "properties": {"id": "2187253", "CVEGEO": "2803302560077013", "POBTOT": 0.0, "score_nse": 0.0, "NSE": null, "VIVTOT": 0.0, "GRAPROES": 0.0, "_ent": "28", "_mun": "033", "_loc": "0256"}, "geometry": {"type": "Polygon", "coordinates": [[[-97.95637, 25.83317], [-97.95635, 25.83219], [-97.95724, 25.8322], [-97.95725, 25.83317], [-97.95637, 25.83317]]]}}, {"id": "2187254", "type": "Feature", "properties": {"id": "2187254", "CVEGEO": "2803302560077012", "POBTOT": 0.0, "score_nse": 0.0, "NSE": null, "VIVTOT": 0.0, "GRAPROES": 0.0, "_ent": "28", "_mun": "033", "_loc": "0256"}, "geometry": {"type": "Polygon", "coordinates": [[[-97.95734, 25.83317], [-97.95733, 25.8322], [-97.95821, 25.83219], [-97.95821, 25.83317], [-97.95734, 25.83317]]]}}, {"id": "2187255", "type": "Feature", "properties": {"id": "2187255", "CVEGEO": "2803302560077011", "POBTOT": 0.0, "score_nse": 0.0, "NSE": null, "VIVTOT": 0.0, "GRAPROES": 0.0, "_ent": "28", "_mun": "033", "_loc": "0256"}, "geometry": {"type": "Polygon", "coordinates": [[[-97.95919, 25.83217], [-97.95923, 25.83318], [-97.95831, 25.83317], [-97.95831, 25.83219], [-97.95919, 25.83217]]]}}, {"id": "2187256", "type": "Feature", "properties": {"id": "2187256", "CVEGEO": "2803302560077010", "POBTOT": 0.0, "score_nse": 0.0, "NSE": null, "VIVTOT": 0.0, "GRAPROES": 0.0, "_ent": "28", "_mun": "033", "_loc": "0256"}, "geometry": {"type": "Polygon", "coordinates": [[[-97.94939, 25.83426], [-97.94937, 25.83328], [-97.95027, 25.83328], [-97.95028, 25.83426], [-97.94939, 25.83426]]]}}, {"id": "2187257", "type": "Feature", "properties": {"id": "2187257", "CVEGEO": "2803302560077009", "POBTOT": 0.0, "score_nse": 0.0, "NSE": null, "VIVTOT": 0.0, "GRAPROES": 0.0, "_ent": "28", "_mun": "033", "_loc": "0256"}, "geometry": {"type": "Polygon", "coordinates": [[[-97.95039, 25.83426], [-97.95037, 25.83328], [-97.95123, 25.83328], [-97.95122, 25.83426], [-97.95039, 25.83426]]]}}, {"id": "2187258", "type": "Feature", "properties": {"id": "2187258", "CVEGEO": "2803302560077008", "POBTOT": 0.0, "score_nse": 0.0, "NSE": null, "VIVTOT": 0.0, "GRAPROES": 0.0, "_ent": "28", "_mun": "033", "_loc": "0256"}, "geometry": {"type": "Polygon", "coordinates": [[[-97.95222, 25.83329], [-97.95219, 25.83427], [-97.95133, 25.83426], [-97.95133, 25.83328], [-97.95222, 25.83329]]]}}]}