{"type": "FeatureCollection", "features": [{"id": "666034", "type": "Feature", "properties": {"id": "666034", "CVEGEO": "1102004440957006", "POBTOT": 0.0, "score_nse": 0.0, "NSE": null, "VIVTOT": 0.0, "GRAPROES": 0.0, "_ent": "11", "_mun": "020", "_loc": "0444"}, "geometry": {"type": "Polygon", "coordinates": [[[-101.49083, 21.03676], [-101.49165, 21.038], [-101.49154, 21.0376], [-101.49175, 21.03739], [-101.49186, 21.03755], [-101.49215, 21.03843], [-101.49204, 21.0387], [-101.49043, 21.03693], [-101.49067, 21.03667], [-101.49077, 21.03671], [-101.49062, 21.03699], [-101.49077, 21.03713], [-101.49083, 21.03676]]]}}, {"id": "666035", "type": "Feature", "properties": {"id": "666035", "CVEGEO": "1102004440957005", "POBTOT": 0.0, "score_nse": 0.0, "NSE": null, "VIVTOT": 0.0, "GRAPROES": 0.0, "_ent": "11", "_mun": "020", "_loc": "0444"}, "geometry": {"type": "Polygon", "coordinates": [[[-101.49314, 21.03749], [-101.49258, 21.03755], [-101.49219, 21.03817], [-101.49192, 21.03757], [-101.49212, 21.03739], [-101.49318, 21.03727], [-101.49314, 21.03749]]]}}, {"id": "666036", "type": "Feature", "properties": {"id": "666036", "CVEGEO": "1102004440957004", "POBTOT": 0.0, "score_nse": 0.0, "NSE": null, "VIVTOT": 0.0, "GRAPROES": 0.0, "_ent": "11", "_mun": "020", "_loc": "0444"}, "geometry": {"type": "Polygon", "coordinates": [[[-101.49248, 21.03691], [-101.49149, 21.03667], [-101.49163, 21.03631], [-101.49217, 21.03656], [-101.49164, 21.03628], [-101.49212, 21.03505], [-101.49248, 21.03502], [-101.49238, 21.03558], [-101.49203, 21.03613], [-101.4925, 21.03638], [-101.49312, 21.03601], [-101.49306, 21.03647], [-101.49326, 21.03649], [-101.49328, 21.03666], [-101.4936, 21.03686], [-101.49404, 21.03695], [-101.494, 21.0371], [-101.49227, 21.03733], [-101.49248, 21.03691]]]}}, {"id": "666037", "type": "Feature", "properties": {"id": "666037", "CVEGEO": "1102004440957003", "POBTOT": 0.0, "score_nse": 0.0, "NSE": null, "VIVTOT": 0.0, "GRAPROES": 0.0, "_ent": "11", "_mun": "020", "_loc": "0444"}, "geometry": {"type": "Polygon", "coordinates": [[[-101.49143, 21.03652], [-101.49145, 21.03673], [-101.49125, 21.03682], [-101.49054, 21.03649], [-101.49079, 21.03612], [-101.49102, 21.0363], [-101.49183, 21.03518], [-101.49202, 21.03521], [-101.4918, 21.03602], [-101.49143, 21.03652]]]}}, {"id": "666038", "type": "Feature", "properties": {"id": "666038", "CVEGEO": "1102004440957002", "POBTOT": 0.0, "score_nse": 0.0, "NSE": null, "VIVTOT": 0.0, "GRAPROES": 0.0, "_ent": "11", "_mun": "020", "_loc": "0444"}, "geometry": {"type": "Polygon", "coordinates": [[[-101.49153, 21.03753], [-101.49109, 21.03698], [-101.49113, 21.03683], [-101.49171, 21.03734], [-101.49153, 21.03753]]]}}, {"id": "666295", "type": "Feature", "properties": {"id": "666295", "CVEGEO": "1102004440957007", "POBTOT": 0.0, "score_nse": 0.0, "NSE": null, "VIVTOT": 0.0, "GRAPROES": 0.0, "_ent": "11", "_mun": "020", "_loc": "0444"}, "geometry": {"type": "Polygon", "coordinates": [[[-101.49255, 21.03911], [-101.49208, 21.03873], [-101.49219, 21.03849], [-101.49266, 21.039], [-101.49255, 21.03911]]]}}, {"id": "666493", "type": "Feature", "properties": {"id": "666493", "CVEGEO": "1102004440957001", "POBTOT": 0.0, "score_nse": 0.0, "NSE": null, "VIVTOT": 0.0, "GRAPROES": 0.0, "_ent": "11", "_mun": "020", "_loc": "0444"}, "geometry": {"type": "Polygon", "coordinates": [[[-101.49218, 21.03727], [-101.49186, 21.03736], [-101.49134, 21.03691], [-101.4917, 21.03677], [-101.49221, 21.03688], [-101.49218, 21.03727]]]}}, {"id": "666649", "type": "Feature", "properties": {"id": "666649", "CVEGEO": "1102004440957011", "POBTOT": 0.0, "score_nse": 0.0, "NSE": null, "VIVTOT": 0.0, "GRAPROES": 0.0, "_ent": "11", "_mun": "020", "_loc": "0444"}, "geometry": {"type": "Polygon", "coordinates": [[[-101.49816, 21.0435], [-101.49808, 21.04369], [-101.49704, 21.04266], [-101.49794, 21.04247], [-101.49816, 21.0435]]]}}, {"id": "666650", "type": "Feature", "properties": {"id": "666650", "CVEGEO": "1102004440957010", "POBTOT": 0.0, "score_nse": 0.0, "NSE": null, "VIVTOT": 0.0, "GRAPROES": 0.0, "_ent": "11", "_mun": "020", "_loc": "0444"}, "geometry": {"type": "Polygon", "coordinates": [[[-101.49708, 21.04038], [-101.497, 21.03933], [-101.49704, 21.03918], [-101.49749, 21.03942], [-101.49736, 21.03969], [-101.49742, 21.04035], [-101.49708, 21.04038]]]}}, {"id": "666816", "type": "Feature", "properties": {"id": "666816", "CVEGEO": "1102004440957012", "POBTOT": 0.0, "score_nse": 0.0, "NSE": null, "VIVTOT": 0.0, "GRAPROES": 0.0, "_ent": "11", "_mun": "020", "_loc": "0444"}, "geometry": {"type": "Polygon", "coordinates": [[[-101.4972, 21.04131], [-101.49709, 21.04042], [-101.49742, 21.04039], [-101.49757, 21.0413], [-101.4972, 21.04131]]]}}, {"id": "666819", "type": "Feature", "properties": {"id": "666819", "CVEGEO": "1102004440957013", "POBTOT": 0.0, "score_nse": 0.0, "NSE": null, "VIVTOT": 0.0, "GRAPROES": 0.0, "_ent": "11", "_mun": "020", "_loc": "0444"}, "geometry": {"type": "Polygon", "coordinates": [[[-101.4976, 21.04137], [-101.49792, 21.04241], [-101.49747, 21.04251], [-101.49721, 21.04136], [-101.4976, 21.04137]]]}}, {"id": "667175", "type": "Feature", "properties": {"id": "667175", "CVEGEO": "1102004440957008", "POBTOT": 0.0, "score_nse": 0.0, "NSE": null, "VIVTOT": 0.0, "GRAPROES": 0.0, "_ent": "11", "_mun": "020", "_loc": "0444"}, "geometry": {"type": "Polygon", "coordinates": [[[-101.49496, 21.0379], [-101.49647, 21.03891], [-101.49643, 21.03914], [-101.49655, 21.03896], [-101.49695, 21.03919], [-101.49704, 21.04041], [-101.49649, 21.04053], [-101.49704, 21.04046], [-101.49741, 21.04251], [-101.49698, 21.04261], [-101.49527, 21.04101], [-101.4948, 21.04046], [-101.49518, 21.04002], [-101.49477, 21.04043], [-101.49443, 21.04019], [-101.49479, 21.03973], [-101.49476, 21.03873], [-101.49496, 21.0379]]]}}, {"id": "667176", "type": "Feature", "properties": {"id": "667176", "CVEGEO": "1102004440957014", "POBTOT": 0.0, "score_nse": 0.0, "NSE": null, "VIVTOT": 0.0, "GRAPROES": 0.0, "_ent": "11", "_mun": "020", "_loc": "0444"}, "geometry": {"type": "Polygon", "coordinates": [[[-101.49367, 21.03881], [-101.49475, 21.03952], [-101.49436, 21.04014], [-101.4934, 21.03949], [-101.49367, 21.03881]]]}}]}