{"type": "FeatureCollection", "features": [{"id": "666147", "type": "Feature", "properties": {"id": "666147", "CVEGEO": "1102014020035006", "POBTOT": 0.0, "score_nse": 0.0, "NSE": null, "VIVTOT": 0.0, "GRAPROES": 0.0, "_ent": "11", "_mun": "020", "_loc": "1402"}, "geometry": {"type": "Polygon", "coordinates": [[[-101.66337, 21.19762], [-101.66315, 21.1978], [-101.66279, 21.19751], [-101.66329, 21.19726], [-101.66337, 21.19762]]]}}, {"id": "666567", "type": "Feature", "properties": {"id": "666567", "CVEGEO": "1102014020035001", "POBTOT": 0.0, "score_nse": 0.0, "NSE": null, "VIVTOT": 0.0, "GRAPROES": 0.0, "_ent": "11", "_mun": "020", "_loc": "1402"}, "geometry": {"type": "Polygon", "coordinates": [[[-101.6633, 21.19715], [-101.6613, 21.19708], [-101.66087, 21.19664], [-101.6631, 21.19678], [-101.6633, 21.19715]]]}}, {"id": "666568", "type": "Feature", "properties": {"id": "666568", "CVEGEO": "1102014020035003", "POBTOT": 0.0, "score_nse": 0.0, "NSE": null, "VIVTOT": 0.0, "GRAPROES": 0.0, "_ent": "11", "_mun": "020", "_loc": "1402"}, "geometry": {"type": "Polygon", "coordinates": [[[-101.66231, 21.19671], [-101.66078, 21.19659], [-101.66062, 21.1964], [-101.66174, 21.19638], [-101.66231, 21.19671]]]}}, {"id": "666569", "type": "Feature", "properties": {"id": "666569", "CVEGEO": "1102014020035002", "POBTOT": 0.0, "score_nse": 0.0, "NSE": null, "VIVTOT": 0.0, "GRAPROES": 0.0, "_ent": "11", "_mun": "020", "_loc": "1402"}, "geometry": {"type": "Polygon", "coordinates": [[[-101.66122, 21.19707], [-101.65893, 21.19682], [-101.65936, 21.1965], [-101.6608, 21.19663], [-101.66122, 21.19707]]]}}, {"id": "666570", "type": "Feature", "properties": {"id": "666570", "CVEGEO": "1102014020035004", "POBTOT": 0.0, "score_nse": 0.0, "NSE": null, "VIVTOT": 0.0, "GRAPROES": 0.0, "_ent": "11", "_mun": "020", "_loc": "1402"}, "geometry": {"type": "Polygon", "coordinates": [[[-101.66072, 21.19658], [-101.65934, 21.19647], [-101.65875, 21.19665], [-101.65873, 21.19578], [-101.65896, 21.19573], [-101.66072, 21.19658]]]}}, {"id": "666714", "type": "Feature", "properties": {"id": "666714", "CVEGEO": "1102014020035005", "POBTOT": 0.0, "score_nse": 0.0, "NSE": null, "VIVTOT": 0.0, "GRAPROES": 0.0, "_ent": "11", "_mun": "020", "_loc": "1402"}, "geometry": {"type": "Polygon", "coordinates": [[[-101.66326, 21.19719], [-101.66239, 21.1975], [-101.66233, 21.19715], [-101.66326, 21.19719]]]}}]}