{"type": "FeatureCollection", "features": [{"id": "991395", "type": "Feature", "properties": {"id": "991395", "CVEGEO": "1409708480602013", "POBTOT": 0.0, "score_nse": 0.0, "NSE": null, "VIVTOT": 0.0, "GRAPROES": 0.0, "_ent": "14", "_mun": "097", "_loc": "0848"}, "geometry": {"type": "Polygon", "coordinates": [[[-103.41799, 20.55039], [-103.41828, 20.5505], [-103.41849, 20.5499], [-103.41978, 20.55025], [-103.41901, 20.55255], [-103.4173, 20.55197], [-103.41799, 20.55039]]]}}, {"id": "991462", "type": "Feature", "properties": {"id": "991462", "CVEGEO": "1409708480602010", "POBTOT": 0.0, "score_nse": 0.0, "NSE": null, "VIVTOT": 0.0, "GRAPROES": 0.0, "_ent": "14", "_mun": "097", "_loc": "0848"}, "geometry": {"type": "Polygon", "coordinates": [[[-103.41697, 20.55229], [-103.41709, 20.55196], [-103.41822, 20.55237], [-103.41807, 20.55269], [-103.41697, 20.55229]]]}}, {"id": "991463", "type": "Feature", "properties": {"id": "991463", "CVEGEO": "1409708480602009", "POBTOT": 0.0, "score_nse": 0.0, "NSE": null, "VIVTOT": 0.0, "GRAPROES": 0.0, "_ent": "14", "_mun": "097", "_loc": "0848"}, "geometry": {"type": "Polygon", "coordinates": [[[-103.41593, 20.55154], [-103.41703, 20.55194], [-103.41691, 20.55226], [-103.41581, 20.55184], [-103.41593, 20.55154]]]}}, {"id": "991929", "type": "Feature", "properties": {"id": "991929", "CVEGEO": "1409708480602006", "POBTOT": 0.0, "score_nse": 0.0, "NSE": null, "VIVTOT": 0.0, "GRAPROES": 0.0, "_ent": "14", "_mun": "097", "_loc": "0848"}, "geometry": {"type": "Polygon", "coordinates": [[[-103.41683, 20.55264], [-103.41695, 20.55235], [-103.41805, 20.55275], [-103.41793, 20.55305], [-103.41683, 20.55264]]]}}, {"id": "991930", "type": "Feature", "properties": {"id": "991930", "CVEGEO": "1409708480602005", "POBTOT": 0.0, "score_nse": 0.0, "NSE": null, "VIVTOT": 0.0, "GRAPROES": 0.0, "_ent": "14", "_mun": "097", "_loc": "0848"}, "geometry": {"type": "Polygon", "coordinates": [[[-103.41579, 20.55189], [-103.41688, 20.55232], [-103.41677, 20.55261], [-103.41567, 20.55218], [-103.41579, 20.55189]]]}}, {"id": "991931", "type": "Feature", "properties": {"id": "991931", "CVEGEO": "1409708480602004", "POBTOT": 0.0, "score_nse": 0.0, "NSE": null, "VIVTOT": 0.0, "GRAPROES": 0.0, "_ent": "14", "_mun": "097", "_loc": "0848"}, "geometry": {"type": "Polygon", "coordinates": [[[-103.41564, 20.55225], [-103.41674, 20.55267], [-103.41664, 20.55295], [-103.41553, 20.55255], [-103.41564, 20.55225]]]}}, {"id": "991932", "type": "Feature", "properties": {"id": "991932", "CVEGEO": "1409708480602003", "POBTOT": 0.0, "score_nse": 0.0, "NSE": null, "VIVTOT": 0.0, "GRAPROES": 0.0, "_ent": "14", "_mun": "097", "_loc": "0848"}, "geometry": {"type": "Polygon", "coordinates": [[[-103.41551, 20.55261], [-103.41661, 20.55302], [-103.41647, 20.55333], [-103.41537, 20.55294], [-103.41551, 20.55261]]]}}, {"id": "991933", "type": "Feature", "properties": {"id": "991933", "CVEGEO": "1409708480602002", "POBTOT": 0.0, "score_nse": 0.0, "NSE": null, "VIVTOT": 0.0, "GRAPROES": 0.0, "_ent": "14", "_mun": "097", "_loc": "0848"}, "geometry": {"type": "Polygon", "coordinates": [[[-103.41657, 20.55333], [-103.41668, 20.55306], [-103.41774, 20.55346], [-103.41761, 20.55375], [-103.41657, 20.55333]]]}}, {"id": "991934", "type": "Feature", "properties": {"id": "991934", "CVEGEO": "1409708480602001", "POBTOT": 0.0, "score_nse": 0.0, "NSE": null, "VIVTOT": 0.0, "GRAPROES": 0.0, "_ent": "14", "_mun": "097", "_loc": "0848"}, "geometry": {"type": "Polygon", "coordinates": [[[-103.4167, 20.55299], [-103.4168, 20.5527], [-103.4179, 20.5531], [-103.41777, 20.5534], [-103.4167, 20.55299]]]}}, {"id": "992003", "type": "Feature", "properties": {"id": "992003", "CVEGEO": "1409708480602008", "POBTOT": 0.0, "score_nse": 0.0, "NSE": null, "VIVTOT": 0.0, "GRAPROES": 0.0, "_ent": "14", "_mun": "097", "_loc": "0848"}, "geometry": {"type": "Polygon", "coordinates": [[[-103.41429, 20.55095], [-103.41584, 20.55157], [-103.41518, 20.55333], [-103.41354, 20.553], [-103.41429, 20.55095]]]}}, {"id": "992060", "type": "Feature", "properties": {"id": "992060", "CVEGEO": "1409708480602011", "POBTOT": 0.0, "score_nse": 0.0, "NSE": null, "VIVTOT": 0.0, "GRAPROES": 0.0, "_ent": "14", "_mun": "097", "_loc": "0848"}, "geometry": {"type": "Polygon", "coordinates": [[[-103.41788, 20.55324], [-103.41826, 20.55239], [-103.41857, 20.5525], [-103.41817, 20.55334], [-103.41788, 20.55324]]]}}, {"id": "994349", "type": "Feature", "properties": {"id": "994349", "CVEGEO": "1409708480602017", "POBTOT": 0.0, "score_nse": 0.0, "NSE": null, "VIVTOT": 0.0, "GRAPROES": 0.0, "_ent": "14", "_mun": "097", "_loc": "0848"}, "geometry": {"type": "Polygon", "coordinates": [[[-103.41787, 20.55431], [-103.41861, 20.55252], [-103.4189, 20.55264], [-103.41823, 20.5545], [-103.41787, 20.55431]]]}}, {"id": "994350", "type": "Feature", "properties": {"id": "994350", "CVEGEO": "1409708480602012", "POBTOT": 0.0, "score_nse": 0.0, "NSE": null, "VIVTOT": 0.0, "GRAPROES": 0.0, "_ent": "14", "_mun": "097", "_loc": "0848"}, "geometry": {"type": "Polygon", "coordinates": [[[-103.41741, 20.55416], [-103.41521, 20.55338], [-103.41534, 20.55303], [-103.41647, 20.55336], [-103.41642, 20.55364], [-103.41653, 20.55339], [-103.41757, 20.55381], [-103.41741, 20.55416]]]}}, {"id": "994351", "type": "Feature", "properties": {"id": "994351", "CVEGEO": "1409708480602016", "POBTOT": 0.0, "score_nse": 0.0, "NSE": null, "VIVTOT": 0.0, "GRAPROES": 0.0, "_ent": "14", "_mun": "097", "_loc": "0848"}, "geometry": {"type": "Polygon", "coordinates": [[[-103.41746, 20.55418], [-103.41786, 20.55327], [-103.41816, 20.55338], [-103.41778, 20.55432], [-103.41746, 20.55418]]]}}]}