{"type": "FeatureCollection", "features": [{"id": "1156360", "type": "Feature", "properties": {"id": "1156360", "CVEGEO": "1509000060216020", "POBTOT": 0.0, "score_nse": 10.0, "NSE": "E", "VIVTOT": 2.0, "GRAPROES": 0.0, "_ent": "15", "_mun": "090", "_loc": "0006"}, "geometry": {"type": "Polygon", "coordinates": [[[-99.60828, 19.07108], [-99.60787, 19.07108], [-99.60814, 19.07094], [-99.60828, 19.07108]]]}}, {"id": "1156431", "type": "Feature", "properties": {"id": "1156431", "CVEGEO": "1509000060220028", "POBTOT": 89.0, "score_nse": 0.0, "NSE": "ND", "VIVTOT": 27.0, "GRAPROES": 9.29, "_ent": "15", "_mun": "090", "_loc": "0006"}, "geometry": {"type": "Polygon", "coordinates": [[[-99.60466, 19.06821], [-99.60475, 19.06988], [-99.6036, 19.06997], [-99.60335, 19.06824], [-99.6037, 19.06824], [-99.60382, 19.06912], [-99.60396, 19.06909], [-99.60387, 19.06823], [-99.60466, 19.06821]]]}}, {"id": "1156432", "type": "Feature", "properties": {"id": "1156432", "CVEGEO": "1509000060220026", "POBTOT": 0.0, "score_nse": 0.0, "NSE": "ND", "VIVTOT": 0.0, "GRAPROES": 0.0, "_ent": "15", "_mun": "090", "_loc": "0006"}, "geometry": {"type": "Polygon", "coordinates": [[[-99.60593, 19.06911], [-99.60615, 19.0696], [-99.6063, 19.06976], [-99.60599, 19.06978], [-99.60593, 19.06911]]]}}, {"id": "1156433", "type": "Feature", "properties": {"id": "1156433", "CVEGEO": "1509000060220018", "POBTOT": 51.0, "score_nse": 0.0, "NSE": "ND", "VIVTOT": 14.0, "GRAPROES": 7.24, "_ent": "15", "_mun": "090", "_loc": "0006"}, "geometry": {"type": "Polygon", "coordinates": [[[-99.61259, 19.06806], [-99.61189, 19.06806], [-99.61191, 19.06754], [-99.61258, 19.0675], [-99.61259, 19.06806]]]}}, {"id": "1156434", "type": "Feature", "properties": {"id": "1156434", "CVEGEO": "1509000060216040", "POBTOT": 27.0, "score_nse": 0.0, "NSE": "ND", "VIVTOT": 6.0, "GRAPROES": 9.19, "_ent": "15", "_mun": "090", "_loc": "0006"}, "geometry": {"type": "Polygon", "coordinates": [[[-99.61194, 19.07278], [-99.61158, 19.07264], [-99.61152, 19.07205], [-99.61192, 19.07164], [-99.61194, 19.07278]]]}}, {"id": "1156435", "type": "Feature", "properties": {"id": "1156435", "CVEGEO": "1509000060216039", "POBTOT": 2.0, "score_nse": 0.0, "NSE": "ND", "VIVTOT": 1.0, "GRAPROES": 0.0, "_ent": "15", "_mun": "090", "_loc": "0006"}, "geometry": {"type": "Polygon", "coordinates": [[[-99.61187, 19.06986], [-99.61189, 19.06916], [-99.61257, 19.06916], [-99.61256, 19.06987], [-99.61187, 19.06986]]]}}, {"id": "1156436", "type": "Feature", "properties": {"id": "1156436", "CVEGEO": "1509000060216036", "POBTOT": 29.0, "score_nse": 59.643, "NSE": "C", "VIVTOT": 8.0, "GRAPROES": 10.6, "_ent": "15", "_mun": "090", "_loc": "0006"}, "geometry": {"type": "Polygon", "coordinates": [[[-99.60293, 19.07096], [-99.60295, 19.07129], [-99.60198, 19.07125], [-99.60118, 19.07089], [-99.60102, 19.07046], [-99.60346, 19.07008], [-99.60358, 19.07113], [-99.60301, 19.07127], [-99.60293, 19.07096]]]}}, {"id": "1156437", "type": "Feature", "properties": {"id": "1156437", "CVEGEO": "1509000060216035", "POBTOT": 196.0, "score_nse": 45.1034, "NSE": "C-", "VIVTOT": 54.0, "GRAPROES": 8.76, "_ent": "15", "_mun": "090", "_loc": "0006"}, "geometry": {"type": "Polygon", "coordinates": [[[-99.60592, 19.07188], [-99.60511, 19.07253], [-99.60377, 19.07423], [-99.60397, 19.07337], [-99.60388, 19.07257], [-99.60436, 19.0725], [-99.60388, 19.07251], [-99.60374, 19.0713], [-99.60555, 19.07103], [-99.60559, 19.07146], [-99.60561, 19.07109], [-99.60594, 19.0714], [-99.60592, 19.07188]]]}}, {"id": "1156438", "type": "Feature", "properties": {"id": "1156438", "CVEGEO": "1509000060216026", "POBTOT": 102.0, "score_nse": 0.0, "NSE": "ND", "VIVTOT": 31.0, "GRAPROES": 8.54, "_ent": "15", "_mun": "090", "_loc": "0006"}, "geometry": {"type": "Polygon", "coordinates": [[[-99.61329, 19.07026], [-99.6134, 19.07086], [-99.61319, 19.07087], [-99.61314, 19.07067], [-99.61314, 19.07087], [-99.61264, 19.07087], [-99.61265, 19.07027], [-99.61283, 19.07044], [-99.61283, 19.07027], [-99.61329, 19.07026]]]}}, {"id": "1156439", "type": "Feature", "properties": {"id": "1156439", "CVEGEO": "1509000060216005", "POBTOT": 70.0, "score_nse": 0.0, "NSE": "ND", "VIVTOT": 22.0, "GRAPROES": 9.56, "_ent": "15", "_mun": "090", "_loc": "0006"}, "geometry": {"type": "Polygon", "coordinates": [[[-99.61183, 19.06947], [-99.61121, 19.06948], [-99.6112, 19.06886], [-99.61183, 19.06881], [-99.61183, 19.06947]]]}}, {"id": "1156440", "type": "Feature", "properties": {"id": "1156440", "CVEGEO": "1509000060216004", "POBTOT": 71.0, "score_nse": 43.6597, "NSE": "C-", "VIVTOT": 23.0, "GRAPROES": 8.37, "_ent": "15", "_mun": "090", "_loc": "0006"}, "geometry": {"type": "Polygon", "coordinates": [[[-99.61044, 19.06954], [-99.61044, 19.06891], [-99.61114, 19.06886], [-99.61115, 19.0695], [-99.61044, 19.06954]]]}}, {"id": "1156441", "type": "Feature", "properties": {"id": "1156441", "CVEGEO": "1509000060216003", "POBTOT": 140.0, "score_nse": 49.7539, "NSE": "C-", "VIVTOT": 33.0, "GRAPROES": 8.68, "_ent": "15", "_mun": "090", "_loc": "0006"}, "geometry": {"type": "Polygon", "coordinates": [[[-99.61037, 19.06892], [-99.61038, 19.06954], [-99.60901, 19.06961], [-99.60904, 19.06897], [-99.60922, 19.06896], [-99.60928, 19.06931], [-99.60927, 19.06896], [-99.61037, 19.06892]]]}}, {"id": "1156442", "type": "Feature", "properties": {"id": "1156442", "CVEGEO": "1509000060216002", "POBTOT": 104.0, "score_nse": 45.3771, "NSE": "C-", "VIVTOT": 38.0, "GRAPROES": 8.97, "_ent": "15", "_mun": "090", "_loc": "0006"}, "geometry": {"type": "Polygon", "coordinates": [[[-99.6104, 19.07031], [-99.60899, 19.07038], [-99.609, 19.06967], [-99.61036, 19.0696], [-99.6104, 19.07031]]]}}, {"id": "1156481", "type": "Feature", "properties": {"id": "1156481", "CVEGEO": "1509000060324002", "POBTOT": 126.0, "score_nse": 0.0, "NSE": "ND", "VIVTOT": 42.0, "GRAPROES": 8.05, "_ent": "15", "_mun": "090", "_loc": "0006"}, "geometry": {"type": "Polygon", "coordinates": [[[-99.61043, 19.06597], [-99.61023, 19.06401], [-99.61063, 19.06396], [-99.61023, 19.06396], [-99.61015, 19.06318], [-99.61091, 19.06321], [-99.61107, 19.06663], [-99.61043, 19.06597]]]}}, {"id": "1156532", "type": "Feature", "properties": {"id": "1156532", "CVEGEO": "1509000060292003", "POBTOT": 24.0, "score_nse": 0.0, "NSE": "ND", "VIVTOT": 6.0, "GRAPROES": 8.25, "_ent": "15", "_mun": "090", "_loc": "0006"}, "geometry": {"type": "Polygon", "coordinates": [[[-99.61088, 19.07349], [-99.61077, 19.07235], [-99.61115, 19.07261], [-99.61116, 19.07351], [-99.61088, 19.07349]]]}}, {"id": "1156533", "type": "Feature", "properties": {"id": "1156533", "CVEGEO": "1509000060220016", "POBTOT": 92.0, "score_nse": 48.2617, "NSE": "C-", "VIVTOT": 23.0, "GRAPROES": 8.29, "_ent": "15", "_mun": "090", "_loc": "0006"}, "geometry": {"type": "Polygon", "coordinates": [[[-99.60585, 19.06811], [-99.60337, 19.06817], [-99.60328, 19.06707], [-99.60465, 19.06696], [-99.60527, 19.06702], [-99.60562, 19.06728], [-99.60585, 19.06811]]]}}, {"id": "1156534", "type": "Feature", "properties": {"id": "1156534", "CVEGEO": "1509000060220015", "POBTOT": 68.0, "score_nse": 0.0, "NSE": "ND", "VIVTOT": 19.0, "GRAPROES": 9.67, "_ent": "15", "_mun": "090", "_loc": "0006"}, "geometry": {"type": "Polygon", "coordinates": [[[-99.61182, 19.06874], [-99.61118, 19.06877], [-99.61116, 19.06813], [-99.61183, 19.06815], [-99.61182, 19.06874]]]}}, {"id": "1156535", "type": "Feature", "properties": {"id": "1156535", "CVEGEO": "1509000060220014", "POBTOT": 85.0, "score_nse": 0.0, "NSE": "ND", "VIVTOT": 16.0, "GRAPROES": 6.92, "_ent": "15", "_mun": "090", "_loc": "0006"}, "geometry": {"type": "Polygon", "coordinates": [[[-99.61184, 19.06807], [-99.61117, 19.06808], [-99.6112, 19.06757], [-99.61185, 19.06756], [-99.61184, 19.06807]]]}}, {"id": "1156536", "type": "Feature", "properties": {"id": "1156536", "CVEGEO": "1509000060216025", "POBTOT": 68.0, "score_nse": 51.3438, "NSE": "C-", "VIVTOT": 19.0, "GRAPROES": 8.92, "_ent": "15", "_mun": "090", "_loc": "0006"}, "geometry": {"type": "Polygon", "coordinates": [[[-99.61333, 19.07019], [-99.61265, 19.07021], [-99.61265, 19.06946], [-99.6133, 19.06948], [-99.61333, 19.07019]]]}}, {"id": "1156537", "type": "Feature", "properties": {"id": "1156537", "CVEGEO": "1509000060216024", "POBTOT": 44.0, "score_nse": 0.0, "NSE": "ND", "VIVTOT": 15.0, "GRAPROES": 7.87, "_ent": "15", "_mun": "090", "_loc": "0006"}, "geometry": {"type": "Polygon", "coordinates": [[[-99.61273, 19.06942], [-99.61263, 19.06881], [-99.61327, 19.06881], [-99.61331, 19.06944], [-99.61273, 19.06942]]]}}, {"id": "1156538", "type": "Feature", "properties": {"id": "1156538", "CVEGEO": "1509000060216021", "POBTOT": 141.0, "score_nse": 0.0, "NSE": "ND", "VIVTOT": 38.0, "GRAPROES": 8.97, "_ent": "15", "_mun": "090", "_loc": "0006"}, "geometry": {"type": "Polygon", "coordinates": [[[-99.6074, 19.07072], [-99.60742, 19.0704], [-99.60806, 19.0709], [-99.60602, 19.07182], [-99.60634, 19.06991], [-99.60665, 19.07005], [-99.6066, 19.0704], [-99.60671, 19.07008], [-99.60717, 19.07027], [-99.60715, 19.07082], [-99.6072, 19.07029], [-99.60739, 19.07036], [-99.6074, 19.07072]]]}}, {"id": "1156539", "type": "Feature", "properties": {"id": "1156539", "CVEGEO": "1509000060216019", "POBTOT": 113.0, "score_nse": 0.0, "NSE": "ND", "VIVTOT": 33.0, "GRAPROES": 7.89, "_ent": "15", "_mun": "090", "_loc": "0006"}, "geometry": {"type": "Polygon", "coordinates": [[[-99.60963, 19.07189], [-99.60851, 19.07117], [-99.61044, 19.07109], [-99.61043, 19.07135], [-99.61018, 19.07138], [-99.61044, 19.07139], [-99.61045, 19.07156], [-99.61023, 19.07161], [-99.61044, 19.07161], [-99.61053, 19.07209], [-99.60963, 19.07189]]]}}, {"id": "1156540", "type": "Feature", "properties": {"id": "1156540", "CVEGEO": "1509000060216018", "POBTOT": 91.0, "score_nse": 0.0, "NSE": "ND", "VIVTOT": 20.0, "GRAPROES": 8.1, "_ent": "15", "_mun": "090", "_loc": "0006"}, "geometry": {"type": "Polygon", "coordinates": [[[-99.61053, 19.07108], [-99.6111, 19.07104], [-99.61115, 19.07205], [-99.61073, 19.07217], [-99.61055, 19.0719], [-99.61053, 19.07108]]]}}, {"id": "1156541", "type": "Feature", "properties": {"id": "1156541", "CVEGEO": "1509000060216017", "POBTOT": 94.0, "score_nse": 41.5577, "NSE": "D+", "VIVTOT": 28.0, "GRAPROES": 7.36, "_ent": "15", "_mun": "090", "_loc": "0006"}, "geometry": {"type": "Polygon", "coordinates": [[[-99.61119, 19.07207], [-99.61117, 19.07102], [-99.61185, 19.07097], [-99.61187, 19.0716], [-99.61144, 19.07205], [-99.61119, 19.07207]]]}}, {"id": "1156578", "type": "Feature", "properties": {"id": "1156578", "CVEGEO": "1509000060339002", "POBTOT": 40.0, "score_nse": 0.0, "NSE": "ND", "VIVTOT": 19.0, "GRAPROES": 7.88, "_ent": "15", "_mun": "090", "_loc": "0006"}, "geometry": {"type": "Polygon", "coordinates": [[[-99.61077, 19.07301], [-99.61044, 19.07441], [-99.609, 19.07383], [-99.60893, 19.07289], [-99.60974, 19.07298], [-99.60973, 19.07355], [-99.60979, 19.07298], [-99.61022, 19.07302], [-99.61017, 19.07361], [-99.61028, 19.07303], [-99.61077, 19.07301]]]}}, {"id": "1156580", "type": "Feature", "properties": {"id": "1156580", "CVEGEO": "1509000060220013", "POBTOT": 175.0, "score_nse": 0.0, "NSE": "ND", "VIVTOT": 47.0, "GRAPROES": 7.83, "_ent": "15", "_mun": "090", "_loc": "0006"}, "geometry": {"type": "Polygon", "coordinates": [[[-99.61243, 19.06556], [-99.61244, 19.06618], [-99.61248, 19.06556], [-99.61274, 19.06553], [-99.61279, 19.06617], [-99.61279, 19.06552], [-99.61335, 19.06546], [-99.61325, 19.06738], [-99.61117, 19.06746], [-99.6111, 19.06571], [-99.6116, 19.06566], [-99.61171, 19.06633], [-99.61167, 19.06565], [-99.61212, 19.0656], [-99.6122, 19.06618], [-99.61219, 19.06559], [-99.61243, 19.06556]]]}}, {"id": "1156629", "type": "Feature", "properties": {"id": "1156629", "CVEGEO": "1509000060220025", "POBTOT": 95.0, "score_nse": 0.0, "NSE": "ND", "VIVTOT": 33.0, "GRAPROES": 7.02, "_ent": "15", "_mun": "090", "_loc": "0006"}, "geometry": {"type": "Polygon", "coordinates": [[[-99.61331, 19.06738], [-99.61341, 19.06562], [-99.61359, 19.06559], [-99.61341, 19.06558], [-99.61342, 19.06545], [-99.61389, 19.06545], [-99.61398, 19.06751], [-99.61433, 19.06753], [-99.61448, 19.06825], [-99.61479, 19.0687], [-99.61333, 19.06872], [-99.61332, 19.06813], [-99.61363, 19.06808], [-99.61332, 19.06807], [-99.61332, 19.06745], [-99.61368, 19.06746], [-99.61331, 19.06738]]]}}, {"id": "1156630", "type": "Feature", "properties": {"id": "1156630", "CVEGEO": "1509000060220024", "POBTOT": 51.0, "score_nse": 0.0, "NSE": "ND", "VIVTOT": 15.0, "GRAPROES": 8.46, "_ent": "15", "_mun": "090", "_loc": "0006"}, "geometry": {"type": "Polygon", "coordinates": [[[-99.60143, 19.06779], [-99.60094, 19.06728], [-99.60311, 19.06705], [-99.60323, 19.06811], [-99.60143, 19.06779]]]}}, {"id": "1156631", "type": "Feature", "properties": {"id": "1156631", "CVEGEO": "1509000060220023", "POBTOT": 52.0, "score_nse": 0.0, "NSE": "ND", "VIVTOT": 21.0, "GRAPROES": 8.23, "_ent": "15", "_mun": "090", "_loc": "0006"}, "geometry": {"type": "Polygon", "coordinates": [[[-99.60237, 19.06799], [-99.60324, 19.06821], [-99.60334, 19.06902], [-99.60059, 19.06933], [-99.60023, 19.06803], [-99.60237, 19.06799]]]}}, {"id": "1156632", "type": "Feature", "properties": {"id": "1156632", "CVEGEO": "1509000060220009", "POBTOT": 186.0, "score_nse": 0.0, "NSE": "ND", "VIVTOT": 56.0, "GRAPROES": 8.72, "_ent": "15", "_mun": "090", "_loc": "0006"}, "geometry": {"type": "Polygon", "coordinates": [[[-99.60603, 19.069], [-99.60598, 19.06821], [-99.6064, 19.06821], [-99.6064, 19.06856], [-99.60646, 19.06821], [-99.6072, 19.06821], [-99.60721, 19.06846], [-99.60725, 19.0682], [-99.60895, 19.06821], [-99.60895, 19.06889], [-99.60603, 19.069]]]}}, {"id": "1156634", "type": "Feature", "properties": {"id": "1156634", "CVEGEO": "1509000060220008", "POBTOT": 106.0, "score_nse": 0.0, "NSE": "ND", "VIVTOT": 30.0, "GRAPROES": 8.82, "_ent": "15", "_mun": "090", "_loc": "0006"}, "geometry": {"type": "Polygon", "coordinates": [[[-99.60973, 19.0685], [-99.60973, 19.06887], [-99.60904, 19.06889], [-99.60901, 19.06821], [-99.61036, 19.06816], [-99.61037, 19.06885], [-99.60977, 19.06886], [-99.60973, 19.0685]]]}}, {"id": "1156635", "type": "Feature", "properties": {"id": "1156635", "CVEGEO": "1509000060216015", "POBTOT": 87.0, "score_nse": 0.0, "NSE": "ND", "VIVTOT": 25.0, "GRAPROES": 6.44, "_ent": "15", "_mun": "090", "_loc": "0006"}, "geometry": {"type": "Polygon", "coordinates": [[[-99.61191, 19.07092], [-99.61186, 19.0703], [-99.61257, 19.07027], [-99.61258, 19.07089], [-99.61191, 19.07092]]]}}, {"id": "1156636", "type": "Feature", "properties": {"id": "1156636", "CVEGEO": "1509000060216014", "POBTOT": 25.0, "score_nse": 0.0, "NSE": "ND", "VIVTOT": 14.0, "GRAPROES": 8.05, "_ent": "15", "_mun": "090", "_loc": "0006"}, "geometry": {"type": "Polygon", "coordinates": [[[-99.61187, 19.07021], [-99.61187, 19.06993], [-99.61257, 19.06992], [-99.61257, 19.0702], [-99.61187, 19.07021]]]}}, {"id": "1156645", "type": "Feature", "properties": {"id": "1156645", "CVEGEO": "1509000060220020", "POBTOT": 44.0, "score_nse": 0.0, "NSE": "ND", "VIVTOT": 9.0, "GRAPROES": 9.21, "_ent": "15", "_mun": "090", "_loc": "0006"}, "geometry": {"type": "Polygon", "coordinates": [[[-99.60472, 19.06821], [-99.60582, 19.06821], [-99.60591, 19.06979], [-99.60483, 19.06987], [-99.60472, 19.06821]]]}}, {"id": "1156646", "type": "Feature", "properties": {"id": "1156646", "CVEGEO": "1509000060220019", "POBTOT": 58.0, "score_nse": 0.0, "NSE": "ND", "VIVTOT": 15.0, "GRAPROES": 7.06, "_ent": "15", "_mun": "090", "_loc": "0006"}, "geometry": {"type": "Polygon", "coordinates": [[[-99.61189, 19.06873], [-99.61191, 19.06814], [-99.6126, 19.06814], [-99.6126, 19.06873], [-99.61189, 19.06873]]]}}, {"id": "1156647", "type": "Feature", "properties": {"id": "1156647", "CVEGEO": "1509000060220004", "POBTOT": 93.0, "score_nse": 38.3752, "NSE": "D+", "VIVTOT": 38.0, "GRAPROES": 7.97, "_ent": "15", "_mun": "090", "_loc": "0006"}, "geometry": {"type": "Polygon", "coordinates": [[[-99.60968, 19.06743], [-99.60967, 19.06591], [-99.60984, 19.06588], [-99.60966, 19.06587], [-99.60965, 19.06528], [-99.61008, 19.06576], [-99.61012, 19.06666], [-99.61015, 19.06586], [-99.61034, 19.06603], [-99.61037, 19.06695], [-99.61019, 19.06696], [-99.61037, 19.06699], [-99.61039, 19.06743], [-99.60968, 19.06743]]]}}, {"id": "1156648", "type": "Feature", "properties": {"id": "1156648", "CVEGEO": "1509000060220003", "POBTOT": 157.0, "score_nse": 45.819, "NSE": "C-", "VIVTOT": 40.0, "GRAPROES": 8.52, "_ent": "15", "_mun": "090", "_loc": "0006"}, "geometry": {"type": "Polygon", "coordinates": [[[-99.60961, 19.06709], [-99.60815, 19.06714], [-99.60809, 19.0666], [-99.60962, 19.06656], [-99.60961, 19.06709]]]}}, {"id": "1156649", "type": "Feature", "properties": {"id": "1156649", "CVEGEO": "1509000060216010", "POBTOT": 10.0, "score_nse": 0.0, "NSE": "ND", "VIVTOT": 2.0, "GRAPROES": 0.0, "_ent": "15", "_mun": "090", "_loc": "0006"}, "geometry": {"type": "Polygon", "coordinates": [[[-99.60755, 19.07044], [-99.60822, 19.07042], [-99.60886, 19.07042], [-99.60814, 19.07085], [-99.60755, 19.07044]]]}}, {"id": "1156650", "type": "Feature", "properties": {"id": "1156650", "CVEGEO": "1509000060216009", "POBTOT": 141.0, "score_nse": 43.4164, "NSE": "C-", "VIVTOT": 44.0, "GRAPROES": 9.05, "_ent": "15", "_mun": "090", "_loc": "0006"}, "geometry": {"type": "Polygon", "coordinates": [[[-99.61045, 19.071], [-99.60834, 19.07107], [-99.60821, 19.07093], [-99.60909, 19.07042], [-99.61041, 19.07036], [-99.61045, 19.071]]]}}, {"id": "1156671", "type": "Feature", "properties": {"id": "1156671", "CVEGEO": "1509000060220012", "POBTOT": 173.0, "score_nse": 0.0, "NSE": "ND", "VIVTOT": 45.0, "GRAPROES": 7.93, "_ent": "15", "_mun": "090", "_loc": "0006"}, "geometry": {"type": "Polygon", "coordinates": [[[-99.60959, 19.06649], [-99.60809, 19.06653], [-99.60806, 19.06593], [-99.60886, 19.06593], [-99.60889, 19.06607], [-99.60889, 19.06593], [-99.60957, 19.06594], [-99.60959, 19.06649]]]}}, {"id": "1156672", "type": "Feature", "properties": {"id": "1156672", "CVEGEO": "1509000060220011", "POBTOT": 113.0, "score_nse": 50.3015, "NSE": "C-", "VIVTOT": 32.0, "GRAPROES": 8.99, "_ent": "15", "_mun": "090", "_loc": "0006"}, "geometry": {"type": "Polygon", "coordinates": [[[-99.60808, 19.06714], [-99.60623, 19.0672], [-99.60617, 19.06694], [-99.60617, 19.0672], [-99.60576, 19.06722], [-99.60557, 19.0658], [-99.60798, 19.06593], [-99.60801, 19.06653], [-99.60662, 19.06654], [-99.60802, 19.06661], [-99.60808, 19.06714]]]}}, {"id": "1156673", "type": "Feature", "properties": {"id": "1156673", "CVEGEO": "1509000060220002", "POBTOT": 296.0, "score_nse": 0.0, "NSE": "ND", "VIVTOT": 90.0, "GRAPROES": 8.57, "_ent": "15", "_mun": "090", "_loc": "0006"}, "geometry": {"type": "Polygon", "coordinates": [[[-99.60718, 19.0679], [-99.60717, 19.06814], [-99.60595, 19.06813], [-99.60577, 19.06726], [-99.6079, 19.06723], [-99.60794, 19.06758], [-99.60793, 19.06723], [-99.60888, 19.06719], [-99.6089, 19.06749], [-99.60835, 19.0675], [-99.6089, 19.06752], [-99.60892, 19.06783], [-99.60815, 19.06783], [-99.60892, 19.06786], [-99.60893, 19.06812], [-99.60722, 19.06814], [-99.60718, 19.0679]]]}}, {"id": "1156674", "type": "Feature", "properties": {"id": "1156674", "CVEGEO": "1509000060220001", "POBTOT": 100.0, "score_nse": 50.2574, "NSE": "C-", "VIVTOT": 31.0, "GRAPROES": 9.59, "_ent": "15", "_mun": "090", "_loc": "0006"}, "geometry": {"type": "Polygon", "coordinates": [[[-99.60896, 19.06811], [-99.60891, 19.06719], [-99.6096, 19.06715], [-99.60963, 19.0681], [-99.60944, 19.0681], [-99.60938, 19.06757], [-99.60938, 19.06811], [-99.60896, 19.06811]]]}}, {"id": "1156675", "type": "Feature", "properties": {"id": "1156675", "CVEGEO": "1509000060216041", "POBTOT": 0.0, "score_nse": 0.0, "NSE": "ND", "VIVTOT": 0.0, "GRAPROES": 0.0, "_ent": "15", "_mun": "090", "_loc": "0006"}, "geometry": {"type": "Polygon", "coordinates": [[[-99.61153, 19.07262], [-99.61108, 19.07246], [-99.61079, 19.07223], [-99.61147, 19.07208], [-99.61153, 19.07262]]]}}, {"id": "1156692", "type": "Feature", "properties": {"id": "1156692", "CVEGEO": "1509000060216033", "POBTOT": 62.0, "score_nse": 0.0, "NSE": "ND", "VIVTOT": 25.0, "GRAPROES": 8.13, "_ent": "15", "_mun": "090", "_loc": "0006"}, "geometry": {"type": "Polygon", "coordinates": [[[-99.61409, 19.0695], [-99.61409, 19.07018], [-99.61338, 19.07019], [-99.61337, 19.06949], [-99.61409, 19.0695]]]}}, {"id": "1156699", "type": "Feature", "properties": {"id": "1156699", "CVEGEO": "1509000060216016", "POBTOT": 32.0, "score_nse": 0.0, "NSE": "ND", "VIVTOT": 12.0, "GRAPROES": 5.56, "_ent": "15", "_mun": "090", "_loc": "0006"}, "geometry": {"type": "Polygon", "coordinates": [[[-99.61214, 19.07137], [-99.61192, 19.07137], [-99.61191, 19.07096], [-99.61238, 19.07094], [-99.61238, 19.07107], [-99.61258, 19.07094], [-99.61261, 19.07141], [-99.61192, 19.07157], [-99.61192, 19.07139], [-99.61214, 19.07137]]]}}, {"id": "1156751", "type": "Feature", "properties": {"id": "1156751", "CVEGEO": "1509000060324005", "POBTOT": 159.0, "score_nse": 0.0, "NSE": "ND", "VIVTOT": 47.0, "GRAPROES": 8.64, "_ent": "15", "_mun": "090", "_loc": "0006"}, "geometry": {"type": "Polygon", "coordinates": [[[-99.60559, 19.06693], [-99.60456, 19.06687], [-99.60425, 19.06563], [-99.60384, 19.06575], [-99.60418, 19.06579], [-99.60445, 19.06688], [-99.60401, 19.0669], [-99.60389, 19.06609], [-99.60395, 19.06691], [-99.60355, 19.06694], [-99.60347, 19.06647], [-99.60351, 19.06695], [-99.60325, 19.06699], [-99.60309, 19.06423], [-99.6031, 19.06405], [-99.60342, 19.06399], [-99.60311, 19.06399], [-99.60312, 19.06377], [-99.60363, 19.06371], [-99.60312, 19.06371], [-99.60317, 19.06154], [-99.60347, 19.06151], [-99.60396, 19.06088], [-99.60433, 19.06087], [-99.60452, 19.0611], [-99.60472, 19.06321], [-99.60449, 19.06421], [-99.6047, 19.06502], [-99.60535, 19.06571], [-99.60559, 19.06693]]]}}, {"id": "1156753", "type": "Feature", "properties": {"id": "1156753", "CVEGEO": "1509000060220022", "POBTOT": 47.0, "score_nse": 0.0, "NSE": "ND", "VIVTOT": 18.0, "GRAPROES": 7.46, "_ent": "15", "_mun": "090", "_loc": "0006"}, "geometry": {"type": "Polygon", "coordinates": [[[-99.61318, 19.06871], [-99.61268, 19.06872], [-99.61267, 19.06814], [-99.61327, 19.06813], [-99.61318, 19.06871]]]}}, {"id": "1156754", "type": "Feature", "properties": {"id": "1156754", "CVEGEO": "1509000060220021", "POBTOT": 68.0, "score_nse": 0.0, "NSE": "ND", "VIVTOT": 16.0, "GRAPROES": 7.24, "_ent": "15", "_mun": "090", "_loc": "0006"}, "geometry": {"type": "Polygon", "coordinates": [[[-99.61268, 19.06808], [-99.61267, 19.06746], [-99.61287, 19.06746], [-99.61288, 19.06776], [-99.61291, 19.06746], [-99.61325, 19.06745], [-99.61327, 19.06807], [-99.61268, 19.06808]]]}}, {"id": "1156755", "type": "Feature", "properties": {"id": "1156755", "CVEGEO": "1509000060220007", "POBTOT": 65.0, "score_nse": 0.0, "NSE": "ND", "VIVTOT": 20.0, "GRAPROES": 8.21, "_ent": "15", "_mun": "090", "_loc": "0006"}, "geometry": {"type": "Polygon", "coordinates": [[[-99.61066, 19.06815], [-99.6111, 19.06815], [-99.61111, 19.06878], [-99.61044, 19.06883], [-99.61043, 19.06815], [-99.61062, 19.06815], [-99.61062, 19.06842], [-99.61066, 19.06815]]]}}, {"id": "1156756", "type": "Feature", "properties": {"id": "1156756", "CVEGEO": "1509000060220005", "POBTOT": 47.0, "score_nse": 0.0, "NSE": "ND", "VIVTOT": 17.0, "GRAPROES": 8.97, "_ent": "15", "_mun": "090", "_loc": "0006"}, "geometry": {"type": "Polygon", "coordinates": [[[-99.61041, 19.06605], [-99.61106, 19.06673], [-99.61112, 19.06745], [-99.61046, 19.06746], [-99.61041, 19.06605]]]}}, {"id": "1156757", "type": "Feature", "properties": {"id": "1156757", "CVEGEO": "1509000060216030", "POBTOT": 70.0, "score_nse": 0.0, "NSE": "ND", "VIVTOT": 27.0, "GRAPROES": 7.89, "_ent": "15", "_mun": "090", "_loc": "0006"}, "geometry": {"type": "Polygon", "coordinates": [[[-99.60502, 19.07104], [-99.60487, 19.07038], [-99.60498, 19.07105], [-99.60373, 19.07124], [-99.6036, 19.07003], [-99.60623, 19.06989], [-99.60599, 19.07089], [-99.60502, 19.07104]]]}}, {"id": "1156758", "type": "Feature", "properties": {"id": "1156758", "CVEGEO": "1509000060216028", "POBTOT": 32.0, "score_nse": 0.0, "NSE": "ND", "VIVTOT": 8.0, "GRAPROES": 10.29, "_ent": "15", "_mun": "090", "_loc": "0006"}, "geometry": {"type": "Polygon", "coordinates": [[[-99.61262, 19.07311], [-99.61201, 19.0728], [-99.61199, 19.07161], [-99.61247, 19.0715], [-99.61259, 19.07156], [-99.61262, 19.07311]]]}}, {"id": "1156759", "type": "Feature", "properties": {"id": "1156759", "CVEGEO": "1509000060216011", "POBTOT": 134.0, "score_nse": 0.0, "NSE": "ND", "VIVTOT": 38.0, "GRAPROES": 7.98, "_ent": "15", "_mun": "090", "_loc": "0006"}, "geometry": {"type": "Polygon", "coordinates": [[[-99.60747, 19.07035], [-99.60659, 19.06988], [-99.60895, 19.06969], [-99.60893, 19.07035], [-99.60751, 19.07037], [-99.60751, 19.07009], [-99.60747, 19.07035]]]}}, {"id": "1156811", "type": "Feature", "properties": {"id": "1156811", "CVEGEO": "1509000060216008", "POBTOT": 71.0, "score_nse": 0.0, "NSE": "ND", "VIVTOT": 21.0, "GRAPROES": 7.14, "_ent": "15", "_mun": "090", "_loc": "0006"}, "geometry": {"type": "Polygon", "coordinates": [[[-99.61054, 19.07101], [-99.61048, 19.07034], [-99.61113, 19.07033], [-99.61113, 19.07096], [-99.61054, 19.07101]]]}}, {"id": "1156812", "type": "Feature", "properties": {"id": "1156812", "CVEGEO": "1509000060216013", "POBTOT": 17.0, "score_nse": 0.0, "NSE": "ND", "VIVTOT": 10.0, "GRAPROES": 6.08, "_ent": "15", "_mun": "090", "_loc": "0006"}, "geometry": {"type": "Polygon", "coordinates": [[[-99.6119, 19.0691], [-99.6119, 19.06878], [-99.61256, 19.06878], [-99.61257, 19.0691], [-99.6119, 19.0691]]]}}, {"id": "1156839", "type": "Feature", "properties": {"id": "1156839", "CVEGEO": "1509000060216007", "POBTOT": 74.0, "score_nse": 0.0, "NSE": "ND", "VIVTOT": 23.0, "GRAPROES": 8.02, "_ent": "15", "_mun": "090", "_loc": "0006"}, "geometry": {"type": "Polygon", "coordinates": [[[-99.61181, 19.07029], [-99.61184, 19.07091], [-99.61121, 19.07095], [-99.6112, 19.07033], [-99.61181, 19.07029]]]}}, {"id": "1156840", "type": "Feature", "properties": {"id": "1156840", "CVEGEO": "1509000060216006", "POBTOT": 54.0, "score_nse": 0.0, "NSE": "ND", "VIVTOT": 19.0, "GRAPROES": 7.61, "_ent": "15", "_mun": "090", "_loc": "0006"}, "geometry": {"type": "Polygon", "coordinates": [[[-99.6118, 19.07025], [-99.6112, 19.07027], [-99.61121, 19.06958], [-99.61182, 19.06954], [-99.6118, 19.07025]]]}}, {"id": "1156883", "type": "Feature", "properties": {"id": "1156883", "CVEGEO": "1509000060220029", "POBTOT": 33.0, "score_nse": 0.0, "NSE": "ND", "VIVTOT": 13.0, "GRAPROES": 8.46, "_ent": "15", "_mun": "090", "_loc": "0006"}, "geometry": {"type": "Polygon", "coordinates": [[[-99.61037, 19.06748], [-99.61038, 19.06809], [-99.60968, 19.0681], [-99.60966, 19.06749], [-99.61037, 19.06748]]]}}, {"id": "1156904", "type": "Feature", "properties": {"id": "1156904", "CVEGEO": "1509000060339005", "POBTOT": 31.0, "score_nse": 0.0, "NSE": "ND", "VIVTOT": 9.0, "GRAPROES": 7.76, "_ent": "15", "_mun": "090", "_loc": "0006"}, "geometry": {"type": "Polygon", "coordinates": [[[-99.61674, 19.07242], [-99.61628, 19.07248], [-99.61639, 19.07374], [-99.61598, 19.07369], [-99.61593, 19.07343], [-99.615, 19.07311], [-99.6133, 19.07342], [-99.61266, 19.07302], [-99.61266, 19.07231], [-99.61584, 19.07214], [-99.61674, 19.07242]]]}}, {"id": "1156905", "type": "Feature", "properties": {"id": "1156905", "CVEGEO": "1509000060339011", "POBTOT": 12.0, "score_nse": 0.0, "NSE": "ND", "VIVTOT": 3.0, "GRAPROES": 0.0, "_ent": "15", "_mun": "090", "_loc": "0006"}, "geometry": {"type": "Polygon", "coordinates": [[[-99.61579, 19.07141], [-99.61686, 19.07168], [-99.61693, 19.07239], [-99.61585, 19.07207], [-99.61579, 19.07141]]]}}, {"id": "1156906", "type": "Feature", "properties": {"id": "1156906", "CVEGEO": "1509000060216032", "POBTOT": 156.0, "score_nse": 41.8425, "NSE": "D+", "VIVTOT": 42.0, "GRAPROES": 7.92, "_ent": "15", "_mun": "090", "_loc": "0006"}, "geometry": {"type": "Polygon", "coordinates": [[[-99.61333, 19.0688], [-99.61441, 19.06878], [-99.61441, 19.0694], [-99.61335, 19.06943], [-99.61333, 19.0688]]]}}, {"id": "1156907", "type": "Feature", "properties": {"id": "1156907", "CVEGEO": "1509000060216034", "POBTOT": 50.0, "score_nse": 0.0, "NSE": "ND", "VIVTOT": 12.0, "GRAPROES": 7.44, "_ent": "15", "_mun": "090", "_loc": "0006"}, "geometry": {"type": "Polygon", "coordinates": [[[-99.61342, 19.07024], [-99.6142, 19.07021], [-99.61423, 19.0707], [-99.61345, 19.07085], [-99.61342, 19.07024]]]}}, {"id": "1156913", "type": "Feature", "properties": {"id": "1156913", "CVEGEO": "1509000060216037", "POBTOT": 147.0, "score_nse": 36.1511, "NSE": "D+", "VIVTOT": 34.0, "GRAPROES": 6.7, "_ent": "15", "_mun": "090", "_loc": "0006"}, "geometry": {"type": "Polygon", "coordinates": [[[-99.61512, 19.06939], [-99.61507, 19.07043], [-99.61431, 19.07068], [-99.61414, 19.06946], [-99.61512, 19.06939]]]}}, {"id": "1156917", "type": "Feature", "properties": {"id": "1156917", "CVEGEO": "1509000060216027", "POBTOT": 114.0, "score_nse": 38.8393, "NSE": "D+", "VIVTOT": 29.0, "GRAPROES": 5.68, "_ent": "15", "_mun": "090", "_loc": "0006"}, "geometry": {"type": "Polygon", "coordinates": [[[-99.61282, 19.07091], [-99.6148, 19.07075], [-99.61508, 19.07054], [-99.61505, 19.07103], [-99.61418, 19.07096], [-99.61321, 19.07138], [-99.61266, 19.07142], [-99.61266, 19.0713], [-99.61288, 19.07125], [-99.61266, 19.07126], [-99.61264, 19.07092], [-99.61282, 19.07106], [-99.61282, 19.07091]]]}}, {"id": "1156938", "type": "Feature", "properties": {"id": "1156938", "CVEGEO": "1509000060339010", "POBTOT": 6.0, "score_nse": 0.0, "NSE": "ND", "VIVTOT": 3.0, "GRAPROES": 0.0, "_ent": "15", "_mun": "090", "_loc": "0006"}, "geometry": {"type": "Polygon", "coordinates": [[[-99.6149, 19.07123], [-99.61575, 19.07141], [-99.6158, 19.07209], [-99.61496, 19.07212], [-99.6149, 19.07123]]]}}, {"id": "1156939", "type": "Feature", "properties": {"id": "1156939", "CVEGEO": "1509000060216043", "POBTOT": 3.0, "score_nse": 0.0, "NSE": "ND", "VIVTOT": 5.0, "GRAPROES": 0.0, "_ent": "15", "_mun": "090", "_loc": "0006"}, "geometry": {"type": "Polygon", "coordinates": [[[-99.60234, 19.07368], [-99.60367, 19.07368], [-99.6037, 19.07389], [-99.60346, 19.07456], [-99.60237, 19.07575], [-99.60234, 19.07368]]]}}, {"id": "1156940", "type": "Feature", "properties": {"id": "1156940", "CVEGEO": "1509000060216044", "POBTOT": 8.0, "score_nse": 0.0, "NSE": "ND", "VIVTOT": 2.0, "GRAPROES": 0.0, "_ent": "15", "_mun": "090", "_loc": "0006"}, "geometry": {"type": "Polygon", "coordinates": [[[-99.60149, 19.07365], [-99.60223, 19.07366], [-99.6023, 19.07573], [-99.602, 19.07612], [-99.6017, 19.07585], [-99.60121, 19.07466], [-99.60149, 19.07365]]]}}, {"id": "1156941", "type": "Feature", "properties": {"id": "1156941", "CVEGEO": "1509000060216045", "POBTOT": 28.0, "score_nse": 0.0, "NSE": "ND", "VIVTOT": 8.0, "GRAPROES": 7.71, "_ent": "15", "_mun": "090", "_loc": "0006"}, "geometry": {"type": "Polygon", "coordinates": [[[-99.60379, 19.07354], [-99.60284, 19.07361], [-99.60272, 19.07135], [-99.60363, 19.07125], [-99.60379, 19.07354]]]}}, {"id": "1156942", "type": "Feature", "properties": {"id": "1156942", "CVEGEO": "1509000060220030", "POBTOT": 4.0, "score_nse": 0.0, "NSE": "ND", "VIVTOT": 2.0, "GRAPROES": 0.0, "_ent": "15", "_mun": "090", "_loc": "0006"}, "geometry": {"type": "Polygon", "coordinates": [[[-99.59984, 19.07033], [-99.60058, 19.06954], [-99.60115, 19.0709], [-99.60007, 19.07056], [-99.59984, 19.07033]]]}}, {"id": "1156943", "type": "Feature", "properties": {"id": "1156943", "CVEGEO": "1509000060220031", "POBTOT": 19.0, "score_nse": 0.0, "NSE": "ND", "VIVTOT": 7.0, "GRAPROES": 6.62, "_ent": "15", "_mun": "090", "_loc": "0006"}, "geometry": {"type": "Polygon", "coordinates": [[[-99.59936, 19.06697], [-99.60085, 19.06727], [-99.60153, 19.06789], [-99.59946, 19.06795], [-99.59936, 19.06697]]]}}, {"id": "1156944", "type": "Feature", "properties": {"id": "1156944", "CVEGEO": "1509000060381001", "POBTOT": 9.0, "score_nse": 0.0, "NSE": "ND", "VIVTOT": 3.0, "GRAPROES": 0.0, "_ent": "15", "_mun": "090", "_loc": "0006"}, "geometry": {"type": "Polygon", "coordinates": [[[-99.59707, 19.07759], [-99.59728, 19.07697], [-99.5989, 19.0776], [-99.59777, 19.07753], [-99.59707, 19.07759]]]}}, {"id": "1156945", "type": "Feature", "properties": {"id": "1156945", "CVEGEO": "1509000060381002", "POBTOT": 64.0, "score_nse": 0.0, "NSE": "ND", "VIVTOT": 19.0, "GRAPROES": 8.28, "_ent": "15", "_mun": "090", "_loc": "0006"}, "geometry": {"type": "Polygon", "coordinates": [[[-99.5973, 19.07693], [-99.59738, 19.07663], [-99.59768, 19.07673], [-99.59899, 19.07723], [-99.59894, 19.07736], [-99.59951, 19.07759], [-99.59897, 19.07759], [-99.5973, 19.07693]]]}}, {"id": "1156975", "type": "Feature", "properties": {"id": "1156975", "CVEGEO": "1509000060216001", "POBTOT": 71.0, "score_nse": 0.0, "NSE": "ND", "VIVTOT": 25.0, "GRAPROES": 8.39, "_ent": "15", "_mun": "090", "_loc": "0006"}, "geometry": {"type": "Polygon", "coordinates": [[[-99.61043, 19.06961], [-99.61115, 19.06959], [-99.61114, 19.07027], [-99.61048, 19.07028], [-99.61043, 19.06961]]]}}, {"id": "1157006", "type": "Feature", "properties": {"id": "1157006", "CVEGEO": "1509000060339004", "POBTOT": 47.0, "score_nse": 0.0, "NSE": "ND", "VIVTOT": 13.0, "GRAPROES": 9.35, "_ent": "15", "_mun": "090", "_loc": "0006"}, "geometry": {"type": "Polygon", "coordinates": [[[-99.61183, 19.07707], [-99.61119, 19.07378], [-99.61161, 19.07376], [-99.61163, 19.07408], [-99.61169, 19.07376], [-99.61194, 19.07374], [-99.61196, 19.07408], [-99.61203, 19.07373], [-99.61276, 19.0737], [-99.61249, 19.07318], [-99.61336, 19.07354], [-99.61457, 19.07349], [-99.61518, 19.07646], [-99.61363, 19.0774], [-99.61277, 19.07737], [-99.61183, 19.07707]]]}}, {"id": "1157007", "type": "Feature", "properties": {"id": "1157007", "CVEGEO": "1509000060339008", "POBTOT": 52.0, "score_nse": 0.0, "NSE": "ND", "VIVTOT": 11.0, "GRAPROES": 6.97, "_ent": "15", "_mun": "090", "_loc": "0006"}, "geometry": {"type": "Polygon", "coordinates": [[[-99.61069, 19.07563], [-99.61086, 19.07356], [-99.61111, 19.07357], [-99.6117, 19.07707], [-99.61051, 19.07715], [-99.61001, 19.07688], [-99.61069, 19.07563]]]}}, {"id": "1157038", "type": "Feature", "properties": {"id": "1157038", "CVEGEO": "1509000060305001", "POBTOT": 32.0, "score_nse": 0.0, "NSE": "ND", "VIVTOT": 12.0, "GRAPROES": 7.33, "_ent": "15", "_mun": "090", "_loc": "0006"}, "geometry": {"type": "Polygon", "coordinates": [[[-99.60758, 19.07238], [-99.6078, 19.07114], [-99.60802, 19.07114], [-99.60798, 19.07155], [-99.60805, 19.07114], [-99.60836, 19.07113], [-99.60836, 19.07143], [-99.6084, 19.07116], [-99.60882, 19.07146], [-99.60881, 19.07273], [-99.60758, 19.07238]]]}}, {"id": "1157063", "type": "Feature", "properties": {"id": "1157063", "CVEGEO": "1509000060339001", "POBTOT": 40.0, "score_nse": 0.0, "NSE": "ND", "VIVTOT": 12.0, "GRAPROES": 6.56, "_ent": "15", "_mun": "090", "_loc": "0006"}, "geometry": {"type": "Polygon", "coordinates": [[[-99.60991, 19.07459], [-99.6101, 19.07427], [-99.61042, 19.07445], [-99.61018, 19.07522], [-99.61016, 19.07583], [-99.61035, 19.07482], [-99.61074, 19.07415], [-99.61079, 19.07467], [-99.61061, 19.07557], [-99.60994, 19.07683], [-99.60925, 19.07598], [-99.60902, 19.07389], [-99.61005, 19.07424], [-99.60991, 19.07459]]]}}, {"id": "1157064", "type": "Feature", "properties": {"id": "1157064", "CVEGEO": "1509000060216022", "POBTOT": 14.0, "score_nse": 0.0, "NSE": "ND", "VIVTOT": 3.0, "GRAPROES": 9.5, "_ent": "15", "_mun": "090", "_loc": "0006"}, "geometry": {"type": "Polygon", "coordinates": [[[-99.60903, 19.07281], [-99.60891, 19.07279], [-99.60892, 19.07155], [-99.60921, 19.07172], [-99.60903, 19.07281]]]}}, {"id": "1157087", "type": "Feature", "properties": {"id": "1157087", "CVEGEO": "1509000060220017", "POBTOT": 315.0, "score_nse": 0.0, "NSE": "ND", "VIVTOT": 81.0, "GRAPROES": 7.93, "_ent": "15", "_mun": "090", "_loc": "0006"}, "geometry": {"type": "Polygon", "coordinates": [[[-99.60741, 19.06469], [-99.60836, 19.0647], [-99.60837, 19.065], [-99.60842, 19.0647], [-99.60902, 19.0647], [-99.60958, 19.06518], [-99.6096, 19.06586], [-99.60704, 19.06581], [-99.60705, 19.06553], [-99.60699, 19.0658], [-99.60556, 19.06571], [-99.60473, 19.06464], [-99.60681, 19.06468], [-99.60685, 19.06488], [-99.60685, 19.06469], [-99.60736, 19.06469], [-99.60719, 19.06548], [-99.60732, 19.06502], [-99.60764, 19.06502], [-99.60733, 19.06498], [-99.60741, 19.06469]]]}}, {"id": "1157088", "type": "Feature", "properties": {"id": "1157088", "CVEGEO": "1509000060220027", "POBTOT": 38.0, "score_nse": 0.0, "NSE": "ND", "VIVTOT": 17.0, "GRAPROES": 8.56, "_ent": "15", "_mun": "090", "_loc": "0006"}, "geometry": {"type": "Polygon", "coordinates": [[[-99.6034, 19.06911], [-99.6035, 19.06998], [-99.60299, 19.07007], [-99.60284, 19.06973], [-99.60293, 19.07009], [-99.60134, 19.07036], [-99.60094, 19.07041], [-99.60059, 19.06946], [-99.6014, 19.06935], [-99.60158, 19.0698], [-99.60145, 19.06934], [-99.6034, 19.06911]]]}}, {"id": "1157089", "type": "Feature", "properties": {"id": "1157089", "CVEGEO": "1509000060292001", "POBTOT": 79.0, "score_nse": 40.265, "NSE": "D+", "VIVTOT": 23.0, "GRAPROES": 8.73, "_ent": "15", "_mun": "090", "_loc": "0006"}, "geometry": {"type": "Polygon", "coordinates": [[[-99.6112, 19.07259], [-99.61146, 19.07268], [-99.61146, 19.07328], [-99.61149, 19.07268], [-99.61171, 19.07277], [-99.6117, 19.07315], [-99.61177, 19.07279], [-99.61195, 19.07287], [-99.61195, 19.07348], [-99.61201, 19.07291], [-99.61245, 19.07321], [-99.61263, 19.07364], [-99.61123, 19.0737], [-99.6112, 19.07259]]]}}, {"id": "1157090", "type": "Feature", "properties": {"id": "1157090", "CVEGEO": "1509000060324003", "POBTOT": 128.0, "score_nse": 40.0716, "NSE": "D+", "VIVTOT": 47.0, "GRAPROES": 8.56, "_ent": "15", "_mun": "090", "_loc": "0006"}, "geometry": {"type": "Polygon", "coordinates": [[[-99.60813, 19.06386], [-99.60776, 19.06349], [-99.60769, 19.06299], [-99.60771, 19.06346], [-99.60747, 19.06323], [-99.60746, 19.06293], [-99.60743, 19.06319], [-99.607, 19.06271], [-99.60786, 19.06252], [-99.60697, 19.06261], [-99.60687, 19.06231], [-99.60784, 19.06217], [-99.60685, 19.06227], [-99.60673, 19.06195], [-99.60714, 19.06158], [-99.60774, 19.06165], [-99.60889, 19.06225], [-99.60916, 19.06473], [-99.60876, 19.0644], [-99.60873, 19.06396], [-99.6087, 19.06435], [-99.60818, 19.06391], [-99.60805, 19.06267], [-99.60827, 19.06265], [-99.60835, 19.06304], [-99.60831, 19.06261], [-99.60801, 19.06264], [-99.60813, 19.06386]]]}}, {"id": "1157091", "type": "Feature", "properties": {"id": "1157091", "CVEGEO": "1509000060324006", "POBTOT": 120.0, "score_nse": 36.4904, "NSE": "D+", "VIVTOT": 44.0, "GRAPROES": 8.13, "_ent": "15", "_mun": "090", "_loc": "0006"}, "geometry": {"type": "Polygon", "coordinates": [[[-99.60468, 19.06458], [-99.60481, 19.06311], [-99.6046, 19.06111], [-99.60445, 19.0609], [-99.6048, 19.06123], [-99.60502, 19.06251], [-99.60538, 19.06283], [-99.60591, 19.0628], [-99.60593, 19.06342], [-99.60596, 19.0628], [-99.60708, 19.06295], [-99.60893, 19.06465], [-99.60772, 19.06462], [-99.60767, 19.06414], [-99.60765, 19.06463], [-99.60734, 19.06463], [-99.60731, 19.06383], [-99.60729, 19.06463], [-99.60648, 19.06462], [-99.60646, 19.06398], [-99.60643, 19.06462], [-99.60611, 19.06461], [-99.60609, 19.06422], [-99.60606, 19.06461], [-99.60545, 19.06459], [-99.60544, 19.06418], [-99.6054, 19.06459], [-99.60468, 19.06458]]]}}, {"id": "1157171", "type": "Feature", "properties": {"id": "1157171", "CVEGEO": "1509000060216012", "POBTOT": 180.0, "score_nse": 0.0, "NSE": "ND", "VIVTOT": 47.0, "GRAPROES": 8.96, "_ent": "15", "_mun": "090", "_loc": "0006"}, "geometry": {"type": "Polygon", "coordinates": [[[-99.60898, 19.06895], [-99.60896, 19.06962], [-99.60648, 19.0698], [-99.60609, 19.0691], [-99.60809, 19.06899], [-99.6081, 19.06928], [-99.60811, 19.06899], [-99.60898, 19.06895]]]}}, {"id": "1157172", "type": "Feature", "properties": {"id": "1157172", "CVEGEO": "1509000060216029", "POBTOT": 107.0, "score_nse": 0.0, "NSE": "ND", "VIVTOT": 26.0, "GRAPROES": 7.9, "_ent": "15", "_mun": "090", "_loc": "0006"}, "geometry": {"type": "Polygon", "coordinates": [[[-99.60967, 19.07246], [-99.60956, 19.07245], [-99.60953, 19.07289], [-99.60909, 19.07282], [-99.60916, 19.0723], [-99.60952, 19.07232], [-99.60917, 19.07226], [-99.60927, 19.07174], [-99.6096, 19.07207], [-99.60964, 19.07195], [-99.61062, 19.07221], [-99.61076, 19.07295], [-99.60965, 19.0729], [-99.60967, 19.07246]]]}}, {"id": "1157173", "type": "Feature", "properties": {"id": "1157173", "CVEGEO": "1509000060216042", "POBTOT": 54.0, "score_nse": 0.0, "NSE": "ND", "VIVTOT": 20.0, "GRAPROES": 6.03, "_ent": "15", "_mun": "090", "_loc": "0006"}, "geometry": {"type": "Polygon", "coordinates": [[[-99.61522, 19.06931], [-99.61446, 19.06939], [-99.61448, 19.06881], [-99.61595, 19.06886], [-99.61559, 19.06929], [-99.61527, 19.06931], [-99.61527, 19.06905], [-99.61487, 19.06905], [-99.61521, 19.06911], [-99.61522, 19.06931]]]}}, {"id": "1157174", "type": "Feature", "properties": {"id": "1157174", "CVEGEO": "1509000060220006", "POBTOT": 69.0, "score_nse": 0.0, "NSE": "ND", "VIVTOT": 23.0, "GRAPROES": 8.6, "_ent": "15", "_mun": "090", "_loc": "0006"}, "geometry": {"type": "Polygon", "coordinates": [[[-99.61043, 19.06809], [-99.61043, 19.06772], [-99.61061, 19.06766], [-99.61043, 19.06766], [-99.61043, 19.06753], [-99.6111, 19.06753], [-99.61111, 19.06808], [-99.61043, 19.06809]]]}}, {"id": "1157175", "type": "Feature", "properties": {"id": "1157175", "CVEGEO": "1509000060324001", "POBTOT": 123.0, "score_nse": 0.0, "NSE": "ND", "VIVTOT": 35.0, "GRAPROES": 8.1, "_ent": "15", "_mun": "090", "_loc": "0006"}, "geometry": {"type": "Polygon", "coordinates": [[[-99.60992, 19.06542], [-99.60984, 19.06455], [-99.60987, 19.06539], [-99.60924, 19.06481], [-99.60908, 19.06329], [-99.60953, 19.06333], [-99.60951, 19.06283], [-99.60949, 19.06327], [-99.60907, 19.06324], [-99.60898, 19.06239], [-99.6095, 19.06251], [-99.60897, 19.06234], [-99.60913, 19.06206], [-99.60957, 19.06213], [-99.61008, 19.0631], [-99.61037, 19.06595], [-99.60992, 19.06542]]]}}, {"id": "1157176", "type": "Feature", "properties": {"id": "1157176", "CVEGEO": "1509000060324004", "POBTOT": 171.0, "score_nse": 37.7249, "NSE": "D+", "VIVTOT": 62.0, "GRAPROES": 8.14, "_ent": "15", "_mun": "090", "_loc": "0006"}, "geometry": {"type": "Polygon", "coordinates": [[[-99.61415, 19.06324], [-99.61403, 19.06369], [-99.61323, 19.06342], [-99.61399, 19.06373], [-99.61379, 19.06394], [-99.61289, 19.06366], [-99.61374, 19.064], [-99.6133, 19.06449], [-99.61333, 19.0654], [-99.61285, 19.06546], [-99.61273, 19.06454], [-99.61279, 19.06546], [-99.61241, 19.06552], [-99.61234, 19.06447], [-99.61234, 19.06553], [-99.6122, 19.06555], [-99.61212, 19.06409], [-99.61211, 19.06556], [-99.6116, 19.06561], [-99.61148, 19.06424], [-99.61154, 19.06561], [-99.6111, 19.06566], [-99.61101, 19.06324], [-99.61189, 19.0636], [-99.61276, 19.0634], [-99.61175, 19.06348], [-99.61171, 19.06326], [-99.6119, 19.063], [-99.61253, 19.06286], [-99.61349, 19.06294], [-99.61415, 19.06324]]]}}, {"id": "1157177", "type": "Feature", "properties": {"id": "1157177", "CVEGEO": "1509000060339006", "POBTOT": 82.0, "score_nse": 0.0, "NSE": "ND", "VIVTOT": 21.0, "GRAPROES": 7.04, "_ent": "15", "_mun": "090", "_loc": "0006"}, "geometry": {"type": "Polygon", "coordinates": [[[-99.61265, 19.07159], [-99.61393, 19.07118], [-99.61461, 19.07111], [-99.61483, 19.0712], [-99.61485, 19.07165], [-99.61414, 19.07172], [-99.61485, 19.07171], [-99.61487, 19.07214], [-99.61265, 19.07224], [-99.61265, 19.07159]]]}}]}