{"type": "FeatureCollection", "features": [{"id": "1322138", "type": "Feature", "properties": {"id": "1322138", "CVEGEO": "1611000220022058", "POBTOT": 0.0, "score_nse": 0.0, "NSE": null, "VIVTOT": 0.0, "GRAPROES": 0.0, "_ent": "16", "_mun": "110", "_loc": "0022"}, "geometry": {"type": "Polygon", "coordinates": [[[-100.87988, 19.87233], [-100.87871, 19.87163], [-100.87911, 19.87139], [-100.88017, 19.87206], [-100.87988, 19.87233]]]}}, {"id": "1322139", "type": "Feature", "properties": {"id": "1322139", "CVEGEO": "1611000220022057", "POBTOT": 0.0, "score_nse": 0.0, "NSE": null, "VIVTOT": 0.0, "GRAPROES": 0.0, "_ent": "16", "_mun": "110", "_loc": "0022"}, "geometry": {"type": "Polygon", "coordinates": [[[-100.88022, 19.87201], [-100.87915, 19.87134], [-100.8794, 19.87104], [-100.88046, 19.87172], [-100.88022, 19.87201]]]}}, {"id": "1322140", "type": "Feature", "properties": {"id": "1322140", "CVEGEO": "1611000220022056", "POBTOT": 0.0, "score_nse": 0.0, "NSE": null, "VIVTOT": 0.0, "GRAPROES": 0.0, "_ent": "16", "_mun": "110", "_loc": "0022"}, "geometry": {"type": "Polygon", "coordinates": [[[-100.88333, 19.87084], [-100.88405, 19.87146], [-100.8835, 19.87215], [-100.8828, 19.87148], [-100.88333, 19.87084]]]}}, {"id": "1322141", "type": "Feature", "properties": {"id": "1322141", "CVEGEO": "1611000220022055", "POBTOT": 0.0, "score_nse": 0.0, "NSE": null, "VIVTOT": 0.0, "GRAPROES": 0.0, "_ent": "16", "_mun": "110", "_loc": "0022"}, "geometry": {"type": "Polygon", "coordinates": [[[-100.87865, 19.86856], [-100.87843, 19.86893], [-100.87743, 19.86834], [-100.87763, 19.86799], [-100.87865, 19.86856]]]}}, {"id": "1322142", "type": "Feature", "properties": {"id": "1322142", "CVEGEO": "1611000220022054", "POBTOT": 0.0, "score_nse": 0.0, "NSE": null, "VIVTOT": 0.0, "GRAPROES": 0.0, "_ent": "16", "_mun": "110", "_loc": "0022"}, "geometry": {"type": "Polygon", "coordinates": [[[-100.87827, 19.86688], [-100.87793, 19.86742], [-100.87723, 19.86703], [-100.87761, 19.86648], [-100.87827, 19.86688]]]}}, {"id": "1322143", "type": "Feature", "properties": {"id": "1322143", "CVEGEO": "1611000220022053", "POBTOT": 0.0, "score_nse": 0.0, "NSE": null, "VIVTOT": 0.0, "GRAPROES": 0.0, "_ent": "16", "_mun": "110", "_loc": "0022"}, "geometry": {"type": "Polygon", "coordinates": [[[-100.87893, 19.86807], [-100.87868, 19.86848], [-100.87769, 19.86793], [-100.87796, 19.86754], [-100.87893, 19.86807]]]}}, {"id": "1322144", "type": "Feature", "properties": {"id": "1322144", "CVEGEO": "1611000220022052", "POBTOT": 0.0, "score_nse": 0.0, "NSE": null, "VIVTOT": 0.0, "GRAPROES": 0.0, "_ent": "16", "_mun": "110", "_loc": "0022"}, "geometry": {"type": "Polygon", "coordinates": [[[-100.87928, 19.86749], [-100.87897, 19.86801], [-100.878, 19.86747], [-100.87834, 19.8669], [-100.87928, 19.86749]]]}}, {"id": "1322259", "type": "Feature", "properties": {"id": "1322259", "CVEGEO": "1611000220022068", "POBTOT": 0.0, "score_nse": 0.0, "NSE": null, "VIVTOT": 0.0, "GRAPROES": 0.0, "_ent": "16", "_mun": "110", "_loc": "0022"}, "geometry": {"type": "Polygon", "coordinates": [[[-100.88159, 19.87245], [-100.88111, 19.87266], [-100.88027, 19.87206], [-100.88051, 19.87177], [-100.88159, 19.87245]]]}}, {"id": "1322260", "type": "Feature", "properties": {"id": "1322260", "CVEGEO": "1611000220022064", "POBTOT": 0.0, "score_nse": 0.0, "NSE": null, "VIVTOT": 0.0, "GRAPROES": 0.0, "_ent": "16", "_mun": "110", "_loc": "0022"}, "geometry": {"type": "Polygon", "coordinates": [[[-100.87627, 19.87357], [-100.87582, 19.87227], [-100.87608, 19.87194], [-100.87676, 19.87354], [-100.87627, 19.87357]]]}}, {"id": "1322261", "type": "Feature", "properties": {"id": "1322261", "CVEGEO": "1611000220022062", "POBTOT": 0.0, "score_nse": 0.0, "NSE": null, "VIVTOT": 0.0, "GRAPROES": 0.0, "_ent": "16", "_mun": "110", "_loc": "0022"}, "geometry": {"type": "Polygon", "coordinates": [[[-100.88049, 19.87168], [-100.87943, 19.871], [-100.8797, 19.87074], [-100.88072, 19.87139], [-100.88049, 19.87168]]]}}, {"id": "1322262", "type": "Feature", "properties": {"id": "1322262", "CVEGEO": "1611000220022048", "POBTOT": 0.0, "score_nse": 0.0, "NSE": null, "VIVTOT": 0.0, "GRAPROES": 0.0, "_ent": "16", "_mun": "110", "_loc": "0022"}, "geometry": {"type": "Polygon", "coordinates": [[[-100.87658, 19.87283], [-100.87633, 19.87226], [-100.87763, 19.87305], [-100.87763, 19.87352], [-100.87658, 19.87283]]]}}, {"id": "1322263", "type": "Feature", "properties": {"id": "1322263", "CVEGEO": "1611000220022047", "POBTOT": 0.0, "score_nse": 0.0, "NSE": null, "VIVTOT": 0.0, "GRAPROES": 0.0, "_ent": "16", "_mun": "110", "_loc": "0022"}, "geometry": {"type": "Polygon", "coordinates": [[[-100.87623, 19.87211], [-100.87629, 19.8717], [-100.87781, 19.87266], [-100.87765, 19.87297], [-100.87623, 19.87211]]]}}, {"id": "1322264", "type": "Feature", "properties": {"id": "1322264", "CVEGEO": "1611000220022045", "POBTOT": 0.0, "score_nse": 0.0, "NSE": null, "VIVTOT": 0.0, "GRAPROES": 0.0, "_ent": "16", "_mun": "110", "_loc": "0022"}, "geometry": {"type": "Polygon", "coordinates": [[[-100.88233, 19.87134], [-100.88266, 19.87153], [-100.88248, 19.87194], [-100.88213, 19.8717], [-100.88233, 19.87134]]]}}, {"id": "1322265", "type": "Feature", "properties": {"id": "1322265", "CVEGEO": "1611000220022044", "POBTOT": 0.0, "score_nse": 0.0, "NSE": null, "VIVTOT": 0.0, "GRAPROES": 0.0, "_ent": "16", "_mun": "110", "_loc": "0022"}, "geometry": {"type": "Polygon", "coordinates": [[[-100.88179, 19.87214], [-100.88165, 19.87239], [-100.88055, 19.87172], [-100.88079, 19.87143], [-100.88179, 19.87214]]]}}, {"id": "1322266", "type": "Feature", "properties": {"id": "1322266", "CVEGEO": "1611000220022043", "POBTOT": 0.0, "score_nse": 0.0, "NSE": null, "VIVTOT": 0.0, "GRAPROES": 0.0, "_ent": "16", "_mun": "110", "_loc": "0022"}, "geometry": {"type": "Polygon", "coordinates": [[[-100.88202, 19.87174], [-100.88185, 19.87207], [-100.88082, 19.87138], [-100.88106, 19.87109], [-100.88202, 19.87174]]]}}, {"id": "1322267", "type": "Feature", "properties": {"id": "1322267", "CVEGEO": "1611000220022042", "POBTOT": 0.0, "score_nse": 0.0, "NSE": null, "VIVTOT": 0.0, "GRAPROES": 0.0, "_ent": "16", "_mun": "110", "_loc": "0022"}, "geometry": {"type": "Polygon", "coordinates": [[[-100.88227, 19.87129], [-100.88208, 19.87168], [-100.8811, 19.87104], [-100.88129, 19.8708], [-100.88227, 19.87129]]]}}, {"id": "1322268", "type": "Feature", "properties": {"id": "1322268", "CVEGEO": "1611000220022026", "POBTOT": 0.0, "score_nse": 0.0, "NSE": null, "VIVTOT": 0.0, "GRAPROES": 0.0, "_ent": "16", "_mun": "110", "_loc": "0022"}, "geometry": {"type": "Polygon", "coordinates": [[[-100.87875, 19.86129], [-100.88002, 19.86214], [-100.88009, 19.86275], [-100.87947, 19.86268], [-100.87947, 19.86237], [-100.87912, 19.86234], [-100.87941, 19.86242], [-100.87941, 19.86268], [-100.87912, 19.86269], [-100.88011, 19.86284], [-100.88008, 19.86313], [-100.87932, 19.86283], [-100.87856, 19.86281], [-100.87875, 19.86129]]]}}, {"id": "1322269", "type": "Feature", "properties": {"id": "1322269", "CVEGEO": "1611000220022025", "POBTOT": 0.0, "score_nse": 0.0, "NSE": null, "VIVTOT": 0.0, "GRAPROES": 0.0, "_ent": "16", "_mun": "110", "_loc": "0022"}, "geometry": {"type": "Polygon", "coordinates": [[[-100.87689, 19.86309], [-100.87739, 19.86304], [-100.87724, 19.86401], [-100.87678, 19.86386], [-100.87689, 19.86309]]]}}, {"id": "1322270", "type": "Feature", "properties": {"id": "1322270", "CVEGEO": "1611000220022024", "POBTOT": 0.0, "score_nse": 0.0, "NSE": null, "VIVTOT": 0.0, "GRAPROES": 0.0, "_ent": "16", "_mun": "110", "_loc": "0022"}, "geometry": {"type": "Polygon", "coordinates": [[[-100.87664, 19.86486], [-100.87677, 19.86396], [-100.87723, 19.8641], [-100.8771, 19.865], [-100.87664, 19.86486]]]}}, {"id": "1322271", "type": "Feature", "properties": {"id": "1322271", "CVEGEO": "1611000220022012", "POBTOT": 0.0, "score_nse": 0.0, "NSE": null, "VIVTOT": 0.0, "GRAPROES": 0.0, "_ent": "16", "_mun": "110", "_loc": "0022"}, "geometry": {"type": "Polygon", "coordinates": [[[-100.88036, 19.86478], [-100.88058, 19.8643], [-100.8809, 19.86496], [-100.88036, 19.86478]]]}}, {"id": "1322272", "type": "Feature", "properties": {"id": "1322272", "CVEGEO": "1611000220022011", "POBTOT": 0.0, "score_nse": 0.0, "NSE": null, "VIVTOT": 0.0, "GRAPROES": 0.0, "_ent": "16", "_mun": "110", "_loc": "0022"}, "geometry": {"type": "Polygon", "coordinates": [[[-100.87938, 19.86454], [-100.87985, 19.86361], [-100.88052, 19.86423], [-100.8803, 19.86478], [-100.87938, 19.86454]]]}}, {"id": "1322273", "type": "Feature", "properties": {"id": "1322273", "CVEGEO": "1611000220022010", "POBTOT": 0.0, "score_nse": 0.0, "NSE": null, "VIVTOT": 0.0, "GRAPROES": 0.0, "_ent": "16", "_mun": "110", "_loc": "0022"}, "geometry": {"type": "Polygon", "coordinates": [[[-100.87889, 19.86349], [-100.87944, 19.86324], [-100.87981, 19.86346], [-100.87928, 19.86453], [-100.87833, 19.86426], [-100.87851, 19.86293], [-100.87968, 19.86298], [-100.8801, 19.86332], [-100.88, 19.86344], [-100.87911, 19.863], [-100.87935, 19.8632], [-100.87884, 19.86346], [-100.87867, 19.86398], [-100.87889, 19.86349]]]}}, {"id": "1322274", "type": "Feature", "properties": {"id": "1322274", "CVEGEO": "1611000220022009", "POBTOT": 0.0, "score_nse": 0.0, "NSE": null, "VIVTOT": 0.0, "GRAPROES": 0.0, "_ent": "16", "_mun": "110", "_loc": "0022"}, "geometry": {"type": "Polygon", "coordinates": [[[-100.87765, 19.86515], [-100.87777, 19.86425], [-100.87812, 19.86433], [-100.87798, 19.86522], [-100.87765, 19.86515]]]}}, {"id": "1322275", "type": "Feature", "properties": {"id": "1322275", "CVEGEO": "1611000220022008", "POBTOT": 0.0, "score_nse": 0.0, "NSE": null, "VIVTOT": 0.0, "GRAPROES": 0.0, "_ent": "16", "_mun": "110", "_loc": "0022"}, "geometry": {"type": "Polygon", "coordinates": [[[-100.87753, 19.866], [-100.87764, 19.86521], [-100.87799, 19.86528], [-100.87784, 19.86642], [-100.87753, 19.866]]]}}, {"id": "1322276", "type": "Feature", "properties": {"id": "1322276", "CVEGEO": "1611000220022007", "POBTOT": 0.0, "score_nse": 0.0, "NSE": null, "VIVTOT": 0.0, "GRAPROES": 0.0, "_ent": "16", "_mun": "110", "_loc": "0022"}, "geometry": {"type": "Polygon", "coordinates": [[[-100.87939, 19.86727], [-100.87961, 19.86667], [-100.88017, 19.8669], [-100.87989, 19.86758], [-100.87939, 19.86727]]]}}, {"id": "1322277", "type": "Feature", "properties": {"id": "1322277", "CVEGEO": "1611000220022006", "POBTOT": 0.0, "score_nse": 0.0, "NSE": null, "VIVTOT": 0.0, "GRAPROES": 0.0, "_ent": "16", "_mun": "110", "_loc": "0022"}, "geometry": {"type": "Polygon", "coordinates": [[[-100.87964, 19.86659], [-100.87996, 19.86579], [-100.88055, 19.86598], [-100.88022, 19.86681], [-100.87964, 19.86659]]]}}, {"id": "1322279", "type": "Feature", "properties": {"id": "1322279", "CVEGEO": "1611000220022063", "POBTOT": 0.0, "score_nse": 0.0, "NSE": null, "VIVTOT": 0.0, "GRAPROES": 0.0, "_ent": "16", "_mun": "110", "_loc": "0022"}, "geometry": {"type": "Polygon", "coordinates": [[[-100.87686, 19.87355], [-100.87661, 19.87293], [-100.87754, 19.87355], [-100.87686, 19.87355]]]}}, {"id": "1322368", "type": "Feature", "properties": {"id": "1322368", "CVEGEO": "1611000220022013", "POBTOT": 0.0, "score_nse": 0.0, "NSE": null, "VIVTOT": 0.0, "GRAPROES": 0.0, "_ent": "16", "_mun": "110", "_loc": "0022"}, "geometry": {"type": "Polygon", "coordinates": [[[-100.88066, 19.86593], [-100.88103, 19.86506], [-100.88207, 19.86532], [-100.88225, 19.86568], [-100.88193, 19.86625], [-100.88066, 19.86593]]]}}, {"id": "1322369", "type": "Feature", "properties": {"id": "1322369", "CVEGEO": "1611000220022001", "POBTOT": 0.0, "score_nse": 0.0, "NSE": null, "VIVTOT": 0.0, "GRAPROES": 0.0, "_ent": "16", "_mun": "110", "_loc": "0022"}, "geometry": {"type": "Polygon", "coordinates": [[[-100.87832, 19.8667], [-100.8789, 19.86552], [-100.87989, 19.86578], [-100.87929, 19.86721], [-100.87832, 19.8667]]]}}, {"id": "1322399", "type": "Feature", "properties": {"id": "1322399", "CVEGEO": "1611000220022061", "POBTOT": 0.0, "score_nse": 0.0, "NSE": null, "VIVTOT": 0.0, "GRAPROES": 0.0, "_ent": "16", "_mun": "110", "_loc": "0022"}, "geometry": {"type": "Polygon", "coordinates": [[[-100.88077, 19.87133], [-100.87975, 19.87071], [-100.87998, 19.87043], [-100.88101, 19.87104], [-100.88077, 19.87133]]]}}, {"id": "1322400", "type": "Feature", "properties": {"id": "1322400", "CVEGEO": "1611000220022023", "POBTOT": 0.0, "score_nse": 0.0, "NSE": null, "VIVTOT": 0.0, "GRAPROES": 0.0, "_ent": "16", "_mun": "110", "_loc": "0022"}, "geometry": {"type": "Polygon", "coordinates": [[[-100.87662, 19.86497], [-100.87709, 19.86508], [-100.87703, 19.8655], [-100.87662, 19.86497]]]}}, {"id": "1322401", "type": "Feature", "properties": {"id": "1322401", "CVEGEO": "1611000220022005", "POBTOT": 0.0, "score_nse": 0.0, "NSE": null, "VIVTOT": 0.0, "GRAPROES": 0.0, "_ent": "16", "_mun": "110", "_loc": "0022"}, "geometry": {"type": "Polygon", "coordinates": [[[-100.87999, 19.86572], [-100.88033, 19.86486], [-100.88093, 19.86506], [-100.88059, 19.86591], [-100.87999, 19.86572]]]}}, {"id": "1322494", "type": "Feature", "properties": {"id": "1322494", "CVEGEO": "1611000220022069", "POBTOT": 0.0, "score_nse": 0.0, "NSE": null, "VIVTOT": 0.0, "GRAPROES": 0.0, "_ent": "16", "_mun": "110", "_loc": "0022"}, "geometry": {"type": "Polygon", "coordinates": [[[-100.88106, 19.87266], [-100.88038, 19.87273], [-100.87996, 19.87236], [-100.88023, 19.8721], [-100.88106, 19.87266]]]}}, {"id": "1322541", "type": "Feature", "properties": {"id": "1322541", "CVEGEO": "1611000220022059", "POBTOT": 0.0, "score_nse": 0.0, "NSE": null, "VIVTOT": 0.0, "GRAPROES": 0.0, "_ent": "16", "_mun": "110", "_loc": "0022"}, "geometry": {"type": "Polygon", "coordinates": [[[-100.87772, 19.87361], [-100.87777, 19.87326], [-100.8795, 19.87393], [-100.87916, 19.87417], [-100.87772, 19.87361]]]}}, {"id": "1322542", "type": "Feature", "properties": {"id": "1322542", "CVEGEO": "1611000220022038", "POBTOT": 0.0, "score_nse": 0.0, "NSE": null, "VIVTOT": 0.0, "GRAPROES": 0.0, "_ent": "16", "_mun": "110", "_loc": "0022"}, "geometry": {"type": "Polygon", "coordinates": [[[-100.88177, 19.86943], [-100.88203, 19.86918], [-100.8826, 19.86944], [-100.88226, 19.86981], [-100.88177, 19.86943]]]}}, {"id": "1322543", "type": "Feature", "properties": {"id": "1322543", "CVEGEO": "1611000220022036", "POBTOT": 0.0, "score_nse": 0.0, "NSE": null, "VIVTOT": 0.0, "GRAPROES": 0.0, "_ent": "16", "_mun": "110", "_loc": "0022"}, "geometry": {"type": "Polygon", "coordinates": [[[-100.88317, 19.86868], [-100.88236, 19.8682], [-100.88272, 19.86757], [-100.88348, 19.8682], [-100.88317, 19.86868]]]}}, {"id": "1322544", "type": "Feature", "properties": {"id": "1322544", "CVEGEO": "1611000220022033", "POBTOT": 0.0, "score_nse": 0.0, "NSE": null, "VIVTOT": 0.0, "GRAPROES": 0.0, "_ent": "16", "_mun": "110", "_loc": "0022"}, "geometry": {"type": "Polygon", "coordinates": [[[-100.87827, 19.87078], [-100.87849, 19.87049], [-100.87932, 19.871], [-100.87909, 19.87128], [-100.87827, 19.87078]]]}}, {"id": "1322545", "type": "Feature", "properties": {"id": "1322545", "CVEGEO": "1611000220022032", "POBTOT": 0.0, "score_nse": 0.0, "NSE": null, "VIVTOT": 0.0, "GRAPROES": 0.0, "_ent": "16", "_mun": "110", "_loc": "0022"}, "geometry": {"type": "Polygon", "coordinates": [[[-100.88355, 19.86342], [-100.88018, 19.86271], [-100.88012, 19.86218], [-100.88363, 19.86301], [-100.88355, 19.86342]]]}}, {"id": "1322546", "type": "Feature", "properties": {"id": "1322546", "CVEGEO": "1611000220022031", "POBTOT": 0.0, "score_nse": 0.0, "NSE": null, "VIVTOT": 0.0, "GRAPROES": 0.0, "_ent": "16", "_mun": "110", "_loc": "0022"}, "geometry": {"type": "Polygon", "coordinates": [[[-100.87572, 19.86368], [-100.8767, 19.8639], [-100.87657, 19.86486], [-100.8764, 19.86482], [-100.87634, 19.86418], [-100.87564, 19.86392], [-100.87572, 19.86368]]]}}, {"id": "1322547", "type": "Feature", "properties": {"id": "1322547", "CVEGEO": "1611000220022002", "POBTOT": 0.0, "score_nse": 0.0, "NSE": null, "VIVTOT": 0.0, "GRAPROES": 0.0, "_ent": "16", "_mun": "110", "_loc": "0022"}, "geometry": {"type": "Polygon", "coordinates": [[[-100.87824, 19.86664], [-100.87789, 19.86645], [-100.87805, 19.86531], [-100.8788, 19.86551], [-100.87824, 19.86664]]]}}, {"id": "1322550", "type": "Feature", "properties": {"id": "1322550", "CVEGEO": "1611000220022037", "POBTOT": 0.0, "score_nse": 0.0, "NSE": null, "VIVTOT": 0.0, "GRAPROES": 0.0, "_ent": "16", "_mun": "110", "_loc": "0022"}, "geometry": {"type": "Polygon", "coordinates": [[[-100.88202, 19.86883], [-100.88231, 19.86829], [-100.88313, 19.86876], [-100.88281, 19.86933], [-100.88202, 19.86883]]]}}, {"id": "1322611", "type": "Feature", "properties": {"id": "1322611", "CVEGEO": "1611000220022041", "POBTOT": 0.0, "score_nse": 0.0, "NSE": null, "VIVTOT": 0.0, "GRAPROES": 0.0, "_ent": "16", "_mun": "110", "_loc": "0022"}, "geometry": {"type": "Polygon", "coordinates": [[[-100.88273, 19.87145], [-100.88163, 19.87089], [-100.88044, 19.8702], [-100.8814, 19.8698], [-100.88172, 19.86947], [-100.88327, 19.87079], [-100.88273, 19.87145]]]}}, {"id": "1322624", "type": "Feature", "properties": {"id": "1322624", "CVEGEO": "1611000220022051", "POBTOT": 0.0, "score_nse": 0.0, "NSE": null, "VIVTOT": 0.0, "GRAPROES": 0.0, "_ent": "16", "_mun": "110", "_loc": "0022"}, "geometry": {"type": "Polygon", "coordinates": [[[-100.88339, 19.87077], [-100.88384, 19.87022], [-100.8847, 19.87069], [-100.88413, 19.87138], [-100.88339, 19.87077]]]}}, {"id": "1322625", "type": "Feature", "properties": {"id": "1322625", "CVEGEO": "1611000220022050", "POBTOT": 0.0, "score_nse": 0.0, "NSE": null, "VIVTOT": 0.0, "GRAPROES": 0.0, "_ent": "16", "_mun": "110", "_loc": "0022"}, "geometry": {"type": "Polygon", "coordinates": [[[-100.88394, 19.87], [-100.88426, 19.86944], [-100.8856, 19.87023], [-100.88517, 19.87072], [-100.88394, 19.87]]]}}, {"id": "1322626", "type": "Feature", "properties": {"id": "1322626", "CVEGEO": "1611000220022018", "POBTOT": 0.0, "score_nse": 0.0, "NSE": null, "VIVTOT": 0.0, "GRAPROES": 0.0, "_ent": "16", "_mun": "110", "_loc": "0022"}, "geometry": {"type": "Polygon", "coordinates": [[[-100.87746, 19.86303], [-100.8784, 19.86294], [-100.87824, 19.86424], [-100.87732, 19.86401], [-100.87746, 19.86303]]]}}, {"id": "1322627", "type": "Feature", "properties": {"id": "1322627", "CVEGEO": "1611000220022015", "POBTOT": 0.0, "score_nse": 0.0, "NSE": null, "VIVTOT": 0.0, "GRAPROES": 0.0, "_ent": "16", "_mun": "110", "_loc": "0022"}, "geometry": {"type": "Polygon", "coordinates": [[[-100.87994, 19.86761], [-100.88025, 19.86691], [-100.88138, 19.86727], [-100.88088, 19.86815], [-100.87994, 19.86761]]]}}, {"id": "1322628", "type": "Feature", "properties": {"id": "1322628", "CVEGEO": "1611000220022014", "POBTOT": 0.0, "score_nse": 0.0, "NSE": null, "VIVTOT": 0.0, "GRAPROES": 0.0, "_ent": "16", "_mun": "110", "_loc": "0022"}, "geometry": {"type": "Polygon", "coordinates": [[[-100.88028, 19.86683], [-100.88063, 19.866], [-100.8819, 19.86633], [-100.88143, 19.86719], [-100.88028, 19.86683]]]}}, {"id": "1322629", "type": "Feature", "properties": {"id": "1322629", "CVEGEO": "1611000220022004", "POBTOT": 0.0, "score_nse": 0.0, "NSE": null, "VIVTOT": 0.0, "GRAPROES": 0.0, "_ent": "16", "_mun": "110", "_loc": "0022"}, "geometry": {"type": "Polygon", "coordinates": [[[-100.87893, 19.86546], [-100.87935, 19.8646], [-100.88028, 19.86485], [-100.87992, 19.8657], [-100.87893, 19.86546]]]}}, {"id": "1322630", "type": "Feature", "properties": {"id": "1322630", "CVEGEO": "1611000220022003", "POBTOT": 0.0, "score_nse": 0.0, "NSE": null, "VIVTOT": 0.0, "GRAPROES": 0.0, "_ent": "16", "_mun": "110", "_loc": "0022"}, "geometry": {"type": "Polygon", "coordinates": [[[-100.87805, 19.86525], [-100.87819, 19.86431], [-100.87924, 19.8646], [-100.87883, 19.86544], [-100.87805, 19.86525]]]}}, {"id": "1322659", "type": "Feature", "properties": {"id": "1322659", "CVEGEO": "1611000220022017", "POBTOT": 0.0, "score_nse": 0.0, "NSE": null, "VIVTOT": 0.0, "GRAPROES": 0.0, "_ent": "16", "_mun": "110", "_loc": "0022"}, "geometry": {"type": "Polygon", "coordinates": [[[-100.87717, 19.86502], [-100.87731, 19.86412], [-100.87769, 19.86422], [-100.87757, 19.86513], [-100.87717, 19.86502]]]}}, {"id": "1322660", "type": "Feature", "properties": {"id": "1322660", "CVEGEO": "1611000220022016", "POBTOT": 0.0, "score_nse": 0.0, "NSE": null, "VIVTOT": 0.0, "GRAPROES": 0.0, "_ent": "16", "_mun": "110", "_loc": "0022"}, "geometry": {"type": "Polygon", "coordinates": [[[-100.87709, 19.86557], [-100.87716, 19.8651], [-100.87756, 19.86519], [-100.87746, 19.86595], [-100.87709, 19.86557]]]}}, {"id": "1322708", "type": "Feature", "properties": {"id": "1322708", "CVEGEO": "1611000220022040", "POBTOT": 0.0, "score_nse": 0.0, "NSE": null, "VIVTOT": 0.0, "GRAPROES": 0.0, "_ent": "16", "_mun": "110", "_loc": "0022"}, "geometry": {"type": "Polygon", "coordinates": [[[-100.88231, 19.86986], [-100.88265, 19.86949], [-100.88378, 19.87017], [-100.88332, 19.87073], [-100.88231, 19.86986]]]}}, {"id": "1322709", "type": "Feature", "properties": {"id": "1322709", "CVEGEO": "1611000220022039", "POBTOT": 0.0, "score_nse": 0.0, "NSE": null, "VIVTOT": 0.0, "GRAPROES": 0.0, "_ent": "16", "_mun": "110", "_loc": "0022"}, "geometry": {"type": "Polygon", "coordinates": [[[-100.88286, 19.86933], [-100.88317, 19.8688], [-100.8842, 19.86941], [-100.88387, 19.86995], [-100.88286, 19.86933]]]}}, {"id": "1322710", "type": "Feature", "properties": {"id": "1322710", "CVEGEO": "1611000220022021", "POBTOT": 0.0, "score_nse": 0.0, "NSE": null, "VIVTOT": 0.0, "GRAPROES": 0.0, "_ent": "16", "_mun": "110", "_loc": "0022"}, "geometry": {"type": "Polygon", "coordinates": [[[-100.88096, 19.86818], [-100.88143, 19.86728], [-100.88257, 19.86766], [-100.88197, 19.86876], [-100.88096, 19.86818]]]}}, {"id": "1322711", "type": "Feature", "properties": {"id": "1322711", "CVEGEO": "1611000220022020", "POBTOT": 0.0, "score_nse": 0.0, "NSE": null, "VIVTOT": 0.0, "GRAPROES": 0.0, "_ent": "16", "_mun": "110", "_loc": "0022"}, "geometry": {"type": "Polygon", "coordinates": [[[-100.88195, 19.86633], [-100.88238, 19.86645], [-100.882, 19.86625], [-100.88237, 19.86576], [-100.88254, 19.86612], [-100.8825, 19.86712], [-100.88264, 19.8676], [-100.88148, 19.86722], [-100.88195, 19.86633]]]}}, {"id": "1322712", "type": "Feature", "properties": {"id": "1322712", "CVEGEO": "1611000220022019", "POBTOT": 0.0, "score_nse": 0.0, "NSE": null, "VIVTOT": 0.0, "GRAPROES": 0.0, "_ent": "16", "_mun": "110", "_loc": "0022"}, "geometry": {"type": "Polygon", "coordinates": [[[-100.8808, 19.86457], [-100.88113, 19.86443], [-100.88078, 19.86451], [-100.87995, 19.8636], [-100.88013, 19.8632], [-100.88137, 19.86402], [-100.88199, 19.86496], [-100.88234, 19.86566], [-100.88213, 19.86528], [-100.88101, 19.86499], [-100.8808, 19.86457]]]}}, {"id": "1322740", "type": "Feature", "properties": {"id": "1322740", "CVEGEO": "1611000220022060", "POBTOT": 0.0, "score_nse": 0.0, "NSE": null, "VIVTOT": 0.0, "GRAPROES": 0.0, "_ent": "16", "_mun": "110", "_loc": "0022"}, "geometry": {"type": "Polygon", "coordinates": [[[-100.88104, 19.87099], [-100.88005, 19.87038], [-100.8804, 19.87022], [-100.88123, 19.87075], [-100.88104, 19.87099]]]}}, {"id": "1323002", "type": "Feature", "properties": {"id": "1323002", "CVEGEO": "1611000220022072", "POBTOT": 0.0, "score_nse": 0.0, "NSE": null, "VIVTOT": 0.0, "GRAPROES": 0.0, "_ent": "16", "_mun": "110", "_loc": "0022"}, "geometry": {"type": "Polygon", "coordinates": [[[-100.87573, 19.87179], [-100.87628, 19.87124], [-100.87618, 19.87171], [-100.87594, 19.87199], [-100.87573, 19.87179]]]}}, {"id": "1323003", "type": "Feature", "properties": {"id": "1323003", "CVEGEO": "1611000220022074", "POBTOT": 0.0, "score_nse": 0.0, "NSE": null, "VIVTOT": 0.0, "GRAPROES": 0.0, "_ent": "16", "_mun": "110", "_loc": "0022"}, "geometry": {"type": "Polygon", "coordinates": [[[-100.87616, 19.86622], [-100.87642, 19.86583], [-100.87695, 19.86614], [-100.87667, 19.86653], [-100.87616, 19.86622]]]}}, {"id": "1323004", "type": "Feature", "properties": {"id": "1323004", "CVEGEO": "1611000220022075", "POBTOT": 0.0, "score_nse": 0.0, "NSE": null, "VIVTOT": 0.0, "GRAPROES": 0.0, "_ent": "16", "_mun": "110", "_loc": "0022"}, "geometry": {"type": "Polygon", "coordinates": [[[-100.87589, 19.86659], [-100.87612, 19.86627], [-100.87664, 19.86658], [-100.87641, 19.8669], [-100.87589, 19.86659]]]}}, {"id": "1323009", "type": "Feature", "properties": {"id": "1323009", "CVEGEO": "1611000220022073", "POBTOT": 0.0, "score_nse": 0.0, "NSE": null, "VIVTOT": 0.0, "GRAPROES": 0.0, "_ent": "16", "_mun": "110", "_loc": "0022"}, "geometry": {"type": "Polygon", "coordinates": [[[-100.87788, 19.86749], [-100.87764, 19.86789], [-100.87692, 19.86747], [-100.87719, 19.86711], [-100.87788, 19.86749]]]}}, {"id": "1323010", "type": "Feature", "properties": {"id": "1323010", "CVEGEO": "1611000220022076", "POBTOT": 0.0, "score_nse": 0.0, "NSE": null, "VIVTOT": 0.0, "GRAPROES": 0.0, "_ent": "16", "_mun": "110", "_loc": "0022"}, "geometry": {"type": "Polygon", "coordinates": [[[-100.87556, 19.86389], [-100.87536, 19.86384], [-100.87459, 19.86384], [-100.87474, 19.86346], [-100.87564, 19.86371], [-100.87556, 19.86389]]]}}, {"id": "1323011", "type": "Feature", "properties": {"id": "1323011", "CVEGEO": "1611000220022077", "POBTOT": 0.0, "score_nse": 0.0, "NSE": null, "VIVTOT": 0.0, "GRAPROES": 0.0, "_ent": "16", "_mun": "110", "_loc": "0022"}, "geometry": {"type": "Polygon", "coordinates": [[[-100.87476, 19.86341], [-100.8749, 19.86306], [-100.87581, 19.86329], [-100.87566, 19.86365], [-100.87476, 19.86341]]]}}, {"id": "1323012", "type": "Feature", "properties": {"id": "1323012", "CVEGEO": "1611000220022078", "POBTOT": 0.0, "score_nse": 0.0, "NSE": null, "VIVTOT": 0.0, "GRAPROES": 0.0, "_ent": "16", "_mun": "110", "_loc": "0022"}, "geometry": {"type": "Polygon", "coordinates": [[[-100.87584, 19.86323], [-100.8742, 19.86286], [-100.87433, 19.8627], [-100.87459, 19.86272], [-100.87591, 19.86306], [-100.87584, 19.86323]]]}}, {"id": "1323034", "type": "Feature", "properties": {"id": "1323034", "CVEGEO": "1611000220022080", "POBTOT": 0.0, "score_nse": 0.0, "NSE": null, "VIVTOT": 0.0, "GRAPROES": 0.0, "_ent": "16", "_mun": "110", "_loc": "0022"}, "geometry": {"type": "Polygon", "coordinates": [[[-100.87523, 19.86794], [-100.87546, 19.86766], [-100.87616, 19.86826], [-100.87584, 19.86848], [-100.87523, 19.86794]]]}}, {"id": "1323035", "type": "Feature", "properties": {"id": "1323035", "CVEGEO": "1611000220022081", "POBTOT": 0.0, "score_nse": 0.0, "NSE": null, "VIVTOT": 0.0, "GRAPROES": 0.0, "_ent": "16", "_mun": "110", "_loc": "0022"}, "geometry": {"type": "Polygon", "coordinates": [[[-100.87475, 19.86821], [-100.87517, 19.86799], [-100.87576, 19.86852], [-100.87503, 19.86885], [-100.87475, 19.86821]]]}}, {"id": "1323036", "type": "Feature", "properties": {"id": "1323036", "CVEGEO": "1611000220022083", "POBTOT": 0.0, "score_nse": 0.0, "NSE": null, "VIVTOT": 0.0, "GRAPROES": 0.0, "_ent": "16", "_mun": "110", "_loc": "0022"}, "geometry": {"type": "Polygon", "coordinates": [[[-100.87294, 19.86914], [-100.8732, 19.86899], [-100.87332, 19.86934], [-100.87307, 19.86947], [-100.87294, 19.86914]]]}}, {"id": "1323037", "type": "Feature", "properties": {"id": "1323037", "CVEGEO": "1611000220022082", "POBTOT": 0.0, "score_nse": 0.0, "NSE": null, "VIVTOT": 0.0, "GRAPROES": 0.0, "_ent": "16", "_mun": "110", "_loc": "0022"}, "geometry": {"type": "Polygon", "coordinates": [[[-100.87377, 19.86869], [-100.8747, 19.86824], [-100.87484, 19.8686], [-100.8739, 19.86906], [-100.87377, 19.86869]]]}}, {"id": "1323038", "type": "Feature", "properties": {"id": "1323038", "CVEGEO": "1611000220022084", "POBTOT": 0.0, "score_nse": 0.0, "NSE": null, "VIVTOT": 0.0, "GRAPROES": 0.0, "_ent": "16", "_mun": "110", "_loc": "0022"}, "geometry": {"type": "Polygon", "coordinates": [[[-100.87383, 19.8691], [-100.87341, 19.8693], [-100.87329, 19.86897], [-100.87373, 19.86874], [-100.87383, 19.8691]]]}}, {"id": "1323288", "type": "Feature", "properties": {"id": "1323288", "CVEGEO": "1611000220022028", "POBTOT": 0.0, "score_nse": 0.0, "NSE": null, "VIVTOT": 0.0, "GRAPROES": 0.0, "_ent": "16", "_mun": "110", "_loc": "0022"}, "geometry": {"type": "Polygon", "coordinates": [[[-100.88313, 19.8663], [-100.88268, 19.86611], [-100.88252, 19.86578], [-100.8833, 19.86594], [-100.88313, 19.8663]]]}}, {"id": "1323289", "type": "Feature", "properties": {"id": "1323289", "CVEGEO": "1611000220022085", "POBTOT": 0.0, "score_nse": 0.0, "NSE": null, "VIVTOT": 0.0, "GRAPROES": 0.0, "_ent": "16", "_mun": "110", "_loc": "0022"}, "geometry": {"type": "Polygon", "coordinates": [[[-100.88395, 19.86689], [-100.88411, 19.86653], [-100.88493, 19.8667], [-100.88476, 19.86706], [-100.88395, 19.86689]]]}}, {"id": "1323290", "type": "Feature", "properties": {"id": "1323290", "CVEGEO": "1611000220022086", "POBTOT": 0.0, "score_nse": 0.0, "NSE": null, "VIVTOT": 0.0, "GRAPROES": 0.0, "_ent": "16", "_mun": "110", "_loc": "0022"}, "geometry": {"type": "Polygon", "coordinates": [[[-100.88385, 19.86688], [-100.88303, 19.8667], [-100.88318, 19.86634], [-100.88403, 19.86651], [-100.88385, 19.86688]]]}}, {"id": "1323291", "type": "Feature", "properties": {"id": "1323291", "CVEGEO": "1611000220022030", "POBTOT": 0.0, "score_nse": 0.0, "NSE": null, "VIVTOT": 0.0, "GRAPROES": 0.0, "_ent": "16", "_mun": "110", "_loc": "0022"}, "geometry": {"type": "Polygon", "coordinates": [[[-100.87629, 19.86556], [-100.8766, 19.8651], [-100.8769, 19.86547], [-100.8767, 19.86581], [-100.87629, 19.86556]]]}}, {"id": "1323292", "type": "Feature", "properties": {"id": "1323292", "CVEGEO": "1611000220022065", "POBTOT": 0.0, "score_nse": 0.0, "NSE": null, "VIVTOT": 0.0, "GRAPROES": 0.0, "_ent": "16", "_mun": "110", "_loc": "0022"}, "geometry": {"type": "Polygon", "coordinates": [[[-100.87698, 19.86557], [-100.87763, 19.86637], [-100.87678, 19.86588], [-100.87698, 19.86557]]]}}, {"id": "1323293", "type": "Feature", "properties": {"id": "1323293", "CVEGEO": "1611000220022046", "POBTOT": 0.0, "score_nse": 0.0, "NSE": null, "VIVTOT": 0.0, "GRAPROES": 0.0, "_ent": "16", "_mun": "110", "_loc": "0022"}, "geometry": {"type": "Polygon", "coordinates": [[[-100.87839, 19.87192], [-100.87867, 19.87168], [-100.88039, 19.87278], [-100.88005, 19.87301], [-100.87839, 19.87192]]]}}, {"id": "1323294", "type": "Feature", "properties": {"id": "1323294", "CVEGEO": "1611000220022087", "POBTOT": 0.0, "score_nse": 0.0, "NSE": null, "VIVTOT": 0.0, "GRAPROES": 0.0, "_ent": "16", "_mun": "110", "_loc": "0022"}, "geometry": {"type": "Polygon", "coordinates": [[[-100.87953, 19.87388], [-100.87774, 19.87317], [-100.87785, 19.87279], [-100.87974, 19.87353], [-100.87953, 19.87388]]]}}, {"id": "1323295", "type": "Feature", "properties": {"id": "1323295", "CVEGEO": "1611000220022088", "POBTOT": 0.0, "score_nse": 0.0, "NSE": null, "VIVTOT": 0.0, "GRAPROES": 0.0, "_ent": "16", "_mun": "110", "_loc": "0022"}, "geometry": {"type": "Polygon", "coordinates": [[[-100.87788, 19.87274], [-100.87807, 19.87243], [-100.87997, 19.87314], [-100.87976, 19.87349], [-100.87788, 19.87274]]]}}, {"id": "1323296", "type": "Feature", "properties": {"id": "1323296", "CVEGEO": "1611000220022089", "POBTOT": 0.0, "score_nse": 0.0, "NSE": null, "VIVTOT": 0.0, "GRAPROES": 0.0, "_ent": "16", "_mun": "110", "_loc": "0022"}, "geometry": {"type": "Polygon", "coordinates": [[[-100.8781, 19.87238], [-100.87836, 19.87196], [-100.88003, 19.87305], [-100.87999, 19.87311], [-100.8781, 19.87238]]]}}, {"id": "1323297", "type": "Feature", "properties": {"id": "1323297", "CVEGEO": "1611000220022066", "POBTOT": 0.0, "score_nse": 0.0, "NSE": null, "VIVTOT": 0.0, "GRAPROES": 0.0, "_ent": "16", "_mun": "110", "_loc": "0022"}, "geometry": {"type": "Polygon", "coordinates": [[[-100.88395, 19.86371], [-100.88433, 19.86393], [-100.88392, 19.86379], [-100.88395, 19.86371]]]}}, {"id": "1323298", "type": "Feature", "properties": {"id": "1323298", "CVEGEO": "1611000220022027", "POBTOT": 0.0, "score_nse": 0.0, "NSE": null, "VIVTOT": 0.0, "GRAPROES": 0.0, "_ent": "16", "_mun": "110", "_loc": "0022"}, "geometry": {"type": "Polygon", "coordinates": [[[-100.88162, 19.86418], [-100.88016, 19.86314], [-100.88019, 19.86279], [-100.88354, 19.8635], [-100.88395, 19.86364], [-100.88387, 19.86383], [-100.88431, 19.86396], [-100.88376, 19.86503], [-100.88272, 19.86484], [-100.88239, 19.86561], [-100.88162, 19.86418]]]}}, {"id": "1323435", "type": "Feature", "properties": {"id": "1323435", "CVEGEO": "1611000220022067", "POBTOT": 0.0, "score_nse": 0.0, "NSE": null, "VIVTOT": 0.0, "GRAPROES": 0.0, "_ent": "16", "_mun": "110", "_loc": "0022"}, "geometry": {"type": "Polygon", "coordinates": [[[-100.88353, 19.86822], [-100.88452, 19.86873], [-100.88423, 19.86932], [-100.88322, 19.86871], [-100.88353, 19.86822]]]}}, {"id": "1323436", "type": "Feature", "properties": {"id": "1323436", "CVEGEO": "1611000220022049", "POBTOT": 0.0, "score_nse": 0.0, "NSE": null, "VIVTOT": 0.0, "GRAPROES": 0.0, "_ent": "16", "_mun": "110", "_loc": "0022"}, "geometry": {"type": "Polygon", "coordinates": [[[-100.8846, 19.86875], [-100.88497, 19.86882], [-100.88486, 19.86905], [-100.88602, 19.86958], [-100.88565, 19.87015], [-100.8843, 19.86936], [-100.8846, 19.86875]]]}}, {"id": "1323466", "type": "Feature", "properties": {"id": "1323466", "CVEGEO": "1611000220022035", "POBTOT": 0.0, "score_nse": 0.0, "NSE": null, "VIVTOT": 0.0, "GRAPROES": 0.0, "_ent": "16", "_mun": "110", "_loc": "0022"}, "geometry": {"type": "Polygon", "coordinates": [[[-100.87681, 19.86308], [-100.87671, 19.86384], [-100.87654, 19.8638], [-100.87652, 19.8634], [-100.87589, 19.86325], [-100.87602, 19.86284], [-100.87681, 19.86308]]]}}, {"id": "1323471", "type": "Feature", "properties": {"id": "1323471", "CVEGEO": "1611000220022090", "POBTOT": 0.0, "score_nse": 0.0, "NSE": null, "VIVTOT": 0.0, "GRAPROES": 0.0, "_ent": "16", "_mun": "110", "_loc": "0022"}, "geometry": {"type": "Polygon", "coordinates": [[[-100.87648, 19.86379], [-100.87574, 19.86361], [-100.87586, 19.86331], [-100.87647, 19.86345], [-100.87648, 19.86379]]]}}, {"id": "1323518", "type": "Feature", "properties": {"id": "1323518", "CVEGEO": "1611000220022022", "POBTOT": 0.0, "score_nse": 0.0, "NSE": null, "VIVTOT": 0.0, "GRAPROES": 0.0, "_ent": "16", "_mun": "110", "_loc": "0022"}, "geometry": {"type": "Polygon", "coordinates": [[[-100.88195, 19.86914], [-100.88125, 19.86981], [-100.88042, 19.8688], [-100.87988, 19.86965], [-100.88042, 19.86891], [-100.88118, 19.86984], [-100.87994, 19.87032], [-100.87938, 19.87095], [-100.87861, 19.87046], [-100.87894, 19.87003], [-100.87856, 19.87044], [-100.87774, 19.86995], [-100.87933, 19.86752], [-100.88195, 19.86914]]]}}, {"id": "1323519", "type": "Feature", "properties": {"id": "1323519", "CVEGEO": "1611000220022091", "POBTOT": 0.0, "score_nse": 0.0, "NSE": null, "VIVTOT": 0.0, "GRAPROES": 0.0, "_ent": "16", "_mun": "110", "_loc": "0022"}, "geometry": {"type": "Polygon", "coordinates": [[[-100.87756, 19.86646], [-100.87723, 19.86691], [-100.87671, 19.86655], [-100.87698, 19.86616], [-100.87756, 19.86646]]]}}, {"id": "1323520", "type": "Feature", "properties": {"id": "1323520", "CVEGEO": "1611000220022092", "POBTOT": 0.0, "score_nse": 0.0, "NSE": null, "VIVTOT": 0.0, "GRAPROES": 0.0, "_ent": "16", "_mun": "110", "_loc": "0022"}, "geometry": {"type": "Polygon", "coordinates": [[[-100.8772, 19.86695], [-100.87698, 19.86725], [-100.87645, 19.86693], [-100.87668, 19.86661], [-100.8772, 19.86695]]]}}, {"id": "1323521", "type": "Feature", "properties": {"id": "1323521", "CVEGEO": "1611000220022093", "POBTOT": 0.0, "score_nse": 0.0, "NSE": null, "VIVTOT": 0.0, "GRAPROES": 0.0, "_ent": "16", "_mun": "110", "_loc": "0022"}, "geometry": {"type": "Polygon", "coordinates": [[[-100.8754, 19.86762], [-100.87491, 19.86807], [-100.87465, 19.86792], [-100.87523, 19.8674], [-100.8754, 19.86762]]]}}, {"id": "1323522", "type": "Feature", "properties": {"id": "1323522", "CVEGEO": "1611000220022094", "POBTOT": 0.0, "score_nse": 0.0, "NSE": null, "VIVTOT": 0.0, "GRAPROES": 0.0, "_ent": "16", "_mun": "110", "_loc": "0022"}, "geometry": {"type": "Polygon", "coordinates": [[[-100.87637, 19.86581], [-100.8761, 19.8662], [-100.87535, 19.86573], [-100.8756, 19.86538], [-100.87637, 19.86581]]]}}, {"id": "1323523", "type": "Feature", "properties": {"id": "1323523", "CVEGEO": "1611000220022095", "POBTOT": 0.0, "score_nse": 0.0, "NSE": null, "VIVTOT": 0.0, "GRAPROES": 0.0, "_ent": "16", "_mun": "110", "_loc": "0022"}, "geometry": {"type": "Polygon", "coordinates": [[[-100.87607, 19.86623], [-100.87584, 19.86656], [-100.875, 19.86601], [-100.87529, 19.86577], [-100.87607, 19.86623]]]}}, {"id": "1323524", "type": "Feature", "properties": {"id": "1323524", "CVEGEO": "1611000220022096", "POBTOT": 0.0, "score_nse": 0.0, "NSE": null, "VIVTOT": 0.0, "GRAPROES": 0.0, "_ent": "16", "_mun": "110", "_loc": "0022"}, "geometry": {"type": "Polygon", "coordinates": [[[-100.87559, 19.86691], [-100.87487, 19.86648], [-100.87524, 19.86621], [-100.8758, 19.8666], [-100.87559, 19.86691]]]}}, {"id": "1323525", "type": "Feature", "properties": {"id": "1323525", "CVEGEO": "1611000220022097", "POBTOT": 0.0, "score_nse": 0.0, "NSE": null, "VIVTOT": 0.0, "GRAPROES": 0.0, "_ent": "16", "_mun": "110", "_loc": "0022"}, "geometry": {"type": "Polygon", "coordinates": [[[-100.87556, 19.86694], [-100.8752, 19.86733], [-100.87395, 19.86638], [-100.87424, 19.86613], [-100.87556, 19.86694]]]}}, {"id": "1323526", "type": "Feature", "properties": {"id": "1323526", "CVEGEO": "1611000220022098", "POBTOT": 0.0, "score_nse": 0.0, "NSE": null, "VIVTOT": 0.0, "GRAPROES": 0.0, "_ent": "16", "_mun": "110", "_loc": "0022"}, "geometry": {"type": "Polygon", "coordinates": [[[-100.87515, 19.86739], [-100.87461, 19.86789], [-100.87422, 19.86777], [-100.87475, 19.86708], [-100.87515, 19.86739]]]}}, {"id": "1323527", "type": "Feature", "properties": {"id": "1323527", "CVEGEO": "1611000220022099", "POBTOT": 0.0, "score_nse": 0.0, "NSE": null, "VIVTOT": 0.0, "GRAPROES": 0.0, "_ent": "16", "_mun": "110", "_loc": "0022"}, "geometry": {"type": "Polygon", "coordinates": [[[-100.87419, 19.86776], [-100.87377, 19.86754], [-100.87438, 19.8668], [-100.87471, 19.86706], [-100.87419, 19.86776]]]}}, {"id": "1323600", "type": "Feature", "properties": {"id": "1323600", "CVEGEO": "1611000220022029", "POBTOT": 0.0, "score_nse": 0.0, "NSE": null, "VIVTOT": 0.0, "GRAPROES": 0.0, "_ent": "16", "_mun": "110", "_loc": "0022"}, "geometry": {"type": "Polygon", "coordinates": [[[-100.87806, 19.87232], [-100.87785, 19.87261], [-100.87701, 19.87206], [-100.87724, 19.87179], [-100.87806, 19.87232]]]}}, {"id": "1323601", "type": "Feature", "properties": {"id": "1323601", "CVEGEO": "1611000220022079", "POBTOT": 0.0, "score_nse": 0.0, "NSE": null, "VIVTOT": 0.0, "GRAPROES": 0.0, "_ent": "16", "_mun": "110", "_loc": "0022"}, "geometry": {"type": "Polygon", "coordinates": [[[-100.87639, 19.86813], [-100.87654, 19.86796], [-100.87728, 19.8684], [-100.87711, 19.86866], [-100.87639, 19.86813]]]}}, {"id": "1323602", "type": "Feature", "properties": {"id": "1323602", "CVEGEO": "1611000220022100", "POBTOT": 0.0, "score_nse": 0.0, "NSE": null, "VIVTOT": 0.0, "GRAPROES": 0.0, "_ent": "16", "_mun": "110", "_loc": "0022"}, "geometry": {"type": "Polygon", "coordinates": [[[-100.87758, 19.86795], [-100.87735, 19.86832], [-100.87662, 19.86787], [-100.87688, 19.86754], [-100.87758, 19.86795]]]}}, {"id": "1323603", "type": "Feature", "properties": {"id": "1323603", "CVEGEO": "1611000220022101", "POBTOT": 0.0, "score_nse": 0.0, "NSE": null, "VIVTOT": 0.0, "GRAPROES": 0.0, "_ent": "16", "_mun": "110", "_loc": "0022"}, "geometry": {"type": "Polygon", "coordinates": [[[-100.87737, 19.87025], [-100.87765, 19.86998], [-100.87843, 19.87046], [-100.8782, 19.87075], [-100.87737, 19.87025]]]}}, {"id": "1323604", "type": "Feature", "properties": {"id": "1323604", "CVEGEO": "1611000220022102", "POBTOT": 0.0, "score_nse": 0.0, "NSE": null, "VIVTOT": 0.0, "GRAPROES": 0.0, "_ent": "16", "_mun": "110", "_loc": "0022"}, "geometry": {"type": "Polygon", "coordinates": [[[-100.87789, 19.87111], [-100.8782, 19.87086], [-100.87902, 19.87136], [-100.87864, 19.87161], [-100.87789, 19.87111]]]}}, {"id": "1323605", "type": "Feature", "properties": {"id": "1323605", "CVEGEO": "1611000220022103", "POBTOT": 0.0, "score_nse": 0.0, "NSE": null, "VIVTOT": 0.0, "GRAPROES": 0.0, "_ent": "16", "_mun": "110", "_loc": "0022"}, "geometry": {"type": "Polygon", "coordinates": [[[-100.87705, 19.87056], [-100.87732, 19.8703], [-100.87814, 19.8708], [-100.87783, 19.87108], [-100.87705, 19.87056]]]}}, {"id": "1323606", "type": "Feature", "properties": {"id": "1323606", "CVEGEO": "1611000220022104", "POBTOT": 0.0, "score_nse": 0.0, "NSE": null, "VIVTOT": 0.0, "GRAPROES": 0.0, "_ent": "16", "_mun": "110", "_loc": "0022"}, "geometry": {"type": "Polygon", "coordinates": [[[-100.87755, 19.87142], [-100.87784, 19.87114], [-100.8786, 19.87164], [-100.87833, 19.87188], [-100.87755, 19.87142]]]}}, {"id": "1323607", "type": "Feature", "properties": {"id": "1323607", "CVEGEO": "1611000220022105", "POBTOT": 0.0, "score_nse": 0.0, "NSE": null, "VIVTOT": 0.0, "GRAPROES": 0.0, "_ent": "16", "_mun": "110", "_loc": "0022"}, "geometry": {"type": "Polygon", "coordinates": [[[-100.87672, 19.87087], [-100.877, 19.87061], [-100.87779, 19.87112], [-100.87752, 19.87138], [-100.87672, 19.87087]]]}}, {"id": "1323608", "type": "Feature", "properties": {"id": "1323608", "CVEGEO": "1611000220022106", "POBTOT": 0.0, "score_nse": 0.0, "NSE": null, "VIVTOT": 0.0, "GRAPROES": 0.0, "_ent": "16", "_mun": "110", "_loc": "0022"}, "geometry": {"type": "Polygon", "coordinates": [[[-100.87666, 19.87093], [-100.87746, 19.87143], [-100.87697, 19.872], [-100.8763, 19.87163], [-100.8764, 19.87119], [-100.87666, 19.87093]]]}}, {"id": "1323609", "type": "Feature", "properties": {"id": "1323609", "CVEGEO": "1611000220022107", "POBTOT": 0.0, "score_nse": 0.0, "NSE": null, "VIVTOT": 0.0, "GRAPROES": 0.0, "_ent": "16", "_mun": "110", "_loc": "0022"}, "geometry": {"type": "Polygon", "coordinates": [[[-100.87729, 19.87174], [-100.87752, 19.87147], [-100.8783, 19.87193], [-100.87811, 19.87225], [-100.87729, 19.87174]]]}}]}