{"type": "FeatureCollection", "features": [{"id": "1322119", "type": "Feature", "properties": {"id": "1322119", "CVEGEO": "161100112008A001", "POBTOT": 0.0, "score_nse": 0.0, "NSE": null, "VIVTOT": 0.0, "GRAPROES": 0.0, "_ent": "16", "_mun": "110", "_loc": "0112"}, "geometry": {"type": "Polygon", "coordinates": [[[-100.845, 19.8086], [-100.8464, 19.8082], [-100.84651, 19.80895], [-100.84453, 19.80991], [-100.84417, 19.80913], [-100.845, 19.8086]]]}}, {"id": "1322177", "type": "Feature", "properties": {"id": "1322177", "CVEGEO": "161100112008A008", "POBTOT": 0.0, "score_nse": 0.0, "NSE": null, "VIVTOT": 0.0, "GRAPROES": 0.0, "_ent": "16", "_mun": "110", "_loc": "0112"}, "geometry": {"type": "Polygon", "coordinates": [[[-100.84238, 19.81004], [-100.8432, 19.80959], [-100.84354, 19.81047], [-100.84267, 19.81091], [-100.84238, 19.81004]]]}}, {"id": "1322178", "type": "Feature", "properties": {"id": "1322178", "CVEGEO": "161100112008A007", "POBTOT": 0.0, "score_nse": 0.0, "NSE": null, "VIVTOT": 0.0, "GRAPROES": 0.0, "_ent": "16", "_mun": "110", "_loc": "0112"}, "geometry": {"type": "Polygon", "coordinates": [[[-100.84269, 19.81097], [-100.84357, 19.81053], [-100.84377, 19.81105], [-100.84284, 19.81155], [-100.84269, 19.81097]]]}}, {"id": "1322179", "type": "Feature", "properties": {"id": "1322179", "CVEGEO": "161100112008A006", "POBTOT": 0.0, "score_nse": 0.0, "NSE": null, "VIVTOT": 0.0, "GRAPROES": 0.0, "_ent": "16", "_mun": "110", "_loc": "0112"}, "geometry": {"type": "Polygon", "coordinates": [[[-100.84702, 19.80873], [-100.84739, 19.80961], [-100.84652, 19.80978], [-100.84654, 19.80903], [-100.84702, 19.80873]]]}}, {"id": "1322180", "type": "Feature", "properties": {"id": "1322180", "CVEGEO": "161100112008A005", "POBTOT": 0.0, "score_nse": 0.0, "NSE": null, "VIVTOT": 0.0, "GRAPROES": 0.0, "_ent": "16", "_mun": "110", "_loc": "0112"}, "geometry": {"type": "Polygon", "coordinates": [[[-100.84639, 19.80814], [-100.84489, 19.80858], [-100.84476, 19.80809], [-100.84634, 19.80782], [-100.84639, 19.80814]]]}}, {"id": "1322181", "type": "Feature", "properties": {"id": "1322181", "CVEGEO": "161100112008A004", "POBTOT": 0.0, "score_nse": 0.0, "NSE": null, "VIVTOT": 0.0, "GRAPROES": 0.0, "_ent": "16", "_mun": "110", "_loc": "0112"}, "geometry": {"type": "Polygon", "coordinates": [[[-100.84326, 19.80955], [-100.84409, 19.80915], [-100.84446, 19.80996], [-100.84361, 19.81044], [-100.84326, 19.80955]]]}}, {"id": "1322189", "type": "Feature", "properties": {"id": "1322189", "CVEGEO": "161100112008A009", "POBTOT": 0.0, "score_nse": 0.0, "NSE": null, "VIVTOT": 0.0, "GRAPROES": 0.0, "_ent": "16", "_mun": "110", "_loc": "0112"}, "geometry": {"type": "Polygon", "coordinates": [[[-100.84793, 19.80953], [-100.84749, 19.80959], [-100.84719, 19.80865], [-100.8479, 19.8087], [-100.84793, 19.80953]]]}}, {"id": "1322372", "type": "Feature", "properties": {"id": "1322372", "CVEGEO": "161100112008A010", "POBTOT": 0.0, "score_nse": 0.0, "NSE": null, "VIVTOT": 0.0, "GRAPROES": 0.0, "_ent": "16", "_mun": "110", "_loc": "0112"}, "geometry": {"type": "Polygon", "coordinates": [[[-100.85009, 19.80918], [-100.848, 19.80952], [-100.84797, 19.80871], [-100.85003, 19.8089], [-100.85009, 19.80918]]]}}, {"id": "1322495", "type": "Feature", "properties": {"id": "1322495", "CVEGEO": "161100112008A011", "POBTOT": 0.0, "score_nse": 0.0, "NSE": null, "VIVTOT": 0.0, "GRAPROES": 0.0, "_ent": "16", "_mun": "110", "_loc": "0112"}, "geometry": {"type": "Polygon", "coordinates": [[[-100.85153, 19.80888], [-100.85015, 19.80916], [-100.8501, 19.8089], [-100.85153, 19.80888]]]}}, {"id": "1322666", "type": "Feature", "properties": {"id": "1322666", "CVEGEO": "161100112008A002", "POBTOT": 0.0, "score_nse": 0.0, "NSE": null, "VIVTOT": 0.0, "GRAPROES": 0.0, "_ent": "16", "_mun": "110", "_loc": "0112"}, "geometry": {"type": "Polygon", "coordinates": [[[-100.84455, 19.80997], [-100.84645, 19.80906], [-100.84643, 19.8098], [-100.84483, 19.81055], [-100.84455, 19.80997]]]}}, {"id": "1322855", "type": "Feature", "properties": {"id": "1322855", "CVEGEO": "161100112008A003", "POBTOT": 0.0, "score_nse": 0.0, "NSE": null, "VIVTOT": 0.0, "GRAPROES": 0.0, "_ent": "16", "_mun": "110", "_loc": "0112"}, "geometry": {"type": "Polygon", "coordinates": [[[-100.84363, 19.8105], [-100.84448, 19.81001], [-100.84476, 19.81059], [-100.84383, 19.81102], [-100.84363, 19.8105]]]}}, {"id": "1322998", "type": "Feature", "properties": {"id": "1322998", "CVEGEO": "161100112008A014", "POBTOT": 0.0, "score_nse": 0.0, "NSE": null, "VIVTOT": 0.0, "GRAPROES": 0.0, "_ent": "16", "_mun": "110", "_loc": "0112"}, "geometry": {"type": "Polygon", "coordinates": [[[-100.8457, 19.81081], [-100.84558, 19.81033], [-100.8468, 19.80988], [-100.84711, 19.81038], [-100.84631, 19.81109], [-100.84608, 19.81078], [-100.84624, 19.81113], [-100.84609, 19.81126], [-100.8457, 19.81081]]]}}, {"id": "1323258", "type": "Feature", "properties": {"id": "1323258", "CVEGEO": "161100112008A015", "POBTOT": 0.0, "score_nse": 0.0, "NSE": null, "VIVTOT": 0.0, "GRAPROES": 0.0, "_ent": "16", "_mun": "110", "_loc": "0112"}, "geometry": {"type": "Polygon", "coordinates": [[[-100.84792, 19.81133], [-100.84687, 19.8099], [-100.84723, 19.80979], [-100.84728, 19.81003], [-100.8482, 19.81], [-100.84866, 19.81064], [-100.84828, 19.81], [-100.84866, 19.80999], [-100.84898, 19.80986], [-100.8473, 19.80999], [-100.84726, 19.80977], [-100.8497, 19.80948], [-100.84988, 19.80995], [-100.84934, 19.81023], [-100.84952, 19.81056], [-100.84792, 19.81133]]]}}, {"id": "1323536", "type": "Feature", "properties": {"id": "1323536", "CVEGEO": "161100112008A012", "POBTOT": 0.0, "score_nse": 0.0, "NSE": null, "VIVTOT": 0.0, "GRAPROES": 0.0, "_ent": "16", "_mun": "110", "_loc": "0112"}, "geometry": {"type": "Polygon", "coordinates": [[[-100.84468, 19.8081], [-100.84482, 19.8086], [-100.84412, 19.80906], [-100.84329, 19.80743], [-100.84392, 19.80715], [-100.84631, 19.80731], [-100.84634, 19.80776], [-100.84468, 19.8081]]]}}]}