{"type": "FeatureCollection", "features": [{"id": "363135", "type": "Feature", "properties": {"id": "363135", "CVEGEO": "0806500210497002", "POBTOT": 0.0, "score_nse": 0.0, "NSE": null, "VIVTOT": 0.0, "GRAPROES": 0.0, "_ent": "08", "_mun": "065", "_loc": "0021"}, "geometry": {"type": "Polygon", "coordinates": [[[-108.15528, 26.94813], [-108.15499, 26.94832], [-108.15436, 26.94822], [-108.15399, 26.94803], [-108.15395, 26.94772], [-108.1551, 26.94742], [-108.15534, 26.94785], [-108.15528, 26.94813]]]}}, {"id": "363136", "type": "Feature", "properties": {"id": "363136", "CVEGEO": "0806500210497001", "POBTOT": 0.0, "score_nse": 0.0, "NSE": null, "VIVTOT": 0.0, "GRAPROES": 0.0, "_ent": "08", "_mun": "065", "_loc": "0021"}, "geometry": {"type": "Polygon", "coordinates": [[[-108.15625, 26.94758], [-108.15551, 26.94783], [-108.15533, 26.94742], [-108.15557, 26.94726], [-108.15625, 26.94758]]]}}, {"id": "363153", "type": "Feature", "properties": {"id": "363153", "CVEGEO": "0806500210497003", "POBTOT": 0.0, "score_nse": 0.0, "NSE": null, "VIVTOT": 0.0, "GRAPROES": 0.0, "_ent": "08", "_mun": "065", "_loc": "0021"}, "geometry": {"type": "Polygon", "coordinates": [[[-108.15459, 26.94756], [-108.15397, 26.94769], [-108.15395, 26.94724], [-108.1541, 26.9471], [-108.15449, 26.94712], [-108.15459, 26.94756]]]}}, {"id": "363188", "type": "Feature", "properties": {"id": "363188", "CVEGEO": "0806500210497009", "POBTOT": 0.0, "score_nse": 0.0, "NSE": null, "VIVTOT": 0.0, "GRAPROES": 0.0, "_ent": "08", "_mun": "065", "_loc": "0021"}, "geometry": {"type": "Polygon", "coordinates": [[[-108.15846, 26.94747], [-108.15788, 26.94783], [-108.15766, 26.94781], [-108.15805, 26.94741], [-108.15846, 26.94747]]]}}, {"id": "363189", "type": "Feature", "properties": {"id": "363189", "CVEGEO": "0806500210497008", "POBTOT": 0.0, "score_nse": 0.0, "NSE": null, "VIVTOT": 0.0, "GRAPROES": 0.0, "_ent": "08", "_mun": "065", "_loc": "0021"}, "geometry": {"type": "Polygon", "coordinates": [[[-108.16045, 26.94706], [-108.15869, 26.94743], [-108.15852, 26.94743], [-108.15897, 26.94698], [-108.16045, 26.94706]]]}}, {"id": "363190", "type": "Feature", "properties": {"id": "363190", "CVEGEO": "0806500210497007", "POBTOT": 0.0, "score_nse": 0.0, "NSE": null, "VIVTOT": 0.0, "GRAPROES": 0.0, "_ent": "08", "_mun": "065", "_loc": "0021"}, "geometry": {"type": "Polygon", "coordinates": [[[-108.15769, 26.94738], [-108.15722, 26.94747], [-108.15699, 26.94696], [-108.15747, 26.94641], [-108.15819, 26.94661], [-108.15769, 26.94707], [-108.15769, 26.94738]]]}}, {"id": "363217", "type": "Feature", "properties": {"id": "363217", "CVEGEO": "0806500210497006", "POBTOT": 0.0, "score_nse": 0.0, "NSE": null, "VIVTOT": 0.0, "GRAPROES": 0.0, "_ent": "08", "_mun": "065", "_loc": "0021"}, "geometry": {"type": "Polygon", "coordinates": [[[-108.15758, 26.94797], [-108.15772, 26.94819], [-108.15682, 26.94845], [-108.15664, 26.9487], [-108.15566, 26.94882], [-108.15532, 26.94914], [-108.1549, 26.94889], [-108.15501, 26.94843], [-108.15548, 26.94825], [-108.15758, 26.94797]]]}}, {"id": "363230", "type": "Feature", "properties": {"id": "363230", "CVEGEO": "0806500210497005", "POBTOT": 0.0, "score_nse": 0.0, "NSE": null, "VIVTOT": 0.0, "GRAPROES": 0.0, "_ent": "08", "_mun": "065", "_loc": "0021"}, "geometry": {"type": "Polygon", "coordinates": [[[-108.15647, 26.94744], [-108.15621, 26.9473], [-108.15628, 26.94714], [-108.15669, 26.94721], [-108.15647, 26.94744]]]}}, {"id": "363231", "type": "Feature", "properties": {"id": "363231", "CVEGEO": "0806500210497004", "POBTOT": 0.0, "score_nse": 0.0, "NSE": null, "VIVTOT": 0.0, "GRAPROES": 0.0, "_ent": "08", "_mun": "065", "_loc": "0021"}, "geometry": {"type": "Polygon", "coordinates": [[[-108.15551, 26.94713], [-108.15542, 26.947], [-108.15563, 26.94651], [-108.15593, 26.94675], [-108.15574, 26.94708], [-108.15551, 26.94713]]]}}]}