{"type": "FeatureCollection", "features": [{"id": "1582847", "type": "Feature", "properties": {"id": "1582847", "CVEGEO": "2000200390303018", "POBTOT": 0.0, "score_nse": 10.0, "NSE": "E", "VIVTOT": 4.0, "GRAPROES": 0.0, "_ent": "20", "_mun": "002", "_loc": "0039"}, "geometry": {"type": "Polygon", "coordinates": [[[-96.53501, 18.51047], [-96.53481, 18.51059], [-96.5348, 18.51048], [-96.53501, 18.51047]]]}}, {"id": "1582848", "type": "Feature", "properties": {"id": "1582848", "CVEGEO": "2000200390303009", "POBTOT": 69.0, "score_nse": 71.8992, "NSE": "C+", "VIVTOT": 19.0, "GRAPROES": 12.13, "_ent": "20", "_mun": "002", "_loc": "0039"}, "geometry": {"type": "Polygon", "coordinates": [[[-96.53541, 18.5138], [-96.53494, 18.51296], [-96.53584, 18.51253], [-96.53629, 18.5134], [-96.53541, 18.5138]]]}}, {"id": "1582849", "type": "Feature", "properties": {"id": "1582849", "CVEGEO": "2000200390303001", "POBTOT": 0.0, "score_nse": 0.0, "NSE": "ND", "VIVTOT": 0.0, "GRAPROES": 0.0, "_ent": "20", "_mun": "002", "_loc": "0039"}, "geometry": {"type": "Polygon", "coordinates": [[[-96.53442, 18.51204], [-96.53533, 18.51159], [-96.53578, 18.51243], [-96.53489, 18.51286], [-96.53442, 18.51204]]]}}, {"id": "1582850", "type": "Feature", "properties": {"id": "1582850", "CVEGEO": "2000200390290014", "POBTOT": 68.0, "score_nse": 0.0, "NSE": "ND", "VIVTOT": 19.0, "GRAPROES": 8.48, "_ent": "20", "_mun": "002", "_loc": "0039"}, "geometry": {"type": "Polygon", "coordinates": [[[-96.52691, 18.51157], [-96.52771, 18.511], [-96.52813, 18.51161], [-96.52724, 18.51204], [-96.52691, 18.51157]]]}}, {"id": "1582851", "type": "Feature", "properties": {"id": "1582851", "CVEGEO": "2000200390286016", "POBTOT": 40.0, "score_nse": 0.0, "NSE": "ND", "VIVTOT": 12.0, "GRAPROES": 6.38, "_ent": "20", "_mun": "002", "_loc": "0039"}, "geometry": {"type": "Polygon", "coordinates": [[[-96.52198, 18.51416], [-96.52257, 18.51337], [-96.52331, 18.51406], [-96.52272, 18.51483], [-96.52198, 18.51416]]]}}, {"id": "1582852", "type": "Feature", "properties": {"id": "1582852", "CVEGEO": "200020039013A009", "POBTOT": 32.0, "score_nse": 61.2578, "NSE": "C", "VIVTOT": 11.0, "GRAPROES": 9.25, "_ent": "20", "_mun": "002", "_loc": "0039"}, "geometry": {"type": "Polygon", "coordinates": [[[-96.52639, 18.51707], [-96.52725, 18.51663], [-96.5276, 18.5173], [-96.52685, 18.5179], [-96.52639, 18.51707]]]}}, {"id": "1583059", "type": "Feature", "properties": {"id": "1583059", "CVEGEO": "200020039013A016", "POBTOT": 42.0, "score_nse": 0.0, "NSE": "ND", "VIVTOT": 13.0, "GRAPROES": 6.87, "_ent": "20", "_mun": "002", "_loc": "0039"}, "geometry": {"type": "Polygon", "coordinates": [[[-96.5269, 18.51348], [-96.52769, 18.51306], [-96.52818, 18.51386], [-96.52733, 18.51432], [-96.5269, 18.51348]]]}}, {"id": "1583061", "type": "Feature", "properties": {"id": "1583061", "CVEGEO": "2000200390290027", "POBTOT": 1.0, "score_nse": 0.0, "NSE": "ND", "VIVTOT": 2.0, "GRAPROES": 0.0, "_ent": "20", "_mun": "002", "_loc": "0039"}, "geometry": {"type": "Polygon", "coordinates": [[[-96.52013, 18.50882], [-96.51934, 18.51007], [-96.51815, 18.50932], [-96.51931, 18.51012], [-96.51911, 18.51053], [-96.5175, 18.50955], [-96.51553, 18.51231], [-96.51348, 18.5089], [-96.51598, 18.50789], [-96.51775, 18.50768], [-96.51926, 18.50797], [-96.52013, 18.50882]]]}}, {"id": "1583154", "type": "Feature", "properties": {"id": "1583154", "CVEGEO": "2000200390498001", "POBTOT": 6.0, "score_nse": 0.0, "NSE": "ND", "VIVTOT": 4.0, "GRAPROES": 2.5, "_ent": "20", "_mun": "002", "_loc": "0039"}, "geometry": {"type": "Polygon", "coordinates": [[[-96.5234, 18.50916], [-96.52367, 18.50862], [-96.52361, 18.50837], [-96.52531, 18.50918], [-96.52625, 18.50879], [-96.52685, 18.50879], [-96.52666, 18.5095], [-96.52631, 18.51007], [-96.5234, 18.50916]]]}}, {"id": "1583155", "type": "Feature", "properties": {"id": "1583155", "CVEGEO": "2000200390483001", "POBTOT": 0.0, "score_nse": 0.0, "NSE": "ND", "VIVTOT": 0.0, "GRAPROES": 0.0, "_ent": "20", "_mun": "002", "_loc": "0039"}, "geometry": {"type": "Polygon", "coordinates": [[[-96.5206, 18.51836], [-96.52145, 18.51888], [-96.52087, 18.51939], [-96.5201, 18.51884], [-96.5206, 18.51836]]]}}, {"id": "1583156", "type": "Feature", "properties": {"id": "1583156", "CVEGEO": "2000200390318025", "POBTOT": 70.0, "score_nse": 0.0, "NSE": "ND", "VIVTOT": 28.0, "GRAPROES": 9.04, "_ent": "20", "_mun": "002", "_loc": "0039"}, "geometry": {"type": "Polygon", "coordinates": [[[-96.53353, 18.51474], [-96.533, 18.5139], [-96.53392, 18.51344], [-96.53441, 18.5143], [-96.53353, 18.51474]]]}}, {"id": "1583157", "type": "Feature", "properties": {"id": "1583157", "CVEGEO": "2000200390318024", "POBTOT": 55.0, "score_nse": 0.0, "NSE": "ND", "VIVTOT": 30.0, "GRAPROES": 7.32, "_ent": "20", "_mun": "002", "_loc": "0039"}, "geometry": {"type": "Polygon", "coordinates": [[[-96.53272, 18.51299], [-96.53344, 18.51252], [-96.53387, 18.51339], [-96.53296, 18.51385], [-96.53272, 18.51299]]]}}, {"id": "1583158", "type": "Feature", "properties": {"id": "1583158", "CVEGEO": "2000200390318009", "POBTOT": 48.0, "score_nse": 0.0, "NSE": "ND", "VIVTOT": 17.0, "GRAPROES": 9.0, "_ent": "20", "_mun": "002", "_loc": "0039"}, "geometry": {"type": "Polygon", "coordinates": [[[-96.53019, 18.51528], [-96.53112, 18.51487], [-96.53155, 18.51567], [-96.53069, 18.51609], [-96.53019, 18.51528]]]}}, {"id": "1583159", "type": "Feature", "properties": {"id": "1583159", "CVEGEO": "2000200390318006", "POBTOT": 15.0, "score_nse": 0.0, "NSE": "ND", "VIVTOT": 5.0, "GRAPROES": 10.75, "_ent": "20", "_mun": "002", "_loc": "0039"}, "geometry": {"type": "Polygon", "coordinates": [[[-96.53177, 18.51384], [-96.53215, 18.51349], [-96.53263, 18.51306], [-96.5329, 18.51388], [-96.53206, 18.51431], [-96.53177, 18.51384]]]}}, {"id": "1583160", "type": "Feature", "properties": {"id": "1583160", "CVEGEO": "2000200390303004", "POBTOT": 22.0, "score_nse": 0.0, "NSE": "ND", "VIVTOT": 6.0, "GRAPROES": 6.87, "_ent": "20", "_mun": "002", "_loc": "0039"}, "geometry": {"type": "Polygon", "coordinates": [[[-96.53495, 18.51167], [-96.53441, 18.51194], [-96.53424, 18.51162], [-96.53465, 18.51127], [-96.53495, 18.51167]]]}}, {"id": "1583161", "type": "Feature", "properties": {"id": "1583161", "CVEGEO": "2000200390303003", "POBTOT": 19.0, "score_nse": 0.0, "NSE": "ND", "VIVTOT": 10.0, "GRAPROES": 9.72, "_ent": "20", "_mun": "002", "_loc": "0039"}, "geometry": {"type": "Polygon", "coordinates": [[[-96.53433, 18.51198], [-96.53347, 18.51242], [-96.53343, 18.51235], [-96.53416, 18.51168], [-96.53433, 18.51198]]]}}, {"id": "1583163", "type": "Feature", "properties": {"id": "1583163", "CVEGEO": "2000200390290021", "POBTOT": 6.0, "score_nse": 0.0, "NSE": "ND", "VIVTOT": 3.0, "GRAPROES": 0.0, "_ent": "20", "_mun": "002", "_loc": "0039"}, "geometry": {"type": "Polygon", "coordinates": [[[-96.52199, 18.51082], [-96.52151, 18.51129], [-96.52094, 18.51087], [-96.52108, 18.51002], [-96.52199, 18.51082]]]}}, {"id": "1583164", "type": "Feature", "properties": {"id": "1583164", "CVEGEO": "2000200390290020", "POBTOT": 34.0, "score_nse": 0.0, "NSE": "ND", "VIVTOT": 7.0, "GRAPROES": 5.68, "_ent": "20", "_mun": "002", "_loc": "0039"}, "geometry": {"type": "Polygon", "coordinates": [[[-96.52246, 18.51179], [-96.52173, 18.51109], [-96.52205, 18.51091], [-96.52265, 18.51152], [-96.52246, 18.51179]]]}}, {"id": "1583165", "type": "Feature", "properties": {"id": "1583165", "CVEGEO": "2000200390286034", "POBTOT": 7.0, "score_nse": 0.0, "NSE": "ND", "VIVTOT": 3.0, "GRAPROES": 0.0, "_ent": "20", "_mun": "002", "_loc": "0039"}, "geometry": {"type": "Polygon", "coordinates": [[[-96.52039, 18.51272], [-96.5198, 18.5135], [-96.51949, 18.51325], [-96.52009, 18.51247], [-96.52039, 18.51272]]]}}, {"id": "1583166", "type": "Feature", "properties": {"id": "1583166", "CVEGEO": "2000200390286025", "POBTOT": 24.0, "score_nse": 0.0, "NSE": "ND", "VIVTOT": 7.0, "GRAPROES": 6.74, "_ent": "20", "_mun": "002", "_loc": "0039"}, "geometry": {"type": "Polygon", "coordinates": [[[-96.51932, 18.51592], [-96.52005, 18.51659], [-96.51947, 18.51739], [-96.51864, 18.51684], [-96.51932, 18.51592]]]}}, {"id": "1583167", "type": "Feature", "properties": {"id": "1583167", "CVEGEO": "2000200390286024", "POBTOT": 16.0, "score_nse": 75.64, "NSE": "C+", "VIVTOT": 5.0, "GRAPROES": 12.42, "_ent": "20", "_mun": "002", "_loc": "0039"}, "geometry": {"type": "Polygon", "coordinates": [[[-96.5201, 18.51663], [-96.52072, 18.51725], [-96.52022, 18.5179], [-96.51949, 18.51742], [-96.5201, 18.51663]]]}}, {"id": "1583169", "type": "Feature", "properties": {"id": "1583169", "CVEGEO": "2000200390286007", "POBTOT": 39.0, "score_nse": 55.8971, "NSE": "C", "VIVTOT": 14.0, "GRAPROES": 9.92, "_ent": "20", "_mun": "002", "_loc": "0039"}, "geometry": {"type": "Polygon", "coordinates": [[[-96.52079, 18.51728], [-96.52139, 18.5165], [-96.52217, 18.51721], [-96.52158, 18.51796], [-96.52079, 18.51728]]]}}, {"id": "1583170", "type": "Feature", "properties": {"id": "1583170", "CVEGEO": "2000200390286006", "POBTOT": 30.0, "score_nse": 0.0, "NSE": "ND", "VIVTOT": 11.0, "GRAPROES": 9.1, "_ent": "20", "_mun": "002", "_loc": "0039"}, "geometry": {"type": "Polygon", "coordinates": [[[-96.52145, 18.51645], [-96.52204, 18.5157], [-96.52278, 18.5164], [-96.5222, 18.51711], [-96.52145, 18.51645]]]}}, {"id": "1583171", "type": "Feature", "properties": {"id": "1583171", "CVEGEO": "200020039013A010", "POBTOT": 26.0, "score_nse": 63.186, "NSE": "C", "VIVTOT": 8.0, "GRAPROES": 10.71, "_ent": "20", "_mun": "002", "_loc": "0039"}, "geometry": {"type": "Polygon", "coordinates": [[[-96.52539, 18.51752], [-96.52629, 18.5171], [-96.52678, 18.51793], [-96.52589, 18.51838], [-96.52539, 18.51752]]]}}, {"id": "1583172", "type": "Feature", "properties": {"id": "1583172", "CVEGEO": "200020039013A021", "POBTOT": 7.0, "score_nse": 0.0, "NSE": "ND", "VIVTOT": 4.0, "GRAPROES": 7.33, "_ent": "20", "_mun": "002", "_loc": "0039"}, "geometry": {"type": "Polygon", "coordinates": [[[-96.52854, 18.51663], [-96.5293, 18.51598], [-96.52961, 18.51658], [-96.52874, 18.517], [-96.52854, 18.51663]]]}}, {"id": "1583178", "type": "Feature", "properties": {"id": "1583178", "CVEGEO": "2000200390318008", "POBTOT": 8.0, "score_nse": 0.0, "NSE": "ND", "VIVTOT": 4.0, "GRAPROES": 8.2, "_ent": "20", "_mun": "002", "_loc": "0039"}, "geometry": {"type": "Polygon", "coordinates": [[[-96.53174, 18.51391], [-96.53201, 18.51435], [-96.53113, 18.51478], [-96.53096, 18.51453], [-96.53174, 18.51391]]]}}, {"id": "1583179", "type": "Feature", "properties": {"id": "1583179", "CVEGEO": "2000200390303002", "POBTOT": 64.0, "score_nse": 51.6614, "NSE": "C-", "VIVTOT": 28.0, "GRAPROES": 9.78, "_ent": "20", "_mun": "002", "_loc": "0039"}, "geometry": {"type": "Polygon", "coordinates": [[[-96.53392, 18.51329], [-96.53351, 18.51251], [-96.53438, 18.51208], [-96.53483, 18.51292], [-96.53392, 18.51329]]]}}, {"id": "1583214", "type": "Feature", "properties": {"id": "1583214", "CVEGEO": "2000200390290025", "POBTOT": 10.0, "score_nse": 0.0, "NSE": "ND", "VIVTOT": 6.0, "GRAPROES": 3.33, "_ent": "20", "_mun": "002", "_loc": "0039"}, "geometry": {"type": "Polygon", "coordinates": [[[-96.52178, 18.50876], [-96.52109, 18.50987], [-96.52089, 18.51084], [-96.51949, 18.50994], [-96.52025, 18.50884], [-96.51941, 18.50805], [-96.52178, 18.50876]]]}}, {"id": "1583215", "type": "Feature", "properties": {"id": "1583215", "CVEGEO": "2000200390322035", "POBTOT": 32.0, "score_nse": 67.7705, "NSE": "C", "VIVTOT": 11.0, "GRAPROES": 10.74, "_ent": "20", "_mun": "002", "_loc": "0039"}, "geometry": {"type": "Polygon", "coordinates": [[[-96.54622, 18.50771], [-96.54725, 18.50805], [-96.5472, 18.50823], [-96.54373, 18.5088], [-96.54407, 18.50837], [-96.54563, 18.50718], [-96.54622, 18.50771]]]}}, {"id": "1583216", "type": "Feature", "properties": {"id": "1583216", "CVEGEO": "2000200390322034", "POBTOT": 84.0, "score_nse": 70.76, "NSE": "C+", "VIVTOT": 25.0, "GRAPROES": 11.06, "_ent": "20", "_mun": "002", "_loc": "0039"}, "geometry": {"type": "Polygon", "coordinates": [[[-96.54602, 18.50747], [-96.54571, 18.50714], [-96.546, 18.50693], [-96.54655, 18.50743], [-96.5471, 18.50764], [-96.54693, 18.50793], [-96.54602, 18.50747]]]}}, {"id": "1583217", "type": "Feature", "properties": {"id": "1583217", "CVEGEO": "2000200390322011", "POBTOT": 0.0, "score_nse": 0.0, "NSE": "ND", "VIVTOT": 0.0, "GRAPROES": 0.0, "_ent": "20", "_mun": "002", "_loc": "0039"}, "geometry": {"type": "Polygon", "coordinates": [[[-96.5432, 18.50501], [-96.54285, 18.50527], [-96.54292, 18.50475], [-96.5432, 18.50501]]]}}, {"id": "1583218", "type": "Feature", "properties": {"id": "1583218", "CVEGEO": "2000200390322010", "POBTOT": 22.0, "score_nse": 0.0, "NSE": "ND", "VIVTOT": 7.0, "GRAPROES": 7.93, "_ent": "20", "_mun": "002", "_loc": "0039"}, "geometry": {"type": "Polygon", "coordinates": [[[-96.54288, 18.50471], [-96.54259, 18.50492], [-96.54187, 18.50476], [-96.54202, 18.50456], [-96.54288, 18.50471]]]}}, {"id": "1583219", "type": "Feature", "properties": {"id": "1583219", "CVEGEO": "2000200390318032", "POBTOT": 13.0, "score_nse": 0.0, "NSE": "ND", "VIVTOT": 5.0, "GRAPROES": 7.67, "_ent": "20", "_mun": "002", "_loc": "0039"}, "geometry": {"type": "Polygon", "coordinates": [[[-96.53146, 18.51111], [-96.53118, 18.51125], [-96.53074, 18.51044], [-96.53106, 18.51041], [-96.53146, 18.51111]]]}}, {"id": "1583220", "type": "Feature", "properties": {"id": "1583220", "CVEGEO": "2000200390318030", "POBTOT": 47.0, "score_nse": 0.0, "NSE": "ND", "VIVTOT": 17.0, "GRAPROES": 9.17, "_ent": "20", "_mun": "002", "_loc": "0039"}, "geometry": {"type": "Polygon", "coordinates": [[[-96.53049, 18.51163], [-96.52963, 18.51205], [-96.52915, 18.51118], [-96.53, 18.51079], [-96.53049, 18.51163]]]}}, {"id": "1583221", "type": "Feature", "properties": {"id": "1583221", "CVEGEO": "2000200390318029", "POBTOT": 56.0, "score_nse": 0.0, "NSE": "ND", "VIVTOT": 24.0, "GRAPROES": 7.4, "_ent": "20", "_mun": "002", "_loc": "0039"}, "geometry": {"type": "Polygon", "coordinates": [[[-96.52908, 18.51121], [-96.52958, 18.51206], [-96.52871, 18.51247], [-96.52822, 18.51165], [-96.52908, 18.51121]]]}}, {"id": "1583222", "type": "Feature", "properties": {"id": "1583222", "CVEGEO": "2000200390318027", "POBTOT": 40.0, "score_nse": 0.0, "NSE": "ND", "VIVTOT": 13.0, "GRAPROES": 8.1, "_ent": "20", "_mun": "002", "_loc": "0039"}, "geometry": {"type": "Polygon", "coordinates": [[[-96.53317, 18.51628], [-96.53318, 18.51614], [-96.53403, 18.51567], [-96.53432, 18.51618], [-96.53374, 18.51672], [-96.53317, 18.51628]]]}}, {"id": "1583223", "type": "Feature", "properties": {"id": "1583223", "CVEGEO": "2000200390318005", "POBTOT": 0.0, "score_nse": 0.0, "NSE": "ND", "VIVTOT": 0.0, "GRAPROES": 0.0, "_ent": "20", "_mun": "002", "_loc": "0039"}, "geometry": {"type": "Polygon", "coordinates": [[[-96.5311, 18.51256], [-96.53179, 18.51222], [-96.53248, 18.51309], [-96.53175, 18.5137], [-96.5311, 18.51256]]]}}, {"id": "1583224", "type": "Feature", "properties": {"id": "1583224", "CVEGEO": "2000200390303028", "POBTOT": 5.0, "score_nse": 0.0, "NSE": "ND", "VIVTOT": 9.0, "GRAPROES": 0.0, "_ent": "20", "_mun": "002", "_loc": "0039"}, "geometry": {"type": "Polygon", "coordinates": [[[-96.53502, 18.51044], [-96.5348, 18.51046], [-96.53477, 18.51019], [-96.535, 18.51016], [-96.53502, 18.51044]]]}}, {"id": "1583225", "type": "Feature", "properties": {"id": "1583225", "CVEGEO": "2000200390303027", "POBTOT": 18.0, "score_nse": 0.0, "NSE": "ND", "VIVTOT": 10.0, "GRAPROES": 9.75, "_ent": "20", "_mun": "002", "_loc": "0039"}, "geometry": {"type": "Polygon", "coordinates": [[[-96.53478, 18.51059], [-96.53434, 18.51064], [-96.53414, 18.51031], [-96.53474, 18.51019], [-96.53478, 18.51059]]]}}, {"id": "1583226", "type": "Feature", "properties": {"id": "1583226", "CVEGEO": "2000200390303025", "POBTOT": 73.0, "score_nse": 49.9302, "NSE": "C-", "VIVTOT": 33.0, "GRAPROES": 8.64, "_ent": "20", "_mun": "002", "_loc": "0039"}, "geometry": {"type": "Polygon", "coordinates": [[[-96.53383, 18.51108], [-96.53294, 18.51152], [-96.53249, 18.51068], [-96.53346, 18.51037], [-96.53383, 18.51108]]]}}, {"id": "1583227", "type": "Feature", "properties": {"id": "1583227", "CVEGEO": "2000200390303023", "POBTOT": 35.0, "score_nse": 0.0, "NSE": "ND", "VIVTOT": 13.0, "GRAPROES": 9.43, "_ent": "20", "_mun": "002", "_loc": "0039"}, "geometry": {"type": "Polygon", "coordinates": [[[-96.53536, 18.51395], [-96.53587, 18.51485], [-96.53507, 18.51514], [-96.53536, 18.51395]]]}}, {"id": "1583228", "type": "Feature", "properties": {"id": "1583228", "CVEGEO": "2000200390303022", "POBTOT": 38.0, "score_nse": 0.0, "NSE": "ND", "VIVTOT": 9.0, "GRAPROES": 11.24, "_ent": "20", "_mun": "002", "_loc": "0039"}, "geometry": {"type": "Polygon", "coordinates": [[[-96.53576, 18.51439], [-96.53663, 18.51396], [-96.53687, 18.5144], [-96.53599, 18.51484], [-96.53576, 18.51439]]]}}, {"id": "1583229", "type": "Feature", "properties": {"id": "1583229", "CVEGEO": "2000200390303006", "POBTOT": 34.0, "score_nse": 64.6566, "NSE": "C", "VIVTOT": 14.0, "GRAPROES": 9.93, "_ent": "20", "_mun": "002", "_loc": "0039"}, "geometry": {"type": "Polygon", "coordinates": [[[-96.53533, 18.51145], [-96.535, 18.51095], [-96.53586, 18.51034], [-96.53623, 18.51107], [-96.53533, 18.51145]]]}}, {"id": "1583230", "type": "Feature", "properties": {"id": "1583230", "CVEGEO": "2000200390303005", "POBTOT": 27.0, "score_nse": 0.0, "NSE": "ND", "VIVTOT": 9.0, "GRAPROES": 10.14, "_ent": "20", "_mun": "002", "_loc": "0039"}, "geometry": {"type": "Polygon", "coordinates": [[[-96.53477, 18.51118], [-96.53497, 18.51099], [-96.53532, 18.51152], [-96.53509, 18.5116], [-96.53477, 18.51118]]]}}, {"id": "1583231", "type": "Feature", "properties": {"id": "1583231", "CVEGEO": "2000200390290001", "POBTOT": 33.0, "score_nse": 0.0, "NSE": "ND", "VIVTOT": 13.0, "GRAPROES": 6.74, "_ent": "20", "_mun": "002", "_loc": "0039"}, "geometry": {"type": "Polygon", "coordinates": [[[-96.52389, 18.51163], [-96.52444, 18.51094], [-96.52519, 18.51159], [-96.52461, 18.51233], [-96.52389, 18.51163]]]}}, {"id": "1583232", "type": "Feature", "properties": {"id": "1583232", "CVEGEO": "2000200390286040", "POBTOT": 3.0, "score_nse": 0.0, "NSE": "ND", "VIVTOT": 1.0, "GRAPROES": 0.0, "_ent": "20", "_mun": "002", "_loc": "0039"}, "geometry": {"type": "Polygon", "coordinates": [[[-96.51949, 18.51081], [-96.51889, 18.51158], [-96.5187, 18.51145], [-96.51914, 18.51059], [-96.51949, 18.51081]]]}}, {"id": "1583233", "type": "Feature", "properties": {"id": "1583233", "CVEGEO": "2000200390286039", "POBTOT": 0.0, "score_nse": 0.0, "NSE": "ND", "VIVTOT": 0.0, "GRAPROES": 0.0, "_ent": "20", "_mun": "002", "_loc": "0039"}, "geometry": {"type": "Polygon", "coordinates": [[[-96.51928, 18.51191], [-96.51868, 18.51269], [-96.5182, 18.51239], [-96.51868, 18.51148], [-96.51928, 18.51191]]]}}, {"id": "1583234", "type": "Feature", "properties": {"id": "1583234", "CVEGEO": "2000200390286038", "POBTOT": 0.0, "score_nse": 10.0, "NSE": "E", "VIVTOT": 4.0, "GRAPROES": 0.0, "_ent": "20", "_mun": "002", "_loc": "0039"}, "geometry": {"type": "Polygon", "coordinates": [[[-96.52033, 18.51134], [-96.51968, 18.51212], [-96.51935, 18.51189], [-96.51996, 18.51111], [-96.52033, 18.51134]]]}}, {"id": "1583235", "type": "Feature", "properties": {"id": "1583235", "CVEGEO": "2000200390286037", "POBTOT": 6.0, "score_nse": 0.0, "NSE": "ND", "VIVTOT": 3.0, "GRAPROES": 0.0, "_ent": "20", "_mun": "002", "_loc": "0039"}, "geometry": {"type": "Polygon", "coordinates": [[[-96.51964, 18.51215], [-96.51905, 18.51295], [-96.51872, 18.51272], [-96.51932, 18.51194], [-96.51964, 18.51215]]]}}, {"id": "1583236", "type": "Feature", "properties": {"id": "1583236", "CVEGEO": "2000200390286035", "POBTOT": 4.0, "score_nse": 0.0, "NSE": "ND", "VIVTOT": 2.0, "GRAPROES": 0.0, "_ent": "20", "_mun": "002", "_loc": "0039"}, "geometry": {"type": "Polygon", "coordinates": [[[-96.52004, 18.51245], [-96.51943, 18.51322], [-96.51909, 18.51298], [-96.51969, 18.51218], [-96.52004, 18.51245]]]}}, {"id": "1583237", "type": "Feature", "properties": {"id": "1583237", "CVEGEO": "2000200390286005", "POBTOT": 44.0, "score_nse": 0.0, "NSE": "ND", "VIVTOT": 13.0, "GRAPROES": 6.91, "_ent": "20", "_mun": "002", "_loc": "0039"}, "geometry": {"type": "Polygon", "coordinates": [[[-96.52207, 18.51562], [-96.5227, 18.51491], [-96.52343, 18.51556], [-96.5228, 18.51632], [-96.52207, 18.51562]]]}}, {"id": "1583238", "type": "Feature", "properties": {"id": "1583238", "CVEGEO": "2000200390286004", "POBTOT": 43.0, "score_nse": 0.0, "NSE": "ND", "VIVTOT": 14.0, "GRAPROES": 6.96, "_ent": "20", "_mun": "002", "_loc": "0039"}, "geometry": {"type": "Polygon", "coordinates": [[[-96.52155, 18.51476], [-96.52194, 18.5142], [-96.52266, 18.51487], [-96.52202, 18.51557], [-96.52153, 18.51508], [-96.52155, 18.51476]]]}}, {"id": "1583239", "type": "Feature", "properties": {"id": "1583239", "CVEGEO": "2000200390286003", "POBTOT": 55.0, "score_nse": 0.0, "NSE": "ND", "VIVTOT": 18.0, "GRAPROES": 5.6, "_ent": "20", "_mun": "002", "_loc": "0039"}, "geometry": {"type": "Polygon", "coordinates": [[[-96.52137, 18.51405], [-96.52129, 18.5136], [-96.5219, 18.51416], [-96.52138, 18.51483], [-96.52112, 18.51436], [-96.52134, 18.51489], [-96.52058, 18.51428], [-96.52112, 18.51353], [-96.52131, 18.51386], [-96.52127, 18.51425], [-96.52137, 18.51405]]]}}, {"id": "1583240", "type": "Feature", "properties": {"id": "1583240", "CVEGEO": "200020039013A038", "POBTOT": 0.0, "score_nse": 10.0, "NSE": "E", "VIVTOT": 1.0, "GRAPROES": 0.0, "_ent": "20", "_mun": "002", "_loc": "0039"}, "geometry": {"type": "Polygon", "coordinates": [[[-96.52353, 18.51719], [-96.52381, 18.51684], [-96.52392, 18.51705], [-96.52353, 18.51719]]]}}, {"id": "1583241", "type": "Feature", "properties": {"id": "1583241", "CVEGEO": "200020039013A037", "POBTOT": 16.0, "score_nse": 0.0, "NSE": "ND", "VIVTOT": 8.0, "GRAPROES": 7.31, "_ent": "20", "_mun": "002", "_loc": "0039"}, "geometry": {"type": "Polygon", "coordinates": [[[-96.5245, 18.51597], [-96.52486, 18.51661], [-96.52398, 18.51702], [-96.52384, 18.51681], [-96.5245, 18.51597]]]}}, {"id": "1583242", "type": "Feature", "properties": {"id": "1583242", "CVEGEO": "200020039013A020", "POBTOT": 30.0, "score_nse": 60.0813, "NSE": "C", "VIVTOT": 12.0, "GRAPROES": 10.04, "_ent": "20", "_mun": "002", "_loc": "0039"}, "geometry": {"type": "Polygon", "coordinates": [[[-96.52968, 18.51654], [-96.52936, 18.51593], [-96.53012, 18.51531], [-96.53061, 18.51613], [-96.52968, 18.51654]]]}}, {"id": "1583243", "type": "Feature", "properties": {"id": "1583243", "CVEGEO": "200020039013A011", "POBTOT": 34.0, "score_nse": 0.0, "NSE": "ND", "VIVTOT": 17.0, "GRAPROES": 8.48, "_ent": "20", "_mun": "002", "_loc": "0039"}, "geometry": {"type": "Polygon", "coordinates": [[[-96.52447, 18.51793], [-96.524, 18.51706], [-96.52489, 18.51664], [-96.52535, 18.51748], [-96.52447, 18.51793]]]}}, {"id": "1583346", "type": "Feature", "properties": {"id": "1583346", "CVEGEO": "2000200390286011", "POBTOT": 24.0, "score_nse": 0.0, "NSE": "ND", "VIVTOT": 12.0, "GRAPROES": 6.16, "_ent": "20", "_mun": "002", "_loc": "0039"}, "geometry": {"type": "Polygon", "coordinates": [[[-96.51988, 18.51496], [-96.51923, 18.51438], [-96.5198, 18.5136], [-96.52053, 18.51425], [-96.51988, 18.51496]]]}}, {"id": "1583354", "type": "Feature", "properties": {"id": "1583354", "CVEGEO": "2000200390303016", "POBTOT": 47.0, "score_nse": 0.0, "NSE": "ND", "VIVTOT": 15.0, "GRAPROES": 8.91, "_ent": "20", "_mun": "002", "_loc": "0039"}, "geometry": {"type": "Polygon", "coordinates": [[[-96.53548, 18.51389], [-96.53636, 18.51345], [-96.53661, 18.5139], [-96.53571, 18.51432], [-96.53548, 18.51389]]]}}, {"id": "1583355", "type": "Feature", "properties": {"id": "1583355", "CVEGEO": "2000200390303015", "POBTOT": 83.0, "score_nse": 43.68, "NSE": "C-", "VIVTOT": 25.0, "GRAPROES": 7.23, "_ent": "20", "_mun": "002", "_loc": "0039"}, "geometry": {"type": "Polygon", "coordinates": [[[-96.53738, 18.51515], [-96.53643, 18.51344], [-96.53704, 18.51314], [-96.53738, 18.51515]]]}}, {"id": "1583356", "type": "Feature", "properties": {"id": "1583356", "CVEGEO": "2000200390303011", "POBTOT": 49.0, "score_nse": 0.0, "NSE": "ND", "VIVTOT": 27.0, "GRAPROES": 8.67, "_ent": "20", "_mun": "002", "_loc": "0039"}, "geometry": {"type": "Polygon", "coordinates": [[[-96.53413, 18.51163], [-96.53338, 18.51228], [-96.533, 18.51158], [-96.53386, 18.51115], [-96.53413, 18.51163]]]}}, {"id": "1583357", "type": "Feature", "properties": {"id": "1583357", "CVEGEO": "2000200390290030", "POBTOT": 9.0, "score_nse": 0.0, "NSE": "ND", "VIVTOT": 2.0, "GRAPROES": 0.0, "_ent": "20", "_mun": "002", "_loc": "0039"}, "geometry": {"type": "Polygon", "coordinates": [[[-96.52147, 18.51133], [-96.52108, 18.51186], [-96.52083, 18.51166], [-96.52092, 18.51091], [-96.52147, 18.51133]]]}}, {"id": "1583358", "type": "Feature", "properties": {"id": "1583358", "CVEGEO": "2000200390290023", "POBTOT": 14.0, "score_nse": 0.0, "NSE": "ND", "VIVTOT": 5.0, "GRAPROES": 6.5, "_ent": "20", "_mun": "002", "_loc": "0039"}, "geometry": {"type": "Polygon", "coordinates": [[[-96.52775, 18.51092], [-96.52642, 18.51016], [-96.52829, 18.51063], [-96.52775, 18.51092]]]}}, {"id": "1583359", "type": "Feature", "properties": {"id": "1583359", "CVEGEO": "2000200390290009", "POBTOT": 5.0, "score_nse": 0.0, "NSE": "ND", "VIVTOT": 2.0, "GRAPROES": 0.0, "_ent": "20", "_mun": "002", "_loc": "0039"}, "geometry": {"type": "Polygon", "coordinates": [[[-96.5223, 18.51109], [-96.52241, 18.51104], [-96.52295, 18.51112], [-96.52268, 18.51148], [-96.5223, 18.51109]]]}}, {"id": "1583360", "type": "Feature", "properties": {"id": "1583360", "CVEGEO": "2000200390290006", "POBTOT": 0.0, "score_nse": 0.0, "NSE": "ND", "VIVTOT": 0.0, "GRAPROES": 0.0, "_ent": "20", "_mun": "002", "_loc": "0039"}, "geometry": {"type": "Polygon", "coordinates": [[[-96.5246, 18.51244], [-96.52479, 18.5126], [-96.52445, 18.51263], [-96.5246, 18.51244]]]}}, {"id": "1583361", "type": "Feature", "properties": {"id": "1583361", "CVEGEO": "2000200390290005", "POBTOT": 40.0, "score_nse": 0.0, "NSE": "ND", "VIVTOT": 14.0, "GRAPROES": 6.68, "_ent": "20", "_mun": "002", "_loc": "0039"}, "geometry": {"type": "Polygon", "coordinates": [[[-96.52463, 18.5124], [-96.52524, 18.51164], [-96.52598, 18.51233], [-96.52502, 18.51274], [-96.52463, 18.5124]]]}}, {"id": "1583362", "type": "Feature", "properties": {"id": "1583362", "CVEGEO": "2000200390290004", "POBTOT": 36.0, "score_nse": 0.0, "NSE": "ND", "VIVTOT": 16.0, "GRAPROES": 7.07, "_ent": "20", "_mun": "002", "_loc": "0039"}, "geometry": {"type": "Polygon", "coordinates": [[[-96.52588, 18.51082], [-96.52677, 18.51162], [-96.52602, 18.5123], [-96.52527, 18.5116], [-96.52588, 18.51082]]]}}, {"id": "1583363", "type": "Feature", "properties": {"id": "1583363", "CVEGEO": "2000200390286031", "POBTOT": 43.0, "score_nse": 0.0, "NSE": "ND", "VIVTOT": 13.0, "GRAPROES": 8.44, "_ent": "20", "_mun": "002", "_loc": "0039"}, "geometry": {"type": "Polygon", "coordinates": [[[-96.52398, 18.5133], [-96.52469, 18.51395], [-96.5241, 18.51471], [-96.52339, 18.51403], [-96.52398, 18.5133]]]}}, {"id": "1583364", "type": "Feature", "properties": {"id": "1583364", "CVEGEO": "2000200390286030", "POBTOT": 3.0, "score_nse": 0.0, "NSE": "ND", "VIVTOT": 4.0, "GRAPROES": 0.0, "_ent": "20", "_mun": "002", "_loc": "0039"}, "geometry": {"type": "Polygon", "coordinates": [[[-96.52319, 18.51256], [-96.52393, 18.51324], [-96.52333, 18.51398], [-96.52261, 18.51333], [-96.52319, 18.51256]]]}}, {"id": "1583365", "type": "Feature", "properties": {"id": "1583365", "CVEGEO": "2000200390286029", "POBTOT": 13.0, "score_nse": 0.0, "NSE": "ND", "VIVTOT": 7.0, "GRAPROES": 7.33, "_ent": "20", "_mun": "002", "_loc": "0039"}, "geometry": {"type": "Polygon", "coordinates": [[[-96.52245, 18.51188], [-96.52318, 18.5125], [-96.52256, 18.5133], [-96.52188, 18.51266], [-96.52245, 18.51188]]]}}, {"id": "1583366", "type": "Feature", "properties": {"id": "1583366", "CVEGEO": "2000200390286026", "POBTOT": 35.0, "score_nse": 0.0, "NSE": "ND", "VIVTOT": 15.0, "GRAPROES": 7.96, "_ent": "20", "_mun": "002", "_loc": "0039"}, "geometry": {"type": "Polygon", "coordinates": [[[-96.51784, 18.51616], [-96.51857, 18.51524], [-96.51928, 18.51592], [-96.51861, 18.51681], [-96.51784, 18.51616]]]}}, {"id": "1583368", "type": "Feature", "properties": {"id": "1583368", "CVEGEO": "2000200390286012", "POBTOT": 16.0, "score_nse": 0.0, "NSE": "ND", "VIVTOT": 12.0, "GRAPROES": 3.53, "_ent": "20", "_mun": "002", "_loc": "0039"}, "geometry": {"type": "Polygon", "coordinates": [[[-96.51984, 18.51356], [-96.52039, 18.51283], [-96.52109, 18.51346], [-96.52056, 18.5142], [-96.51984, 18.51356]]]}}, {"id": "1583369", "type": "Feature", "properties": {"id": "1583369", "CVEGEO": "2000200390286010", "POBTOT": 9.0, "score_nse": 0.0, "NSE": "ND", "VIVTOT": 7.0, "GRAPROES": 10.78, "_ent": "20", "_mun": "002", "_loc": "0039"}, "geometry": {"type": "Polygon", "coordinates": [[[-96.5186, 18.51521], [-96.5192, 18.5144], [-96.51989, 18.51511], [-96.51932, 18.51582], [-96.5186, 18.51521]]]}}, {"id": "1583370", "type": "Feature", "properties": {"id": "1583370", "CVEGEO": "200020039013A030", "POBTOT": 53.0, "score_nse": 0.0, "NSE": "ND", "VIVTOT": 20.0, "GRAPROES": 6.82, "_ent": "20", "_mun": "002", "_loc": "0039"}, "geometry": {"type": "Polygon", "coordinates": [[[-96.52354, 18.51843], [-96.52441, 18.518], [-96.52487, 18.51884], [-96.52402, 18.51927], [-96.52354, 18.51843]]]}}, {"id": "1583371", "type": "Feature", "properties": {"id": "1583371", "CVEGEO": "200020039013A029", "POBTOT": 41.0, "score_nse": 0.0, "NSE": "ND", "VIVTOT": 15.0, "GRAPROES": 8.34, "_ent": "20", "_mun": "002", "_loc": "0039"}, "geometry": {"type": "Polygon", "coordinates": [[[-96.52691, 18.51795], [-96.5287, 18.51708], [-96.52886, 18.51744], [-96.52633, 18.51868], [-96.52691, 18.51795]]]}}, {"id": "1583373", "type": "Feature", "properties": {"id": "1583373", "CVEGEO": "200020039013A018", "POBTOT": 45.0, "score_nse": 47.346, "NSE": "C-", "VIVTOT": 20.0, "GRAPROES": 7.56, "_ent": "20", "_mun": "002", "_loc": "0039"}, "geometry": {"type": "Polygon", "coordinates": [[[-96.52871, 18.51475], [-96.52827, 18.5139], [-96.52913, 18.51346], [-96.5296, 18.51432], [-96.52871, 18.51475]]]}}, {"id": "1583374", "type": "Feature", "properties": {"id": "1583374", "CVEGEO": "200020039013A017", "POBTOT": 70.0, "score_nse": 59.3689, "NSE": "C", "VIVTOT": 26.0, "GRAPROES": 9.73, "_ent": "20", "_mun": "002", "_loc": "0039"}, "geometry": {"type": "Polygon", "coordinates": [[[-96.52828, 18.51382], [-96.52774, 18.51303], [-96.52864, 18.51259], [-96.52907, 18.51342], [-96.52828, 18.51382]]]}}, {"id": "1583375", "type": "Feature", "properties": {"id": "1583375", "CVEGEO": "200020039013A013", "POBTOT": 0.0, "score_nse": 10.0, "NSE": "E", "VIVTOT": 1.0, "GRAPROES": 0.0, "_ent": "20", "_mun": "002", "_loc": "0039"}, "geometry": {"type": "Polygon", "coordinates": [[[-96.52488, 18.51546], [-96.52522, 18.51504], [-96.52532, 18.51511], [-96.52542, 18.5153], [-96.52488, 18.51546]]]}}, {"id": "1583376", "type": "Feature", "properties": {"id": "1583376", "CVEGEO": "200020039013A005", "POBTOT": 33.0, "score_nse": 0.0, "NSE": "ND", "VIVTOT": 13.0, "GRAPROES": 6.81, "_ent": "20", "_mun": "002", "_loc": "0039"}, "geometry": {"type": "Polygon", "coordinates": [[[-96.52732, 18.51438], [-96.5282, 18.51392], [-96.52867, 18.51478], [-96.52779, 18.51519], [-96.52732, 18.51438]]]}}, {"id": "1583377", "type": "Feature", "properties": {"id": "1583377", "CVEGEO": "200020039013A004", "POBTOT": 25.0, "score_nse": 0.0, "NSE": "ND", "VIVTOT": 10.0, "GRAPROES": 9.38, "_ent": "20", "_mun": "002", "_loc": "0039"}, "geometry": {"type": "Polygon", "coordinates": [[[-96.52643, 18.5148], [-96.52721, 18.51441], [-96.52771, 18.51523], [-96.52682, 18.51565], [-96.52643, 18.5148]]]}}, {"id": "1583378", "type": "Feature", "properties": {"id": "1583378", "CVEGEO": "200020039013A003", "POBTOT": 39.0, "score_nse": 47.2371, "NSE": "C-", "VIVTOT": 14.0, "GRAPROES": 8.97, "_ent": "20", "_mun": "002", "_loc": "0039"}, "geometry": {"type": "Polygon", "coordinates": [[[-96.52549, 18.5153], [-96.52631, 18.51488], [-96.52675, 18.51567], [-96.52588, 18.51609], [-96.52549, 18.5153]]]}}, {"id": "1583505", "type": "Feature", "properties": {"id": "1583505", "CVEGEO": "2000200390337036", "POBTOT": 65.0, "score_nse": 59.742, "NSE": "C", "VIVTOT": 20.0, "GRAPROES": 9.86, "_ent": "20", "_mun": "002", "_loc": "0039"}, "geometry": {"type": "Polygon", "coordinates": [[[-96.53984, 18.50294], [-96.54007, 18.50258], [-96.54102, 18.50335], [-96.54072, 18.50369], [-96.53984, 18.50294]]]}}, {"id": "1583506", "type": "Feature", "properties": {"id": "1583506", "CVEGEO": "2000200390322033", "POBTOT": 44.0, "score_nse": 0.0, "NSE": "ND", "VIVTOT": 15.0, "GRAPROES": 8.64, "_ent": "20", "_mun": "002", "_loc": "0039"}, "geometry": {"type": "Polygon", "coordinates": [[[-96.54732, 18.508], [-96.54698, 18.50797], [-96.54718, 18.50757], [-96.54662, 18.50739], [-96.54605, 18.50691], [-96.54643, 18.50648], [-96.54619, 18.50594], [-96.54658, 18.50568], [-96.54594, 18.50498], [-96.54695, 18.50419], [-96.54986, 18.5077], [-96.54726, 18.50817], [-96.54732, 18.508]]]}}, {"id": "1583507", "type": "Feature", "properties": {"id": "1583507", "CVEGEO": "200020039013A036", "POBTOT": 52.0, "score_nse": 0.0, "NSE": "ND", "VIVTOT": 21.0, "GRAPROES": 6.38, "_ent": "20", "_mun": "002", "_loc": "0039"}, "geometry": {"type": "Polygon", "coordinates": [[[-96.52494, 18.51664], [-96.52585, 18.51616], [-96.52627, 18.51704], [-96.52539, 18.51746], [-96.52494, 18.51664]]]}}, {"id": "1583508", "type": "Feature", "properties": {"id": "1583508", "CVEGEO": "200020039013A019", "POBTOT": 70.0, "score_nse": 0.0, "NSE": "ND", "VIVTOT": 24.0, "GRAPROES": 9.42, "_ent": "20", "_mun": "002", "_loc": "0039"}, "geometry": {"type": "Polygon", "coordinates": [[[-96.52873, 18.5148], [-96.52963, 18.51438], [-96.53007, 18.51523], [-96.52921, 18.51563], [-96.52873, 18.5148]]]}}, {"id": "1583548", "type": "Feature", "properties": {"id": "1583548", "CVEGEO": "2000200390286046", "POBTOT": 16.0, "score_nse": 0.0, "NSE": "ND", "VIVTOT": 5.0, "GRAPROES": 8.36, "_ent": "20", "_mun": "002", "_loc": "0039"}, "geometry": {"type": "Polygon", "coordinates": [[[-96.51992, 18.51108], [-96.51931, 18.51188], [-96.51892, 18.51161], [-96.51952, 18.51084], [-96.51992, 18.51108]]]}}, {"id": "1583549", "type": "Feature", "properties": {"id": "1583549", "CVEGEO": "200020039013A039", "POBTOT": 0.0, "score_nse": 0.0, "NSE": "ND", "VIVTOT": 0.0, "GRAPROES": 0.0, "_ent": "20", "_mun": "002", "_loc": "0039"}, "geometry": {"type": "Polygon", "coordinates": [[[-96.52802, 18.51581], [-96.52819, 18.51613], [-96.52728, 18.51655], [-96.52711, 18.51622], [-96.52802, 18.51581]]]}}, {"id": "1583550", "type": "Feature", "properties": {"id": "1583550", "CVEGEO": "2000200390290012", "POBTOT": 47.0, "score_nse": 0.0, "NSE": "ND", "VIVTOT": 18.0, "GRAPROES": 7.35, "_ent": "20", "_mun": "002", "_loc": "0039"}, "geometry": {"type": "Polygon", "coordinates": [[[-96.52679, 18.51128], [-96.52696, 18.51146], [-96.52681, 18.51157], [-96.52591, 18.5108], [-96.52637, 18.5102], [-96.52766, 18.51095], [-96.52736, 18.51116], [-96.52666, 18.51051], [-96.52732, 18.51119], [-96.52699, 18.51144], [-96.52679, 18.51128]]]}}, {"id": "1583551", "type": "Feature", "properties": {"id": "1583551", "CVEGEO": "2000200390290010", "POBTOT": 85.0, "score_nse": 0.0, "NSE": "ND", "VIVTOT": 28.0, "GRAPROES": 7.03, "_ent": "20", "_mun": "002", "_loc": "0039"}, "geometry": {"type": "Polygon", "coordinates": [[[-96.52578, 18.50997], [-96.52512, 18.51032], [-96.52477, 18.51044], [-96.5247, 18.51031], [-96.52473, 18.51045], [-96.52284, 18.51103], [-96.52244, 18.511], [-96.52249, 18.5107], [-96.52227, 18.51045], [-96.52244, 18.51073], [-96.52231, 18.51105], [-96.52108, 18.50997], [-96.52183, 18.50876], [-96.52578, 18.50997]]]}}, {"id": "1583552", "type": "Feature", "properties": {"id": "1583552", "CVEGEO": "200020039013A001", "POBTOT": 26.0, "score_nse": 0.0, "NSE": "ND", "VIVTOT": 11.0, "GRAPROES": 6.95, "_ent": "20", "_mun": "002", "_loc": "0039"}, "geometry": {"type": "Polygon", "coordinates": [[[-96.52708, 18.51617], [-96.52684, 18.51571], [-96.52773, 18.51527], [-96.52799, 18.51576], [-96.52708, 18.51617]]]}}, {"id": "1583553", "type": "Feature", "properties": {"id": "1583553", "CVEGEO": "2000200390337035", "POBTOT": 0.0, "score_nse": 0.0, "NSE": "ND", "VIVTOT": 0.0, "GRAPROES": 0.0, "_ent": "20", "_mun": "002", "_loc": "0039"}, "geometry": {"type": "Polygon", "coordinates": [[[-96.5297, 18.50907], [-96.52949, 18.50803], [-96.52977, 18.50768], [-96.53067, 18.5072], [-96.53244, 18.50697], [-96.53331, 18.51007], [-96.53084, 18.51029], [-96.53007, 18.50919], [-96.5297, 18.50907]]]}}, {"id": "1583554", "type": "Feature", "properties": {"id": "1583554", "CVEGEO": "2000200390322023", "POBTOT": 10.0, "score_nse": 0.0, "NSE": "ND", "VIVTOT": 5.0, "GRAPROES": 5.7, "_ent": "20", "_mun": "002", "_loc": "0039"}, "geometry": {"type": "Polygon", "coordinates": [[[-96.54148, 18.50714], [-96.54147, 18.50736], [-96.541, 18.5078], [-96.54106, 18.50706], [-96.54148, 18.50714]]]}}, {"id": "1583555", "type": "Feature", "properties": {"id": "1583555", "CVEGEO": "2000200390322022", "POBTOT": 0.0, "score_nse": 0.0, "NSE": "ND", "VIVTOT": 0.0, "GRAPROES": 0.0, "_ent": "20", "_mun": "002", "_loc": "0039"}, "geometry": {"type": "Polygon", "coordinates": [[[-96.54166, 18.50716], [-96.54149, 18.50733], [-96.54149, 18.50714], [-96.54166, 18.50716]]]}}, {"id": "1583556", "type": "Feature", "properties": {"id": "1583556", "CVEGEO": "2000200390322021", "POBTOT": 0.0, "score_nse": 0.0, "NSE": "ND", "VIVTOT": 0.0, "GRAPROES": 0.0, "_ent": "20", "_mun": "002", "_loc": "0039"}, "geometry": {"type": "Polygon", "coordinates": [[[-96.5428, 18.50459], [-96.5427, 18.5046], [-96.54203, 18.50455], [-96.54238, 18.50427], [-96.5428, 18.50459]]]}}, {"id": "1583557", "type": "Feature", "properties": {"id": "1583557", "CVEGEO": "2000200390322020", "POBTOT": 62.0, "score_nse": 62.072, "NSE": "C", "VIVTOT": 15.0, "GRAPROES": 10.09, "_ent": "20", "_mun": "002", "_loc": "0039"}, "geometry": {"type": "Polygon", "coordinates": [[[-96.54136, 18.50578], [-96.54134, 18.50622], [-96.54091, 18.5062], [-96.54053, 18.50641], [-96.54054, 18.50596], [-96.54103, 18.50549], [-96.54136, 18.50578]]]}}, {"id": "1583558", "type": "Feature", "properties": {"id": "1583558", "CVEGEO": "2000200390322017", "POBTOT": 11.0, "score_nse": 0.0, "NSE": "ND", "VIVTOT": 5.0, "GRAPROES": 11.44, "_ent": "20", "_mun": "002", "_loc": "0039"}, "geometry": {"type": "Polygon", "coordinates": [[[-96.54134, 18.50625], [-96.5409, 18.50679], [-96.54063, 18.5065], [-96.54092, 18.50624], [-96.54134, 18.50625]]]}}, {"id": "1583559", "type": "Feature", "properties": {"id": "1583559", "CVEGEO": "2000200390322012", "POBTOT": 28.0, "score_nse": 0.0, "NSE": "ND", "VIVTOT": 10.0, "GRAPROES": 8.04, "_ent": "20", "_mun": "002", "_loc": "0039"}, "geometry": {"type": "Polygon", "coordinates": [[[-96.54358, 18.50541], [-96.54306, 18.50587], [-96.54284, 18.50544], [-96.54324, 18.50505], [-96.54358, 18.50541]]]}}, {"id": "1583560", "type": "Feature", "properties": {"id": "1583560", "CVEGEO": "2000200390318023", "POBTOT": 81.0, "score_nse": 53.6492, "NSE": "C-", "VIVTOT": 31.0, "GRAPROES": 9.08, "_ent": "20", "_mun": "002", "_loc": "0039"}, "geometry": {"type": "Polygon", "coordinates": [[[-96.53262, 18.51299], [-96.53205, 18.5121], [-96.53291, 18.51167], [-96.53334, 18.5124], [-96.53262, 18.51299]]]}}, {"id": "1583561", "type": "Feature", "properties": {"id": "1583561", "CVEGEO": "2000200390318022", "POBTOT": 85.0, "score_nse": 48.874, "NSE": "C-", "VIVTOT": 28.0, "GRAPROES": 9.02, "_ent": "20", "_mun": "002", "_loc": "0039"}, "geometry": {"type": "Polygon", "coordinates": [[[-96.53153, 18.51115], [-96.53243, 18.51072], [-96.53288, 18.51156], [-96.53199, 18.512], [-96.53153, 18.51115]]]}}, {"id": "1583562", "type": "Feature", "properties": {"id": "1583562", "CVEGEO": "2000200390318033", "POBTOT": 40.0, "score_nse": 0.0, "NSE": "ND", "VIVTOT": 12.0, "GRAPROES": 8.43, "_ent": "20", "_mun": "002", "_loc": "0039"}, "geometry": {"type": "Polygon", "coordinates": [[[-96.53223, 18.51032], [-96.5324, 18.51068], [-96.53152, 18.51109], [-96.5311, 18.5104], [-96.53223, 18.51032]]]}}, {"id": "1583563", "type": "Feature", "properties": {"id": "1583563", "CVEGEO": "2000200390318013", "POBTOT": 0.0, "score_nse": 10.0, "NSE": "E", "VIVTOT": 1.0, "GRAPROES": 0.0, "_ent": "20", "_mun": "002", "_loc": "0039"}, "geometry": {"type": "Polygon", "coordinates": [[[-96.53254, 18.51304], [-96.53182, 18.5122], [-96.53199, 18.51212], [-96.53254, 18.51304]]]}}, {"id": "1583564", "type": "Feature", "properties": {"id": "1583564", "CVEGEO": "2000200390318010", "POBTOT": 95.0, "score_nse": 55.3935, "NSE": "C", "VIVTOT": 27.0, "GRAPROES": 9.36, "_ent": "20", "_mun": "002", "_loc": "0039"}, "geometry": {"type": "Polygon", "coordinates": [[[-96.5292, 18.51343], [-96.5301, 18.51301], [-96.53055, 18.51386], [-96.52968, 18.51429], [-96.5292, 18.51343]]]}}, {"id": "1583565", "type": "Feature", "properties": {"id": "1583565", "CVEGEO": "2000200390303021", "POBTOT": 109.0, "score_nse": 65.7126, "NSE": "C", "VIVTOT": 28.0, "GRAPROES": 10.8, "_ent": "20", "_mun": "002", "_loc": "0039"}, "geometry": {"type": "Polygon", "coordinates": [[[-96.53676, 18.51195], [-96.53592, 18.5103], [-96.53628, 18.51009], [-96.5362, 18.50997], [-96.53747, 18.51011], [-96.53893, 18.51068], [-96.53747, 18.51166], [-96.53676, 18.51195]]]}}, {"id": "1583566", "type": "Feature", "properties": {"id": "1583566", "CVEGEO": "2000200390303020", "POBTOT": 0.0, "score_nse": 0.0, "NSE": "ND", "VIVTOT": 0.0, "GRAPROES": 0.0, "_ent": "20", "_mun": "002", "_loc": "0039"}, "geometry": {"type": "Polygon", "coordinates": [[[-96.5358, 18.51006], [-96.53603, 18.51001], [-96.53612, 18.5101], [-96.53589, 18.51022], [-96.5358, 18.51006]]]}}, {"id": "1583567", "type": "Feature", "properties": {"id": "1583567", "CVEGEO": "2000200390303019", "POBTOT": 18.0, "score_nse": 48.9333, "NSE": "C-", "VIVTOT": 12.0, "GRAPROES": 9.77, "_ent": "20", "_mun": "002", "_loc": "0039"}, "geometry": {"type": "Polygon", "coordinates": [[[-96.53517, 18.51075], [-96.53505, 18.51015], [-96.53571, 18.51007], [-96.53585, 18.51026], [-96.53517, 18.51075]]]}}, {"id": "1583568", "type": "Feature", "properties": {"id": "1583568", "CVEGEO": "2000200390290037", "POBTOT": 0.0, "score_nse": 0.0, "NSE": "ND", "VIVTOT": 0.0, "GRAPROES": 0.0, "_ent": "20", "_mun": "002", "_loc": "0039"}, "geometry": {"type": "Polygon", "coordinates": [[[-96.51411, 18.51016], [-96.51364, 18.51001], [-96.51237, 18.51001], [-96.51162, 18.50969], [-96.51339, 18.50892], [-96.51411, 18.51016]]]}}, {"id": "1583569", "type": "Feature", "properties": {"id": "1583569", "CVEGEO": "2000200390303010", "POBTOT": 47.0, "score_nse": 65.5292, "NSE": "C", "VIVTOT": 17.0, "GRAPROES": 10.92, "_ent": "20", "_mun": "002", "_loc": "0039"}, "geometry": {"type": "Polygon", "coordinates": [[[-96.53444, 18.51424], [-96.53398, 18.51342], [-96.53486, 18.51296], [-96.53533, 18.51384], [-96.53444, 18.51424]]]}}, {"id": "1583570", "type": "Feature", "properties": {"id": "1583570", "CVEGEO": "2000200390303008", "POBTOT": 105.0, "score_nse": 47.9873, "NSE": "C-", "VIVTOT": 36.0, "GRAPROES": 8.63, "_ent": "20", "_mun": "002", "_loc": "0039"}, "geometry": {"type": "Polygon", "coordinates": [[[-96.53635, 18.51327], [-96.53591, 18.5125], [-96.53677, 18.51208], [-96.53702, 18.51304], [-96.53635, 18.51327]]]}}, {"id": "1583571", "type": "Feature", "properties": {"id": "1583571", "CVEGEO": "2000200390303007", "POBTOT": 71.0, "score_nse": 62.474, "NSE": "C", "VIVTOT": 20.0, "GRAPROES": 9.8, "_ent": "20", "_mun": "002", "_loc": "0039"}, "geometry": {"type": "Polygon", "coordinates": [[[-96.53588, 18.51241], [-96.53538, 18.51158], [-96.53626, 18.51113], [-96.53672, 18.51201], [-96.53588, 18.51241]]]}}, {"id": "1583572", "type": "Feature", "properties": {"id": "1583572", "CVEGEO": "2000200390290019", "POBTOT": 5.0, "score_nse": 0.0, "NSE": "ND", "VIVTOT": 3.0, "GRAPROES": 0.0, "_ent": "20", "_mun": "002", "_loc": "0039"}, "geometry": {"type": "Polygon", "coordinates": [[[-96.52269, 18.51155], [-96.52344, 18.5122], [-96.5232, 18.51246], [-96.52248, 18.51183], [-96.52269, 18.51155]]]}}, {"id": "1583573", "type": "Feature", "properties": {"id": "1583573", "CVEGEO": "2000200390290018", "POBTOT": 13.0, "score_nse": 0.0, "NSE": "ND", "VIVTOT": 7.0, "GRAPROES": 5.22, "_ent": "20", "_mun": "002", "_loc": "0039"}, "geometry": {"type": "Polygon", "coordinates": [[[-96.52397, 18.51319], [-96.52325, 18.5125], [-96.52348, 18.51222], [-96.52398, 18.5126], [-96.52436, 18.51267], [-96.52397, 18.51319]]]}}, {"id": "1583574", "type": "Feature", "properties": {"id": "1583574", "CVEGEO": "2000200390290017", "POBTOT": 20.0, "score_nse": 0.0, "NSE": "ND", "VIVTOT": 8.0, "GRAPROES": 7.33, "_ent": "20", "_mun": "002", "_loc": "0039"}, "geometry": {"type": "Polygon", "coordinates": [[[-96.52445, 18.51266], [-96.52482, 18.51263], [-96.52532, 18.5131], [-96.52472, 18.5139], [-96.52402, 18.51323], [-96.52445, 18.51266]]]}}, {"id": "1583575", "type": "Feature", "properties": {"id": "1583575", "CVEGEO": "2000200390290016", "POBTOT": 7.0, "score_nse": 0.0, "NSE": "ND", "VIVTOT": 3.0, "GRAPROES": 6.0, "_ent": "20", "_mun": "002", "_loc": "0039"}, "geometry": {"type": "Polygon", "coordinates": [[[-96.52506, 18.51279], [-96.52582, 18.51244], [-96.52591, 18.51272], [-96.52535, 18.51307], [-96.52506, 18.51279]]]}}, {"id": "1583576", "type": "Feature", "properties": {"id": "1583576", "CVEGEO": "2000200390290015", "POBTOT": 50.0, "score_nse": 0.0, "NSE": "ND", "VIVTOT": 15.0, "GRAPROES": 6.46, "_ent": "20", "_mun": "002", "_loc": "0039"}, "geometry": {"type": "Polygon", "coordinates": [[[-96.52585, 18.51243], [-96.52685, 18.51161], [-96.52718, 18.51207], [-96.52593, 18.5127], [-96.52585, 18.51243]]]}}, {"id": "1583577", "type": "Feature", "properties": {"id": "1583577", "CVEGEO": "2000200390290003", "POBTOT": 49.0, "score_nse": 0.0, "NSE": "ND", "VIVTOT": 13.0, "GRAPROES": 6.47, "_ent": "20", "_mun": "002", "_loc": "0039"}, "geometry": {"type": "Polygon", "coordinates": [[[-96.52454, 18.51082], [-96.52478, 18.51053], [-96.52527, 18.51032], [-96.52584, 18.51078], [-96.52522, 18.51156], [-96.52454, 18.51082]]]}}, {"id": "1583578", "type": "Feature", "properties": {"id": "1583578", "CVEGEO": "2000200390290002", "POBTOT": 19.0, "score_nse": 0.0, "NSE": "ND", "VIVTOT": 9.0, "GRAPROES": 8.77, "_ent": "20", "_mun": "002", "_loc": "0039"}, "geometry": {"type": "Polygon", "coordinates": [[[-96.52311, 18.51104], [-96.52452, 18.51053], [-96.52469, 18.51051], [-96.52382, 18.51167], [-96.52311, 18.51104]]]}}, {"id": "1583579", "type": "Feature", "properties": {"id": "1583579", "CVEGEO": "2000200390286023", "POBTOT": 14.0, "score_nse": 0.0, "NSE": "ND", "VIVTOT": 7.0, "GRAPROES": 10.8, "_ent": "20", "_mun": "002", "_loc": "0039"}, "geometry": {"type": "Polygon", "coordinates": [[[-96.52028, 18.51791], [-96.52077, 18.51732], [-96.52156, 18.51801], [-96.52118, 18.51848], [-96.52028, 18.51791]]]}}, {"id": "1583580", "type": "Feature", "properties": {"id": "1583580", "CVEGEO": "2000200390286022", "POBTOT": 14.0, "score_nse": 0.0, "NSE": "ND", "VIVTOT": 5.0, "GRAPROES": 10.27, "_ent": "20", "_mun": "002", "_loc": "0039"}, "geometry": {"type": "Polygon", "coordinates": [[[-96.52158, 18.51804], [-96.52233, 18.51875], [-96.52209, 18.51909], [-96.5212, 18.5185], [-96.52158, 18.51804]]]}}, {"id": "1583581", "type": "Feature", "properties": {"id": "1583581", "CVEGEO": "2000200390286021", "POBTOT": 49.0, "score_nse": 58.18, "NSE": "C", "VIVTOT": 15.0, "GRAPROES": 7.89, "_ent": "20", "_mun": "002", "_loc": "0039"}, "geometry": {"type": "Polygon", "coordinates": [[[-96.5222, 18.51724], [-96.52292, 18.51789], [-96.52235, 18.51869], [-96.52195, 18.51829], [-96.52215, 18.51805], [-96.52191, 18.51826], [-96.52161, 18.51799], [-96.5222, 18.51724]]]}}, {"id": "1583582", "type": "Feature", "properties": {"id": "1583582", "CVEGEO": "2000200390286020", "POBTOT": 28.0, "score_nse": 0.0, "NSE": "ND", "VIVTOT": 9.0, "GRAPROES": 7.32, "_ent": "20", "_mun": "002", "_loc": "0039"}, "geometry": {"type": "Polygon", "coordinates": [[[-96.52281, 18.51646], [-96.52355, 18.5171], [-96.52294, 18.51786], [-96.52225, 18.51718], [-96.52281, 18.51646]]]}}, {"id": "1583620", "type": "Feature", "properties": {"id": "1583620", "CVEGEO": "2000200390286041", "POBTOT": 0.0, "score_nse": 0.0, "NSE": "ND", "VIVTOT": 0.0, "GRAPROES": 0.0, "_ent": "20", "_mun": "002", "_loc": "0039"}, "geometry": {"type": "Polygon", "coordinates": [[[-96.51778, 18.51634], [-96.51711, 18.51691], [-96.51598, 18.5151], [-96.51668, 18.51451], [-96.51778, 18.51634]]]}}, {"id": "1583621", "type": "Feature", "properties": {"id": "1583621", "CVEGEO": "2000200390290032", "POBTOT": 2.0, "score_nse": 0.0, "NSE": "ND", "VIVTOT": 2.0, "GRAPROES": 0.0, "_ent": "20", "_mun": "002", "_loc": "0039"}, "geometry": {"type": "Polygon", "coordinates": [[[-96.51831, 18.51204], [-96.51808, 18.51246], [-96.5163, 18.51139], [-96.51658, 18.511], [-96.51831, 18.51204]]]}}, {"id": "1583635", "type": "Feature", "properties": {"id": "1583635", "CVEGEO": "2000200390322029", "POBTOT": 82.0, "score_nse": 57.907, "NSE": "C", "VIVTOT": 23.0, "GRAPROES": 8.23, "_ent": "20", "_mun": "002", "_loc": "0039"}, "geometry": {"type": "Polygon", "coordinates": [[[-96.54542, 18.50665], [-96.54539, 18.50571], [-96.54573, 18.50548], [-96.54586, 18.50561], [-96.54571, 18.50639], [-96.54595, 18.50691], [-96.54567, 18.50712], [-96.54542, 18.50665]]]}}, {"id": "1583637", "type": "Feature", "properties": {"id": "1583637", "CVEGEO": "2000200390322005", "POBTOT": 63.0, "score_nse": 60.596, "NSE": "C", "VIVTOT": 20.0, "GRAPROES": 9.94, "_ent": "20", "_mun": "002", "_loc": "0039"}, "geometry": {"type": "Polygon", "coordinates": [[[-96.54286, 18.50479], [-96.54282, 18.5053], [-96.54266, 18.50544], [-96.54181, 18.50536], [-96.54186, 18.50478], [-96.54257, 18.50495], [-96.54286, 18.50479]]]}}, {"id": "1583638", "type": "Feature", "properties": {"id": "1583638", "CVEGEO": "2000200390322004", "POBTOT": 31.0, "score_nse": 55.2676, "NSE": "C", "VIVTOT": 11.0, "GRAPROES": 8.14, "_ent": "20", "_mun": "002", "_loc": "0039"}, "geometry": {"type": "Polygon", "coordinates": [[[-96.54211, 18.50546], [-96.54209, 18.50592], [-96.54143, 18.50595], [-96.54144, 18.50563], [-96.54166, 18.50542], [-96.54211, 18.50546]]]}}, {"id": "1583639", "type": "Feature", "properties": {"id": "1583639", "CVEGEO": "2000200390322001", "POBTOT": 45.0, "score_nse": 68.376, "NSE": "C", "VIVTOT": 14.0, "GRAPROES": 10.13, "_ent": "20", "_mun": "002", "_loc": "0039"}, "geometry": {"type": "Polygon", "coordinates": [[[-96.54302, 18.5059], [-96.54211, 18.50592], [-96.54213, 18.50546], [-96.54278, 18.50546], [-96.54302, 18.5059]]]}}, {"id": "1583640", "type": "Feature", "properties": {"id": "1583640", "CVEGEO": "2000200390318036", "POBTOT": 7.0, "score_nse": 0.0, "NSE": "ND", "VIVTOT": 2.0, "GRAPROES": 0.0, "_ent": "20", "_mun": "002", "_loc": "0039"}, "geometry": {"type": "Polygon", "coordinates": [[[-96.5309, 18.51455], [-96.53105, 18.51482], [-96.53017, 18.51521], [-96.5309, 18.51455]]]}}, {"id": "1583641", "type": "Feature", "properties": {"id": "1583641", "CVEGEO": "2000200390318021", "POBTOT": 22.0, "score_nse": 0.0, "NSE": "ND", "VIVTOT": 7.0, "GRAPROES": 4.87, "_ent": "20", "_mun": "002", "_loc": "0039"}, "geometry": {"type": "Polygon", "coordinates": [[[-96.53149, 18.51116], [-96.53194, 18.51205], [-96.53178, 18.51213], [-96.53109, 18.51138], [-96.53149, 18.51116]]]}}, {"id": "1583642", "type": "Feature", "properties": {"id": "1583642", "CVEGEO": "2000200390318020", "POBTOT": 45.0, "score_nse": 54.614, "NSE": "C-", "VIVTOT": 12.0, "GRAPROES": 9.25, "_ent": "20", "_mun": "002", "_loc": "0039"}, "geometry": {"type": "Polygon", "coordinates": [[[-96.53173, 18.51216], [-96.53108, 18.51248], [-96.53062, 18.51164], [-96.53101, 18.51141], [-96.53173, 18.51216]]]}}, {"id": "1583643", "type": "Feature", "properties": {"id": "1583643", "CVEGEO": "2000200390318019", "POBTOT": 71.0, "score_nse": 0.0, "NSE": "ND", "VIVTOT": 25.0, "GRAPROES": 7.96, "_ent": "20", "_mun": "002", "_loc": "0039"}, "geometry": {"type": "Polygon", "coordinates": [[[-96.52963, 18.51211], [-96.53052, 18.51169], [-96.53099, 18.51247], [-96.53013, 18.51293], [-96.52963, 18.51211]]]}}, {"id": "1583644", "type": "Feature", "properties": {"id": "1583644", "CVEGEO": "2000200390318015", "POBTOT": 31.0, "score_nse": 0.0, "NSE": "ND", "VIVTOT": 14.0, "GRAPROES": 8.05, "_ent": "20", "_mun": "002", "_loc": "0039"}, "geometry": {"type": "Polygon", "coordinates": [[[-96.53319, 18.51601], [-96.53295, 18.51509], [-96.53351, 18.51483], [-96.53399, 18.51561], [-96.53319, 18.51601]]]}}, {"id": "1583645", "type": "Feature", "properties": {"id": "1583645", "CVEGEO": "2000200390318002", "POBTOT": 34.0, "score_nse": 0.0, "NSE": "ND", "VIVTOT": 11.0, "GRAPROES": 8.95, "_ent": "20", "_mun": "002", "_loc": "0039"}, "geometry": {"type": "Polygon", "coordinates": [[[-96.52971, 18.51435], [-96.53056, 18.51393], [-96.53084, 18.51444], [-96.53014, 18.51512], [-96.52971, 18.51435]]]}}, {"id": "1583646", "type": "Feature", "properties": {"id": "1583646", "CVEGEO": "2000200390318001", "POBTOT": 25.0, "score_nse": 71.0606, "NSE": "C+", "VIVTOT": 7.0, "GRAPROES": 10.53, "_ent": "20", "_mun": "002", "_loc": "0039"}, "geometry": {"type": "Polygon", "coordinates": [[[-96.53162, 18.5138], [-96.53092, 18.51438], [-96.53064, 18.51392], [-96.53154, 18.51349], [-96.53162, 18.5138]]]}}, {"id": "1583647", "type": "Feature", "properties": {"id": "1583647", "CVEGEO": "2000200390303038", "POBTOT": 30.0, "score_nse": 0.0, "NSE": "ND", "VIVTOT": 7.0, "GRAPROES": 10.25, "_ent": "20", "_mun": "002", "_loc": "0039"}, "geometry": {"type": "Polygon", "coordinates": [[[-96.53494, 18.51541], [-96.53432, 18.5161], [-96.53402, 18.51559], [-96.53494, 18.51541]]]}}, {"id": "1583648", "type": "Feature", "properties": {"id": "1583648", "CVEGEO": "2000200390286002", "POBTOT": 30.0, "score_nse": 0.0, "NSE": "ND", "VIVTOT": 12.0, "GRAPROES": 7.46, "_ent": "20", "_mun": "002", "_loc": "0039"}, "geometry": {"type": "Polygon", "coordinates": [[[-96.52, 18.51507], [-96.52056, 18.51433], [-96.52129, 18.51494], [-96.52071, 18.51573], [-96.52, 18.51507]]]}}, {"id": "1583801", "type": "Feature", "properties": {"id": "1583801", "CVEGEO": "2000200390337031", "POBTOT": 71.0, "score_nse": 57.6637, "NSE": "C", "VIVTOT": 26.0, "GRAPROES": 8.77, "_ent": "20", "_mun": "002", "_loc": "0039"}, "geometry": {"type": "Polygon", "coordinates": [[[-96.53743, 18.50971], [-96.53719, 18.50909], [-96.53822, 18.50813], [-96.53882, 18.50883], [-96.53783, 18.50973], [-96.53743, 18.50971]]]}}, {"id": "1583803", "type": "Feature", "properties": {"id": "1583803", "CVEGEO": "2000200390337028", "POBTOT": 42.0, "score_nse": 0.0, "NSE": "ND", "VIVTOT": 17.0, "GRAPROES": 8.39, "_ent": "20", "_mun": "002", "_loc": "0039"}, "geometry": {"type": "Polygon", "coordinates": [[[-96.53887, 18.50879], [-96.53826, 18.50808], [-96.53873, 18.50764], [-96.53939, 18.50834], [-96.53887, 18.50879]]]}}, {"id": "1583804", "type": "Feature", "properties": {"id": "1583804", "CVEGEO": "2000200390322031", "POBTOT": 79.0, "score_nse": 57.6175, "NSE": "C", "VIVTOT": 26.0, "GRAPROES": 8.71, "_ent": "20", "_mun": "002", "_loc": "0039"}, "geometry": {"type": "Polygon", "coordinates": [[[-96.54443, 18.50639], [-96.54431, 18.50686], [-96.54328, 18.50873], [-96.54224, 18.50879], [-96.54096, 18.50849], [-96.54101, 18.50784], [-96.54359, 18.50543], [-96.54443, 18.50639]]]}}, {"id": "1583812", "type": "Feature", "properties": {"id": "1583812", "CVEGEO": "2000200390322007", "POBTOT": 14.0, "score_nse": 0.0, "NSE": "ND", "VIVTOT": 7.0, "GRAPROES": 7.0, "_ent": "20", "_mun": "002", "_loc": "0039"}, "geometry": {"type": "Polygon", "coordinates": [[[-96.54281, 18.506], [-96.54253, 18.50644], [-96.54222, 18.50642], [-96.54227, 18.50595], [-96.54281, 18.506]]]}}, {"id": "1583813", "type": "Feature", "properties": {"id": "1583813", "CVEGEO": "2000200390318035", "POBTOT": 36.0, "score_nse": 0.0, "NSE": "ND", "VIVTOT": 12.0, "GRAPROES": 10.54, "_ent": "20", "_mun": "002", "_loc": "0039"}, "geometry": {"type": "Polygon", "coordinates": [[[-96.53157, 18.51559], [-96.53115, 18.51481], [-96.53205, 18.51438], [-96.53249, 18.51525], [-96.53157, 18.51559]]]}}, {"id": "1583814", "type": "Feature", "properties": {"id": "1583814", "CVEGEO": "2000200390318034", "POBTOT": 44.0, "score_nse": 0.0, "NSE": "ND", "VIVTOT": 21.0, "GRAPROES": 7.36, "_ent": "20", "_mun": "002", "_loc": "0039"}, "geometry": {"type": "Polygon", "coordinates": [[[-96.53382, 18.51672], [-96.53483, 18.51568], [-96.53488, 18.5157], [-96.53476, 18.51715], [-96.53382, 18.51672]]]}}, {"id": "1583815", "type": "Feature", "properties": {"id": "1583815", "CVEGEO": "2000200390318018", "POBTOT": 98.0, "score_nse": 48.3144, "NSE": "C-", "VIVTOT": 34.0, "GRAPROES": 8.87, "_ent": "20", "_mun": "002", "_loc": "0039"}, "geometry": {"type": "Polygon", "coordinates": [[[-96.52871, 18.51253], [-96.52959, 18.51212], [-96.53008, 18.51296], [-96.52917, 18.51338], [-96.52871, 18.51253]]]}}, {"id": "1583816", "type": "Feature", "properties": {"id": "1583816", "CVEGEO": "2000200390318017", "POBTOT": 62.0, "score_nse": 45.2855, "NSE": "C-", "VIVTOT": 22.0, "GRAPROES": 7.35, "_ent": "20", "_mun": "002", "_loc": "0039"}, "geometry": {"type": "Polygon", "coordinates": [[[-96.53067, 18.51616], [-96.53185, 18.51562], [-96.53197, 18.51584], [-96.53193, 18.51559], [-96.53252, 18.51533], [-96.5331, 18.51634], [-96.53306, 18.51644], [-96.5321, 18.51594], [-96.53089, 18.51653], [-96.53067, 18.51616]]]}}, {"id": "1583817", "type": "Feature", "properties": {"id": "1583817", "CVEGEO": "2000200390318016", "POBTOT": 20.0, "score_nse": 0.0, "NSE": "ND", "VIVTOT": 6.0, "GRAPROES": 7.57, "_ent": "20", "_mun": "002", "_loc": "0039"}, "geometry": {"type": "Polygon", "coordinates": [[[-96.53288, 18.51513], [-96.53307, 18.51575], [-96.53312, 18.51626], [-96.53257, 18.51528], [-96.53288, 18.51513]]]}}, {"id": "1583818", "type": "Feature", "properties": {"id": "1583818", "CVEGEO": "2000200390303036", "POBTOT": 28.0, "score_nse": 0.0, "NSE": "ND", "VIVTOT": 10.0, "GRAPROES": 7.8, "_ent": "20", "_mun": "002", "_loc": "0039"}, "geometry": {"type": "Polygon", "coordinates": [[[-96.53532, 18.51524], [-96.53595, 18.51494], [-96.53619, 18.51535], [-96.53557, 18.51567], [-96.53532, 18.51524]]]}}, {"id": "1583819", "type": "Feature", "properties": {"id": "1583819", "CVEGEO": "2000200390303032", "POBTOT": 41.0, "score_nse": 0.0, "NSE": "ND", "VIVTOT": 11.0, "GRAPROES": 9.28, "_ent": "20", "_mun": "002", "_loc": "0039"}, "geometry": {"type": "Polygon", "coordinates": [[[-96.53715, 18.51499], [-96.53736, 18.51543], [-96.53666, 18.51593], [-96.53633, 18.51541], [-96.53715, 18.51499]]]}}, {"id": "1583820", "type": "Feature", "properties": {"id": "1583820", "CVEGEO": "2000200390303031", "POBTOT": 31.0, "score_nse": 0.0, "NSE": "ND", "VIVTOT": 11.0, "GRAPROES": 8.1, "_ent": "20", "_mun": "002", "_loc": "0039"}, "geometry": {"type": "Polygon", "coordinates": [[[-96.53345, 18.51032], [-96.53246, 18.51064], [-96.53228, 18.51028], [-96.53341, 18.51018], [-96.53345, 18.51032]]]}}, {"id": "1583821", "type": "Feature", "properties": {"id": "1583821", "CVEGEO": "2000200390303017", "POBTOT": 40.0, "score_nse": 70.1609, "NSE": "C+", "VIVTOT": 13.0, "GRAPROES": 13.27, "_ent": "20", "_mun": "002", "_loc": "0039"}, "geometry": {"type": "Polygon", "coordinates": [[[-96.53432, 18.51084], [-96.5339, 18.51105], [-96.53358, 18.51035], [-96.534, 18.51032], [-96.53432, 18.51084]]]}}, {"id": "1583824", "type": "Feature", "properties": {"id": "1583824", "CVEGEO": "2000200390286001", "POBTOT": 42.0, "score_nse": 0.0, "NSE": "ND", "VIVTOT": 20.0, "GRAPROES": 7.59, "_ent": "20", "_mun": "002", "_loc": "0039"}, "geometry": {"type": "Polygon", "coordinates": [[[-96.52133, 18.515], [-96.522, 18.51567], [-96.52141, 18.51639], [-96.52076, 18.51577], [-96.52133, 18.515]]]}}, {"id": "1583830", "type": "Feature", "properties": {"id": "1583830", "CVEGEO": "2000200390303014", "POBTOT": 3.0, "score_nse": 0.0, "NSE": "ND", "VIVTOT": 1.0, "GRAPROES": 0.0, "_ent": "20", "_mun": "002", "_loc": "0039"}, "geometry": {"type": "Polygon", "coordinates": [[[-96.53514, 18.51077], [-96.53499, 18.51088], [-96.53484, 18.51063], [-96.53504, 18.5106], [-96.53514, 18.51077]]]}}, {"id": "1583831", "type": "Feature", "properties": {"id": "1583831", "CVEGEO": "2000200390303013", "POBTOT": 17.0, "score_nse": 0.0, "NSE": "ND", "VIVTOT": 7.0, "GRAPROES": 10.64, "_ent": "20", "_mun": "002", "_loc": "0039"}, "geometry": {"type": "Polygon", "coordinates": [[[-96.53497, 18.5109], [-96.53471, 18.5111], [-96.53438, 18.51069], [-96.5348, 18.51064], [-96.53497, 18.5109]]]}}, {"id": "1583832", "type": "Feature", "properties": {"id": "1583832", "CVEGEO": "2000200390303012", "POBTOT": 3.0, "score_nse": 0.0, "NSE": "ND", "VIVTOT": 1.0, "GRAPROES": 0.0, "_ent": "20", "_mun": "002", "_loc": "0039"}, "geometry": {"type": "Polygon", "coordinates": [[[-96.53458, 18.51119], [-96.53418, 18.51154], [-96.53394, 18.51113], [-96.53436, 18.51091], [-96.53458, 18.51119]]]}}, {"id": "1583833", "type": "Feature", "properties": {"id": "1583833", "CVEGEO": "2000200390290033", "POBTOT": 0.0, "score_nse": 0.0, "NSE": "ND", "VIVTOT": 0.0, "GRAPROES": 0.0, "_ent": "20", "_mun": "002", "_loc": "0039"}, "geometry": {"type": "Polygon", "coordinates": [[[-96.51908, 18.51057], [-96.51885, 18.511], [-96.51723, 18.51005], [-96.51752, 18.50964], [-96.51908, 18.51057]]]}}, {"id": "1583834", "type": "Feature", "properties": {"id": "1583834", "CVEGEO": "2000200390290024", "POBTOT": 25.0, "score_nse": 0.0, "NSE": "ND", "VIVTOT": 9.0, "GRAPROES": 7.94, "_ent": "20", "_mun": "002", "_loc": "0039"}, "geometry": {"type": "Polygon", "coordinates": [[[-96.52781, 18.51094], [-96.52834, 18.51066], [-96.5288, 18.51062], [-96.52907, 18.51117], [-96.52819, 18.51159], [-96.52781, 18.51094]]]}}, {"id": "1583835", "type": "Feature", "properties": {"id": "1583835", "CVEGEO": "2000200390290011", "POBTOT": 16.0, "score_nse": 0.0, "NSE": "ND", "VIVTOT": 7.0, "GRAPROES": 7.9, "_ent": "20", "_mun": "002", "_loc": "0039"}, "geometry": {"type": "Polygon", "coordinates": [[[-96.52531, 18.51029], [-96.5258, 18.51008], [-96.52633, 18.51018], [-96.52587, 18.51076], [-96.52531, 18.51029]]]}}, {"id": "1583836", "type": "Feature", "properties": {"id": "1583836", "CVEGEO": "2000200390290008", "POBTOT": 5.0, "score_nse": 0.0, "NSE": "ND", "VIVTOT": 5.0, "GRAPROES": 0.0, "_ent": "20", "_mun": "002", "_loc": "0039"}, "geometry": {"type": "Polygon", "coordinates": [[[-96.52271, 18.51152], [-96.52307, 18.51106], [-96.5238, 18.51171], [-96.52347, 18.51213], [-96.52271, 18.51152]]]}}, {"id": "1583837", "type": "Feature", "properties": {"id": "1583837", "CVEGEO": "2000200390290007", "POBTOT": 16.0, "score_nse": 0.0, "NSE": "ND", "VIVTOT": 5.0, "GRAPROES": 5.71, "_ent": "20", "_mun": "002", "_loc": "0039"}, "geometry": {"type": "Polygon", "coordinates": [[[-96.52383, 18.51175], [-96.52458, 18.51238], [-96.52439, 18.51264], [-96.52403, 18.51257], [-96.5235, 18.51218], [-96.52383, 18.51175]]]}}, {"id": "1583838", "type": "Feature", "properties": {"id": "1583838", "CVEGEO": "2000200390286033", "POBTOT": 19.0, "score_nse": 0.0, "NSE": "ND", "VIVTOT": 4.0, "GRAPROES": 8.83, "_ent": "20", "_mun": "002", "_loc": "0039"}, "geometry": {"type": "Polygon", "coordinates": [[[-96.52104, 18.5119], [-96.52042, 18.51269], [-96.52083, 18.51171], [-96.52104, 18.5119]]]}}, {"id": "1583839", "type": "Feature", "properties": {"id": "1583839", "CVEGEO": "2000200390286032", "POBTOT": 0.0, "score_nse": 0.0, "NSE": "ND", "VIVTOT": 0.0, "GRAPROES": 0.0, "_ent": "20", "_mun": "002", "_loc": "0039"}, "geometry": {"type": "Polygon", "coordinates": [[[-96.52474, 18.514], [-96.52529, 18.51477], [-96.52487, 18.5154], [-96.52415, 18.51477], [-96.52474, 18.514]]]}}, {"id": "1583840", "type": "Feature", "properties": {"id": "1583840", "CVEGEO": "2000200390286028", "POBTOT": 35.0, "score_nse": 0.0, "NSE": "ND", "VIVTOT": 14.0, "GRAPROES": 7.81, "_ent": "20", "_mun": "002", "_loc": "0039"}, "geometry": {"type": "Polygon", "coordinates": [[[-96.5211, 18.51191], [-96.52173, 18.51117], [-96.5224, 18.51185], [-96.52182, 18.51261], [-96.5211, 18.51191]]]}}, {"id": "1583841", "type": "Feature", "properties": {"id": "1583841", "CVEGEO": "2000200390286015", "POBTOT": 35.0, "score_nse": 0.0, "NSE": "ND", "VIVTOT": 13.0, "GRAPROES": 11.23, "_ent": "20", "_mun": "002", "_loc": "0039"}, "geometry": {"type": "Polygon", "coordinates": [[[-96.52126, 18.51337], [-96.52179, 18.51265], [-96.52253, 18.51333], [-96.52194, 18.51414], [-96.52126, 18.51337]]]}}, {"id": "1583842", "type": "Feature", "properties": {"id": "1583842", "CVEGEO": "2000200390286013", "POBTOT": 21.0, "score_nse": 0.0, "NSE": "ND", "VIVTOT": 9.0, "GRAPROES": 5.56, "_ent": "20", "_mun": "002", "_loc": "0039"}, "geometry": {"type": "Polygon", "coordinates": [[[-96.52106, 18.51194], [-96.52176, 18.51262], [-96.52117, 18.51339], [-96.52045, 18.51276], [-96.52106, 18.51194]]]}}, {"id": "1583843", "type": "Feature", "properties": {"id": "1583843", "CVEGEO": "2000200390286009", "POBTOT": 32.0, "score_nse": 64.91, "NSE": "C", "VIVTOT": 8.0, "GRAPROES": 8.38, "_ent": "20", "_mun": "002", "_loc": "0039"}, "geometry": {"type": "Polygon", "coordinates": [[[-96.51936, 18.51588], [-96.51995, 18.51514], [-96.52067, 18.5158], [-96.5201, 18.51653], [-96.51936, 18.51588]]]}}, {"id": "1583844", "type": "Feature", "properties": {"id": "1583844", "CVEGEO": "2000200390286008", "POBTOT": 23.0, "score_nse": 42.7487, "NSE": "C-", "VIVTOT": 11.0, "GRAPROES": 7.75, "_ent": "20", "_mun": "002", "_loc": "0039"}, "geometry": {"type": "Polygon", "coordinates": [[[-96.52071, 18.51583], [-96.52135, 18.51646], [-96.52075, 18.51721], [-96.52014, 18.51659], [-96.52071, 18.51583]]]}}, {"id": "1583845", "type": "Feature", "properties": {"id": "1583845", "CVEGEO": "200020039013A034", "POBTOT": 16.0, "score_nse": 0.0, "NSE": "ND", "VIVTOT": 4.0, "GRAPROES": 8.69, "_ent": "20", "_mun": "002", "_loc": "0039"}, "geometry": {"type": "Polygon", "coordinates": [[[-96.52214, 18.51908], [-96.5229, 18.51803], [-96.52311, 18.51776], [-96.52346, 18.51839], [-96.52214, 18.51908]]]}}, {"id": "1583846", "type": "Feature", "properties": {"id": "1583846", "CVEGEO": "200020039013A033", "POBTOT": 36.0, "score_nse": 64.7527, "NSE": "C", "VIVTOT": 11.0, "GRAPROES": 8.96, "_ent": "20", "_mun": "002", "_loc": "0039"}, "geometry": {"type": "Polygon", "coordinates": [[[-96.52217, 18.51915], [-96.52348, 18.51847], [-96.52394, 18.5193], [-96.5231, 18.51971], [-96.52217, 18.51915]]]}}, {"id": "1583847", "type": "Feature", "properties": {"id": "1583847", "CVEGEO": "200020039013A031", "POBTOT": 36.0, "score_nse": 0.0, "NSE": "ND", "VIVTOT": 11.0, "GRAPROES": 6.96, "_ent": "20", "_mun": "002", "_loc": "0039"}, "geometry": {"type": "Polygon", "coordinates": [[[-96.52316, 18.5177], [-96.52346, 18.51728], [-96.52394, 18.51709], [-96.5244, 18.51794], [-96.52351, 18.51836], [-96.52316, 18.5177]]]}}, {"id": "1583848", "type": "Feature", "properties": {"id": "1583848", "CVEGEO": "200020039013A015", "POBTOT": 50.0, "score_nse": 0.0, "NSE": "ND", "VIVTOT": 25.0, "GRAPROES": 9.35, "_ent": "20", "_mun": "002", "_loc": "0039"}, "geometry": {"type": "Polygon", "coordinates": [[[-96.52589, 18.51393], [-96.52681, 18.51346], [-96.52725, 18.51427], [-96.52636, 18.51478], [-96.52589, 18.51393]]]}}, {"id": "1583849", "type": "Feature", "properties": {"id": "1583849", "CVEGEO": "200020039013A014", "POBTOT": 49.0, "score_nse": 63.4653, "NSE": "C", "VIVTOT": 15.0, "GRAPROES": 8.92, "_ent": "20", "_mun": "002", "_loc": "0039"}, "geometry": {"type": "Polygon", "coordinates": [[[-96.52535, 18.51475], [-96.52515, 18.51428], [-96.52582, 18.51396], [-96.52629, 18.51484], [-96.52546, 18.51526], [-96.52527, 18.51503], [-96.52535, 18.51475]]]}}, {"id": "1583850", "type": "Feature", "properties": {"id": "1583850", "CVEGEO": "200020039013A008", "POBTOT": 0.0, "score_nse": 0.0, "NSE": "ND", "VIVTOT": 0.0, "GRAPROES": 0.0, "_ent": "20", "_mun": "002", "_loc": "0039"}, "geometry": {"type": "Polygon", "coordinates": [[[-96.52731, 18.5166], [-96.5282, 18.51617], [-96.52841, 18.51654], [-96.52767, 18.51726], [-96.52731, 18.5166]]]}}, {"id": "1583851", "type": "Feature", "properties": {"id": "1583851", "CVEGEO": "200020039013A007", "POBTOT": 18.0, "score_nse": 0.0, "NSE": "ND", "VIVTOT": 10.0, "GRAPROES": 10.14, "_ent": "20", "_mun": "002", "_loc": "0039"}, "geometry": {"type": "Polygon", "coordinates": [[[-96.52829, 18.51618], [-96.52984, 18.51542], [-96.5285, 18.51657], [-96.52829, 18.51618]]]}}, {"id": "1583852", "type": "Feature", "properties": {"id": "1583852", "CVEGEO": "200020039013A006", "POBTOT": 65.0, "score_nse": 58.512, "NSE": "C", "VIVTOT": 20.0, "GRAPROES": 9.69, "_ent": "20", "_mun": "002", "_loc": "0039"}, "geometry": {"type": "Polygon", "coordinates": [[[-96.52826, 18.51611], [-96.52781, 18.51525], [-96.5287, 18.51484], [-96.52899, 18.5154], [-96.5289, 18.51552], [-96.52903, 18.51544], [-96.52914, 18.51566], [-96.52826, 18.51611]]]}}, {"id": "1583853", "type": "Feature", "properties": {"id": "1583853", "CVEGEO": "200020039013A002", "POBTOT": 34.0, "score_nse": 0.0, "NSE": "ND", "VIVTOT": 16.0, "GRAPROES": 7.61, "_ent": "20", "_mun": "002", "_loc": "0039"}, "geometry": {"type": "Polygon", "coordinates": [[[-96.5259, 18.51614], [-96.52678, 18.51572], [-96.52694, 18.51601], [-96.52676, 18.51614], [-96.52698, 18.51607], [-96.52723, 18.51657], [-96.52634, 18.51702], [-96.5259, 18.51614]]]}}, {"id": "1583855", "type": "Feature", "properties": {"id": "1583855", "CVEGEO": "2000200390286019", "POBTOT": 29.0, "score_nse": 0.0, "NSE": "ND", "VIVTOT": 11.0, "GRAPROES": 9.17, "_ent": "20", "_mun": "002", "_loc": "0039"}, "geometry": {"type": "Polygon", "coordinates": [[[-96.52347, 18.51563], [-96.52421, 18.51625], [-96.52357, 18.51706], [-96.52284, 18.51638], [-96.52347, 18.51563]]]}}, {"id": "1583856", "type": "Feature", "properties": {"id": "1583856", "CVEGEO": "2000200390286018", "POBTOT": 0.0, "score_nse": 0.0, "NSE": "ND", "VIVTOT": 0.0, "GRAPROES": 0.0, "_ent": "20", "_mun": "002", "_loc": "0039"}, "geometry": {"type": "Polygon", "coordinates": [[[-96.5241, 18.51483], [-96.52483, 18.51544], [-96.52423, 18.51621], [-96.52351, 18.51558], [-96.5241, 18.51483]]]}}, {"id": "1583857", "type": "Feature", "properties": {"id": "1583857", "CVEGEO": "2000200390286017", "POBTOT": 22.0, "score_nse": 0.0, "NSE": "ND", "VIVTOT": 11.0, "GRAPROES": 8.42, "_ent": "20", "_mun": "002", "_loc": "0039"}, "geometry": {"type": "Polygon", "coordinates": [[[-96.52337, 18.51409], [-96.52405, 18.51476], [-96.52348, 18.51553], [-96.52275, 18.51488], [-96.52337, 18.51409]]]}}, {"id": "1583858", "type": "Feature", "properties": {"id": "1583858", "CVEGEO": "200020039013A028", "POBTOT": 56.0, "score_nse": 56.934, "NSE": "C", "VIVTOT": 20.0, "GRAPROES": 8.1, "_ent": "20", "_mun": "002", "_loc": "0039"}, "geometry": {"type": "Polygon", "coordinates": [[[-96.52874, 18.51706], [-96.53059, 18.51618], [-96.53082, 18.51657], [-96.52891, 18.51743], [-96.52874, 18.51706]]]}}, {"id": "1583859", "type": "Feature", "properties": {"id": "1583859", "CVEGEO": "200020039013A027", "POBTOT": 56.0, "score_nse": 0.0, "NSE": "ND", "VIVTOT": 16.0, "GRAPROES": 9.5, "_ent": "20", "_mun": "002", "_loc": "0039"}, "geometry": {"type": "Polygon", "coordinates": [[[-96.52726, 18.51214], [-96.52814, 18.51168], [-96.52861, 18.51252], [-96.52774, 18.51295], [-96.52726, 18.51214]]]}}, {"id": "1583860", "type": "Feature", "properties": {"id": "1583860", "CVEGEO": "200020039013A026", "POBTOT": 48.0, "score_nse": 0.0, "NSE": "ND", "VIVTOT": 20.0, "GRAPROES": 7.54, "_ent": "20", "_mun": "002", "_loc": "0039"}, "geometry": {"type": "Polygon", "coordinates": [[[-96.52722, 18.51215], [-96.52768, 18.51299], [-96.52684, 18.5134], [-96.52635, 18.51259], [-96.52722, 18.51215]]]}}, {"id": "1583861", "type": "Feature", "properties": {"id": "1583861", "CVEGEO": "200020039013A025", "POBTOT": 39.0, "score_nse": 53.58, "NSE": "C-", "VIVTOT": 15.0, "GRAPROES": 9.19, "_ent": "20", "_mun": "002", "_loc": "0039"}, "geometry": {"type": "Polygon", "coordinates": [[[-96.52547, 18.5131], [-96.5263, 18.51261], [-96.52677, 18.51343], [-96.52588, 18.51386], [-96.52547, 18.5131]]]}}, {"id": "1583862", "type": "Feature", "properties": {"id": "1583862", "CVEGEO": "200020039013A024", "POBTOT": 26.0, "score_nse": 0.0, "NSE": "ND", "VIVTOT": 11.0, "GRAPROES": 7.35, "_ent": "20", "_mun": "002", "_loc": "0039"}, "geometry": {"type": "Polygon", "coordinates": [[[-96.52476, 18.51395], [-96.52539, 18.51315], [-96.52578, 18.51389], [-96.52508, 18.51426], [-96.52476, 18.51395]]]}}, {"id": "1583863", "type": "Feature", "properties": {"id": "1583863", "CVEGEO": "200020039013A023", "POBTOT": 51.0, "score_nse": 0.0, "NSE": "ND", "VIVTOT": 22.0, "GRAPROES": 7.78, "_ent": "20", "_mun": "002", "_loc": "0039"}, "geometry": {"type": "Polygon", "coordinates": [[[-96.5245, 18.51799], [-96.52535, 18.51754], [-96.52583, 18.51841], [-96.52491, 18.51882], [-96.5245, 18.51799]]]}}, {"id": "1583864", "type": "Feature", "properties": {"id": "1583864", "CVEGEO": "200020039013A022", "POBTOT": 24.0, "score_nse": 0.0, "NSE": "ND", "VIVTOT": 10.0, "GRAPROES": 10.77, "_ent": "20", "_mun": "002", "_loc": "0039"}, "geometry": {"type": "Polygon", "coordinates": [[[-96.52732, 18.51766], [-96.5285, 18.51665], [-96.52868, 18.51701], [-96.52732, 18.51766]]]}}, {"id": "1583954", "type": "Feature", "properties": {"id": "1583954", "CVEGEO": "2000200390464001", "POBTOT": 0.0, "score_nse": 0.0, "NSE": "ND", "VIVTOT": 0.0, "GRAPROES": 0.0, "_ent": "20", "_mun": "002", "_loc": "0039"}, "geometry": {"type": "Polygon", "coordinates": [[[-96.51664, 18.51442], [-96.5159, 18.51501], [-96.5136, 18.51285], [-96.51429, 18.51236], [-96.51466, 18.51159], [-96.51502, 18.51156], [-96.51664, 18.51442]]]}}, {"id": "1583956", "type": "Feature", "properties": {"id": "1583956", "CVEGEO": "2000200390322025", "POBTOT": 0.0, "score_nse": 0.0, "NSE": "ND", "VIVTOT": 0.0, "GRAPROES": 0.0, "_ent": "20", "_mun": "002", "_loc": "0039"}, "geometry": {"type": "Polygon", "coordinates": [[[-96.54177, 18.5048], [-96.54173, 18.50526], [-96.54128, 18.50566], [-96.54108, 18.50546], [-96.54177, 18.5048]]]}}, {"id": "1583957", "type": "Feature", "properties": {"id": "1583957", "CVEGEO": "2000200390303030", "POBTOT": 150.0, "score_nse": 0.0, "NSE": "ND", "VIVTOT": 51.0, "GRAPROES": 8.66, "_ent": "20", "_mun": "002", "_loc": "0039"}, "geometry": {"type": "Polygon", "coordinates": [[[-96.53505, 18.51725], [-96.53481, 18.5172], [-96.5348, 18.51629], [-96.53504, 18.51526], [-96.53526, 18.51525], [-96.53593, 18.51637], [-96.53562, 18.51573], [-96.53623, 18.51543], [-96.53658, 18.51599], [-96.53505, 18.51725]]]}}, {"id": "1583959", "type": "Feature", "properties": {"id": "1583959", "CVEGEO": "2000200390303024", "POBTOT": 25.0, "score_nse": 0.0, "NSE": "ND", "VIVTOT": 11.0, "GRAPROES": 10.2, "_ent": "20", "_mun": "002", "_loc": "0039"}, "geometry": {"type": "Polygon", "coordinates": [[[-96.5346, 18.51494], [-96.53438, 18.51441], [-96.53525, 18.51394], [-96.53496, 18.51535], [-96.53399, 18.51554], [-96.53354, 18.5148], [-96.53433, 18.51444], [-96.5346, 18.51494]]]}}, {"id": "1583960", "type": "Feature", "properties": {"id": "1583960", "CVEGEO": "2000200390290035", "POBTOT": 7.0, "score_nse": 0.0, "NSE": "ND", "VIVTOT": 2.0, "GRAPROES": 0.0, "_ent": "20", "_mun": "002", "_loc": "0039"}, "geometry": {"type": "Polygon", "coordinates": [[[-96.51884, 18.51105], [-96.51833, 18.51198], [-96.51661, 18.51095], [-96.5172, 18.51009], [-96.51884, 18.51105]]]}}, {"id": "1583966", "type": "Feature", "properties": {"id": "1583966", "CVEGEO": "2000200390337034", "POBTOT": 1.0, "score_nse": 0.0, "NSE": "ND", "VIVTOT": 1.0, "GRAPROES": 0.0, "_ent": "20", "_mun": "002", "_loc": "0039"}, "geometry": {"type": "Polygon", "coordinates": [[[-96.53639, 18.50984], [-96.53609, 18.50986], [-96.53548, 18.50991], [-96.53584, 18.50974], [-96.53639, 18.50984]]]}}, {"id": "1583967", "type": "Feature", "properties": {"id": "1583967", "CVEGEO": "2000200390337033", "POBTOT": 28.0, "score_nse": 60.28, "NSE": "C", "VIVTOT": 14.0, "GRAPROES": 11.45, "_ent": "20", "_mun": "002", "_loc": "0039"}, "geometry": {"type": "Polygon", "coordinates": [[[-96.53912, 18.51022], [-96.53898, 18.5105], [-96.5375, 18.50997], [-96.53648, 18.50984], [-96.53781, 18.50978], [-96.53912, 18.51022]]]}}, {"id": "1583971", "type": "Feature", "properties": {"id": "1583971", "CVEGEO": "2000200390318011", "POBTOT": 84.0, "score_nse": 43.6421, "NSE": "C-", "VIVTOT": 34.0, "GRAPROES": 7.82, "_ent": "20", "_mun": "002", "_loc": "0039"}, "geometry": {"type": "Polygon", "coordinates": [[[-96.53061, 18.51382], [-96.53017, 18.51297], [-96.53101, 18.51255], [-96.53149, 18.51342], [-96.53061, 18.51382]]]}}, {"id": "1583973", "type": "Feature", "properties": {"id": "1583973", "CVEGEO": "2000200390303029", "POBTOT": 18.0, "score_nse": 0.0, "NSE": "ND", "VIVTOT": 7.0, "GRAPROES": 11.07, "_ent": "20", "_mun": "002", "_loc": "0039"}, "geometry": {"type": "Polygon", "coordinates": [[[-96.53605, 18.51491], [-96.53692, 18.51449], [-96.53714, 18.51491], [-96.53629, 18.51533], [-96.53605, 18.51491]]]}}, {"id": "1583974", "type": "Feature", "properties": {"id": "1583974", "CVEGEO": "2000200390337030", "POBTOT": 66.0, "score_nse": 49.095, "NSE": "C-", "VIVTOT": 33.0, "GRAPROES": 10.09, "_ent": "20", "_mun": "002", "_loc": "0039"}, "geometry": {"type": "Polygon", "coordinates": [[[-96.53793, 18.50979], [-96.5395, 18.50841], [-96.54004, 18.50844], [-96.5396, 18.50886], [-96.53916, 18.51018], [-96.53793, 18.50979]]]}}, {"id": "1583976", "type": "Feature", "properties": {"id": "1583976", "CVEGEO": "2000200390318007", "POBTOT": 29.0, "score_nse": 0.0, "NSE": "ND", "VIVTOT": 14.0, "GRAPROES": 10.55, "_ent": "20", "_mun": "002", "_loc": "0039"}, "geometry": {"type": "Polygon", "coordinates": [[[-96.53254, 18.51522], [-96.53211, 18.51436], [-96.53297, 18.51392], [-96.53348, 18.51478], [-96.53254, 18.51522]]]}}, {"id": "1583997", "type": "Feature", "properties": {"id": "1583997", "CVEGEO": "200020039013A032", "POBTOT": 29.0, "score_nse": 0.0, "NSE": "ND", "VIVTOT": 11.0, "GRAPROES": 7.57, "_ent": "20", "_mun": "002", "_loc": "0039"}, "geometry": {"type": "Polygon", "coordinates": [[[-96.52614, 18.51886], [-96.52569, 18.52008], [-96.52503, 18.5206], [-96.52432, 18.52054], [-96.52313, 18.51976], [-96.5259, 18.51843], [-96.52614, 18.51886]]]}}, {"id": "1583999", "type": "Feature", "properties": {"id": "1583999", "CVEGEO": "200020039013A040", "POBTOT": 12.0, "score_nse": 0.0, "NSE": "ND", "VIVTOT": 4.0, "GRAPROES": 5.0, "_ent": "20", "_mun": "002", "_loc": "0039"}, "geometry": {"type": "Polygon", "coordinates": [[[-96.52674, 18.51803], [-96.52616, 18.5188], [-96.52595, 18.5184], [-96.52674, 18.51803]]]}}, {"id": "1584064", "type": "Feature", "properties": {"id": "1584064", "CVEGEO": "2000200390290026", "POBTOT": 29.0, "score_nse": 0.0, "NSE": "ND", "VIVTOT": 10.0, "GRAPROES": 7.0, "_ent": "20", "_mun": "002", "_loc": "0039"}, "geometry": {"type": "Polygon", "coordinates": [[[-96.53113, 18.51129], [-96.53055, 18.51158], [-96.53003, 18.51075], [-96.52911, 18.51114], [-96.52885, 18.51061], [-96.53064, 18.51044], [-96.53113, 18.51129]]]}}, {"id": "1584162", "type": "Feature", "properties": {"id": "1584162", "CVEGEO": "2000200390337002", "POBTOT": 101.0, "score_nse": 47.4096, "NSE": "C-", "VIVTOT": 47.0, "GRAPROES": 8.87, "_ent": "20", "_mun": "002", "_loc": "0039"}, "geometry": {"type": "Polygon", "coordinates": [[[-96.5399, 18.50385], [-96.53981, 18.50376], [-96.53978, 18.50389], [-96.53997, 18.50414], [-96.5395, 18.50443], [-96.53874, 18.50413], [-96.53944, 18.50446], [-96.53903, 18.50478], [-96.54, 18.50418], [-96.54032, 18.50455], [-96.53937, 18.50516], [-96.54034, 18.50459], [-96.54059, 18.50494], [-96.53965, 18.50549], [-96.54062, 18.50498], [-96.54097, 18.50543], [-96.54011, 18.50623], [-96.53868, 18.50526], [-96.53823, 18.50461], [-96.53659, 18.50314], [-96.53727, 18.50229], [-96.53871, 18.50278], [-96.53956, 18.5022], [-96.54003, 18.50256], [-96.53977, 18.50307], [-96.54026, 18.50344], [-96.5399, 18.50385]]]}}, {"id": "1584163", "type": "Feature", "properties": {"id": "1584163", "CVEGEO": "2000200390337022", "POBTOT": 0.0, "score_nse": 10.0, "NSE": "E", "VIVTOT": 1.0, "GRAPROES": 0.0, "_ent": "20", "_mun": "002", "_loc": "0039"}, "geometry": {"type": "Polygon", "coordinates": [[[-96.5404, 18.50455], [-96.54176, 18.50465], [-96.54101, 18.50542], [-96.5404, 18.50455]]]}}, {"id": "1584379", "type": "Feature", "properties": {"id": "1584379", "CVEGEO": "2000200390337020", "POBTOT": 80.0, "score_nse": 61.5547, "NSE": "C", "VIVTOT": 30.0, "GRAPROES": 10.16, "_ent": "20", "_mun": "002", "_loc": "0039"}, "geometry": {"type": "Polygon", "coordinates": [[[-96.5422, 18.5043], [-96.54187, 18.50456], [-96.54046, 18.50445], [-96.54032, 18.50429], [-96.54072, 18.50408], [-96.54184, 18.50426], [-96.54201, 18.50415], [-96.5422, 18.5043]]]}}, {"id": "1584380", "type": "Feature", "properties": {"id": "1584380", "CVEGEO": "2000200390286044", "POBTOT": 1.0, "score_nse": 0.0, "NSE": "ND", "VIVTOT": 2.0, "GRAPROES": 0.0, "_ent": "20", "_mun": "002", "_loc": "0039"}, "geometry": {"type": "Polygon", "coordinates": [[[-96.51942, 18.51328], [-96.51909, 18.51367], [-96.51863, 18.51365], [-96.51909, 18.51303], [-96.51942, 18.51328]]]}}, {"id": "1584381", "type": "Feature", "properties": {"id": "1584381", "CVEGEO": "2000200390286043", "POBTOT": 10.0, "score_nse": 0.0, "NSE": "ND", "VIVTOT": 5.0, "GRAPROES": 8.14, "_ent": "20", "_mun": "002", "_loc": "0039"}, "geometry": {"type": "Polygon", "coordinates": [[[-96.51904, 18.513], [-96.51856, 18.51364], [-96.51806, 18.51358], [-96.51866, 18.51276], [-96.51904, 18.513]]]}}, {"id": "1584382", "type": "Feature", "properties": {"id": "1584382", "CVEGEO": "2000200390286027", "POBTOT": 8.0, "score_nse": 0.0, "NSE": "ND", "VIVTOT": 2.0, "GRAPROES": 0.0, "_ent": "20", "_mun": "002", "_loc": "0039"}, "geometry": {"type": "Polygon", "coordinates": [[[-96.51977, 18.51354], [-96.51848, 18.51524], [-96.51778, 18.51612], [-96.51686, 18.51457], [-96.51757, 18.51357], [-96.51908, 18.51374], [-96.51946, 18.51331], [-96.51977, 18.51354]]]}}, {"id": "1584383", "type": "Feature", "properties": {"id": "1584383", "CVEGEO": "2000200390286042", "POBTOT": 4.0, "score_nse": 0.0, "NSE": "ND", "VIVTOT": 1.0, "GRAPROES": 0.0, "_ent": "20", "_mun": "002", "_loc": "0039"}, "geometry": {"type": "Polygon", "coordinates": [[[-96.51861, 18.51272], [-96.51799, 18.51357], [-96.51762, 18.51352], [-96.5182, 18.51244], [-96.51861, 18.51272]]]}}, {"id": "1584400", "type": "Feature", "properties": {"id": "1584400", "CVEGEO": "2000200390479003", "POBTOT": 0.0, "score_nse": 0.0, "NSE": "ND", "VIVTOT": 0.0, "GRAPROES": 0.0, "_ent": "20", "_mun": "002", "_loc": "0039"}, "geometry": {"type": "Polygon", "coordinates": [[[-96.52803, 18.52172], [-96.52683, 18.52278], [-96.5257, 18.5216], [-96.52696, 18.52053], [-96.52803, 18.52172]]]}}, {"id": "1584401", "type": "Feature", "properties": {"id": "1584401", "CVEGEO": "2000200390479002", "POBTOT": 2.0, "score_nse": 0.0, "NSE": "ND", "VIVTOT": 1.0, "GRAPROES": 0.0, "_ent": "20", "_mun": "002", "_loc": "0039"}, "geometry": {"type": "Polygon", "coordinates": [[[-96.52733, 18.52013], [-96.52696, 18.52043], [-96.5266, 18.52006], [-96.52697, 18.51973], [-96.52733, 18.52013]]]}}, {"id": "1584410", "type": "Feature", "properties": {"id": "1584410", "CVEGEO": "2000200390337039", "POBTOT": 0.0, "score_nse": 0.0, "NSE": "ND", "VIVTOT": 0.0, "GRAPROES": 0.0, "_ent": "20", "_mun": "002", "_loc": "0039"}, "geometry": {"type": "Polygon", "coordinates": [[[-96.54197, 18.50412], [-96.54055, 18.50399], [-96.54107, 18.50339], [-96.54197, 18.50412]]]}}, {"id": "1584421", "type": "Feature", "properties": {"id": "1584421", "CVEGEO": "2000200390479006", "POBTOT": 0.0, "score_nse": 0.0, "NSE": "ND", "VIVTOT": 0.0, "GRAPROES": 0.0, "_ent": "20", "_mun": "002", "_loc": "0039"}, "geometry": {"type": "Polygon", "coordinates": [[[-96.5269, 18.52047], [-96.52653, 18.52076], [-96.52583, 18.52008], [-96.52601, 18.51954], [-96.5269, 18.52047]]]}}, {"id": "1584422", "type": "Feature", "properties": {"id": "1584422", "CVEGEO": "2000200390479005", "POBTOT": 0.0, "score_nse": 10.0, "NSE": "E", "VIVTOT": 3.0, "GRAPROES": 0.0, "_ent": "20", "_mun": "002", "_loc": "0039"}, "geometry": {"type": "Polygon", "coordinates": [[[-96.52775, 18.52056], [-96.52737, 18.52089], [-96.527, 18.52047], [-96.52737, 18.52016], [-96.52775, 18.52056]]]}}, {"id": "1584423", "type": "Feature", "properties": {"id": "1584423", "CVEGEO": "2000200390479004", "POBTOT": 4.0, "score_nse": 0.0, "NSE": "ND", "VIVTOT": 1.0, "GRAPROES": 0.0, "_ent": "20", "_mun": "002", "_loc": "0039"}, "geometry": {"type": "Polygon", "coordinates": [[[-96.52694, 18.51969], [-96.52655, 18.52002], [-96.52603, 18.51946], [-96.52624, 18.51896], [-96.52694, 18.51969]]]}}, {"id": "1584433", "type": "Feature", "properties": {"id": "1584433", "CVEGEO": "2000200390479008", "POBTOT": 16.0, "score_nse": 0.0, "NSE": "ND", "VIVTOT": 5.0, "GRAPROES": 9.11, "_ent": "20", "_mun": "002", "_loc": "0039"}, "geometry": {"type": "Polygon", "coordinates": [[[-96.52602, 18.52121], [-96.52566, 18.52154], [-96.52519, 18.52101], [-96.52531, 18.5206], [-96.52555, 18.52043], [-96.52553, 18.5206], [-96.52602, 18.52121]]]}}, {"id": "1584434", "type": "Feature", "properties": {"id": "1584434", "CVEGEO": "2000200390479007", "POBTOT": 11.0, "score_nse": 0.0, "NSE": "ND", "VIVTOT": 4.0, "GRAPROES": 4.14, "_ent": "20", "_mun": "002", "_loc": "0039"}, "geometry": {"type": "Polygon", "coordinates": [[[-96.52649, 18.52081], [-96.52607, 18.52118], [-96.52558, 18.52057], [-96.52561, 18.52038], [-96.5258, 18.52014], [-96.52649, 18.52081]]]}}, {"id": "1584445", "type": "Feature", "properties": {"id": "1584445", "CVEGEO": "2000200390322032", "POBTOT": 36.0, "score_nse": 61.3151, "NSE": "C", "VIVTOT": 13.0, "GRAPROES": 9.35, "_ent": "20", "_mun": "002", "_loc": "0039"}, "geometry": {"type": "Polygon", "coordinates": [[[-96.5465, 18.50568], [-96.54613, 18.50593], [-96.54639, 18.50624], [-96.54637, 18.5066], [-96.546, 18.50689], [-96.54574, 18.50616], [-96.54583, 18.50548], [-96.54535, 18.50564], [-96.5453, 18.50642], [-96.5446, 18.50647], [-96.54486, 18.50589], [-96.5459, 18.505], [-96.5465, 18.50568]]]}}, {"id": "1584446", "type": "Feature", "properties": {"id": "1584446", "CVEGEO": "2000200390322030", "POBTOT": 27.0, "score_nse": 62.2313, "NSE": "C", "VIVTOT": 12.0, "GRAPROES": 12.0, "_ent": "20", "_mun": "002", "_loc": "0039"}, "geometry": {"type": "Polygon", "coordinates": [[[-96.54459, 18.50656], [-96.54533, 18.5065], [-96.54553, 18.50711], [-96.54349, 18.50863], [-96.54459, 18.50656]]]}}, {"id": "1584447", "type": "Feature", "properties": {"id": "1584447", "CVEGEO": "2000200390322009", "POBTOT": 60.0, "score_nse": 69.4502, "NSE": "C", "VIVTOT": 18.0, "GRAPROES": 9.53, "_ent": "20", "_mun": "002", "_loc": "0039"}, "geometry": {"type": "Polygon", "coordinates": [[[-96.54225, 18.50595], [-96.54219, 18.50646], [-96.54138, 18.50651], [-96.54142, 18.50598], [-96.54225, 18.50595]]]}}, {"id": "1584448", "type": "Feature", "properties": {"id": "1584448", "CVEGEO": "2000200390290022", "POBTOT": 0.0, "score_nse": 0.0, "NSE": "ND", "VIVTOT": 0.0, "GRAPROES": 0.0, "_ent": "20", "_mun": "002", "_loc": "0039"}, "geometry": {"type": "Polygon", "coordinates": [[[-96.52669, 18.50952], [-96.52792, 18.50891], [-96.52851, 18.50809], [-96.52929, 18.50767], [-96.52915, 18.50811], [-96.52923, 18.50884], [-96.53043, 18.51006], [-96.53035, 18.51032], [-96.52849, 18.51052], [-96.52711, 18.51027], [-96.52667, 18.50991], [-96.52689, 18.51021], [-96.52637, 18.51004], [-96.52669, 18.50952]]]}}, {"id": "1584467", "type": "Feature", "properties": {"id": "1584467", "CVEGEO": "200020039013A012", "POBTOT": 78.0, "score_nse": 0.0, "NSE": "ND", "VIVTOT": 22.0, "GRAPROES": 9.38, "_ent": "20", "_mun": "002", "_loc": "0039"}, "geometry": {"type": "Polygon", "coordinates": [[[-96.52583, 18.51611], [-96.52491, 18.51658], [-96.52456, 18.51594], [-96.52478, 18.51563], [-96.52545, 18.51534], [-96.52567, 18.5158], [-96.52544, 18.51596], [-96.5257, 18.51584], [-96.52583, 18.51611]]]}}, {"id": "1584470", "type": "Feature", "properties": {"id": "1584470", "CVEGEO": "2000200390479001", "POBTOT": 0.0, "score_nse": 10.0, "NSE": "E", "VIVTOT": 1.0, "GRAPROES": 0.0, "_ent": "20", "_mun": "002", "_loc": "0039"}, "geometry": {"type": "Polygon", "coordinates": [[[-96.52845, 18.52135], [-96.52808, 18.52167], [-96.5274, 18.52093], [-96.52779, 18.5206], [-96.52845, 18.52135]]]}}, {"id": "1584471", "type": "Feature", "properties": {"id": "1584471", "CVEGEO": "2000200390337029", "POBTOT": 20.0, "score_nse": 83.7467, "NSE": "C+", "VIVTOT": 9.0, "GRAPROES": 14.54, "_ent": "20", "_mun": "002", "_loc": "0039"}, "geometry": {"type": "Polygon", "coordinates": [[[-96.5465, 18.50935], [-96.54428, 18.51252], [-96.53907, 18.51059], [-96.53969, 18.50878], [-96.54014, 18.50845], [-96.54239, 18.50896], [-96.54624, 18.50846], [-96.54625, 18.50878], [-96.54597, 18.50911], [-96.5465, 18.50935]]]}}, {"id": "1584476", "type": "Feature", "properties": {"id": "1584476", "CVEGEO": "2000200390337038", "POBTOT": 12.0, "score_nse": 0.0, "NSE": "ND", "VIVTOT": 5.0, "GRAPROES": 11.33, "_ent": "20", "_mun": "002", "_loc": "0039"}, "geometry": {"type": "Polygon", "coordinates": [[[-96.54067, 18.50375], [-96.54024, 18.50424], [-96.53993, 18.50389], [-96.5403, 18.50347], [-96.54067, 18.50375]]]}}, {"id": "1584477", "type": "Feature", "properties": {"id": "1584477", "CVEGEO": "2000200390337026", "POBTOT": 124.0, "score_nse": 57.7623, "NSE": "C", "VIVTOT": 39.0, "GRAPROES": 9.01, "_ent": "20", "_mun": "002", "_loc": "0039"}, "geometry": {"type": "Polygon", "coordinates": [[[-96.53999, 18.50633], [-96.53711, 18.50904], [-96.53733, 18.50969], [-96.53601, 18.50969], [-96.53592, 18.50938], [-96.53595, 18.50969], [-96.53546, 18.50975], [-96.53538, 18.50991], [-96.53346, 18.51006], [-96.5327, 18.50697], [-96.5338, 18.5069], [-96.53434, 18.50638], [-96.53443, 18.50589], [-96.53393, 18.50252], [-96.53439, 18.50193], [-96.53647, 18.50324], [-96.53808, 18.50472], [-96.5384, 18.5052], [-96.53999, 18.50633]]]}}, {"id": "1584478", "type": "Feature", "properties": {"id": "1584478", "CVEGEO": "2000200390337025", "POBTOT": 86.0, "score_nse": 0.0, "NSE": "ND", "VIVTOT": 28.0, "GRAPROES": 10.16, "_ent": "20", "_mun": "002", "_loc": "0039"}, "geometry": {"type": "Polygon", "coordinates": [[[-96.54083, 18.50709], [-96.54068, 18.50846], [-96.53943, 18.50827], [-96.53877, 18.50759], [-96.54004, 18.50639], [-96.54083, 18.50709]]]}}, {"id": "1584479", "type": "Feature", "properties": {"id": "1584479", "CVEGEO": "2000200390322028", "POBTOT": 7.0, "score_nse": 0.0, "NSE": "ND", "VIVTOT": 2.0, "GRAPROES": 0.0, "_ent": "20", "_mun": "002", "_loc": "0039"}, "geometry": {"type": "Polygon", "coordinates": [[[-96.54475, 18.50594], [-96.54458, 18.50635], [-96.54249, 18.50419], [-96.54437, 18.50243], [-96.54494, 18.50339], [-96.54495, 18.50374], [-96.54463, 18.50429], [-96.54448, 18.50571], [-96.54475, 18.50594]]]}}, {"id": "1584481", "type": "Feature", "properties": {"id": "1584481", "CVEGEO": "2000200390322016", "POBTOT": 31.0, "score_nse": 0.0, "NSE": "ND", "VIVTOT": 12.0, "GRAPROES": 10.22, "_ent": "20", "_mun": "002", "_loc": "0039"}, "geometry": {"type": "Polygon", "coordinates": [[[-96.54192, 18.50662], [-96.54169, 18.50714], [-96.54106, 18.50703], [-96.54123, 18.50656], [-96.54192, 18.50662]]]}}, {"id": "1584485", "type": "Feature", "properties": {"id": "1584485", "CVEGEO": "2000200390479009", "POBTOT": 1.0, "score_nse": 0.0, "NSE": "ND", "VIVTOT": 1.0, "GRAPROES": 0.0, "_ent": "20", "_mun": "002", "_loc": "0039"}, "geometry": {"type": "Polygon", "coordinates": [[[-96.52983, 18.52237], [-96.52923, 18.52365], [-96.52774, 18.52206], [-96.52856, 18.52131], [-96.52983, 18.52237]]]}}, {"id": "1584518", "type": "Feature", "properties": {"id": "1584518", "CVEGEO": "2000200390286036", "POBTOT": 15.0, "score_nse": 0.0, "NSE": "ND", "VIVTOT": 4.0, "GRAPROES": 9.78, "_ent": "20", "_mun": "002", "_loc": "0039"}, "geometry": {"type": "Polygon", "coordinates": [[[-96.52007, 18.51241], [-96.51973, 18.51214], [-96.52037, 18.51138], [-96.52071, 18.51163], [-96.52007, 18.51241]]]}}, {"id": "1584519", "type": "Feature", "properties": {"id": "1584519", "CVEGEO": "2000200390286047", "POBTOT": 0.0, "score_nse": 0.0, "NSE": null, "VIVTOT": 0.0, "GRAPROES": 0.0, "_ent": "20", "_mun": "002", "_loc": "0039"}, "geometry": {"type": "Polygon", "coordinates": [[[-96.52079, 18.51169], [-96.52045, 18.51233], [-96.52035, 18.51263], [-96.52011, 18.51243], [-96.52079, 18.51169]]]}}, {"id": "1584520", "type": "Feature", "properties": {"id": "1584520", "CVEGEO": "2000200390290034", "POBTOT": 2.0, "score_nse": 0.0, "NSE": "ND", "VIVTOT": 2.0, "GRAPROES": 0.0, "_ent": "20", "_mun": "002", "_loc": "0039"}, "geometry": {"type": "Polygon", "coordinates": [[[-96.51684, 18.5145], [-96.51559, 18.51237], [-96.51593, 18.51189], [-96.51784, 18.51301], [-96.51722, 18.51397], [-96.51674, 18.51329], [-96.5172, 18.514], [-96.51684, 18.5145]]]}}, {"id": "1584521", "type": "Feature", "properties": {"id": "1584521", "CVEGEO": "2000200390290036", "POBTOT": 22.0, "score_nse": 0.0, "NSE": "ND", "VIVTOT": 5.0, "GRAPROES": 9.53, "_ent": "20", "_mun": "002", "_loc": "0039"}, "geometry": {"type": "Polygon", "coordinates": [[[-96.52064, 18.51073], [-96.5203, 18.51126], [-96.51916, 18.51055], [-96.51947, 18.50999], [-96.52064, 18.51073]]]}}, {"id": "1584522", "type": "Feature", "properties": {"id": "1584522", "CVEGEO": "2000200390290038", "POBTOT": 0.0, "score_nse": 0.0, "NSE": null, "VIVTOT": 0.0, "GRAPROES": 0.0, "_ent": "20", "_mun": "002", "_loc": "0039"}, "geometry": {"type": "Polygon", "coordinates": [[[-96.52069, 18.51077], [-96.52086, 18.51089], [-96.52079, 18.51163], [-96.52035, 18.51129], [-96.52069, 18.51077]]]}}, {"id": "1584523", "type": "Feature", "properties": {"id": "1584523", "CVEGEO": "2000200390290039", "POBTOT": 0.0, "score_nse": 0.0, "NSE": null, "VIVTOT": 0.0, "GRAPROES": 0.0, "_ent": "20", "_mun": "002", "_loc": "0039"}, "geometry": {"type": "Polygon", "coordinates": [[[-96.51593, 18.51186], [-96.51626, 18.51141], [-96.51806, 18.51251], [-96.51784, 18.51297], [-96.51593, 18.51186]]]}}]}