{"type": "FeatureCollection", "features": [{"id": "2239141", "type": "Feature", "properties": {"id": "2239141", "CVEGEO": "3000400110091004", "POBTOT": 0.0, "score_nse": 0.0, "NSE": null, "VIVTOT": 0.0, "GRAPROES": 0.0, "_ent": "30", "_mun": "004", "_loc": "0011"}, "geometry": {"type": "Polygon", "coordinates": [[[-96.70061, 19.49723], [-96.70018, 19.49723], [-96.70011, 19.49696], [-96.70077, 19.49704], [-96.70061, 19.49723]]]}}, {"id": "2239272", "type": "Feature", "properties": {"id": "2239272", "CVEGEO": "3000400110091003", "POBTOT": 0.0, "score_nse": 0.0, "NSE": null, "VIVTOT": 0.0, "GRAPROES": 0.0, "_ent": "30", "_mun": "004", "_loc": "0011"}, "geometry": {"type": "Polygon", "coordinates": [[[-96.70072, 19.49696], [-96.7001, 19.49692], [-96.70003, 19.49658], [-96.70072, 19.49696]]]}}, {"id": "2239280", "type": "Feature", "properties": {"id": "2239280", "CVEGEO": "3000400110091006", "POBTOT": 0.0, "score_nse": 0.0, "NSE": null, "VIVTOT": 0.0, "GRAPROES": 0.0, "_ent": "30", "_mun": "004", "_loc": "0011"}, "geometry": {"type": "Polygon", "coordinates": [[[-96.70097, 19.4971], [-96.70077, 19.49719], [-96.70081, 19.49705], [-96.70097, 19.4971]]]}}, {"id": "2239938", "type": "Feature", "properties": {"id": "2239938", "CVEGEO": "3000400110091005", "POBTOT": 0.0, "score_nse": 0.0, "NSE": null, "VIVTOT": 0.0, "GRAPROES": 0.0, "_ent": "30", "_mun": "004", "_loc": "0011"}, "geometry": {"type": "Polygon", "coordinates": [[[-96.70079, 19.49756], [-96.69978, 19.49743], [-96.69973, 19.49724], [-96.7006, 19.49731], [-96.70079, 19.49756]]]}}, {"id": "2239939", "type": "Feature", "properties": {"id": "2239939", "CVEGEO": "3000400110091007", "POBTOT": 0.0, "score_nse": 0.0, "NSE": null, "VIVTOT": 0.0, "GRAPROES": 0.0, "_ent": "30", "_mun": "004", "_loc": "0011"}, "geometry": {"type": "Polygon", "coordinates": [[[-96.70177, 19.49814], [-96.70122, 19.49788], [-96.70069, 19.4973], [-96.70103, 19.49722], [-96.70148, 19.49758], [-96.70191, 19.49769], [-96.70177, 19.49814]]]}}, {"id": "2240076", "type": "Feature", "properties": {"id": "2240076", "CVEGEO": "3000400110091001", "POBTOT": 0.0, "score_nse": 0.0, "NSE": null, "VIVTOT": 0.0, "GRAPROES": 0.0, "_ent": "30", "_mun": "004", "_loc": "0011"}, "geometry": {"type": "Polygon", "coordinates": [[[-96.69936, 19.49698], [-96.69909, 19.49638], [-96.69987, 19.49648], [-96.70001, 19.49687], [-96.6994, 19.49679], [-96.69963, 19.49691], [-96.69936, 19.49698]]]}}, {"id": "2240143", "type": "Feature", "properties": {"id": "2240143", "CVEGEO": "3000400110091008", "POBTOT": 0.0, "score_nse": 0.0, "NSE": null, "VIVTOT": 0.0, "GRAPROES": 0.0, "_ent": "30", "_mun": "004", "_loc": "0011"}, "geometry": {"type": "Polygon", "coordinates": [[[-96.69949, 19.49717], [-96.69941, 19.497], [-96.70002, 19.49691], [-96.70008, 19.49704], [-96.70009, 19.49719], [-96.69949, 19.49717]]]}}, {"id": "2240144", "type": "Feature", "properties": {"id": "2240144", "CVEGEO": "3000400110091002", "POBTOT": 0.0, "score_nse": 0.0, "NSE": null, "VIVTOT": 0.0, "GRAPROES": 0.0, "_ent": "30", "_mun": "004", "_loc": "0011"}, "geometry": {"type": "Polygon", "coordinates": [[[-96.69904, 19.49637], [-96.69942, 19.49716], [-96.69856, 19.49686], [-96.69806, 19.49629], [-96.69815, 19.49611], [-96.69904, 19.49637]]]}}]}