{"type": "FeatureCollection", "features": [{"id": "1281314", "type": "Feature", "properties": {"id": "1281314", "CVEGEO": "1606700280049020", "POBTOT": 0.0, "score_nse": 0.0, "NSE": null, "VIVTOT": 0.0, "GRAPROES": 0.0, "_ent": "16", "_mun": "067", "_loc": "0028"}, "geometry": {"type": "Polygon", "coordinates": [[[-101.85289, 20.13057], [-101.85354, 20.13038], [-101.85374, 20.13068], [-101.85424, 20.13081], [-101.85467, 20.13158], [-101.8542, 20.13155], [-101.85411, 20.1314], [-101.85411, 20.13155], [-101.85293, 20.13167], [-101.85289, 20.13057]]]}}, {"id": "1281316", "type": "Feature", "properties": {"id": "1281316", "CVEGEO": "1606700280049004", "POBTOT": 0.0, "score_nse": 0.0, "NSE": null, "VIVTOT": 0.0, "GRAPROES": 0.0, "_ent": "16", "_mun": "067", "_loc": "0028"}, "geometry": {"type": "Polygon", "coordinates": [[[-101.85525, 20.13318], [-101.85519, 20.13271], [-101.85633, 20.13229], [-101.85636, 20.13311], [-101.85525, 20.13318]]]}}, {"id": "1281317", "type": "Feature", "properties": {"id": "1281317", "CVEGEO": "1606700280049003", "POBTOT": 0.0, "score_nse": 0.0, "NSE": null, "VIVTOT": 0.0, "GRAPROES": 0.0, "_ent": "16", "_mun": "067", "_loc": "0028"}, "geometry": {"type": "Polygon", "coordinates": [[[-101.85487, 20.13312], [-101.85513, 20.13296], [-101.85517, 20.1333], [-101.855, 20.13324], [-101.85487, 20.13312]]]}}, {"id": "1281318", "type": "Feature", "properties": {"id": "1281318", "CVEGEO": "1606700280049002", "POBTOT": 0.0, "score_nse": 0.0, "NSE": null, "VIVTOT": 0.0, "GRAPROES": 0.0, "_ent": "16", "_mun": "067", "_loc": "0028"}, "geometry": {"type": "Polygon", "coordinates": [[[-101.85501, 20.13343], [-101.85547, 20.13365], [-101.85565, 20.13392], [-101.85486, 20.13387], [-101.85501, 20.13343]]]}}, {"id": "1281319", "type": "Feature", "properties": {"id": "1281319", "CVEGEO": "1606700280049001", "POBTOT": 0.0, "score_nse": 0.0, "NSE": null, "VIVTOT": 0.0, "GRAPROES": 0.0, "_ent": "16", "_mun": "067", "_loc": "0028"}, "geometry": {"type": "Polygon", "coordinates": [[[-101.85525, 20.13326], [-101.85636, 20.13319], [-101.85637, 20.13361], [-101.85574, 20.13392], [-101.85525, 20.13326]]]}}, {"id": "1281365", "type": "Feature", "properties": {"id": "1281365", "CVEGEO": "1606700280049011", "POBTOT": 0.0, "score_nse": 0.0, "NSE": null, "VIVTOT": 0.0, "GRAPROES": 0.0, "_ent": "16", "_mun": "067", "_loc": "0028"}, "geometry": {"type": "Polygon", "coordinates": [[[-101.85642, 20.13221], [-101.85671, 20.13134], [-101.8571, 20.13136], [-101.85704, 20.13222], [-101.85642, 20.13221]]]}}, {"id": "1281366", "type": "Feature", "properties": {"id": "1281366", "CVEGEO": "1606700280049010", "POBTOT": 0.0, "score_nse": 0.0, "NSE": null, "VIVTOT": 0.0, "GRAPROES": 0.0, "_ent": "16", "_mun": "067", "_loc": "0028"}, "geometry": {"type": "Polygon", "coordinates": [[[-101.85518, 20.13263], [-101.85506, 20.13164], [-101.85645, 20.13163], [-101.85634, 20.1322], [-101.85518, 20.13263]]]}}, {"id": "1281410", "type": "Feature", "properties": {"id": "1281410", "CVEGEO": "1606700280049016", "POBTOT": 0.0, "score_nse": 0.0, "NSE": null, "VIVTOT": 0.0, "GRAPROES": 0.0, "_ent": "16", "_mun": "067", "_loc": "0028"}, "geometry": {"type": "Polygon", "coordinates": [[[-101.85676, 20.13125], [-101.85725, 20.13041], [-101.85809, 20.13137], [-101.85676, 20.13125]]]}}, {"id": "1281411", "type": "Feature", "properties": {"id": "1281411", "CVEGEO": "1606700280049015", "POBTOT": 0.0, "score_nse": 0.0, "NSE": null, "VIVTOT": 0.0, "GRAPROES": 0.0, "_ent": "16", "_mun": "067", "_loc": "0028"}, "geometry": {"type": "Polygon", "coordinates": [[[-101.85506, 20.13105], [-101.85582, 20.13125], [-101.85653, 20.13146], [-101.85506, 20.13156], [-101.85506, 20.13105]]]}}, {"id": "1281412", "type": "Feature", "properties": {"id": "1281412", "CVEGEO": "1606700280049014", "POBTOT": 0.0, "score_nse": 0.0, "NSE": null, "VIVTOT": 0.0, "GRAPROES": 0.0, "_ent": "16", "_mun": "067", "_loc": "0028"}, "geometry": {"type": "Polygon", "coordinates": [[[-101.85476, 20.13157], [-101.85435, 20.13084], [-101.85498, 20.13102], [-101.85498, 20.13156], [-101.85476, 20.13157]]]}}, {"id": "1281465", "type": "Feature", "properties": {"id": "1281465", "CVEGEO": "1606700280049009", "POBTOT": 0.0, "score_nse": 0.0, "NSE": null, "VIVTOT": 0.0, "GRAPROES": 0.0, "_ent": "16", "_mun": "067", "_loc": "0028"}, "geometry": {"type": "Polygon", "coordinates": [[[-101.8548, 20.13296], [-101.85475, 20.13166], [-101.85498, 20.13164], [-101.85512, 20.13288], [-101.8548, 20.13296]]]}}, {"id": "1281499", "type": "Feature", "properties": {"id": "1281499", "CVEGEO": "1606700280049007", "POBTOT": 0.0, "score_nse": 0.0, "NSE": null, "VIVTOT": 0.0, "GRAPROES": 0.0, "_ent": "16", "_mun": "067", "_loc": "0028"}, "geometry": {"type": "Polygon", "coordinates": [[[-101.85478, 20.13524], [-101.85496, 20.13397], [-101.85563, 20.134], [-101.85576, 20.13537], [-101.85478, 20.13524]]]}}, {"id": "1281606", "type": "Feature", "properties": {"id": "1281606", "CVEGEO": "1606700280049022", "POBTOT": 0.0, "score_nse": 0.0, "NSE": null, "VIVTOT": 0.0, "GRAPROES": 0.0, "_ent": "16", "_mun": "067", "_loc": "0028"}, "geometry": {"type": "Polygon", "coordinates": [[[-101.85291, 20.13718], [-101.85286, 20.13651], [-101.85317, 20.13631], [-101.85303, 20.13567], [-101.85347, 20.1355], [-101.85375, 20.13625], [-101.85351, 20.13717], [-101.85291, 20.13718]]]}}, {"id": "1281607", "type": "Feature", "properties": {"id": "1281607", "CVEGEO": "1606700280049013", "POBTOT": 0.0, "score_nse": 0.0, "NSE": null, "VIVTOT": 0.0, "GRAPROES": 0.0, "_ent": "16", "_mun": "067", "_loc": "0028"}, "geometry": {"type": "Polygon", "coordinates": [[[-101.85375, 20.13651], [-101.85352, 20.13511], [-101.85493, 20.13534], [-101.85501, 20.13586], [-101.85502, 20.13535], [-101.85548, 20.13541], [-101.85558, 20.13706], [-101.85359, 20.13716], [-101.85374, 20.13657], [-101.85505, 20.13663], [-101.85375, 20.13651]]]}}, {"id": "1281608", "type": "Feature", "properties": {"id": "1281608", "CVEGEO": "1606700280049012", "POBTOT": 0.0, "score_nse": 0.0, "NSE": null, "VIVTOT": 0.0, "GRAPROES": 0.0, "_ent": "16", "_mun": "067", "_loc": "0028"}, "geometry": {"type": "Polygon", "coordinates": [[[-101.85579, 20.13705], [-101.85562, 20.13543], [-101.85655, 20.13566], [-101.85654, 20.137], [-101.85579, 20.13705]]]}}, {"id": "1281644", "type": "Feature", "properties": {"id": "1281644", "CVEGEO": "1606700280049006", "POBTOT": 0.0, "score_nse": 0.0, "NSE": null, "VIVTOT": 0.0, "GRAPROES": 0.0, "_ent": "16", "_mun": "067", "_loc": "0028"}, "geometry": {"type": "Polygon", "coordinates": [[[-101.85585, 20.13538], [-101.85582, 20.13458], [-101.8568, 20.1346], [-101.85668, 20.13562], [-101.85585, 20.13538]]]}}, {"id": "1281687", "type": "Feature", "properties": {"id": "1281687", "CVEGEO": "1606700280049024", "POBTOT": 0.0, "score_nse": 0.0, "NSE": null, "VIVTOT": 0.0, "GRAPROES": 0.0, "_ent": "16", "_mun": "067", "_loc": "0028"}, "geometry": {"type": "Polygon", "coordinates": [[[-101.85292, 20.1356], [-101.85299, 20.13515], [-101.85268, 20.13506], [-101.85243, 20.13262], [-101.85313, 20.13267], [-101.85314, 20.13377], [-101.85345, 20.1344], [-101.85346, 20.135], [-101.85302, 20.13492], [-101.85294, 20.13462], [-101.85296, 20.13495], [-101.85346, 20.13504], [-101.85346, 20.13543], [-101.85292, 20.1356]]]}}, {"id": "1281809", "type": "Feature", "properties": {"id": "1281809", "CVEGEO": "1606700280049005", "POBTOT": 0.0, "score_nse": 0.0, "NSE": null, "VIVTOT": 0.0, "GRAPROES": 0.0, "_ent": "16", "_mun": "067", "_loc": "0028"}, "geometry": {"type": "Polygon", "coordinates": [[[-101.85645, 20.13365], [-101.85642, 20.13229], [-101.85703, 20.1323], [-101.8571, 20.13255], [-101.85718, 20.13137], [-101.85758, 20.1314], [-101.85733, 20.1339], [-101.8575, 20.1339], [-101.85749, 20.13445], [-101.85726, 20.13446], [-101.85721, 20.13535], [-101.85767, 20.13541], [-101.85775, 20.13595], [-101.85916, 20.1362], [-101.85871, 20.13689], [-101.85668, 20.13699], [-101.85669, 20.13574], [-101.85694, 20.13401], [-101.8568, 20.13452], [-101.85581, 20.1345], [-101.85572, 20.134], [-101.85645, 20.13365]]]}}, {"id": "1281810", "type": "Feature", "properties": {"id": "1281810", "CVEGEO": "1606700280049018", "POBTOT": 0.0, "score_nse": 0.0, "NSE": null, "VIVTOT": 0.0, "GRAPROES": 0.0, "_ent": "16", "_mun": "067", "_loc": "0028"}, "geometry": {"type": "Polygon", "coordinates": [[[-101.85693, 20.13077], [-101.85658, 20.13139], [-101.85378, 20.1306], [-101.85323, 20.12937], [-101.85339, 20.12878], [-101.85355, 20.12877], [-101.85375, 20.12932], [-101.85393, 20.12919], [-101.85387, 20.12994], [-101.85417, 20.12999], [-101.8542, 20.12972], [-101.85693, 20.13077]]]}}, {"id": "1281955", "type": "Feature", "properties": {"id": "1281955", "CVEGEO": "1606700280049008", "POBTOT": 0.0, "score_nse": 0.0, "NSE": null, "VIVTOT": 0.0, "GRAPROES": 0.0, "_ent": "16", "_mun": "067", "_loc": "0028"}, "geometry": {"type": "Polygon", "coordinates": [[[-101.85498, 20.13331], [-101.85475, 20.13391], [-101.8549, 20.13393], [-101.85484, 20.1343], [-101.85428, 20.13441], [-101.85483, 20.13438], [-101.85472, 20.13519], [-101.8535, 20.13501], [-101.85349, 20.13441], [-101.85327, 20.13394], [-101.85341, 20.13357], [-101.854, 20.13358], [-101.85408, 20.1331], [-101.85474, 20.13308], [-101.85498, 20.13331]]]}}, {"id": "1281956", "type": "Feature", "properties": {"id": "1281956", "CVEGEO": "1606700280049019", "POBTOT": 0.0, "score_nse": 0.0, "NSE": null, "VIVTOT": 0.0, "GRAPROES": 0.0, "_ent": "16", "_mun": "067", "_loc": "0028"}, "geometry": {"type": "Polygon", "coordinates": [[[-101.85474, 20.13289], [-101.85445, 20.13311], [-101.85403, 20.13304], [-101.85396, 20.13353], [-101.85333, 20.13353], [-101.85323, 20.13392], [-101.85318, 20.13274], [-101.85294, 20.1317], [-101.85339, 20.13163], [-101.85349, 20.13239], [-101.85347, 20.13163], [-101.85467, 20.13166], [-101.85464, 20.13183], [-101.85436, 20.13184], [-101.85463, 20.13187], [-101.85462, 20.13231], [-101.85424, 20.13233], [-101.8542, 20.13205], [-101.85422, 20.13234], [-101.85387, 20.13237], [-101.8537, 20.13209], [-101.85378, 20.13241], [-101.8546, 20.13237], [-101.85474, 20.13289]]]}}, {"id": "1281957", "type": "Feature", "properties": {"id": "1281957", "CVEGEO": "1606700280049025", "POBTOT": 0.0, "score_nse": 0.0, "NSE": null, "VIVTOT": 0.0, "GRAPROES": 0.0, "_ent": "16", "_mun": "067", "_loc": "0028"}, "geometry": {"type": "Polygon", "coordinates": [[[-101.85689, 20.1307], [-101.85491, 20.12998], [-101.85496, 20.12899], [-101.85553, 20.12913], [-101.85713, 20.13029], [-101.85689, 20.1307]]]}}]}