{"type": "FeatureCollection", "features": [{"id": "1885645", "type": "Feature", "properties": {"id": "1885645", "CVEGEO": "2404900170327001", "POBTOT": 0.0, "score_nse": 0.0, "NSE": null, "VIVTOT": 0.0, "GRAPROES": 0.0, "_ent": "24", "_mun": "049", "_loc": "0017"}, "geometry": {"type": "Polygon", "coordinates": [[[-101.85697, 22.81463], [-101.85656, 22.81526], [-101.85556, 22.81505], [-101.85697, 22.81463]]]}}, {"id": "1885646", "type": "Feature", "properties": {"id": "1885646", "CVEGEO": "2404900170327006", "POBTOT": 0.0, "score_nse": 0.0, "NSE": null, "VIVTOT": 0.0, "GRAPROES": 0.0, "_ent": "24", "_mun": "049", "_loc": "0017"}, "geometry": {"type": "Polygon", "coordinates": [[[-101.85614, 22.81381], [-101.8563, 22.81332], [-101.8561, 22.81314], [-101.85622, 22.8129], [-101.85648, 22.81303], [-101.85716, 22.81225], [-101.85758, 22.81333], [-101.85732, 22.81368], [-101.85629, 22.81383], [-101.85614, 22.81381]]]}}, {"id": "1885647", "type": "Feature", "properties": {"id": "1885647", "CVEGEO": "2404900170327008", "POBTOT": 0.0, "score_nse": 0.0, "NSE": null, "VIVTOT": 0.0, "GRAPROES": 0.0, "_ent": "24", "_mun": "049", "_loc": "0017"}, "geometry": {"type": "Polygon", "coordinates": [[[-101.85836, 22.81512], [-101.85767, 22.81326], [-101.85793, 22.81317], [-101.85862, 22.81502], [-101.85836, 22.81512]]]}}, {"id": "1885648", "type": "Feature", "properties": {"id": "1885648", "CVEGEO": "2404900170327014", "POBTOT": 0.0, "score_nse": 0.0, "NSE": null, "VIVTOT": 0.0, "GRAPROES": 0.0, "_ent": "24", "_mun": "049", "_loc": "0017"}, "geometry": {"type": "Polygon", "coordinates": [[[-101.86012, 22.8153], [-101.8609, 22.81579], [-101.86056, 22.81631], [-101.85976, 22.81601], [-101.86012, 22.8153]]]}}, {"id": "1887087", "type": "Feature", "properties": {"id": "1887087", "CVEGEO": "2404900170327005", "POBTOT": 0.0, "score_nse": 0.0, "NSE": null, "VIVTOT": 0.0, "GRAPROES": 0.0, "_ent": "24", "_mun": "049", "_loc": "0017"}, "geometry": {"type": "Polygon", "coordinates": [[[-101.8568, 22.81512], [-101.85851, 22.81595], [-101.85829, 22.81665], [-101.85798, 22.81652], [-101.85766, 22.81613], [-101.85772, 22.816], [-101.85672, 22.81554], [-101.85655, 22.81582], [-101.85567, 22.81555], [-101.8558, 22.81531], [-101.85656, 22.81538], [-101.8568, 22.81512]]]}}, {"id": "1887088", "type": "Feature", "properties": {"id": "1887088", "CVEGEO": "2404900170327009", "POBTOT": 0.0, "score_nse": 0.0, "NSE": null, "VIVTOT": 0.0, "GRAPROES": 0.0, "_ent": "24", "_mun": "049", "_loc": "0017"}, "geometry": {"type": "Polygon", "coordinates": [[[-101.8585, 22.81552], [-101.85892, 22.81523], [-101.85923, 22.81551], [-101.85894, 22.81576], [-101.8585, 22.81552]]]}}, {"id": "1887089", "type": "Feature", "properties": {"id": "1887089", "CVEGEO": "2404900170327004", "POBTOT": 0.0, "score_nse": 0.0, "NSE": null, "VIVTOT": 0.0, "GRAPROES": 0.0, "_ent": "24", "_mun": "049", "_loc": "0017"}, "geometry": {"type": "Polygon", "coordinates": [[[-101.85838, 22.81564], [-101.85685, 22.81504], [-101.85699, 22.81468], [-101.85799, 22.81473], [-101.85838, 22.81564]]]}}, {"id": "1887090", "type": "Feature", "properties": {"id": "1887090", "CVEGEO": "2404900170327002", "POBTOT": 0.0, "score_nse": 0.0, "NSE": null, "VIVTOT": 0.0, "GRAPROES": 0.0, "_ent": "24", "_mun": "049", "_loc": "0017"}, "geometry": {"type": "Polygon", "coordinates": [[[-101.85667, 22.81466], [-101.85559, 22.81492], [-101.85542, 22.81496], [-101.85543, 22.81473], [-101.85582, 22.81447], [-101.85634, 22.81445], [-101.85667, 22.81466]]]}}, {"id": "1887091", "type": "Feature", "properties": {"id": "1887091", "CVEGEO": "2404900170327015", "POBTOT": 0.0, "score_nse": 0.0, "NSE": null, "VIVTOT": 0.0, "GRAPROES": 0.0, "_ent": "24", "_mun": "049", "_loc": "0017"}, "geometry": {"type": "Polygon", "coordinates": [[[-101.86031, 22.81671], [-101.86003, 22.81727], [-101.85942, 22.81699], [-101.85971, 22.81644], [-101.86031, 22.81671]]]}}, {"id": "1887092", "type": "Feature", "properties": {"id": "1887092", "CVEGEO": "2404900170327012", "POBTOT": 0.0, "score_nse": 0.0, "NSE": null, "VIVTOT": 0.0, "GRAPROES": 0.0, "_ent": "24", "_mun": "049", "_loc": "0017"}, "geometry": {"type": "Polygon", "coordinates": [[[-101.85932, 22.81701], [-101.8587, 22.8168], [-101.85884, 22.81606], [-101.85962, 22.8164], [-101.85932, 22.81701]]]}}, {"id": "1887133", "type": "Feature", "properties": {"id": "1887133", "CVEGEO": "2404900170327016", "POBTOT": 0.0, "score_nse": 0.0, "NSE": null, "VIVTOT": 0.0, "GRAPROES": 0.0, "_ent": "24", "_mun": "049", "_loc": "0017"}, "geometry": {"type": "Polygon", "coordinates": [[[-101.85363, 22.81818], [-101.85322, 22.81751], [-101.85304, 22.81737], [-101.85383, 22.81752], [-101.85363, 22.81818]]]}}, {"id": "1887276", "type": "Feature", "properties": {"id": "1887276", "CVEGEO": "2404900170327003", "POBTOT": 0.0, "score_nse": 0.0, "NSE": null, "VIVTOT": 0.0, "GRAPROES": 0.0, "_ent": "24", "_mun": "049", "_loc": "0017"}, "geometry": {"type": "Polygon", "coordinates": [[[-101.85743, 22.81379], [-101.85686, 22.8146], [-101.85588, 22.81434], [-101.85619, 22.81387], [-101.85743, 22.81379]]]}}, {"id": "1887291", "type": "Feature", "properties": {"id": "1887291", "CVEGEO": "2404900170327007", "POBTOT": 0.0, "score_nse": 0.0, "NSE": null, "VIVTOT": 0.0, "GRAPROES": 0.0, "_ent": "24", "_mun": "049", "_loc": "0017"}, "geometry": {"type": "Polygon", "coordinates": [[[-101.85798, 22.81451], [-101.85764, 22.81451], [-101.85732, 22.81428], [-101.85766, 22.81363], [-101.85798, 22.81451]]]}}]}