{"type": "FeatureCollection", "features": [{"id": "801613", "type": "Feature", "properties": {"id": "801613", "CVEGEO": "1205800240446058", "POBTOT": 0.0, "score_nse": 0.0, "NSE": null, "VIVTOT": 0.0, "GRAPROES": 0.0, "_ent": "12", "_mun": "058", "_loc": "0024"}, "geometry": {"type": "Polygon", "coordinates": [[[-99.81416, 18.28923], [-99.81388, 18.28923], [-99.81387, 18.28898], [-99.81414, 18.28891], [-99.81416, 18.28923]]]}}, {"id": "801727", "type": "Feature", "properties": {"id": "801727", "CVEGEO": "1205800240446084", "POBTOT": 0.0, "score_nse": 0.0, "NSE": null, "VIVTOT": 0.0, "GRAPROES": 0.0, "_ent": "12", "_mun": "058", "_loc": "0024"}, "geometry": {"type": "Polygon", "coordinates": [[[-99.81499, 18.294], [-99.81497, 18.29463], [-99.81429, 18.29425], [-99.81442, 18.29386], [-99.81511, 18.29391], [-99.81499, 18.294]]]}}, {"id": "801728", "type": "Feature", "properties": {"id": "801728", "CVEGEO": "1205800240446083", "POBTOT": 0.0, "score_nse": 0.0, "NSE": null, "VIVTOT": 0.0, "GRAPROES": 0.0, "_ent": "12", "_mun": "058", "_loc": "0024"}, "geometry": {"type": "Polygon", "coordinates": [[[-99.81521, 18.29427], [-99.81534, 18.29453], [-99.81529, 18.29475], [-99.81502, 18.29463], [-99.81502, 18.29428], [-99.81521, 18.29427]]]}}, {"id": "801729", "type": "Feature", "properties": {"id": "801729", "CVEGEO": "1205800240446082", "POBTOT": 0.0, "score_nse": 0.0, "NSE": null, "VIVTOT": 0.0, "GRAPROES": 0.0, "_ent": "12", "_mun": "058", "_loc": "0024"}, "geometry": {"type": "Polygon", "coordinates": [[[-99.81589, 18.2835], [-99.81719, 18.28475], [-99.81686, 18.28518], [-99.81649, 18.28454], [-99.8166, 18.28446], [-99.81646, 18.28449], [-99.81571, 18.28362], [-99.81589, 18.2835]]]}}, {"id": "801730", "type": "Feature", "properties": {"id": "801730", "CVEGEO": "1205800240446081", "POBTOT": 0.0, "score_nse": 0.0, "NSE": null, "VIVTOT": 0.0, "GRAPROES": 0.0, "_ent": "12", "_mun": "058", "_loc": "0024"}, "geometry": {"type": "Polygon", "coordinates": [[[-99.81603, 18.28455], [-99.81566, 18.28452], [-99.81586, 18.28389], [-99.81611, 18.28415], [-99.81603, 18.28455]]]}}, {"id": "801731", "type": "Feature", "properties": {"id": "801731", "CVEGEO": "1205800240446069", "POBTOT": 0.0, "score_nse": 0.0, "NSE": null, "VIVTOT": 0.0, "GRAPROES": 0.0, "_ent": "12", "_mun": "058", "_loc": "0024"}, "geometry": {"type": "Polygon", "coordinates": [[[-99.8162, 18.28425], [-99.8164, 18.28453], [-99.81662, 18.28489], [-99.81613, 18.28488], [-99.8162, 18.28425]]]}}, {"id": "801732", "type": "Feature", "properties": {"id": "801732", "CVEGEO": "1205800240446067", "POBTOT": 0.0, "score_nse": 0.0, "NSE": null, "VIVTOT": 0.0, "GRAPROES": 0.0, "_ent": "12", "_mun": "058", "_loc": "0024"}, "geometry": {"type": "Polygon", "coordinates": [[[-99.8152, 18.28451], [-99.81572, 18.28456], [-99.81573, 18.28507], [-99.81544, 18.2852], [-99.81494, 18.28488], [-99.8152, 18.28451]]]}}, {"id": "801733", "type": "Feature", "properties": {"id": "801733", "CVEGEO": "1205800240446066", "POBTOT": 0.0, "score_nse": 0.0, "NSE": null, "VIVTOT": 0.0, "GRAPROES": 0.0, "_ent": "12", "_mun": "058", "_loc": "0024"}, "geometry": {"type": "Polygon", "coordinates": [[[-99.8146, 18.28546], [-99.8149, 18.28494], [-99.81536, 18.28524], [-99.8152, 18.28568], [-99.8146, 18.28546]]]}}, {"id": "801734", "type": "Feature", "properties": {"id": "801734", "CVEGEO": "1205800240446065", "POBTOT": 0.0, "score_nse": 0.0, "NSE": null, "VIVTOT": 0.0, "GRAPROES": 0.0, "_ent": "12", "_mun": "058", "_loc": "0024"}, "geometry": {"type": "Polygon", "coordinates": [[[-99.81434, 18.28517], [-99.81478, 18.28499], [-99.81451, 18.28542], [-99.81431, 18.28534], [-99.81434, 18.28517]]]}}, {"id": "801735", "type": "Feature", "properties": {"id": "801735", "CVEGEO": "1205800240446064", "POBTOT": 0.0, "score_nse": 0.0, "NSE": null, "VIVTOT": 0.0, "GRAPROES": 0.0, "_ent": "12", "_mun": "058", "_loc": "0024"}, "geometry": {"type": "Polygon", "coordinates": [[[-99.81379, 18.28549], [-99.81407, 18.28537], [-99.81457, 18.28551], [-99.8148, 18.28573], [-99.81485, 18.28604], [-99.81436, 18.28641], [-99.81378, 18.28632], [-99.81379, 18.28549]]]}}, {"id": "801736", "type": "Feature", "properties": {"id": "801736", "CVEGEO": "1205800240446054", "POBTOT": 0.0, "score_nse": 0.0, "NSE": null, "VIVTOT": 0.0, "GRAPROES": 0.0, "_ent": "12", "_mun": "058", "_loc": "0024"}, "geometry": {"type": "Polygon", "coordinates": [[[-99.81829, 18.28512], [-99.81895, 18.28525], [-99.81889, 18.28551], [-99.81848, 18.28553], [-99.81861, 18.28575], [-99.81845, 18.28647], [-99.81829, 18.28644], [-99.81829, 18.28512]]]}}, {"id": "801737", "type": "Feature", "properties": {"id": "801737", "CVEGEO": "1205800240446053", "POBTOT": 0.0, "score_nse": 0.0, "NSE": null, "VIVTOT": 0.0, "GRAPROES": 0.0, "_ent": "12", "_mun": "058", "_loc": "0024"}, "geometry": {"type": "Polygon", "coordinates": [[[-99.81821, 18.28513], [-99.81828, 18.28576], [-99.81825, 18.28619], [-99.81779, 18.2858], [-99.81821, 18.28513]]]}}, {"id": "801738", "type": "Feature", "properties": {"id": "801738", "CVEGEO": "1205800240446052", "POBTOT": 0.0, "score_nse": 0.0, "NSE": null, "VIVTOT": 0.0, "GRAPROES": 0.0, "_ent": "12", "_mun": "058", "_loc": "0024"}, "geometry": {"type": "Polygon", "coordinates": [[[-99.81704, 18.28535], [-99.8174, 18.2851], [-99.81806, 18.2851], [-99.81806, 18.28539], [-99.81775, 18.28578], [-99.81704, 18.28535]]]}}, {"id": "801739", "type": "Feature", "properties": {"id": "801739", "CVEGEO": "1205800240446051", "POBTOT": 0.0, "score_nse": 0.0, "NSE": null, "VIVTOT": 0.0, "GRAPROES": 0.0, "_ent": "12", "_mun": "058", "_loc": "0024"}, "geometry": {"type": "Polygon", "coordinates": [[[-99.81685, 18.28547], [-99.81616, 18.28548], [-99.81613, 18.28493], [-99.81665, 18.28494], [-99.81689, 18.28532], [-99.81685, 18.28547]]]}}, {"id": "801740", "type": "Feature", "properties": {"id": "801740", "CVEGEO": "1205800240446050", "POBTOT": 0.0, "score_nse": 0.0, "NSE": null, "VIVTOT": 0.0, "GRAPROES": 0.0, "_ent": "12", "_mun": "058", "_loc": "0024"}, "geometry": {"type": "Polygon", "coordinates": [[[-99.81527, 18.28569], [-99.81541, 18.28529], [-99.81606, 18.28513], [-99.81608, 18.28551], [-99.81545, 18.28574], [-99.81527, 18.28569]]]}}, {"id": "801741", "type": "Feature", "properties": {"id": "801741", "CVEGEO": "1205800240446049", "POBTOT": 0.0, "score_nse": 0.0, "NSE": null, "VIVTOT": 0.0, "GRAPROES": 0.0, "_ent": "12", "_mun": "058", "_loc": "0024"}, "geometry": {"type": "Polygon", "coordinates": [[[-99.8155, 18.28623], [-99.81597, 18.28663], [-99.81542, 18.28695], [-99.81502, 18.28655], [-99.8148, 18.28562], [-99.81546, 18.28579], [-99.8155, 18.28623]]]}}, {"id": "801851", "type": "Feature", "properties": {"id": "801851", "CVEGEO": "1205800240446073", "POBTOT": 0.0, "score_nse": 0.0, "NSE": null, "VIVTOT": 0.0, "GRAPROES": 0.0, "_ent": "12", "_mun": "058", "_loc": "0024"}, "geometry": {"type": "Polygon", "coordinates": [[[-99.81339, 18.28899], [-99.81383, 18.28899], [-99.81383, 18.28921], [-99.81336, 18.28915], [-99.81339, 18.28899]]]}}, {"id": "801852", "type": "Feature", "properties": {"id": "801852", "CVEGEO": "1205800240446028", "POBTOT": 0.0, "score_nse": 0.0, "NSE": null, "VIVTOT": 0.0, "GRAPROES": 0.0, "_ent": "12", "_mun": "058", "_loc": "0024"}, "geometry": {"type": "Polygon", "coordinates": [[[-99.81788, 18.28801], [-99.81804, 18.2875], [-99.81859, 18.28766], [-99.81855, 18.28833], [-99.81788, 18.28801]]]}}, {"id": "801853", "type": "Feature", "properties": {"id": "801853", "CVEGEO": "1205800240446027", "POBTOT": 0.0, "score_nse": 0.0, "NSE": null, "VIVTOT": 0.0, "GRAPROES": 0.0, "_ent": "12", "_mun": "058", "_loc": "0024"}, "geometry": {"type": "Polygon", "coordinates": [[[-99.81754, 18.2872], [-99.81686, 18.28694], [-99.81697, 18.28636], [-99.8176, 18.28677], [-99.81754, 18.2872]]]}}, {"id": "801855", "type": "Feature", "properties": {"id": "801855", "CVEGEO": "1205800240446015", "POBTOT": 0.0, "score_nse": 0.0, "NSE": null, "VIVTOT": 0.0, "GRAPROES": 0.0, "_ent": "12", "_mun": "058", "_loc": "0024"}, "geometry": {"type": "Polygon", "coordinates": [[[-99.81814, 18.2869], [-99.81788, 18.28762], [-99.8178, 18.28797], [-99.81757, 18.2878], [-99.81765, 18.28679], [-99.81814, 18.2869]]]}}, {"id": "801869", "type": "Feature", "properties": {"id": "801869", "CVEGEO": "1205800240446042", "POBTOT": 0.0, "score_nse": 0.0, "NSE": null, "VIVTOT": 0.0, "GRAPROES": 0.0, "_ent": "12", "_mun": "058", "_loc": "0024"}, "geometry": {"type": "Polygon", "coordinates": [[[-99.81553, 18.2937], [-99.81547, 18.29313], [-99.81477, 18.29281], [-99.81524, 18.29129], [-99.81553, 18.29143], [-99.81527, 18.29125], [-99.81549, 18.2909], [-99.81606, 18.29117], [-99.81605, 18.29173], [-99.81651, 18.29195], [-99.81634, 18.29245], [-99.81566, 18.29281], [-99.81638, 18.29249], [-99.81656, 18.29199], [-99.81672, 18.2921], [-99.81664, 18.29252], [-99.81624, 18.29311], [-99.81553, 18.2937]]]}}, {"id": "801973", "type": "Feature", "properties": {"id": "801973", "CVEGEO": "1205800240446072", "POBTOT": 0.0, "score_nse": 0.0, "NSE": null, "VIVTOT": 0.0, "GRAPROES": 0.0, "_ent": "12", "_mun": "058", "_loc": "0024"}, "geometry": {"type": "Polygon", "coordinates": [[[-99.81521, 18.29422], [-99.81497, 18.29406], [-99.81517, 18.29392], [-99.81521, 18.29422]]]}}, {"id": "801974", "type": "Feature", "properties": {"id": "801974", "CVEGEO": "1205800240446071", "POBTOT": 0.0, "score_nse": 0.0, "NSE": null, "VIVTOT": 0.0, "GRAPROES": 0.0, "_ent": "12", "_mun": "058", "_loc": "0024"}, "geometry": {"type": "Polygon", "coordinates": [[[-99.81592, 18.2941], [-99.81588, 18.2946], [-99.81526, 18.29423], [-99.81522, 18.29391], [-99.81548, 18.29375], [-99.81592, 18.2941]]]}}, {"id": "801975", "type": "Feature", "properties": {"id": "801975", "CVEGEO": "1205800240446041", "POBTOT": 0.0, "score_nse": 0.0, "NSE": null, "VIVTOT": 0.0, "GRAPROES": 0.0, "_ent": "12", "_mun": "058", "_loc": "0024"}, "geometry": {"type": "Polygon", "coordinates": [[[-99.8182, 18.28702], [-99.81859, 18.28727], [-99.81859, 18.28761], [-99.81806, 18.28745], [-99.8182, 18.28702]]]}}, {"id": "801976", "type": "Feature", "properties": {"id": "801976", "CVEGEO": "1205800240446039", "POBTOT": 0.0, "score_nse": 0.0, "NSE": null, "VIVTOT": 0.0, "GRAPROES": 0.0, "_ent": "12", "_mun": "058", "_loc": "0024"}, "geometry": {"type": "Polygon", "coordinates": [[[-99.81823, 18.28627], [-99.81815, 18.28684], [-99.81766, 18.28673], [-99.81788, 18.28599], [-99.81823, 18.28627]]]}}, {"id": "801977", "type": "Feature", "properties": {"id": "801977", "CVEGEO": "1205800240446031", "POBTOT": 0.0, "score_nse": 0.0, "NSE": null, "VIVTOT": 0.0, "GRAPROES": 0.0, "_ent": "12", "_mun": "058", "_loc": "0024"}, "geometry": {"type": "Polygon", "coordinates": [[[-99.81512, 18.29108], [-99.81533, 18.29099], [-99.81504, 18.29149], [-99.81443, 18.29358], [-99.81427, 18.29344], [-99.81444, 18.29306], [-99.81409, 18.29252], [-99.81438, 18.29192], [-99.81461, 18.29199], [-99.8148, 18.291], [-99.81531, 18.29072], [-99.81564, 18.29019], [-99.81486, 18.29022], [-99.81493, 18.28999], [-99.81585, 18.28991], [-99.81597, 18.29009], [-99.81536, 18.29095], [-99.81512, 18.29108]]]}}, {"id": "801978", "type": "Feature", "properties": {"id": "801978", "CVEGEO": "1205800240446030", "POBTOT": 0.0, "score_nse": 0.0, "NSE": null, "VIVTOT": 0.0, "GRAPROES": 0.0, "_ent": "12", "_mun": "058", "_loc": "0024"}, "geometry": {"type": "Polygon", "coordinates": [[[-99.81583, 18.29044], [-99.81644, 18.29067], [-99.81595, 18.29105], [-99.81553, 18.29085], [-99.81583, 18.29044]]]}}, {"id": "801979", "type": "Feature", "properties": {"id": "801979", "CVEGEO": "1205800240446029", "POBTOT": 0.0, "score_nse": 0.0, "NSE": null, "VIVTOT": 0.0, "GRAPROES": 0.0, "_ent": "12", "_mun": "058", "_loc": "0024"}, "geometry": {"type": "Polygon", "coordinates": [[[-99.81694, 18.29025], [-99.81712, 18.29079], [-99.8167, 18.29203], [-99.81611, 18.2917], [-99.81611, 18.29113], [-99.816, 18.29108], [-99.81694, 18.29025]]]}}, {"id": "801980", "type": "Feature", "properties": {"id": "801980", "CVEGEO": "1205800240446009", "POBTOT": 0.0, "score_nse": 0.0, "NSE": null, "VIVTOT": 0.0, "GRAPROES": 0.0, "_ent": "12", "_mun": "058", "_loc": "0024"}, "geometry": {"type": "Polygon", "coordinates": [[[-99.81531, 18.28898], [-99.81615, 18.28901], [-99.81612, 18.28933], [-99.81583, 18.28983], [-99.81558, 18.28987], [-99.81523, 18.2891], [-99.81531, 18.28898]]]}}, {"id": "801981", "type": "Feature", "properties": {"id": "801981", "CVEGEO": "1205800240446008", "POBTOT": 0.0, "score_nse": 0.0, "NSE": null, "VIVTOT": 0.0, "GRAPROES": 0.0, "_ent": "12", "_mun": "058", "_loc": "0024"}, "geometry": {"type": "Polygon", "coordinates": [[[-99.81651, 18.28955], [-99.81601, 18.29002], [-99.81589, 18.28984], [-99.8162, 18.28901], [-99.81662, 18.28903], [-99.81651, 18.28955]]]}}, {"id": "801982", "type": "Feature", "properties": {"id": "801982", "CVEGEO": "1205800240446007", "POBTOT": 0.0, "score_nse": 0.0, "NSE": null, "VIVTOT": 0.0, "GRAPROES": 0.0, "_ent": "12", "_mun": "058", "_loc": "0024"}, "geometry": {"type": "Polygon", "coordinates": [[[-99.81717, 18.28906], [-99.81707, 18.28943], [-99.81644, 18.28974], [-99.81668, 18.28903], [-99.81717, 18.28906]]]}}, {"id": "801983", "type": "Feature", "properties": {"id": "801983", "CVEGEO": "1205800240446006", "POBTOT": 0.0, "score_nse": 0.0, "NSE": null, "VIVTOT": 0.0, "GRAPROES": 0.0, "_ent": "12", "_mun": "058", "_loc": "0024"}, "geometry": {"type": "Polygon", "coordinates": [[[-99.81719, 18.2883], [-99.81758, 18.28845], [-99.81719, 18.28901], [-99.81666, 18.28897], [-99.81669, 18.28853], [-99.81688, 18.28859], [-99.81719, 18.2883]]]}}, {"id": "802010", "type": "Feature", "properties": {"id": "802010", "CVEGEO": "1205800240446040", "POBTOT": 0.0, "score_nse": 0.0, "NSE": null, "VIVTOT": 0.0, "GRAPROES": 0.0, "_ent": "12", "_mun": "058", "_loc": "0024"}, "geometry": {"type": "Polygon", "coordinates": [[[-99.81828, 18.28649], [-99.81928, 18.28665], [-99.8186, 18.28718], [-99.81821, 18.28697], [-99.81828, 18.28649]]]}}, {"id": "802056", "type": "Feature", "properties": {"id": "802056", "CVEGEO": "1205800240446023", "POBTOT": 0.0, "score_nse": 0.0, "NSE": null, "VIVTOT": 0.0, "GRAPROES": 0.0, "_ent": "12", "_mun": "058", "_loc": "0024"}, "geometry": {"type": "Polygon", "coordinates": [[[-99.81541, 18.28793], [-99.81515, 18.28817], [-99.81489, 18.2881], [-99.81515, 18.28767], [-99.81541, 18.28793]]]}}, {"id": "802096", "type": "Feature", "properties": {"id": "802096", "CVEGEO": "1205800240446080", "POBTOT": 0.0, "score_nse": 0.0, "NSE": null, "VIVTOT": 0.0, "GRAPROES": 0.0, "_ent": "12", "_mun": "058", "_loc": "0024"}, "geometry": {"type": "Polygon", "coordinates": [[[-99.81581, 18.28384], [-99.8156, 18.28451], [-99.81526, 18.28449], [-99.81456, 18.28392], [-99.81557, 18.2834], [-99.81581, 18.28384]]]}}, {"id": "802103", "type": "Feature", "properties": {"id": "802103", "CVEGEO": "1205800240446038", "POBTOT": 0.0, "score_nse": 0.0, "NSE": null, "VIVTOT": 0.0, "GRAPROES": 0.0, "_ent": "12", "_mun": "058", "_loc": "0024"}, "geometry": {"type": "Polygon", "coordinates": [[[-99.81761, 18.2867], [-99.81693, 18.28577], [-99.81694, 18.28537], [-99.81785, 18.28593], [-99.81761, 18.2867]]]}}, {"id": "802104", "type": "Feature", "properties": {"id": "802104", "CVEGEO": "1205800240446037", "POBTOT": 0.0, "score_nse": 0.0, "NSE": null, "VIVTOT": 0.0, "GRAPROES": 0.0, "_ent": "12", "_mun": "058", "_loc": "0024"}, "geometry": {"type": "Polygon", "coordinates": [[[-99.81622, 18.28627], [-99.81616, 18.28554], [-99.81684, 18.28552], [-99.81726, 18.2864], [-99.81622, 18.28627]]]}}, {"id": "802105", "type": "Feature", "properties": {"id": "802105", "CVEGEO": "1205800240446035", "POBTOT": 0.0, "score_nse": 0.0, "NSE": null, "VIVTOT": 0.0, "GRAPROES": 0.0, "_ent": "12", "_mun": "058", "_loc": "0024"}, "geometry": {"type": "Polygon", "coordinates": [[[-99.81511, 18.28763], [-99.81484, 18.28809], [-99.81459, 18.28808], [-99.81485, 18.28751], [-99.81511, 18.28763]]]}}, {"id": "802106", "type": "Feature", "properties": {"id": "802106", "CVEGEO": "1205800240446033", "POBTOT": 0.0, "score_nse": 0.0, "NSE": null, "VIVTOT": 0.0, "GRAPROES": 0.0, "_ent": "12", "_mun": "058", "_loc": "0024"}, "geometry": {"type": "Polygon", "coordinates": [[[-99.81469, 18.28854], [-99.81516, 18.28882], [-99.81512, 18.28903], [-99.81474, 18.2889], [-99.81469, 18.28854]]]}}, {"id": "802107", "type": "Feature", "properties": {"id": "802107", "CVEGEO": "1205800240446032", "POBTOT": 0.0, "score_nse": 0.0, "NSE": null, "VIVTOT": 0.0, "GRAPROES": 0.0, "_ent": "12", "_mun": "058", "_loc": "0024"}, "geometry": {"type": "Polygon", "coordinates": [[[-99.81425, 18.28933], [-99.81479, 18.28919], [-99.81483, 18.28905], [-99.81519, 18.28913], [-99.81523, 18.28941], [-99.81499, 18.28945], [-99.8149, 18.2899], [-99.81428, 18.28963], [-99.81425, 18.28933]]]}}, {"id": "802108", "type": "Feature", "properties": {"id": "802108", "CVEGEO": "1205800240446022", "POBTOT": 0.0, "score_nse": 0.0, "NSE": null, "VIVTOT": 0.0, "GRAPROES": 0.0, "_ent": "12", "_mun": "058", "_loc": "0024"}, "geometry": {"type": "Polygon", "coordinates": [[[-99.81511, 18.28821], [-99.81488, 18.28856], [-99.8147, 18.28847], [-99.81445, 18.28816], [-99.81511, 18.28821]]]}}, {"id": "802109", "type": "Feature", "properties": {"id": "802109", "CVEGEO": "1205800240446021", "POBTOT": 0.0, "score_nse": 0.0, "NSE": null, "VIVTOT": 0.0, "GRAPROES": 0.0, "_ent": "12", "_mun": "058", "_loc": "0024"}, "geometry": {"type": "Polygon", "coordinates": [[[-99.81516, 18.28823], [-99.81561, 18.2887], [-99.81567, 18.28894], [-99.8153, 18.28893], [-99.81493, 18.28858], [-99.81516, 18.28823]]]}}, {"id": "802110", "type": "Feature", "properties": {"id": "802110", "CVEGEO": "1205800240446020", "POBTOT": 0.0, "score_nse": 0.0, "NSE": null, "VIVTOT": 0.0, "GRAPROES": 0.0, "_ent": "12", "_mun": "058", "_loc": "0024"}, "geometry": {"type": "Polygon", "coordinates": [[[-99.81526, 18.28945], [-99.81552, 18.28988], [-99.81494, 18.28991], [-99.81502, 18.28948], [-99.81526, 18.28945]]]}}, {"id": "802111", "type": "Feature", "properties": {"id": "802111", "CVEGEO": "1205800240446019", "POBTOT": 0.0, "score_nse": 0.0, "NSE": null, "VIVTOT": 0.0, "GRAPROES": 0.0, "_ent": "12", "_mun": "058", "_loc": "0024"}, "geometry": {"type": "Polygon", "coordinates": [[[-99.81662, 18.28979], [-99.81691, 18.29022], [-99.81652, 18.29064], [-99.81586, 18.29039], [-99.81624, 18.28987], [-99.81662, 18.28979]]]}}, {"id": "802112", "type": "Feature", "properties": {"id": "802112", "CVEGEO": "1205800240446018", "POBTOT": 0.0, "score_nse": 0.0, "NSE": null, "VIVTOT": 0.0, "GRAPROES": 0.0, "_ent": "12", "_mun": "058", "_loc": "0024"}, "geometry": {"type": "Polygon", "coordinates": [[[-99.8171, 18.2901], [-99.81695, 18.29015], [-99.81669, 18.28976], [-99.8171, 18.28951], [-99.8171, 18.2901]]]}}, {"id": "802113", "type": "Feature", "properties": {"id": "802113", "CVEGEO": "1205800240446017", "POBTOT": 0.0, "score_nse": 0.0, "NSE": null, "VIVTOT": 0.0, "GRAPROES": 0.0, "_ent": "12", "_mun": "058", "_loc": "0024"}, "geometry": {"type": "Polygon", "coordinates": [[[-99.81787, 18.28855], [-99.81752, 18.28913], [-99.81763, 18.28914], [-99.81752, 18.28961], [-99.81729, 18.28967], [-99.8173, 18.29001], [-99.81754, 18.29013], [-99.81717, 18.29022], [-99.81725, 18.28907], [-99.81766, 18.28848], [-99.81787, 18.28855]]]}}, {"id": "802114", "type": "Feature", "properties": {"id": "802114", "CVEGEO": "1205800240446016", "POBTOT": 0.0, "score_nse": 0.0, "NSE": null, "VIVTOT": 0.0, "GRAPROES": 0.0, "_ent": "12", "_mun": "058", "_loc": "0024"}, "geometry": {"type": "Polygon", "coordinates": [[[-99.81854, 18.28839], [-99.81842, 18.28866], [-99.81776, 18.28834], [-99.81787, 18.28806], [-99.81854, 18.28839]]]}}, {"id": "802115", "type": "Feature", "properties": {"id": "802115", "CVEGEO": "1205800240446004", "POBTOT": 0.0, "score_nse": 0.0, "NSE": null, "VIVTOT": 0.0, "GRAPROES": 0.0, "_ent": "12", "_mun": "058", "_loc": "0024"}, "geometry": {"type": "Polygon", "coordinates": [[[-99.81668, 18.28764], [-99.817, 18.28759], [-99.81694, 18.2878], [-99.81668, 18.28764]]]}}, {"id": "802116", "type": "Feature", "properties": {"id": "802116", "CVEGEO": "1205800240446003", "POBTOT": 0.0, "score_nse": 0.0, "NSE": null, "VIVTOT": 0.0, "GRAPROES": 0.0, "_ent": "12", "_mun": "058", "_loc": "0024"}, "geometry": {"type": "Polygon", "coordinates": [[[-99.81599, 18.28748], [-99.81668, 18.28773], [-99.81636, 18.28828], [-99.81609, 18.28816], [-99.816, 18.28831], [-99.8158, 18.28822], [-99.81599, 18.28748]]]}}, {"id": "802117", "type": "Feature", "properties": {"id": "802117", "CVEGEO": "1205800240446002", "POBTOT": 0.0, "score_nse": 0.0, "NSE": null, "VIVTOT": 0.0, "GRAPROES": 0.0, "_ent": "12", "_mun": "058", "_loc": "0024"}, "geometry": {"type": "Polygon", "coordinates": [[[-99.81664, 18.28846], [-99.81661, 18.28897], [-99.8162, 18.28896], [-99.81603, 18.28837], [-99.81611, 18.28822], [-99.81664, 18.28846]]]}}, {"id": "802118", "type": "Feature", "properties": {"id": "802118", "CVEGEO": "1205800240446001", "POBTOT": 0.0, "score_nse": 0.0, "NSE": null, "VIVTOT": 0.0, "GRAPROES": 0.0, "_ent": "12", "_mun": "058", "_loc": "0024"}, "geometry": {"type": "Polygon", "coordinates": [[[-99.81674, 18.28851], [-99.81641, 18.2883], [-99.81673, 18.28775], [-99.81716, 18.28827], [-99.81674, 18.28851]]]}}, {"id": "802125", "type": "Feature", "properties": {"id": "802125", "CVEGEO": "1205800240446036", "POBTOT": 0.0, "score_nse": 0.0, "NSE": null, "VIVTOT": 0.0, "GRAPROES": 0.0, "_ent": "12", "_mun": "058", "_loc": "0024"}, "geometry": {"type": "Polygon", "coordinates": [[[-99.81605, 18.28658], [-99.81549, 18.28614], [-99.81552, 18.28576], [-99.81608, 18.28556], [-99.81605, 18.28658]]]}}, {"id": "802406", "type": "Feature", "properties": {"id": "802406", "CVEGEO": "1205800240446048", "POBTOT": 0.0, "score_nse": 0.0, "NSE": null, "VIVTOT": 0.0, "GRAPROES": 0.0, "_ent": "12", "_mun": "058", "_loc": "0024"}, "geometry": {"type": "Polygon", "coordinates": [[[-99.81441, 18.28645], [-99.81486, 18.28609], [-99.81493, 18.28649], [-99.81473, 18.28669], [-99.81441, 18.28645]]]}}, {"id": "802439", "type": "Feature", "properties": {"id": "802439", "CVEGEO": "1205800240446070", "POBTOT": 0.0, "score_nse": 0.0, "NSE": null, "VIVTOT": 0.0, "GRAPROES": 0.0, "_ent": "12", "_mun": "058", "_loc": "0024"}, "geometry": {"type": "Polygon", "coordinates": [[[-99.81597, 18.29467], [-99.81604, 18.29427], [-99.81636, 18.29454], [-99.81612, 18.29476], [-99.81597, 18.29467]]]}}, {"id": "802440", "type": "Feature", "properties": {"id": "802440", "CVEGEO": "1205800240446005", "POBTOT": 0.0, "score_nse": 0.0, "NSE": null, "VIVTOT": 0.0, "GRAPROES": 0.0, "_ent": "12", "_mun": "058", "_loc": "0024"}, "geometry": {"type": "Polygon", "coordinates": [[[-99.81779, 18.28803], [-99.81763, 18.28839], [-99.81722, 18.28824], [-99.81698, 18.28783], [-99.81727, 18.28716], [-99.81753, 18.28725], [-99.81751, 18.28781], [-99.81779, 18.28803]]]}}, {"id": "802518", "type": "Feature", "properties": {"id": "802518", "CVEGEO": "1205800240446010", "POBTOT": 0.0, "score_nse": 0.0, "NSE": null, "VIVTOT": 0.0, "GRAPROES": 0.0, "_ent": "12", "_mun": "058", "_loc": "0024"}, "geometry": {"type": "Polygon", "coordinates": [[[-99.81591, 18.2883], [-99.81605, 18.28857], [-99.81615, 18.28896], [-99.81572, 18.28894], [-99.81557, 18.28853], [-99.81591, 18.2883]]]}}, {"id": "802648", "type": "Feature", "properties": {"id": "802648", "CVEGEO": "1205800240446078", "POBTOT": 0.0, "score_nse": 0.0, "NSE": null, "VIVTOT": 0.0, "GRAPROES": 0.0, "_ent": "12", "_mun": "058", "_loc": "0024"}, "geometry": {"type": "Polygon", "coordinates": [[[-99.81375, 18.28539], [-99.81372, 18.2864], [-99.81366, 18.28652], [-99.81328, 18.28637], [-99.81325, 18.28612], [-99.81345, 18.28544], [-99.81375, 18.28539]]]}}, {"id": "802649", "type": "Feature", "properties": {"id": "802649", "CVEGEO": "1205800240446076", "POBTOT": 0.0, "score_nse": 0.0, "NSE": null, "VIVTOT": 0.0, "GRAPROES": 0.0, "_ent": "12", "_mun": "058", "_loc": "0024"}, "geometry": {"type": "Polygon", "coordinates": [[[-99.81302, 18.28775], [-99.81306, 18.28809], [-99.81277, 18.28805], [-99.81276, 18.28766], [-99.81302, 18.28775]]]}}, {"id": "802650", "type": "Feature", "properties": {"id": "802650", "CVEGEO": "1205800240446075", "POBTOT": 0.0, "score_nse": 0.0, "NSE": null, "VIVTOT": 0.0, "GRAPROES": 0.0, "_ent": "12", "_mun": "058", "_loc": "0024"}, "geometry": {"type": "Polygon", "coordinates": [[[-99.81309, 18.28819], [-99.8136, 18.28824], [-99.81362, 18.28861], [-99.81288, 18.28844], [-99.81309, 18.28819]]]}}, {"id": "802651", "type": "Feature", "properties": {"id": "802651", "CVEGEO": "1205800240446026", "POBTOT": 0.0, "score_nse": 0.0, "NSE": null, "VIVTOT": 0.0, "GRAPROES": 0.0, "_ent": "12", "_mun": "058", "_loc": "0024"}, "geometry": {"type": "Polygon", "coordinates": [[[-99.81693, 18.28634], [-99.81677, 18.28661], [-99.81613, 18.28657], [-99.81621, 18.28632], [-99.81681, 18.28631], [-99.81693, 18.28634]]]}}, {"id": "802652", "type": "Feature", "properties": {"id": "802652", "CVEGEO": "1205800240446025", "POBTOT": 0.0, "score_nse": 0.0, "NSE": null, "VIVTOT": 0.0, "GRAPROES": 0.0, "_ent": "12", "_mun": "058", "_loc": "0024"}, "geometry": {"type": "Polygon", "coordinates": [[[-99.816, 18.28668], [-99.81586, 18.28739], [-99.81545, 18.28699], [-99.816, 18.28668]]]}}, {"id": "802653", "type": "Feature", "properties": {"id": "802653", "CVEGEO": "1205800240446024", "POBTOT": 0.0, "score_nse": 0.0, "NSE": null, "VIVTOT": 0.0, "GRAPROES": 0.0, "_ent": "12", "_mun": "058", "_loc": "0024"}, "geometry": {"type": "Polygon", "coordinates": [[[-99.81539, 18.28703], [-99.81581, 18.28745], [-99.81545, 18.28789], [-99.81489, 18.28747], [-99.81539, 18.28703]]]}}, {"id": "802685", "type": "Feature", "properties": {"id": "802685", "CVEGEO": "1205800240446079", "POBTOT": 0.0, "score_nse": 0.0, "NSE": null, "VIVTOT": 0.0, "GRAPROES": 0.0, "_ent": "12", "_mun": "058", "_loc": "0024"}, "geometry": {"type": "Polygon", "coordinates": [[[-99.81341, 18.28538], [-99.81337, 18.28462], [-99.8139, 18.28459], [-99.81425, 18.28533], [-99.81341, 18.28538]]]}}, {"id": "802687", "type": "Feature", "properties": {"id": "802687", "CVEGEO": "1205800240446044", "POBTOT": 0.0, "score_nse": 0.0, "NSE": null, "VIVTOT": 0.0, "GRAPROES": 0.0, "_ent": "12", "_mun": "058", "_loc": "0024"}, "geometry": {"type": "Polygon", "coordinates": [[[-99.8144, 18.28876], [-99.8146, 18.28885], [-99.81445, 18.28894], [-99.8144, 18.28876]]]}}, {"id": "802694", "type": "Feature", "properties": {"id": "802694", "CVEGEO": "1205800240446068", "POBTOT": 0.0, "score_nse": 0.0, "NSE": null, "VIVTOT": 0.0, "GRAPROES": 0.0, "_ent": "12", "_mun": "058", "_loc": "0024"}, "geometry": {"type": "Polygon", "coordinates": [[[-99.81603, 18.28465], [-99.81606, 18.28507], [-99.81578, 18.28507], [-99.81577, 18.28456], [-99.81603, 18.28465]]]}}, {"id": "802703", "type": "Feature", "properties": {"id": "802703", "CVEGEO": "1205800240446057", "POBTOT": 0.0, "score_nse": 0.0, "NSE": null, "VIVTOT": 0.0, "GRAPROES": 0.0, "_ent": "12", "_mun": "058", "_loc": "0024"}, "geometry": {"type": "Polygon", "coordinates": [[[-99.81501, 18.29387], [-99.81443, 18.29383], [-99.81475, 18.29288], [-99.81542, 18.29321], [-99.81547, 18.29371], [-99.81501, 18.29387]]]}}, {"id": "802704", "type": "Feature", "properties": {"id": "802704", "CVEGEO": "1205800240446056", "POBTOT": 0.0, "score_nse": 0.0, "NSE": null, "VIVTOT": 0.0, "GRAPROES": 0.0, "_ent": "12", "_mun": "058", "_loc": "0024"}, "geometry": {"type": "Polygon", "coordinates": [[[-99.81693, 18.29309], [-99.81673, 18.29353], [-99.8163, 18.29368], [-99.81603, 18.29414], [-99.8156, 18.29374], [-99.81638, 18.29298], [-99.81693, 18.29309]]]}}, {"id": "802706", "type": "Feature", "properties": {"id": "802706", "CVEGEO": "1205800240446055", "POBTOT": 0.0, "score_nse": 0.0, "NSE": null, "VIVTOT": 0.0, "GRAPROES": 0.0, "_ent": "12", "_mun": "058", "_loc": "0024"}, "geometry": {"type": "Polygon", "coordinates": [[[-99.81718, 18.29375], [-99.81642, 18.29449], [-99.81606, 18.29417], [-99.81636, 18.29368], [-99.81683, 18.29352], [-99.81697, 18.29309], [-99.8172, 18.29321], [-99.81718, 18.29375]]]}}, {"id": "802707", "type": "Feature", "properties": {"id": "802707", "CVEGEO": "1205800240446047", "POBTOT": 0.0, "score_nse": 0.0, "NSE": null, "VIVTOT": 0.0, "GRAPROES": 0.0, "_ent": "12", "_mun": "058", "_loc": "0024"}, "geometry": {"type": "Polygon", "coordinates": [[[-99.81494, 18.28655], [-99.81535, 18.28699], [-99.81483, 18.28745], [-99.81413, 18.28742], [-99.81428, 18.28683], [-99.81452, 18.28702], [-99.81494, 18.28655]]]}}, {"id": "802708", "type": "Feature", "properties": {"id": "802708", "CVEGEO": "1205800240446014", "POBTOT": 0.0, "score_nse": 0.0, "NSE": null, "VIVTOT": 0.0, "GRAPROES": 0.0, "_ent": "12", "_mun": "058", "_loc": "0024"}, "geometry": {"type": "Polygon", "coordinates": [[[-99.81691, 18.28754], [-99.81687, 18.28726], [-99.81686, 18.28699], [-99.81725, 18.28715], [-99.8171, 18.28758], [-99.81691, 18.28754]]]}}, {"id": "802709", "type": "Feature", "properties": {"id": "802709", "CVEGEO": "1205800240446013", "POBTOT": 0.0, "score_nse": 0.0, "NSE": null, "VIVTOT": 0.0, "GRAPROES": 0.0, "_ent": "12", "_mun": "058", "_loc": "0024"}, "geometry": {"type": "Polygon", "coordinates": [[[-99.81684, 18.28666], [-99.81687, 18.28753], [-99.81664, 18.28762], [-99.81595, 18.2874], [-99.81612, 18.2866], [-99.81684, 18.28666]]]}}, {"id": "802710", "type": "Feature", "properties": {"id": "802710", "CVEGEO": "1205800240446012", "POBTOT": 0.0, "score_nse": 0.0, "NSE": null, "VIVTOT": 0.0, "GRAPROES": 0.0, "_ent": "12", "_mun": "058", "_loc": "0024"}, "geometry": {"type": "Polygon", "coordinates": [[[-99.81593, 18.28748], [-99.81593, 18.28782], [-99.81575, 18.28819], [-99.81548, 18.28793], [-99.81593, 18.28748]]]}}, {"id": "802711", "type": "Feature", "properties": {"id": "802711", "CVEGEO": "1205800240446011", "POBTOT": 0.0, "score_nse": 0.0, "NSE": null, "VIVTOT": 0.0, "GRAPROES": 0.0, "_ent": "12", "_mun": "058", "_loc": "0024"}, "geometry": {"type": "Polygon", "coordinates": [[[-99.81554, 18.28849], [-99.8152, 18.28819], [-99.81544, 18.28796], [-99.81579, 18.28827], [-99.81554, 18.28849]]]}}, {"id": "803042", "type": "Feature", "properties": {"id": "803042", "CVEGEO": "1205800240446077", "POBTOT": 0.0, "score_nse": 0.0, "NSE": null, "VIVTOT": 0.0, "GRAPROES": 0.0, "_ent": "12", "_mun": "058", "_loc": "0024"}, "geometry": {"type": "Polygon", "coordinates": [[[-99.81376, 18.28758], [-99.81361, 18.28773], [-99.81314, 18.28759], [-99.81329, 18.28736], [-99.81306, 18.2868], [-99.81328, 18.28642], [-99.81365, 18.28656], [-99.81359, 18.28733], [-99.81376, 18.28758]]]}}, {"id": "803043", "type": "Feature", "properties": {"id": "803043", "CVEGEO": "1205800240446074", "POBTOT": 0.0, "score_nse": 0.0, "NSE": null, "VIVTOT": 0.0, "GRAPROES": 0.0, "_ent": "12", "_mun": "058", "_loc": "0024"}, "geometry": {"type": "Polygon", "coordinates": [[[-99.81383, 18.28895], [-99.813, 18.28883], [-99.81287, 18.28848], [-99.81366, 18.28866], [-99.81383, 18.28895]]]}}, {"id": "803044", "type": "Feature", "properties": {"id": "803044", "CVEGEO": "1205800240446043", "POBTOT": 0.0, "score_nse": 0.0, "NSE": null, "VIVTOT": 0.0, "GRAPROES": 0.0, "_ent": "12", "_mun": "058", "_loc": "0024"}, "geometry": {"type": "Polygon", "coordinates": [[[-99.81462, 18.28889], [-99.81475, 18.28915], [-99.81426, 18.28927], [-99.81423, 18.28906], [-99.81462, 18.28889]]]}}, {"id": "803045", "type": "Feature", "properties": {"id": "803045", "CVEGEO": "1205800240446059", "POBTOT": 0.0, "score_nse": 0.0, "NSE": null, "VIVTOT": 0.0, "GRAPROES": 0.0, "_ent": "12", "_mun": "058", "_loc": "0024"}, "geometry": {"type": "Polygon", "coordinates": [[[-99.81442, 18.28896], [-99.81425, 18.28901], [-99.81421, 18.28879], [-99.81436, 18.28876], [-99.81442, 18.28896]]]}}, {"id": "803046", "type": "Feature", "properties": {"id": "803046", "CVEGEO": "1205800240446045", "POBTOT": 0.0, "score_nse": 0.0, "NSE": null, "VIVTOT": 0.0, "GRAPROES": 0.0, "_ent": "12", "_mun": "058", "_loc": "0024"}, "geometry": {"type": "Polygon", "coordinates": [[[-99.81423, 18.28786], [-99.81453, 18.28869], [-99.81421, 18.28875], [-99.81423, 18.28786]]]}}, {"id": "803047", "type": "Feature", "properties": {"id": "803047", "CVEGEO": "1205800240446060", "POBTOT": 0.0, "score_nse": 0.0, "NSE": null, "VIVTOT": 0.0, "GRAPROES": 0.0, "_ent": "12", "_mun": "058", "_loc": "0024"}, "geometry": {"type": "Polygon", "coordinates": [[[-99.81418, 18.28771], [-99.81406, 18.28823], [-99.81368, 18.28815], [-99.81372, 18.28769], [-99.81418, 18.28771]]]}}, {"id": "803048", "type": "Feature", "properties": {"id": "803048", "CVEGEO": "1205800240446034", "POBTOT": 0.0, "score_nse": 0.0, "NSE": null, "VIVTOT": 0.0, "GRAPROES": 0.0, "_ent": "12", "_mun": "058", "_loc": "0024"}, "geometry": {"type": "Polygon", "coordinates": [[[-99.81464, 18.28766], [-99.81452, 18.28809], [-99.81442, 18.28811], [-99.81426, 18.28774], [-99.81464, 18.28766]]]}}, {"id": "803049", "type": "Feature", "properties": {"id": "803049", "CVEGEO": "1205800240446046", "POBTOT": 0.0, "score_nse": 0.0, "NSE": null, "VIVTOT": 0.0, "GRAPROES": 0.0, "_ent": "12", "_mun": "058", "_loc": "0024"}, "geometry": {"type": "Polygon", "coordinates": [[[-99.81478, 18.28749], [-99.81423, 18.28766], [-99.81418, 18.28747], [-99.81455, 18.28744], [-99.81478, 18.28749]]]}}, {"id": "803050", "type": "Feature", "properties": {"id": "803050", "CVEGEO": "1205800240446061", "POBTOT": 0.0, "score_nse": 0.0, "NSE": null, "VIVTOT": 0.0, "GRAPROES": 0.0, "_ent": "12", "_mun": "058", "_loc": "0024"}, "geometry": {"type": "Polygon", "coordinates": [[[-99.81359, 18.28821], [-99.8131, 18.28816], [-99.81316, 18.28765], [-99.81358, 18.28777], [-99.81359, 18.28821]]]}}, {"id": "803051", "type": "Feature", "properties": {"id": "803051", "CVEGEO": "1205800240446063", "POBTOT": 0.0, "score_nse": 0.0, "NSE": null, "VIVTOT": 0.0, "GRAPROES": 0.0, "_ent": "12", "_mun": "058", "_loc": "0024"}, "geometry": {"type": "Polygon", "coordinates": [[[-99.8147, 18.28673], [-99.81451, 18.28695], [-99.81425, 18.28675], [-99.81366, 18.28669], [-99.81389, 18.28636], [-99.81435, 18.28646], [-99.8147, 18.28673]]]}}, {"id": "803052", "type": "Feature", "properties": {"id": "803052", "CVEGEO": "1205800240446062", "POBTOT": 0.0, "score_nse": 0.0, "NSE": null, "VIVTOT": 0.0, "GRAPROES": 0.0, "_ent": "12", "_mun": "058", "_loc": "0024"}, "geometry": {"type": "Polygon", "coordinates": [[[-99.81416, 18.28687], [-99.81407, 18.28731], [-99.81366, 18.28721], [-99.81366, 18.28675], [-99.81416, 18.28687]]]}}, {"id": "803067", "type": "Feature", "properties": {"id": "803067", "CVEGEO": "1205800240446085", "POBTOT": 0.0, "score_nse": 0.0, "NSE": null, "VIVTOT": 0.0, "GRAPROES": 0.0, "_ent": "12", "_mun": "058", "_loc": "0024"}, "geometry": {"type": "Polygon", "coordinates": [[[-99.81414, 18.28887], [-99.8139, 18.28893], [-99.8137, 18.28822], [-99.81406, 18.28828], [-99.81414, 18.28887]]]}}, {"id": "803068", "type": "Feature", "properties": {"id": "803068", "CVEGEO": "1205800240446086", "POBTOT": 0.0, "score_nse": 0.0, "NSE": null, "VIVTOT": 0.0, "GRAPROES": 0.0, "_ent": "12", "_mun": "058", "_loc": "0024"}, "geometry": {"type": "Polygon", "coordinates": [[[-99.81407, 18.28736], [-99.81405, 18.28761], [-99.81368, 18.28743], [-99.81365, 18.28726], [-99.81407, 18.28736]]]}}]}