{"type": "FeatureCollection", "features": [{"id": "801845", "type": "Feature", "properties": {"id": "801845", "CVEGEO": "1205800410446009", "POBTOT": 0.0, "score_nse": 0.0, "NSE": null, "VIVTOT": 0.0, "GRAPROES": 0.0, "_ent": "12", "_mun": "058", "_loc": "0041"}, "geometry": {"type": "Polygon", "coordinates": [[[-99.82241, 18.32639], [-99.82256, 18.32606], [-99.82344, 18.32634], [-99.82322, 18.32695], [-99.82241, 18.32639]]]}}, {"id": "801846", "type": "Feature", "properties": {"id": "801846", "CVEGEO": "1205800410446008", "POBTOT": 0.0, "score_nse": 0.0, "NSE": null, "VIVTOT": 0.0, "GRAPROES": 0.0, "_ent": "12", "_mun": "058", "_loc": "0041"}, "geometry": {"type": "Polygon", "coordinates": [[[-99.82201, 18.32779], [-99.82235, 18.32648], [-99.82318, 18.32704], [-99.82293, 18.32793], [-99.82201, 18.32779]]]}}, {"id": "801874", "type": "Feature", "properties": {"id": "801874", "CVEGEO": "1205800410446007", "POBTOT": 0.0, "score_nse": 0.0, "NSE": null, "VIVTOT": 0.0, "GRAPROES": 0.0, "_ent": "12", "_mun": "058", "_loc": "0041"}, "geometry": {"type": "Polygon", "coordinates": [[[-99.82326, 18.32707], [-99.82387, 18.32737], [-99.82365, 18.32807], [-99.82299, 18.32797], [-99.82326, 18.32707]]]}}, {"id": "801945", "type": "Feature", "properties": {"id": "801945", "CVEGEO": "1205800410446027", "POBTOT": 0.0, "score_nse": 0.0, "NSE": null, "VIVTOT": 0.0, "GRAPROES": 0.0, "_ent": "12", "_mun": "058", "_loc": "0041"}, "geometry": {"type": "Polygon", "coordinates": [[[-99.8253, 18.32543], [-99.82594, 18.32387], [-99.82648, 18.32398], [-99.8262, 18.32524], [-99.82667, 18.3254], [-99.82663, 18.32553], [-99.82615, 18.3257], [-99.8253, 18.32543]]]}}, {"id": "801946", "type": "Feature", "properties": {"id": "801946", "CVEGEO": "1205800410446026", "POBTOT": 0.0, "score_nse": 0.0, "NSE": null, "VIVTOT": 0.0, "GRAPROES": 0.0, "_ent": "12", "_mun": "058", "_loc": "0041"}, "geometry": {"type": "Polygon", "coordinates": [[[-99.82571, 18.32265], [-99.8253, 18.32375], [-99.82404, 18.3231], [-99.82488, 18.32262], [-99.82571, 18.32265]]]}}, {"id": "801947", "type": "Feature", "properties": {"id": "801947", "CVEGEO": "1205800410446025", "POBTOT": 0.0, "score_nse": 0.0, "NSE": null, "VIVTOT": 0.0, "GRAPROES": 0.0, "_ent": "12", "_mun": "058", "_loc": "0041"}, "geometry": {"type": "Polygon", "coordinates": [[[-99.82349, 18.32438], [-99.82373, 18.32485], [-99.82349, 18.32526], [-99.82292, 18.3251], [-99.82311, 18.32411], [-99.82349, 18.32438]]]}}, {"id": "801948", "type": "Feature", "properties": {"id": "801948", "CVEGEO": "1205800410446023", "POBTOT": 0.0, "score_nse": 0.0, "NSE": null, "VIVTOT": 0.0, "GRAPROES": 0.0, "_ent": "12", "_mun": "058", "_loc": "0041"}, "geometry": {"type": "Polygon", "coordinates": [[[-99.82335, 18.32902], [-99.82261, 18.32918], [-99.82208, 18.32852], [-99.82341, 18.32876], [-99.82335, 18.32902]]]}}, {"id": "801949", "type": "Feature", "properties": {"id": "801949", "CVEGEO": "1205800410446021", "POBTOT": 0.0, "score_nse": 0.0, "NSE": null, "VIVTOT": 0.0, "GRAPROES": 0.0, "_ent": "12", "_mun": "058", "_loc": "0041"}, "geometry": {"type": "Polygon", "coordinates": [[[-99.82468, 18.32526], [-99.82501, 18.32422], [-99.82557, 18.32427], [-99.82524, 18.3254], [-99.82468, 18.32526]]]}}, {"id": "802052", "type": "Feature", "properties": {"id": "802052", "CVEGEO": "1205800410446022", "POBTOT": 0.0, "score_nse": 0.0, "NSE": null, "VIVTOT": 0.0, "GRAPROES": 0.0, "_ent": "12", "_mun": "058", "_loc": "0041"}, "geometry": {"type": "Polygon", "coordinates": [[[-99.82512, 18.32607], [-99.82531, 18.32551], [-99.82588, 18.3257], [-99.82574, 18.32618], [-99.82512, 18.32607]]]}}, {"id": "802358", "type": "Feature", "properties": {"id": "802358", "CVEGEO": "1205800410446020", "POBTOT": 0.0, "score_nse": 0.0, "NSE": null, "VIVTOT": 0.0, "GRAPROES": 0.0, "_ent": "12", "_mun": "058", "_loc": "0041"}, "geometry": {"type": "Polygon", "coordinates": [[[-99.82363, 18.32432], [-99.82316, 18.32397], [-99.82397, 18.32318], [-99.82527, 18.32383], [-99.82521, 18.32407], [-99.82488, 18.32418], [-99.82468, 18.32478], [-99.8244, 18.32473], [-99.82466, 18.32484], [-99.8246, 18.32523], [-99.8239, 18.325], [-99.82402, 18.32394], [-99.82382, 18.32471], [-99.82363, 18.32432]]]}}, {"id": "802359", "type": "Feature", "properties": {"id": "802359", "CVEGEO": "1205800410446019", "POBTOT": 0.0, "score_nse": 0.0, "NSE": null, "VIVTOT": 0.0, "GRAPROES": 0.0, "_ent": "12", "_mun": "058", "_loc": "0041"}, "geometry": {"type": "Polygon", "coordinates": [[[-99.82285, 18.32516], [-99.82351, 18.32534], [-99.82379, 18.32489], [-99.82387, 18.32513], [-99.82346, 18.32625], [-99.82252, 18.326], [-99.82285, 18.32516]]]}}, {"id": "802360", "type": "Feature", "properties": {"id": "802360", "CVEGEO": "1205800410446017", "POBTOT": 0.0, "score_nse": 0.0, "NSE": null, "VIVTOT": 0.0, "GRAPROES": 0.0, "_ent": "12", "_mun": "058", "_loc": "0041"}, "geometry": {"type": "Polygon", "coordinates": [[[-99.82207, 18.32848], [-99.82203, 18.32787], [-99.82291, 18.32801], [-99.82279, 18.32859], [-99.82207, 18.32848]]]}}, {"id": "802361", "type": "Feature", "properties": {"id": "802361", "CVEGEO": "1205800410446016", "POBTOT": 0.0, "score_nse": 0.0, "NSE": null, "VIVTOT": 0.0, "GRAPROES": 0.0, "_ent": "12", "_mun": "058", "_loc": "0041"}, "geometry": {"type": "Polygon", "coordinates": [[[-99.82343, 18.32871], [-99.82285, 18.32861], [-99.82298, 18.32803], [-99.82363, 18.32812], [-99.82343, 18.32871]]]}}, {"id": "802362", "type": "Feature", "properties": {"id": "802362", "CVEGEO": "1205800410446015", "POBTOT": 0.0, "score_nse": 0.0, "NSE": null, "VIVTOT": 0.0, "GRAPROES": 0.0, "_ent": "12", "_mun": "058", "_loc": "0041"}, "geometry": {"type": "Polygon", "coordinates": [[[-99.82501, 18.32881], [-99.82402, 18.32898], [-99.82338, 18.32913], [-99.82367, 18.32814], [-99.82398, 18.32817], [-99.82401, 18.32835], [-99.82402, 18.32817], [-99.82512, 18.32836], [-99.82501, 18.32881]]]}}, {"id": "802363", "type": "Feature", "properties": {"id": "802363", "CVEGEO": "1205800410446014", "POBTOT": 0.0, "score_nse": 0.0, "NSE": null, "VIVTOT": 0.0, "GRAPROES": 0.0, "_ent": "12", "_mun": "058", "_loc": "0041"}, "geometry": {"type": "Polygon", "coordinates": [[[-99.82508, 18.32879], [-99.82538, 18.32766], [-99.82633, 18.32778], [-99.82617, 18.32813], [-99.82586, 18.32818], [-99.82546, 18.32894], [-99.82508, 18.32879]]]}}, {"id": "802515", "type": "Feature", "properties": {"id": "802515", "CVEGEO": "1205800410446006", "POBTOT": 0.0, "score_nse": 0.0, "NSE": null, "VIVTOT": 0.0, "GRAPROES": 0.0, "_ent": "12", "_mun": "058", "_loc": "0041"}, "geometry": {"type": "Polygon", "coordinates": [[[-99.82368, 18.32808], [-99.82391, 18.32737], [-99.82467, 18.32761], [-99.82449, 18.3282], [-99.82368, 18.32808]]]}}, {"id": "802516", "type": "Feature", "properties": {"id": "802516", "CVEGEO": "1205800410446005", "POBTOT": 0.0, "score_nse": 0.0, "NSE": null, "VIVTOT": 0.0, "GRAPROES": 0.0, "_ent": "12", "_mun": "058", "_loc": "0041"}, "geometry": {"type": "Polygon", "coordinates": [[[-99.82453, 18.3282], [-99.82474, 18.32761], [-99.82528, 18.32769], [-99.82513, 18.32832], [-99.82453, 18.3282]]]}}, {"id": "802950", "type": "Feature", "properties": {"id": "802950", "CVEGEO": "1205800410446004", "POBTOT": 0.0, "score_nse": 0.0, "NSE": null, "VIVTOT": 0.0, "GRAPROES": 0.0, "_ent": "12", "_mun": "058", "_loc": "0041"}, "geometry": {"type": "Polygon", "coordinates": [[[-99.82553, 18.32672], [-99.82533, 18.32759], [-99.82477, 18.32756], [-99.82491, 18.32665], [-99.82553, 18.32672]]]}}, {"id": "802951", "type": "Feature", "properties": {"id": "802951", "CVEGEO": "1205800410446001", "POBTOT": 0.0, "score_nse": 0.0, "NSE": null, "VIVTOT": 0.0, "GRAPROES": 0.0, "_ent": "12", "_mun": "058", "_loc": "0041"}, "geometry": {"type": "Polygon", "coordinates": [[[-99.82479, 18.32685], [-99.82472, 18.32755], [-99.82396, 18.32733], [-99.82412, 18.32673], [-99.82479, 18.32685]]]}}, {"id": "802952", "type": "Feature", "properties": {"id": "802952", "CVEGEO": "1205800410446002", "POBTOT": 0.0, "score_nse": 0.0, "NSE": null, "VIVTOT": 0.0, "GRAPROES": 0.0, "_ent": "12", "_mun": "058", "_loc": "0041"}, "geometry": {"type": "Polygon", "coordinates": [[[-99.82418, 18.32635], [-99.8239, 18.32729], [-99.82329, 18.32699], [-99.82352, 18.32636], [-99.82418, 18.32635]]]}}, {"id": "802953", "type": "Feature", "properties": {"id": "802953", "CVEGEO": "1205800410446010", "POBTOT": 0.0, "score_nse": 0.0, "NSE": null, "VIVTOT": 0.0, "GRAPROES": 0.0, "_ent": "12", "_mun": "058", "_loc": "0041"}, "geometry": {"type": "Polygon", "coordinates": [[[-99.82453, 18.32531], [-99.8242, 18.32631], [-99.82354, 18.32627], [-99.82395, 18.32511], [-99.82453, 18.32531]]]}}, {"id": "802954", "type": "Feature", "properties": {"id": "802954", "CVEGEO": "1205800410446003", "POBTOT": 0.0, "score_nse": 0.0, "NSE": null, "VIVTOT": 0.0, "GRAPROES": 0.0, "_ent": "12", "_mun": "058", "_loc": "0041"}, "geometry": {"type": "Polygon", "coordinates": [[[-99.82486, 18.32646], [-99.8248, 18.32671], [-99.82417, 18.32663], [-99.82424, 18.32635], [-99.82486, 18.32646]]]}}, {"id": "802955", "type": "Feature", "properties": {"id": "802955", "CVEGEO": "1205800410446011", "POBTOT": 0.0, "score_nse": 0.0, "NSE": null, "VIVTOT": 0.0, "GRAPROES": 0.0, "_ent": "12", "_mun": "058", "_loc": "0041"}, "geometry": {"type": "Polygon", "coordinates": [[[-99.82525, 18.3255], [-99.82492, 18.32635], [-99.82428, 18.32622], [-99.8246, 18.32532], [-99.82525, 18.3255]]]}}, {"id": "802956", "type": "Feature", "properties": {"id": "802956", "CVEGEO": "1205800410446012", "POBTOT": 0.0, "score_nse": 0.0, "NSE": null, "VIVTOT": 0.0, "GRAPROES": 0.0, "_ent": "12", "_mun": "058", "_loc": "0041"}, "geometry": {"type": "Polygon", "coordinates": [[[-99.82569, 18.32624], [-99.82555, 18.32665], [-99.82495, 18.3266], [-99.82511, 18.32612], [-99.82569, 18.32624]]]}}]}