{"type": "FeatureCollection", "features": [{"id": "802941", "type": "Feature", "properties": {"id": "802941", "CVEGEO": "1205801430450002", "POBTOT": 0.0, "score_nse": 0.0, "NSE": null, "VIVTOT": 0.0, "GRAPROES": 0.0, "_ent": "12", "_mun": "058", "_loc": "0143"}, "geometry": {"type": "Polygon", "coordinates": [[[-99.66126, 18.34596], [-99.66096, 18.34626], [-99.65972, 18.34641], [-99.65861, 18.34576], [-99.66034, 18.34539], [-99.66126, 18.34596]]]}}, {"id": "802942", "type": "Feature", "properties": {"id": "802942", "CVEGEO": "1205801430450001", "POBTOT": 0.0, "score_nse": 0.0, "NSE": null, "VIVTOT": 0.0, "GRAPROES": 0.0, "_ent": "12", "_mun": "058", "_loc": "0143"}, "geometry": {"type": "Polygon", "coordinates": [[[-99.66258, 18.34665], [-99.66251, 18.34744], [-99.66198, 18.34758], [-99.66097, 18.34828], [-99.6603, 18.34743], [-99.65982, 18.34646], [-99.66098, 18.3463], [-99.66131, 18.34597], [-99.66258, 18.34665]]]}}]}