{"type": "FeatureCollection", "features": [{"id": "802258", "type": "Feature", "properties": {"id": "802258", "CVEGEO": "1205801790412002", "POBTOT": 0.0, "score_nse": 0.0, "NSE": null, "VIVTOT": 0.0, "GRAPROES": 0.0, "_ent": "12", "_mun": "058", "_loc": "0179"}, "geometry": {"type": "Polygon", "coordinates": [[[-100.02493, 18.39206], [-100.02529, 18.39078], [-100.02576, 18.39145], [-100.0266, 18.39172], [-100.02635, 18.39252], [-100.02606, 18.39241], [-100.02522, 18.39247], [-100.02502, 18.39257], [-100.02502, 18.39282], [-100.02457, 18.39255], [-100.02493, 18.39206]]]}}, {"id": "802259", "type": "Feature", "properties": {"id": "802259", "CVEGEO": "1205801790412001", "POBTOT": 0.0, "score_nse": 0.0, "NSE": null, "VIVTOT": 0.0, "GRAPROES": 0.0, "_ent": "12", "_mun": "058", "_loc": "0179"}, "geometry": {"type": "Polygon", "coordinates": [[[-100.02584, 18.39347], [-100.02507, 18.39288], [-100.0251, 18.39265], [-100.02592, 18.3925], [-100.02636, 18.39265], [-100.02627, 18.39307], [-100.026, 18.39301], [-100.02626, 18.3931], [-100.0261, 18.39341], [-100.02584, 18.39347]]]}}, {"id": "802457", "type": "Feature", "properties": {"id": "802457", "CVEGEO": "1205801790412004", "POBTOT": 0.0, "score_nse": 0.0, "NSE": null, "VIVTOT": 0.0, "GRAPROES": 0.0, "_ent": "12", "_mun": "058", "_loc": "0179"}, "geometry": {"type": "Polygon", "coordinates": [[[-100.02706, 18.39161], [-100.02833, 18.39308], [-100.02776, 18.39348], [-100.0271, 18.39319], [-100.02681, 18.39287], [-100.02703, 18.39318], [-100.02683, 18.39318], [-100.02639, 18.39359], [-100.02612, 18.39354], [-100.02676, 18.39146], [-100.02706, 18.39161]]]}}, {"id": "802458", "type": "Feature", "properties": {"id": "802458", "CVEGEO": "1205801790412003", "POBTOT": 0.0, "score_nse": 0.0, "NSE": null, "VIVTOT": 0.0, "GRAPROES": 0.0, "_ent": "12", "_mun": "058", "_loc": "0179"}, "geometry": {"type": "Polygon", "coordinates": [[[-100.02665, 18.39162], [-100.02585, 18.39135], [-100.02579, 18.39102], [-100.0265, 18.39047], [-100.02665, 18.39162]]]}}]}