{"type": "FeatureCollection", "features": [{"id": "1108052", "type": "Feature", "properties": {"id": "1108052", "CVEGEO": "1504800870227007", "POBTOT": 0.0, "score_nse": 0.0, "NSE": null, "VIVTOT": 0.0, "GRAPROES": 0.0, "_ent": "15", "_mun": "048", "_loc": "0087"}, "geometry": {"type": "Polygon", "coordinates": [[[-99.72593, 19.64686], [-99.72614, 19.64626], [-99.72641, 19.64612], [-99.72754, 19.64669], [-99.72762, 19.64729], [-99.72633, 19.64766], [-99.72629, 19.64701], [-99.72593, 19.64686]]]}}, {"id": "1108053", "type": "Feature", "properties": {"id": "1108053", "CVEGEO": "1504800870227005", "POBTOT": 0.0, "score_nse": 0.0, "NSE": null, "VIVTOT": 0.0, "GRAPROES": 0.0, "_ent": "15", "_mun": "048", "_loc": "0087"}, "geometry": {"type": "Polygon", "coordinates": [[[-99.72131, 19.65149], [-99.72801, 19.65113], [-99.72826, 19.65297], [-99.72713, 19.65304], [-99.72688, 19.65289], [-99.72709, 19.65276], [-99.72682, 19.6529], [-99.72712, 19.6531], [-99.72826, 19.65305], [-99.72857, 19.65537], [-99.72643, 19.65691], [-99.72632, 19.65485], [-99.72539, 19.65485], [-99.72523, 19.65217], [-99.72138, 19.65236], [-99.72131, 19.65149]]]}}, {"id": "1108054", "type": "Feature", "properties": {"id": "1108054", "CVEGEO": "1504800870227004", "POBTOT": 0.0, "score_nse": 0.0, "NSE": null, "VIVTOT": 0.0, "GRAPROES": 0.0, "_ent": "15", "_mun": "048", "_loc": "0087"}, "geometry": {"type": "Polygon", "coordinates": [[[-99.72585, 19.64681], [-99.72618, 19.64702], [-99.72615, 19.64764], [-99.72627, 19.64775], [-99.72762, 19.64742], [-99.728, 19.65105], [-99.72329, 19.65134], [-99.72307, 19.6496], [-99.72245, 19.64957], [-99.72193, 19.64874], [-99.72098, 19.64785], [-99.72099, 19.64562], [-99.72364, 19.64473], [-99.72622, 19.646], [-99.72585, 19.64681]]]}}, {"id": "1108393", "type": "Feature", "properties": {"id": "1108393", "CVEGEO": "1504800870227002", "POBTOT": 0.0, "score_nse": 0.0, "NSE": null, "VIVTOT": 0.0, "GRAPROES": 0.0, "_ent": "15", "_mun": "048", "_loc": "0087"}, "geometry": {"type": "Polygon", "coordinates": [[[-99.71557, 19.65077], [-99.71537, 19.64813], [-99.71818, 19.64797], [-99.71835, 19.64884], [-99.71827, 19.64798], [-99.72103, 19.64801], [-99.72118, 19.65052], [-99.71557, 19.65077]]]}}, {"id": "1108681", "type": "Feature", "properties": {"id": "1108681", "CVEGEO": "1504800870227001", "POBTOT": 0.0, "score_nse": 0.0, "NSE": null, "VIVTOT": 0.0, "GRAPROES": 0.0, "_ent": "15", "_mun": "048", "_loc": "0087"}, "geometry": {"type": "Polygon", "coordinates": [[[-99.72131, 19.65144], [-99.72116, 19.64812], [-99.72195, 19.64889], [-99.72244, 19.64963], [-99.72303, 19.64966], [-99.72316, 19.65134], [-99.72131, 19.65144]]]}}, {"id": "1108764", "type": "Feature", "properties": {"id": "1108764", "CVEGEO": "1504800870227006", "POBTOT": 0.0, "score_nse": 0.0, "NSE": null, "VIVTOT": 0.0, "GRAPROES": 0.0, "_ent": "15", "_mun": "048", "_loc": "0087"}, "geometry": {"type": "Polygon", "coordinates": [[[-99.72871, 19.65527], [-99.72762, 19.64675], [-99.72969, 19.64781], [-99.73005, 19.65436], [-99.72871, 19.65527]]]}}]}