{"type": "FeatureCollection", "features": [{"id": "830709", "type": "Feature", "properties": {"id": "830709", "CVEGEO": "1301600110027016", "POBTOT": 0.0, "score_nse": 0.0, "NSE": null, "VIVTOT": 0.0, "GRAPROES": 0.0, "_ent": "13", "_mun": "016", "_loc": "0011"}, "geometry": {"type": "Polygon", "coordinates": [[[-98.20323, 20.07256], [-98.20318, 20.07332], [-98.20247, 20.07422], [-98.20184, 20.07347], [-98.20323, 20.07256]]]}}, {"id": "830710", "type": "Feature", "properties": {"id": "830710", "CVEGEO": "1301600110027012", "POBTOT": 0.0, "score_nse": 0.0, "NSE": null, "VIVTOT": 0.0, "GRAPROES": 0.0, "_ent": "13", "_mun": "016", "_loc": "0011"}, "geometry": {"type": "Polygon", "coordinates": [[[-98.19916, 20.07642], [-98.19748, 20.07479], [-98.198, 20.07444], [-98.19827, 20.07402], [-98.20035, 20.0742], [-98.2018, 20.07349], [-98.20244, 20.07425], [-98.20106, 20.0759], [-98.20024, 20.07646], [-98.19953, 20.07647], [-98.19938, 20.07692], [-98.19916, 20.07642]]]}}, {"id": "830758", "type": "Feature", "properties": {"id": "830758", "CVEGEO": "1301600110027008", "POBTOT": 0.0, "score_nse": 0.0, "NSE": null, "VIVTOT": 0.0, "GRAPROES": 0.0, "_ent": "13", "_mun": "016", "_loc": "0011"}, "geometry": {"type": "Polygon", "coordinates": [[[-98.2112, 20.05442], [-98.20915, 20.05752], [-98.20871, 20.05781], [-98.20829, 20.05685], [-98.20807, 20.05532], [-98.2112, 20.05442]]]}}, {"id": "830759", "type": "Feature", "properties": {"id": "830759", "CVEGEO": "1301600110027007", "POBTOT": 0.0, "score_nse": 0.0, "NSE": null, "VIVTOT": 0.0, "GRAPROES": 0.0, "_ent": "13", "_mun": "016", "_loc": "0011"}, "geometry": {"type": "Polygon", "coordinates": [[[-98.20297, 20.06326], [-98.20615, 20.06337], [-98.20555, 20.06573], [-98.20458, 20.06694], [-98.20407, 20.06734], [-98.20326, 20.06538], [-98.20297, 20.06326]]]}}, {"id": "831125", "type": "Feature", "properties": {"id": "831125", "CVEGEO": "1301600110027001", "POBTOT": 0.0, "score_nse": 0.0, "NSE": null, "VIVTOT": 0.0, "GRAPROES": 0.0, "_ent": "13", "_mun": "016", "_loc": "0011"}, "geometry": {"type": "Polygon", "coordinates": [[[-98.20321, 20.06216], [-98.20179, 20.06181], [-98.20187, 20.06128], [-98.20281, 20.06003], [-98.20363, 20.06004], [-98.20279, 20.05997], [-98.20293, 20.05877], [-98.20336, 20.05823], [-98.20332, 20.05775], [-98.20467, 20.05753], [-98.20632, 20.06223], [-98.20321, 20.06216]]]}}, {"id": "831193", "type": "Feature", "properties": {"id": "831193", "CVEGEO": "1301600110027005", "POBTOT": 0.0, "score_nse": 0.0, "NSE": null, "VIVTOT": 0.0, "GRAPROES": 0.0, "_ent": "13", "_mun": "016", "_loc": "0011"}, "geometry": {"type": "Polygon", "coordinates": [[[-98.2029, 20.06379], [-98.20203, 20.06194], [-98.20268, 20.06216], [-98.20432, 20.06233], [-98.20622, 20.06228], [-98.2067, 20.06248], [-98.20617, 20.06332], [-98.20298, 20.06315], [-98.2029, 20.06379]]]}}, {"id": "831260", "type": "Feature", "properties": {"id": "831260", "CVEGEO": "1301600110027017", "POBTOT": 0.0, "score_nse": 0.0, "NSE": null, "VIVTOT": 0.0, "GRAPROES": 0.0, "_ent": "13", "_mun": "016", "_loc": "0011"}, "geometry": {"type": "Polygon", "coordinates": [[[-98.20788, 20.06014], [-98.20846, 20.06041], [-98.2083, 20.061], [-98.20768, 20.06173], [-98.20694, 20.06225], [-98.20788, 20.06014]]]}}, {"id": "831261", "type": "Feature", "properties": {"id": "831261", "CVEGEO": "1301600110027015", "POBTOT": 0.0, "score_nse": 0.0, "NSE": null, "VIVTOT": 0.0, "GRAPROES": 0.0, "_ent": "13", "_mun": "016", "_loc": "0011"}, "geometry": {"type": "Polygon", "coordinates": [[[-98.1983, 20.07731], [-98.19937, 20.077], [-98.19944, 20.07718], [-98.19961, 20.07731], [-98.19941, 20.07699], [-98.19948, 20.07681], [-98.2013, 20.0772], [-98.20191, 20.07802], [-98.2019, 20.07852], [-98.20102, 20.07924], [-98.20027, 20.07961], [-98.19973, 20.07879], [-98.19933, 20.07862], [-98.19892, 20.07784], [-98.19846, 20.07755], [-98.1983, 20.07731]]]}}, {"id": "831262", "type": "Feature", "properties": {"id": "831262", "CVEGEO": "1301600110027013", "POBTOT": 0.0, "score_nse": 0.0, "NSE": null, "VIVTOT": 0.0, "GRAPROES": 0.0, "_ent": "13", "_mun": "016", "_loc": "0011"}, "geometry": {"type": "Polygon", "coordinates": [[[-98.20079, 20.07699], [-98.19949, 20.07677], [-98.19953, 20.07653], [-98.20017, 20.07655], [-98.20099, 20.076], [-98.20203, 20.07476], [-98.20164, 20.0761], [-98.20174, 20.07648], [-98.20153, 20.07732], [-98.20079, 20.07699]]]}}, {"id": "831309", "type": "Feature", "properties": {"id": "831309", "CVEGEO": "1301600110027011", "POBTOT": 0.0, "score_nse": 0.0, "NSE": null, "VIVTOT": 0.0, "GRAPROES": 0.0, "_ent": "13", "_mun": "016", "_loc": "0011"}, "geometry": {"type": "Polygon", "coordinates": [[[-98.20524, 20.07024], [-98.20462, 20.07008], [-98.20398, 20.0694], [-98.20379, 20.06834], [-98.20417, 20.06735], [-98.20428, 20.06728], [-98.2047, 20.06758], [-98.20484, 20.0676], [-98.20432, 20.06725], [-98.20567, 20.06559], [-98.20541, 20.06636], [-98.20549, 20.06701], [-98.20545, 20.06637], [-98.20597, 20.06451], [-98.20721, 20.06565], [-98.2074, 20.06614], [-98.20737, 20.06656], [-98.20746, 20.06639], [-98.20738, 20.06589], [-98.20832, 20.06688], [-98.20886, 20.06717], [-98.20676, 20.06875], [-98.20556, 20.07011], [-98.20524, 20.07024]]]}}, {"id": "831310", "type": "Feature", "properties": {"id": "831310", "CVEGEO": "1301600110027010", "POBTOT": 0.0, "score_nse": 0.0, "NSE": null, "VIVTOT": 0.0, "GRAPROES": 0.0, "_ent": "13", "_mun": "016", "_loc": "0011"}, "geometry": {"type": "Polygon", "coordinates": [[[-98.20808, 20.06556], [-98.20738, 20.06582], [-98.20596, 20.06442], [-98.20606, 20.06368], [-98.20667, 20.06265], [-98.20857, 20.0645], [-98.21005, 20.06527], [-98.211, 20.06643], [-98.20893, 20.06714], [-98.20841, 20.0669], [-98.20755, 20.06609], [-98.20747, 20.06588], [-98.20808, 20.06556]]]}}, {"id": "831485", "type": "Feature", "properties": {"id": "831485", "CVEGEO": "1301600110027009", "POBTOT": 0.0, "score_nse": 0.0, "NSE": null, "VIVTOT": 0.0, "GRAPROES": 0.0, "_ent": "13", "_mun": "016", "_loc": "0011"}, "geometry": {"type": "Polygon", "coordinates": [[[-98.21352, 20.05335], [-98.21249, 20.05476], [-98.21245, 20.05502], [-98.20932, 20.05739], [-98.21141, 20.05431], [-98.21352, 20.05335]]]}}, {"id": "831914", "type": "Feature", "properties": {"id": "831914", "CVEGEO": "1301600110027003", "POBTOT": 0.0, "score_nse": 0.0, "NSE": null, "VIVTOT": 0.0, "GRAPROES": 0.0, "_ent": "13", "_mun": "016", "_loc": "0011"}, "geometry": {"type": "Polygon", "coordinates": [[[-98.20472, 20.0575], [-98.20426, 20.0575], [-98.2075, 20.05539], [-98.20803, 20.05533], [-98.20825, 20.05687], [-98.20793, 20.05706], [-98.2075, 20.05746], [-98.20829, 20.05693], [-98.20873, 20.05793], [-98.20709, 20.06182], [-98.20668, 20.06242], [-98.20637, 20.06223], [-98.20472, 20.0575]]]}}, {"id": "832099", "type": "Feature", "properties": {"id": "832099", "CVEGEO": "1301600110027019", "POBTOT": 0.0, "score_nse": 0.0, "NSE": null, "VIVTOT": 0.0, "GRAPROES": 0.0, "_ent": "13", "_mun": "016", "_loc": "0011"}, "geometry": {"type": "Polygon", "coordinates": [[[-98.19929, 20.07872], [-98.1986, 20.07935], [-98.19776, 20.0797], [-98.19729, 20.07955], [-98.19678, 20.07997], [-98.1961, 20.07983], [-98.19567, 20.07924], [-98.19683, 20.07857], [-98.19829, 20.07738], [-98.19886, 20.07788], [-98.19929, 20.07872]]]}}, {"id": "832104", "type": "Feature", "properties": {"id": "832104", "CVEGEO": "1301600110027024", "POBTOT": 0.0, "score_nse": 0.0, "NSE": null, "VIVTOT": 0.0, "GRAPROES": 0.0, "_ent": "13", "_mun": "016", "_loc": "0011"}, "geometry": {"type": "Polygon", "coordinates": [[[-98.19773, 20.07974], [-98.19714, 20.08038], [-98.19646, 20.08054], [-98.19595, 20.07976], [-98.19678, 20.08], [-98.1974, 20.07956], [-98.19773, 20.07974]]]}}]}