{"type": "FeatureCollection", "features": [{"id": "1574612", "type": "Feature", "properties": {"id": "1574612", "CVEGEO": "2049000080011001", "POBTOT": 0.0, "score_nse": 0.0, "NSE": null, "VIVTOT": 0.0, "GRAPROES": 0.0, "_ent": "20", "_mun": "490", "_loc": "0008"}, "geometry": {"type": "Polygon", "coordinates": [[[-96.95406, 18.21632], [-96.95369, 18.21652], [-96.95329, 18.21688], [-96.95353, 18.21587], [-96.95434, 18.21585], [-96.95406, 18.21632]]]}}, {"id": "1574613", "type": "Feature", "properties": {"id": "1574613", "CVEGEO": "2049000080011008", "POBTOT": 0.0, "score_nse": 0.0, "NSE": null, "VIVTOT": 0.0, "GRAPROES": 0.0, "_ent": "20", "_mun": "490", "_loc": "0008"}, "geometry": {"type": "Polygon", "coordinates": [[[-96.95379, 18.21338], [-96.95355, 18.21443], [-96.95282, 18.21445], [-96.95379, 18.21338]]]}}, {"id": "1574614", "type": "Feature", "properties": {"id": "1574614", "CVEGEO": "2049000080011009", "POBTOT": 0.0, "score_nse": 0.0, "NSE": null, "VIVTOT": 0.0, "GRAPROES": 0.0, "_ent": "20", "_mun": "490", "_loc": "0008"}, "geometry": {"type": "Polygon", "coordinates": [[[-96.95414, 18.21592], [-96.95352, 18.21583], [-96.95346, 18.2153], [-96.95361, 18.21453], [-96.95415, 18.21449], [-96.95498, 18.21506], [-96.95439, 18.21535], [-96.95435, 18.2158], [-96.95414, 18.21592]]]}}, {"id": "1574615", "type": "Feature", "properties": {"id": "1574615", "CVEGEO": "2049000080011002", "POBTOT": 0.0, "score_nse": 0.0, "NSE": null, "VIVTOT": 0.0, "GRAPROES": 0.0, "_ent": "20", "_mun": "490", "_loc": "0008"}, "geometry": {"type": "Polygon", "coordinates": [[[-96.95442, 18.21243], [-96.95543, 18.2129], [-96.956, 18.21271], [-96.95566, 18.21339], [-96.95568, 18.21368], [-96.95497, 18.21455], [-96.955, 18.21503], [-96.95416, 18.21446], [-96.95361, 18.21449], [-96.95386, 18.2133], [-96.95423, 18.21293], [-96.95442, 18.21243]]]}}, {"id": "1574635", "type": "Feature", "properties": {"id": "1574635", "CVEGEO": "2049000080011006", "POBTOT": 0.0, "score_nse": 0.0, "NSE": null, "VIVTOT": 0.0, "GRAPROES": 0.0, "_ent": "20", "_mun": "490", "_loc": "0008"}, "geometry": {"type": "Polygon", "coordinates": [[[-96.95361, 18.21665], [-96.95414, 18.2163], [-96.95384, 18.21664], [-96.95427, 18.21683], [-96.95419, 18.21734], [-96.95374, 18.21749], [-96.95345, 18.21727], [-96.95361, 18.21665]]]}}, {"id": "1574636", "type": "Feature", "properties": {"id": "1574636", "CVEGEO": "2049000080011007", "POBTOT": 0.0, "score_nse": 0.0, "NSE": null, "VIVTOT": 0.0, "GRAPROES": 0.0, "_ent": "20", "_mun": "490", "_loc": "0008"}, "geometry": {"type": "Polygon", "coordinates": [[[-96.95355, 18.21447], [-96.95338, 18.21538], [-96.95348, 18.21589], [-96.95328, 18.21651], [-96.95326, 18.21573], [-96.95281, 18.21448], [-96.95355, 18.21447]]]}}]}