{"type": "FeatureCollection", "features": [{"id": "763709", "type": "Feature", "properties": {"id": "763709", "CVEGEO": "1202800440292008", "POBTOT": 0.0, "score_nse": 0.0, "NSE": null, "VIVTOT": 0.0, "GRAPROES": 0.0, "_ent": "12", "_mun": "028", "_loc": "0044"}, "geometry": {"type": "Polygon", "coordinates": [[[-99.14463, 17.48986], [-99.14474, 17.48823], [-99.14504, 17.48793], [-99.14517, 17.48733], [-99.14554, 17.48797], [-99.14607, 17.48842], [-99.14584, 17.48941], [-99.14608, 17.48968], [-99.14612, 17.49074], [-99.14528, 17.48993], [-99.14447, 17.49036], [-99.14463, 17.48986]]]}}, {"id": "764432", "type": "Feature", "properties": {"id": "764432", "CVEGEO": "1202800440292009", "POBTOT": 0.0, "score_nse": 0.0, "NSE": null, "VIVTOT": 0.0, "GRAPROES": 0.0, "_ent": "12", "_mun": "028", "_loc": "0044"}, "geometry": {"type": "Polygon", "coordinates": [[[-99.14666, 17.4863], [-99.14696, 17.48767], [-99.1465, 17.48834], [-99.14627, 17.48798], [-99.14556, 17.48762], [-99.14525, 17.48724], [-99.14505, 17.48735], [-99.14501, 17.4878], [-99.14476, 17.48787], [-99.14486, 17.48708], [-99.14516, 17.48662], [-99.14569, 17.48637], [-99.14666, 17.4863]]]}}, {"id": "764433", "type": "Feature", "properties": {"id": "764433", "CVEGEO": "1202800440292010", "POBTOT": 0.0, "score_nse": 0.0, "NSE": null, "VIVTOT": 0.0, "GRAPROES": 0.0, "_ent": "12", "_mun": "028", "_loc": "0044"}, "geometry": {"type": "Polygon", "coordinates": [[[-99.14701, 17.48776], [-99.14671, 17.48632], [-99.1473, 17.48576], [-99.14789, 17.48682], [-99.14797, 17.48666], [-99.14736, 17.48575], [-99.1481, 17.48588], [-99.14896, 17.48664], [-99.14835, 17.48741], [-99.14796, 17.48728], [-99.14801, 17.4875], [-99.14777, 17.48782], [-99.14655, 17.48837], [-99.14701, 17.48776]]]}}, {"id": "764434", "type": "Feature", "properties": {"id": "764434", "CVEGEO": "1202800440292011", "POBTOT": 0.0, "score_nse": 0.0, "NSE": null, "VIVTOT": 0.0, "GRAPROES": 0.0, "_ent": "12", "_mun": "028", "_loc": "0044"}, "geometry": {"type": "Polygon", "coordinates": [[[-99.14786, 17.48777], [-99.1481, 17.48739], [-99.14832, 17.48745], [-99.1481, 17.48789], [-99.14786, 17.48777]]]}}, {"id": "764435", "type": "Feature", "properties": {"id": "764435", "CVEGEO": "1202800440292012", "POBTOT": 0.0, "score_nse": 0.0, "NSE": null, "VIVTOT": 0.0, "GRAPROES": 0.0, "_ent": "12", "_mun": "028", "_loc": "0044"}, "geometry": {"type": "Polygon", "coordinates": [[[-99.14703, 17.48979], [-99.14656, 17.48841], [-99.14784, 17.48782], [-99.14807, 17.48808], [-99.14776, 17.48867], [-99.14729, 17.48905], [-99.14703, 17.48979]]]}}, {"id": "764436", "type": "Feature", "properties": {"id": "764436", "CVEGEO": "1202800440292013", "POBTOT": 0.0, "score_nse": 0.0, "NSE": null, "VIVTOT": 0.0, "GRAPROES": 0.0, "_ent": "12", "_mun": "028", "_loc": "0044"}, "geometry": {"type": "Polygon", "coordinates": [[[-99.14775, 17.48874], [-99.1477, 17.48944], [-99.14791, 17.48974], [-99.14742, 17.49018], [-99.14709, 17.49016], [-99.14733, 17.48909], [-99.14775, 17.48874]]]}}, {"id": "764437", "type": "Feature", "properties": {"id": "764437", "CVEGEO": "1202800440292014", "POBTOT": 0.0, "score_nse": 0.0, "NSE": null, "VIVTOT": 0.0, "GRAPROES": 0.0, "_ent": "12", "_mun": "028", "_loc": "0044"}, "geometry": {"type": "Polygon", "coordinates": [[[-99.1466, 17.49072], [-99.14721, 17.49022], [-99.14747, 17.49023], [-99.14792, 17.4898], [-99.14829, 17.49], [-99.14805, 17.49004], [-99.14704, 17.49092], [-99.14648, 17.49094], [-99.14624, 17.49075], [-99.1466, 17.49072]]]}}, {"id": "764438", "type": "Feature", "properties": {"id": "764438", "CVEGEO": "1202800440292015", "POBTOT": 0.0, "score_nse": 0.0, "NSE": null, "VIVTOT": 0.0, "GRAPROES": 0.0, "_ent": "12", "_mun": "028", "_loc": "0044"}, "geometry": {"type": "Polygon", "coordinates": [[[-99.14708, 17.49023], [-99.14657, 17.49067], [-99.14619, 17.49065], [-99.1462, 17.48971], [-99.14592, 17.48938], [-99.14614, 17.48837], [-99.14568, 17.48797], [-99.14557, 17.48767], [-99.14614, 17.48793], [-99.1465, 17.4884], [-99.14708, 17.49023]]]}}]}