{"type": "FeatureCollection", "features": [{"id": "763068", "type": "Feature", "properties": {"id": "763068", "CVEGEO": "1202801110305001", "POBTOT": 0.0, "score_nse": 0.0, "NSE": null, "VIVTOT": 0.0, "GRAPROES": 0.0, "_ent": "12", "_mun": "028", "_loc": "0111"}, "geometry": {"type": "Polygon", "coordinates": [[[-99.15363, 17.51652], [-99.15283, 17.51628], [-99.1529, 17.51605], [-99.1528, 17.51627], [-99.15255, 17.5162], [-99.15281, 17.51547], [-99.15316, 17.51547], [-99.15367, 17.51594], [-99.15375, 17.5161], [-99.15363, 17.51652]]]}}, {"id": "763451", "type": "Feature", "properties": {"id": "763451", "CVEGEO": "1202801110305009", "POBTOT": 0.0, "score_nse": 0.0, "NSE": null, "VIVTOT": 0.0, "GRAPROES": 0.0, "_ent": "12", "_mun": "028", "_loc": "0111"}, "geometry": {"type": "Polygon", "coordinates": [[[-99.15165, 17.51612], [-99.14992, 17.51586], [-99.15011, 17.51497], [-99.15078, 17.51524], [-99.1511, 17.51515], [-99.15165, 17.51612]]]}}, {"id": "763636", "type": "Feature", "properties": {"id": "763636", "CVEGEO": "1202801110305005", "POBTOT": 0.0, "score_nse": 0.0, "NSE": null, "VIVTOT": 0.0, "GRAPROES": 0.0, "_ent": "12", "_mun": "028", "_loc": "0111"}, "geometry": {"type": "Polygon", "coordinates": [[[-99.1525, 17.51623], [-99.15222, 17.51655], [-99.15177, 17.51618], [-99.1525, 17.51623]]]}}, {"id": "764178", "type": "Feature", "properties": {"id": "764178", "CVEGEO": "1202801110305004", "POBTOT": 0.0, "score_nse": 0.0, "NSE": null, "VIVTOT": 0.0, "GRAPROES": 0.0, "_ent": "12", "_mun": "028", "_loc": "0111"}, "geometry": {"type": "Polygon", "coordinates": [[[-99.15253, 17.51624], [-99.15361, 17.51657], [-99.1534, 17.51738], [-99.15404, 17.51826], [-99.15381, 17.5184], [-99.15308, 17.51837], [-99.15302, 17.51802], [-99.15328, 17.51749], [-99.15311, 17.51725], [-99.15236, 17.51685], [-99.15223, 17.51659], [-99.15253, 17.51624]]]}}, {"id": "764179", "type": "Feature", "properties": {"id": "764179", "CVEGEO": "1202801110305008", "POBTOT": 0.0, "score_nse": 0.0, "NSE": null, "VIVTOT": 0.0, "GRAPROES": 0.0, "_ent": "12", "_mun": "028", "_loc": "0111"}, "geometry": {"type": "Polygon", "coordinates": [[[-99.15381, 17.51613], [-99.15412, 17.51658], [-99.15405, 17.51699], [-99.15423, 17.51717], [-99.15421, 17.51762], [-99.15435, 17.51773], [-99.15436, 17.51813], [-99.15409, 17.51823], [-99.15345, 17.51737], [-99.15381, 17.51613]]]}}, {"id": "764730", "type": "Feature", "properties": {"id": "764730", "CVEGEO": "1202801110305006", "POBTOT": 0.0, "score_nse": 0.0, "NSE": null, "VIVTOT": 0.0, "GRAPROES": 0.0, "_ent": "12", "_mun": "028", "_loc": "0111"}, "geometry": {"type": "Polygon", "coordinates": [[[-99.15204, 17.51506], [-99.15195, 17.51518], [-99.15162, 17.51595], [-99.15149, 17.51569], [-99.15159, 17.51554], [-99.15148, 17.51567], [-99.1513, 17.51553], [-99.15115, 17.5151], [-99.15204, 17.51506]]]}}, {"id": "764731", "type": "Feature", "properties": {"id": "764731", "CVEGEO": "1202801110305007", "POBTOT": 0.0, "score_nse": 0.0, "NSE": null, "VIVTOT": 0.0, "GRAPROES": 0.0, "_ent": "12", "_mun": "028", "_loc": "0111"}, "geometry": {"type": "Polygon", "coordinates": [[[-99.15379, 17.51434], [-99.15341, 17.51528], [-99.15252, 17.51494], [-99.15295, 17.51373], [-99.15334, 17.51422], [-99.15379, 17.51434]]]}}, {"id": "764732", "type": "Feature", "properties": {"id": "764732", "CVEGEO": "1202801110305010", "POBTOT": 0.0, "score_nse": 0.0, "NSE": null, "VIVTOT": 0.0, "GRAPROES": 0.0, "_ent": "12", "_mun": "028", "_loc": "0111"}, "geometry": {"type": "Polygon", "coordinates": [[[-99.1526, 17.51509], [-99.15179, 17.51494], [-99.15119, 17.51502], [-99.15146, 17.5144], [-99.15203, 17.51454], [-99.1526, 17.51509]]]}}, {"id": "764733", "type": "Feature", "properties": {"id": "764733", "CVEGEO": "1202801110305012", "POBTOT": 0.0, "score_nse": 0.0, "NSE": null, "VIVTOT": 0.0, "GRAPROES": 0.0, "_ent": "12", "_mun": "028", "_loc": "0111"}, "geometry": {"type": "Polygon", "coordinates": [[[-99.15265, 17.51571], [-99.15249, 17.51618], [-99.15209, 17.51613], [-99.15227, 17.51565], [-99.15265, 17.51571]]]}}, {"id": "764734", "type": "Feature", "properties": {"id": "764734", "CVEGEO": "1202801110305013", "POBTOT": 0.0, "score_nse": 0.0, "NSE": null, "VIVTOT": 0.0, "GRAPROES": 0.0, "_ent": "12", "_mun": "028", "_loc": "0111"}, "geometry": {"type": "Polygon", "coordinates": [[[-99.15277, 17.51538], [-99.15266, 17.51568], [-99.15204, 17.51554], [-99.15227, 17.51516], [-99.15277, 17.51538]]]}}, {"id": "764735", "type": "Feature", "properties": {"id": "764735", "CVEGEO": "1202801110305014", "POBTOT": 0.0, "score_nse": 0.0, "NSE": null, "VIVTOT": 0.0, "GRAPROES": 0.0, "_ent": "12", "_mun": "028", "_loc": "0111"}, "geometry": {"type": "Polygon", "coordinates": [[[-99.15225, 17.51564], [-99.15207, 17.51613], [-99.15179, 17.51614], [-99.15203, 17.51557], [-99.15225, 17.51564]]]}}, {"id": "764736", "type": "Feature", "properties": {"id": "764736", "CVEGEO": "1202801110305015", "POBTOT": 0.0, "score_nse": 0.0, "NSE": null, "VIVTOT": 0.0, "GRAPROES": 0.0, "_ent": "12", "_mun": "028", "_loc": "0111"}, "geometry": {"type": "Polygon", "coordinates": [[[-99.15223, 17.51514], [-99.15206, 17.51534], [-99.15172, 17.51613], [-99.15165, 17.51598], [-99.15198, 17.5152], [-99.15207, 17.51507], [-99.15223, 17.51514]]]}}, {"id": "764737", "type": "Feature", "properties": {"id": "764737", "CVEGEO": "1202801110305016", "POBTOT": 0.0, "score_nse": 0.0, "NSE": null, "VIVTOT": 0.0, "GRAPROES": 0.0, "_ent": "12", "_mun": "028", "_loc": "0111"}, "geometry": {"type": "Polygon", "coordinates": [[[-99.1538, 17.51431], [-99.15335, 17.51419], [-99.15295, 17.5137], [-99.15332, 17.51272], [-99.15344, 17.51269], [-99.15362, 17.5131], [-99.1538, 17.51431]]]}}, {"id": "764738", "type": "Feature", "properties": {"id": "764738", "CVEGEO": "1202801110305017", "POBTOT": 0.0, "score_nse": 0.0, "NSE": null, "VIVTOT": 0.0, "GRAPROES": 0.0, "_ent": "12", "_mun": "028", "_loc": "0111"}, "geometry": {"type": "Polygon", "coordinates": [[[-99.1547, 17.51427], [-99.15436, 17.51489], [-99.1536, 17.51491], [-99.15383, 17.51434], [-99.15372, 17.51348], [-99.1547, 17.51427]]]}}]}