{"type": "FeatureCollection", "features": [{"id": "2292632", "type": "Feature", "properties": {"id": "2292632", "CVEGEO": "3007300500012016", "POBTOT": 0.0, "score_nse": 0.0, "NSE": null, "VIVTOT": 0.0, "GRAPROES": 0.0, "_ent": "30", "_mun": "073", "_loc": "0050"}, "geometry": {"type": "Polygon", "coordinates": [[[-95.18253, 18.23732], [-95.18273, 18.23758], [-95.18233, 18.23784], [-95.18227, 18.23776], [-95.18253, 18.23732]]]}}, {"id": "2292633", "type": "Feature", "properties": {"id": "2292633", "CVEGEO": "3007300500012015", "POBTOT": 0.0, "score_nse": 0.0, "NSE": null, "VIVTOT": 0.0, "GRAPROES": 0.0, "_ent": "30", "_mun": "073", "_loc": "0050"}, "geometry": {"type": "Polygon", "coordinates": [[[-95.18207, 18.23812], [-95.18228, 18.23842], [-95.18165, 18.23882], [-95.18144, 18.23852], [-95.18207, 18.23812]]]}}, {"id": "2292634", "type": "Feature", "properties": {"id": "2292634", "CVEGEO": "3007300500012014", "POBTOT": 0.0, "score_nse": 0.0, "NSE": null, "VIVTOT": 0.0, "GRAPROES": 0.0, "_ent": "30", "_mun": "073", "_loc": "0050"}, "geometry": {"type": "Polygon", "coordinates": [[[-95.18234, 18.2385], [-95.18285, 18.23924], [-95.18221, 18.23965], [-95.1817, 18.23889], [-95.18234, 18.2385]]]}}, {"id": "2292733", "type": "Feature", "properties": {"id": "2292733", "CVEGEO": "3007300500012037", "POBTOT": 0.0, "score_nse": 0.0, "NSE": null, "VIVTOT": 0.0, "GRAPROES": 0.0, "_ent": "30", "_mun": "073", "_loc": "0050"}, "geometry": {"type": "Polygon", "coordinates": [[[-95.18784, 18.23629], [-95.18778, 18.23705], [-95.18752, 18.23703], [-95.18726, 18.23661], [-95.18784, 18.23629]]]}}, {"id": "2292734", "type": "Feature", "properties": {"id": "2292734", "CVEGEO": "3007300500012036", "POBTOT": 0.0, "score_nse": 0.0, "NSE": null, "VIVTOT": 0.0, "GRAPROES": 0.0, "_ent": "30", "_mun": "073", "_loc": "0050"}, "geometry": {"type": "Polygon", "coordinates": [[[-95.18785, 18.23599], [-95.18778, 18.23625], [-95.18721, 18.23653], [-95.18696, 18.23599], [-95.18785, 18.23599]]]}}, {"id": "2292735", "type": "Feature", "properties": {"id": "2292735", "CVEGEO": "3007300500012020", "POBTOT": 0.0, "score_nse": 0.0, "NSE": null, "VIVTOT": 0.0, "GRAPROES": 0.0, "_ent": "30", "_mun": "073", "_loc": "0050"}, "geometry": {"type": "Polygon", "coordinates": [[[-95.18527, 18.23547], [-95.18556, 18.23581], [-95.18495, 18.2362], [-95.18468, 18.23581], [-95.18527, 18.23547]]]}}, {"id": "2292736", "type": "Feature", "properties": {"id": "2292736", "CVEGEO": "3007300500012019", "POBTOT": 0.0, "score_nse": 0.0, "NSE": null, "VIVTOT": 0.0, "GRAPROES": 0.0, "_ent": "30", "_mun": "073", "_loc": "0050"}, "geometry": {"type": "Polygon", "coordinates": [[[-95.18461, 18.23586], [-95.18486, 18.23625], [-95.18424, 18.23664], [-95.18396, 18.23626], [-95.18461, 18.23586]]]}}, {"id": "2292737", "type": "Feature", "properties": {"id": "2292737", "CVEGEO": "3007300500012018", "POBTOT": 0.0, "score_nse": 0.0, "NSE": null, "VIVTOT": 0.0, "GRAPROES": 0.0, "_ent": "30", "_mun": "073", "_loc": "0050"}, "geometry": {"type": "Polygon", "coordinates": [[[-95.18389, 18.23631], [-95.18415, 18.23669], [-95.18352, 18.23709], [-95.18326, 18.2367], [-95.18389, 18.23631]]]}}, {"id": "2292760", "type": "Feature", "properties": {"id": "2292760", "CVEGEO": "3007300500012034", "POBTOT": 0.0, "score_nse": 0.0, "NSE": null, "VIVTOT": 0.0, "GRAPROES": 0.0, "_ent": "30", "_mun": "073", "_loc": "0050"}, "geometry": {"type": "Polygon", "coordinates": [[[-95.18092, 18.23939], [-95.18143, 18.24014], [-95.18083, 18.24053], [-95.18027, 18.23979], [-95.18092, 18.23939]]]}}, {"id": "2292809", "type": "Feature", "properties": {"id": "2292809", "CVEGEO": "3007300500012035", "POBTOT": 0.0, "score_nse": 0.0, "NSE": null, "VIVTOT": 0.0, "GRAPROES": 0.0, "_ent": "30", "_mun": "073", "_loc": "0050"}, "geometry": {"type": "Polygon", "coordinates": [[[-95.18066, 18.239], [-95.18086, 18.23931], [-95.18021, 18.23972], [-95.18001, 18.2394], [-95.18066, 18.239]]]}}, {"id": "2292810", "type": "Feature", "properties": {"id": "2292810", "CVEGEO": "3007300500012027", "POBTOT": 0.0, "score_nse": 0.0, "NSE": null, "VIVTOT": 0.0, "GRAPROES": 0.0, "_ent": "30", "_mun": "073", "_loc": "0050"}, "geometry": {"type": "Polygon", "coordinates": [[[-95.1829, 18.23637], [-95.18311, 18.23667], [-95.18257, 18.23701], [-95.1827, 18.23655], [-95.1829, 18.23637]]]}}, {"id": "2292811", "type": "Feature", "properties": {"id": "2292811", "CVEGEO": "3007300500012026", "POBTOT": 0.0, "score_nse": 0.0, "NSE": null, "VIVTOT": 0.0, "GRAPROES": 0.0, "_ent": "30", "_mun": "073", "_loc": "0050"}, "geometry": {"type": "Polygon", "coordinates": [[[-95.18137, 18.23857], [-95.18157, 18.23886], [-95.18093, 18.23927], [-95.18073, 18.23897], [-95.18137, 18.23857]]]}}, {"id": "2292812", "type": "Feature", "properties": {"id": "2292812", "CVEGEO": "3007300500012025", "POBTOT": 0.0, "score_nse": 0.0, "NSE": null, "VIVTOT": 0.0, "GRAPROES": 0.0, "_ent": "30", "_mun": "073", "_loc": "0050"}, "geometry": {"type": "Polygon", "coordinates": [[[-95.18163, 18.23894], [-95.18215, 18.23969], [-95.1815, 18.24009], [-95.18098, 18.23934], [-95.18163, 18.23894]]]}}, {"id": "2292813", "type": "Feature", "properties": {"id": "2292813", "CVEGEO": "3007300500012024", "POBTOT": 0.0, "score_nse": 0.0, "NSE": null, "VIVTOT": 0.0, "GRAPROES": 0.0, "_ent": "30", "_mun": "073", "_loc": "0050"}, "geometry": {"type": "Polygon", "coordinates": [[[-95.18218, 18.23976], [-95.18276, 18.24048], [-95.18212, 18.24091], [-95.18155, 18.24016], [-95.18218, 18.23976]]]}}, {"id": "2292814", "type": "Feature", "properties": {"id": "2292814", "CVEGEO": "3007300500012023", "POBTOT": 0.0, "score_nse": 0.0, "NSE": null, "VIVTOT": 0.0, "GRAPROES": 0.0, "_ent": "30", "_mun": "073", "_loc": "0050"}, "geometry": {"type": "Polygon", "coordinates": [[[-95.18647, 18.23709], [-95.18698, 18.23784], [-95.18636, 18.23824], [-95.18581, 18.23747], [-95.18647, 18.23709]]]}}, {"id": "2292815", "type": "Feature", "properties": {"id": "2292815", "CVEGEO": "3007300500012022", "POBTOT": 0.0, "score_nse": 0.0, "NSE": null, "VIVTOT": 0.0, "GRAPROES": 0.0, "_ent": "30", "_mun": "073", "_loc": "0050"}, "geometry": {"type": "Polygon", "coordinates": [[[-95.18526, 18.23665], [-95.1859, 18.23626], [-95.18642, 18.23701], [-95.1861, 18.23719], [-95.186, 18.23702], [-95.18608, 18.23721], [-95.18576, 18.23741], [-95.18526, 18.23665]]]}}, {"id": "2292816", "type": "Feature", "properties": {"id": "2292816", "CVEGEO": "3007300500012007", "POBTOT": 0.0, "score_nse": 0.0, "NSE": null, "VIVTOT": 0.0, "GRAPROES": 0.0, "_ent": "30", "_mun": "073", "_loc": "0050"}, "geometry": {"type": "Polygon", "coordinates": [[[-95.18279, 18.23767], [-95.183, 18.23797], [-95.18236, 18.23837], [-95.18217, 18.23808], [-95.18279, 18.23767]]]}}, {"id": "2292817", "type": "Feature", "properties": {"id": "2292817", "CVEGEO": "3007300500012002", "POBTOT": 0.0, "score_nse": 0.0, "NSE": null, "VIVTOT": 0.0, "GRAPROES": 0.0, "_ent": "30", "_mun": "073", "_loc": "0050"}, "geometry": {"type": "Polygon", "coordinates": [[[-95.18383, 18.23755], [-95.18417, 18.23756], [-95.18408, 18.23742], [-95.18423, 18.23732], [-95.18434, 18.23746], [-95.18424, 18.23732], [-95.18448, 18.23715], [-95.185, 18.2379], [-95.18435, 18.2383], [-95.18383, 18.23755]]]}}, {"id": "2293058", "type": "Feature", "properties": {"id": "2293058", "CVEGEO": "3007300500012017", "POBTOT": 0.0, "score_nse": 0.0, "NSE": null, "VIVTOT": 0.0, "GRAPROES": 0.0, "_ent": "30", "_mun": "073", "_loc": "0050"}, "geometry": {"type": "Polygon", "coordinates": [[[-95.18318, 18.23676], [-95.18344, 18.23714], [-95.1828, 18.23753], [-95.18257, 18.23718], [-95.18318, 18.23676]]]}}, {"id": "2293059", "type": "Feature", "properties": {"id": "2293059", "CVEGEO": "3007300500012009", "POBTOT": 0.0, "score_nse": 0.0, "NSE": null, "VIVTOT": 0.0, "GRAPROES": 0.0, "_ent": "30", "_mun": "073", "_loc": "0050"}, "geometry": {"type": "Polygon", "coordinates": [[[-95.18421, 18.23678], [-95.18442, 18.23708], [-95.18378, 18.23748], [-95.18358, 18.23718], [-95.18421, 18.23678]]]}}, {"id": "2293154", "type": "Feature", "properties": {"id": "2293154", "CVEGEO": "3007300500012033", "POBTOT": 0.0, "score_nse": 0.0, "NSE": null, "VIVTOT": 0.0, "GRAPROES": 0.0, "_ent": "30", "_mun": "073", "_loc": "0050"}, "geometry": {"type": "Polygon", "coordinates": [[[-95.18192, 18.24234], [-95.18085, 18.24063], [-95.18148, 18.24021], [-95.18204, 18.24096], [-95.18163, 18.24133], [-95.18209, 18.24103], [-95.18227, 18.24114], [-95.18218, 18.24098], [-95.18259, 18.24064], [-95.18192, 18.24234]]]}}, {"id": "2293155", "type": "Feature", "properties": {"id": "2293155", "CVEGEO": "3007300500012032", "POBTOT": 0.0, "score_nse": 0.0, "NSE": null, "VIVTOT": 0.0, "GRAPROES": 0.0, "_ent": "30", "_mun": "073", "_loc": "0050"}, "geometry": {"type": "Polygon", "coordinates": [[[-95.1872, 18.23664], [-95.18745, 18.23702], [-95.18705, 18.2378], [-95.18654, 18.23705], [-95.1872, 18.23664]]]}}, {"id": "2293156", "type": "Feature", "properties": {"id": "2293156", "CVEGEO": "3007300500012031", "POBTOT": 0.0, "score_nse": 0.0, "NSE": null, "VIVTOT": 0.0, "GRAPROES": 0.0, "_ent": "30", "_mun": "073", "_loc": "0050"}, "geometry": {"type": "Polygon", "coordinates": [[[-95.18649, 18.23697], [-95.18598, 18.23622], [-95.18623, 18.23611], [-95.18633, 18.23635], [-95.18624, 18.23611], [-95.18686, 18.23598], [-95.18714, 18.23657], [-95.18681, 18.23677], [-95.18672, 18.23666], [-95.1868, 18.23677], [-95.18649, 18.23697]]]}}, {"id": "2293157", "type": "Feature", "properties": {"id": "2293157", "CVEGEO": "3007300500012030", "POBTOT": 0.0, "score_nse": 0.0, "NSE": null, "VIVTOT": 0.0, "GRAPROES": 0.0, "_ent": "30", "_mun": "073", "_loc": "0050"}, "geometry": {"type": "Polygon", "coordinates": [[[-95.18434, 18.23532], [-95.18505, 18.23514], [-95.18524, 18.23534], [-95.18494, 18.23553], [-95.18481, 18.23534], [-95.18493, 18.23553], [-95.18462, 18.23573], [-95.18434, 18.23532]]]}}, {"id": "2293158", "type": "Feature", "properties": {"id": "2293158", "CVEGEO": "3007300500012029", "POBTOT": 0.0, "score_nse": 0.0, "NSE": null, "VIVTOT": 0.0, "GRAPROES": 0.0, "_ent": "30", "_mun": "073", "_loc": "0050"}, "geometry": {"type": "Polygon", "coordinates": [[[-95.18427, 18.23537], [-95.18454, 18.23577], [-95.18391, 18.23617], [-95.18364, 18.23579], [-95.18427, 18.23537]]]}}, {"id": "2293159", "type": "Feature", "properties": {"id": "2293159", "CVEGEO": "3007300500012028", "POBTOT": 0.0, "score_nse": 0.0, "NSE": null, "VIVTOT": 0.0, "GRAPROES": 0.0, "_ent": "30", "_mun": "073", "_loc": "0050"}, "geometry": {"type": "Polygon", "coordinates": [[[-95.18357, 18.23584], [-95.18383, 18.23622], [-95.1832, 18.23661], [-95.18295, 18.23629], [-95.18357, 18.23584]]]}}, {"id": "2293160", "type": "Feature", "properties": {"id": "2293160", "CVEGEO": "3007300500012013", "POBTOT": 0.0, "score_nse": 0.0, "NSE": null, "VIVTOT": 0.0, "GRAPROES": 0.0, "_ent": "30", "_mun": "073", "_loc": "0050"}, "geometry": {"type": "Polygon", "coordinates": [[[-95.18291, 18.23933], [-95.18339, 18.24008], [-95.18282, 18.24044], [-95.18226, 18.23972], [-95.18291, 18.23933]]]}}, {"id": "2293161", "type": "Feature", "properties": {"id": "2293161", "CVEGEO": "3007300500012012", "POBTOT": 0.0, "score_nse": 0.0, "NSE": null, "VIVTOT": 0.0, "GRAPROES": 0.0, "_ent": "30", "_mun": "073", "_loc": "0050"}, "geometry": {"type": "Polygon", "coordinates": [[[-95.18512, 18.23794], [-95.18573, 18.23752], [-95.18628, 18.23829], [-95.18612, 18.23839], [-95.18598, 18.23822], [-95.1861, 18.23841], [-95.18565, 18.23873], [-95.18512, 18.23794]]]}}, {"id": "2293162", "type": "Feature", "properties": {"id": "2293162", "CVEGEO": "3007300500012011", "POBTOT": 0.0, "score_nse": 0.0, "NSE": null, "VIVTOT": 0.0, "GRAPROES": 0.0, "_ent": "30", "_mun": "073", "_loc": "0050"}, "geometry": {"type": "Polygon", "coordinates": [[[-95.18454, 18.23711], [-95.18502, 18.23683], [-95.18514, 18.237], [-95.18503, 18.23682], [-95.18519, 18.23671], [-95.18568, 18.23746], [-95.18506, 18.23786], [-95.18454, 18.23711]]]}}, {"id": "2293603", "type": "Feature", "properties": {"id": "2293603", "CVEGEO": "3007300500012039", "POBTOT": 0.0, "score_nse": 0.0, "NSE": null, "VIVTOT": 0.0, "GRAPROES": 0.0, "_ent": "30", "_mun": "073", "_loc": "0050"}, "geometry": {"type": "Polygon", "coordinates": [[[-95.18555, 18.23559], [-95.18613, 18.23577], [-95.1871, 18.23579], [-95.1875, 18.23552], [-95.18757, 18.23589], [-95.18641, 18.23593], [-95.18592, 18.23614], [-95.18555, 18.23559]]]}}, {"id": "2293604", "type": "Feature", "properties": {"id": "2293604", "CVEGEO": "3007300500012038", "POBTOT": 0.0, "score_nse": 0.0, "NSE": null, "VIVTOT": 0.0, "GRAPROES": 0.0, "_ent": "30", "_mun": "073", "_loc": "0050"}, "geometry": {"type": "Polygon", "coordinates": [[[-95.18031, 18.23773], [-95.18105, 18.23867], [-95.17994, 18.2394], [-95.17996, 18.23912], [-95.17961, 18.23847], [-95.18031, 18.23773]]]}}, {"id": "2293605", "type": "Feature", "properties": {"id": "2293605", "CVEGEO": "3007300500012005", "POBTOT": 0.0, "score_nse": 0.0, "NSE": null, "VIVTOT": 0.0, "GRAPROES": 0.0, "_ent": "30", "_mun": "073", "_loc": "0050"}, "geometry": {"type": "Polygon", "coordinates": [[[-95.18362, 18.23888], [-95.18412, 18.23965], [-95.18347, 18.24004], [-95.18298, 18.23929], [-95.18362, 18.23888]]]}}, {"id": "2293606", "type": "Feature", "properties": {"id": "2293606", "CVEGEO": "3007300500012004", "POBTOT": 0.0, "score_nse": 0.0, "NSE": null, "VIVTOT": 0.0, "GRAPROES": 0.0, "_ent": "30", "_mun": "073", "_loc": "0050"}, "geometry": {"type": "Polygon", "coordinates": [[[-95.1837, 18.23883], [-95.18434, 18.23843], [-95.18486, 18.23921], [-95.1847, 18.2393], [-95.18456, 18.23912], [-95.18469, 18.2393], [-95.18419, 18.23961], [-95.1837, 18.23883]]]}}, {"id": "2293607", "type": "Feature", "properties": {"id": "2293607", "CVEGEO": "3007300500012003", "POBTOT": 0.0, "score_nse": 0.0, "NSE": null, "VIVTOT": 0.0, "GRAPROES": 0.0, "_ent": "30", "_mun": "073", "_loc": "0050"}, "geometry": {"type": "Polygon", "coordinates": [[[-95.1844, 18.23838], [-95.18506, 18.23799], [-95.1853, 18.23836], [-95.18515, 18.23849], [-95.18531, 18.23837], [-95.1856, 18.23876], [-95.18495, 18.23916], [-95.1844, 18.23838]]]}}, {"id": "2293608", "type": "Feature", "properties": {"id": "2293608", "CVEGEO": "3007300500012021", "POBTOT": 0.0, "score_nse": 0.0, "NSE": null, "VIVTOT": 0.0, "GRAPROES": 0.0, "_ent": "30", "_mun": "073", "_loc": "0050"}, "geometry": {"type": "Polygon", "coordinates": [[[-95.18564, 18.2359], [-95.18584, 18.2362], [-95.18521, 18.23658], [-95.18501, 18.23628], [-95.18564, 18.2359]]]}}, {"id": "2293765", "type": "Feature", "properties": {"id": "2293765", "CVEGEO": "3007300500012008", "POBTOT": 0.0, "score_nse": 0.0, "NSE": null, "VIVTOT": 0.0, "GRAPROES": 0.0, "_ent": "30", "_mun": "073", "_loc": "0050"}, "geometry": {"type": "Polygon", "coordinates": [[[-95.18349, 18.23723], [-95.18371, 18.23753], [-95.18307, 18.23793], [-95.18287, 18.23762], [-95.18349, 18.23723]]]}}, {"id": "2293766", "type": "Feature", "properties": {"id": "2293766", "CVEGEO": "3007300500012006", "POBTOT": 0.0, "score_nse": 0.0, "NSE": null, "VIVTOT": 0.0, "GRAPROES": 0.0, "_ent": "30", "_mun": "073", "_loc": "0050"}, "geometry": {"type": "Polygon", "coordinates": [[[-95.18306, 18.23806], [-95.18357, 18.2388], [-95.18293, 18.2392], [-95.18242, 18.23845], [-95.18306, 18.23806]]]}}, {"id": "2293928", "type": "Feature", "properties": {"id": "2293928", "CVEGEO": "3007300500012010", "POBTOT": 0.0, "score_nse": 0.0, "NSE": null, "VIVTOT": 0.0, "GRAPROES": 0.0, "_ent": "30", "_mun": "073", "_loc": "0050"}, "geometry": {"type": "Polygon", "coordinates": [[[-95.18492, 18.23633], [-95.18513, 18.23663], [-95.1845, 18.23704], [-95.18429, 18.23673], [-95.18492, 18.23633]]]}}, {"id": "2293929", "type": "Feature", "properties": {"id": "2293929", "CVEGEO": "3007300500012001", "POBTOT": 0.0, "score_nse": 0.0, "NSE": null, "VIVTOT": 0.0, "GRAPROES": 0.0, "_ent": "30", "_mun": "073", "_loc": "0050"}, "geometry": {"type": "Polygon", "coordinates": [[[-95.18314, 18.23801], [-95.18377, 18.2376], [-95.18403, 18.238], [-95.18386, 18.23808], [-95.18404, 18.238], [-95.18426, 18.23836], [-95.18364, 18.23876], [-95.18314, 18.23801]]]}}]}