{"type": "FeatureCollection", "features": [{"id": "757581", "type": "Feature", "properties": {"id": "757581", "CVEGEO": "1202200460477017", "POBTOT": 0.0, "score_nse": 0.0, "NSE": null, "VIVTOT": 0.0, "GRAPROES": 0.0, "_ent": "12", "_mun": "022", "_loc": "0046"}, "geometry": {"type": "Polygon", "coordinates": [[[-100.63928, 18.30605], [-100.63959, 18.30592], [-100.64018, 18.30624], [-100.63986, 18.30676], [-100.63912, 18.30642], [-100.63928, 18.30605]]]}}, {"id": "757582", "type": "Feature", "properties": {"id": "757582", "CVEGEO": "1202200460477016", "POBTOT": 0.0, "score_nse": 0.0, "NSE": null, "VIVTOT": 0.0, "GRAPROES": 0.0, "_ent": "12", "_mun": "022", "_loc": "0046"}, "geometry": {"type": "Polygon", "coordinates": [[[-100.63756, 18.30796], [-100.63868, 18.30556], [-100.6392, 18.30595], [-100.63799, 18.30825], [-100.63756, 18.30796]]]}}, {"id": "757583", "type": "Feature", "properties": {"id": "757583", "CVEGEO": "1202200460477015", "POBTOT": 0.0, "score_nse": 0.0, "NSE": null, "VIVTOT": 0.0, "GRAPROES": 0.0, "_ent": "12", "_mun": "022", "_loc": "0046"}, "geometry": {"type": "Polygon", "coordinates": [[[-100.63623, 18.3103], [-100.63753, 18.30804], [-100.63796, 18.30833], [-100.63669, 18.31058], [-100.63623, 18.3103]]]}}, {"id": "757584", "type": "Feature", "properties": {"id": "757584", "CVEGEO": "1202200460477014", "POBTOT": 0.0, "score_nse": 0.0, "NSE": null, "VIVTOT": 0.0, "GRAPROES": 0.0, "_ent": "12", "_mun": "022", "_loc": "0046"}, "geometry": {"type": "Polygon", "coordinates": [[[-100.63708, 18.31018], [-100.63781, 18.31057], [-100.63752, 18.31111], [-100.63683, 18.31063], [-100.63708, 18.31018]]]}}, {"id": "757902", "type": "Feature", "properties": {"id": "757902", "CVEGEO": "1202200460477013", "POBTOT": 0.0, "score_nse": 0.0, "NSE": null, "VIVTOT": 0.0, "GRAPROES": 0.0, "_ent": "12", "_mun": "022", "_loc": "0046"}, "geometry": {"type": "Polygon", "coordinates": [[[-100.63879, 18.31257], [-100.63768, 18.31227], [-100.63756, 18.31206], [-100.63768, 18.31149], [-100.63756, 18.31121], [-100.6379, 18.31059], [-100.63857, 18.31101], [-100.63825, 18.31158], [-100.63865, 18.31105], [-100.6394, 18.31146], [-100.63879, 18.31257]]]}}, {"id": "757903", "type": "Feature", "properties": {"id": "757903", "CVEGEO": "1202200460477011", "POBTOT": 0.0, "score_nse": 0.0, "NSE": null, "VIVTOT": 0.0, "GRAPROES": 0.0, "_ent": "12", "_mun": "022", "_loc": "0046"}, "geometry": {"type": "Polygon", "coordinates": [[[-100.63991, 18.30687], [-100.64061, 18.30725], [-100.64013, 18.30809], [-100.63947, 18.30777], [-100.63991, 18.30687]]]}}, {"id": "757904", "type": "Feature", "properties": {"id": "757904", "CVEGEO": "1202200460477010", "POBTOT": 0.0, "score_nse": 0.0, "NSE": null, "VIVTOT": 0.0, "GRAPROES": 0.0, "_ent": "12", "_mun": "022", "_loc": "0046"}, "geometry": {"type": "Polygon", "coordinates": [[[-100.63907, 18.30651], [-100.6398, 18.30685], [-100.63934, 18.30771], [-100.63863, 18.30737], [-100.63907, 18.30651]]]}}, {"id": "757905", "type": "Feature", "properties": {"id": "757905", "CVEGEO": "1202200460477009", "POBTOT": 0.0, "score_nse": 0.0, "NSE": null, "VIVTOT": 0.0, "GRAPROES": 0.0, "_ent": "12", "_mun": "022", "_loc": "0046"}, "geometry": {"type": "Polygon", "coordinates": [[[-100.63758, 18.30929], [-100.63828, 18.30966], [-100.63783, 18.31048], [-100.63712, 18.3101], [-100.63758, 18.30929]]]}}, {"id": "757947", "type": "Feature", "properties": {"id": "757947", "CVEGEO": "1202200460477012", "POBTOT": 0.0, "score_nse": 0.0, "NSE": null, "VIVTOT": 0.0, "GRAPROES": 0.0, "_ent": "12", "_mun": "022", "_loc": "0046"}, "geometry": {"type": "Polygon", "coordinates": [[[-100.6411, 18.30662], [-100.64184, 18.30698], [-100.64097, 18.30851], [-100.64026, 18.30816], [-100.6411, 18.30662]]]}}, {"id": "758454", "type": "Feature", "properties": {"id": "758454", "CVEGEO": "1202200460477021", "POBTOT": 0.0, "score_nse": 0.0, "NSE": null, "VIVTOT": 0.0, "GRAPROES": 0.0, "_ent": "12", "_mun": "022", "_loc": "0046"}, "geometry": {"type": "Polygon", "coordinates": [[[-100.64, 18.31204], [-100.64008, 18.31186], [-100.64041, 18.31208], [-100.64, 18.31204]]]}}, {"id": "758455", "type": "Feature", "properties": {"id": "758455", "CVEGEO": "1202200460477020", "POBTOT": 0.0, "score_nse": 0.0, "NSE": null, "VIVTOT": 0.0, "GRAPROES": 0.0, "_ent": "12", "_mun": "022", "_loc": "0046"}, "geometry": {"type": "Polygon", "coordinates": [[[-100.63965, 18.31266], [-100.6389, 18.31261], [-100.63947, 18.3115], [-100.64, 18.31181], [-100.63965, 18.31266]]]}}, {"id": "758456", "type": "Feature", "properties": {"id": "758456", "CVEGEO": "1202200460477019", "POBTOT": 0.0, "score_nse": 0.0, "NSE": null, "VIVTOT": 0.0, "GRAPROES": 0.0, "_ent": "12", "_mun": "022", "_loc": "0046"}, "geometry": {"type": "Polygon", "coordinates": [[[-100.63632, 18.3111], [-100.6366, 18.31061], [-100.63761, 18.31133], [-100.63751, 18.31179], [-100.63632, 18.3111]]]}}, {"id": "758457", "type": "Feature", "properties": {"id": "758457", "CVEGEO": "1202200460477007", "POBTOT": 0.0, "score_nse": 0.0, "NSE": null, "VIVTOT": 0.0, "GRAPROES": 0.0, "_ent": "12", "_mun": "022", "_loc": "0046"}, "geometry": {"type": "Polygon", "coordinates": [[[-100.63917, 18.31008], [-100.63992, 18.31046], [-100.63944, 18.3114], [-100.63869, 18.31097], [-100.63917, 18.31008]]]}}, {"id": "758458", "type": "Feature", "properties": {"id": "758458", "CVEGEO": "1202200460477006", "POBTOT": 0.0, "score_nse": 0.0, "NSE": null, "VIVTOT": 0.0, "GRAPROES": 0.0, "_ent": "12", "_mun": "022", "_loc": "0046"}, "geometry": {"type": "Polygon", "coordinates": [[[-100.63968, 18.3092], [-100.64041, 18.30955], [-100.63994, 18.31039], [-100.63922, 18.31002], [-100.63968, 18.3092]]]}}, {"id": "758459", "type": "Feature", "properties": {"id": "758459", "CVEGEO": "1202200460477005", "POBTOT": 0.0, "score_nse": 0.0, "NSE": null, "VIVTOT": 0.0, "GRAPROES": 0.0, "_ent": "12", "_mun": "022", "_loc": "0046"}, "geometry": {"type": "Polygon", "coordinates": [[[-100.64021, 18.30826], [-100.64091, 18.30861], [-100.64047, 18.30944], [-100.63974, 18.3091], [-100.64021, 18.30826]]]}}, {"id": "758460", "type": "Feature", "properties": {"id": "758460", "CVEGEO": "1202200460477004", "POBTOT": 0.0, "score_nse": 0.0, "NSE": null, "VIVTOT": 0.0, "GRAPROES": 0.0, "_ent": "12", "_mun": "022", "_loc": "0046"}, "geometry": {"type": "Polygon", "coordinates": [[[-100.63942, 18.30781], [-100.64011, 18.30817], [-100.63964, 18.30903], [-100.63894, 18.3087], [-100.63942, 18.30781]]]}}, {"id": "758461", "type": "Feature", "properties": {"id": "758461", "CVEGEO": "1202200460477003", "POBTOT": 0.0, "score_nse": 0.0, "NSE": null, "VIVTOT": 0.0, "GRAPROES": 0.0, "_ent": "12", "_mun": "022", "_loc": "0046"}, "geometry": {"type": "Polygon", "coordinates": [[[-100.6386, 18.30747], [-100.63929, 18.3078], [-100.63884, 18.30865], [-100.63812, 18.30833], [-100.6386, 18.30747]]]}}, {"id": "758462", "type": "Feature", "properties": {"id": "758462", "CVEGEO": "1202200460477002", "POBTOT": 0.0, "score_nse": 0.0, "NSE": null, "VIVTOT": 0.0, "GRAPROES": 0.0, "_ent": "12", "_mun": "022", "_loc": "0046"}, "geometry": {"type": "Polygon", "coordinates": [[[-100.63808, 18.30841], [-100.63878, 18.30873], [-100.63834, 18.30953], [-100.63765, 18.30922], [-100.63808, 18.30841]]]}}, {"id": "758463", "type": "Feature", "properties": {"id": "758463", "CVEGEO": "1202200460477001", "POBTOT": 0.0, "score_nse": 0.0, "NSE": null, "VIVTOT": 0.0, "GRAPROES": 0.0, "_ent": "12", "_mun": "022", "_loc": "0046"}, "geometry": {"type": "Polygon", "coordinates": [[[-100.63889, 18.30878], [-100.63959, 18.30913], [-100.63913, 18.30997], [-100.63843, 18.30962], [-100.63889, 18.30878]]]}}, {"id": "759039", "type": "Feature", "properties": {"id": "759039", "CVEGEO": "1202200460477018", "POBTOT": 0.0, "score_nse": 0.0, "NSE": null, "VIVTOT": 0.0, "GRAPROES": 0.0, "_ent": "12", "_mun": "022", "_loc": "0046"}, "geometry": {"type": "Polygon", "coordinates": [[[-100.64021, 18.30636], [-100.64102, 18.30659], [-100.64063, 18.30719], [-100.63995, 18.30681], [-100.64021, 18.30636]]]}}, {"id": "759146", "type": "Feature", "properties": {"id": "759146", "CVEGEO": "1202200460477008", "POBTOT": 0.0, "score_nse": 0.0, "NSE": null, "VIVTOT": 0.0, "GRAPROES": 0.0, "_ent": "12", "_mun": "022", "_loc": "0046"}, "geometry": {"type": "Polygon", "coordinates": [[[-100.63839, 18.30971], [-100.63908, 18.31006], [-100.63862, 18.31091], [-100.63795, 18.31055], [-100.63839, 18.30971]]]}}]}