{"type": "FeatureCollection", "features": [{"id": "1212208", "type": "Feature", "properties": {"id": "1212208", "CVEGEO": "1600300100018004", "POBTOT": 0.0, "score_nse": 0.0, "NSE": null, "VIVTOT": 0.0, "GRAPROES": 0.0, "_ent": "16", "_mun": "003", "_loc": "0010"}, "geometry": {"type": "Polygon", "coordinates": [[[-100.99313, 19.91853], [-100.99333, 19.91746], [-100.99373, 19.9174], [-100.99361, 19.91855], [-100.99313, 19.91853]]]}}, {"id": "1212209", "type": "Feature", "properties": {"id": "1212209", "CVEGEO": "1600300100018003", "POBTOT": 0.0, "score_nse": 0.0, "NSE": null, "VIVTOT": 0.0, "GRAPROES": 0.0, "_ent": "16", "_mun": "003", "_loc": "0010"}, "geometry": {"type": "Polygon", "coordinates": [[[-100.99305, 19.91853], [-100.99226, 19.91833], [-100.99233, 19.9178], [-100.99325, 19.91749], [-100.99305, 19.91853]]]}}, {"id": "1212371", "type": "Feature", "properties": {"id": "1212371", "CVEGEO": "1600300100018005", "POBTOT": 0.0, "score_nse": 0.0, "NSE": null, "VIVTOT": 0.0, "GRAPROES": 0.0, "_ent": "16", "_mun": "003", "_loc": "0010"}, "geometry": {"type": "Polygon", "coordinates": [[[-100.99298, 19.91931], [-100.99312, 19.91861], [-100.9936, 19.91862], [-100.99348, 19.91934], [-100.99298, 19.91931]]]}}, {"id": "1212534", "type": "Feature", "properties": {"id": "1212534", "CVEGEO": "1600300100018009", "POBTOT": 0.0, "score_nse": 0.0, "NSE": null, "VIVTOT": 0.0, "GRAPROES": 0.0, "_ent": "16", "_mun": "003", "_loc": "0010"}, "geometry": {"type": "Polygon", "coordinates": [[[-100.9927, 19.91753], [-100.99258, 19.91688], [-100.9933, 19.91679], [-100.99331, 19.9174], [-100.9927, 19.91753]]]}}, {"id": "1212535", "type": "Feature", "properties": {"id": "1212535", "CVEGEO": "1600300100018008", "POBTOT": 0.0, "score_nse": 0.0, "NSE": null, "VIVTOT": 0.0, "GRAPROES": 0.0, "_ent": "16", "_mun": "003", "_loc": "0010"}, "geometry": {"type": "Polygon", "coordinates": [[[-100.99101, 19.91974], [-100.99147, 19.91918], [-100.99205, 19.9193], [-100.99197, 19.91982], [-100.99101, 19.91974]]]}}, {"id": "1212536", "type": "Feature", "properties": {"id": "1212536", "CVEGEO": "1600300100018007", "POBTOT": 0.0, "score_nse": 0.0, "NSE": null, "VIVTOT": 0.0, "GRAPROES": 0.0, "_ent": "16", "_mun": "003", "_loc": "0010"}, "geometry": {"type": "Polygon", "coordinates": [[[-100.99213, 19.91931], [-100.99289, 19.91938], [-100.9928, 19.91989], [-100.99204, 19.91983], [-100.99213, 19.91931]]]}}, {"id": "1212537", "type": "Feature", "properties": {"id": "1212537", "CVEGEO": "1600300100018006", "POBTOT": 0.0, "score_nse": 0.0, "NSE": null, "VIVTOT": 0.0, "GRAPROES": 0.0, "_ent": "16", "_mun": "003", "_loc": "0010"}, "geometry": {"type": "Polygon", "coordinates": [[[-100.99297, 19.91938], [-100.99364, 19.91943], [-100.99369, 19.91946], [-100.99341, 19.91987], [-100.99288, 19.91989], [-100.99297, 19.91938]]]}}, {"id": "1212608", "type": "Feature", "properties": {"id": "1212608", "CVEGEO": "1600300100018011", "POBTOT": 0.0, "score_nse": 0.0, "NSE": null, "VIVTOT": 0.0, "GRAPROES": 0.0, "_ent": "16", "_mun": "003", "_loc": "0010"}, "geometry": {"type": "Polygon", "coordinates": [[[-100.99098, 19.9198], [-100.99263, 19.91996], [-100.99328, 19.91995], [-100.99267, 19.92029], [-100.99097, 19.92028], [-100.99081, 19.92019], [-100.99098, 19.9198]]]}}, {"id": "1212610", "type": "Feature", "properties": {"id": "1212610", "CVEGEO": "1600300100018001", "POBTOT": 0.0, "score_nse": 0.0, "NSE": null, "VIVTOT": 0.0, "GRAPROES": 0.0, "_ent": "16", "_mun": "003", "_loc": "0010"}, "geometry": {"type": "Polygon", "coordinates": [[[-100.99291, 19.91931], [-100.99214, 19.91924], [-100.99225, 19.9184], [-100.99304, 19.9186], [-100.99291, 19.91931]]]}}, {"id": "1212729", "type": "Feature", "properties": {"id": "1212729", "CVEGEO": "1600300100018002", "POBTOT": 0.0, "score_nse": 0.0, "NSE": null, "VIVTOT": 0.0, "GRAPROES": 0.0, "_ent": "16", "_mun": "003", "_loc": "0010"}, "geometry": {"type": "Polygon", "coordinates": [[[-100.99146, 19.91911], [-100.99178, 19.91792], [-100.99226, 19.91775], [-100.99206, 19.91923], [-100.99146, 19.91911]]]}}, {"id": "1212730", "type": "Feature", "properties": {"id": "1212730", "CVEGEO": "1600300100018010", "POBTOT": 0.0, "score_nse": 0.0, "NSE": null, "VIVTOT": 0.0, "GRAPROES": 0.0, "_ent": "16", "_mun": "003", "_loc": "0010"}, "geometry": {"type": "Polygon", "coordinates": [[[-100.99372, 19.91958], [-100.99374, 19.91937], [-100.99356, 19.91935], [-100.99381, 19.91731], [-100.99339, 19.91738], [-100.99338, 19.91683], [-100.9941, 19.91662], [-100.99428, 19.91785], [-100.99376, 19.91917], [-100.99383, 19.91934], [-100.99427, 19.9194], [-100.99418, 19.91962], [-100.99372, 19.91958]]]}}]}