{"type": "FeatureCollection", "features": [{"id": "1620602", "type": "Feature", "properties": {"id": "1620602", "CVEGEO": "2048200280185004", "POBTOT": 0.0, "score_nse": 0.0, "NSE": null, "VIVTOT": 0.0, "GRAPROES": 0.0, "_ent": "20", "_mun": "482", "_loc": "0028"}, "geometry": {"type": "Polygon", "coordinates": [[[-98.00461, 16.20389], [-98.00501, 16.20375], [-98.00491, 16.20409], [-98.00503, 16.20457], [-98.00443, 16.20446], [-98.00461, 16.20389]]]}}, {"id": "1620603", "type": "Feature", "properties": {"id": "1620603", "CVEGEO": "2048200280185002", "POBTOT": 0.0, "score_nse": 0.0, "NSE": null, "VIVTOT": 0.0, "GRAPROES": 0.0, "_ent": "20", "_mun": "482", "_loc": "0028"}, "geometry": {"type": "Polygon", "coordinates": [[[-98.0076, 16.2037], [-98.00779, 16.20353], [-98.0081, 16.20356], [-98.00797, 16.20387], [-98.0076, 16.2037]]]}}, {"id": "1620604", "type": "Feature", "properties": {"id": "1620604", "CVEGEO": "2048200280185006", "POBTOT": 0.0, "score_nse": 0.0, "NSE": null, "VIVTOT": 0.0, "GRAPROES": 0.0, "_ent": "20", "_mun": "482", "_loc": "0028"}, "geometry": {"type": "Polygon", "coordinates": [[[-98.00713, 16.20348], [-98.00752, 16.20344], [-98.00759, 16.20356], [-98.00753, 16.20366], [-98.00713, 16.20348]]]}}, {"id": "1620605", "type": "Feature", "properties": {"id": "1620605", "CVEGEO": "2048200280185001", "POBTOT": 0.0, "score_nse": 0.0, "NSE": null, "VIVTOT": 0.0, "GRAPROES": 0.0, "_ent": "20", "_mun": "482", "_loc": "0028"}, "geometry": {"type": "Polygon", "coordinates": [[[-98.00634, 16.20338], [-98.00671, 16.20351], [-98.00652, 16.20404], [-98.00634, 16.20338]]]}}, {"id": "1620616", "type": "Feature", "properties": {"id": "1620616", "CVEGEO": "2048200280185003", "POBTOT": 0.0, "score_nse": 0.0, "NSE": null, "VIVTOT": 0.0, "GRAPROES": 0.0, "_ent": "20", "_mun": "482", "_loc": "0028"}, "geometry": {"type": "Polygon", "coordinates": [[[-98.00521, 16.2041], [-98.00505, 16.2042], [-98.00497, 16.20409], [-98.00508, 16.20369], [-98.00556, 16.20328], [-98.006, 16.20328], [-98.00595, 16.20358], [-98.00606, 16.2033], [-98.00627, 16.20337], [-98.00648, 16.20413], [-98.0062, 16.20501], [-98.00508, 16.20498], [-98.00508, 16.20425], [-98.00521, 16.2041]]]}}]}