{"type": "FeatureCollection", "features": [{"id": "839853", "type": "Feature", "properties": {"id": "839853", "CVEGEO": "1302800990047011", "POBTOT": 0.0, "score_nse": 0.0, "NSE": null, "VIVTOT": 0.0, "GRAPROES": 0.0, "_ent": "13", "_mun": "028", "_loc": "0099"}, "geometry": {"type": "Polygon", "coordinates": [[[-98.53193, 21.05331], [-98.53222, 21.05321], [-98.53261, 21.05396], [-98.53235, 21.05408], [-98.53193, 21.05331]]]}}, {"id": "839854", "type": "Feature", "properties": {"id": "839854", "CVEGEO": "1302800990047012", "POBTOT": 0.0, "score_nse": 0.0, "NSE": null, "VIVTOT": 0.0, "GRAPROES": 0.0, "_ent": "13", "_mun": "028", "_loc": "0099"}, "geometry": {"type": "Polygon", "coordinates": [[[-98.53383, 21.05337], [-98.53263, 21.05394], [-98.53224, 21.05319], [-98.5332, 21.05258], [-98.53359, 21.05275], [-98.53383, 21.05337]]]}}, {"id": "839855", "type": "Feature", "properties": {"id": "839855", "CVEGEO": "1302800990047013", "POBTOT": 0.0, "score_nse": 0.0, "NSE": null, "VIVTOT": 0.0, "GRAPROES": 0.0, "_ent": "13", "_mun": "028", "_loc": "0099"}, "geometry": {"type": "Polygon", "coordinates": [[[-98.53361, 21.05275], [-98.53481, 21.05301], [-98.53497, 21.05301], [-98.53385, 21.05336], [-98.53361, 21.05275]]]}}, {"id": "840007", "type": "Feature", "properties": {"id": "840007", "CVEGEO": "1302800990047002", "POBTOT": 0.0, "score_nse": 0.0, "NSE": null, "VIVTOT": 0.0, "GRAPROES": 0.0, "_ent": "13", "_mun": "028", "_loc": "0099"}, "geometry": {"type": "Polygon", "coordinates": [[[-98.52562, 21.05498], [-98.52689, 21.05454], [-98.52728, 21.05527], [-98.52559, 21.05551], [-98.52562, 21.05498]]]}}, {"id": "840008", "type": "Feature", "properties": {"id": "840008", "CVEGEO": "1302800990047004", "POBTOT": 0.0, "score_nse": 0.0, "NSE": null, "VIVTOT": 0.0, "GRAPROES": 0.0, "_ent": "13", "_mun": "028", "_loc": "0099"}, "geometry": {"type": "Polygon", "coordinates": [[[-98.53316, 21.05254], [-98.53098, 21.05387], [-98.5289, 21.0538], [-98.52877, 21.05301], [-98.53095, 21.05227], [-98.53206, 21.052], [-98.53316, 21.05254]]]}}, {"id": "840009", "type": "Feature", "properties": {"id": "840009", "CVEGEO": "1302800990047003", "POBTOT": 0.0, "score_nse": 0.0, "NSE": null, "VIVTOT": 0.0, "GRAPROES": 0.0, "_ent": "13", "_mun": "028", "_loc": "0099"}, "geometry": {"type": "Polygon", "coordinates": [[[-98.52819, 21.05392], [-98.52649, 21.05463], [-98.52494, 21.05505], [-98.52403, 21.05483], [-98.52385, 21.05457], [-98.52464, 21.05435], [-98.5255, 21.05382], [-98.52606, 21.05327], [-98.52697, 21.05345], [-98.5287, 21.05304], [-98.52882, 21.05383], [-98.52819, 21.05392]]]}}, {"id": "840299", "type": "Feature", "properties": {"id": "840299", "CVEGEO": "1302800990047001", "POBTOT": 0.0, "score_nse": 0.0, "NSE": null, "VIVTOT": 0.0, "GRAPROES": 0.0, "_ent": "13", "_mun": "028", "_loc": "0099"}, "geometry": {"type": "Polygon", "coordinates": [[[-98.53001, 21.05459], [-98.52869, 21.05475], [-98.52732, 21.05525], [-98.52694, 21.05452], [-98.52801, 21.05403], [-98.52987, 21.05386], [-98.53001, 21.05459]]]}}, {"id": "840300", "type": "Feature", "properties": {"id": "840300", "CVEGEO": "1302800990047008", "POBTOT": 0.0, "score_nse": 0.0, "NSE": null, "VIVTOT": 0.0, "GRAPROES": 0.0, "_ent": "13", "_mun": "028", "_loc": "0099"}, "geometry": {"type": "Polygon", "coordinates": [[[-98.53186, 21.05432], [-98.53005, 21.05459], [-98.52991, 21.05385], [-98.53099, 21.05393], [-98.5319, 21.05332], [-98.53232, 21.05409], [-98.53186, 21.05432]]]}}, {"id": "840301", "type": "Feature", "properties": {"id": "840301", "CVEGEO": "1302800990047009", "POBTOT": 0.0, "score_nse": 0.0, "NSE": null, "VIVTOT": 0.0, "GRAPROES": 0.0, "_ent": "13", "_mun": "028", "_loc": "0099"}, "geometry": {"type": "Polygon", "coordinates": [[[-98.52402, 21.05492], [-98.52474, 21.05512], [-98.52548, 21.05502], [-98.52555, 21.0555], [-98.52503, 21.05571], [-98.52478, 21.05624], [-98.52408, 21.05552], [-98.52402, 21.05492]]]}}, {"id": "840302", "type": "Feature", "properties": {"id": "840302", "CVEGEO": "1302800990047014", "POBTOT": 0.0, "score_nse": 0.0, "NSE": null, "VIVTOT": 0.0, "GRAPROES": 0.0, "_ent": "13", "_mun": "028", "_loc": "0099"}, "geometry": {"type": "Polygon", "coordinates": [[[-98.53323, 21.05253], [-98.53353, 21.05194], [-98.53517, 21.05286], [-98.53483, 21.05297], [-98.53323, 21.05253]]]}}, {"id": "840702", "type": "Feature", "properties": {"id": "840702", "CVEGEO": "1302800990047015", "POBTOT": 0.0, "score_nse": 0.0, "NSE": null, "VIVTOT": 0.0, "GRAPROES": 0.0, "_ent": "13", "_mun": "028", "_loc": "0099"}, "geometry": {"type": "Polygon", "coordinates": [[[-98.5355, 21.05258], [-98.53519, 21.05283], [-98.53357, 21.05191], [-98.53397, 21.05169], [-98.5355, 21.05258]]]}}]}