{"type": "FeatureCollection", "features": [{"id": "257165", "type": "Feature", "properties": {"id": "257165", "CVEGEO": "0702602120013009", "POBTOT": 0.0, "score_nse": 0.0, "NSE": null, "VIVTOT": 0.0, "GRAPROES": 0.0, "_ent": "07", "_mun": "026", "_loc": "0212"}, "geometry": {"type": "Polygon", "coordinates": [[[-92.47731, 16.94243], [-92.47731, 16.94198], [-92.47778, 16.94197], [-92.47776, 16.94234], [-92.47731, 16.94243]]]}}, {"id": "257166", "type": "Feature", "properties": {"id": "257166", "CVEGEO": "0702602120013010", "POBTOT": 0.0, "score_nse": 0.0, "NSE": null, "VIVTOT": 0.0, "GRAPROES": 0.0, "_ent": "07", "_mun": "026", "_loc": "0212"}, "geometry": {"type": "Polygon", "coordinates": [[[-92.47675, 16.94252], [-92.47685, 16.94201], [-92.47724, 16.94197], [-92.47725, 16.94245], [-92.47675, 16.94252]]]}}, {"id": "257167", "type": "Feature", "properties": {"id": "257167", "CVEGEO": "0702602120013011", "POBTOT": 0.0, "score_nse": 0.0, "NSE": null, "VIVTOT": 0.0, "GRAPROES": 0.0, "_ent": "07", "_mun": "026", "_loc": "0212"}, "geometry": {"type": "Polygon", "coordinates": [[[-92.47622, 16.94219], [-92.47679, 16.94207], [-92.4767, 16.94251], [-92.47625, 16.94261], [-92.47622, 16.94219]]]}}, {"id": "257168", "type": "Feature", "properties": {"id": "257168", "CVEGEO": "0702602120013012", "POBTOT": 0.0, "score_nse": 0.0, "NSE": null, "VIVTOT": 0.0, "GRAPROES": 0.0, "_ent": "07", "_mun": "026", "_loc": "0212"}, "geometry": {"type": "Polygon", "coordinates": [[[-92.47619, 16.94265], [-92.47526, 16.94289], [-92.47496, 16.94227], [-92.4754, 16.9421], [-92.47615, 16.94218], [-92.47619, 16.94265]]]}}, {"id": "257171", "type": "Feature", "properties": {"id": "257171", "CVEGEO": "0702602120013001", "POBTOT": 0.0, "score_nse": 0.0, "NSE": null, "VIVTOT": 0.0, "GRAPROES": 0.0, "_ent": "07", "_mun": "026", "_loc": "0212"}, "geometry": {"type": "Polygon", "coordinates": [[[-92.47772, 16.94492], [-92.47764, 16.94457], [-92.47815, 16.94447], [-92.47822, 16.94488], [-92.47772, 16.94492]]]}}, {"id": "257172", "type": "Feature", "properties": {"id": "257172", "CVEGEO": "0702602120013002", "POBTOT": 0.0, "score_nse": 0.0, "NSE": null, "VIVTOT": 0.0, "GRAPROES": 0.0, "_ent": "07", "_mun": "026", "_loc": "0212"}, "geometry": {"type": "Polygon", "coordinates": [[[-92.47762, 16.94451], [-92.47754, 16.94404], [-92.47806, 16.94396], [-92.47813, 16.94441], [-92.47762, 16.94451]]]}}, {"id": "257173", "type": "Feature", "properties": {"id": "257173", "CVEGEO": "0702602120013003", "POBTOT": 0.0, "score_nse": 0.0, "NSE": null, "VIVTOT": 0.0, "GRAPROES": 0.0, "_ent": "07", "_mun": "026", "_loc": "0212"}, "geometry": {"type": "Polygon", "coordinates": [[[-92.47754, 16.94397], [-92.47746, 16.94355], [-92.47798, 16.94346], [-92.47805, 16.94389], [-92.47754, 16.94397]]]}}, {"id": "257174", "type": "Feature", "properties": {"id": "257174", "CVEGEO": "0702602120013004", "POBTOT": 0.0, "score_nse": 0.0, "NSE": null, "VIVTOT": 0.0, "GRAPROES": 0.0, "_ent": "07", "_mun": "026", "_loc": "0212"}, "geometry": {"type": "Polygon", "coordinates": [[[-92.47744, 16.94349], [-92.47736, 16.94303], [-92.47785, 16.94293], [-92.47796, 16.94339], [-92.47744, 16.94349]]]}}, {"id": "257175", "type": "Feature", "properties": {"id": "257175", "CVEGEO": "0702602120013005", "POBTOT": 0.0, "score_nse": 0.0, "NSE": null, "VIVTOT": 0.0, "GRAPROES": 0.0, "_ent": "07", "_mun": "026", "_loc": "0212"}, "geometry": {"type": "Polygon", "coordinates": [[[-92.47785, 16.94539], [-92.47772, 16.94496], [-92.47824, 16.94492], [-92.47831, 16.94536], [-92.47785, 16.94539]]]}}, {"id": "257176", "type": "Feature", "properties": {"id": "257176", "CVEGEO": "0702602120013007", "POBTOT": 0.0, "score_nse": 0.0, "NSE": null, "VIVTOT": 0.0, "GRAPROES": 0.0, "_ent": "07", "_mun": "026", "_loc": "0212"}, "geometry": {"type": "Polygon", "coordinates": [[[-92.47652, 16.94463], [-92.47644, 16.94449], [-92.47661, 16.94423], [-92.47748, 16.94406], [-92.47755, 16.94453], [-92.47652, 16.94463]]]}}, {"id": "257177", "type": "Feature", "properties": {"id": "257177", "CVEGEO": "0702602120013014", "POBTOT": 0.0, "score_nse": 0.0, "NSE": null, "VIVTOT": 0.0, "GRAPROES": 0.0, "_ent": "07", "_mun": "026", "_loc": "0212"}, "geometry": {"type": "Polygon", "coordinates": [[[-92.47683, 16.94306], [-92.47675, 16.94258], [-92.47721, 16.94252], [-92.47728, 16.94299], [-92.47683, 16.94306]]]}}, {"id": "257178", "type": "Feature", "properties": {"id": "257178", "CVEGEO": "0702602120013015", "POBTOT": 0.0, "score_nse": 0.0, "NSE": null, "VIVTOT": 0.0, "GRAPROES": 0.0, "_ent": "07", "_mun": "026", "_loc": "0212"}, "geometry": {"type": "Polygon", "coordinates": [[[-92.47631, 16.94313], [-92.47625, 16.94266], [-92.4767, 16.94259], [-92.47676, 16.94307], [-92.47631, 16.94313]]]}}, {"id": "257179", "type": "Feature", "properties": {"id": "257179", "CVEGEO": "0702602120013016", "POBTOT": 0.0, "score_nse": 0.0, "NSE": null, "VIVTOT": 0.0, "GRAPROES": 0.0, "_ent": "07", "_mun": "026", "_loc": "0212"}, "geometry": {"type": "Polygon", "coordinates": [[[-92.47528, 16.94295], [-92.4762, 16.9427], [-92.47624, 16.94314], [-92.47595, 16.94343], [-92.47528, 16.94295]]]}}, {"id": "257180", "type": "Feature", "properties": {"id": "257180", "CVEGEO": "0702602120013013", "POBTOT": 0.0, "score_nse": 0.0, "NSE": null, "VIVTOT": 0.0, "GRAPROES": 0.0, "_ent": "07", "_mun": "026", "_loc": "0212"}, "geometry": {"type": "Polygon", "coordinates": [[[-92.47735, 16.94297], [-92.4773, 16.94251], [-92.47775, 16.9424], [-92.47784, 16.94288], [-92.47735, 16.94297]]]}}, {"id": "257181", "type": "Feature", "properties": {"id": "257181", "CVEGEO": "0702602120013006", "POBTOT": 0.0, "score_nse": 0.0, "NSE": null, "VIVTOT": 0.0, "GRAPROES": 0.0, "_ent": "07", "_mun": "026", "_loc": "0212"}, "geometry": {"type": "Polygon", "coordinates": [[[-92.47663, 16.94545], [-92.4761, 16.94515], [-92.47638, 16.94468], [-92.47757, 16.94459], [-92.47778, 16.94538], [-92.47663, 16.94545]]]}}, {"id": "257182", "type": "Feature", "properties": {"id": "257182", "CVEGEO": "0702602120013008", "POBTOT": 0.0, "score_nse": 0.0, "NSE": null, "VIVTOT": 0.0, "GRAPROES": 0.0, "_ent": "07", "_mun": "026", "_loc": "0212"}, "geometry": {"type": "Polygon", "coordinates": [[[-92.47746, 16.94399], [-92.47657, 16.94417], [-92.4764, 16.94443], [-92.47609, 16.94421], [-92.47635, 16.94379], [-92.47605, 16.94347], [-92.47628, 16.94321], [-92.47731, 16.94304], [-92.47746, 16.94399]]]}}]}