{"type": "FeatureCollection", "features": [{"id": "1567319", "type": "Feature", "properties": {"id": "1567319", "CVEGEO": "2042700030018005", "POBTOT": 0.0, "score_nse": 0.0, "NSE": null, "VIVTOT": 0.0, "GRAPROES": 0.0, "_ent": "20", "_mun": "427", "_loc": "0003"}, "geometry": {"type": "Polygon", "coordinates": [[[-94.95566, 16.95374], [-94.95517, 16.95365], [-94.95616, 16.9529], [-94.95689, 16.95348], [-94.95566, 16.95374]]]}}, {"id": "1567320", "type": "Feature", "properties": {"id": "1567320", "CVEGEO": "2042700030018004", "POBTOT": 0.0, "score_nse": 0.0, "NSE": null, "VIVTOT": 0.0, "GRAPROES": 0.0, "_ent": "20", "_mun": "427", "_loc": "0003"}, "geometry": {"type": "Polygon", "coordinates": [[[-94.95535, 16.95376], [-94.95703, 16.95353], [-94.95685, 16.95382], [-94.957, 16.95471], [-94.95535, 16.95376]]]}}, {"id": "1567321", "type": "Feature", "properties": {"id": "1567321", "CVEGEO": "2042700030018007", "POBTOT": 0.0, "score_nse": 0.0, "NSE": null, "VIVTOT": 0.0, "GRAPROES": 0.0, "_ent": "20", "_mun": "427", "_loc": "0003"}, "geometry": {"type": "Polygon", "coordinates": [[[-94.96287, 16.95185], [-94.96118, 16.95154], [-94.96093, 16.95093], [-94.96045, 16.95078], [-94.96196, 16.95016], [-94.96259, 16.94944], [-94.96299, 16.95167], [-94.96287, 16.95185]]]}}, {"id": "1567322", "type": "Feature", "properties": {"id": "1567322", "CVEGEO": "2042700030018001", "POBTOT": 0.0, "score_nse": 0.0, "NSE": null, "VIVTOT": 0.0, "GRAPROES": 0.0, "_ent": "20", "_mun": "427", "_loc": "0003"}, "geometry": {"type": "Polygon", "coordinates": [[[-94.95704, 16.95471], [-94.95689, 16.95383], [-94.95707, 16.95354], [-94.95789, 16.95363], [-94.95866, 16.95405], [-94.95941, 16.95403], [-94.95952, 16.95546], [-94.958, 16.95522], [-94.95704, 16.95471]]]}}, {"id": "1567323", "type": "Feature", "properties": {"id": "1567323", "CVEGEO": "2042700030018003", "POBTOT": 0.0, "score_nse": 0.0, "NSE": null, "VIVTOT": 0.0, "GRAPROES": 0.0, "_ent": "20", "_mun": "427", "_loc": "0003"}, "geometry": {"type": "Polygon", "coordinates": [[[-94.95757, 16.95358], [-94.95736, 16.95299], [-94.95785, 16.95224], [-94.95892, 16.95207], [-94.95835, 16.95255], [-94.95792, 16.95358], [-94.95757, 16.95358]]]}}, {"id": "1567324", "type": "Feature", "properties": {"id": "1567324", "CVEGEO": "2042700030018006", "POBTOT": 0.0, "score_nse": 0.0, "NSE": null, "VIVTOT": 0.0, "GRAPROES": 0.0, "_ent": "20", "_mun": "427", "_loc": "0003"}, "geometry": {"type": "Polygon", "coordinates": [[[-94.96116, 16.95146], [-94.95949, 16.95159], [-94.95895, 16.95205], [-94.95824, 16.95204], [-94.95783, 16.95221], [-94.95734, 16.953], [-94.95753, 16.95358], [-94.95687, 16.95343], [-94.9562, 16.95289], [-94.95787, 16.95155], [-94.95889, 16.95106], [-94.96042, 16.9508], [-94.96089, 16.95095], [-94.96116, 16.95146]]]}}, {"id": "1567325", "type": "Feature", "properties": {"id": "1567325", "CVEGEO": "2042700030018002", "POBTOT": 0.0, "score_nse": 0.0, "NSE": null, "VIVTOT": 0.0, "GRAPROES": 0.0, "_ent": "20", "_mun": "427", "_loc": "0003"}, "geometry": {"type": "Polygon", "coordinates": [[[-94.96117, 16.95159], [-94.96285, 16.95189], [-94.96254, 16.95237], [-94.96206, 16.95271], [-94.96103, 16.95249], [-94.96202, 16.95277], [-94.96174, 16.95304], [-94.96094, 16.95332], [-94.95981, 16.95338], [-94.95957, 16.95351], [-94.95936, 16.95399], [-94.95866, 16.95401], [-94.95796, 16.95357], [-94.95838, 16.95258], [-94.95951, 16.95163], [-94.96117, 16.95159]]]}}, {"id": "1567326", "type": "Feature", "properties": {"id": "1567326", "CVEGEO": "2042700030018009", "POBTOT": 0.0, "score_nse": 0.0, "NSE": null, "VIVTOT": 0.0, "GRAPROES": 0.0, "_ent": "20", "_mun": "427", "_loc": "0003"}, "geometry": {"type": "Polygon", "coordinates": [[[-94.96266, 16.95237], [-94.96405, 16.95243], [-94.96557, 16.95362], [-94.96641, 16.95491], [-94.96592, 16.95475], [-94.96499, 16.9538], [-94.96366, 16.95346], [-94.96266, 16.95237]]]}}, {"id": "1567327", "type": "Feature", "properties": {"id": "1567327", "CVEGEO": "2042700030018017", "POBTOT": 0.0, "score_nse": 0.0, "NSE": null, "VIVTOT": 0.0, "GRAPROES": 0.0, "_ent": "20", "_mun": "427", "_loc": "0003"}, "geometry": {"type": "Polygon", "coordinates": [[[-94.95522, 16.95192], [-94.95658, 16.9518], [-94.95709, 16.95148], [-94.95778, 16.95152], [-94.9561, 16.95283], [-94.95573, 16.9525], [-94.95514, 16.95245], [-94.95522, 16.95192]]]}}, {"id": "1567328", "type": "Feature", "properties": {"id": "1567328", "CVEGEO": "2042700030018018", "POBTOT": 0.0, "score_nse": 0.0, "NSE": null, "VIVTOT": 0.0, "GRAPROES": 0.0, "_ent": "20", "_mun": "427", "_loc": "0003"}, "geometry": {"type": "Polygon", "coordinates": [[[-94.95286, 16.95321], [-94.95397, 16.95367], [-94.95501, 16.95369], [-94.95383, 16.95521], [-94.95238, 16.95508], [-94.95286, 16.95321]]]}}, {"id": "1567329", "type": "Feature", "properties": {"id": "1567329", "CVEGEO": "2042700030018014", "POBTOT": 0.0, "score_nse": 0.0, "NSE": null, "VIVTOT": 0.0, "GRAPROES": 0.0, "_ent": "20", "_mun": "427", "_loc": "0003"}, "geometry": {"type": "Polygon", "coordinates": [[[-94.95964, 16.95577], [-94.95922, 16.95644], [-94.95835, 16.95623], [-94.95788, 16.95583], [-94.95764, 16.95514], [-94.95804, 16.95532], [-94.95937, 16.95544], [-94.95969, 16.95567], [-94.95901, 16.95581], [-94.95964, 16.95577]]]}}, {"id": "1567330", "type": "Feature", "properties": {"id": "1567330", "CVEGEO": "2042700030018012", "POBTOT": 0.0, "score_nse": 0.0, "NSE": null, "VIVTOT": 0.0, "GRAPROES": 0.0, "_ent": "20", "_mun": "427", "_loc": "0003"}, "geometry": {"type": "Polygon", "coordinates": [[[-94.96135, 16.95333], [-94.96088, 16.95439], [-94.95977, 16.95554], [-94.95957, 16.95548], [-94.95944, 16.954], [-94.95962, 16.95351], [-94.96095, 16.95336], [-94.96166, 16.95311], [-94.96135, 16.95333]]]}}, {"id": "1567331", "type": "Feature", "properties": {"id": "1567331", "CVEGEO": "2042700030018011", "POBTOT": 0.0, "score_nse": 0.0, "NSE": null, "VIVTOT": 0.0, "GRAPROES": 0.0, "_ent": "20", "_mun": "427", "_loc": "0003"}, "geometry": {"type": "Polygon", "coordinates": [[[-94.95932, 16.95686], [-94.95932, 16.95821], [-94.95946, 16.95915], [-94.95838, 16.9594], [-94.95744, 16.95906], [-94.95681, 16.95905], [-94.9569, 16.95828], [-94.95708, 16.958], [-94.95798, 16.95738], [-94.95837, 16.9568], [-94.95932, 16.95686]]]}}, {"id": "1567332", "type": "Feature", "properties": {"id": "1567332", "CVEGEO": "2042700030018013", "POBTOT": 0.0, "score_nse": 0.0, "NSE": null, "VIVTOT": 0.0, "GRAPROES": 0.0, "_ent": "20", "_mun": "427", "_loc": "0003"}, "geometry": {"type": "Polygon", "coordinates": [[[-94.96024, 16.95831], [-94.95954, 16.95905], [-94.95937, 16.95821], [-94.95947, 16.95729], [-94.96036, 16.95797], [-94.96024, 16.95831]]]}}, {"id": "1567383", "type": "Feature", "properties": {"id": "1567383", "CVEGEO": "2042700030018016", "POBTOT": 0.0, "score_nse": 0.0, "NSE": null, "VIVTOT": 0.0, "GRAPROES": 0.0, "_ent": "20", "_mun": "427", "_loc": "0003"}, "geometry": {"type": "Polygon", "coordinates": [[[-94.9551, 16.95246], [-94.95474, 16.95294], [-94.95473, 16.95363], [-94.95399, 16.95363], [-94.95286, 16.95315], [-94.95325, 16.95248], [-94.95446, 16.9521], [-94.95517, 16.95194], [-94.9551, 16.95246]]]}}, {"id": "1567384", "type": "Feature", "properties": {"id": "1567384", "CVEGEO": "2042700030018008", "POBTOT": 0.0, "score_nse": 0.0, "NSE": null, "VIVTOT": 0.0, "GRAPROES": 0.0, "_ent": "20", "_mun": "427", "_loc": "0003"}, "geometry": {"type": "Polygon", "coordinates": [[[-94.96039, 16.95794], [-94.9595, 16.95728], [-94.95932, 16.95631], [-94.96104, 16.95426], [-94.96141, 16.95338], [-94.96212, 16.95276], [-94.96257, 16.95312], [-94.96376, 16.95356], [-94.9633, 16.9551], [-94.96039, 16.95794]]]}}, {"id": "1567385", "type": "Feature", "properties": {"id": "1567385", "CVEGEO": "2042700030018019", "POBTOT": 0.0, "score_nse": 0.0, "NSE": null, "VIVTOT": 0.0, "GRAPROES": 0.0, "_ent": "20", "_mun": "427", "_loc": "0003"}, "geometry": {"type": "Polygon", "coordinates": [[[-94.95476, 16.95362], [-94.95476, 16.95297], [-94.95497, 16.95255], [-94.95556, 16.9525], [-94.95606, 16.95284], [-94.95506, 16.95365], [-94.95476, 16.95362]]]}}, {"id": "1567386", "type": "Feature", "properties": {"id": "1567386", "CVEGEO": "2042700030018020", "POBTOT": 0.0, "score_nse": 0.0, "NSE": null, "VIVTOT": 0.0, "GRAPROES": 0.0, "_ent": "20", "_mun": "427", "_loc": "0003"}, "geometry": {"type": "Polygon", "coordinates": [[[-94.96255, 16.95243], [-94.96288, 16.95263], [-94.9636, 16.95347], [-94.96259, 16.9531], [-94.96218, 16.95274], [-94.96255, 16.95243]]]}}]}