{"type": "FeatureCollection", "features": [{"id": "1649805", "type": "Feature", "properties": {"id": "1649805", "CVEGEO": "2103900140026003", "POBTOT": 0.0, "score_nse": 0.0, "NSE": null, "VIVTOT": 0.0, "GRAPROES": 0.0, "_ent": "21", "_mun": "039", "_loc": "0014"}, "geometry": {"type": "Polygon", "coordinates": [[[-97.79857, 19.9281], [-97.79829, 19.92814], [-97.79616, 19.92672], [-97.7956, 19.92683], [-97.79517, 19.92737], [-97.79388, 19.92649], [-97.7935, 19.92576], [-97.79307, 19.92534], [-97.79343, 19.9254], [-97.7938, 19.9252], [-97.79422, 19.92463], [-97.79474, 19.92462], [-97.79528, 19.92433], [-97.79596, 19.92466], [-97.79623, 19.92424], [-97.79623, 19.92532], [-97.79713, 19.92491], [-97.79788, 19.92433], [-97.79857, 19.92442], [-97.79875, 19.92538], [-97.7993, 19.92599], [-97.79913, 19.92754], [-97.79959, 19.92879], [-97.79857, 19.9281]]]}}, {"id": "1649859", "type": "Feature", "properties": {"id": "1649859", "CVEGEO": "2103900140026001", "POBTOT": 0.0, "score_nse": 0.0, "NSE": null, "VIVTOT": 0.0, "GRAPROES": 0.0, "_ent": "21", "_mun": "039", "_loc": "0014"}, "geometry": {"type": "Polygon", "coordinates": [[[-97.79331, 19.92358], [-97.7928, 19.92322], [-97.79412, 19.92264], [-97.7951, 19.92182], [-97.79625, 19.92214], [-97.79639, 19.92297], [-97.79591, 19.92453], [-97.79526, 19.92417], [-97.79459, 19.92453], [-97.79369, 19.92447], [-97.79331, 19.92358]]]}}, {"id": "1649860", "type": "Feature", "properties": {"id": "1649860", "CVEGEO": "2103900140026002", "POBTOT": 0.0, "score_nse": 0.0, "NSE": null, "VIVTOT": 0.0, "GRAPROES": 0.0, "_ent": "21", "_mun": "039", "_loc": "0014"}, "geometry": {"type": "Polygon", "coordinates": [[[-97.7932, 19.9257], [-97.79268, 19.9257], [-97.79227, 19.92501], [-97.79171, 19.92498], [-97.79164, 19.92467], [-97.79246, 19.92379], [-97.79264, 19.92339], [-97.79317, 19.92346], [-97.79362, 19.92447], [-97.7942, 19.92454], [-97.79355, 19.92523], [-97.79303, 19.92521], [-97.79295, 19.92541], [-97.7932, 19.9257]]]}}, {"id": "1649861", "type": "Feature", "properties": {"id": "1649861", "CVEGEO": "2103900140026004", "POBTOT": 0.0, "score_nse": 0.0, "NSE": null, "VIVTOT": 0.0, "GRAPROES": 0.0, "_ent": "21", "_mun": "039", "_loc": "0014"}, "geometry": {"type": "Polygon", "coordinates": [[[-97.79128, 19.92626], [-97.79117, 19.92606], [-97.79132, 19.92589], [-97.79125, 19.92564], [-97.79181, 19.92555], [-97.79195, 19.92537], [-97.79172, 19.92503], [-97.79186, 19.92497], [-97.79235, 19.92513], [-97.79266, 19.92572], [-97.79331, 19.92572], [-97.79338, 19.92605], [-97.79311, 19.92696], [-97.79321, 19.92765], [-97.79339, 19.92789], [-97.79286, 19.92794], [-97.79256, 19.92746], [-97.79187, 19.92701], [-97.79099, 19.92694], [-97.79083, 19.92682], [-97.79128, 19.92626]]]}}]}