{"type": "FeatureCollection", "features": [{"id": "1739042", "type": "Feature", "properties": {"id": "1739042", "CVEGEO": "2119100080040021", "POBTOT": 0.0, "score_nse": 0.0, "NSE": null, "VIVTOT": 0.0, "GRAPROES": 0.0, "_ent": "21", "_mun": "191", "_loc": "0008"}, "geometry": {"type": "Polygon", "coordinates": [[[-98.33054, 17.97763], [-98.33, 17.97738], [-98.33148, 17.97693], [-98.33222, 17.97755], [-98.33141, 17.97743], [-98.33054, 17.97763]]]}}, {"id": "1739043", "type": "Feature", "properties": {"id": "1739043", "CVEGEO": "2119100080040007", "POBTOT": 0.0, "score_nse": 0.0, "NSE": null, "VIVTOT": 0.0, "GRAPROES": 0.0, "_ent": "21", "_mun": "191", "_loc": "0008"}, "geometry": {"type": "Polygon", "coordinates": [[[-98.33215, 17.98033], [-98.33222, 17.98019], [-98.33198, 17.97996], [-98.33288, 17.97962], [-98.33273, 17.97996], [-98.33215, 17.98033]]]}}, {"id": "1739044", "type": "Feature", "properties": {"id": "1739044", "CVEGEO": "2119100080040006", "POBTOT": 0.0, "score_nse": 0.0, "NSE": null, "VIVTOT": 0.0, "GRAPROES": 0.0, "_ent": "21", "_mun": "191", "_loc": "0008"}, "geometry": {"type": "Polygon", "coordinates": [[[-98.33202, 17.97987], [-98.33261, 17.97949], [-98.33278, 17.97937], [-98.33284, 17.97956], [-98.33202, 17.97987]]]}}, {"id": "1739069", "type": "Feature", "properties": {"id": "1739069", "CVEGEO": "2119100080040001", "POBTOT": 0.0, "score_nse": 0.0, "NSE": null, "VIVTOT": 0.0, "GRAPROES": 0.0, "_ent": "21", "_mun": "191", "_loc": "0008"}, "geometry": {"type": "Polygon", "coordinates": [[[-98.33167, 17.98003], [-98.3313, 17.98027], [-98.33124, 17.98003], [-98.33167, 17.98003]]]}}, {"id": "1739096", "type": "Feature", "properties": {"id": "1739096", "CVEGEO": "2119100080040041", "POBTOT": 0.0, "score_nse": 0.0, "NSE": null, "VIVTOT": 0.0, "GRAPROES": 0.0, "_ent": "21", "_mun": "191", "_loc": "0008"}, "geometry": {"type": "Polygon", "coordinates": [[[-98.33383, 17.98396], [-98.33285, 17.98319], [-98.3327, 17.98289], [-98.33288, 17.98281], [-98.33366, 17.98355], [-98.33399, 17.98365], [-98.33383, 17.98396]]]}}, {"id": "1739097", "type": "Feature", "properties": {"id": "1739097", "CVEGEO": "2119100080040040", "POBTOT": 0.0, "score_nse": 0.0, "NSE": null, "VIVTOT": 0.0, "GRAPROES": 0.0, "_ent": "21", "_mun": "191", "_loc": "0008"}, "geometry": {"type": "Polygon", "coordinates": [[[-98.33262, 17.98287], [-98.33241, 17.98239], [-98.3325, 17.98195], [-98.33284, 17.98275], [-98.33262, 17.98287]]]}}, {"id": "1739098", "type": "Feature", "properties": {"id": "1739098", "CVEGEO": "2119100080040039", "POBTOT": 0.0, "score_nse": 0.0, "NSE": null, "VIVTOT": 0.0, "GRAPROES": 0.0, "_ent": "21", "_mun": "191", "_loc": "0008"}, "geometry": {"type": "Polygon", "coordinates": [[[-98.33413, 17.98222], [-98.33396, 17.98258], [-98.33413, 17.98313], [-98.33392, 17.9836], [-98.33282, 17.98266], [-98.3326, 17.98208], [-98.33358, 17.98241], [-98.33413, 17.98222]]]}}, {"id": "1739099", "type": "Feature", "properties": {"id": "1739099", "CVEGEO": "2119100080040020", "POBTOT": 0.0, "score_nse": 0.0, "NSE": null, "VIVTOT": 0.0, "GRAPROES": 0.0, "_ent": "21", "_mun": "191", "_loc": "0008"}, "geometry": {"type": "Polygon", "coordinates": [[[-98.33057, 17.97956], [-98.32997, 17.97933], [-98.32942, 17.97933], [-98.32964, 17.97885], [-98.33029, 17.97879], [-98.3301, 17.97866], [-98.32965, 17.97879], [-98.32983, 17.97741], [-98.33053, 17.97768], [-98.33084, 17.97818], [-98.3307, 17.97945], [-98.33035, 17.97847], [-98.33076, 17.97822], [-98.33031, 17.97833], [-98.33068, 17.97802], [-98.33061, 17.97782], [-98.33022, 17.9782], [-98.3302, 17.97802], [-98.33042, 17.97779], [-98.32997, 17.97765], [-98.33011, 17.97825], [-98.32986, 17.97826], [-98.33024, 17.9784], [-98.33057, 17.97956]]]}}, {"id": "1739100", "type": "Feature", "properties": {"id": "1739100", "CVEGEO": "2119100080040019", "POBTOT": 0.0, "score_nse": 0.0, "NSE": null, "VIVTOT": 0.0, "GRAPROES": 0.0, "_ent": "21", "_mun": "191", "_loc": "0008"}, "geometry": {"type": "Polygon", "coordinates": [[[-98.33028, 17.98125], [-98.3306, 17.98084], [-98.33088, 17.98081], [-98.33284, 17.98103], [-98.33302, 17.98122], [-98.33246, 17.98117], [-98.33106, 17.9817], [-98.33057, 17.98158], [-98.33028, 17.98125]]]}}, {"id": "1739101", "type": "Feature", "properties": {"id": "1739101", "CVEGEO": "2119100080040010", "POBTOT": 0.0, "score_nse": 0.0, "NSE": null, "VIVTOT": 0.0, "GRAPROES": 0.0, "_ent": "21", "_mun": "191", "_loc": "0008"}, "geometry": {"type": "Polygon", "coordinates": [[[-98.33073, 17.97966], [-98.33107, 17.97996], [-98.33067, 17.9803], [-98.33019, 17.98107], [-98.33021, 17.98055], [-98.33074, 17.98009], [-98.33073, 17.97966]]]}}, {"id": "1739102", "type": "Feature", "properties": {"id": "1739102", "CVEGEO": "2119100080040009", "POBTOT": 0.0, "score_nse": 0.0, "NSE": null, "VIVTOT": 0.0, "GRAPROES": 0.0, "_ent": "21", "_mun": "191", "_loc": "0008"}, "geometry": {"type": "Polygon", "coordinates": [[[-98.33212, 17.98085], [-98.33087, 17.98076], [-98.33045, 17.98084], [-98.33108, 17.98004], [-98.33119, 17.98032], [-98.33212, 17.98085]]]}}, {"id": "1739103", "type": "Feature", "properties": {"id": "1739103", "CVEGEO": "2119100080040008", "POBTOT": 0.0, "score_nse": 0.0, "NSE": null, "VIVTOT": 0.0, "GRAPROES": 0.0, "_ent": "21", "_mun": "191", "_loc": "0008"}, "geometry": {"type": "Polygon", "coordinates": [[[-98.33226, 17.98087], [-98.33134, 17.98032], [-98.33194, 17.98004], [-98.33215, 17.98042], [-98.33293, 17.97988], [-98.33336, 17.97983], [-98.33342, 17.9803], [-98.33226, 17.98087]]]}}, {"id": "1739178", "type": "Feature", "properties": {"id": "1739178", "CVEGEO": "2119100080040031", "POBTOT": 0.0, "score_nse": 0.0, "NSE": null, "VIVTOT": 0.0, "GRAPROES": 0.0, "_ent": "21", "_mun": "191", "_loc": "0008"}, "geometry": {"type": "Polygon", "coordinates": [[[-98.33013, 17.97704], [-98.33023, 17.97725], [-98.32984, 17.97734], [-98.32956, 17.97652], [-98.33053, 17.9764], [-98.3308, 17.97621], [-98.33142, 17.97687], [-98.33029, 17.97722], [-98.33013, 17.97704]]]}}, {"id": "1739179", "type": "Feature", "properties": {"id": "1739179", "CVEGEO": "2119100080040030", "POBTOT": 0.0, "score_nse": 0.0, "NSE": null, "VIVTOT": 0.0, "GRAPROES": 0.0, "_ent": "21", "_mun": "191", "_loc": "0008"}, "geometry": {"type": "Polygon", "coordinates": [[[-98.32969, 17.97834], [-98.32924, 17.97822], [-98.32971, 17.97746], [-98.32969, 17.97834]]]}}, {"id": "1739180", "type": "Feature", "properties": {"id": "1739180", "CVEGEO": "2119100080040029", "POBTOT": 0.0, "score_nse": 0.0, "NSE": null, "VIVTOT": 0.0, "GRAPROES": 0.0, "_ent": "21", "_mun": "191", "_loc": "0008"}, "geometry": {"type": "Polygon", "coordinates": [[[-98.33338, 17.97727], [-98.33297, 17.97761], [-98.3325, 17.9776], [-98.33265, 17.97702], [-98.33239, 17.9776], [-98.33154, 17.9769], [-98.33297, 17.97633], [-98.33338, 17.97727]]]}}, {"id": "1739181", "type": "Feature", "properties": {"id": "1739181", "CVEGEO": "2119100080040027", "POBTOT": 0.0, "score_nse": 0.0, "NSE": null, "VIVTOT": 0.0, "GRAPROES": 0.0, "_ent": "21", "_mun": "191", "_loc": "0008"}, "geometry": {"type": "Polygon", "coordinates": [[[-98.33083, 17.9781], [-98.33067, 17.97774], [-98.33148, 17.9775], [-98.33149, 17.9782], [-98.33083, 17.9781]]]}}, {"id": "1739215", "type": "Feature", "properties": {"id": "1739215", "CVEGEO": "2119100080040033", "POBTOT": 0.0, "score_nse": 0.0, "NSE": null, "VIVTOT": 0.0, "GRAPROES": 0.0, "_ent": "21", "_mun": "191", "_loc": "0008"}, "geometry": {"type": "Polygon", "coordinates": [[[-98.32899, 17.97809], [-98.32941, 17.97726], [-98.32971, 17.97734], [-98.32924, 17.97814], [-98.32899, 17.97809]]]}}, {"id": "1739216", "type": "Feature", "properties": {"id": "1739216", "CVEGEO": "2119100080040018", "POBTOT": 0.0, "score_nse": 0.0, "NSE": null, "VIVTOT": 0.0, "GRAPROES": 0.0, "_ent": "21", "_mun": "191", "_loc": "0008"}, "geometry": {"type": "Polygon", "coordinates": [[[-98.33242, 17.98089], [-98.33344, 17.98036], [-98.33356, 17.98112], [-98.33302, 17.98114], [-98.33242, 17.98089]]]}}, {"id": "1739239", "type": "Feature", "properties": {"id": "1739239", "CVEGEO": "2119100080040025", "POBTOT": 0.0, "score_nse": 0.0, "NSE": null, "VIVTOT": 0.0, "GRAPROES": 0.0, "_ent": "21", "_mun": "191", "_loc": "0008"}, "geometry": {"type": "Polygon", "coordinates": [[[-98.32933, 17.97939], [-98.33062, 17.97977], [-98.33028, 17.98012], [-98.33007, 17.98068], [-98.32926, 17.97967], [-98.32933, 17.97939]]]}}, {"id": "1739240", "type": "Feature", "properties": {"id": "1739240", "CVEGEO": "2119100080040024", "POBTOT": 0.0, "score_nse": 0.0, "NSE": null, "VIVTOT": 0.0, "GRAPROES": 0.0, "_ent": "21", "_mun": "191", "_loc": "0008"}, "geometry": {"type": "Polygon", "coordinates": [[[-98.33396, 17.97872], [-98.33338, 17.97839], [-98.33368, 17.97797], [-98.33396, 17.97872]]]}}, {"id": "1739292", "type": "Feature", "properties": {"id": "1739292", "CVEGEO": "2119100080040038", "POBTOT": 0.0, "score_nse": 0.0, "NSE": null, "VIVTOT": 0.0, "GRAPROES": 0.0, "_ent": "21", "_mun": "191", "_loc": "0008"}, "geometry": {"type": "Polygon", "coordinates": [[[-98.33407, 17.98211], [-98.33316, 17.98128], [-98.3331, 17.98122], [-98.33404, 17.98118], [-98.33407, 17.98211]]]}}, {"id": "1739308", "type": "Feature", "properties": {"id": "1739308", "CVEGEO": "2119100080040037", "POBTOT": 0.0, "score_nse": 0.0, "NSE": null, "VIVTOT": 0.0, "GRAPROES": 0.0, "_ent": "21", "_mun": "191", "_loc": "0008"}, "geometry": {"type": "Polygon", "coordinates": [[[-98.33469, 17.97975], [-98.33437, 17.97999], [-98.33441, 17.98061], [-98.33428, 17.98078], [-98.33375, 17.98002], [-98.33398, 17.97961], [-98.33437, 17.97934], [-98.33469, 17.97975]]]}}, {"id": "1739316", "type": "Feature", "properties": {"id": "1739316", "CVEGEO": "2119100080040026", "POBTOT": 0.0, "score_nse": 0.0, "NSE": null, "VIVTOT": 0.0, "GRAPROES": 0.0, "_ent": "21", "_mun": "191", "_loc": "0008"}, "geometry": {"type": "Polygon", "coordinates": [[[-98.33333, 17.97833], [-98.33247, 17.97765], [-98.33299, 17.97766], [-98.33346, 17.97731], [-98.33366, 17.9779], [-98.33333, 17.97833]]]}}, {"id": "1739317", "type": "Feature", "properties": {"id": "1739317", "CVEGEO": "2119100080040017", "POBTOT": 0.0, "score_nse": 0.0, "NSE": null, "VIVTOT": 0.0, "GRAPROES": 0.0, "_ent": "21", "_mun": "191", "_loc": "0008"}, "geometry": {"type": "Polygon", "coordinates": [[[-98.33345, 17.98012], [-98.33372, 17.98008], [-98.33425, 17.98084], [-98.33407, 17.98115], [-98.33364, 17.98113], [-98.33345, 17.98012]]]}}, {"id": "1739318", "type": "Feature", "properties": {"id": "1739318", "CVEGEO": "2119100080040016", "POBTOT": 0.0, "score_nse": 0.0, "NSE": null, "VIVTOT": 0.0, "GRAPROES": 0.0, "_ent": "21", "_mun": "191", "_loc": "0008"}, "geometry": {"type": "Polygon", "coordinates": [[[-98.33315, 17.97917], [-98.33343, 17.97966], [-98.33296, 17.97976], [-98.33286, 17.97933], [-98.33315, 17.97917]]]}}, {"id": "1739319", "type": "Feature", "properties": {"id": "1739319", "CVEGEO": "2119100080040015", "POBTOT": 0.0, "score_nse": 0.0, "NSE": null, "VIVTOT": 0.0, "GRAPROES": 0.0, "_ent": "21", "_mun": "191", "_loc": "0008"}, "geometry": {"type": "Polygon", "coordinates": [[[-98.33319, 17.97842], [-98.33376, 17.97879], [-98.33287, 17.97927], [-98.33267, 17.97924], [-98.3323, 17.9786], [-98.33319, 17.97842]]]}}, {"id": "1739320", "type": "Feature", "properties": {"id": "1739320", "CVEGEO": "2119100080040014", "POBTOT": 0.0, "score_nse": 0.0, "NSE": null, "VIVTOT": 0.0, "GRAPROES": 0.0, "_ent": "21", "_mun": "191", "_loc": "0008"}, "geometry": {"type": "Polygon", "coordinates": [[[-98.3324, 17.97768], [-98.33246, 17.97847], [-98.33226, 17.97853], [-98.33155, 17.97822], [-98.33156, 17.9775], [-98.3324, 17.97768]]]}}, {"id": "1739321", "type": "Feature", "properties": {"id": "1739321", "CVEGEO": "2119100080040013", "POBTOT": 0.0, "score_nse": 0.0, "NSE": null, "VIVTOT": 0.0, "GRAPROES": 0.0, "_ent": "21", "_mun": "191", "_loc": "0008"}, "geometry": {"type": "Polygon", "coordinates": [[[-98.33181, 17.97938], [-98.33151, 17.97876], [-98.33153, 17.97826], [-98.33216, 17.97854], [-98.33259, 17.97923], [-98.33208, 17.97921], [-98.33181, 17.97938]]]}}, {"id": "1739322", "type": "Feature", "properties": {"id": "1739322", "CVEGEO": "2119100080040012", "POBTOT": 0.0, "score_nse": 0.0, "NSE": null, "VIVTOT": 0.0, "GRAPROES": 0.0, "_ent": "21", "_mun": "191", "_loc": "0008"}, "geometry": {"type": "Polygon", "coordinates": [[[-98.33149, 17.97825], [-98.33145, 17.9788], [-98.33174, 17.97945], [-98.33125, 17.9795], [-98.33107, 17.97933], [-98.33088, 17.97837], [-98.33091, 17.97823], [-98.33149, 17.97825]]]}}, {"id": "1739418", "type": "Feature", "properties": {"id": "1739418", "CVEGEO": "2119100080040034", "POBTOT": 0.0, "score_nse": 0.0, "NSE": null, "VIVTOT": 0.0, "GRAPROES": 0.0, "_ent": "21", "_mun": "191", "_loc": "0008"}, "geometry": {"type": "Polygon", "coordinates": [[[-98.33411, 17.97814], [-98.33422, 17.9786], [-98.33401, 17.97868], [-98.33374, 17.97786], [-98.33404, 17.97755], [-98.33373, 17.97782], [-98.33352, 17.97725], [-98.33387, 17.97693], [-98.33424, 17.97729], [-98.33433, 17.97783], [-98.33411, 17.97814]]]}}, {"id": "1739421", "type": "Feature", "properties": {"id": "1739421", "CVEGEO": "2119100080040028", "POBTOT": 0.0, "score_nse": 0.0, "NSE": null, "VIVTOT": 0.0, "GRAPROES": 0.0, "_ent": "21", "_mun": "191", "_loc": "0008"}, "geometry": {"type": "Polygon", "coordinates": [[[-98.33304, 17.97629], [-98.334, 17.97596], [-98.33479, 17.97726], [-98.33439, 17.97777], [-98.3343, 17.97727], [-98.33396, 17.97688], [-98.33344, 17.97723], [-98.33304, 17.97629]]]}}, {"id": "1739447", "type": "Feature", "properties": {"id": "1739447", "CVEGEO": "2119100080040022", "POBTOT": 0.0, "score_nse": 0.0, "NSE": null, "VIVTOT": 0.0, "GRAPROES": 0.0, "_ent": "21", "_mun": "191", "_loc": "0008"}, "geometry": {"type": "Polygon", "coordinates": [[[-98.33248, 17.97838], [-98.3325, 17.97775], [-98.33328, 17.97835], [-98.33261, 17.97847], [-98.33248, 17.97838]]]}}, {"id": "1739448", "type": "Feature", "properties": {"id": "1739448", "CVEGEO": "2119100080040042", "POBTOT": 0.0, "score_nse": 0.0, "NSE": null, "VIVTOT": 0.0, "GRAPROES": 0.0, "_ent": "21", "_mun": "191", "_loc": "0008"}, "geometry": {"type": "Polygon", "coordinates": [[[-98.33476, 17.97888], [-98.334, 17.97944], [-98.33372, 17.97987], [-98.33339, 17.97939], [-98.33403, 17.97904], [-98.33338, 17.97933], [-98.33326, 17.97914], [-98.33432, 17.97864], [-98.33455, 17.97822], [-98.33476, 17.97888]]]}}, {"id": "1739479", "type": "Feature", "properties": {"id": "1739479", "CVEGEO": "2119100080040032", "POBTOT": 0.0, "score_nse": 0.0, "NSE": null, "VIVTOT": 0.0, "GRAPROES": 0.0, "_ent": "21", "_mun": "191", "_loc": "0008"}, "geometry": {"type": "Polygon", "coordinates": [[[-98.33451, 17.97998], [-98.33499, 17.98055], [-98.33504, 17.98139], [-98.33418, 17.98145], [-98.33417, 17.98114], [-98.33451, 17.98061], [-98.33451, 17.97998]]]}}, {"id": "1739480", "type": "Feature", "properties": {"id": "1739480", "CVEGEO": "2119100080040002", "POBTOT": 0.0, "score_nse": 0.0, "NSE": null, "VIVTOT": 0.0, "GRAPROES": 0.0, "_ent": "21", "_mun": "191", "_loc": "0008"}, "geometry": {"type": "Polygon", "coordinates": [[[-98.33124, 17.97972], [-98.33073, 17.9794], [-98.33081, 17.97839], [-98.33101, 17.97937], [-98.33156, 17.97953], [-98.33168, 17.97997], [-98.33128, 17.97997], [-98.33124, 17.97972]]]}}, {"id": "1739481", "type": "Feature", "properties": {"id": "1739481", "CVEGEO": "2119100080040004", "POBTOT": 0.0, "score_nse": 0.0, "NSE": null, "VIVTOT": 0.0, "GRAPROES": 0.0, "_ent": "21", "_mun": "191", "_loc": "0008"}, "geometry": {"type": "Polygon", "coordinates": [[[-98.33236, 17.97926], [-98.33267, 17.97935], [-98.33176, 17.97991], [-98.33163, 17.97951], [-98.33236, 17.97926]]]}}]}