{"type": "FeatureCollection", "features": [{"id": "1926199", "type": "Feature", "properties": {"id": "1926199", "CVEGEO": "250020014033A023", "POBTOT": 0.0, "score_nse": 0.0, "NSE": null, "VIVTOT": 0.0, "GRAPROES": 0.0, "_ent": "25", "_mun": "002", "_loc": "0014"}, "geometry": {"type": "Polygon", "coordinates": [[[-108.12206, 25.23797], [-108.12095, 25.23807], [-108.12115, 25.23704], [-108.12223, 25.23724], [-108.12206, 25.23797]]]}}, {"id": "1926250", "type": "Feature", "properties": {"id": "1926250", "CVEGEO": "250020014033A016", "POBTOT": 0.0, "score_nse": 0.0, "NSE": null, "VIVTOT": 0.0, "GRAPROES": 0.0, "_ent": "25", "_mun": "002", "_loc": "0014"}, "geometry": {"type": "Polygon", "coordinates": [[[-108.12443, 25.23322], [-108.12555, 25.23342], [-108.12532, 25.2344], [-108.1242, 25.2342], [-108.12443, 25.23322]]]}}, {"id": "1926313", "type": "Feature", "properties": {"id": "1926313", "CVEGEO": "250020014033A026", "POBTOT": 0.0, "score_nse": 0.0, "NSE": null, "VIVTOT": 0.0, "GRAPROES": 0.0, "_ent": "25", "_mun": "002", "_loc": "0014"}, "geometry": {"type": "Polygon", "coordinates": [[[-108.12231, 25.23167], [-108.12343, 25.2319], [-108.12321, 25.2329], [-108.1221, 25.23269], [-108.12231, 25.23167]]]}}, {"id": "1926314", "type": "Feature", "properties": {"id": "1926314", "CVEGEO": "250020014033A024", "POBTOT": 0.0, "score_nse": 0.0, "NSE": null, "VIVTOT": 0.0, "GRAPROES": 0.0, "_ent": "25", "_mun": "002", "_loc": "0014"}, "geometry": {"type": "Polygon", "coordinates": [[[-108.11992, 25.23861], [-108.11973, 25.2382], [-108.12002, 25.23683], [-108.12102, 25.23702], [-108.12084, 25.2381], [-108.11992, 25.23861]]]}}, {"id": "1926319", "type": "Feature", "properties": {"id": "1926319", "CVEGEO": "250020014033A021", "POBTOT": 0.0, "score_nse": 0.0, "NSE": null, "VIVTOT": 0.0, "GRAPROES": 0.0, "_ent": "25", "_mun": "002", "_loc": "0014"}, "geometry": {"type": "Polygon", "coordinates": [[[-108.12455, 25.23814], [-108.12467, 25.23769], [-108.12571, 25.23788], [-108.12558, 25.2384], [-108.12455, 25.23814]]]}}, {"id": "1926320", "type": "Feature", "properties": {"id": "1926320", "CVEGEO": "250020014033A020", "POBTOT": 0.0, "score_nse": 0.0, "NSE": null, "VIVTOT": 0.0, "GRAPROES": 0.0, "_ent": "25", "_mun": "002", "_loc": "0014"}, "geometry": {"type": "Polygon", "coordinates": [[[-108.12596, 25.23685], [-108.12573, 25.23779], [-108.12469, 25.2376], [-108.12491, 25.23665], [-108.12596, 25.23685]]]}}, {"id": "1926321", "type": "Feature", "properties": {"id": "1926321", "CVEGEO": "250020014033A019", "POBTOT": 0.0, "score_nse": 0.0, "NSE": null, "VIVTOT": 0.0, "GRAPROES": 0.0, "_ent": "25", "_mun": "002", "_loc": "0014"}, "geometry": {"type": "Polygon", "coordinates": [[[-108.12623, 25.23576], [-108.12598, 25.23676], [-108.12493, 25.23656], [-108.12516, 25.23557], [-108.12623, 25.23576]]]}}, {"id": "1926322", "type": "Feature", "properties": {"id": "1926322", "CVEGEO": "250020014033A018", "POBTOT": 0.0, "score_nse": 0.0, "NSE": null, "VIVTOT": 0.0, "GRAPROES": 0.0, "_ent": "25", "_mun": "002", "_loc": "0014"}, "geometry": {"type": "Polygon", "coordinates": [[[-108.12648, 25.23471], [-108.12625, 25.23567], [-108.12518, 25.23548], [-108.1254, 25.23451], [-108.12648, 25.23471]]]}}, {"id": "1926323", "type": "Feature", "properties": {"id": "1926323", "CVEGEO": "250020014033A017", "POBTOT": 0.0, "score_nse": 0.0, "NSE": null, "VIVTOT": 0.0, "GRAPROES": 0.0, "_ent": "25", "_mun": "002", "_loc": "0014"}, "geometry": {"type": "Polygon", "coordinates": [[[-108.12674, 25.23365], [-108.1265, 25.23462], [-108.12542, 25.23442], [-108.12564, 25.23344], [-108.12674, 25.23365]]]}}, {"id": "1926324", "type": "Feature", "properties": {"id": "1926324", "CVEGEO": "250020014033A015", "POBTOT": 0.0, "score_nse": 0.0, "NSE": null, "VIVTOT": 0.0, "GRAPROES": 0.0, "_ent": "25", "_mun": "002", "_loc": "0014"}, "geometry": {"type": "Polygon", "coordinates": [[[-108.12326, 25.233], [-108.12433, 25.2332], [-108.1241, 25.23418], [-108.12307, 25.23399], [-108.12326, 25.233]]]}}, {"id": "1926792", "type": "Feature", "properties": {"id": "1926792", "CVEGEO": "250020014033A028", "POBTOT": 0.0, "score_nse": 0.0, "NSE": null, "VIVTOT": 0.0, "GRAPROES": 0.0, "_ent": "25", "_mun": "002", "_loc": "0014"}, "geometry": {"type": "Polygon", "coordinates": [[[-108.12467, 25.23215], [-108.12578, 25.2324], [-108.12557, 25.23333], [-108.12445, 25.23313], [-108.12467, 25.23215]]]}}, {"id": "1926793", "type": "Feature", "properties": {"id": "1926793", "CVEGEO": "250020014033A011", "POBTOT": 0.0, "score_nse": 0.0, "NSE": null, "VIVTOT": 0.0, "GRAPROES": 0.0, "_ent": "25", "_mun": "002", "_loc": "0014"}, "geometry": {"type": "Polygon", "coordinates": [[[-108.12047, 25.23471], [-108.12152, 25.2349], [-108.12132, 25.23587], [-108.12029, 25.23567], [-108.12047, 25.23471]]]}}, {"id": "1926794", "type": "Feature", "properties": {"id": "1926794", "CVEGEO": "250020014033A008", "POBTOT": 0.0, "score_nse": 0.0, "NSE": null, "VIVTOT": 0.0, "GRAPROES": 0.0, "_ent": "25", "_mun": "002", "_loc": "0014"}, "geometry": {"type": "Polygon", "coordinates": [[[-108.12254, 25.23619], [-108.12359, 25.23639], [-108.12336, 25.23736], [-108.12233, 25.23717], [-108.12254, 25.23619]]]}}, {"id": "1926795", "type": "Feature", "properties": {"id": "1926795", "CVEGEO": "250020014033A007", "POBTOT": 0.0, "score_nse": 0.0, "NSE": null, "VIVTOT": 0.0, "GRAPROES": 0.0, "_ent": "25", "_mun": "002", "_loc": "0014"}, "geometry": {"type": "Polygon", "coordinates": [[[-108.12368, 25.23641], [-108.12481, 25.23663], [-108.12459, 25.23758], [-108.12346, 25.23738], [-108.12368, 25.23641]]]}}, {"id": "1926796", "type": "Feature", "properties": {"id": "1926796", "CVEGEO": "250020014033A006", "POBTOT": 0.0, "score_nse": 0.0, "NSE": null, "VIVTOT": 0.0, "GRAPROES": 0.0, "_ent": "25", "_mun": "002", "_loc": "0014"}, "geometry": {"type": "Polygon", "coordinates": [[[-108.12393, 25.23534], [-108.12506, 25.23555], [-108.12483, 25.23654], [-108.1237, 25.23632], [-108.12393, 25.23534]]]}}, {"id": "1926797", "type": "Feature", "properties": {"id": "1926797", "CVEGEO": "250020014033A005", "POBTOT": 0.0, "score_nse": 0.0, "NSE": null, "VIVTOT": 0.0, "GRAPROES": 0.0, "_ent": "25", "_mun": "002", "_loc": "0014"}, "geometry": {"type": "Polygon", "coordinates": [[[-108.12418, 25.23428], [-108.1253, 25.23449], [-108.12508, 25.23546], [-108.12395, 25.23526], [-108.12418, 25.23428]]]}}, {"id": "1926798", "type": "Feature", "properties": {"id": "1926798", "CVEGEO": "250020014033A004", "POBTOT": 0.0, "score_nse": 0.0, "NSE": null, "VIVTOT": 0.0, "GRAPROES": 0.0, "_ent": "25", "_mun": "002", "_loc": "0014"}, "geometry": {"type": "Polygon", "coordinates": [[[-108.12305, 25.23407], [-108.12408, 25.23427], [-108.12385, 25.23524], [-108.12283, 25.23505], [-108.12305, 25.23407]]]}}, {"id": "1926804", "type": "Feature", "properties": {"id": "1926804", "CVEGEO": "250020014033A014", "POBTOT": 0.0, "score_nse": 0.0, "NSE": null, "VIVTOT": 0.0, "GRAPROES": 0.0, "_ent": "25", "_mun": "002", "_loc": "0014"}, "geometry": {"type": "Polygon", "coordinates": [[[-108.12209, 25.23278], [-108.12319, 25.23299], [-108.12297, 25.23397], [-108.12187, 25.23376], [-108.12209, 25.23278]]]}}, {"id": "1926805", "type": "Feature", "properties": {"id": "1926805", "CVEGEO": "250020014033A013", "POBTOT": 0.0, "score_nse": 0.0, "NSE": null, "VIVTOT": 0.0, "GRAPROES": 0.0, "_ent": "25", "_mun": "002", "_loc": "0014"}, "geometry": {"type": "Polygon", "coordinates": [[[-108.12093, 25.23256], [-108.12199, 25.23276], [-108.12178, 25.23375], [-108.12069, 25.23354], [-108.12093, 25.23256]]]}}, {"id": "1926806", "type": "Feature", "properties": {"id": "1926806", "CVEGEO": "250020014033A012", "POBTOT": 0.0, "score_nse": 0.0, "NSE": null, "VIVTOT": 0.0, "GRAPROES": 0.0, "_ent": "25", "_mun": "002", "_loc": "0014"}, "geometry": {"type": "Polygon", "coordinates": [[[-108.12067, 25.23363], [-108.12176, 25.23383], [-108.12155, 25.23482], [-108.12048, 25.23462], [-108.12067, 25.23363]]]}}, {"id": "1926807", "type": "Feature", "properties": {"id": "1926807", "CVEGEO": "250020014033A003", "POBTOT": 0.0, "score_nse": 0.0, "NSE": null, "VIVTOT": 0.0, "GRAPROES": 0.0, "_ent": "25", "_mun": "002", "_loc": "0014"}, "geometry": {"type": "Polygon", "coordinates": [[[-108.12185, 25.23385], [-108.12295, 25.23406], [-108.12273, 25.23503], [-108.12164, 25.23484], [-108.12185, 25.23385]]]}}, {"id": "1926808", "type": "Feature", "properties": {"id": "1926808", "CVEGEO": "250020014033A002", "POBTOT": 0.0, "score_nse": 0.0, "NSE": null, "VIVTOT": 0.0, "GRAPROES": 0.0, "_ent": "25", "_mun": "002", "_loc": "0014"}, "geometry": {"type": "Polygon", "coordinates": [[[-108.12162, 25.23492], [-108.12271, 25.23512], [-108.12249, 25.23609], [-108.12142, 25.23589], [-108.12162, 25.23492]]]}}, {"id": "1926809", "type": "Feature", "properties": {"id": "1926809", "CVEGEO": "250020014033A001", "POBTOT": 0.0, "score_nse": 0.0, "NSE": null, "VIVTOT": 0.0, "GRAPROES": 0.0, "_ent": "25", "_mun": "002", "_loc": "0014"}, "geometry": {"type": "Polygon", "coordinates": [[[-108.12281, 25.23514], [-108.12383, 25.23533], [-108.12361, 25.2363], [-108.12256, 25.2361], [-108.12281, 25.23514]]]}}, {"id": "1926885", "type": "Feature", "properties": {"id": "1926885", "CVEGEO": "250020014033A027", "POBTOT": 0.0, "score_nse": 0.0, "NSE": null, "VIVTOT": 0.0, "GRAPROES": 0.0, "_ent": "25", "_mun": "002", "_loc": "0014"}, "geometry": {"type": "Polygon", "coordinates": [[[-108.12352, 25.2319], [-108.12457, 25.23212], [-108.12435, 25.23311], [-108.12327, 25.2329], [-108.12352, 25.2319]]]}}, {"id": "1926981", "type": "Feature", "properties": {"id": "1926981", "CVEGEO": "250020014033A010", "POBTOT": 0.0, "score_nse": 0.0, "NSE": null, "VIVTOT": 0.0, "GRAPROES": 0.0, "_ent": "25", "_mun": "002", "_loc": "0014"}, "geometry": {"type": "Polygon", "coordinates": [[[-108.12027, 25.23576], [-108.1213, 25.23596], [-108.12107, 25.23693], [-108.12004, 25.23675], [-108.12027, 25.23576]]]}}, {"id": "1926982", "type": "Feature", "properties": {"id": "1926982", "CVEGEO": "250020014033A009", "POBTOT": 0.0, "score_nse": 0.0, "NSE": null, "VIVTOT": 0.0, "GRAPROES": 0.0, "_ent": "25", "_mun": "002", "_loc": "0014"}, "geometry": {"type": "Polygon", "coordinates": [[[-108.12139, 25.23596], [-108.12247, 25.23618], [-108.12225, 25.23715], [-108.12116, 25.23695], [-108.12139, 25.23596]]]}}, {"id": "1927173", "type": "Feature", "properties": {"id": "1927173", "CVEGEO": "250020014033A022", "POBTOT": 0.0, "score_nse": 0.0, "NSE": null, "VIVTOT": 0.0, "GRAPROES": 0.0, "_ent": "25", "_mun": "002", "_loc": "0014"}, "geometry": {"type": "Polygon", "coordinates": [[[-108.12318, 25.23812], [-108.12216, 25.23798], [-108.12231, 25.23726], [-108.12334, 25.23745], [-108.12318, 25.23812]]]}}, {"id": "1927400", "type": "Feature", "properties": {"id": "1927400", "CVEGEO": "250020014033A029", "POBTOT": 0.0, "score_nse": 0.0, "NSE": null, "VIVTOT": 0.0, "GRAPROES": 0.0, "_ent": "25", "_mun": "002", "_loc": "0014"}, "geometry": {"type": "Polygon", "coordinates": [[[-108.12588, 25.23242], [-108.12699, 25.23265], [-108.12677, 25.23356], [-108.12566, 25.23335], [-108.12588, 25.23242]]]}}, {"id": "1927401", "type": "Feature", "properties": {"id": "1927401", "CVEGEO": "250020014033A030", "POBTOT": 0.0, "score_nse": 0.0, "NSE": null, "VIVTOT": 0.0, "GRAPROES": 0.0, "_ent": "25", "_mun": "002", "_loc": "0014"}, "geometry": {"type": "Polygon", "coordinates": [[[-108.12446, 25.23813], [-108.12328, 25.23814], [-108.12344, 25.23746], [-108.12457, 25.23767], [-108.12446, 25.23813]]]}}]}