{"type": "FeatureCollection", "features": [{"id": "1956987", "type": "Feature", "properties": {"id": "1956987", "CVEGEO": "2500900340701028", "POBTOT": 21.0, "score_nse": 0.0, "NSE": "ND", "VIVTOT": 6.0, "GRAPROES": 7.46, "_ent": "25", "_mun": "009", "_loc": "0034"}, "geometry": {"type": "Polygon", "coordinates": [[[-105.83574, 22.73522], [-105.83665, 22.73444], [-105.83717, 22.73512], [-105.83621, 22.73575], [-105.83574, 22.73522]]]}}, {"id": "1956988", "type": "Feature", "properties": {"id": "1956988", "CVEGEO": "2500900340701027", "POBTOT": 17.0, "score_nse": 0.0, "NSE": "ND", "VIVTOT": 5.0, "GRAPROES": 6.83, "_ent": "25", "_mun": "009", "_loc": "0034"}, "geometry": {"type": "Polygon", "coordinates": [[[-105.8383, 22.73439], [-105.83778, 22.73358], [-105.8388, 22.7328], [-105.8395, 22.73366], [-105.8383, 22.73439]]]}}, {"id": "1956989", "type": "Feature", "properties": {"id": "1956989", "CVEGEO": "2500900340701013", "POBTOT": 21.0, "score_nse": 0.0, "NSE": "ND", "VIVTOT": 8.0, "GRAPROES": 6.08, "_ent": "25", "_mun": "009", "_loc": "0034"}, "geometry": {"type": "Polygon", "coordinates": [[[-105.83482, 22.736], [-105.83515, 22.73645], [-105.83422, 22.73706], [-105.83398, 22.73669], [-105.83482, 22.736]]]}}, {"id": "1956990", "type": "Feature", "properties": {"id": "1956990", "CVEGEO": "2500900340701030", "POBTOT": 11.0, "score_nse": 0.0, "NSE": "ND", "VIVTOT": 4.0, "GRAPROES": 9.5, "_ent": "25", "_mun": "009", "_loc": "0034"}, "geometry": {"type": "Polygon", "coordinates": [[[-105.83302, 22.73747], [-105.83393, 22.73673], [-105.83418, 22.73709], [-105.83319, 22.73772], [-105.83302, 22.73747]]]}}, {"id": "1956991", "type": "Feature", "properties": {"id": "1956991", "CVEGEO": "2500900340701029", "POBTOT": 5.0, "score_nse": 0.0, "NSE": "ND", "VIVTOT": 2.0, "GRAPROES": 0.0, "_ent": "25", "_mun": "009", "_loc": "0034"}, "geometry": {"type": "Polygon", "coordinates": [[[-105.83173, 22.73848], [-105.83298, 22.73751], [-105.83314, 22.73775], [-105.83182, 22.73862], [-105.83173, 22.73848]]]}}, {"id": "1956992", "type": "Feature", "properties": {"id": "1956992", "CVEGEO": "2500900340701010", "POBTOT": 40.0, "score_nse": 0.0, "NSE": "ND", "VIVTOT": 14.0, "GRAPROES": 8.0, "_ent": "25", "_mun": "009", "_loc": "0034"}, "geometry": {"type": "Polygon", "coordinates": [[[-105.83956, 22.735], [-105.84027, 22.73593], [-105.83965, 22.73632], [-105.83899, 22.73537], [-105.83956, 22.735]]]}}, {"id": "1956993", "type": "Feature", "properties": {"id": "1956993", "CVEGEO": "2500900340701009", "POBTOT": 34.0, "score_nse": 0.0, "NSE": "ND", "VIVTOT": 14.0, "GRAPROES": 8.83, "_ent": "25", "_mun": "009", "_loc": "0034"}, "geometry": {"type": "Polygon", "coordinates": [[[-105.83952, 22.73495], [-105.83895, 22.73532], [-105.83834, 22.73445], [-105.83887, 22.73411], [-105.83952, 22.73495]]]}}, {"id": "1956994", "type": "Feature", "properties": {"id": "1956994", "CVEGEO": "2500900340701008", "POBTOT": 20.0, "score_nse": 0.0, "NSE": "ND", "VIVTOT": 17.0, "GRAPROES": 8.27, "_ent": "25", "_mun": "009", "_loc": "0034"}, "geometry": {"type": "Polygon", "coordinates": [[[-105.83721, 22.73509], [-105.8367, 22.7344], [-105.83774, 22.73361], [-105.83826, 22.73442], [-105.83721, 22.73509]]]}}, {"id": "1956995", "type": "Feature", "properties": {"id": "1956995", "CVEGEO": "2500900340701007", "POBTOT": 15.0, "score_nse": 0.0, "NSE": "ND", "VIVTOT": 10.0, "GRAPROES": 10.08, "_ent": "25", "_mun": "009", "_loc": "0034"}, "geometry": {"type": "Polygon", "coordinates": [[[-105.83615, 22.7358], [-105.8352, 22.73642], [-105.83486, 22.73597], [-105.83567, 22.73528], [-105.83615, 22.7358]]]}}, {"id": "1956996", "type": "Feature", "properties": {"id": "1956996", "CVEGEO": "2500900340701006", "POBTOT": 34.0, "score_nse": 0.0, "NSE": "ND", "VIVTOT": 10.0, "GRAPROES": 9.0, "_ent": "25", "_mun": "009", "_loc": "0034"}, "geometry": {"type": "Polygon", "coordinates": [[[-105.8359, 22.73734], [-105.83525, 22.73647], [-105.83618, 22.73585], [-105.83684, 22.73672], [-105.8359, 22.73734]]]}}, {"id": "1956997", "type": "Feature", "properties": {"id": "1956997", "CVEGEO": "2500900340701005", "POBTOT": 0.0, "score_nse": 0.0, "NSE": "ND", "VIVTOT": 0.0, "GRAPROES": 0.0, "_ent": "25", "_mun": "009", "_loc": "0034"}, "geometry": {"type": "Polygon", "coordinates": [[[-105.83688, 22.73677], [-105.83755, 22.73766], [-105.83661, 22.73827], [-105.83594, 22.73739], [-105.83688, 22.73677]]]}}, {"id": "1956998", "type": "Feature", "properties": {"id": "1956998", "CVEGEO": "2500900340701004", "POBTOT": 40.0, "score_nse": 0.0, "NSE": "ND", "VIVTOT": 16.0, "GRAPROES": 8.63, "_ent": "25", "_mun": "009", "_loc": "0034"}, "geometry": {"type": "Polygon", "coordinates": [[[-105.8379, 22.7361], [-105.83857, 22.73701], [-105.8376, 22.73763], [-105.83694, 22.73673], [-105.8379, 22.7361]]]}}, {"id": "1956999", "type": "Feature", "properties": {"id": "1956999", "CVEGEO": "2500900340701003", "POBTOT": 47.0, "score_nse": 49.096, "NSE": "C-", "VIVTOT": 20.0, "GRAPROES": 9.07, "_ent": "25", "_mun": "009", "_loc": "0034"}, "geometry": {"type": "Polygon", "coordinates": [[[-105.83961, 22.73635], [-105.83862, 22.73698], [-105.83794, 22.73607], [-105.83895, 22.7354], [-105.83961, 22.73635]]]}}, {"id": "1957000", "type": "Feature", "properties": {"id": "1957000", "CVEGEO": "2500900340701002", "POBTOT": 43.0, "score_nse": 0.0, "NSE": "ND", "VIVTOT": 14.0, "GRAPROES": 8.77, "_ent": "25", "_mun": "009", "_loc": "0034"}, "geometry": {"type": "Polygon", "coordinates": [[[-105.83891, 22.73535], [-105.8379, 22.73601], [-105.83725, 22.73514], [-105.83829, 22.73447], [-105.83891, 22.73535]]]}}, {"id": "1957001", "type": "Feature", "properties": {"id": "1957001", "CVEGEO": "2500900340699024", "POBTOT": 15.0, "score_nse": 0.0, "NSE": "ND", "VIVTOT": 10.0, "GRAPROES": 7.92, "_ent": "25", "_mun": "009", "_loc": "0034"}, "geometry": {"type": "Polygon", "coordinates": [[[-105.8345, 22.74253], [-105.83506, 22.74215], [-105.83565, 22.74293], [-105.83503, 22.74332], [-105.8345, 22.74253]]]}}, {"id": "1957002", "type": "Feature", "properties": {"id": "1957002", "CVEGEO": "2500900340699021", "POBTOT": 37.0, "score_nse": 57.696, "NSE": "C", "VIVTOT": 10.0, "GRAPROES": 8.67, "_ent": "25", "_mun": "009", "_loc": "0034"}, "geometry": {"type": "Polygon", "coordinates": [[[-105.83501, 22.74078], [-105.83529, 22.7406], [-105.83596, 22.74148], [-105.83448, 22.74248], [-105.83321, 22.74055], [-105.83459, 22.73967], [-105.83525, 22.74055], [-105.83501, 22.74078]]]}}, {"id": "1957003", "type": "Feature", "properties": {"id": "1957003", "CVEGEO": "2500900340699020", "POBTOT": 76.0, "score_nse": 0.0, "NSE": "ND", "VIVTOT": 21.0, "GRAPROES": 7.52, "_ent": "25", "_mun": "009", "_loc": "0034"}, "geometry": {"type": "Polygon", "coordinates": [[[-105.8351, 22.74212], [-105.836, 22.74152], [-105.83726, 22.74319], [-105.83645, 22.74389], [-105.8351, 22.74212]]]}}, {"id": "1957004", "type": "Feature", "properties": {"id": "1957004", "CVEGEO": "2500900340699019", "POBTOT": 37.0, "score_nse": 47.1657, "NSE": "C-", "VIVTOT": 14.0, "GRAPROES": 8.43, "_ent": "25", "_mun": "009", "_loc": "0034"}, "geometry": {"type": "Polygon", "coordinates": [[[-105.84181, 22.73936], [-105.84103, 22.73827], [-105.84174, 22.73782], [-105.84253, 22.73873], [-105.84181, 22.73936]]]}}, {"id": "1957005", "type": "Feature", "properties": {"id": "1957005", "CVEGEO": "2500900340699017", "POBTOT": 24.0, "score_nse": 47.805, "NSE": "C-", "VIVTOT": 8.0, "GRAPROES": 9.8, "_ent": "25", "_mun": "009", "_loc": "0034"}, "geometry": {"type": "Polygon", "coordinates": [[[-105.84036, 22.73596], [-105.84162, 22.73516], [-105.8428, 22.73692], [-105.84175, 22.73775], [-105.84036, 22.73596]]]}}, {"id": "1957006", "type": "Feature", "properties": {"id": "1957006", "CVEGEO": "2500900340699016", "POBTOT": 6.0, "score_nse": 0.0, "NSE": "ND", "VIVTOT": 3.0, "GRAPROES": 0.0, "_ent": "25", "_mun": "009", "_loc": "0034"}, "geometry": {"type": "Polygon", "coordinates": [[[-105.83665, 22.73833], [-105.8376, 22.73773], [-105.83791, 22.73814], [-105.83698, 22.73876], [-105.83665, 22.73833]]]}}, {"id": "1957007", "type": "Feature", "properties": {"id": "1957007", "CVEGEO": "2500900340699015", "POBTOT": 22.0, "score_nse": 0.0, "NSE": "ND", "VIVTOT": 12.0, "GRAPROES": 7.57, "_ent": "25", "_mun": "009", "_loc": "0034"}, "geometry": {"type": "Polygon", "coordinates": [[[-105.83623, 22.73991], [-105.8353, 22.74052], [-105.83464, 22.73964], [-105.83558, 22.73903], [-105.83623, 22.73991]]]}}, {"id": "1957009", "type": "Feature", "properties": {"id": "1957009", "CVEGEO": "2500900340595015", "POBTOT": 74.0, "score_nse": 0.0, "NSE": "ND", "VIVTOT": 21.0, "GRAPROES": 4.84, "_ent": "25", "_mun": "009", "_loc": "0034"}, "geometry": {"type": "Polygon", "coordinates": [[[-105.84412, 22.73443], [-105.84351, 22.73482], [-105.84308, 22.73423], [-105.84368, 22.73385], [-105.84412, 22.73443]]]}}, {"id": "1957011", "type": "Feature", "properties": {"id": "1957011", "CVEGEO": "2500900340576013", "POBTOT": 23.0, "score_nse": 0.0, "NSE": "ND", "VIVTOT": 12.0, "GRAPROES": 8.16, "_ent": "25", "_mun": "009", "_loc": "0034"}, "geometry": {"type": "Polygon", "coordinates": [[[-105.84951, 22.7337], [-105.84909, 22.73315], [-105.84965, 22.73279], [-105.85006, 22.73336], [-105.84951, 22.7337]]]}}, {"id": "1957012", "type": "Feature", "properties": {"id": "1957012", "CVEGEO": "2500900340504002", "POBTOT": 60.0, "score_nse": 0.0, "NSE": "ND", "VIVTOT": 29.0, "GRAPROES": 5.42, "_ent": "25", "_mun": "009", "_loc": "0034"}, "geometry": {"type": "Polygon", "coordinates": [[[-105.84523, 22.73196], [-105.84564, 22.73251], [-105.84502, 22.7329], [-105.84462, 22.73236], [-105.84523, 22.73196]]]}}, {"id": "1957019", "type": "Feature", "properties": {"id": "1957019", "CVEGEO": "2500900340701017", "POBTOT": 39.0, "score_nse": 0.0, "NSE": "ND", "VIVTOT": 10.0, "GRAPROES": 7.43, "_ent": "25", "_mun": "009", "_loc": "0034"}, "geometry": {"type": "Polygon", "coordinates": [[[-105.8339, 22.73867], [-105.83323, 22.73778], [-105.8342, 22.73715], [-105.83485, 22.73803], [-105.8339, 22.73867]]]}}, {"id": "1957030", "type": "Feature", "properties": {"id": "1957030", "CVEGEO": "2500900340699014", "POBTOT": 42.0, "score_nse": 49.7733, "NSE": "C-", "VIVTOT": 15.0, "GRAPROES": 8.56, "_ent": "25", "_mun": "009", "_loc": "0034"}, "geometry": {"type": "Polygon", "coordinates": [[[-105.83694, 22.74086], [-105.83601, 22.74145], [-105.83534, 22.74057], [-105.83627, 22.73996], [-105.83694, 22.74086]]]}}, {"id": "1957031", "type": "Feature", "properties": {"id": "1957031", "CVEGEO": "2500900340699003", "POBTOT": 16.0, "score_nse": 0.0, "NSE": "ND", "VIVTOT": 9.0, "GRAPROES": 7.8, "_ent": "25", "_mun": "009", "_loc": "0034"}, "geometry": {"type": "Polygon", "coordinates": [[[-105.84001, 22.73894], [-105.84093, 22.74015], [-105.84005, 22.7409], [-105.83906, 22.73956], [-105.84001, 22.73894]]]}}, {"id": "1957032", "type": "Feature", "properties": {"id": "1957032", "CVEGEO": "2500900340699002", "POBTOT": 15.0, "score_nse": 0.0, "NSE": "ND", "VIVTOT": 9.0, "GRAPROES": 9.46, "_ent": "25", "_mun": "009", "_loc": "0034"}, "geometry": {"type": "Polygon", "coordinates": [[[-105.83998, 22.73889], [-105.83903, 22.73951], [-105.83835, 22.73863], [-105.83932, 22.73801], [-105.83998, 22.73889]]]}}, {"id": "1957033", "type": "Feature", "properties": {"id": "1957033", "CVEGEO": "2500900340699001", "POBTOT": 9.0, "score_nse": 0.0, "NSE": "ND", "VIVTOT": 7.0, "GRAPROES": 6.63, "_ent": "25", "_mun": "009", "_loc": "0034"}, "geometry": {"type": "Polygon", "coordinates": [[[-105.83829, 22.73866], [-105.83897, 22.73955], [-105.83803, 22.74016], [-105.83735, 22.73926], [-105.83829, 22.73866]]]}}, {"id": "1957034", "type": "Feature", "properties": {"id": "1957034", "CVEGEO": "2500900340608029", "POBTOT": 4.0, "score_nse": 0.0, "NSE": "ND", "VIVTOT": 3.0, "GRAPROES": 0.0, "_ent": "25", "_mun": "009", "_loc": "0034"}, "geometry": {"type": "Polygon", "coordinates": [[[-105.84186, 22.73323], [-105.84228, 22.73374], [-105.84192, 22.73399], [-105.84152, 22.73345], [-105.84186, 22.73323]]]}}, {"id": "1957035", "type": "Feature", "properties": {"id": "1957035", "CVEGEO": "2500900340608028", "POBTOT": 11.0, "score_nse": 0.0, "NSE": "ND", "VIVTOT": 9.0, "GRAPROES": 6.5, "_ent": "25", "_mun": "009", "_loc": "0034"}, "geometry": {"type": "Polygon", "coordinates": [[[-105.8392, 22.73215], [-105.84, 22.73165], [-105.84045, 22.73221], [-105.83971, 22.73267], [-105.8392, 22.73215]]]}}, {"id": "1957036", "type": "Feature", "properties": {"id": "1957036", "CVEGEO": "2500900340608027", "POBTOT": 22.0, "score_nse": 0.0, "NSE": "ND", "VIVTOT": 18.0, "GRAPROES": 6.42, "_ent": "25", "_mun": "009", "_loc": "0034"}, "geometry": {"type": "Polygon", "coordinates": [[[-105.83892, 22.73177], [-105.83968, 22.73124], [-105.83996, 22.73159], [-105.83915, 22.73206], [-105.83892, 22.73177]]]}}, {"id": "1957037", "type": "Feature", "properties": {"id": "1957037", "CVEGEO": "2500900340608026", "POBTOT": 18.0, "score_nse": 0.0, "NSE": "ND", "VIVTOT": 6.0, "GRAPROES": 9.83, "_ent": "25", "_mun": "009", "_loc": "0034"}, "geometry": {"type": "Polygon", "coordinates": [[[-105.84122, 22.72916], [-105.84083, 22.72864], [-105.84141, 22.72817], [-105.84185, 22.72876], [-105.84122, 22.72916]]]}}, {"id": "1957038", "type": "Feature", "properties": {"id": "1957038", "CVEGEO": "2500900340608025", "POBTOT": 38.0, "score_nse": 0.0, "NSE": "ND", "VIVTOT": 10.0, "GRAPROES": 5.4, "_ent": "25", "_mun": "009", "_loc": "0034"}, "geometry": {"type": "Polygon", "coordinates": [[[-105.84063, 22.72954], [-105.84026, 22.72913], [-105.84078, 22.72868], [-105.84117, 22.7292], [-105.84063, 22.72954]]]}}, {"id": "1957039", "type": "Feature", "properties": {"id": "1957039", "CVEGEO": "2500900340608024", "POBTOT": 33.0, "score_nse": 0.0, "NSE": "ND", "VIVTOT": 11.0, "GRAPROES": 6.29, "_ent": "25", "_mun": "009", "_loc": "0034"}, "geometry": {"type": "Polygon", "coordinates": [[[-105.84125, 22.72919], [-105.84187, 22.72879], [-105.84227, 22.72933], [-105.84165, 22.72973], [-105.84125, 22.72919]]]}}, {"id": "1957040", "type": "Feature", "properties": {"id": "1957040", "CVEGEO": "2500900340608012", "POBTOT": 22.0, "score_nse": 0.0, "NSE": "ND", "VIVTOT": 8.0, "GRAPROES": 8.11, "_ent": "25", "_mun": "009", "_loc": "0034"}, "geometry": {"type": "Polygon", "coordinates": [[[-105.84451, 22.73234], [-105.84389, 22.73273], [-105.84348, 22.73218], [-105.8441, 22.73179], [-105.84451, 22.73234]]]}}, {"id": "1957041", "type": "Feature", "properties": {"id": "1957041", "CVEGEO": "2500900340608011", "POBTOT": 17.0, "score_nse": 0.0, "NSE": "ND", "VIVTOT": 8.0, "GRAPROES": 10.33, "_ent": "25", "_mun": "009", "_loc": "0034"}, "geometry": {"type": "Polygon", "coordinates": [[[-105.84344, 22.73212], [-105.84303, 22.73158], [-105.84365, 22.73118], [-105.84406, 22.73173], [-105.84344, 22.73212]]]}}, {"id": "1957042", "type": "Feature", "properties": {"id": "1957042", "CVEGEO": "2500900340608010", "POBTOT": 30.0, "score_nse": 0.0, "NSE": "ND", "VIVTOT": 8.0, "GRAPROES": 7.11, "_ent": "25", "_mun": "009", "_loc": "0034"}, "geometry": {"type": "Polygon", "coordinates": [[[-105.84319, 22.73058], [-105.84361, 22.73114], [-105.843, 22.73153], [-105.84257, 22.73097], [-105.84319, 22.73058]]]}}, {"id": "1957043", "type": "Feature", "properties": {"id": "1957043", "CVEGEO": "2500900340608009", "POBTOT": 44.0, "score_nse": 0.0, "NSE": "ND", "VIVTOT": 10.0, "GRAPROES": 5.33, "_ent": "25", "_mun": "009", "_loc": "0034"}, "geometry": {"type": "Polygon", "coordinates": [[[-105.84316, 22.73055], [-105.84255, 22.73093], [-105.84213, 22.73037], [-105.84274, 22.72997], [-105.84316, 22.73055]]]}}, {"id": "1957044", "type": "Feature", "properties": {"id": "1957044", "CVEGEO": "2500900340608008", "POBTOT": 15.0, "score_nse": 0.0, "NSE": "ND", "VIVTOT": 5.0, "GRAPROES": 10.8, "_ent": "25", "_mun": "009", "_loc": "0034"}, "geometry": {"type": "Polygon", "coordinates": [[[-105.84148, 22.73079], [-105.84207, 22.73041], [-105.84249, 22.73097], [-105.84188, 22.73135], [-105.84148, 22.73079]]]}}, {"id": "1957045", "type": "Feature", "properties": {"id": "1957045", "CVEGEO": "2500900340608007", "POBTOT": 41.0, "score_nse": 0.0, "NSE": "ND", "VIVTOT": 18.0, "GRAPROES": 9.08, "_ent": "25", "_mun": "009", "_loc": "0034"}, "geometry": {"type": "Polygon", "coordinates": [[[-105.84106, 22.7303], [-105.84183, 22.73138], [-105.84055, 22.73218], [-105.83976, 22.73124], [-105.84106, 22.7303]]]}}, {"id": "1957046", "type": "Feature", "properties": {"id": "1957046", "CVEGEO": "2500900340608006", "POBTOT": 23.0, "score_nse": 0.0, "NSE": "ND", "VIVTOT": 6.0, "GRAPROES": 9.0, "_ent": "25", "_mun": "009", "_loc": "0034"}, "geometry": {"type": "Polygon", "coordinates": [[[-105.84058, 22.73222], [-105.8412, 22.73183], [-105.84165, 22.7324], [-105.84103, 22.7328], [-105.84058, 22.73222]]]}}, {"id": "1957047", "type": "Feature", "properties": {"id": "1957047", "CVEGEO": "2500900340608005", "POBTOT": 18.0, "score_nse": 0.0, "NSE": "ND", "VIVTOT": 5.0, "GRAPROES": 8.2, "_ent": "25", "_mun": "009", "_loc": "0034"}, "geometry": {"type": "Polygon", "coordinates": [[[-105.84107, 22.73282], [-105.84165, 22.73245], [-105.84207, 22.73296], [-105.84145, 22.73335], [-105.84107, 22.73282]]]}}, {"id": "1957048", "type": "Feature", "properties": {"id": "1957048", "CVEGEO": "2500900340608004", "POBTOT": 20.0, "score_nse": 0.0, "NSE": "ND", "VIVTOT": 7.0, "GRAPROES": 7.93, "_ent": "25", "_mun": "009", "_loc": "0034"}, "geometry": {"type": "Polygon", "coordinates": [[[-105.84174, 22.73242], [-105.84232, 22.73204], [-105.84273, 22.73258], [-105.84214, 22.73296], [-105.84174, 22.73242]]]}}, {"id": "1957049", "type": "Feature", "properties": {"id": "1957049", "CVEGEO": "2500900340595033", "POBTOT": 36.0, "score_nse": 0.0, "NSE": "ND", "VIVTOT": 7.0, "GRAPROES": 5.4, "_ent": "25", "_mun": "009", "_loc": "0034"}, "geometry": {"type": "Polygon", "coordinates": [[[-105.84576, 22.73785], [-105.84528, 22.73773], [-105.84495, 22.73749], [-105.8453, 22.73728], [-105.84576, 22.73785]]]}}, {"id": "1957050", "type": "Feature", "properties": {"id": "1957050", "CVEGEO": "2500900340595032", "POBTOT": 58.0, "score_nse": 0.0, "NSE": "ND", "VIVTOT": 17.0, "GRAPROES": 6.03, "_ent": "25", "_mun": "009", "_loc": "0034"}, "geometry": {"type": "Polygon", "coordinates": [[[-105.84549, 22.73627], [-105.84488, 22.73666], [-105.84446, 22.73609], [-105.84507, 22.7357], [-105.84549, 22.73627]]]}}, {"id": "1957051", "type": "Feature", "properties": {"id": "1957051", "CVEGEO": "2500900340595031", "POBTOT": 74.0, "score_nse": 0.0, "NSE": "ND", "VIVTOT": 27.0, "GRAPROES": 7.34, "_ent": "25", "_mun": "009", "_loc": "0034"}, "geometry": {"type": "Polygon", "coordinates": [[[-105.84552, 22.7363], [-105.84593, 22.73684], [-105.84532, 22.7372], [-105.84491, 22.73669], [-105.84552, 22.7363]]]}}, {"id": "1957052", "type": "Feature", "properties": {"id": "1957052", "CVEGEO": "2500900340595030", "POBTOT": 59.0, "score_nse": 0.0, "NSE": "ND", "VIVTOT": 16.0, "GRAPROES": 7.14, "_ent": "25", "_mun": "009", "_loc": "0034"}, "geometry": {"type": "Polygon", "coordinates": [[[-105.84581, 22.73782], [-105.84535, 22.73724], [-105.84596, 22.73688], [-105.84639, 22.73746], [-105.84581, 22.73782]]]}}, {"id": "1957053", "type": "Feature", "properties": {"id": "1957053", "CVEGEO": "2500900340595029", "POBTOT": 88.0, "score_nse": 0.0, "NSE": "ND", "VIVTOT": 46.0, "GRAPROES": 3.78, "_ent": "25", "_mun": "009", "_loc": "0034"}, "geometry": {"type": "Polygon", "coordinates": [[[-105.84685, 22.73807], [-105.84638, 22.73839], [-105.84585, 22.73786], [-105.84642, 22.7375], [-105.84685, 22.73807]]]}}, {"id": "1957054", "type": "Feature", "properties": {"id": "1957054", "CVEGEO": "2500900340595028", "POBTOT": 143.0, "score_nse": 34.162, "NSE": "D+", "VIVTOT": 40.0, "GRAPROES": 5.4, "_ent": "25", "_mun": "009", "_loc": "0034"}, "geometry": {"type": "Polygon", "coordinates": [[[-105.84837, 22.73872], [-105.84776, 22.73919], [-105.84694, 22.73809], [-105.84755, 22.73769], [-105.84837, 22.73872]]]}}, {"id": "1957055", "type": "Feature", "properties": {"id": "1957055", "CVEGEO": "2500900340595027", "POBTOT": 153.0, "score_nse": 0.0, "NSE": "ND", "VIVTOT": 72.0, "GRAPROES": 4.96, "_ent": "25", "_mun": "009", "_loc": "0034"}, "geometry": {"type": "Polygon", "coordinates": [[[-105.84842, 22.73868], [-105.84761, 22.73765], [-105.84821, 22.73726], [-105.84896, 22.73825], [-105.84842, 22.73868]]]}}, {"id": "1957056", "type": "Feature", "properties": {"id": "1957056", "CVEGEO": "2500900340595026", "POBTOT": 86.0, "score_nse": 0.0, "NSE": "ND", "VIVTOT": 26.0, "GRAPROES": 5.63, "_ent": "25", "_mun": "009", "_loc": "0034"}, "geometry": {"type": "Polygon", "coordinates": [[[-105.84647, 22.73747], [-105.84708, 22.73709], [-105.84751, 22.73764], [-105.8469, 22.73804], [-105.84647, 22.73747]]]}}, {"id": "1957057", "type": "Feature", "properties": {"id": "1957057", "CVEGEO": "2500900340595025", "POBTOT": 45.0, "score_nse": 49.9333, "NSE": "C-", "VIVTOT": 15.0, "GRAPROES": 8.65, "_ent": "25", "_mun": "009", "_loc": "0034"}, "geometry": {"type": "Polygon", "coordinates": [[[-105.84714, 22.73706], [-105.84775, 22.73666], [-105.84817, 22.73721], [-105.84757, 22.7376], [-105.84714, 22.73706]]]}}, {"id": "1957058", "type": "Feature", "properties": {"id": "1957058", "CVEGEO": "2500900340595014", "POBTOT": 15.0, "score_nse": 0.0, "NSE": "ND", "VIVTOT": 10.0, "GRAPROES": 9.82, "_ent": "25", "_mun": "009", "_loc": "0034"}, "geometry": {"type": "Polygon", "coordinates": [[[-105.84243, 22.73465], [-105.84303, 22.73427], [-105.84346, 22.73485], [-105.84287, 22.73524], [-105.84243, 22.73465]]]}}, {"id": "1957059", "type": "Feature", "properties": {"id": "1957059", "CVEGEO": "2500900340595013", "POBTOT": 5.0, "score_nse": 0.0, "NSE": "ND", "VIVTOT": 2.0, "GRAPROES": 0.0, "_ent": "25", "_mun": "009", "_loc": "0034"}, "geometry": {"type": "Polygon", "coordinates": [[[-105.84206, 22.73488], [-105.84239, 22.73468], [-105.84283, 22.73527], [-105.84269, 22.73536], [-105.84206, 22.73488]]]}}, {"id": "1957060", "type": "Feature", "properties": {"id": "1957060", "CVEGEO": "2500900340595012", "POBTOT": 9.0, "score_nse": 0.0, "NSE": "ND", "VIVTOT": 6.0, "GRAPROES": 13.0, "_ent": "25", "_mun": "009", "_loc": "0034"}, "geometry": {"type": "Polygon", "coordinates": [[[-105.84311, 22.73601], [-105.84261, 22.73638], [-105.84215, 22.73577], [-105.84252, 22.73554], [-105.84311, 22.73601]]]}}, {"id": "1957061", "type": "Feature", "properties": {"id": "1957061", "CVEGEO": "2500900340595011", "POBTOT": 19.0, "score_nse": 0.0, "NSE": "ND", "VIVTOT": 7.0, "GRAPROES": 8.31, "_ent": "25", "_mun": "009", "_loc": "0034"}, "geometry": {"type": "Polygon", "coordinates": [[[-105.84658, 22.73644], [-105.84597, 22.73681], [-105.84557, 22.73627], [-105.84617, 22.73589], [-105.84658, 22.73644]]]}}, {"id": "1957062", "type": "Feature", "properties": {"id": "1957062", "CVEGEO": "2500900340595010", "POBTOT": 35.0, "score_nse": 0.0, "NSE": "ND", "VIVTOT": 14.0, "GRAPROES": 8.38, "_ent": "25", "_mun": "009", "_loc": "0034"}, "geometry": {"type": "Polygon", "coordinates": [[[-105.84684, 22.73545], [-105.84726, 22.73601], [-105.84664, 22.73641], [-105.84623, 22.73585], [-105.84684, 22.73545]]]}}, {"id": "1957063", "type": "Feature", "properties": {"id": "1957063", "CVEGEO": "2500900340595009", "POBTOT": 81.0, "score_nse": 0.0, "NSE": "ND", "VIVTOT": 20.0, "GRAPROES": 6.14, "_ent": "25", "_mun": "009", "_loc": "0034"}, "geometry": {"type": "Polygon", "coordinates": [[[-105.84639, 22.73486], [-105.84682, 22.73541], [-105.8462, 22.73582], [-105.84578, 22.73526], [-105.84639, 22.73486]]]}}, {"id": "1957064", "type": "Feature", "properties": {"id": "1957064", "CVEGEO": "2500900340595008", "POBTOT": 35.0, "score_nse": 0.0, "NSE": "ND", "VIVTOT": 11.0, "GRAPROES": 6.37, "_ent": "25", "_mun": "009", "_loc": "0034"}, "geometry": {"type": "Polygon", "coordinates": [[[-105.84636, 22.73482], [-105.84575, 22.73522], [-105.84531, 22.73464], [-105.84593, 22.73425], [-105.84636, 22.73482]]]}}, {"id": "1957065", "type": "Feature", "properties": {"id": "1957065", "CVEGEO": "2500900340595007", "POBTOT": 14.0, "score_nse": 0.0, "NSE": "ND", "VIVTOT": 6.0, "GRAPROES": 7.33, "_ent": "25", "_mun": "009", "_loc": "0034"}, "geometry": {"type": "Polygon", "coordinates": [[[-105.84486, 22.73404], [-105.84548, 22.73364], [-105.84591, 22.73421], [-105.84529, 22.73461], [-105.84486, 22.73404]]]}}, {"id": "1957066", "type": "Feature", "properties": {"id": "1957066", "CVEGEO": "2500900340595006", "POBTOT": 47.0, "score_nse": 0.0, "NSE": "ND", "VIVTOT": 14.0, "GRAPROES": 5.39, "_ent": "25", "_mun": "009", "_loc": "0034"}, "geometry": {"type": "Polygon", "coordinates": [[[-105.84464, 22.73503], [-105.84421, 22.73446], [-105.8448, 22.73407], [-105.84523, 22.73465], [-105.84464, 22.73503]]]}}, {"id": "1957067", "type": "Feature", "properties": {"id": "1957067", "CVEGEO": "2500900340580023", "POBTOT": 42.0, "score_nse": 0.0, "NSE": "ND", "VIVTOT": 12.0, "GRAPROES": 6.5, "_ent": "25", "_mun": "009", "_loc": "0034"}, "geometry": {"type": "Polygon", "coordinates": [[[-105.84567, 22.72708], [-105.84526, 22.72652], [-105.84597, 22.72605], [-105.84638, 22.72664], [-105.84567, 22.72708]]]}}, {"id": "1957068", "type": "Feature", "properties": {"id": "1957068", "CVEGEO": "2500900340580022", "POBTOT": 38.0, "score_nse": 49.572, "NSE": "C-", "VIVTOT": 14.0, "GRAPROES": 8.88, "_ent": "25", "_mun": "009", "_loc": "0034"}, "geometry": {"type": "Polygon", "coordinates": [[[-105.84453, 22.72702], [-105.8452, 22.72656], [-105.84561, 22.72712], [-105.84493, 22.72757], [-105.84453, 22.72702]]]}}, {"id": "1957069", "type": "Feature", "properties": {"id": "1957069", "CVEGEO": "2500900340580021", "POBTOT": 20.0, "score_nse": 0.0, "NSE": "ND", "VIVTOT": 8.0, "GRAPROES": 6.83, "_ent": "25", "_mun": "009", "_loc": "0034"}, "geometry": {"type": "Polygon", "coordinates": [[[-105.84427, 22.728], [-105.84385, 22.72747], [-105.84448, 22.72706], [-105.84488, 22.7276], [-105.84427, 22.728]]]}}, {"id": "1957070", "type": "Feature", "properties": {"id": "1957070", "CVEGEO": "2500900340580020", "POBTOT": 41.0, "score_nse": 0.0, "NSE": "ND", "VIVTOT": 10.0, "GRAPROES": 8.27, "_ent": "25", "_mun": "009", "_loc": "0034"}, "geometry": {"type": "Polygon", "coordinates": [[[-105.84645, 22.72665], [-105.84742, 22.726], [-105.84784, 22.72663], [-105.84686, 22.72725], [-105.84645, 22.72665]]]}}, {"id": "1957071", "type": "Feature", "properties": {"id": "1957071", "CVEGEO": "2500900340580019", "POBTOT": 51.0, "score_nse": 0.0, "NSE": "ND", "VIVTOT": 17.0, "GRAPROES": 6.75, "_ent": "25", "_mun": "009", "_loc": "0034"}, "geometry": {"type": "Polygon", "coordinates": [[[-105.84682, 22.72727], [-105.84613, 22.72771], [-105.84571, 22.72713], [-105.8464, 22.72667], [-105.84682, 22.72727]]]}}, {"id": "1957072", "type": "Feature", "properties": {"id": "1957072", "CVEGEO": "2500900340580018", "POBTOT": 55.0, "score_nse": 0.0, "NSE": "ND", "VIVTOT": 19.0, "GRAPROES": 5.88, "_ent": "25", "_mun": "009", "_loc": "0034"}, "geometry": {"type": "Polygon", "coordinates": [[[-105.84496, 22.72761], [-105.84565, 22.72717], [-105.84607, 22.72775], [-105.84539, 22.72818], [-105.84496, 22.72761]]]}}, {"id": "1957073", "type": "Feature", "properties": {"id": "1957073", "CVEGEO": "2500900340580017", "POBTOT": 55.0, "score_nse": 0.0, "NSE": "ND", "VIVTOT": 12.0, "GRAPROES": 5.69, "_ent": "25", "_mun": "009", "_loc": "0034"}, "geometry": {"type": "Polygon", "coordinates": [[[-105.84534, 22.72822], [-105.84473, 22.72861], [-105.8443, 22.72804], [-105.84491, 22.72765], [-105.84534, 22.72822]]]}}, {"id": "1957074", "type": "Feature", "properties": {"id": "1957074", "CVEGEO": "2500900340580016", "POBTOT": 30.0, "score_nse": 64.8022, "NSE": "C", "VIVTOT": 9.0, "GRAPROES": 9.54, "_ent": "25", "_mun": "009", "_loc": "0034"}, "geometry": {"type": "Polygon", "coordinates": [[[-105.84656, 22.73102], [-105.84615, 22.73048], [-105.84674, 22.7301], [-105.84714, 22.73064], [-105.84656, 22.73102]]]}}, {"id": "1957075", "type": "Feature", "properties": {"id": "1957075", "CVEGEO": "2500900340580015", "POBTOT": 17.0, "score_nse": 0.0, "NSE": "ND", "VIVTOT": 9.0, "GRAPROES": 11.64, "_ent": "25", "_mun": "009", "_loc": "0034"}, "geometry": {"type": "Polygon", "coordinates": [[[-105.84782, 22.7302], [-105.84719, 22.73061], [-105.84679, 22.73007], [-105.84743, 22.72965], [-105.84782, 22.7302]]]}}, {"id": "1957076", "type": "Feature", "properties": {"id": "1957076", "CVEGEO": "2500900340580004", "POBTOT": 30.0, "score_nse": 0.0, "NSE": "ND", "VIVTOT": 12.0, "GRAPROES": 7.43, "_ent": "25", "_mun": "009", "_loc": "0034"}, "geometry": {"type": "Polygon", "coordinates": [[[-105.84739, 22.72959], [-105.84674, 22.73001], [-105.84634, 22.72947], [-105.847, 22.72905], [-105.84739, 22.72959]]]}}, {"id": "1957077", "type": "Feature", "properties": {"id": "1957077", "CVEGEO": "2500900340580003", "POBTOT": 44.0, "score_nse": 45.2325, "NSE": "C-", "VIVTOT": 16.0, "GRAPROES": 8.34, "_ent": "25", "_mun": "009", "_loc": "0034"}, "geometry": {"type": "Polygon", "coordinates": [[[-105.84745, 22.72955], [-105.84706, 22.72901], [-105.84772, 22.72858], [-105.8481, 22.72914], [-105.84745, 22.72955]]]}}, {"id": "1957078", "type": "Feature", "properties": {"id": "1957078", "CVEGEO": "2500900340580002", "POBTOT": 90.0, "score_nse": 0.0, "NSE": "ND", "VIVTOT": 28.0, "GRAPROES": 7.18, "_ent": "25", "_mun": "009", "_loc": "0034"}, "geometry": {"type": "Polygon", "coordinates": [[[-105.84732, 22.72801], [-105.84769, 22.72853], [-105.84703, 22.72896], [-105.84662, 22.72838], [-105.84732, 22.72801]]]}}, {"id": "1957079", "type": "Feature", "properties": {"id": "1957079", "CVEGEO": "2500900340580001", "POBTOT": 31.0, "score_nse": 0.0, "NSE": "ND", "VIVTOT": 20.0, "GRAPROES": 5.25, "_ent": "25", "_mun": "009", "_loc": "0034"}, "geometry": {"type": "Polygon", "coordinates": [[[-105.84656, 22.72842], [-105.84697, 22.729], [-105.84631, 22.72942], [-105.84588, 22.72885], [-105.84656, 22.72842]]]}}, {"id": "1957080", "type": "Feature", "properties": {"id": "1957080", "CVEGEO": "2500900340576027", "POBTOT": 130.0, "score_nse": 29.8408, "NSE": "D", "VIVTOT": 58.0, "GRAPROES": 5.24, "_ent": "25", "_mun": "009", "_loc": "0034"}, "geometry": {"type": "Polygon", "coordinates": [[[-105.85082, 22.73672], [-105.8498, 22.73535], [-105.85038, 22.73499], [-105.85135, 22.73629], [-105.85082, 22.73672]]]}}, {"id": "1957081", "type": "Feature", "properties": {"id": "1957081", "CVEGEO": "2500900340576026", "POBTOT": 103.0, "score_nse": 35.425, "NSE": "D+", "VIVTOT": 32.0, "GRAPROES": 6.93, "_ent": "25", "_mun": "009", "_loc": "0034"}, "geometry": {"type": "Polygon", "coordinates": [[[-105.85043, 22.73495], [-105.85097, 22.73462], [-105.85187, 22.73586], [-105.8514, 22.73625], [-105.85043, 22.73495]]]}}, {"id": "1957082", "type": "Feature", "properties": {"id": "1957082", "CVEGEO": "2500900340576025", "POBTOT": 107.0, "score_nse": 0.0, "NSE": "ND", "VIVTOT": 38.0, "GRAPROES": 7.34, "_ent": "25", "_mun": "009", "_loc": "0034"}, "geometry": {"type": "Polygon", "coordinates": [[[-105.85103, 22.73458], [-105.85163, 22.73421], [-105.85244, 22.73538], [-105.85193, 22.73581], [-105.85103, 22.73458]]]}}, {"id": "1957083", "type": "Feature", "properties": {"id": "1957083", "CVEGEO": "2500900340576024", "POBTOT": 60.0, "score_nse": 52.0855, "NSE": "C-", "VIVTOT": 11.0, "GRAPROES": 7.86, "_ent": "25", "_mun": "009", "_loc": "0034"}, "geometry": {"type": "Polygon", "coordinates": [[[-105.85035, 22.73495], [-105.84977, 22.73531], [-105.84935, 22.73476], [-105.84994, 22.73439], [-105.85035, 22.73495]]]}}, {"id": "1957084", "type": "Feature", "properties": {"id": "1957084", "CVEGEO": "2500900340576023", "POBTOT": 66.0, "score_nse": 33.808, "NSE": "D+", "VIVTOT": 25.0, "GRAPROES": 6.78, "_ent": "25", "_mun": "009", "_loc": "0034"}, "geometry": {"type": "Polygon", "coordinates": [[[-105.85094, 22.73458], [-105.8504, 22.73491], [-105.84999, 22.73435], [-105.85053, 22.73401], [-105.85094, 22.73458]]]}}, {"id": "1957085", "type": "Feature", "properties": {"id": "1957085", "CVEGEO": "2500900340576007", "POBTOT": 1.0, "score_nse": 0.0, "NSE": "ND", "VIVTOT": 1.0, "GRAPROES": 0.0, "_ent": "25", "_mun": "009", "_loc": "0034"}, "geometry": {"type": "Polygon", "coordinates": [[[-105.84707, 22.73171], [-105.84766, 22.73135], [-105.84806, 22.73189], [-105.84749, 22.73226], [-105.84707, 22.73171]]]}}, {"id": "1957086", "type": "Feature", "properties": {"id": "1957086", "CVEGEO": "2500900340576006", "POBTOT": 0.0, "score_nse": 0.0, "NSE": "ND", "VIVTOT": 0.0, "GRAPROES": 0.0, "_ent": "25", "_mun": "009", "_loc": "0034"}, "geometry": {"type": "Polygon", "coordinates": [[[-105.84796, 22.73289], [-105.84753, 22.73232], [-105.84811, 22.73195], [-105.84854, 22.73253], [-105.84796, 22.73289]]]}}, {"id": "1957087", "type": "Feature", "properties": {"id": "1957087", "CVEGEO": "2500900340576005", "POBTOT": 0.0, "score_nse": 0.0, "NSE": "ND", "VIVTOT": 0.0, "GRAPROES": 0.0, "_ent": "25", "_mun": "009", "_loc": "0034"}, "geometry": {"type": "Polygon", "coordinates": [[[-105.84799, 22.73293], [-105.84856, 22.73256], [-105.84946, 22.73373], [-105.84887, 22.73411], [-105.84799, 22.73293]]]}}, {"id": "1957088", "type": "Feature", "properties": {"id": "1957088", "CVEGEO": "2500900340576004", "POBTOT": 0.0, "score_nse": 0.0, "NSE": "ND", "VIVTOT": 0.0, "GRAPROES": 0.0, "_ent": "25", "_mun": "009", "_loc": "0034"}, "geometry": {"type": "Polygon", "coordinates": [[[-105.84861, 22.73253], [-105.84921, 22.73216], [-105.84962, 22.73275], [-105.84905, 22.7331], [-105.84861, 22.73253]]]}}, {"id": "1957089", "type": "Feature", "properties": {"id": "1957089", "CVEGEO": "2500900340576003", "POBTOT": 43.0, "score_nse": 41.1311, "NSE": "D+", "VIVTOT": 23.0, "GRAPROES": 7.81, "_ent": "25", "_mun": "009", "_loc": "0034"}, "geometry": {"type": "Polygon", "coordinates": [[[-105.84986, 22.73175], [-105.85027, 22.73234], [-105.84968, 22.73271], [-105.84927, 22.73212], [-105.84986, 22.73175]]]}}, {"id": "1957090", "type": "Feature", "properties": {"id": "1957090", "CVEGEO": "2500900340576002", "POBTOT": 20.0, "score_nse": 0.0, "NSE": "ND", "VIVTOT": 8.0, "GRAPROES": 7.71, "_ent": "25", "_mun": "009", "_loc": "0034"}, "geometry": {"type": "Polygon", "coordinates": [[[-105.84924, 22.73208], [-105.84883, 22.7315], [-105.84944, 22.73111], [-105.84984, 22.73171], [-105.84924, 22.73208]]]}}, {"id": "1957091", "type": "Feature", "properties": {"id": "1957091", "CVEGEO": "2500900340576001", "POBTOT": 17.0, "score_nse": 0.0, "NSE": "ND", "VIVTOT": 7.0, "GRAPROES": 9.89, "_ent": "25", "_mun": "009", "_loc": "0034"}, "geometry": {"type": "Polygon", "coordinates": [[[-105.84816, 22.73192], [-105.84877, 22.73153], [-105.84918, 22.73212], [-105.84859, 22.7325], [-105.84816, 22.73192]]]}}, {"id": "1957092", "type": "Feature", "properties": {"id": "1957092", "CVEGEO": "2500900340504038", "POBTOT": 55.0, "score_nse": 0.0, "NSE": "ND", "VIVTOT": 23.0, "GRAPROES": 5.97, "_ent": "25", "_mun": "009", "_loc": "0034"}, "geometry": {"type": "Polygon", "coordinates": [[[-105.84847, 22.73615], [-105.84804, 22.73558], [-105.84863, 22.73521], [-105.84905, 22.73577], [-105.84847, 22.73615]]]}}, {"id": "1957093", "type": "Feature", "properties": {"id": "1957093", "CVEGEO": "2500900340504037", "POBTOT": 111.0, "score_nse": 0.0, "NSE": "ND", "VIVTOT": 32.0, "GRAPROES": 6.12, "_ent": "25", "_mun": "009", "_loc": "0034"}, "geometry": {"type": "Polygon", "coordinates": [[[-105.84911, 22.73574], [-105.84869, 22.73517], [-105.8493, 22.73479], [-105.84971, 22.73535], [-105.84911, 22.73574]]]}}, {"id": "1957094", "type": "Feature", "properties": {"id": "1957094", "CVEGEO": "2500900340504036", "POBTOT": 33.0, "score_nse": 0.0, "NSE": "ND", "VIVTOT": 13.0, "GRAPROES": 8.56, "_ent": "25", "_mun": "009", "_loc": "0034"}, "geometry": {"type": "Polygon", "coordinates": [[[-105.84322, 22.7279], [-105.8438, 22.72751], [-105.84421, 22.72803], [-105.84363, 22.72842], [-105.84322, 22.7279]]]}}, {"id": "1957095", "type": "Feature", "properties": {"id": "1957095", "CVEGEO": "2500900340504035", "POBTOT": 53.0, "score_nse": 0.0, "NSE": "ND", "VIVTOT": 14.0, "GRAPROES": 8.32, "_ent": "25", "_mun": "009", "_loc": "0034"}, "geometry": {"type": "Polygon", "coordinates": [[[-105.84259, 22.72831], [-105.84315, 22.72793], [-105.84357, 22.72846], [-105.843, 22.72884], [-105.84259, 22.72831]]]}}, {"id": "1957096", "type": "Feature", "properties": {"id": "1957096", "CVEGEO": "2500900340504034", "POBTOT": 43.0, "score_nse": 56.618, "NSE": "C", "VIVTOT": 12.0, "GRAPROES": 7.9, "_ent": "25", "_mun": "009", "_loc": "0034"}, "geometry": {"type": "Polygon", "coordinates": [[[-105.84295, 22.72888], [-105.84233, 22.72929], [-105.84194, 22.72875], [-105.84254, 22.72835], [-105.84295, 22.72888]]]}}, {"id": "1957097", "type": "Feature", "properties": {"id": "1957097", "CVEGEO": "2500900340504033", "POBTOT": 39.0, "score_nse": 0.0, "NSE": "ND", "VIVTOT": 17.0, "GRAPROES": 6.54, "_ent": "25", "_mun": "009", "_loc": "0034"}, "geometry": {"type": "Polygon", "coordinates": [[[-105.84795, 22.73557], [-105.84733, 22.73597], [-105.84691, 22.73541], [-105.84754, 22.73502], [-105.84795, 22.73557]]]}}, {"id": "1957098", "type": "Feature", "properties": {"id": "1957098", "CVEGEO": "2500900340504032", "POBTOT": 62.0, "score_nse": 0.0, "NSE": "ND", "VIVTOT": 19.0, "GRAPROES": 5.43, "_ent": "25", "_mun": "009", "_loc": "0034"}, "geometry": {"type": "Polygon", "coordinates": [[[-105.84801, 22.73554], [-105.84759, 22.73499], [-105.84818, 22.73462], [-105.8486, 22.73517], [-105.84801, 22.73554]]]}}, {"id": "1957099", "type": "Feature", "properties": {"id": "1957099", "CVEGEO": "2500900340504031", "POBTOT": 83.0, "score_nse": 0.0, "NSE": "ND", "VIVTOT": 22.0, "GRAPROES": 5.78, "_ent": "25", "_mun": "009", "_loc": "0034"}, "geometry": {"type": "Polygon", "coordinates": [[[-105.84884, 22.73419], [-105.84927, 22.73475], [-105.84866, 22.73513], [-105.84824, 22.73458], [-105.84884, 22.73419]]]}}, {"id": "1957100", "type": "Feature", "properties": {"id": "1957100", "CVEGEO": "2500900340504030", "POBTOT": 17.0, "score_nse": 0.0, "NSE": "ND", "VIVTOT": 10.0, "GRAPROES": 8.0, "_ent": "25", "_mun": "009", "_loc": "0034"}, "geometry": {"type": "Polygon", "coordinates": [[[-105.84409, 22.72902], [-105.84366, 22.72847], [-105.84425, 22.72808], [-105.84467, 22.72864], [-105.84409, 22.72902]]]}}, {"id": "1957101", "type": "Feature", "properties": {"id": "1957101", "CVEGEO": "2500900340504019", "POBTOT": 36.0, "score_nse": 0.0, "NSE": "ND", "VIVTOT": 14.0, "GRAPROES": 8.63, "_ent": "25", "_mun": "009", "_loc": "0034"}, "geometry": {"type": "Polygon", "coordinates": [[[-105.84769, 22.73386], [-105.84731, 22.73336], [-105.84793, 22.73297], [-105.84837, 22.73355], [-105.84769, 22.73386]]]}}, {"id": "1957102", "type": "Feature", "properties": {"id": "1957102", "CVEGEO": "2500900340504018", "POBTOT": 35.0, "score_nse": 0.0, "NSE": "ND", "VIVTOT": 14.0, "GRAPROES": 8.38, "_ent": "25", "_mun": "009", "_loc": "0034"}, "geometry": {"type": "Polygon", "coordinates": [[[-105.84517, 22.72929], [-105.84561, 22.72987], [-105.84501, 22.73025], [-105.84458, 22.72968], [-105.84517, 22.72929]]]}}, {"id": "1957103", "type": "Feature", "properties": {"id": "1957103", "CVEGEO": "2500900340504017", "POBTOT": 26.0, "score_nse": 0.0, "NSE": "ND", "VIVTOT": 10.0, "GRAPROES": 8.3, "_ent": "25", "_mun": "009", "_loc": "0034"}, "geometry": {"type": "Polygon", "coordinates": [[[-105.84452, 22.72972], [-105.84495, 22.73029], [-105.84435, 22.73066], [-105.84393, 22.7301], [-105.84452, 22.72972]]]}}, {"id": "1957104", "type": "Feature", "properties": {"id": "1957104", "CVEGEO": "2500900340504016", "POBTOT": 23.0, "score_nse": 0.0, "NSE": "ND", "VIVTOT": 12.0, "GRAPROES": 7.72, "_ent": "25", "_mun": "009", "_loc": "0034"}, "geometry": {"type": "Polygon", "coordinates": [[[-105.84388, 22.73013], [-105.8443, 22.7307], [-105.84368, 22.7311], [-105.84325, 22.73054], [-105.84388, 22.73013]]]}}, {"id": "1957105", "type": "Feature", "properties": {"id": "1957105", "CVEGEO": "2500900340504014", "POBTOT": 27.0, "score_nse": 0.0, "NSE": "ND", "VIVTOT": 12.0, "GRAPROES": 8.22, "_ent": "25", "_mun": "009", "_loc": "0034"}, "geometry": {"type": "Polygon", "coordinates": [[[-105.8468, 22.73278], [-105.84723, 22.73336], [-105.84664, 22.73374], [-105.84621, 22.73317], [-105.8468, 22.73278]]]}}, {"id": "1957106", "type": "Feature", "properties": {"id": "1957106", "CVEGEO": "2500900340504013", "POBTOT": 35.0, "score_nse": 63.86, "NSE": "C", "VIVTOT": 11.0, "GRAPROES": 9.63, "_ent": "25", "_mun": "009", "_loc": "0034"}, "geometry": {"type": "Polygon", "coordinates": [[[-105.8479, 22.73293], [-105.84729, 22.73332], [-105.84686, 22.73275], [-105.84747, 22.73236], [-105.8479, 22.73293]]]}}, {"id": "1957107", "type": "Feature", "properties": {"id": "1957107", "CVEGEO": "2500900340504012", "POBTOT": 18.0, "score_nse": 0.0, "NSE": "ND", "VIVTOT": 14.0, "GRAPROES": 9.64, "_ent": "25", "_mun": "009", "_loc": "0034"}, "geometry": {"type": "Polygon", "coordinates": [[[-105.84605, 22.73046], [-105.84545, 22.73084], [-105.84504, 22.7303], [-105.84564, 22.72991], [-105.84605, 22.73046]]]}}, {"id": "1957108", "type": "Feature", "properties": {"id": "1957108", "CVEGEO": "2500900340504011", "POBTOT": 29.0, "score_nse": 0.0, "NSE": "ND", "VIVTOT": 12.0, "GRAPROES": 9.55, "_ent": "25", "_mun": "009", "_loc": "0034"}, "geometry": {"type": "Polygon", "coordinates": [[[-105.84539, 22.73088], [-105.84479, 22.73126], [-105.84439, 22.73071], [-105.84498, 22.73033], [-105.84539, 22.73088]]]}}, {"id": "1957400", "type": "Feature", "properties": {"id": "1957400", "CVEGEO": "2500900340580006", "POBTOT": 29.0, "score_nse": 0.0, "NSE": "ND", "VIVTOT": 11.0, "GRAPROES": 5.05, "_ent": "25", "_mun": "009", "_loc": "0034"}, "geometry": {"type": "Polygon", "coordinates": [[[-105.84567, 22.72983], [-105.84523, 22.72926], [-105.84583, 22.72888], [-105.84626, 22.72946], [-105.84567, 22.72983]]]}}, {"id": "1957401", "type": "Feature", "properties": {"id": "1957401", "CVEGEO": "2500900340580005", "POBTOT": 30.0, "score_nse": 0.0, "NSE": "ND", "VIVTOT": 8.0, "GRAPROES": 9.0, "_ent": "25", "_mun": "009", "_loc": "0034"}, "geometry": {"type": "Polygon", "coordinates": [[[-105.84669, 22.73004], [-105.84611, 22.73042], [-105.8457, 22.72988], [-105.84629, 22.7295], [-105.84669, 22.73004]]]}}, {"id": "1957402", "type": "Feature", "properties": {"id": "1957402", "CVEGEO": "2500900340504042", "POBTOT": 45.0, "score_nse": 0.0, "NSE": "ND", "VIVTOT": 20.0, "GRAPROES": 8.71, "_ent": "25", "_mun": "009", "_loc": "0034"}, "geometry": {"type": "Polygon", "coordinates": [[[-105.84318, 22.72671], [-105.84377, 22.72748], [-105.84319, 22.72787], [-105.84263, 22.72717], [-105.84318, 22.72671]]]}}, {"id": "1957403", "type": "Feature", "properties": {"id": "1957403", "CVEGEO": "2500900340504041", "POBTOT": 44.0, "score_nse": 0.0, "NSE": "ND", "VIVTOT": 14.0, "GRAPROES": 5.85, "_ent": "25", "_mun": "009", "_loc": "0034"}, "geometry": {"type": "Polygon", "coordinates": [[[-105.84204, 22.72766], [-105.84258, 22.72721], [-105.84313, 22.7279], [-105.84257, 22.72828], [-105.84204, 22.72766]]]}}, {"id": "1957404", "type": "Feature", "properties": {"id": "1957404", "CVEGEO": "2500900340504040", "POBTOT": 61.0, "score_nse": 39.2023, "NSE": "D+", "VIVTOT": 23.0, "GRAPROES": 6.58, "_ent": "25", "_mun": "009", "_loc": "0034"}, "geometry": {"type": "Polygon", "coordinates": [[[-105.84252, 22.72832], [-105.84192, 22.72872], [-105.84147, 22.72812], [-105.84199, 22.7277], [-105.84252, 22.72832]]]}}, {"id": "1957405", "type": "Feature", "properties": {"id": "1957405", "CVEGEO": "2500900340504039", "POBTOT": 39.0, "score_nse": 0.0, "NSE": "ND", "VIVTOT": 10.0, "GRAPROES": 7.07, "_ent": "25", "_mun": "009", "_loc": "0034"}, "geometry": {"type": "Polygon", "coordinates": [[[-105.84736, 22.73601], [-105.84798, 22.73561], [-105.84841, 22.73618], [-105.84779, 22.73658], [-105.84736, 22.73601]]]}}, {"id": "1957406", "type": "Feature", "properties": {"id": "1957406", "CVEGEO": "2500900340504029", "POBTOT": 26.0, "score_nse": 0.0, "NSE": "ND", "VIVTOT": 11.0, "GRAPROES": 6.65, "_ent": "25", "_mun": "009", "_loc": "0034"}, "geometry": {"type": "Polygon", "coordinates": [[[-105.84361, 22.72851], [-105.84403, 22.72906], [-105.84346, 22.72944], [-105.84304, 22.72889], [-105.84361, 22.72851]]]}}, {"id": "1957407", "type": "Feature", "properties": {"id": "1957407", "CVEGEO": "2500900340504028", "POBTOT": 52.0, "score_nse": 0.0, "NSE": "ND", "VIVTOT": 15.0, "GRAPROES": 6.62, "_ent": "25", "_mun": "009", "_loc": "0034"}, "geometry": {"type": "Polygon", "coordinates": [[[-105.84277, 22.72989], [-105.84237, 22.72934], [-105.84299, 22.72893], [-105.8434, 22.72947], [-105.84277, 22.72989]]]}}, {"id": "1957408", "type": "Feature", "properties": {"id": "1957408", "CVEGEO": "2500900340504027", "POBTOT": 47.0, "score_nse": 0.0, "NSE": "ND", "VIVTOT": 15.0, "GRAPROES": 8.09, "_ent": "25", "_mun": "009", "_loc": "0034"}, "geometry": {"type": "Polygon", "coordinates": [[[-105.84751, 22.73499], [-105.84688, 22.73538], [-105.84646, 22.73481], [-105.84707, 22.73441], [-105.84751, 22.73499]]]}}, {"id": "1957409", "type": "Feature", "properties": {"id": "1957409", "CVEGEO": "2500900340504026", "POBTOT": 85.0, "score_nse": 0.0, "NSE": "ND", "VIVTOT": 18.0, "GRAPROES": 6.7, "_ent": "25", "_mun": "009", "_loc": "0034"}, "geometry": {"type": "Polygon", "coordinates": [[[-105.84713, 22.73438], [-105.84772, 22.73401], [-105.84815, 22.73458], [-105.84756, 22.73495], [-105.84713, 22.73438]]]}}, {"id": "1957410", "type": "Feature", "properties": {"id": "1957410", "CVEGEO": "2500900340504010", "POBTOT": 32.0, "score_nse": 47.747, "NSE": "C-", "VIVTOT": 8.0, "GRAPROES": 5.6, "_ent": "25", "_mun": "009", "_loc": "0034"}, "geometry": {"type": "Polygon", "coordinates": [[[-105.84433, 22.73075], [-105.84474, 22.7313], [-105.84412, 22.73169], [-105.84371, 22.73114], [-105.84433, 22.73075]]]}}, {"id": "1957511", "type": "Feature", "properties": {"id": "1957511", "CVEGEO": "2500900340580007", "POBTOT": 32.0, "score_nse": 0.0, "NSE": "ND", "VIVTOT": 18.0, "GRAPROES": 7.45, "_ent": "25", "_mun": "009", "_loc": "0034"}, "geometry": {"type": "Polygon", "coordinates": [[[-105.8452, 22.72922], [-105.84476, 22.72865], [-105.84537, 22.72826], [-105.8458, 22.72884], [-105.8452, 22.72922]]]}}, {"id": "1957553", "type": "Feature", "properties": {"id": "1957553", "CVEGEO": "2500900340576008", "POBTOT": 44.0, "score_nse": 0.0, "NSE": "ND", "VIVTOT": 15.0, "GRAPROES": 5.78, "_ent": "25", "_mun": "009", "_loc": "0034"}, "geometry": {"type": "Polygon", "coordinates": [[[-105.84807, 22.7318], [-105.84771, 22.73131], [-105.84833, 22.73092], [-105.84872, 22.73147], [-105.84807, 22.7318]]]}}, {"id": "1957595", "type": "Feature", "properties": {"id": "1957595", "CVEGEO": "2500900340580025", "POBTOT": 72.0, "score_nse": 0.0, "NSE": "ND", "VIVTOT": 17.0, "GRAPROES": 7.74, "_ent": "25", "_mun": "009", "_loc": "0034"}, "geometry": {"type": "Polygon", "coordinates": [[[-105.84383, 22.72744], [-105.84323, 22.72667], [-105.84383, 22.72619], [-105.84445, 22.72703], [-105.84383, 22.72744]]]}}, {"id": "1957679", "type": "Feature", "properties": {"id": "1957679", "CVEGEO": "2500900340699011", "POBTOT": 35.0, "score_nse": 0.0, "NSE": "ND", "VIVTOT": 17.0, "GRAPROES": 9.44, "_ent": "25", "_mun": "009", "_loc": "0034"}, "geometry": {"type": "Polygon", "coordinates": [[[-105.84096, 22.73826], [-105.84003, 22.73886], [-105.83937, 22.73798], [-105.84032, 22.73737], [-105.84096, 22.73826]]]}}, {"id": "1957694", "type": "Feature", "properties": {"id": "1957694", "CVEGEO": "2500900340504001", "POBTOT": 30.0, "score_nse": 52.28, "NSE": "C-", "VIVTOT": 10.0, "GRAPROES": 7.19, "_ent": "25", "_mun": "009", "_loc": "0034"}, "geometry": {"type": "Polygon", "coordinates": [[[-105.8463, 22.7321], [-105.84569, 22.73248], [-105.84528, 22.73193], [-105.84588, 22.73154], [-105.8463, 22.7321]]]}}, {"id": "1957703", "type": "Feature", "properties": {"id": "1957703", "CVEGEO": "2500900340699007", "POBTOT": 45.0, "score_nse": 69.78, "NSE": "C", "VIVTOT": 11.0, "GRAPROES": 9.79, "_ent": "25", "_mun": "009", "_loc": "0034"}, "geometry": {"type": "Polygon", "coordinates": [[[-105.83564, 22.73899], [-105.8366, 22.73837], [-105.83726, 22.73924], [-105.83629, 22.73987], [-105.83564, 22.73899]]]}}, {"id": "1957704", "type": "Feature", "properties": {"id": "1957704", "CVEGEO": "2500900340699005", "POBTOT": 57.0, "score_nse": 0.0, "NSE": "ND", "VIVTOT": 9.0, "GRAPROES": 7.08, "_ent": "25", "_mun": "009", "_loc": "0034"}, "geometry": {"type": "Polygon", "coordinates": [[[-105.8391, 22.74167], [-105.8382, 22.7424], [-105.83703, 22.74087], [-105.83801, 22.74024], [-105.8391, 22.74167]]]}}, {"id": "1957716", "type": "Feature", "properties": {"id": "1957716", "CVEGEO": "2500900340595035", "POBTOT": 21.0, "score_nse": 0.0, "NSE": "ND", "VIVTOT": 9.0, "GRAPROES": 5.7, "_ent": "25", "_mun": "009", "_loc": "0034"}, "geometry": {"type": "Polygon", "coordinates": [[[-105.84441, 22.73612], [-105.84483, 22.73669], [-105.84436, 22.737], [-105.84387, 22.73645], [-105.84441, 22.73612]]]}}, {"id": "1957717", "type": "Feature", "properties": {"id": "1957717", "CVEGEO": "2500900340595034", "POBTOT": 27.0, "score_nse": 0.0, "NSE": "ND", "VIVTOT": 7.0, "GRAPROES": 4.89, "_ent": "25", "_mun": "009", "_loc": "0034"}, "geometry": {"type": "Polygon", "coordinates": [[[-105.8449, 22.73746], [-105.84439, 22.73703], [-105.84486, 22.73673], [-105.84527, 22.73724], [-105.8449, 22.73746]]]}}, {"id": "1957718", "type": "Feature", "properties": {"id": "1957718", "CVEGEO": "2500900340595016", "POBTOT": 41.0, "score_nse": 0.0, "NSE": "ND", "VIVTOT": 13.0, "GRAPROES": 7.55, "_ent": "25", "_mun": "009", "_loc": "0034"}, "geometry": {"type": "Polygon", "coordinates": [[[-105.84373, 22.73382], [-105.84433, 22.73343], [-105.84476, 22.73401], [-105.84416, 22.7344], [-105.84373, 22.73382]]]}}, {"id": "1957724", "type": "Feature", "properties": {"id": "1957724", "CVEGEO": "2500900340595003", "POBTOT": 23.0, "score_nse": 0.0, "NSE": "ND", "VIVTOT": 8.0, "GRAPROES": 7.93, "_ent": "25", "_mun": "009", "_loc": "0034"}, "geometry": {"type": "Polygon", "coordinates": [[[-105.84554, 22.73624], [-105.84512, 22.73567], [-105.84572, 22.7353], [-105.84614, 22.73585], [-105.84554, 22.73624]]]}}, {"id": "1957725", "type": "Feature", "properties": {"id": "1957725", "CVEGEO": "2500900340595002", "POBTOT": 54.0, "score_nse": 0.0, "NSE": "ND", "VIVTOT": 15.0, "GRAPROES": 7.03, "_ent": "25", "_mun": "009", "_loc": "0034"}, "geometry": {"type": "Polygon", "coordinates": [[[-105.84466, 22.73506], [-105.84526, 22.73468], [-105.84569, 22.73526], [-105.84509, 22.73564], [-105.84466, 22.73506]]]}}, {"id": "1957726", "type": "Feature", "properties": {"id": "1957726", "CVEGEO": "2500900340576020", "POBTOT": 19.0, "score_nse": 0.0, "NSE": "ND", "VIVTOT": 20.0, "GRAPROES": 7.93, "_ent": "25", "_mun": "009", "_loc": "0034"}, "geometry": {"type": "Polygon", "coordinates": [[[-105.84938, 22.73468], [-105.8489, 22.73415], [-105.84949, 22.73377], [-105.84991, 22.73435], [-105.84938, 22.73468]]]}}, {"id": "1957727", "type": "Feature", "properties": {"id": "1957727", "CVEGEO": "2500900340576019", "POBTOT": 55.0, "score_nse": 0.0, "NSE": "ND", "VIVTOT": 30.0, "GRAPROES": 7.92, "_ent": "25", "_mun": "009", "_loc": "0034"}, "geometry": {"type": "Polygon", "coordinates": [[[-105.84996, 22.73431], [-105.84954, 22.73374], [-105.85008, 22.7334], [-105.8505, 22.73397], [-105.84996, 22.73431]]]}}, {"id": "1957730", "type": "Feature", "properties": {"id": "1957730", "CVEGEO": "2500900340576017", "POBTOT": 44.0, "score_nse": 60.629, "NSE": "C", "VIVTOT": 16.0, "GRAPROES": 9.38, "_ent": "25", "_mun": "009", "_loc": "0034"}, "geometry": {"type": "Polygon", "coordinates": [[[-105.84858, 22.72975], [-105.84941, 22.72921], [-105.84978, 22.7298], [-105.84896, 22.73032], [-105.84858, 22.72975]]]}}, {"id": "1957731", "type": "Feature", "properties": {"id": "1957731", "CVEGEO": "2500900340576016", "POBTOT": 34.0, "score_nse": 44.7013, "NSE": "C-", "VIVTOT": 19.0, "GRAPROES": 9.27, "_ent": "25", "_mun": "009", "_loc": "0034"}, "geometry": {"type": "Polygon", "coordinates": [[[-105.8479, 22.73018], [-105.84851, 22.72979], [-105.84892, 22.73034], [-105.84829, 22.73074], [-105.8479, 22.73018]]]}}, {"id": "1957810", "type": "Feature", "properties": {"id": "1957810", "CVEGEO": "2500900340701015", "POBTOT": 21.0, "score_nse": 0.0, "NSE": "ND", "VIVTOT": 21.0, "GRAPROES": 9.17, "_ent": "25", "_mun": "009", "_loc": "0034"}, "geometry": {"type": "Polygon", "coordinates": [[[-105.84091, 22.73552], [-105.84031, 22.7359], [-105.8396, 22.73497], [-105.84021, 22.73459], [-105.84091, 22.73552]]]}}, {"id": "1957811", "type": "Feature", "properties": {"id": "1957811", "CVEGEO": "2500900340701014", "POBTOT": 15.0, "score_nse": 0.0, "NSE": "ND", "VIVTOT": 22.0, "GRAPROES": 9.42, "_ent": "25", "_mun": "009", "_loc": "0034"}, "geometry": {"type": "Polygon", "coordinates": [[[-105.83957, 22.73493], [-105.83891, 22.73408], [-105.83954, 22.7337], [-105.84018, 22.73454], [-105.83957, 22.73493]]]}}, {"id": "1957812", "type": "Feature", "properties": {"id": "1957812", "CVEGEO": "2500900340701012", "POBTOT": 41.0, "score_nse": 0.0, "NSE": "ND", "VIVTOT": 16.0, "GRAPROES": 8.26, "_ent": "25", "_mun": "009", "_loc": "0034"}, "geometry": {"type": "Polygon", "coordinates": [[[-105.83491, 22.738], [-105.83426, 22.73711], [-105.8352, 22.7365], [-105.83585, 22.73737], [-105.83491, 22.738]]]}}, {"id": "1957813", "type": "Feature", "properties": {"id": "1957813", "CVEGEO": "2500900340701011", "POBTOT": 35.0, "score_nse": 0.0, "NSE": "ND", "VIVTOT": 9.0, "GRAPROES": 7.89, "_ent": "25", "_mun": "009", "_loc": "0034"}, "geometry": {"type": "Polygon", "coordinates": [[[-105.83495, 22.73805], [-105.83589, 22.73743], [-105.83655, 22.7383], [-105.83559, 22.73893], [-105.83495, 22.73805]]]}}, {"id": "1957814", "type": "Feature", "properties": {"id": "1957814", "CVEGEO": "2500900340701001", "POBTOT": 32.0, "score_nse": 0.0, "NSE": "ND", "VIVTOT": 17.0, "GRAPROES": 7.91, "_ent": "25", "_mun": "009", "_loc": "0034"}, "geometry": {"type": "Polygon", "coordinates": [[[-105.83786, 22.73605], [-105.8369, 22.73668], [-105.83623, 22.73582], [-105.8372, 22.73517], [-105.83786, 22.73605]]]}}, {"id": "1957815", "type": "Feature", "properties": {"id": "1957815", "CVEGEO": "2500900340699035", "POBTOT": 0.0, "score_nse": 10.0, "NSE": "E", "VIVTOT": 2.0, "GRAPROES": 0.0, "_ent": "25", "_mun": "009", "_loc": "0034"}, "geometry": {"type": "Polygon", "coordinates": [[[-105.84229, 22.73837], [-105.84275, 22.73808], [-105.84295, 22.73832], [-105.84254, 22.73866], [-105.84229, 22.73837]]]}}, {"id": "1957816", "type": "Feature", "properties": {"id": "1957816", "CVEGEO": "2500900340699013", "POBTOT": 30.0, "score_nse": 0.0, "NSE": "ND", "VIVTOT": 15.0, "GRAPROES": 8.82, "_ent": "25", "_mun": "009", "_loc": "0034"}, "geometry": {"type": "Polygon", "coordinates": [[[-105.8373, 22.74313], [-105.83605, 22.74149], [-105.83697, 22.7409], [-105.83815, 22.74244], [-105.8373, 22.74313]]]}}, {"id": "1957817", "type": "Feature", "properties": {"id": "1957817", "CVEGEO": "2500900340699012", "POBTOT": 40.0, "score_nse": 0.0, "NSE": "ND", "VIVTOT": 13.0, "GRAPROES": 8.39, "_ent": "25", "_mun": "009", "_loc": "0034"}, "geometry": {"type": "Polygon", "coordinates": [[[-105.84006, 22.73891], [-105.84099, 22.7383], [-105.84179, 22.73941], [-105.84096, 22.74011], [-105.84006, 22.73891]]]}}, {"id": "1957818", "type": "Feature", "properties": {"id": "1957818", "CVEGEO": "2500900340608013", "POBTOT": 15.0, "score_nse": 0.0, "NSE": "ND", "VIVTOT": 6.0, "GRAPROES": 7.9, "_ent": "25", "_mun": "009", "_loc": "0034"}, "geometry": {"type": "Polygon", "coordinates": [[[-105.84383, 22.73276], [-105.84323, 22.73315], [-105.84282, 22.73261], [-105.84343, 22.73222], [-105.84383, 22.73276]]]}}, {"id": "1957819", "type": "Feature", "properties": {"id": "1957819", "CVEGEO": "2500900340608003", "POBTOT": 25.0, "score_nse": 0.0, "NSE": "ND", "VIVTOT": 9.0, "GRAPROES": 7.73, "_ent": "25", "_mun": "009", "_loc": "0034"}, "geometry": {"type": "Polygon", "coordinates": [[[-105.84298, 22.73162], [-105.84338, 22.73216], [-105.84278, 22.73255], [-105.84237, 22.732], [-105.84298, 22.73162]]]}}, {"id": "1957820", "type": "Feature", "properties": {"id": "1957820", "CVEGEO": "2500900340608002", "POBTOT": 33.0, "score_nse": 0.0, "NSE": "ND", "VIVTOT": 11.0, "GRAPROES": 9.08, "_ent": "25", "_mun": "009", "_loc": "0034"}, "geometry": {"type": "Polygon", "coordinates": [[[-105.84234, 22.73196], [-105.84191, 22.73139], [-105.84252, 22.731], [-105.84294, 22.73157], [-105.84234, 22.73196]]]}}, {"id": "1957821", "type": "Feature", "properties": {"id": "1957821", "CVEGEO": "2500900340608001", "POBTOT": 24.0, "score_nse": 41.4353, "NSE": "D+", "VIVTOT": 11.0, "GRAPROES": 6.54, "_ent": "25", "_mun": "009", "_loc": "0034"}, "geometry": {"type": "Polygon", "coordinates": [[[-105.84229, 22.73199], [-105.8417, 22.73237], [-105.84125, 22.73179], [-105.84186, 22.73141], [-105.84229, 22.73199]]]}}, {"id": "1957822", "type": "Feature", "properties": {"id": "1957822", "CVEGEO": "2500900340595039", "POBTOT": 8.0, "score_nse": 0.0, "NSE": "ND", "VIVTOT": 3.0, "GRAPROES": 0.0, "_ent": "25", "_mun": "009", "_loc": "0034"}, "geometry": {"type": "Polygon", "coordinates": [[[-105.84331, 22.7359], [-105.8432, 22.73597], [-105.84263, 22.73547], [-105.84286, 22.73532], [-105.84331, 22.7359]]]}}, {"id": "1957823", "type": "Feature", "properties": {"id": "1957823", "CVEGEO": "2500900340595038", "POBTOT": 12.0, "score_nse": 0.0, "NSE": "ND", "VIVTOT": 5.0, "GRAPROES": 9.89, "_ent": "25", "_mun": "009", "_loc": "0034"}, "geometry": {"type": "Polygon", "coordinates": [[[-105.84189, 22.73498], [-105.8425, 22.73548], [-105.84212, 22.73573], [-105.84166, 22.73514], [-105.84189, 22.73498]]]}}, {"id": "1957824", "type": "Feature", "properties": {"id": "1957824", "CVEGEO": "2500900340595001", "POBTOT": 40.0, "score_nse": 0.0, "NSE": "ND", "VIVTOT": 11.0, "GRAPROES": 5.89, "_ent": "25", "_mun": "009", "_loc": "0034"}, "geometry": {"type": "Polygon", "coordinates": [[[-105.84443, 22.73605], [-105.844, 22.73549], [-105.84462, 22.73509], [-105.84504, 22.73567], [-105.84443, 22.73605]]]}}, {"id": "1957825", "type": "Feature", "properties": {"id": "1957825", "CVEGEO": "2500900340580028", "POBTOT": 0.0, "score_nse": 0.0, "NSE": "ND", "VIVTOT": 0.0, "GRAPROES": 0.0, "_ent": "25", "_mun": "009", "_loc": "0034"}, "geometry": {"type": "Polygon", "coordinates": [[[-105.84453, 22.72564], [-105.84518, 22.72653], [-105.8445, 22.72699], [-105.84388, 22.72616], [-105.84453, 22.72564]]]}}, {"id": "1957826", "type": "Feature", "properties": {"id": "1957826", "CVEGEO": "2500900340580027", "POBTOT": 124.0, "score_nse": 0.0, "NSE": "ND", "VIVTOT": 12.0, "GRAPROES": 5.81, "_ent": "25", "_mun": "009", "_loc": "0034"}, "geometry": {"type": "Polygon", "coordinates": [[[-105.84532, 22.72504], [-105.84617, 22.72411], [-105.84698, 22.72534], [-105.84599, 22.72599], [-105.84532, 22.72504]]]}}, {"id": "1957827", "type": "Feature", "properties": {"id": "1957827", "CVEGEO": "2500900340580026", "POBTOT": 105.0, "score_nse": 0.0, "NSE": "ND", "VIVTOT": 44.0, "GRAPROES": 6.7, "_ent": "25", "_mun": "009", "_loc": "0034"}, "geometry": {"type": "Polygon", "coordinates": [[[-105.84528, 22.72507], [-105.84594, 22.72602], [-105.84524, 22.72649], [-105.84458, 22.7256], [-105.84528, 22.72507]]]}}, {"id": "1957853", "type": "Feature", "properties": {"id": "1957853", "CVEGEO": "2500900340701022", "POBTOT": 49.0, "score_nse": 0.0, "NSE": "ND", "VIVTOT": 14.0, "GRAPROES": 6.5, "_ent": "25", "_mun": "009", "_loc": "0034"}, "geometry": {"type": "Polygon", "coordinates": [[[-105.83385, 22.7387], [-105.83256, 22.73953], [-105.83186, 22.73866], [-105.83318, 22.73781], [-105.83385, 22.7387]]]}}, {"id": "1957854", "type": "Feature", "properties": {"id": "1957854", "CVEGEO": "2500900340699034", "POBTOT": 41.0, "score_nse": 0.0, "NSE": "ND", "VIVTOT": 6.0, "GRAPROES": 7.29, "_ent": "25", "_mun": "009", "_loc": "0034"}, "geometry": {"type": "Polygon", "coordinates": [[[-105.84279, 22.73805], [-105.84348, 22.73761], [-105.84361, 22.73778], [-105.84299, 22.73829], [-105.84279, 22.73805]]]}}, {"id": "1957855", "type": "Feature", "properties": {"id": "1957855", "CVEGEO": "2500900340699033", "POBTOT": 6.0, "score_nse": 0.0, "NSE": "ND", "VIVTOT": 5.0, "GRAPROES": 0.0, "_ent": "25", "_mun": "009", "_loc": "0034"}, "geometry": {"type": "Polygon", "coordinates": [[[-105.84178, 22.73779], [-105.84222, 22.73746], [-105.84272, 22.73804], [-105.84226, 22.73834], [-105.84178, 22.73779]]]}}, {"id": "1957856", "type": "Feature", "properties": {"id": "1957856", "CVEGEO": "2500900340699032", "POBTOT": 19.0, "score_nse": 0.0, "NSE": "ND", "VIVTOT": 12.0, "GRAPROES": 7.14, "_ent": "25", "_mun": "009", "_loc": "0034"}, "geometry": {"type": "Polygon", "coordinates": [[[-105.83507, 22.74337], [-105.83568, 22.74298], [-105.83635, 22.7439], [-105.83577, 22.74446], [-105.83507, 22.74337]]]}}, {"id": "1957857", "type": "Feature", "properties": {"id": "1957857", "CVEGEO": "2500900340699029", "POBTOT": 19.0, "score_nse": 0.0, "NSE": "ND", "VIVTOT": 8.0, "GRAPROES": 8.71, "_ent": "25", "_mun": "009", "_loc": "0034"}, "geometry": {"type": "Polygon", "coordinates": [[[-105.84032, 22.73599], [-105.84095, 22.73691], [-105.84033, 22.7373], [-105.8397, 22.73639], [-105.84032, 22.73599]]]}}, {"id": "1957858", "type": "Feature", "properties": {"id": "1957858", "CVEGEO": "2500900340699028", "POBTOT": 23.0, "score_nse": 0.0, "NSE": "ND", "VIVTOT": 8.0, "GRAPROES": 7.07, "_ent": "25", "_mun": "009", "_loc": "0034"}, "geometry": {"type": "Polygon", "coordinates": [[[-105.84286, 22.73698], [-105.84345, 22.73758], [-105.84276, 22.73802], [-105.84227, 22.73743], [-105.84286, 22.73698]]]}}, {"id": "1957859", "type": "Feature", "properties": {"id": "1957859", "CVEGEO": "2500900340699026", "POBTOT": 46.0, "score_nse": 0.0, "NSE": "ND", "VIVTOT": 12.0, "GRAPROES": 8.14, "_ent": "25", "_mun": "009", "_loc": "0034"}, "geometry": {"type": "Polygon", "coordinates": [[[-105.84313, 22.73609], [-105.84345, 22.73649], [-105.8429, 22.73685], [-105.84261, 22.73645], [-105.84313, 22.73609]]]}}, {"id": "1957860", "type": "Feature", "properties": {"id": "1957860", "CVEGEO": "2500900340608022", "POBTOT": 0.0, "score_nse": 0.0, "NSE": "ND", "VIVTOT": 0.0, "GRAPROES": 0.0, "_ent": "25", "_mun": "009", "_loc": "0034"}, "geometry": {"type": "Polygon", "coordinates": [[[-105.83969, 22.73118], [-105.83887, 22.73028], [-105.84019, 22.72919], [-105.84102, 22.73024], [-105.83969, 22.73118]]]}}, {"id": "1957861", "type": "Feature", "properties": {"id": "1957861", "CVEGEO": "2500900340608021", "POBTOT": 42.0, "score_nse": 0.0, "NSE": "ND", "VIVTOT": 21.0, "GRAPROES": 6.42, "_ent": "25", "_mun": "009", "_loc": "0034"}, "geometry": {"type": "Polygon", "coordinates": [[[-105.84271, 22.72993], [-105.8421, 22.73033], [-105.84169, 22.72978], [-105.8423, 22.72938], [-105.84271, 22.72993]]]}}, {"id": "1957862", "type": "Feature", "properties": {"id": "1957862", "CVEGEO": "2500900340608020", "POBTOT": 27.0, "score_nse": 0.0, "NSE": "ND", "VIVTOT": 13.0, "GRAPROES": 8.06, "_ent": "25", "_mun": "009", "_loc": "0034"}, "geometry": {"type": "Polygon", "coordinates": [[[-105.84204, 22.73037], [-105.84145, 22.73074], [-105.84105, 22.7302], [-105.84163, 22.72982], [-105.84204, 22.73037]]]}}, {"id": "1957863", "type": "Feature", "properties": {"id": "1957863", "CVEGEO": "2500900340608018", "POBTOT": 16.0, "score_nse": 0.0, "NSE": "ND", "VIVTOT": 7.0, "GRAPROES": 8.3, "_ent": "25", "_mun": "009", "_loc": "0034"}, "geometry": {"type": "Polygon", "coordinates": [[[-105.83978, 22.73273], [-105.84049, 22.73226], [-105.84091, 22.73277], [-105.84025, 22.73319], [-105.83978, 22.73273]]]}}, {"id": "1957864", "type": "Feature", "properties": {"id": "1957864", "CVEGEO": "2500900340608017", "POBTOT": 18.0, "score_nse": 0.0, "NSE": "ND", "VIVTOT": 10.0, "GRAPROES": 7.91, "_ent": "25", "_mun": "009", "_loc": "0034"}, "geometry": {"type": "Polygon", "coordinates": [[[-105.84046, 22.73323], [-105.84102, 22.73288], [-105.84144, 22.73342], [-105.8409, 22.73376], [-105.84046, 22.73323]]]}}, {"id": "1957865", "type": "Feature", "properties": {"id": "1957865", "CVEGEO": "2500900340608016", "POBTOT": 5.0, "score_nse": 0.0, "NSE": "ND", "VIVTOT": 2.0, "GRAPROES": 0.0, "_ent": "25", "_mun": "009", "_loc": "0034"}, "geometry": {"type": "Polygon", "coordinates": [[[-105.84095, 22.73382], [-105.84148, 22.73348], [-105.84189, 22.73401], [-105.84137, 22.73433], [-105.84095, 22.73382]]]}}, {"id": "1957866", "type": "Feature", "properties": {"id": "1957866", "CVEGEO": "2500900340608015", "POBTOT": 3.0, "score_nse": 0.0, "NSE": "ND", "VIVTOT": 2.0, "GRAPROES": 0.0, "_ent": "25", "_mun": "009", "_loc": "0034"}, "geometry": {"type": "Polygon", "coordinates": [[[-105.84213, 22.73306], [-105.84252, 22.73358], [-105.84231, 22.73372], [-105.84191, 22.7332], [-105.84213, 22.73306]]]}}, {"id": "1957867", "type": "Feature", "properties": {"id": "1957867", "CVEGEO": "2500900340608014", "POBTOT": 27.0, "score_nse": 0.0, "NSE": "ND", "VIVTOT": 29.0, "GRAPROES": 8.41, "_ent": "25", "_mun": "009", "_loc": "0034"}, "geometry": {"type": "Polygon", "coordinates": [[[-105.84318, 22.73318], [-105.84257, 22.73355], [-105.84218, 22.73302], [-105.84278, 22.73264], [-105.84318, 22.73318]]]}}, {"id": "1957868", "type": "Feature", "properties": {"id": "1957868", "CVEGEO": "2500900340595023", "POBTOT": 12.0, "score_nse": 0.0, "NSE": "ND", "VIVTOT": 7.0, "GRAPROES": 8.0, "_ent": "25", "_mun": "009", "_loc": "0034"}, "geometry": {"type": "Polygon", "coordinates": [[[-105.84428, 22.73337], [-105.84368, 22.73375], [-105.84327, 22.73321], [-105.84388, 22.73283], [-105.84428, 22.73337]]]}}, {"id": "1957869", "type": "Feature", "properties": {"id": "1957869", "CVEGEO": "2500900340595022", "POBTOT": 17.0, "score_nse": 69.6943, "NSE": "C", "VIVTOT": 7.0, "GRAPROES": 12.17, "_ent": "25", "_mun": "009", "_loc": "0034"}, "geometry": {"type": "Polygon", "coordinates": [[[-105.84363, 22.73378], [-105.84303, 22.73417], [-105.84262, 22.73361], [-105.84322, 22.73324], [-105.84363, 22.73378]]]}}, {"id": "1957870", "type": "Feature", "properties": {"id": "1957870", "CVEGEO": "2500900340595021", "POBTOT": 20.0, "score_nse": 0.0, "NSE": "ND", "VIVTOT": 8.0, "GRAPROES": 9.5, "_ent": "25", "_mun": "009", "_loc": "0034"}, "geometry": {"type": "Polygon", "coordinates": [[[-105.84202, 22.73402], [-105.84256, 22.73364], [-105.84298, 22.7342], [-105.84238, 22.73458], [-105.84202, 22.73402]]]}}, {"id": "1957871", "type": "Feature", "properties": {"id": "1957871", "CVEGEO": "2500900340595020", "POBTOT": 6.0, "score_nse": 0.0, "NSE": "ND", "VIVTOT": 1.0, "GRAPROES": 0.0, "_ent": "25", "_mun": "009", "_loc": "0034"}, "geometry": {"type": "Polygon", "coordinates": [[[-105.84192, 22.73406], [-105.84234, 22.73461], [-105.84192, 22.73488], [-105.84141, 22.73437], [-105.84192, 22.73406]]]}}, {"id": "1957872", "type": "Feature", "properties": {"id": "1957872", "CVEGEO": "2500900340595018", "POBTOT": 78.0, "score_nse": 0.0, "NSE": "ND", "VIVTOT": 26.0, "GRAPROES": 4.53, "_ent": "25", "_mun": "009", "_loc": "0034"}, "geometry": {"type": "Polygon", "coordinates": [[[-105.84667, 22.73645], [-105.84729, 22.73605], [-105.84772, 22.73662], [-105.84711, 22.73701], [-105.84667, 22.73645]]]}}, {"id": "1957873", "type": "Feature", "properties": {"id": "1957873", "CVEGEO": "2500900340595017", "POBTOT": 17.0, "score_nse": 0.0, "NSE": "ND", "VIVTOT": 9.0, "GRAPROES": 7.5, "_ent": "25", "_mun": "009", "_loc": "0034"}, "geometry": {"type": "Polygon", "coordinates": [[[-105.84439, 22.7334], [-105.84501, 22.73301], [-105.84543, 22.73358], [-105.84482, 22.73397], [-105.84439, 22.7334]]]}}, {"id": "1957874", "type": "Feature", "properties": {"id": "1957874", "CVEGEO": "2500900340580024", "POBTOT": 41.0, "score_nse": 0.0, "NSE": "ND", "VIVTOT": 13.0, "GRAPROES": 10.33, "_ent": "25", "_mun": "009", "_loc": "0034"}, "geometry": {"type": "Polygon", "coordinates": [[[-105.84641, 22.7266], [-105.84601, 22.72602], [-105.847, 22.72537], [-105.84739, 22.72595], [-105.84641, 22.7266]]]}}, {"id": "1957875", "type": "Feature", "properties": {"id": "1957875", "CVEGEO": "2500900340580014", "POBTOT": 45.0, "score_nse": 0.0, "NSE": "ND", "VIVTOT": 29.0, "GRAPROES": 7.03, "_ent": "25", "_mun": "009", "_loc": "0034"}, "geometry": {"type": "Polygon", "coordinates": [[[-105.84814, 22.7292], [-105.84852, 22.72975], [-105.84788, 22.73016], [-105.84749, 22.72961], [-105.84814, 22.7292]]]}}, {"id": "1957876", "type": "Feature", "properties": {"id": "1957876", "CVEGEO": "2500900340580013", "POBTOT": 31.0, "score_nse": 0.0, "NSE": "ND", "VIVTOT": 11.0, "GRAPROES": 10.27, "_ent": "25", "_mun": "009", "_loc": "0034"}, "geometry": {"type": "Polygon", "coordinates": [[[-105.84818, 22.72917], [-105.84912, 22.72857], [-105.84948, 22.72912], [-105.84856, 22.72973], [-105.84818, 22.72917]]]}}, {"id": "1957877", "type": "Feature", "properties": {"id": "1957877", "CVEGEO": "2500900340580012", "POBTOT": 42.0, "score_nse": 0.0, "NSE": "ND", "VIVTOT": 14.0, "GRAPROES": 7.93, "_ent": "25", "_mun": "009", "_loc": "0034"}, "geometry": {"type": "Polygon", "coordinates": [[[-105.84776, 22.72855], [-105.8487, 22.72794], [-105.84908, 22.72851], [-105.84814, 22.72911], [-105.84776, 22.72855]]]}}, {"id": "1957878", "type": "Feature", "properties": {"id": "1957878", "CVEGEO": "2500900340580011", "POBTOT": 67.0, "score_nse": 0.0, "NSE": "ND", "VIVTOT": 24.0, "GRAPROES": 7.27, "_ent": "25", "_mun": "009", "_loc": "0034"}, "geometry": {"type": "Polygon", "coordinates": [[[-105.84732, 22.72792], [-105.84828, 22.7273], [-105.84867, 22.72789], [-105.84773, 22.72851], [-105.84732, 22.72792]]]}}, {"id": "1957879", "type": "Feature", "properties": {"id": "1957879", "CVEGEO": "2500900340580010", "POBTOT": 55.0, "score_nse": 0.0, "NSE": "ND", "VIVTOT": 17.0, "GRAPROES": 8.66, "_ent": "25", "_mun": "009", "_loc": "0034"}, "geometry": {"type": "Polygon", "coordinates": [[[-105.84825, 22.72726], [-105.8473, 22.72788], [-105.84689, 22.72729], [-105.84787, 22.72668], [-105.84825, 22.72726]]]}}, {"id": "1957880", "type": "Feature", "properties": {"id": "1957880", "CVEGEO": "2500900340580009", "POBTOT": 89.0, "score_nse": 0.0, "NSE": "ND", "VIVTOT": 22.0, "GRAPROES": 5.85, "_ent": "25", "_mun": "009", "_loc": "0034"}, "geometry": {"type": "Polygon", "coordinates": [[[-105.84616, 22.72775], [-105.84685, 22.72732], [-105.84725, 22.72791], [-105.84659, 22.72834], [-105.84616, 22.72775]]]}}, {"id": "1957881", "type": "Feature", "properties": {"id": "1957881", "CVEGEO": "2500900340580008", "POBTOT": 31.0, "score_nse": 0.0, "NSE": "ND", "VIVTOT": 18.0, "GRAPROES": 6.58, "_ent": "25", "_mun": "009", "_loc": "0034"}, "geometry": {"type": "Polygon", "coordinates": [[[-105.8461, 22.72779], [-105.84653, 22.72838], [-105.84585, 22.72881], [-105.84542, 22.72823], [-105.8461, 22.72779]]]}}, {"id": "1957882", "type": "Feature", "properties": {"id": "1957882", "CVEGEO": "2500900340576011", "POBTOT": 35.0, "score_nse": 0.0, "NSE": "ND", "VIVTOT": 13.0, "GRAPROES": 8.56, "_ent": "25", "_mun": "009", "_loc": "0034"}, "geometry": {"type": "Polygon", "coordinates": [[[-105.84948, 22.73109], [-105.85035, 22.73055], [-105.85076, 22.73115], [-105.84988, 22.73168], [-105.84948, 22.73109]]]}}, {"id": "1957883", "type": "Feature", "properties": {"id": "1957883", "CVEGEO": "2500900340576010", "POBTOT": 21.0, "score_nse": 0.0, "NSE": "ND", "VIVTOT": 8.0, "GRAPROES": 8.88, "_ent": "25", "_mun": "009", "_loc": "0034"}, "geometry": {"type": "Polygon", "coordinates": [[[-105.84906, 22.73046], [-105.84992, 22.72991], [-105.85031, 22.73048], [-105.84944, 22.73102], [-105.84906, 22.73046]]]}}, {"id": "1957884", "type": "Feature", "properties": {"id": "1957884", "CVEGEO": "2500900340576009", "POBTOT": 16.0, "score_nse": 0.0, "NSE": "ND", "VIVTOT": 6.0, "GRAPROES": 9.5, "_ent": "25", "_mun": "009", "_loc": "0034"}, "geometry": {"type": "Polygon", "coordinates": [[[-105.84839, 22.73088], [-105.84902, 22.73049], [-105.84939, 22.73105], [-105.84878, 22.73143], [-105.84839, 22.73088]]]}}, {"id": "1957885", "type": "Feature", "properties": {"id": "1957885", "CVEGEO": "2500900340504048", "POBTOT": 93.0, "score_nse": 0.0, "NSE": "ND", "VIVTOT": 33.0, "GRAPROES": 6.14, "_ent": "25", "_mun": "009", "_loc": "0034"}, "geometry": {"type": "Polygon", "coordinates": [[[-105.84902, 22.7382], [-105.84827, 22.73722], [-105.8489, 22.73682], [-105.84961, 22.73771], [-105.84902, 22.7382]]]}}, {"id": "1957886", "type": "Feature", "properties": {"id": "1957886", "CVEGEO": "2500900340504047", "POBTOT": 39.0, "score_nse": 0.0, "NSE": "ND", "VIVTOT": 20.0, "GRAPROES": 8.19, "_ent": "25", "_mun": "009", "_loc": "0034"}, "geometry": {"type": "Polygon", "coordinates": [[[-105.84953, 22.73642], [-105.85017, 22.73726], [-105.84966, 22.73768], [-105.84895, 22.73679], [-105.84953, 22.73642]]]}}, {"id": "1957887", "type": "Feature", "properties": {"id": "1957887", "CVEGEO": "2500900340504046", "POBTOT": 28.0, "score_nse": 0.0, "NSE": "ND", "VIVTOT": 7.0, "GRAPROES": 8.21, "_ent": "25", "_mun": "009", "_loc": "0034"}, "geometry": {"type": "Polygon", "coordinates": [[[-105.85076, 22.73676], [-105.85022, 22.73721], [-105.84959, 22.73638], [-105.85019, 22.736], [-105.85076, 22.73676]]]}}, {"id": "1957888", "type": "Feature", "properties": {"id": "1957888", "CVEGEO": "2500900340504045", "POBTOT": 19.0, "score_nse": 0.0, "NSE": "ND", "VIVTOT": 15.0, "GRAPROES": 7.71, "_ent": "25", "_mun": "009", "_loc": "0034"}, "geometry": {"type": "Polygon", "coordinates": [[[-105.84782, 22.73662], [-105.84844, 22.73622], [-105.84886, 22.73677], [-105.84823, 22.73717], [-105.84782, 22.73662]]]}}, {"id": "1957889", "type": "Feature", "properties": {"id": "1957889", "CVEGEO": "2500900340504044", "POBTOT": 28.0, "score_nse": 0.0, "NSE": "ND", "VIVTOT": 16.0, "GRAPROES": 7.9, "_ent": "25", "_mun": "009", "_loc": "0034"}, "geometry": {"type": "Polygon", "coordinates": [[[-105.8495, 22.73637], [-105.84891, 22.73674], [-105.8485, 22.73619], [-105.84908, 22.73581], [-105.8495, 22.73637]]]}}, {"id": "1957890", "type": "Feature", "properties": {"id": "1957890", "CVEGEO": "2500900340504023", "POBTOT": 34.0, "score_nse": 59.0218, "NSE": "C", "VIVTOT": 11.0, "GRAPROES": 8.77, "_ent": "25", "_mun": "009", "_loc": "0034"}, "geometry": {"type": "Polygon", "coordinates": [[[-105.8445, 22.72968], [-105.84391, 22.73006], [-105.84349, 22.72948], [-105.84406, 22.7291], [-105.8445, 22.72968]]]}}, {"id": "1957891", "type": "Feature", "properties": {"id": "1957891", "CVEGEO": "2500900340504022", "POBTOT": 16.0, "score_nse": 0.0, "NSE": "ND", "VIVTOT": 8.0, "GRAPROES": 8.67, "_ent": "25", "_mun": "009", "_loc": "0034"}, "geometry": {"type": "Polygon", "coordinates": [[[-105.84281, 22.72993], [-105.84344, 22.72952], [-105.84385, 22.73009], [-105.84322, 22.73051], [-105.84281, 22.72993]]]}}, {"id": "1957892", "type": "Feature", "properties": {"id": "1957892", "CVEGEO": "2500900340504021", "POBTOT": 49.0, "score_nse": 0.0, "NSE": "ND", "VIVTOT": 19.0, "GRAPROES": 6.63, "_ent": "25", "_mun": "009", "_loc": "0034"}, "geometry": {"type": "Polygon", "coordinates": [[[-105.84704, 22.73437], [-105.84643, 22.73478], [-105.846, 22.7342], [-105.84662, 22.73381], [-105.84704, 22.73437]]]}}, {"id": "1957893", "type": "Feature", "properties": {"id": "1957893", "CVEGEO": "2500900340504020", "POBTOT": 45.0, "score_nse": 46.7893, "NSE": "C-", "VIVTOT": 15.0, "GRAPROES": 8.32, "_ent": "25", "_mun": "009", "_loc": "0034"}, "geometry": {"type": "Polygon", "coordinates": [[[-105.84667, 22.73378], [-105.84726, 22.7334], [-105.84769, 22.73397], [-105.8471, 22.73434], [-105.84667, 22.73378]]]}}, {"id": "1957894", "type": "Feature", "properties": {"id": "1957894", "CVEGEO": "2500900340504008", "POBTOT": 15.0, "score_nse": 0.0, "NSE": "ND", "VIVTOT": 9.0, "GRAPROES": 2.58, "_ent": "25", "_mun": "009", "_loc": "0034"}, "geometry": {"type": "Polygon", "coordinates": [[[-105.84676, 22.73272], [-105.84616, 22.7331], [-105.84574, 22.73254], [-105.84634, 22.73216], [-105.84676, 22.73272]]]}}, {"id": "1957895", "type": "Feature", "properties": {"id": "1957895", "CVEGEO": "2500900340595019", "POBTOT": 41.0, "score_nse": 0.0, "NSE": "ND", "VIVTOT": 17.0, "GRAPROES": 7.46, "_ent": "25", "_mun": "009", "_loc": "0034"}, "geometry": {"type": "Polygon", "coordinates": [[[-105.846, 22.73685], [-105.84662, 22.73648], [-105.84705, 22.73705], [-105.84644, 22.73743], [-105.846, 22.73685]]]}}, {"id": "1957896", "type": "Feature", "properties": {"id": "1957896", "CVEGEO": "2500900340504007", "POBTOT": 22.0, "score_nse": 0.0, "NSE": "ND", "VIVTOT": 11.0, "GRAPROES": 7.94, "_ent": "25", "_mun": "009", "_loc": "0034"}, "geometry": {"type": "Polygon", "coordinates": [[[-105.8464, 22.73213], [-105.84702, 22.73174], [-105.84743, 22.73229], [-105.84681, 22.73268], [-105.8464, 22.73213]]]}}, {"id": "1957897", "type": "Feature", "properties": {"id": "1957897", "CVEGEO": "2500900340504006", "POBTOT": 41.0, "score_nse": 0.0, "NSE": "ND", "VIVTOT": 28.0, "GRAPROES": 7.0, "_ent": "25", "_mun": "009", "_loc": "0034"}, "geometry": {"type": "Polygon", "coordinates": [[[-105.84654, 22.73112], [-105.84697, 22.73168], [-105.84635, 22.73206], [-105.84594, 22.7315], [-105.84654, 22.73112]]]}}, {"id": "1958042", "type": "Feature", "properties": {"id": "1958042", "CVEGEO": "2500900340701021", "POBTOT": 32.0, "score_nse": 0.0, "NSE": "ND", "VIVTOT": 17.0, "GRAPROES": 7.92, "_ent": "25", "_mun": "009", "_loc": "0034"}, "geometry": {"type": "Polygon", "coordinates": [[[-105.83347, 22.7403], [-105.8332, 22.7403], [-105.8326, 22.73958], [-105.83389, 22.73875], [-105.83454, 22.73961], [-105.83347, 22.7403]]]}}, {"id": "1958043", "type": "Feature", "properties": {"id": "1958043", "CVEGEO": "2500900340701020", "POBTOT": 10.0, "score_nse": 0.0, "NSE": "ND", "VIVTOT": 7.0, "GRAPROES": 10.5, "_ent": "25", "_mun": "009", "_loc": "0034"}, "geometry": {"type": "Polygon", "coordinates": [[[-105.84089, 22.73417], [-105.84157, 22.7351], [-105.84096, 22.73549], [-105.84026, 22.73456], [-105.84089, 22.73417]]]}}, {"id": "1958044", "type": "Feature", "properties": {"id": "1958044", "CVEGEO": "2500900340701019", "POBTOT": 19.0, "score_nse": 0.0, "NSE": "ND", "VIVTOT": 7.0, "GRAPROES": 8.82, "_ent": "25", "_mun": "009", "_loc": "0034"}, "geometry": {"type": "Polygon", "coordinates": [[[-105.84085, 22.73412], [-105.84022, 22.73451], [-105.83959, 22.73367], [-105.84009, 22.73336], [-105.84085, 22.73412]]]}}, {"id": "1958045", "type": "Feature", "properties": {"id": "1958045", "CVEGEO": "2500900340701016", "POBTOT": 21.0, "score_nse": 44.4108, "NSE": "C-", "VIVTOT": 13.0, "GRAPROES": 9.79, "_ent": "25", "_mun": "009", "_loc": "0034"}, "geometry": {"type": "Polygon", "coordinates": [[[-105.83394, 22.73872], [-105.83489, 22.73809], [-105.83554, 22.73896], [-105.83459, 22.73958], [-105.83394, 22.73872]]]}}, {"id": "1958046", "type": "Feature", "properties": {"id": "1958046", "CVEGEO": "2500900340699010", "POBTOT": 32.0, "score_nse": 0.0, "NSE": "ND", "VIVTOT": 14.0, "GRAPROES": 8.58, "_ent": "25", "_mun": "009", "_loc": "0034"}, "geometry": {"type": "Polygon", "coordinates": [[[-105.83965, 22.73641], [-105.84029, 22.73732], [-105.83933, 22.73793], [-105.83867, 22.73704], [-105.83965, 22.73641]]]}}, {"id": "1958050", "type": "Feature", "properties": {"id": "1958050", "CVEGEO": "2500900340595036", "POBTOT": 9.0, "score_nse": 0.0, "NSE": "ND", "VIVTOT": 4.0, "GRAPROES": 0.0, "_ent": "25", "_mun": "009", "_loc": "0034"}, "geometry": {"type": "Polygon", "coordinates": [[[-105.84438, 22.73608], [-105.84384, 22.73642], [-105.84338, 22.73591], [-105.84395, 22.73552], [-105.84438, 22.73608]]]}}, {"id": "1958057", "type": "Feature", "properties": {"id": "1958057", "CVEGEO": "2500900340595005", "POBTOT": 72.0, "score_nse": 0.0, "NSE": "ND", "VIVTOT": 18.0, "GRAPROES": 7.12, "_ent": "25", "_mun": "009", "_loc": "0034"}, "geometry": {"type": "Polygon", "coordinates": [[[-105.84416, 22.73449], [-105.84459, 22.73506], [-105.84398, 22.73545], [-105.84355, 22.73488], [-105.84416, 22.73449]]]}}, {"id": "1958058", "type": "Feature", "properties": {"id": "1958058", "CVEGEO": "2500900340595004", "POBTOT": 17.0, "score_nse": 0.0, "NSE": "ND", "VIVTOT": 7.0, "GRAPROES": 9.42, "_ent": "25", "_mun": "009", "_loc": "0034"}, "geometry": {"type": "Polygon", "coordinates": [[[-105.8435, 22.73491], [-105.84393, 22.73549], [-105.84335, 22.73588], [-105.84291, 22.73529], [-105.8435, 22.73491]]]}}, {"id": "1958060", "type": "Feature", "properties": {"id": "1958060", "CVEGEO": "2500900340576015", "POBTOT": 26.0, "score_nse": 52.7183, "NSE": "C-", "VIVTOT": 14.0, "GRAPROES": 10.33, "_ent": "25", "_mun": "009", "_loc": "0034"}, "geometry": {"type": "Polygon", "coordinates": [[[-105.84721, 22.73062], [-105.84783, 22.73024], [-105.84821, 22.73081], [-105.84761, 22.73118], [-105.84721, 22.73062]]]}}, {"id": "1958061", "type": "Feature", "properties": {"id": "1958061", "CVEGEO": "2500900340504043", "POBTOT": 74.0, "score_nse": 0.0, "NSE": "ND", "VIVTOT": 23.0, "GRAPROES": 5.68, "_ent": "25", "_mun": "009", "_loc": "0034"}, "geometry": {"type": "Polygon", "coordinates": [[[-105.85016, 22.73595], [-105.84955, 22.73633], [-105.84914, 22.73578], [-105.84974, 22.73539], [-105.85016, 22.73595]]]}}, {"id": "1958063", "type": "Feature", "properties": {"id": "1958063", "CVEGEO": "2500900340504025", "POBTOT": 82.0, "score_nse": 46.2239, "NSE": "C-", "VIVTOT": 27.0, "GRAPROES": 7.37, "_ent": "25", "_mun": "009", "_loc": "0034"}, "geometry": {"type": "Polygon", "coordinates": [[[-105.8484, 22.73359], [-105.84882, 22.73415], [-105.84821, 22.73455], [-105.84778, 22.73398], [-105.8484, 22.73359]]]}}, {"id": "1958064", "type": "Feature", "properties": {"id": "1958064", "CVEGEO": "2500900340504024", "POBTOT": 24.0, "score_nse": 0.0, "NSE": "ND", "VIVTOT": 11.0, "GRAPROES": 7.89, "_ent": "25", "_mun": "009", "_loc": "0034"}, "geometry": {"type": "Polygon", "coordinates": [[[-105.84412, 22.72907], [-105.84471, 22.72869], [-105.84514, 22.72926], [-105.84455, 22.72964], [-105.84412, 22.72907]]]}}, {"id": "1958065", "type": "Feature", "properties": {"id": "1958065", "CVEGEO": "2500900340504005", "POBTOT": 35.0, "score_nse": 0.0, "NSE": "ND", "VIVTOT": 11.0, "GRAPROES": 7.0, "_ent": "25", "_mun": "009", "_loc": "0034"}, "geometry": {"type": "Polygon", "coordinates": [[[-105.84549, 22.7309], [-105.84609, 22.73052], [-105.8465, 22.73105], [-105.8459, 22.73144], [-105.84549, 22.7309]]]}}, {"id": "1958066", "type": "Feature", "properties": {"id": "1958066", "CVEGEO": "2500900340504004", "POBTOT": 39.0, "score_nse": 0.0, "NSE": "ND", "VIVTOT": 28.0, "GRAPROES": 8.45, "_ent": "25", "_mun": "009", "_loc": "0034"}, "geometry": {"type": "Polygon", "coordinates": [[[-105.84584, 22.73148], [-105.84523, 22.73187], [-105.84483, 22.73132], [-105.84544, 22.73094], [-105.84584, 22.73148]]]}}, {"id": "1958067", "type": "Feature", "properties": {"id": "1958067", "CVEGEO": "2500900340504003", "POBTOT": 19.0, "score_nse": 0.0, "NSE": "ND", "VIVTOT": 37.0, "GRAPROES": 5.33, "_ent": "25", "_mun": "009", "_loc": "0034"}, "geometry": {"type": "Polygon", "coordinates": [[[-105.84478, 22.73136], [-105.84518, 22.7319], [-105.84456, 22.7323], [-105.84417, 22.73175], [-105.84478, 22.73136]]]}}, {"id": "1958083", "type": "Feature", "properties": {"id": "1958083", "CVEGEO": "2500900340699006", "POBTOT": 20.0, "score_nse": 0.0, "NSE": "ND", "VIVTOT": 10.0, "GRAPROES": 9.67, "_ent": "25", "_mun": "009", "_loc": "0034"}, "geometry": {"type": "Polygon", "coordinates": [[[-105.83632, 22.73992], [-105.8373, 22.73929], [-105.83797, 22.74019], [-105.83699, 22.74082], [-105.83632, 22.73992]]]}}, {"id": "1958084", "type": "Feature", "properties": {"id": "1958084", "CVEGEO": "2500900340699004", "POBTOT": 30.0, "score_nse": 0.0, "NSE": "ND", "VIVTOT": 12.0, "GRAPROES": 4.89, "_ent": "25", "_mun": "009", "_loc": "0034"}, "geometry": {"type": "Polygon", "coordinates": [[[-105.83901, 22.73959], [-105.83999, 22.74095], [-105.83915, 22.74163], [-105.83806, 22.7402], [-105.83901, 22.73959]]]}}, {"id": "1958085", "type": "Feature", "properties": {"id": "1958085", "CVEGEO": "2500900340608023", "POBTOT": 41.0, "score_nse": 54.4589, "NSE": "C-", "VIVTOT": 11.0, "GRAPROES": 7.93, "_ent": "25", "_mun": "009", "_loc": "0034"}, "geometry": {"type": "Polygon", "coordinates": [[[-105.84101, 22.73015], [-105.84063, 22.72964], [-105.84119, 22.72923], [-105.84159, 22.72977], [-105.84101, 22.73015]]]}}, {"id": "1958162", "type": "Feature", "properties": {"id": "1958162", "CVEGEO": "2500900340699009", "POBTOT": 23.0, "score_nse": 0.0, "NSE": "ND", "VIVTOT": 10.0, "GRAPROES": 7.33, "_ent": "25", "_mun": "009", "_loc": "0034"}, "geometry": {"type": "Polygon", "coordinates": [[[-105.83765, 22.73769], [-105.83862, 22.73707], [-105.83928, 22.73796], [-105.83831, 22.73858], [-105.83765, 22.73769]]]}}, {"id": "1958173", "type": "Feature", "properties": {"id": "1958173", "CVEGEO": "2500900340699018", "POBTOT": 18.0, "score_nse": 0.0, "NSE": "ND", "VIVTOT": 9.0, "GRAPROES": 10.42, "_ent": "25", "_mun": "009", "_loc": "0034"}, "geometry": {"type": "Polygon", "coordinates": [[[-105.841, 22.73823], [-105.84037, 22.73735], [-105.84099, 22.73695], [-105.8417, 22.73778], [-105.841, 22.73823]]]}}, {"id": "1958178", "type": "Feature", "properties": {"id": "1958178", "CVEGEO": "2500900340504015", "POBTOT": 23.0, "score_nse": 0.0, "NSE": "ND", "VIVTOT": 8.0, "GRAPROES": 6.44, "_ent": "25", "_mun": "009", "_loc": "0034"}, "geometry": {"type": "Polygon", "coordinates": [[[-105.84554, 22.7336], [-105.84616, 22.7332], [-105.84659, 22.73377], [-105.84597, 22.73417], [-105.84554, 22.7336]]]}}, {"id": "1958202", "type": "Feature", "properties": {"id": "1958202", "CVEGEO": "2500900340595024", "POBTOT": 36.0, "score_nse": 0.0, "NSE": "ND", "VIVTOT": 11.0, "GRAPROES": 9.08, "_ent": "25", "_mun": "009", "_loc": "0034"}, "geometry": {"type": "Polygon", "coordinates": [[[-105.84394, 22.73279], [-105.84455, 22.7324], [-105.84496, 22.73294], [-105.84434, 22.73333], [-105.84394, 22.73279]]]}}, {"id": "1958203", "type": "Feature", "properties": {"id": "1958203", "CVEGEO": "2500900340699008", "POBTOT": 7.0, "score_nse": 0.0, "NSE": "ND", "VIVTOT": 9.0, "GRAPROES": 5.71, "_ent": "25", "_mun": "009", "_loc": "0034"}, "geometry": {"type": "Polygon", "coordinates": [[[-105.83702, 22.73882], [-105.83795, 22.7382], [-105.83826, 22.73861], [-105.83731, 22.73921], [-105.83702, 22.73882]]]}}, {"id": "1958278", "type": "Feature", "properties": {"id": "1958278", "CVEGEO": "2500900340504009", "POBTOT": 30.0, "score_nse": 58.16, "NSE": "C", "VIVTOT": 9.0, "GRAPROES": 9.33, "_ent": "25", "_mun": "009", "_loc": "0034"}, "geometry": {"type": "Polygon", "coordinates": [[[-105.8455, 22.73353], [-105.84507, 22.73296], [-105.84569, 22.73258], [-105.84611, 22.73314], [-105.8455, 22.73353]]]}}, {"id": "1958308", "type": "Feature", "properties": {"id": "1958308", "CVEGEO": "2500900340701025", "POBTOT": 5.0, "score_nse": 0.0, "NSE": "ND", "VIVTOT": 1.0, "GRAPROES": 0.0, "_ent": "25", "_mun": "009", "_loc": "0034"}, "geometry": {"type": "Polygon", "coordinates": [[[-105.84162, 22.73507], [-105.84114, 22.73443], [-105.84128, 22.73434], [-105.84179, 22.73496], [-105.84162, 22.73507]]]}}, {"id": "1958309", "type": "Feature", "properties": {"id": "1958309", "CVEGEO": "2500900340699027", "POBTOT": 13.0, "score_nse": 0.0, "NSE": "ND", "VIVTOT": 6.0, "GRAPROES": 0.0, "_ent": "25", "_mun": "009", "_loc": "0034"}, "geometry": {"type": "Polygon", "coordinates": [[[-105.84338, 22.7374], [-105.84296, 22.73691], [-105.8436, 22.73649], [-105.84419, 22.73698], [-105.84338, 22.7374]]]}}, {"id": "1958317", "type": "Feature", "properties": {"id": "1958317", "CVEGEO": "2500900340595037", "POBTOT": 14.0, "score_nse": 0.0, "NSE": "ND", "VIVTOT": 6.0, "GRAPROES": 7.22, "_ent": "25", "_mun": "009", "_loc": "0034"}, "geometry": {"type": "Polygon", "coordinates": [[[-105.84759, 22.73932], [-105.84739, 22.73947], [-105.84631, 22.73851], [-105.84644, 22.73843], [-105.84716, 22.73888], [-105.84759, 22.73932]]]}}, {"id": "1958318", "type": "Feature", "properties": {"id": "1958318", "CVEGEO": "2500900340595042", "POBTOT": 37.0, "score_nse": 0.0, "NSE": "ND", "VIVTOT": 8.0, "GRAPROES": 6.8, "_ent": "25", "_mun": "009", "_loc": "0034"}, "geometry": {"type": "Polygon", "coordinates": [[[-105.84689, 22.73812], [-105.84772, 22.73923], [-105.84763, 22.73929], [-105.84648, 22.7384], [-105.84689, 22.73812]]]}}, {"id": "1958334", "type": "Feature", "properties": {"id": "1958334", "CVEGEO": "2500900340701031", "POBTOT": 14.0, "score_nse": 0.0, "NSE": "ND", "VIVTOT": 13.0, "GRAPROES": 6.11, "_ent": "25", "_mun": "009", "_loc": "0034"}, "geometry": {"type": "Polygon", "coordinates": [[[-105.84008, 22.73325], [-105.83955, 22.73363], [-105.83884, 22.73277], [-105.8391, 22.73256], [-105.8394, 22.73262], [-105.84008, 22.73325]]]}}, {"id": "1958335", "type": "Feature", "properties": {"id": "1958335", "CVEGEO": "2500900340699030", "POBTOT": 21.0, "score_nse": 0.0, "NSE": "ND", "VIVTOT": 8.0, "GRAPROES": 2.7, "_ent": "25", "_mun": "009", "_loc": "0034"}, "geometry": {"type": "Polygon", "coordinates": [[[-105.84343, 22.73748], [-105.84426, 22.73702], [-105.84445, 22.73721], [-105.84366, 22.73775], [-105.84343, 22.73748]]]}}, {"id": "1958337", "type": "Feature", "properties": {"id": "1958337", "CVEGEO": "2500900341004002", "POBTOT": 1.0, "score_nse": 0.0, "NSE": "ND", "VIVTOT": 1.0, "GRAPROES": 0.0, "_ent": "25", "_mun": "009", "_loc": "0034"}, "geometry": {"type": "Polygon", "coordinates": [[[-105.84526, 22.72191], [-105.84606, 22.72277], [-105.84589, 22.72288], [-105.84642, 22.7235], [-105.84615, 22.7237], [-105.84505, 22.72211], [-105.84526, 22.72191]]]}}, {"id": "1958338", "type": "Feature", "properties": {"id": "1958338", "CVEGEO": "2500900340595040", "POBTOT": 13.0, "score_nse": 0.0, "NSE": "ND", "VIVTOT": 6.0, "GRAPROES": 4.63, "_ent": "25", "_mun": "009", "_loc": "0034"}, "geometry": {"type": "Polygon", "coordinates": [[[-105.84613, 22.73845], [-105.84573, 22.73813], [-105.84576, 22.73808], [-105.84622, 22.73836], [-105.84613, 22.73845]]]}}, {"id": "1958539", "type": "Feature", "properties": {"id": "1958539", "CVEGEO": "2500900341004001", "POBTOT": 0.0, "score_nse": 0.0, "NSE": "ND", "VIVTOT": 0.0, "GRAPROES": 0.0, "_ent": "25", "_mun": "009", "_loc": "0034"}, "geometry": {"type": "Polygon", "coordinates": [[[-105.84599, 22.72412], [-105.84532, 22.72467], [-105.84477, 22.72391], [-105.84548, 22.72335], [-105.84599, 22.72412]]]}}, {"id": "1958602", "type": "Feature", "properties": {"id": "1958602", "CVEGEO": "2500900340576012", "POBTOT": 63.0, "score_nse": 40.4986, "NSE": "D+", "VIVTOT": 29.0, "GRAPROES": 6.57, "_ent": "25", "_mun": "009", "_loc": "0034"}, "geometry": {"type": "Polygon", "coordinates": [[[-105.85246, 22.73525], [-105.85159, 22.73409], [-105.85096, 22.73449], [-105.85057, 22.73394], [-105.85106, 22.73362], [-105.85053, 22.73388], [-105.85012, 22.73334], [-105.85045, 22.73312], [-105.85008, 22.73326], [-105.8497, 22.73275], [-105.85034, 22.73234], [-105.8499, 22.73171], [-105.85076, 22.73119], [-105.85298, 22.73464], [-105.85297, 22.73483], [-105.85246, 22.73525]]]}}, {"id": "1958603", "type": "Feature", "properties": {"id": "1958603", "CVEGEO": "2500900340576014", "POBTOT": 30.0, "score_nse": 0.0, "NSE": "ND", "VIVTOT": 15.0, "GRAPROES": 8.35, "_ent": "25", "_mun": "009", "_loc": "0034"}, "geometry": {"type": "Polygon", "coordinates": [[[-105.84659, 22.73104], [-105.84715, 22.73069], [-105.84756, 22.73121], [-105.84698, 22.73158], [-105.84659, 22.73104]]]}}]}