{"type": "FeatureCollection", "features": [{"id": "2343761", "type": "Feature", "properties": {"id": "2343761", "CVEGEO": "3012900620024008", "POBTOT": 0.0, "score_nse": 0.0, "NSE": null, "VIVTOT": 0.0, "GRAPROES": 0.0, "_ent": "30", "_mun": "129", "_loc": "0062"}, "geometry": {"type": "Polygon", "coordinates": [[[-98.41714, 21.27042], [-98.41831, 21.27001], [-98.41915, 21.26908], [-98.41953, 21.26933], [-98.41864, 21.27042], [-98.41783, 21.27105], [-98.41734, 21.27075], [-98.41714, 21.27042]]]}}, {"id": "2343797", "type": "Feature", "properties": {"id": "2343797", "CVEGEO": "3012900620024005", "POBTOT": 0.0, "score_nse": 0.0, "NSE": null, "VIVTOT": 0.0, "GRAPROES": 0.0, "_ent": "30", "_mun": "129", "_loc": "0062"}, "geometry": {"type": "Polygon", "coordinates": [[[-98.41429, 21.26769], [-98.41515, 21.26716], [-98.41543, 21.26723], [-98.41521, 21.26792], [-98.41457, 21.26803], [-98.41429, 21.26769]]]}}, {"id": "2343798", "type": "Feature", "properties": {"id": "2343798", "CVEGEO": "3012900620024002", "POBTOT": 0.0, "score_nse": 0.0, "NSE": null, "VIVTOT": 0.0, "GRAPROES": 0.0, "_ent": "30", "_mun": "129", "_loc": "0062"}, "geometry": {"type": "Polygon", "coordinates": [[[-98.41615, 21.26939], [-98.41661, 21.26901], [-98.41728, 21.26792], [-98.41828, 21.26819], [-98.41913, 21.269], [-98.41826, 21.26999], [-98.4171, 21.27037], [-98.41615, 21.26939]]]}}, {"id": "2343799", "type": "Feature", "properties": {"id": "2343799", "CVEGEO": "3012900620024001", "POBTOT": 0.0, "score_nse": 0.0, "NSE": null, "VIVTOT": 0.0, "GRAPROES": 0.0, "_ent": "30", "_mun": "129", "_loc": "0062"}, "geometry": {"type": "Polygon", "coordinates": [[[-98.41547, 21.26849], [-98.41555, 21.26815], [-98.41629, 21.26823], [-98.41723, 21.2679], [-98.41648, 21.26912], [-98.4161, 21.26936], [-98.41547, 21.26849]]]}}, {"id": "2343887", "type": "Feature", "properties": {"id": "2343887", "CVEGEO": "3012900620024004", "POBTOT": 0.0, "score_nse": 0.0, "NSE": null, "VIVTOT": 0.0, "GRAPROES": 0.0, "_ent": "30", "_mun": "129", "_loc": "0062"}, "geometry": {"type": "Polygon", "coordinates": [[[-98.41547, 21.26823], [-98.41544, 21.26849], [-98.41483, 21.26803], [-98.41506, 21.2679], [-98.41547, 21.26823]]]}}, {"id": "2343888", "type": "Feature", "properties": {"id": "2343888", "CVEGEO": "3012900620024003", "POBTOT": 0.0, "score_nse": 0.0, "NSE": null, "VIVTOT": 0.0, "GRAPROES": 0.0, "_ent": "30", "_mun": "129", "_loc": "0062"}, "geometry": {"type": "Polygon", "coordinates": [[[-98.41585, 21.26941], [-98.41515, 21.26917], [-98.41462, 21.26854], [-98.41456, 21.26809], [-98.41571, 21.26877], [-98.41597, 21.26932], [-98.41585, 21.26941]]]}}, {"id": "2343995", "type": "Feature", "properties": {"id": "2343995", "CVEGEO": "3012900620024007", "POBTOT": 0.0, "score_nse": 0.0, "NSE": null, "VIVTOT": 0.0, "GRAPROES": 0.0, "_ent": "30", "_mun": "129", "_loc": "0062"}, "geometry": {"type": "Polygon", "coordinates": [[[-98.41444, 21.26978], [-98.41399, 21.26929], [-98.41407, 21.26894], [-98.41366, 21.26837], [-98.41425, 21.26788], [-98.41456, 21.26832], [-98.41457, 21.26861], [-98.41436, 21.26889], [-98.41463, 21.26869], [-98.4151, 21.2692], [-98.4161, 21.26951], [-98.4161, 21.26987], [-98.41628, 21.26958], [-98.41718, 21.2707], [-98.41444, 21.26978]]]}}, {"id": "2343996", "type": "Feature", "properties": {"id": "2343996", "CVEGEO": "3012900620024006", "POBTOT": 0.0, "score_nse": 0.0, "NSE": null, "VIVTOT": 0.0, "GRAPROES": 0.0, "_ent": "30", "_mun": "129", "_loc": "0062"}, "geometry": {"type": "Polygon", "coordinates": [[[-98.41547, 21.26724], [-98.41572, 21.26707], [-98.41607, 21.26717], [-98.41595, 21.26749], [-98.41658, 21.26777], [-98.41708, 21.26737], [-98.41732, 21.26738], [-98.41779, 21.26792], [-98.41699, 21.26786], [-98.41633, 21.26819], [-98.41564, 21.2681], [-98.4153, 21.26791], [-98.41547, 21.26724]]]}}]}