{"type": "FeatureCollection", "features": [{"id": "635151", "type": "Feature", "properties": {"id": "635151", "CVEGEO": "1101600050013011", "POBTOT": 0.0, "score_nse": 0.0, "NSE": null, "VIVTOT": 0.0, "GRAPROES": 0.0, "_ent": "11", "_mun": "016", "_loc": "0005"}, "geometry": {"type": "Polygon", "coordinates": [[[-101.563, 20.37996], [-101.56302, 20.38067], [-101.56285, 20.38049], [-101.56277, 20.37998], [-101.563, 20.37996]]]}}, {"id": "635152", "type": "Feature", "properties": {"id": "635152", "CVEGEO": "1101600050013010", "POBTOT": 0.0, "score_nse": 0.0, "NSE": null, "VIVTOT": 0.0, "GRAPROES": 0.0, "_ent": "11", "_mun": "016", "_loc": "0005"}, "geometry": {"type": "Polygon", "coordinates": [[[-101.56431, 20.37984], [-101.56427, 20.38025], [-101.56319, 20.38034], [-101.56313, 20.37993], [-101.56431, 20.37984]]]}}, {"id": "635153", "type": "Feature", "properties": {"id": "635153", "CVEGEO": "1101600050013006", "POBTOT": 0.0, "score_nse": 0.0, "NSE": null, "VIVTOT": 0.0, "GRAPROES": 0.0, "_ent": "11", "_mun": "016", "_loc": "0005"}, "geometry": {"type": "Polygon", "coordinates": [[[-101.56222, 20.38247], [-101.56106, 20.38166], [-101.56195, 20.38143], [-101.56231, 20.38168], [-101.56256, 20.38251], [-101.56222, 20.38247]]]}}, {"id": "635337", "type": "Feature", "properties": {"id": "635337", "CVEGEO": "1101600050013005", "POBTOT": 0.0, "score_nse": 0.0, "NSE": null, "VIVTOT": 0.0, "GRAPROES": 0.0, "_ent": "11", "_mun": "016", "_loc": "0005"}, "geometry": {"type": "Polygon", "coordinates": [[[-101.56189, 20.38104], [-101.56344, 20.3809], [-101.56347, 20.3812], [-101.56301, 20.38126], [-101.56302, 20.38149], [-101.56311, 20.38163], [-101.56348, 20.38165], [-101.56353, 20.3819], [-101.56306, 20.3824], [-101.56277, 20.38245], [-101.5626, 20.38236], [-101.56244, 20.3818], [-101.56286, 20.38173], [-101.5624, 20.38174], [-101.56205, 20.38144], [-101.56189, 20.38104]]]}}, {"id": "635338", "type": "Feature", "properties": {"id": "635338", "CVEGEO": "1101600050013004", "POBTOT": 0.0, "score_nse": 0.0, "NSE": null, "VIVTOT": 0.0, "GRAPROES": 0.0, "_ent": "11", "_mun": "016", "_loc": "0005"}, "geometry": {"type": "Polygon", "coordinates": [[[-101.56259, 20.37993], [-101.56149, 20.38013], [-101.56147, 20.38003], [-101.56164, 20.37964], [-101.56212, 20.37957], [-101.56259, 20.37993]]]}}, {"id": "635339", "type": "Feature", "properties": {"id": "635339", "CVEGEO": "1101600050013003", "POBTOT": 0.0, "score_nse": 0.0, "NSE": null, "VIVTOT": 0.0, "GRAPROES": 0.0, "_ent": "11", "_mun": "016", "_loc": "0005"}, "geometry": {"type": "Polygon", "coordinates": [[[-101.56005, 20.38122], [-101.56022, 20.38066], [-101.56015, 20.38021], [-101.56042, 20.37975], [-101.56142, 20.38021], [-101.56098, 20.38024], [-101.56081, 20.3804], [-101.56151, 20.38032], [-101.56147, 20.38102], [-101.56123, 20.38101], [-101.56147, 20.38107], [-101.56143, 20.3814], [-101.56104, 20.38162], [-101.56005, 20.38122]]]}}, {"id": "635340", "type": "Feature", "properties": {"id": "635340", "CVEGEO": "1101600050013002", "POBTOT": 0.0, "score_nse": 0.0, "NSE": null, "VIVTOT": 0.0, "GRAPROES": 0.0, "_ent": "11", "_mun": "016", "_loc": "0005"}, "geometry": {"type": "Polygon", "coordinates": [[[-101.56158, 20.38057], [-101.5618, 20.381], [-101.56183, 20.38131], [-101.56151, 20.38132], [-101.56158, 20.38057]]]}}, {"id": "635341", "type": "Feature", "properties": {"id": "635341", "CVEGEO": "1101600050013001", "POBTOT": 0.0, "score_nse": 0.0, "NSE": null, "VIVTOT": 0.0, "GRAPROES": 0.0, "_ent": "11", "_mun": "016", "_loc": "0005"}, "geometry": {"type": "Polygon", "coordinates": [[[-101.56296, 20.38087], [-101.56243, 20.38093], [-101.56245, 20.38068], [-101.5624, 20.38094], [-101.56189, 20.381], [-101.56173, 20.38063], [-101.56205, 20.38058], [-101.56171, 20.38058], [-101.56156, 20.38022], [-101.56263, 20.38001], [-101.56296, 20.38087]]]}}, {"id": "635605", "type": "Feature", "properties": {"id": "635605", "CVEGEO": "1101600050013009", "POBTOT": 0.0, "score_nse": 0.0, "NSE": null, "VIVTOT": 0.0, "GRAPROES": 0.0, "_ent": "11", "_mun": "016", "_loc": "0005"}, "geometry": {"type": "Polygon", "coordinates": [[[-101.56426, 20.38031], [-101.56423, 20.38075], [-101.56323, 20.38085], [-101.5632, 20.38042], [-101.56426, 20.38031]]]}}, {"id": "635609", "type": "Feature", "properties": {"id": "635609", "CVEGEO": "1101600050013012", "POBTOT": 0.0, "score_nse": 0.0, "NSE": null, "VIVTOT": 0.0, "GRAPROES": 0.0, "_ent": "11", "_mun": "016", "_loc": "0005"}, "geometry": {"type": "Polygon", "coordinates": [[[-101.5642, 20.38086], [-101.56414, 20.38106], [-101.56353, 20.3809], [-101.5642, 20.38086]]]}}]}