{"type": "FeatureCollection", "features": [{"id": "1503273", "type": "Feature", "properties": {"id": "1503273", "CVEGEO": "1904505660030001", "POBTOT": 0.0, "score_nse": 0.0, "NSE": null, "VIVTOT": 0.0, "GRAPROES": 0.0, "_ent": "19", "_mun": "045", "_loc": "0566"}, "geometry": {"type": "Polygon", "coordinates": [[[-100.27594, 26.17353], [-100.27491, 26.17359], [-100.2743, 26.17264], [-100.27535, 26.17262], [-100.27594, 26.17353]]]}}, {"id": "1503274", "type": "Feature", "properties": {"id": "1503274", "CVEGEO": "1904505660030002", "POBTOT": 0.0, "score_nse": 0.0, "NSE": null, "VIVTOT": 0.0, "GRAPROES": 0.0, "_ent": "19", "_mun": "045", "_loc": "0566"}, "geometry": {"type": "Polygon", "coordinates": [[[-100.27481, 26.17359], [-100.27388, 26.17365], [-100.27315, 26.17267], [-100.2742, 26.17265], [-100.27481, 26.17359]]]}}, {"id": "1503275", "type": "Feature", "properties": {"id": "1503275", "CVEGEO": "1904505660030003", "POBTOT": 0.0, "score_nse": 0.0, "NSE": null, "VIVTOT": 0.0, "GRAPROES": 0.0, "_ent": "19", "_mun": "045", "_loc": "0566"}, "geometry": {"type": "Polygon", "coordinates": [[[-100.27268, 26.17373], [-100.27166, 26.17378], [-100.27091, 26.17275], [-100.27195, 26.17273], [-100.27268, 26.17373]]]}}, {"id": "1503276", "type": "Feature", "properties": {"id": "1503276", "CVEGEO": "1904505660030004", "POBTOT": 0.0, "score_nse": 0.0, "NSE": null, "VIVTOT": 0.0, "GRAPROES": 0.0, "_ent": "19", "_mun": "045", "_loc": "0566"}, "geometry": {"type": "Polygon", "coordinates": [[[-100.27049, 26.17384], [-100.26954, 26.1739], [-100.26867, 26.17282], [-100.26971, 26.17282], [-100.27049, 26.17384]]]}}, {"id": "1503277", "type": "Feature", "properties": {"id": "1503277", "CVEGEO": "1904505660030005", "POBTOT": 0.0, "score_nse": 0.0, "NSE": null, "VIVTOT": 0.0, "GRAPROES": 0.0, "_ent": "19", "_mun": "045", "_loc": "0566"}, "geometry": {"type": "Polygon", "coordinates": [[[-100.26935, 26.17391], [-100.26838, 26.17398], [-100.26754, 26.17285], [-100.26852, 26.17287], [-100.26935, 26.17391]]]}}, {"id": "1503278", "type": "Feature", "properties": {"id": "1503278", "CVEGEO": "1904505660030006", "POBTOT": 0.0, "score_nse": 0.0, "NSE": null, "VIVTOT": 0.0, "GRAPROES": 0.0, "_ent": "19", "_mun": "045", "_loc": "0566"}, "geometry": {"type": "Polygon", "coordinates": [[[-100.27755, 26.17251], [-100.27652, 26.17251], [-100.27572, 26.17139], [-100.27675, 26.1714], [-100.27755, 26.17251]]]}}, {"id": "1503279", "type": "Feature", "properties": {"id": "1503279", "CVEGEO": "1904505660030007", "POBTOT": 0.0, "score_nse": 0.0, "NSE": null, "VIVTOT": 0.0, "GRAPROES": 0.0, "_ent": "19", "_mun": "045", "_loc": "0566"}, "geometry": {"type": "Polygon", "coordinates": [[[-100.27409, 26.17253], [-100.27308, 26.17255], [-100.27203, 26.17112], [-100.27308, 26.17106], [-100.27409, 26.17253]]]}}, {"id": "1503280", "type": "Feature", "properties": {"id": "1503280", "CVEGEO": "1904505660030008", "POBTOT": 0.0, "score_nse": 0.0, "NSE": null, "VIVTOT": 0.0, "GRAPROES": 0.0, "_ent": "19", "_mun": "045", "_loc": "0566"}, "geometry": {"type": "Polygon", "coordinates": [[[-100.27186, 26.17262], [-100.27083, 26.17263], [-100.26992, 26.17137], [-100.27096, 26.1713], [-100.27186, 26.17262]]]}}, {"id": "1503281", "type": "Feature", "properties": {"id": "1503281", "CVEGEO": "1904505660030009", "POBTOT": 0.0, "score_nse": 0.0, "NSE": null, "VIVTOT": 0.0, "GRAPROES": 0.0, "_ent": "19", "_mun": "045", "_loc": "0566"}, "geometry": {"type": "Polygon", "coordinates": [[[-100.27069, 26.17264], [-100.26971, 26.17268], [-100.26874, 26.17141], [-100.26978, 26.1714], [-100.27069, 26.17264]]]}}, {"id": "1503282", "type": "Feature", "properties": {"id": "1503282", "CVEGEO": "1904505660030010", "POBTOT": 0.0, "score_nse": 0.0, "NSE": null, "VIVTOT": 0.0, "GRAPROES": 0.0, "_ent": "19", "_mun": "045", "_loc": "0566"}, "geometry": {"type": "Polygon", "coordinates": [[[-100.26952, 26.17266], [-100.26855, 26.17269], [-100.26745, 26.17123], [-100.26844, 26.17122], [-100.26952, 26.17266]]]}}, {"id": "1503283", "type": "Feature", "properties": {"id": "1503283", "CVEGEO": "1904505660030011", "POBTOT": 0.0, "score_nse": 0.0, "NSE": null, "VIVTOT": 0.0, "GRAPROES": 0.0, "_ent": "19", "_mun": "045", "_loc": "0566"}, "geometry": {"type": "Polygon", "coordinates": [[[-100.26838, 26.17269], [-100.26744, 26.17269], [-100.26633, 26.17126], [-100.26731, 26.17126], [-100.26838, 26.17269]]]}}]}