{"type": "FeatureCollection", "features": [{"id": "1476530", "type": "Feature", "properties": {"id": "1476530", "CVEGEO": "1903600070192039", "POBTOT": 0.0, "score_nse": 0.0, "NSE": null, "VIVTOT": 0.0, "GRAPROES": 0.0, "_ent": "19", "_mun": "036", "_loc": "0007"}, "geometry": {"type": "Polygon", "coordinates": [[[-100.03608, 23.45128], [-100.03603, 23.45173], [-100.03529, 23.45149], [-100.03538, 23.45111], [-100.03608, 23.45128]]]}}, {"id": "1476531", "type": "Feature", "properties": {"id": "1476531", "CVEGEO": "1903600070192027", "POBTOT": 0.0, "score_nse": 0.0, "NSE": null, "VIVTOT": 0.0, "GRAPROES": 0.0, "_ent": "19", "_mun": "036", "_loc": "0007"}, "geometry": {"type": "Polygon", "coordinates": [[[-100.03457, 23.45236], [-100.03432, 23.45281], [-100.03382, 23.45257], [-100.03395, 23.45219], [-100.03457, 23.45236]]]}}, {"id": "1476532", "type": "Feature", "properties": {"id": "1476532", "CVEGEO": "1903600070192026", "POBTOT": 0.0, "score_nse": 0.0, "NSE": null, "VIVTOT": 0.0, "GRAPROES": 0.0, "_ent": "19", "_mun": "036", "_loc": "0007"}, "geometry": {"type": "Polygon", "coordinates": [[[-100.036, 23.45233], [-100.03595, 23.45251], [-100.03531, 23.45246], [-100.03539, 23.45218], [-100.036, 23.45233]]]}}, {"id": "1476533", "type": "Feature", "properties": {"id": "1476533", "CVEGEO": "1903600070192023", "POBTOT": 0.0, "score_nse": 0.0, "NSE": null, "VIVTOT": 0.0, "GRAPROES": 0.0, "_ent": "19", "_mun": "036", "_loc": "0007"}, "geometry": {"type": "Polygon", "coordinates": [[[-100.03737, 23.45213], [-100.0374, 23.45246], [-100.03693, 23.45245], [-100.03694, 23.45211], [-100.03737, 23.45213]]]}}, {"id": "1476534", "type": "Feature", "properties": {"id": "1476534", "CVEGEO": "1903600070192001", "POBTOT": 0.0, "score_nse": 0.0, "NSE": null, "VIVTOT": 0.0, "GRAPROES": 0.0, "_ent": "19", "_mun": "036", "_loc": "0007"}, "geometry": {"type": "Polygon", "coordinates": [[[-100.04036, 23.4555], [-100.0402, 23.45589], [-100.03957, 23.45569], [-100.0398, 23.45521], [-100.04036, 23.4555]]]}}, {"id": "1476537", "type": "Feature", "properties": {"id": "1476537", "CVEGEO": "1903600070192030", "POBTOT": 0.0, "score_nse": 0.0, "NSE": null, "VIVTOT": 0.0, "GRAPROES": 0.0, "_ent": "19", "_mun": "036", "_loc": "0007"}, "geometry": {"type": "Polygon", "coordinates": [[[-100.03277, 23.45209], [-100.03259, 23.45256], [-100.03181, 23.4523], [-100.03198, 23.45183], [-100.03277, 23.45209]]]}}, {"id": "1476538", "type": "Feature", "properties": {"id": "1476538", "CVEGEO": "1903600070192004", "POBTOT": 0.0, "score_nse": 0.0, "NSE": null, "VIVTOT": 0.0, "GRAPROES": 0.0, "_ent": "19", "_mun": "036", "_loc": "0007"}, "geometry": {"type": "Polygon", "coordinates": [[[-100.03871, 23.45453], [-100.03834, 23.45432], [-100.03877, 23.45387], [-100.03911, 23.45405], [-100.03871, 23.45453]]]}}, {"id": "1476539", "type": "Feature", "properties": {"id": "1476539", "CVEGEO": "1903600070192003", "POBTOT": 0.0, "score_nse": 0.0, "NSE": null, "VIVTOT": 0.0, "GRAPROES": 0.0, "_ent": "19", "_mun": "036", "_loc": "0007"}, "geometry": {"type": "Polygon", "coordinates": [[[-100.03917, 23.45479], [-100.03875, 23.45455], [-100.03906, 23.45419], [-100.03947, 23.45445], [-100.03917, 23.45479]]]}}, {"id": "1476540", "type": "Feature", "properties": {"id": "1476540", "CVEGEO": "1903600070192031", "POBTOT": 0.0, "score_nse": 0.0, "NSE": null, "VIVTOT": 0.0, "GRAPROES": 0.0, "_ent": "19", "_mun": "036", "_loc": "0007"}, "geometry": {"type": "Polygon", "coordinates": [[[-100.03739, 23.45126], [-100.0374, 23.45208], [-100.03694, 23.45204], [-100.03699, 23.45124], [-100.03739, 23.45126]]]}}, {"id": "1476541", "type": "Feature", "properties": {"id": "1476541", "CVEGEO": "1903600070192029", "POBTOT": 0.0, "score_nse": 0.0, "NSE": null, "VIVTOT": 0.0, "GRAPROES": 0.0, "_ent": "19", "_mun": "036", "_loc": "0007"}, "geometry": {"type": "Polygon", "coordinates": [[[-100.03327, 23.45225], [-100.03308, 23.45275], [-100.03263, 23.45258], [-100.03281, 23.45211], [-100.03327, 23.45225]]]}}, {"id": "1476546", "type": "Feature", "properties": {"id": "1476546", "CVEGEO": "1903600070192017", "POBTOT": 0.0, "score_nse": 0.0, "NSE": null, "VIVTOT": 0.0, "GRAPROES": 0.0, "_ent": "19", "_mun": "036", "_loc": "0007"}, "geometry": {"type": "Polygon", "coordinates": [[[-100.03462, 23.45392], [-100.03426, 23.45397], [-100.034, 23.45377], [-100.03446, 23.45327], [-100.03462, 23.45392]]]}}, {"id": "1476547", "type": "Feature", "properties": {"id": "1476547", "CVEGEO": "1903600070192012", "POBTOT": 0.0, "score_nse": 0.0, "NSE": null, "VIVTOT": 0.0, "GRAPROES": 0.0, "_ent": "19", "_mun": "036", "_loc": "0007"}, "geometry": {"type": "Polygon", "coordinates": [[[-100.03751, 23.45318], [-100.03718, 23.45324], [-100.03692, 23.45255], [-100.03739, 23.45253], [-100.03751, 23.45318]]]}}, {"id": "1476548", "type": "Feature", "properties": {"id": "1476548", "CVEGEO": "1903600070192011", "POBTOT": 0.0, "score_nse": 0.0, "NSE": null, "VIVTOT": 0.0, "GRAPROES": 0.0, "_ent": "19", "_mun": "036", "_loc": "0007"}, "geometry": {"type": "Polygon", "coordinates": [[[-100.03781, 23.45253], [-100.0381, 23.45308], [-100.03758, 23.45317], [-100.03745, 23.45253], [-100.03781, 23.45253]]]}}, {"id": "1476549", "type": "Feature", "properties": {"id": "1476549", "CVEGEO": "1903600070192010", "POBTOT": 0.0, "score_nse": 0.0, "NSE": null, "VIVTOT": 0.0, "GRAPROES": 0.0, "_ent": "19", "_mun": "036", "_loc": "0007"}, "geometry": {"type": "Polygon", "coordinates": [[[-100.03678, 23.45343], [-100.03699, 23.45385], [-100.036, 23.45394], [-100.03598, 23.45352], [-100.03678, 23.45343]]]}}, {"id": "1476550", "type": "Feature", "properties": {"id": "1476550", "CVEGEO": "1903600070192009", "POBTOT": 0.0, "score_nse": 0.0, "NSE": null, "VIVTOT": 0.0, "GRAPROES": 0.0, "_ent": "19", "_mun": "036", "_loc": "0007"}, "geometry": {"type": "Polygon", "coordinates": [[[-100.03754, 23.45383], [-100.03722, 23.45412], [-100.03683, 23.45337], [-100.03752, 23.45323], [-100.03754, 23.45383]]]}}, {"id": "1476551", "type": "Feature", "properties": {"id": "1476551", "CVEGEO": "1903600070192008", "POBTOT": 0.0, "score_nse": 0.0, "NSE": null, "VIVTOT": 0.0, "GRAPROES": 0.0, "_ent": "19", "_mun": "036", "_loc": "0007"}, "geometry": {"type": "Polygon", "coordinates": [[[-100.03896, 23.45293], [-100.03915, 23.45329], [-100.03878, 23.45349], [-100.03847, 23.45311], [-100.03896, 23.45293]]]}}, {"id": "1476561", "type": "Feature", "properties": {"id": "1476561", "CVEGEO": "1903600070192057", "POBTOT": 0.0, "score_nse": 0.0, "NSE": null, "VIVTOT": 0.0, "GRAPROES": 0.0, "_ent": "19", "_mun": "036", "_loc": "0007"}, "geometry": {"type": "Polygon", "coordinates": [[[-100.03528, 23.45055], [-100.03568, 23.45071], [-100.03549, 23.45107], [-100.03501, 23.45094], [-100.03528, 23.45055]]]}}, {"id": "1476562", "type": "Feature", "properties": {"id": "1476562", "CVEGEO": "1903600070192056", "POBTOT": 0.0, "score_nse": 0.0, "NSE": null, "VIVTOT": 0.0, "GRAPROES": 0.0, "_ent": "19", "_mun": "036", "_loc": "0007"}, "geometry": {"type": "Polygon", "coordinates": [[[-100.03626, 23.44922], [-100.03512, 23.45026], [-100.03457, 23.45005], [-100.0348, 23.4495], [-100.03616, 23.44868], [-100.03626, 23.44922]]]}}, {"id": "1476563", "type": "Feature", "properties": {"id": "1476563", "CVEGEO": "1903600070192055", "POBTOT": 0.0, "score_nse": 0.0, "NSE": null, "VIVTOT": 0.0, "GRAPROES": 0.0, "_ent": "19", "_mun": "036", "_loc": "0007"}, "geometry": {"type": "Polygon", "coordinates": [[[-100.03412, 23.45018], [-100.03461, 23.45029], [-100.03445, 23.45068], [-100.03397, 23.45056], [-100.03412, 23.45018]]]}}, {"id": "1476564", "type": "Feature", "properties": {"id": "1476564", "CVEGEO": "1903600070192054", "POBTOT": 0.0, "score_nse": 0.0, "NSE": null, "VIVTOT": 0.0, "GRAPROES": 0.0, "_ent": "19", "_mun": "036", "_loc": "0007"}, "geometry": {"type": "Polygon", "coordinates": [[[-100.04039, 23.45544], [-100.03926, 23.45484], [-100.03949, 23.45458], [-100.04054, 23.45511], [-100.04039, 23.45544]]]}}, {"id": "1476565", "type": "Feature", "properties": {"id": "1476565", "CVEGEO": "1903600070192053", "POBTOT": 0.0, "score_nse": 0.0, "NSE": null, "VIVTOT": 0.0, "GRAPROES": 0.0, "_ent": "19", "_mun": "036", "_loc": "0007"}, "geometry": {"type": "Polygon", "coordinates": [[[-100.04069, 23.45518], [-100.04137, 23.45554], [-100.04122, 23.45587], [-100.04055, 23.4555], [-100.04069, 23.45518]]]}}, {"id": "1476566", "type": "Feature", "properties": {"id": "1476566", "CVEGEO": "1903600070192037", "POBTOT": 0.0, "score_nse": 0.0, "NSE": null, "VIVTOT": 0.0, "GRAPROES": 0.0, "_ent": "19", "_mun": "036", "_loc": "0007"}, "geometry": {"type": "Polygon", "coordinates": [[[-100.0352, 23.45164], [-100.03509, 23.452], [-100.0348, 23.45191], [-100.03494, 23.45155], [-100.0352, 23.45164]]]}}, {"id": "1476567", "type": "Feature", "properties": {"id": "1476567", "CVEGEO": "1903600070192036", "POBTOT": 0.0, "score_nse": 0.0, "NSE": null, "VIVTOT": 0.0, "GRAPROES": 0.0, "_ent": "19", "_mun": "036", "_loc": "0007"}, "geometry": {"type": "Polygon", "coordinates": [[[-100.03272, 23.45176], [-100.03261, 23.45198], [-100.03202, 23.45178], [-100.03207, 23.4516], [-100.03272, 23.45176]]]}}, {"id": "1476568", "type": "Feature", "properties": {"id": "1476568", "CVEGEO": "1903600070192035", "POBTOT": 0.0, "score_nse": 0.0, "NSE": null, "VIVTOT": 0.0, "GRAPROES": 0.0, "_ent": "19", "_mun": "036", "_loc": "0007"}, "geometry": {"type": "Polygon", "coordinates": [[[-100.0334, 23.45197], [-100.03331, 23.45224], [-100.03266, 23.45202], [-100.0328, 23.45176], [-100.0334, 23.45197]]]}}, {"id": "1476569", "type": "Feature", "properties": {"id": "1476569", "CVEGEO": "1903600070192034", "POBTOT": 0.0, "score_nse": 0.0, "NSE": null, "VIVTOT": 0.0, "GRAPROES": 0.0, "_ent": "19", "_mun": "036", "_loc": "0007"}, "geometry": {"type": "Polygon", "coordinates": [[[-100.03533, 23.45218], [-100.03523, 23.45248], [-100.03466, 23.4523], [-100.03477, 23.45198], [-100.03533, 23.45218]]]}}, {"id": "1476571", "type": "Feature", "properties": {"id": "1476571", "CVEGEO": "1903600070192046", "POBTOT": 0.0, "score_nse": 0.0, "NSE": null, "VIVTOT": 0.0, "GRAPROES": 0.0, "_ent": "19", "_mun": "036", "_loc": "0007"}, "geometry": {"type": "Polygon", "coordinates": [[[-100.03614, 23.45089], [-100.03608, 23.45121], [-100.03557, 23.45109], [-100.03573, 23.45073], [-100.03614, 23.45089]]]}}, {"id": "1476573", "type": "Feature", "properties": {"id": "1476573", "CVEGEO": "1903600070192049", "POBTOT": 0.0, "score_nse": 0.0, "NSE": null, "VIVTOT": 0.0, "GRAPROES": 0.0, "_ent": "19", "_mun": "036", "_loc": "0007"}, "geometry": {"type": "Polygon", "coordinates": [[[-100.0381, 23.4543], [-100.03766, 23.45469], [-100.03736, 23.45428], [-100.03763, 23.45401], [-100.0381, 23.4543]]]}}, {"id": "1476574", "type": "Feature", "properties": {"id": "1476574", "CVEGEO": "1903600070192042", "POBTOT": 0.0, "score_nse": 0.0, "NSE": null, "VIVTOT": 0.0, "GRAPROES": 0.0, "_ent": "19", "_mun": "036", "_loc": "0007"}, "geometry": {"type": "Polygon", "coordinates": [[[-100.03679, 23.45105], [-100.0367, 23.4514], [-100.03617, 23.45127], [-100.03624, 23.45089], [-100.03679, 23.45105]]]}}, {"id": "1476575", "type": "Feature", "properties": {"id": "1476575", "CVEGEO": "1903600070192021", "POBTOT": 0.0, "score_nse": 0.0, "NSE": null, "VIVTOT": 0.0, "GRAPROES": 0.0, "_ent": "19", "_mun": "036", "_loc": "0007"}, "geometry": {"type": "Polygon", "coordinates": [[[-100.03295, 23.45325], [-100.03343, 23.45207], [-100.03387, 23.45218], [-100.03327, 23.45335], [-100.03295, 23.45325]]]}}, {"id": "1476576", "type": "Feature", "properties": {"id": "1476576", "CVEGEO": "1903600070192020", "POBTOT": 0.0, "score_nse": 0.0, "NSE": null, "VIVTOT": 0.0, "GRAPROES": 0.0, "_ent": "19", "_mun": "036", "_loc": "0007"}, "geometry": {"type": "Polygon", "coordinates": [[[-100.0336, 23.45274], [-100.03422, 23.45281], [-100.03378, 23.45319], [-100.03347, 23.45307], [-100.0336, 23.45274]]]}}, {"id": "1476577", "type": "Feature", "properties": {"id": "1476577", "CVEGEO": "1903600070192019", "POBTOT": 0.0, "score_nse": 0.0, "NSE": null, "VIVTOT": 0.0, "GRAPROES": 0.0, "_ent": "19", "_mun": "036", "_loc": "0007"}, "geometry": {"type": "Polygon", "coordinates": [[[-100.03519, 23.45312], [-100.03459, 23.45314], [-100.03459, 23.45285], [-100.0352, 23.45277], [-100.03519, 23.45312]]]}}, {"id": "1476578", "type": "Feature", "properties": {"id": "1476578", "CVEGEO": "1903600070192018", "POBTOT": 0.0, "score_nse": 0.0, "NSE": null, "VIVTOT": 0.0, "GRAPROES": 0.0, "_ent": "19", "_mun": "036", "_loc": "0007"}, "geometry": {"type": "Polygon", "coordinates": [[[-100.03395, 23.45375], [-100.03353, 23.45346], [-100.03426, 23.45286], [-100.03445, 23.45323], [-100.03395, 23.45375]]]}}, {"id": "1476579", "type": "Feature", "properties": {"id": "1476579", "CVEGEO": "1903600070192007", "POBTOT": 0.0, "score_nse": 0.0, "NSE": null, "VIVTOT": 0.0, "GRAPROES": 0.0, "_ent": "19", "_mun": "036", "_loc": "0007"}, "geometry": {"type": "Polygon", "coordinates": [[[-100.03597, 23.4544], [-100.03494, 23.45466], [-100.03479, 23.45419], [-100.03502, 23.45412], [-100.03485, 23.45371], [-100.03592, 23.45354], [-100.03597, 23.4544]]]}}, {"id": "1476580", "type": "Feature", "properties": {"id": "1476580", "CVEGEO": "1903600070192006", "POBTOT": 0.0, "score_nse": 0.0, "NSE": null, "VIVTOT": 0.0, "GRAPROES": 0.0, "_ent": "19", "_mun": "036", "_loc": "0007"}, "geometry": {"type": "Polygon", "coordinates": [[[-100.03864, 23.45391], [-100.03826, 23.45427], [-100.03771, 23.45401], [-100.03758, 23.45321], [-100.03812, 23.45312], [-100.03864, 23.45391]]]}}, {"id": "1476581", "type": "Feature", "properties": {"id": "1476581", "CVEGEO": "1903600070192005", "POBTOT": 0.0, "score_nse": 0.0, "NSE": null, "VIVTOT": 0.0, "GRAPROES": 0.0, "_ent": "19", "_mun": "036", "_loc": "0007"}, "geometry": {"type": "Polygon", "coordinates": [[[-100.03594, 23.45445], [-100.03581, 23.45509], [-100.03504, 23.45512], [-100.03496, 23.45473], [-100.03594, 23.45445]]]}}, {"id": "1476583", "type": "Feature", "properties": {"id": "1476583", "CVEGEO": "1903600070192033", "POBTOT": 0.0, "score_nse": 0.0, "NSE": null, "VIVTOT": 0.0, "GRAPROES": 0.0, "_ent": "19", "_mun": "036", "_loc": "0007"}, "geometry": {"type": "Polygon", "coordinates": [[[-100.03602, 23.45179], [-100.036, 23.45228], [-100.03512, 23.45204], [-100.03528, 23.45154], [-100.03602, 23.45179]]]}}, {"id": "1477070", "type": "Feature", "properties": {"id": "1477070", "CVEGEO": "1903600070192002", "POBTOT": 0.0, "score_nse": 0.0, "NSE": null, "VIVTOT": 0.0, "GRAPROES": 0.0, "_ent": "19", "_mun": "036", "_loc": "0007"}, "geometry": {"type": "Polygon", "coordinates": [[[-100.03959, 23.45516], [-100.03937, 23.45567], [-100.03823, 23.45509], [-100.03867, 23.45459], [-100.03959, 23.45516]]]}}, {"id": "1477083", "type": "Feature", "properties": {"id": "1477083", "CVEGEO": "1903600070192025", "POBTOT": 0.0, "score_nse": 0.0, "NSE": null, "VIVTOT": 0.0, "GRAPROES": 0.0, "_ent": "19", "_mun": "036", "_loc": "0007"}, "geometry": {"type": "Polygon", "coordinates": [[[-100.03521, 23.45254], [-100.0352, 23.45272], [-100.03453, 23.45282], [-100.03465, 23.45239], [-100.03521, 23.45254]]]}}, {"id": "1477084", "type": "Feature", "properties": {"id": "1477084", "CVEGEO": "1903600070192016", "POBTOT": 0.0, "score_nse": 0.0, "NSE": null, "VIVTOT": 0.0, "GRAPROES": 0.0, "_ent": "19", "_mun": "036", "_loc": "0007"}, "geometry": {"type": "Polygon", "coordinates": [[[-100.03533, 23.45358], [-100.03462, 23.45369], [-100.03449, 23.45324], [-100.0352, 23.45316], [-100.03533, 23.45358]]]}}, {"id": "1477093", "type": "Feature", "properties": {"id": "1477093", "CVEGEO": "1903600070192050", "POBTOT": 0.0, "score_nse": 0.0, "NSE": null, "VIVTOT": 0.0, "GRAPROES": 0.0, "_ent": "19", "_mun": "036", "_loc": "0007"}, "geometry": {"type": "Polygon", "coordinates": [[[-100.04119, 23.45597], [-100.04069, 23.45718], [-100.04, 23.45682], [-100.04042, 23.45554], [-100.04119, 23.45597]]]}}, {"id": "1477095", "type": "Feature", "properties": {"id": "1477095", "CVEGEO": "1903600070192060", "POBTOT": 0.0, "score_nse": 0.0, "NSE": null, "VIVTOT": 0.0, "GRAPROES": 0.0, "_ent": "19", "_mun": "036", "_loc": "0007"}, "geometry": {"type": "Polygon", "coordinates": [[[-100.03819, 23.45508], [-100.03781, 23.4548], [-100.03822, 23.45433], [-100.03861, 23.45456], [-100.03819, 23.45508]]]}}, {"id": "1477110", "type": "Feature", "properties": {"id": "1477110", "CVEGEO": "1903600070192059", "POBTOT": 0.0, "score_nse": 0.0, "NSE": null, "VIVTOT": 0.0, "GRAPROES": 0.0, "_ent": "19", "_mun": "036", "_loc": "0007"}, "geometry": {"type": "Polygon", "coordinates": [[[-100.03629, 23.45599], [-100.03588, 23.456], [-100.03586, 23.4555], [-100.03628, 23.45549], [-100.03629, 23.45599]]]}}, {"id": "1477111", "type": "Feature", "properties": {"id": "1477111", "CVEGEO": "1903600070192061", "POBTOT": 0.0, "score_nse": 0.0, "NSE": null, "VIVTOT": 0.0, "GRAPROES": 0.0, "_ent": "19", "_mun": "036", "_loc": "0007"}, "geometry": {"type": "Polygon", "coordinates": [[[-100.03365, 23.45405], [-100.03323, 23.45377], [-100.03351, 23.45349], [-100.03392, 23.45377], [-100.03365, 23.45405]]]}}, {"id": "1477112", "type": "Feature", "properties": {"id": "1477112", "CVEGEO": "1903600070192065", "POBTOT": 0.0, "score_nse": 0.0, "NSE": null, "VIVTOT": 0.0, "GRAPROES": 0.0, "_ent": "19", "_mun": "036", "_loc": "0007"}, "geometry": {"type": "Polygon", "coordinates": [[[-100.03209, 23.45249], [-100.03253, 23.45262], [-100.03238, 23.45295], [-100.03196, 23.45279], [-100.03209, 23.45249]]]}}, {"id": "1477113", "type": "Feature", "properties": {"id": "1477113", "CVEGEO": "1903600070192068", "POBTOT": 0.0, "score_nse": 0.0, "NSE": null, "VIVTOT": 0.0, "GRAPROES": 0.0, "_ent": "19", "_mun": "036", "_loc": "0007"}, "geometry": {"type": "Polygon", "coordinates": [[[-100.03854, 23.45035], [-100.03841, 23.45085], [-100.03799, 23.45086], [-100.03805, 23.45027], [-100.03854, 23.45035]]]}}, {"id": "1477114", "type": "Feature", "properties": {"id": "1477114", "CVEGEO": "1903600070192067", "POBTOT": 0.0, "score_nse": 0.0, "NSE": null, "VIVTOT": 0.0, "GRAPROES": 0.0, "_ent": "19", "_mun": "036", "_loc": "0007"}, "geometry": {"type": "Polygon", "coordinates": [[[-100.03792, 23.45195], [-100.03748, 23.45205], [-100.03748, 23.45144], [-100.03792, 23.45143], [-100.03792, 23.45195]]]}}, {"id": "1477115", "type": "Feature", "properties": {"id": "1477115", "CVEGEO": "1903600070192066", "POBTOT": 0.0, "score_nse": 0.0, "NSE": null, "VIVTOT": 0.0, "GRAPROES": 0.0, "_ent": "19", "_mun": "036", "_loc": "0007"}, "geometry": {"type": "Polygon", "coordinates": [[[-100.03795, 23.45243], [-100.03748, 23.45244], [-100.03748, 23.45209], [-100.03793, 23.45199], [-100.03795, 23.45243]]]}}, {"id": "1477116", "type": "Feature", "properties": {"id": "1477116", "CVEGEO": "1903600070192063", "POBTOT": 0.0, "score_nse": 0.0, "NSE": null, "VIVTOT": 0.0, "GRAPROES": 0.0, "_ent": "19", "_mun": "036", "_loc": "0007"}, "geometry": {"type": "Polygon", "coordinates": [[[-100.03236, 23.45304], [-100.03216, 23.45347], [-100.03171, 23.45325], [-100.03191, 23.45285], [-100.03236, 23.45304]]]}}, {"id": "1477117", "type": "Feature", "properties": {"id": "1477117", "CVEGEO": "1903600070192064", "POBTOT": 0.0, "score_nse": 0.0, "NSE": null, "VIVTOT": 0.0, "GRAPROES": 0.0, "_ent": "19", "_mun": "036", "_loc": "0007"}, "geometry": {"type": "Polygon", "coordinates": [[[-100.03258, 23.45266], [-100.03303, 23.4528], [-100.0329, 23.45314], [-100.03244, 23.45297], [-100.03258, 23.45266]]]}}, {"id": "1477118", "type": "Feature", "properties": {"id": "1477118", "CVEGEO": "1903600070192062", "POBTOT": 0.0, "score_nse": 0.0, "NSE": null, "VIVTOT": 0.0, "GRAPROES": 0.0, "_ent": "19", "_mun": "036", "_loc": "0007"}, "geometry": {"type": "Polygon", "coordinates": [[[-100.03286, 23.45323], [-100.03266, 23.4537], [-100.03221, 23.45349], [-100.03241, 23.45306], [-100.03286, 23.45323]]]}}, {"id": "1477143", "type": "Feature", "properties": {"id": "1477143", "CVEGEO": "1903600070192041", "POBTOT": 0.0, "score_nse": 0.0, "NSE": null, "VIVTOT": 0.0, "GRAPROES": 0.0, "_ent": "19", "_mun": "036", "_loc": "0007"}, "geometry": {"type": "Polygon", "coordinates": [[[-100.03731, 23.44997], [-100.03749, 23.45006], [-100.03738, 23.4512], [-100.03684, 23.4512], [-100.03731, 23.44997]]]}}, {"id": "1477144", "type": "Feature", "properties": {"id": "1477144", "CVEGEO": "1903600070192070", "POBTOT": 0.0, "score_nse": 0.0, "NSE": null, "VIVTOT": 0.0, "GRAPROES": 0.0, "_ent": "19", "_mun": "036", "_loc": "0007"}, "geometry": {"type": "Polygon", "coordinates": [[[-100.03726, 23.44991], [-100.03664, 23.4496], [-100.03677, 23.44933], [-100.03742, 23.44954], [-100.03726, 23.44991]]]}}, {"id": "1477214", "type": "Feature", "properties": {"id": "1477214", "CVEGEO": "1903600070192069", "POBTOT": 0.0, "score_nse": 0.0, "NSE": null, "VIVTOT": 0.0, "GRAPROES": 0.0, "_ent": "19", "_mun": "036", "_loc": "0007"}, "geometry": {"type": "Polygon", "coordinates": [[[-100.0386, 23.45032], [-100.03805, 23.45023], [-100.03811, 23.44977], [-100.03865, 23.45009], [-100.0386, 23.45032]]]}}, {"id": "1477215", "type": "Feature", "properties": {"id": "1477215", "CVEGEO": "1903600070192040", "POBTOT": 0.0, "score_nse": 0.0, "NSE": null, "VIVTOT": 0.0, "GRAPROES": 0.0, "_ent": "19", "_mun": "036", "_loc": "0007"}, "geometry": {"type": "Polygon", "coordinates": [[[-100.03788, 23.45138], [-100.03744, 23.45139], [-100.03743, 23.45092], [-100.03793, 23.45091], [-100.03788, 23.45138]]]}}, {"id": "1477216", "type": "Feature", "properties": {"id": "1477216", "CVEGEO": "1903600070192058", "POBTOT": 0.0, "score_nse": 0.0, "NSE": null, "VIVTOT": 0.0, "GRAPROES": 0.0, "_ent": "19", "_mun": "036", "_loc": "0007"}, "geometry": {"type": "Polygon", "coordinates": [[[-100.03631, 23.45017], [-100.03588, 23.44994], [-100.03621, 23.44957], [-100.03641, 23.44972], [-100.03631, 23.45017]]]}}, {"id": "1477217", "type": "Feature", "properties": {"id": "1477217", "CVEGEO": "1903600070192047", "POBTOT": 0.0, "score_nse": 0.0, "NSE": null, "VIVTOT": 0.0, "GRAPROES": 0.0, "_ent": "19", "_mun": "036", "_loc": "0007"}, "geometry": {"type": "Polygon", "coordinates": [[[-100.03613, 23.45083], [-100.0354, 23.45056], [-100.03589, 23.44999], [-100.0363, 23.45021], [-100.03613, 23.45083]]]}}, {"id": "1477218", "type": "Feature", "properties": {"id": "1477218", "CVEGEO": "1903600070192045", "POBTOT": 0.0, "score_nse": 0.0, "NSE": null, "VIVTOT": 0.0, "GRAPROES": 0.0, "_ent": "19", "_mun": "036", "_loc": "0007"}, "geometry": {"type": "Polygon", "coordinates": [[[-100.03727, 23.44995], [-100.03679, 23.45101], [-100.03622, 23.45084], [-100.03646, 23.44972], [-100.0366, 23.44964], [-100.03727, 23.44995]]]}}, {"id": "1477219", "type": "Feature", "properties": {"id": "1477219", "CVEGEO": "1903600070192038", "POBTOT": 0.0, "score_nse": 0.0, "NSE": null, "VIVTOT": 0.0, "GRAPROES": 0.0, "_ent": "19", "_mun": "036", "_loc": "0007"}, "geometry": {"type": "Polygon", "coordinates": [[[-100.03673, 23.45171], [-100.0361, 23.45165], [-100.03612, 23.45133], [-100.03675, 23.45147], [-100.03673, 23.45171]]]}}, {"id": "1477300", "type": "Feature", "properties": {"id": "1477300", "CVEGEO": "1903600070192071", "POBTOT": 0.0, "score_nse": 0.0, "NSE": null, "VIVTOT": 0.0, "GRAPROES": 0.0, "_ent": "19", "_mun": "036", "_loc": "0007"}, "geometry": {"type": "Polygon", "coordinates": [[[-100.03984, 23.45441], [-100.0394, 23.45402], [-100.0397, 23.45364], [-100.04023, 23.45399], [-100.03984, 23.45441]]]}}, {"id": "1477518", "type": "Feature", "properties": {"id": "1477518", "CVEGEO": "1903600070192014", "POBTOT": 0.0, "score_nse": 0.0, "NSE": null, "VIVTOT": 0.0, "GRAPROES": 0.0, "_ent": "19", "_mun": "036", "_loc": "0007"}, "geometry": {"type": "Polygon", "coordinates": [[[-100.0363, 23.45256], [-100.03675, 23.4533], [-100.03598, 23.45346], [-100.03595, 23.45256], [-100.0363, 23.45256]]]}}, {"id": "1477519", "type": "Feature", "properties": {"id": "1477519", "CVEGEO": "1903600070192013", "POBTOT": 0.0, "score_nse": 0.0, "NSE": null, "VIVTOT": 0.0, "GRAPROES": 0.0, "_ent": "19", "_mun": "036", "_loc": "0007"}, "geometry": {"type": "Polygon", "coordinates": [[[-100.03642, 23.45262], [-100.0368, 23.4526], [-100.03711, 23.45323], [-100.03682, 23.45329], [-100.03642, 23.45262]]]}}, {"id": "1477525", "type": "Feature", "properties": {"id": "1477525", "CVEGEO": "1903600070192032", "POBTOT": 0.0, "score_nse": 0.0, "NSE": null, "VIVTOT": 0.0, "GRAPROES": 0.0, "_ent": "19", "_mun": "036", "_loc": "0007"}, "geometry": {"type": "Polygon", "coordinates": [[[-100.03615, 23.45174], [-100.03673, 23.45176], [-100.03681, 23.45215], [-100.03654, 23.45227], [-100.03609, 23.45201], [-100.03615, 23.45174]]]}}, {"id": "1477526", "type": "Feature", "properties": {"id": "1477526", "CVEGEO": "1903600070192015", "POBTOT": 0.0, "score_nse": 0.0, "NSE": null, "VIVTOT": 0.0, "GRAPROES": 0.0, "_ent": "19", "_mun": "036", "_loc": "0007"}, "geometry": {"type": "Polygon", "coordinates": [[[-100.0359, 23.45257], [-100.03591, 23.45347], [-100.03537, 23.45354], [-100.03526, 23.45255], [-100.0359, 23.45257]]]}}, {"id": "1477631", "type": "Feature", "properties": {"id": "1477631", "CVEGEO": "1903600070192024", "POBTOT": 0.0, "score_nse": 0.0, "NSE": null, "VIVTOT": 0.0, "GRAPROES": 0.0, "_ent": "19", "_mun": "036", "_loc": "0007"}, "geometry": {"type": "Polygon", "coordinates": [[[-100.03617, 23.45224], [-100.0368, 23.45222], [-100.03685, 23.45248], [-100.03638, 23.45257], [-100.03617, 23.45224]]]}}]}