{"type": "FeatureCollection", "features": [{"id": "1659503", "type": "Feature", "properties": {"id": "1659503", "CVEGEO": "2105400350179001", "POBTOT": 0.0, "score_nse": 0.0, "NSE": null, "VIVTOT": 0.0, "GRAPROES": 0.0, "_ent": "21", "_mun": "054", "_loc": "0035"}, "geometry": {"type": "Polygon", "coordinates": [[[-97.38515, 19.78992], [-97.38419, 19.78955], [-97.38515, 19.78837], [-97.3855, 19.78862], [-97.38515, 19.78992]]]}}, {"id": "1659615", "type": "Feature", "properties": {"id": "1659615", "CVEGEO": "2105400350179003", "POBTOT": 0.0, "score_nse": 0.0, "NSE": null, "VIVTOT": 0.0, "GRAPROES": 0.0, "_ent": "21", "_mun": "054", "_loc": "0035"}, "geometry": {"type": "Polygon", "coordinates": [[[-97.38411, 19.78957], [-97.38279, 19.7902], [-97.38189, 19.78976], [-97.38253, 19.78874], [-97.38411, 19.78957]]]}}, {"id": "1659640", "type": "Feature", "properties": {"id": "1659640", "CVEGEO": "2105400350179002", "POBTOT": 0.0, "score_nse": 0.0, "NSE": null, "VIVTOT": 0.0, "GRAPROES": 0.0, "_ent": "21", "_mun": "054", "_loc": "0035"}, "geometry": {"type": "Polygon", "coordinates": [[[-97.38618, 19.78878], [-97.38554, 19.78852], [-97.38563, 19.78775], [-97.38595, 19.78791], [-97.38617, 19.7877], [-97.38594, 19.78785], [-97.38565, 19.7877], [-97.386, 19.78633], [-97.38647, 19.78642], [-97.38601, 19.78629], [-97.38667, 19.78453], [-97.38757, 19.78394], [-97.38884, 19.78389], [-97.38985, 19.78344], [-97.38952, 19.78494], [-97.3889, 19.78532], [-97.38865, 19.78576], [-97.38822, 19.78568], [-97.38774, 19.78607], [-97.38804, 19.78639], [-97.38798, 19.78684], [-97.38654, 19.78809], [-97.38618, 19.78878]]]}}, {"id": "1659776", "type": "Feature", "properties": {"id": "1659776", "CVEGEO": "2105400350179004", "POBTOT": 0.0, "score_nse": 0.0, "NSE": null, "VIVTOT": 0.0, "GRAPROES": 0.0, "_ent": "21", "_mun": "054", "_loc": "0035"}, "geometry": {"type": "Polygon", "coordinates": [[[-97.38572, 19.787], [-97.3843, 19.78643], [-97.38509, 19.78534], [-97.38542, 19.78531], [-97.38649, 19.78471], [-97.38572, 19.787]]]}}, {"id": "1659777", "type": "Feature", "properties": {"id": "1659777", "CVEGEO": "2105400350179006", "POBTOT": 0.0, "score_nse": 0.0, "NSE": null, "VIVTOT": 0.0, "GRAPROES": 0.0, "_ent": "21", "_mun": "054", "_loc": "0035"}, "geometry": {"type": "Polygon", "coordinates": [[[-97.38483, 19.7899], [-97.38481, 19.79065], [-97.38368, 19.79103], [-97.38318, 19.79135], [-97.38235, 19.79157], [-97.38156, 19.79092], [-97.38187, 19.78987], [-97.38272, 19.79029], [-97.38419, 19.78963], [-97.38483, 19.7899]]]}}, {"id": "1659778", "type": "Feature", "properties": {"id": "1659778", "CVEGEO": "2105400350179005", "POBTOT": 0.0, "score_nse": 0.0, "NSE": null, "VIVTOT": 0.0, "GRAPROES": 0.0, "_ent": "21", "_mun": "054", "_loc": "0035"}, "geometry": {"type": "Polygon", "coordinates": [[[-97.3857, 19.78706], [-97.38548, 19.78845], [-97.38498, 19.78835], [-97.38414, 19.78952], [-97.38258, 19.7887], [-97.38353, 19.78721], [-97.38425, 19.78648], [-97.3857, 19.78706]]]}}, {"id": "1659779", "type": "Feature", "properties": {"id": "1659779", "CVEGEO": "2105400350179007", "POBTOT": 0.0, "score_nse": 0.0, "NSE": null, "VIVTOT": 0.0, "GRAPROES": 0.0, "_ent": "21", "_mun": "054", "_loc": "0035"}, "geometry": {"type": "Polygon", "coordinates": [[[-97.38614, 19.78886], [-97.38575, 19.78957], [-97.38592, 19.78994], [-97.3858, 19.79036], [-97.38561, 19.79039], [-97.38528, 19.78986], [-97.38554, 19.78862], [-97.38614, 19.78886]]]}}]}