{"type": "FeatureCollection", "features": [{"id": "2370921", "type": "Feature", "properties": {"id": "2370921", "CVEGEO": "3015900180019003", "POBTOT": 0.0, "score_nse": 0.0, "NSE": null, "VIVTOT": 0.0, "GRAPROES": 0.0, "_ent": "30", "_mun": "159", "_loc": "0018"}, "geometry": {"type": "Polygon", "coordinates": [[[-97.09278, 18.51534], [-97.09225, 18.51532], [-97.09151, 18.51482], [-97.09063, 18.51469], [-97.09145, 18.51333], [-97.09203, 18.51344], [-97.0931, 18.51334], [-97.09241, 18.5144], [-97.09263, 18.51489], [-97.09304, 18.51511], [-97.09278, 18.51534]]]}}, {"id": "2370922", "type": "Feature", "properties": {"id": "2370922", "CVEGEO": "3015900180019001", "POBTOT": 0.0, "score_nse": 0.0, "NSE": null, "VIVTOT": 0.0, "GRAPROES": 0.0, "_ent": "30", "_mun": "159", "_loc": "0018"}, "geometry": {"type": "Polygon", "coordinates": [[[-97.09881, 18.51092], [-97.09829, 18.51157], [-97.09782, 18.51138], [-97.0984, 18.51095], [-97.09881, 18.51092]]]}}, {"id": "2370981", "type": "Feature", "properties": {"id": "2370981", "CVEGEO": "3015900180019002", "POBTOT": 0.0, "score_nse": 0.0, "NSE": null, "VIVTOT": 0.0, "GRAPROES": 0.0, "_ent": "30", "_mun": "159", "_loc": "0018"}, "geometry": {"type": "Polygon", "coordinates": [[[-97.09669, 18.51188], [-97.0971, 18.51159], [-97.09774, 18.51149], [-97.09819, 18.51164], [-97.09801, 18.51254], [-97.09669, 18.51188]]]}}]}