{"type": "FeatureCollection", "features": [{"id": "411310", "type": "Feature", "properties": {"id": "411310", "CVEGEO": "0803101091143002", "POBTOT": 0.0, "score_nse": 0.0, "NSE": null, "VIVTOT": 0.0, "GRAPROES": 0.0, "_ent": "08", "_mun": "031", "_loc": "0109"}, "geometry": {"type": "Polygon", "coordinates": [[[-107.7628, 28.09477], [-107.76281, 28.09456], [-107.76254, 28.09457], [-107.76257, 28.09437], [-107.76327, 28.09419], [-107.76324, 28.09479], [-107.7628, 28.09477]]]}}, {"id": "411311", "type": "Feature", "properties": {"id": "411311", "CVEGEO": "0803101091143001", "POBTOT": 0.0, "score_nse": 0.0, "NSE": null, "VIVTOT": 0.0, "GRAPROES": 0.0, "_ent": "08", "_mun": "031", "_loc": "0109"}, "geometry": {"type": "Polygon", "coordinates": [[[-107.76358, 28.09576], [-107.7633, 28.09502], [-107.76342, 28.09409], [-107.76516, 28.09355], [-107.7657, 28.09398], [-107.76569, 28.09442], [-107.76538, 28.09482], [-107.76427, 28.09508], [-107.76358, 28.09576]]]}}, {"id": "412302", "type": "Feature", "properties": {"id": "412302", "CVEGEO": "0803101091143006", "POBTOT": 0.0, "score_nse": 0.0, "NSE": null, "VIVTOT": 0.0, "GRAPROES": 0.0, "_ent": "08", "_mun": "031", "_loc": "0109"}, "geometry": {"type": "Polygon", "coordinates": [[[-107.76166, 28.09695], [-107.76163, 28.09651], [-107.76197, 28.0965], [-107.76199, 28.09694], [-107.76166, 28.09695]]]}}, {"id": "412303", "type": "Feature", "properties": {"id": "412303", "CVEGEO": "0803101091143004", "POBTOT": 0.0, "score_nse": 0.0, "NSE": null, "VIVTOT": 0.0, "GRAPROES": 0.0, "_ent": "08", "_mun": "031", "_loc": "0109"}, "geometry": {"type": "Polygon", "coordinates": [[[-107.76749, 28.09114], [-107.76838, 28.09325], [-107.76797, 28.09358], [-107.76672, 28.09359], [-107.7665, 28.09391], [-107.76538, 28.09293], [-107.76271, 28.09188], [-107.76205, 28.09141], [-107.76225, 28.09102], [-107.76275, 28.09085], [-107.76407, 28.09103], [-107.76506, 28.09099], [-107.76609, 28.09132], [-107.76711, 28.091], [-107.76749, 28.09114]]]}}, {"id": "412304", "type": "Feature", "properties": {"id": "412304", "CVEGEO": "0803101091143003", "POBTOT": 0.0, "score_nse": 0.0, "NSE": null, "VIVTOT": 0.0, "GRAPROES": 0.0, "_ent": "08", "_mun": "031", "_loc": "0109"}, "geometry": {"type": "Polygon", "coordinates": [[[-107.76503, 28.09348], [-107.76133, 28.0946], [-107.76097, 28.09462], [-107.76053, 28.09437], [-107.76055, 28.09416], [-107.76101, 28.09381], [-107.76096, 28.09259], [-107.76115, 28.09216], [-107.76193, 28.09122], [-107.76199, 28.09162], [-107.76224, 28.09181], [-107.76502, 28.09304], [-107.76503, 28.09348]]]}}, {"id": "412318", "type": "Feature", "properties": {"id": "412318", "CVEGEO": "0803101091143005", "POBTOT": 0.0, "score_nse": 0.0, "NSE": null, "VIVTOT": 0.0, "GRAPROES": 0.0, "_ent": "08", "_mun": "031", "_loc": "0109"}, "geometry": {"type": "Polygon", "coordinates": [[[-107.76348, 28.0963], [-107.76325, 28.09622], [-107.76317, 28.09531], [-107.7635, 28.09586], [-107.76348, 28.0963]]]}}]}