{"type": "FeatureCollection", "features": [{"id": "1155353", "type": "Feature", "properties": {"id": "1155353", "CVEGEO": "1508800120097003", "POBTOT": 0.0, "score_nse": 0.0, "NSE": null, "VIVTOT": 0.0, "GRAPROES": 0.0, "_ent": "15", "_mun": "088", "_loc": "0012"}, "geometry": {"type": "Polygon", "coordinates": [[[-99.58322, 18.99158], [-99.58198, 18.99121], [-99.58197, 18.99145], [-99.58114, 18.99137], [-99.58126, 18.98894], [-99.58163, 18.98843], [-99.58272, 18.98837], [-99.58289, 18.9894], [-99.58258, 18.98918], [-99.5829, 18.98948], [-99.58312, 18.99076], [-99.58236, 18.99033], [-99.58314, 18.99083], [-99.58322, 18.99158]]]}}, {"id": "1155354", "type": "Feature", "properties": {"id": "1155354", "CVEGEO": "1508800120097002", "POBTOT": 0.0, "score_nse": 0.0, "NSE": null, "VIVTOT": 0.0, "GRAPROES": 0.0, "_ent": "15", "_mun": "088", "_loc": "0012"}, "geometry": {"type": "Polygon", "coordinates": [[[-99.58158, 18.99499], [-99.58069, 18.99489], [-99.58065, 18.99538], [-99.58075, 18.99496], [-99.58158, 18.99505], [-99.58136, 18.99724], [-99.57971, 18.99713], [-99.57942, 18.99698], [-99.57974, 18.99369], [-99.58047, 18.99327], [-99.58177, 18.99333], [-99.58158, 18.99499]]]}}, {"id": "1155355", "type": "Feature", "properties": {"id": "1155355", "CVEGEO": "1508800120097001", "POBTOT": 0.0, "score_nse": 0.0, "NSE": null, "VIVTOT": 0.0, "GRAPROES": 0.0, "_ent": "15", "_mun": "088", "_loc": "0012"}, "geometry": {"type": "Polygon", "coordinates": [[[-99.58294, 18.99478], [-99.58305, 18.99166], [-99.5843, 18.99212], [-99.58472, 18.99269], [-99.5848, 18.99331], [-99.58419, 18.99428], [-99.58419, 18.99492], [-99.58294, 18.99478]]]}}, {"id": "1155395", "type": "Feature", "properties": {"id": "1155395", "CVEGEO": "1508800120097006", "POBTOT": 0.0, "score_nse": 0.0, "NSE": null, "VIVTOT": 0.0, "GRAPROES": 0.0, "_ent": "15", "_mun": "088", "_loc": "0012"}, "geometry": {"type": "Polygon", "coordinates": [[[-99.58279, 18.99735], [-99.58139, 18.99724], [-99.58169, 18.99469], [-99.58286, 18.99484], [-99.58279, 18.99735]]]}}, {"id": "1155571", "type": "Feature", "properties": {"id": "1155571", "CVEGEO": "1508800120097011", "POBTOT": 0.0, "score_nse": 0.0, "NSE": null, "VIVTOT": 0.0, "GRAPROES": 0.0, "_ent": "15", "_mun": "088", "_loc": "0012"}, "geometry": {"type": "Polygon", "coordinates": [[[-99.57873, 18.99407], [-99.57853, 18.99324], [-99.57859, 18.99291], [-99.57814, 18.99099], [-99.57892, 18.99101], [-99.57921, 18.99249], [-99.57942, 18.99261], [-99.57924, 18.99309], [-99.57963, 18.99352], [-99.57873, 18.99407]]]}}, {"id": "1155572", "type": "Feature", "properties": {"id": "1155572", "CVEGEO": "1508800120097010", "POBTOT": 0.0, "score_nse": 0.0, "NSE": null, "VIVTOT": 0.0, "GRAPROES": 0.0, "_ent": "15", "_mun": "088", "_loc": "0012"}, "geometry": {"type": "Polygon", "coordinates": [[[-99.58303, 18.9916], [-99.58294, 18.99328], [-99.58052, 18.99315], [-99.58108, 18.99261], [-99.58108, 18.99166], [-99.58122, 18.99144], [-99.58206, 18.99148], [-99.58207, 18.9913], [-99.58295, 18.99155], [-99.58273, 18.99207], [-99.58278, 18.99214], [-99.58303, 18.9916]]]}}, {"id": "1155580", "type": "Feature", "properties": {"id": "1155580", "CVEGEO": "1508800120097008", "POBTOT": 0.0, "score_nse": 0.0, "NSE": null, "VIVTOT": 0.0, "GRAPROES": 0.0, "_ent": "15", "_mun": "088", "_loc": "0012"}, "geometry": {"type": "Polygon", "coordinates": [[[-99.58183, 18.99332], [-99.58294, 18.99338], [-99.58287, 18.99477], [-99.5817, 18.99463], [-99.58183, 18.99332]]]}}, {"id": "1155726", "type": "Feature", "properties": {"id": "1155726", "CVEGEO": "1508800120097012", "POBTOT": 0.0, "score_nse": 0.0, "NSE": null, "VIVTOT": 0.0, "GRAPROES": 0.0, "_ent": "15", "_mun": "088", "_loc": "0012"}, "geometry": {"type": "Polygon", "coordinates": [[[-99.58078, 18.991], [-99.58107, 18.99146], [-99.58101, 18.99261], [-99.5797, 18.99359], [-99.5793, 18.99308], [-99.57948, 18.99255], [-99.57925, 18.99247], [-99.57896, 18.99101], [-99.58037, 18.99113], [-99.58078, 18.991]]]}}, {"id": "1155727", "type": "Feature", "properties": {"id": "1155727", "CVEGEO": "1508800120097013", "POBTOT": 0.0, "score_nse": 0.0, "NSE": null, "VIVTOT": 0.0, "GRAPROES": 0.0, "_ent": "15", "_mun": "088", "_loc": "0012"}, "geometry": {"type": "Polygon", "coordinates": [[[-99.57955, 18.99372], [-99.5794, 18.99588], [-99.57831, 18.99569], [-99.57874, 18.99419], [-99.57955, 18.99372]]]}}]}