{"type": "FeatureCollection", "features": [{"id": "1161894", "type": "Feature", "properties": {"id": "1161894", "CVEGEO": "1509900161173006", "POBTOT": 0.0, "score_nse": 0.0, "NSE": "ND", "VIVTOT": 0.0, "GRAPROES": 0.0, "_ent": "15", "_mun": "099", "_loc": "0016"}, "geometry": {"type": "Polygon", "coordinates": [[[-98.82659, 19.52857], [-98.82652, 19.52836], [-98.82746, 19.52765], [-98.82766, 19.5278], [-98.82659, 19.52857]]]}}, {"id": "1161906", "type": "Feature", "properties": {"id": "1161906", "CVEGEO": "1509900160870058", "POBTOT": 5.0, "score_nse": 0.0, "NSE": "ND", "VIVTOT": 2.0, "GRAPROES": 0.0, "_ent": "15", "_mun": "099", "_loc": "0016"}, "geometry": {"type": "Polygon", "coordinates": [[[-98.8241, 19.53182], [-98.82364, 19.53051], [-98.8244, 19.53154], [-98.8241, 19.53182]]]}}, {"id": "1161956", "type": "Feature", "properties": {"id": "1161956", "CVEGEO": "1509900160870057", "POBTOT": 9.0, "score_nse": 0.0, "NSE": "ND", "VIVTOT": 3.0, "GRAPROES": 9.8, "_ent": "15", "_mun": "099", "_loc": "0016"}, "geometry": {"type": "Polygon", "coordinates": [[[-98.82675, 19.53073], [-98.82716, 19.53087], [-98.82784, 19.53117], [-98.82699, 19.5316], [-98.82675, 19.53073]]]}}, {"id": "1161957", "type": "Feature", "properties": {"id": "1161957", "CVEGEO": "1509900160870027", "POBTOT": 22.0, "score_nse": 0.0, "NSE": "ND", "VIVTOT": 6.0, "GRAPROES": 11.38, "_ent": "15", "_mun": "099", "_loc": "0016"}, "geometry": {"type": "Polygon", "coordinates": [[[-98.81958, 19.5273], [-98.81972, 19.52702], [-98.81958, 19.52696], [-98.81977, 19.52662], [-98.82081, 19.52722], [-98.82044, 19.52775], [-98.81958, 19.5273]]]}}, {"id": "1161958", "type": "Feature", "properties": {"id": "1161958", "CVEGEO": "1509900160870025", "POBTOT": 61.0, "score_nse": 71.5733, "NSE": "C+", "VIVTOT": 24.0, "GRAPROES": 13.2, "_ent": "15", "_mun": "099", "_loc": "0016"}, "geometry": {"type": "Polygon", "coordinates": [[[-98.81904, 19.52607], [-98.82012, 19.52475], [-98.82191, 19.52572], [-98.82094, 19.52717], [-98.81904, 19.52607]]]}}, {"id": "1161980", "type": "Feature", "properties": {"id": "1161980", "CVEGEO": "1509900160870053", "POBTOT": 9.0, "score_nse": 0.0, "NSE": "ND", "VIVTOT": 2.0, "GRAPROES": 0.0, "_ent": "15", "_mun": "099", "_loc": "0016"}, "geometry": {"type": "Polygon", "coordinates": [[[-98.81611, 19.52171], [-98.81644, 19.52137], [-98.81698, 19.52123], [-98.81729, 19.52269], [-98.81611, 19.52171]]]}}, {"id": "1161981", "type": "Feature", "properties": {"id": "1161981", "CVEGEO": "1509900160870042", "POBTOT": 76.0, "score_nse": 0.0, "NSE": "ND", "VIVTOT": 27.0, "GRAPROES": 9.42, "_ent": "15", "_mun": "099", "_loc": "0016"}, "geometry": {"type": "Polygon", "coordinates": [[[-98.82538, 19.53207], [-98.82548, 19.5323], [-98.82519, 19.53248], [-98.82364, 19.53035], [-98.82343, 19.529], [-98.82397, 19.52931], [-98.82394, 19.52958], [-98.82401, 19.52933], [-98.82441, 19.52966], [-98.82538, 19.53079], [-98.82546, 19.53095], [-98.82526, 19.53103], [-98.8249, 19.53098], [-98.82511, 19.53112], [-98.82549, 19.53101], [-98.82596, 19.53197], [-98.82576, 19.5321], [-98.82556, 19.53187], [-98.82573, 19.53212], [-98.82552, 19.53227], [-98.82538, 19.53207]]]}}, {"id": "1161982", "type": "Feature", "properties": {"id": "1161982", "CVEGEO": "1509900160870034", "POBTOT": 42.0, "score_nse": 62.7, "NSE": "C", "VIVTOT": 10.0, "GRAPROES": 9.65, "_ent": "15", "_mun": "099", "_loc": "0016"}, "geometry": {"type": "Polygon", "coordinates": [[[-98.82259, 19.53043], [-98.82167, 19.52962], [-98.82221, 19.52805], [-98.82237, 19.52835], [-98.82221, 19.52953], [-98.82309, 19.53067], [-98.82259, 19.53043]]]}}, {"id": "1161983", "type": "Feature", "properties": {"id": "1161983", "CVEGEO": "1509900160870033", "POBTOT": 68.0, "score_nse": 0.0, "NSE": "ND", "VIVTOT": 23.0, "GRAPROES": 10.66, "_ent": "15", "_mun": "099", "_loc": "0016"}, "geometry": {"type": "Polygon", "coordinates": [[[-98.82071, 19.52854], [-98.82046, 19.52843], [-98.82045, 19.52828], [-98.82061, 19.52832], [-98.82031, 19.5281], [-98.82088, 19.52725], [-98.82176, 19.52775], [-98.8217, 19.52793], [-98.82178, 19.52811], [-98.82179, 19.52778], [-98.82214, 19.528], [-98.82164, 19.52965], [-98.82044, 19.52911], [-98.82046, 19.52847], [-98.82071, 19.52854]]]}}, {"id": "1161984", "type": "Feature", "properties": {"id": "1161984", "CVEGEO": "1509900160870032", "POBTOT": 29.0, "score_nse": 62.2733, "NSE": "C", "VIVTOT": 6.0, "GRAPROES": 9.64, "_ent": "15", "_mun": "099", "_loc": "0016"}, "geometry": {"type": "Polygon", "coordinates": [[[-98.82216, 19.52792], [-98.82101, 19.52724], [-98.82136, 19.52671], [-98.82263, 19.5273], [-98.82216, 19.52792]]]}}, {"id": "1162067", "type": "Feature", "properties": {"id": "1162067", "CVEGEO": "1509900160870061", "POBTOT": 47.0, "score_nse": 59.166, "NSE": "C", "VIVTOT": 20.0, "GRAPROES": 10.16, "_ent": "15", "_mun": "099", "_loc": "0016"}, "geometry": {"type": "Polygon", "coordinates": [[[-98.82609, 19.52763], [-98.82621, 19.52782], [-98.8265, 19.52859], [-98.8261, 19.52863], [-98.82562, 19.52752], [-98.82609, 19.52763]]]}}, {"id": "1162068", "type": "Feature", "properties": {"id": "1162068", "CVEGEO": "1509900161046004", "POBTOT": 92.0, "score_nse": 56.491, "NSE": "C", "VIVTOT": 33.0, "GRAPROES": 9.83, "_ent": "15", "_mun": "099", "_loc": "0016"}, "geometry": {"type": "Polygon", "coordinates": [[[-98.81098, 19.517], [-98.81086, 19.51675], [-98.81139, 19.51654], [-98.81239, 19.51695], [-98.81228, 19.51728], [-98.81245, 19.51697], [-98.81418, 19.51775], [-98.81273, 19.51978], [-98.81248, 19.51982], [-98.81185, 19.5189], [-98.81118, 19.51826], [-98.81081, 19.51734], [-98.81107, 19.51732], [-98.81043, 19.51703], [-98.8108, 19.51677], [-98.81098, 19.517]]]}}, {"id": "1162069", "type": "Feature", "properties": {"id": "1162069", "CVEGEO": "1509900160870029", "POBTOT": 67.0, "score_nse": 65.648, "NSE": "C", "VIVTOT": 22.0, "GRAPROES": 10.28, "_ent": "15", "_mun": "099", "_loc": "0016"}, "geometry": {"type": "Polygon", "coordinates": [[[-98.8248, 19.52175], [-98.82545, 19.52165], [-98.82421, 19.52295], [-98.82367, 19.52255], [-98.82368, 19.52226], [-98.82324, 19.52187], [-98.82365, 19.52145], [-98.82515, 19.5209], [-98.82588, 19.52117], [-98.8254, 19.5212], [-98.82586, 19.52123], [-98.82412, 19.52178], [-98.8257, 19.52139], [-98.82553, 19.52157], [-98.8248, 19.52175]]]}}, {"id": "1162070", "type": "Feature", "properties": {"id": "1162070", "CVEGEO": "1509900160870007", "POBTOT": 12.0, "score_nse": 0.0, "NSE": "ND", "VIVTOT": 8.0, "GRAPROES": 12.9, "_ent": "15", "_mun": "099", "_loc": "0016"}, "geometry": {"type": "Polygon", "coordinates": [[[-98.81615, 19.52464], [-98.815, 19.52369], [-98.81532, 19.52325], [-98.81652, 19.52419], [-98.81615, 19.52464]]]}}, {"id": "1162071", "type": "Feature", "properties": {"id": "1162071", "CVEGEO": "1509900160870006", "POBTOT": 34.0, "score_nse": 67.4502, "NSE": "C", "VIVTOT": 13.0, "GRAPROES": 12.42, "_ent": "15", "_mun": "099", "_loc": "0016"}, "geometry": {"type": "Polygon", "coordinates": [[[-98.81766, 19.52575], [-98.81634, 19.52496], [-98.81613, 19.52511], [-98.81568, 19.52496], [-98.81603, 19.52486], [-98.81657, 19.52422], [-98.81799, 19.52527], [-98.81766, 19.52575]]]}}, {"id": "1162072", "type": "Feature", "properties": {"id": "1162072", "CVEGEO": "1509900160870005", "POBTOT": 0.0, "score_nse": 0.0, "NSE": "ND", "VIVTOT": 0.0, "GRAPROES": 0.0, "_ent": "15", "_mun": "099", "_loc": "0016"}, "geometry": {"type": "Polygon", "coordinates": [[[-98.81791, 19.52555], [-98.81807, 19.52531], [-98.81897, 19.52583], [-98.81896, 19.52608], [-98.81791, 19.52555]]]}}, {"id": "1162073", "type": "Feature", "properties": {"id": "1162073", "CVEGEO": "1509900160870003", "POBTOT": 81.0, "score_nse": 0.0, "NSE": "ND", "VIVTOT": 26.0, "GRAPROES": 11.25, "_ent": "15", "_mun": "099", "_loc": "0016"}, "geometry": {"type": "Polygon", "coordinates": [[[-98.81802, 19.5232], [-98.81739, 19.52283], [-98.81704, 19.52122], [-98.81858, 19.52124], [-98.81926, 19.52094], [-98.81995, 19.52029], [-98.82079, 19.52024], [-98.82023, 19.52059], [-98.81802, 19.5232]]]}}, {"id": "1162074", "type": "Feature", "properties": {"id": "1162074", "CVEGEO": "1509900160870002", "POBTOT": 32.0, "score_nse": 60.8935, "NSE": "C", "VIVTOT": 16.0, "GRAPROES": 11.22, "_ent": "15", "_mun": "099", "_loc": "0016"}, "geometry": {"type": "Polygon", "coordinates": [[[-98.81731, 19.52307], [-98.81683, 19.52355], [-98.81659, 19.52414], [-98.81496, 19.52286], [-98.81608, 19.52175], [-98.81731, 19.52277], [-98.81731, 19.52307]]]}}, {"id": "1162176", "type": "Feature", "properties": {"id": "1162176", "CVEGEO": "1509900160870019", "POBTOT": 22.0, "score_nse": 0.0, "NSE": "ND", "VIVTOT": 6.0, "GRAPROES": 11.95, "_ent": "15", "_mun": "099", "_loc": "0016"}, "geometry": {"type": "Polygon", "coordinates": [[[-98.81175, 19.52275], [-98.81033, 19.52188], [-98.81126, 19.5209], [-98.81259, 19.52209], [-98.81179, 19.52233], [-98.81175, 19.52275]]]}}, {"id": "1162364", "type": "Feature", "properties": {"id": "1162364", "CVEGEO": "150990016114A003", "POBTOT": 44.0, "score_nse": 62.533, "NSE": "C", "VIVTOT": 16.0, "GRAPROES": 11.38, "_ent": "15", "_mun": "099", "_loc": "0016"}, "geometry": {"type": "Polygon", "coordinates": [[[-98.81676, 19.52699], [-98.81729, 19.52641], [-98.81794, 19.52692], [-98.81707, 19.5279], [-98.81655, 19.52902], [-98.81522, 19.52847], [-98.81459, 19.52793], [-98.81514, 19.52774], [-98.81498, 19.52752], [-98.81546, 19.52697], [-98.81643, 19.52736], [-98.81637, 19.52763], [-98.81649, 19.52737], [-98.81668, 19.5274], [-98.81676, 19.52699]]]}}, {"id": "1162365", "type": "Feature", "properties": {"id": "1162365", "CVEGEO": "1509900160870052", "POBTOT": 67.0, "score_nse": 61.4995, "NSE": "C", "VIVTOT": 16.0, "GRAPROES": 9.55, "_ent": "15", "_mun": "099", "_loc": "0016"}, "geometry": {"type": "Polygon", "coordinates": [[[-98.82546, 19.53365], [-98.82481, 19.53277], [-98.82516, 19.53256], [-98.82579, 19.53342], [-98.82546, 19.53365]]]}}, {"id": "1162366", "type": "Feature", "properties": {"id": "1162366", "CVEGEO": "1509900160870051", "POBTOT": 42.0, "score_nse": 56.6302, "NSE": "C", "VIVTOT": 11.0, "GRAPROES": 8.67, "_ent": "15", "_mun": "099", "_loc": "0016"}, "geometry": {"type": "Polygon", "coordinates": [[[-98.82584, 19.5334], [-98.82521, 19.53253], [-98.8255, 19.53236], [-98.82619, 19.53321], [-98.82584, 19.5334]]]}}, {"id": "1162368", "type": "Feature", "properties": {"id": "1162368", "CVEGEO": "1509900160870050", "POBTOT": 41.0, "score_nse": 0.0, "NSE": "ND", "VIVTOT": 13.0, "GRAPROES": 10.03, "_ent": "15", "_mun": "099", "_loc": "0016"}, "geometry": {"type": "Polygon", "coordinates": [[[-98.82558, 19.53231], [-98.82599, 19.53203], [-98.82675, 19.53299], [-98.82625, 19.53318], [-98.82558, 19.53231]]]}}, {"id": "1162369", "type": "Feature", "properties": {"id": "1162369", "CVEGEO": "1509900160870049", "POBTOT": 66.0, "score_nse": 57.2817, "NSE": "C", "VIVTOT": 23.0, "GRAPROES": 9.54, "_ent": "15", "_mun": "099", "_loc": "0016"}, "geometry": {"type": "Polygon", "coordinates": [[[-98.82606, 19.53199], [-98.8265, 19.53176], [-98.82725, 19.53271], [-98.82683, 19.53296], [-98.82606, 19.53199]]]}}, {"id": "1162370", "type": "Feature", "properties": {"id": "1162370", "CVEGEO": "1509900160870045", "POBTOT": 58.0, "score_nse": 0.0, "NSE": "ND", "VIVTOT": 20.0, "GRAPROES": 10.7, "_ent": "15", "_mun": "099", "_loc": "0016"}, "geometry": {"type": "Polygon", "coordinates": [[[-98.83046, 19.53131], [-98.82916, 19.53326], [-98.82825, 19.53315], [-98.8277, 19.53327], [-98.82655, 19.53173], [-98.82693, 19.53171], [-98.82788, 19.53121], [-98.82791, 19.53153], [-98.82792, 19.53121], [-98.82831, 19.53134], [-98.82937, 19.53117], [-98.82936, 19.53157], [-98.82941, 19.53116], [-98.83015, 19.53115], [-98.83046, 19.53131]]]}}, {"id": "1162372", "type": "Feature", "properties": {"id": "1162372", "CVEGEO": "1509900160870018", "POBTOT": 48.0, "score_nse": 0.0, "NSE": "ND", "VIVTOT": 19.0, "GRAPROES": 9.07, "_ent": "15", "_mun": "099", "_loc": "0016"}, "geometry": {"type": "Polygon", "coordinates": [[[-98.8107, 19.52217], [-98.81161, 19.52268], [-98.81123, 19.5231], [-98.81165, 19.5227], [-98.8125, 19.52353], [-98.81222, 19.52381], [-98.81189, 19.52356], [-98.81162, 19.52358], [-98.81085, 19.5228], [-98.81109, 19.52323], [-98.81064, 19.52307], [-98.81092, 19.5233], [-98.81124, 19.52329], [-98.81155, 19.52365], [-98.81187, 19.52363], [-98.81248, 19.52419], [-98.81296, 19.52426], [-98.81365, 19.52477], [-98.81237, 19.52602], [-98.81133, 19.52422], [-98.8098, 19.5226], [-98.80993, 19.52242], [-98.81016, 19.52255], [-98.80995, 19.52239], [-98.81032, 19.52195], [-98.81066, 19.52215], [-98.81045, 19.5224], [-98.81046, 19.52247], [-98.81067, 19.52245], [-98.81056, 19.52234], [-98.8107, 19.52217]]]}}, {"id": "1162373", "type": "Feature", "properties": {"id": "1162373", "CVEGEO": "1509900160870031", "POBTOT": 90.0, "score_nse": 63.107, "NSE": "C", "VIVTOT": 37.0, "GRAPROES": 11.16, "_ent": "15", "_mun": "099", "_loc": "0016"}, "geometry": {"type": "Polygon", "coordinates": [[[-98.82146, 19.52651], [-98.82292, 19.52459], [-98.82339, 19.52492], [-98.82266, 19.52579], [-98.82342, 19.52494], [-98.8236, 19.52507], [-98.82307, 19.52576], [-98.82365, 19.5251], [-98.82406, 19.52538], [-98.82366, 19.52597], [-98.82413, 19.52542], [-98.82436, 19.52558], [-98.82414, 19.52628], [-98.82298, 19.52694], [-98.82269, 19.52733], [-98.82138, 19.52666], [-98.82214, 19.52619], [-98.82146, 19.52651]]]}}, {"id": "1162374", "type": "Feature", "properties": {"id": "1162374", "CVEGEO": "1509900160870017", "POBTOT": 62.0, "score_nse": 74.563, "NSE": "C+", "VIVTOT": 16.0, "GRAPROES": 12.67, "_ent": "15", "_mun": "099", "_loc": "0016"}, "geometry": {"type": "Polygon", "coordinates": [[[-98.81391, 19.52454], [-98.8119, 19.52298], [-98.81178, 19.52254], [-98.81213, 19.52225], [-98.81262, 19.52213], [-98.81316, 19.52254], [-98.81291, 19.52288], [-98.8132, 19.52259], [-98.81349, 19.52288], [-98.81345, 19.52302], [-98.81397, 19.52285], [-98.8147, 19.52348], [-98.8143, 19.52388], [-98.81474, 19.52351], [-98.81492, 19.52367], [-98.81391, 19.52454]]]}}, {"id": "1162376", "type": "Feature", "properties": {"id": "1162376", "CVEGEO": "1509900160870016", "POBTOT": 5.0, "score_nse": 0.0, "NSE": "ND", "VIVTOT": 2.0, "GRAPROES": 0.0, "_ent": "15", "_mun": "099", "_loc": "0016"}, "geometry": {"type": "Polygon", "coordinates": [[[-98.81568, 19.52491], [-98.8147, 19.52428], [-98.81443, 19.52419], [-98.81496, 19.5237], [-98.81613, 19.52467], [-98.81568, 19.52491]]]}}, {"id": "1162377", "type": "Feature", "properties": {"id": "1162377", "CVEGEO": "1509900160870001", "POBTOT": 64.0, "score_nse": 53.9947, "NSE": "C-", "VIVTOT": 15.0, "GRAPROES": 10.43, "_ent": "15", "_mun": "099", "_loc": "0016"}, "geometry": {"type": "Polygon", "coordinates": [[[-98.81686, 19.52363], [-98.81741, 19.52306], [-98.81789, 19.52476], [-98.8177, 19.52499], [-98.81663, 19.52417], [-98.81686, 19.52363]]]}}, {"id": "1162597", "type": "Feature", "properties": {"id": "1162597", "CVEGEO": "1509900161173001", "POBTOT": 12.0, "score_nse": 0.0, "NSE": "ND", "VIVTOT": 10.0, "GRAPROES": 9.91, "_ent": "15", "_mun": "099", "_loc": "0016"}, "geometry": {"type": "Polygon", "coordinates": [[[-98.83647, 19.53032], [-98.834, 19.53321], [-98.83042, 19.53116], [-98.83054, 19.53087], [-98.83038, 19.53114], [-98.82842, 19.53007], [-98.82701, 19.5295], [-98.82662, 19.52866], [-98.8277, 19.52783], [-98.82853, 19.52817], [-98.83269, 19.52857], [-98.83401, 19.52886], [-98.83459, 19.52937], [-98.83478, 19.52976], [-98.83647, 19.53032]]]}}, {"id": "1162598", "type": "Feature", "properties": {"id": "1162598", "CVEGEO": "1509900161169001", "POBTOT": 20.0, "score_nse": 0.0, "NSE": "ND", "VIVTOT": 11.0, "GRAPROES": 10.33, "_ent": "15", "_mun": "099", "_loc": "0016"}, "geometry": {"type": "Polygon", "coordinates": [[[-98.82537, 19.52094], [-98.82411, 19.52027], [-98.82516, 19.51894], [-98.82778, 19.52033], [-98.82705, 19.52145], [-98.82537, 19.52094]]]}}, {"id": "1162599", "type": "Feature", "properties": {"id": "1162599", "CVEGEO": "150990016114A005", "POBTOT": 78.0, "score_nse": 50.916, "NSE": "C-", "VIVTOT": 25.0, "GRAPROES": 9.14, "_ent": "15", "_mun": "099", "_loc": "0016"}, "geometry": {"type": "Polygon", "coordinates": [[[-98.81507, 19.52643], [-98.81543, 19.52695], [-98.81492, 19.52753], [-98.8151, 19.52768], [-98.81458, 19.52789], [-98.81356, 19.52714], [-98.81248, 19.526], [-98.8136, 19.52489], [-98.81455, 19.52599], [-98.8142, 19.52625], [-98.81398, 19.52653], [-98.8146, 19.52601], [-98.8148, 19.52621], [-98.81458, 19.52648], [-98.81483, 19.52624], [-98.81504, 19.5264], [-98.81489, 19.5266], [-98.81507, 19.52643]]]}}, {"id": "1162708", "type": "Feature", "properties": {"id": "1162708", "CVEGEO": "1509900161046008", "POBTOT": 42.0, "score_nse": 0.0, "NSE": "ND", "VIVTOT": 12.0, "GRAPROES": 9.74, "_ent": "15", "_mun": "099", "_loc": "0016"}, "geometry": {"type": "Polygon", "coordinates": [[[-98.81246, 19.5162], [-98.81061, 19.51679], [-98.8098, 19.51751], [-98.8094, 19.51765], [-98.80758, 19.51744], [-98.80762, 19.51707], [-98.80865, 19.51703], [-98.80912, 19.51732], [-98.80944, 19.51734], [-98.81047, 19.51644], [-98.81145, 19.51602], [-98.81216, 19.51599], [-98.81246, 19.5162]]]}}, {"id": "1162709", "type": "Feature", "properties": {"id": "1162709", "CVEGEO": "1509900161046005", "POBTOT": 99.0, "score_nse": 63.4422, "NSE": "C", "VIVTOT": 32.0, "GRAPROES": 10.78, "_ent": "15", "_mun": "099", "_loc": "0016"}, "geometry": {"type": "Polygon", "coordinates": [[[-98.81538, 19.51855], [-98.81595, 19.51741], [-98.81667, 19.52015], [-98.81634, 19.5203], [-98.81625, 19.52006], [-98.81581, 19.52011], [-98.81356, 19.51869], [-98.81541, 19.51635], [-98.81525, 19.5171], [-98.81549, 19.51653], [-98.81591, 19.51733], [-98.81538, 19.51855]]]}}, {"id": "1162710", "type": "Feature", "properties": {"id": "1162710", "CVEGEO": "1509900160870056", "POBTOT": 0.0, "score_nse": 0.0, "NSE": "ND", "VIVTOT": 0.0, "GRAPROES": 0.0, "_ent": "15", "_mun": "099", "_loc": "0016"}, "geometry": {"type": "Polygon", "coordinates": [[[-98.82692, 19.53167], [-98.82652, 19.53169], [-98.82497, 19.53022], [-98.82667, 19.53071], [-98.82692, 19.53167]]]}}, {"id": "1162711", "type": "Feature", "properties": {"id": "1162711", "CVEGEO": "1509900160870054", "POBTOT": 68.0, "score_nse": 58.688, "NSE": "C", "VIVTOT": 20.0, "GRAPROES": 9.71, "_ent": "15", "_mun": "099", "_loc": "0016"}, "geometry": {"type": "Polygon", "coordinates": [[[-98.81524, 19.52631], [-98.81514, 19.52641], [-98.81489, 19.52621], [-98.81465, 19.52599], [-98.81487, 19.52581], [-98.81463, 19.52597], [-98.8138, 19.52504], [-98.8139, 19.52496], [-98.81365, 19.52489], [-98.81424, 19.52438], [-98.81571, 19.52588], [-98.81529, 19.52657], [-98.81524, 19.52631]]]}}, {"id": "1162712", "type": "Feature", "properties": {"id": "1162712", "CVEGEO": "1509900160870043", "POBTOT": 51.0, "score_nse": 57.792, "NSE": "C", "VIVTOT": 14.0, "GRAPROES": 9.43, "_ent": "15", "_mun": "099", "_loc": "0016"}, "geometry": {"type": "Polygon", "coordinates": [[[-98.82478, 19.53273], [-98.82411, 19.53186], [-98.82443, 19.53156], [-98.82514, 19.53251], [-98.82478, 19.53273]]]}}, {"id": "1162713", "type": "Feature", "properties": {"id": "1162713", "CVEGEO": "1509900160870038", "POBTOT": 53.0, "score_nse": 58.073, "NSE": "C", "VIVTOT": 16.0, "GRAPROES": 10.18, "_ent": "15", "_mun": "099", "_loc": "0016"}, "geometry": {"type": "Polygon", "coordinates": [[[-98.82637, 19.52804], [-98.82707, 19.52749], [-98.82742, 19.5276], [-98.8265, 19.52832], [-98.82637, 19.52804]]]}}, {"id": "1162714", "type": "Feature", "properties": {"id": "1162714", "CVEGEO": "1509900160870037", "POBTOT": 18.0, "score_nse": 0.0, "NSE": "ND", "VIVTOT": 5.0, "GRAPROES": 8.08, "_ent": "15", "_mun": "099", "_loc": "0016"}, "geometry": {"type": "Polygon", "coordinates": [[[-98.82627, 19.52774], [-98.82669, 19.52743], [-98.827, 19.52749], [-98.82636, 19.52801], [-98.82627, 19.52774]]]}}, {"id": "1162715", "type": "Feature", "properties": {"id": "1162715", "CVEGEO": "1509900160870035", "POBTOT": 69.0, "score_nse": 53.8827, "NSE": "C-", "VIVTOT": 18.0, "GRAPROES": 9.83, "_ent": "15", "_mun": "099", "_loc": "0016"}, "geometry": {"type": "Polygon", "coordinates": [[[-98.8233, 19.52968], [-98.82292, 19.5294], [-98.82307, 19.52961], [-98.82339, 19.52975], [-98.82395, 19.53173], [-98.82228, 19.52949], [-98.82239, 19.52818], [-98.82363, 19.52809], [-98.82336, 19.52887], [-98.8229, 19.52836], [-98.82335, 19.52893], [-98.8233, 19.52968]]]}}, {"id": "1162716", "type": "Feature", "properties": {"id": "1162716", "CVEGEO": "1509900160870024", "POBTOT": 32.0, "score_nse": 66.8129, "NSE": "C", "VIVTOT": 13.0, "GRAPROES": 12.08, "_ent": "15", "_mun": "099", "_loc": "0016"}, "geometry": {"type": "Polygon", "coordinates": [[[-98.8211, 19.5252], [-98.82143, 19.52475], [-98.82103, 19.52515], [-98.82014, 19.52469], [-98.82138, 19.5233], [-98.82263, 19.52403], [-98.82248, 19.52426], [-98.82284, 19.52452], [-98.82194, 19.52564], [-98.8211, 19.5252]]]}}, {"id": "1162717", "type": "Feature", "properties": {"id": "1162717", "CVEGEO": "1509900160870023", "POBTOT": 12.0, "score_nse": 0.0, "NSE": "ND", "VIVTOT": 10.0, "GRAPROES": 11.7, "_ent": "15", "_mun": "099", "_loc": "0016"}, "geometry": {"type": "Polygon", "coordinates": [[[-98.82256, 19.52429], [-98.82271, 19.52403], [-98.82143, 19.52325], [-98.82324, 19.52117], [-98.82359, 19.52142], [-98.82319, 19.52193], [-98.82364, 19.52227], [-98.82366, 19.52261], [-98.82416, 19.52299], [-98.82287, 19.52449], [-98.82256, 19.52429]]]}}, {"id": "1162718", "type": "Feature", "properties": {"id": "1162718", "CVEGEO": "1509900160870011", "POBTOT": 50.0, "score_nse": 55.4221, "NSE": "C", "VIVTOT": 19.0, "GRAPROES": 10.2, "_ent": "15", "_mun": "099", "_loc": "0016"}, "geometry": {"type": "Polygon", "coordinates": [[[-98.81554, 19.52124], [-98.81584, 19.52017], [-98.81622, 19.52013], [-98.81631, 19.52037], [-98.81667, 19.52021], [-98.81698, 19.52119], [-98.81641, 19.52132], [-98.81608, 19.52167], [-98.81554, 19.52124]]]}}, {"id": "1162907", "type": "Feature", "properties": {"id": "1162907", "CVEGEO": "1509900161046002", "POBTOT": 96.0, "score_nse": 50.9579, "NSE": "C-", "VIVTOT": 31.0, "GRAPROES": 9.48, "_ent": "15", "_mun": "099", "_loc": "0016"}, "geometry": {"type": "Polygon", "coordinates": [[[-98.80662, 19.51843], [-98.80745, 19.5185], [-98.8074, 19.51821], [-98.80844, 19.51884], [-98.8083, 19.51904], [-98.80849, 19.51886], [-98.80892, 19.51916], [-98.80853, 19.51951], [-98.80898, 19.5192], [-98.80934, 19.51948], [-98.80981, 19.52023], [-98.80904, 19.52083], [-98.80858, 19.52056], [-98.8085, 19.52067], [-98.80907, 19.52097], [-98.80989, 19.52035], [-98.81013, 19.5206], [-98.80982, 19.52126], [-98.8103, 19.52187], [-98.80977, 19.52255], [-98.80847, 19.52107], [-98.80662, 19.51843]]]}}, {"id": "1162908", "type": "Feature", "properties": {"id": "1162908", "CVEGEO": "1509900161046001", "POBTOT": 85.0, "score_nse": 64.2007, "NSE": "C", "VIVTOT": 27.0, "GRAPROES": 11.08, "_ent": "15", "_mun": "099", "_loc": "0016"}, "geometry": {"type": "Polygon", "coordinates": [[[-98.81126, 19.52081], [-98.8096, 19.51917], [-98.81137, 19.51928], [-98.81155, 19.51956], [-98.81142, 19.51926], [-98.81178, 19.519], [-98.81227, 19.5197], [-98.81126, 19.52081]]]}}, {"id": "1162909", "type": "Feature", "properties": {"id": "1162909", "CVEGEO": "1509900160870062", "POBTOT": 10.0, "score_nse": 0.0, "NSE": "ND", "VIVTOT": 4.0, "GRAPROES": 10.57, "_ent": "15", "_mun": "099", "_loc": "0016"}, "geometry": {"type": "Polygon", "coordinates": [[[-98.82603, 19.52864], [-98.82499, 19.52855], [-98.82432, 19.52872], [-98.82368, 19.52837], [-98.82367, 19.52822], [-98.82441, 19.52765], [-98.82505, 19.52746], [-98.82552, 19.5275], [-98.82603, 19.52864]]]}}, {"id": "1162910", "type": "Feature", "properties": {"id": "1162910", "CVEGEO": "1509900160870020", "POBTOT": 42.0, "score_nse": 59.7873, "NSE": "C", "VIVTOT": 22.0, "GRAPROES": 12.13, "_ent": "15", "_mun": "099", "_loc": "0016"}, "geometry": {"type": "Polygon", "coordinates": [[[-98.81252, 19.52196], [-98.81133, 19.52086], [-98.81235, 19.51979], [-98.81328, 19.52104], [-98.81252, 19.52196]]]}}, {"id": "1162911", "type": "Feature", "properties": {"id": "1162911", "CVEGEO": "1509900160870044", "POBTOT": 12.0, "score_nse": 0.0, "NSE": "ND", "VIVTOT": 3.0, "GRAPROES": 10.71, "_ent": "15", "_mun": "099", "_loc": "0016"}, "geometry": {"type": "Polygon", "coordinates": [[[-98.82604, 19.53194], [-98.82558, 19.53095], [-98.82645, 19.53172], [-98.82604, 19.53194]]]}}, {"id": "1162912", "type": "Feature", "properties": {"id": "1162912", "CVEGEO": "1509900160870015", "POBTOT": 126.0, "score_nse": 63.8591, "NSE": "C", "VIVTOT": 44.0, "GRAPROES": 11.05, "_ent": "15", "_mun": "099", "_loc": "0016"}, "geometry": {"type": "Polygon", "coordinates": [[[-98.81672, 19.52716], [-98.81663, 19.52736], [-98.81598, 19.52722], [-98.81532, 19.52661], [-98.81576, 19.52593], [-98.8158, 19.52558], [-98.8162, 19.5259], [-98.81582, 19.52554], [-98.81633, 19.52501], [-98.81764, 19.52579], [-98.81726, 19.52632], [-98.81694, 19.52622], [-98.81722, 19.52637], [-98.81697, 19.52679], [-98.81674, 19.52695], [-98.81651, 19.52682], [-98.81672, 19.52716]]]}}, {"id": "1162913", "type": "Feature", "properties": {"id": "1162913", "CVEGEO": "1509900160870009", "POBTOT": 64.0, "score_nse": 67.1678, "NSE": "C", "VIVTOT": 19.0, "GRAPROES": 10.78, "_ent": "15", "_mun": "099", "_loc": "0016"}, "geometry": {"type": "Polygon", "coordinates": [[[-98.81299, 19.52181], [-98.81287, 19.52157], [-98.8133, 19.52111], [-98.81468, 19.52271], [-98.81356, 19.52285], [-98.81257, 19.52198], [-98.81283, 19.52164], [-98.81299, 19.52181]]]}}, {"id": "1162914", "type": "Feature", "properties": {"id": "1162914", "CVEGEO": "1509900160870008", "POBTOT": 6.0, "score_nse": 0.0, "NSE": "ND", "VIVTOT": 3.0, "GRAPROES": 0.0, "_ent": "15", "_mun": "099", "_loc": "0016"}, "geometry": {"type": "Polygon", "coordinates": [[[-98.81403, 19.52285], [-98.8147, 19.52278], [-98.81526, 19.52323], [-98.81495, 19.52361], [-98.81403, 19.52285]]]}}, {"id": "1163037", "type": "Feature", "properties": {"id": "1163037", "CVEGEO": "1509900161046003", "POBTOT": 158.0, "score_nse": 67.676, "NSE": "C", "VIVTOT": 50.0, "GRAPROES": 10.91, "_ent": "15", "_mun": "099", "_loc": "0016"}, "geometry": {"type": "Polygon", "coordinates": [[[-98.81174, 19.51892], [-98.81126, 19.51925], [-98.81037, 19.51924], [-98.80985, 19.51903], [-98.80926, 19.51935], [-98.80721, 19.51793], [-98.80805, 19.5181], [-98.80974, 19.51761], [-98.81039, 19.51708], [-98.81065, 19.51714], [-98.81113, 19.51834], [-98.81174, 19.51892]]]}}, {"id": "1163118", "type": "Feature", "properties": {"id": "1163118", "CVEGEO": "1509900160870060", "POBTOT": 2.0, "score_nse": 0.0, "NSE": "ND", "VIVTOT": 2.0, "GRAPROES": 0.0, "_ent": "15", "_mun": "099", "_loc": "0016"}, "geometry": {"type": "Polygon", "coordinates": [[[-98.81254, 19.52364], [-98.81297, 19.52379], [-98.81377, 19.52453], [-98.81365, 19.52463], [-98.81305, 19.52423], [-98.81257, 19.52417], [-98.81227, 19.52388], [-98.81254, 19.52364]]]}}, {"id": "1163125", "type": "Feature", "properties": {"id": "1163125", "CVEGEO": "150990016114A001", "POBTOT": 183.0, "score_nse": 0.0, "NSE": "ND", "VIVTOT": 54.0, "GRAPROES": 10.04, "_ent": "15", "_mun": "099", "_loc": "0016"}, "geometry": {"type": "Polygon", "coordinates": [[[-98.81827, 19.52797], [-98.81846, 19.52774], [-98.81873, 19.52778], [-98.81881, 19.52752], [-98.81932, 19.52779], [-98.81917, 19.52809], [-98.81887, 19.52821], [-98.8185, 19.52944], [-98.81897, 19.52817], [-98.81985, 19.52815], [-98.82038, 19.52822], [-98.82037, 19.5291], [-98.82077, 19.52961], [-98.81852, 19.52979], [-98.81799, 19.5297], [-98.81661, 19.52905], [-98.81696, 19.5282], [-98.818, 19.52697], [-98.81874, 19.5274], [-98.81871, 19.52775], [-98.81844, 19.52772], [-98.81827, 19.52797]]]}}, {"id": "1163127", "type": "Feature", "properties": {"id": "1163127", "CVEGEO": "1509900161046009", "POBTOT": 20.0, "score_nse": 63.921, "NSE": "C", "VIVTOT": 8.0, "GRAPROES": 10.22, "_ent": "15", "_mun": "099", "_loc": "0016"}, "geometry": {"type": "Polygon", "coordinates": [[[-98.81087, 19.52094], [-98.81098, 19.52114], [-98.81078, 19.52129], [-98.81045, 19.52113], [-98.81073, 19.52136], [-98.81033, 19.52182], [-98.80991, 19.52124], [-98.81022, 19.52059], [-98.80941, 19.51946], [-98.80956, 19.51924], [-98.81122, 19.52086], [-98.81103, 19.52109], [-98.81087, 19.52094]]]}}, {"id": "1163128", "type": "Feature", "properties": {"id": "1163128", "CVEGEO": "1509900160870039", "POBTOT": 66.0, "score_nse": 63.32, "NSE": "C", "VIVTOT": 22.0, "GRAPROES": 11.55, "_ent": "15", "_mun": "099", "_loc": "0016"}, "geometry": {"type": "Polygon", "coordinates": [[[-98.82445, 19.52963], [-98.82344, 19.52891], [-98.82363, 19.52826], [-98.82366, 19.52842], [-98.82435, 19.52879], [-98.82498, 19.52861], [-98.82651, 19.52865], [-98.82692, 19.52953], [-98.82615, 19.52949], [-98.82745, 19.52977], [-98.8301, 19.53112], [-98.82816, 19.53126], [-98.82613, 19.53038], [-98.82489, 19.53015], [-98.82445, 19.52963]]]}}, {"id": "1163129", "type": "Feature", "properties": {"id": "1163129", "CVEGEO": "1509900160870028", "POBTOT": 22.0, "score_nse": 0.0, "NSE": "ND", "VIVTOT": 7.0, "GRAPROES": 11.29, "_ent": "15", "_mun": "099", "_loc": "0016"}, "geometry": {"type": "Polygon", "coordinates": [[[-98.81925, 19.52809], [-98.81957, 19.52736], [-98.82042, 19.52777], [-98.82022, 19.52813], [-98.81925, 19.52809]]]}}, {"id": "1163130", "type": "Feature", "properties": {"id": "1163130", "CVEGEO": "1509900160870026", "POBTOT": 6.0, "score_nse": 0.0, "NSE": "ND", "VIVTOT": 9.0, "GRAPROES": 14.6, "_ent": "15", "_mun": "099", "_loc": "0016"}, "geometry": {"type": "Polygon", "coordinates": [[[-98.81923, 19.52769], [-98.81831, 19.52711], [-98.81902, 19.52617], [-98.81972, 19.52657], [-98.81941, 19.52749], [-98.81917, 19.52742], [-98.81939, 19.52753], [-98.81923, 19.52769]]]}}, {"id": "1163131", "type": "Feature", "properties": {"id": "1163131", "CVEGEO": "1509900160870014", "POBTOT": 17.0, "score_nse": 72.78, "NSE": "C+", "VIVTOT": 6.0, "GRAPROES": 11.57, "_ent": "15", "_mun": "099", "_loc": "0016"}, "geometry": {"type": "Polygon", "coordinates": [[[-98.81783, 19.52558], [-98.81892, 19.52617], [-98.81824, 19.52706], [-98.81732, 19.52636], [-98.81783, 19.52558]]]}}, {"id": "1163132", "type": "Feature", "properties": {"id": "1163132", "CVEGEO": "1509900160870013", "POBTOT": 324.0, "score_nse": 61.5267, "NSE": "C", "VIVTOT": 106.0, "GRAPROES": 10.64, "_ent": "15", "_mun": "099", "_loc": "0016"}, "geometry": {"type": "Polygon", "coordinates": [[[-98.81813, 19.52326], [-98.82029, 19.52062], [-98.82177, 19.51961], [-98.82187, 19.51996], [-98.8217, 19.52053], [-98.82133, 19.52034], [-98.82169, 19.5206], [-98.82179, 19.52031], [-98.82318, 19.52115], [-98.82188, 19.52266], [-98.82158, 19.52241], [-98.82145, 19.52154], [-98.82127, 19.52125], [-98.82154, 19.52246], [-98.82183, 19.5227], [-98.82127, 19.52328], [-98.82022, 19.52263], [-98.82123, 19.52332], [-98.81908, 19.52587], [-98.81774, 19.52502], [-98.81803, 19.5246], [-98.81798, 19.52413], [-98.81828, 19.52349], [-98.81813, 19.52326]]]}}, {"id": "1163133", "type": "Feature", "properties": {"id": "1163133", "CVEGEO": "1509900160870004", "POBTOT": 7.0, "score_nse": 0.0, "NSE": "ND", "VIVTOT": 2.0, "GRAPROES": 0.0, "_ent": "15", "_mun": "099", "_loc": "0016"}, "geometry": {"type": "Polygon", "coordinates": [[[-98.81792, 19.52473], [-98.81745, 19.52298], [-98.81751, 19.52294], [-98.81821, 19.52337], [-98.81793, 19.52413], [-98.81792, 19.52473]]]}}, {"id": "1163185", "type": "Feature", "properties": {"id": "1163185", "CVEGEO": "1509900160870030", "POBTOT": 28.0, "score_nse": 69.4692, "NSE": "C", "VIVTOT": 13.0, "GRAPROES": 12.91, "_ent": "15", "_mun": "099", "_loc": "0016"}, "geometry": {"type": "Polygon", "coordinates": [[[-98.82431, 19.52371], [-98.82347, 19.52489], [-98.82294, 19.52452], [-98.82349, 19.52389], [-98.82379, 19.52406], [-98.82352, 19.52384], [-98.82385, 19.52344], [-98.82431, 19.52371]]]}}, {"id": "1163272", "type": "Feature", "properties": {"id": "1163272", "CVEGEO": "1509900161046007", "POBTOT": 65.0, "score_nse": 55.4052, "NSE": "C", "VIVTOT": 23.0, "GRAPROES": 9.57, "_ent": "15", "_mun": "099", "_loc": "0016"}, "geometry": {"type": "Polygon", "coordinates": [[[-98.8091, 19.51771], [-98.80808, 19.51803], [-98.80719, 19.51786], [-98.80705, 19.5177], [-98.80712, 19.51751], [-98.80739, 19.5176], [-98.80748, 19.51749], [-98.80872, 19.51754], [-98.8091, 19.51771]]]}}, {"id": "1163273", "type": "Feature", "properties": {"id": "1163273", "CVEGEO": "1509900160870055", "POBTOT": 29.0, "score_nse": 0.0, "NSE": "ND", "VIVTOT": 9.0, "GRAPROES": 9.95, "_ent": "15", "_mun": "099", "_loc": "0016"}, "geometry": {"type": "Polygon", "coordinates": [[[-98.81493, 19.52516], [-98.81427, 19.52434], [-98.8144, 19.52424], [-98.81611, 19.52514], [-98.81564, 19.52573], [-98.81493, 19.52516]]]}}, {"id": "1163274", "type": "Feature", "properties": {"id": "1163274", "CVEGEO": "1509900160870036", "POBTOT": 13.0, "score_nse": 0.0, "NSE": "ND", "VIVTOT": 5.0, "GRAPROES": 7.73, "_ent": "15", "_mun": "099", "_loc": "0016"}, "geometry": {"type": "Polygon", "coordinates": [[[-98.82508, 19.52743], [-98.82563, 19.52736], [-98.82665, 19.52742], [-98.8262, 19.52772], [-98.82607, 19.52756], [-98.82508, 19.52743]]]}}, {"id": "1163275", "type": "Feature", "properties": {"id": "1163275", "CVEGEO": "1509900160870022", "POBTOT": 0.0, "score_nse": 10.0, "NSE": "E", "VIVTOT": 1.0, "GRAPROES": 0.0, "_ent": "15", "_mun": "099", "_loc": "0016"}, "geometry": {"type": "Polygon", "coordinates": [[[-98.82363, 19.52141], [-98.82327, 19.52112], [-98.82408, 19.52032], [-98.8251, 19.52086], [-98.82363, 19.52141]]]}}, {"id": "1163276", "type": "Feature", "properties": {"id": "1163276", "CVEGEO": "1509900160870021", "POBTOT": 108.0, "score_nse": 0.0, "NSE": "ND", "VIVTOT": 34.0, "GRAPROES": 11.93, "_ent": "15", "_mun": "099", "_loc": "0016"}, "geometry": {"type": "Polygon", "coordinates": [[[-98.81483, 19.52069], [-98.81404, 19.52058], [-98.81334, 19.52103], [-98.81276, 19.52014], [-98.8128, 19.51999], [-98.81259, 19.51992], [-98.81302, 19.51957], [-98.8135, 19.51874], [-98.81578, 19.52016], [-98.81549, 19.5212], [-98.81483, 19.52069]]]}}, {"id": "1163509", "type": "Feature", "properties": {"id": "1163509", "CVEGEO": "1509900160870010", "POBTOT": 144.0, "score_nse": 61.154, "NSE": "C", "VIVTOT": 40.0, "GRAPROES": 9.5, "_ent": "15", "_mun": "099", "_loc": "0016"}, "geometry": {"type": "Polygon", "coordinates": [[[-98.81492, 19.52283], [-98.81337, 19.52107], [-98.81407, 19.52062], [-98.81476, 19.52072], [-98.81527, 19.52109], [-98.81489, 19.52139], [-98.81507, 19.5216], [-98.81495, 19.52139], [-98.8153, 19.52112], [-98.81546, 19.52126], [-98.81524, 19.52151], [-98.81549, 19.52129], [-98.81602, 19.5217], [-98.81492, 19.52283]]]}}, {"id": "1163928", "type": "Feature", "properties": {"id": "1163928", "CVEGEO": "1509900161173003", "POBTOT": 62.0, "score_nse": 58.1745, "NSE": "C", "VIVTOT": 16.0, "GRAPROES": 11.09, "_ent": "15", "_mun": "099", "_loc": "0016"}, "geometry": {"type": "Polygon", "coordinates": [[[-98.82813, 19.52757], [-98.82858, 19.52573], [-98.83014, 19.52608], [-98.82985, 19.52672], [-98.82958, 19.52676], [-98.82821, 19.528], [-98.82755, 19.52766], [-98.82791, 19.52774], [-98.8276, 19.5276], [-98.8277, 19.52744], [-98.82813, 19.52757]]]}}, {"id": "1163929", "type": "Feature", "properties": {"id": "1163929", "CVEGEO": "1509900161173004", "POBTOT": 14.0, "score_nse": 0.0, "NSE": "ND", "VIVTOT": 9.0, "GRAPROES": 10.14, "_ent": "15", "_mun": "099", "_loc": "0016"}, "geometry": {"type": "Polygon", "coordinates": [[[-98.82764, 19.52744], [-98.82756, 19.52758], [-98.82627, 19.52733], [-98.82633, 19.52704], [-98.82764, 19.52744]]]}}, {"id": "1163995", "type": "Feature", "properties": {"id": "1163995", "CVEGEO": "1509900161173005", "POBTOT": 1.0, "score_nse": 0.0, "NSE": "ND", "VIVTOT": 4.0, "GRAPROES": 0.0, "_ent": "15", "_mun": "099", "_loc": "0016"}, "geometry": {"type": "Polygon", "coordinates": [[[-98.82809, 19.52749], [-98.82728, 19.52727], [-98.82761, 19.52607], [-98.82837, 19.5263], [-98.82809, 19.52749]]]}}, {"id": "1164055", "type": "Feature", "properties": {"id": "1164055", "CVEGEO": "1509900160870012", "POBTOT": 36.0, "score_nse": 0.0, "NSE": "ND", "VIVTOT": 16.0, "GRAPROES": 9.19, "_ent": "15", "_mun": "099", "_loc": "0016"}, "geometry": {"type": "Polygon", "coordinates": [[[-98.82182, 19.52018], [-98.82193, 19.51997], [-98.82181, 19.51958], [-98.82202, 19.51952], [-98.82232, 19.51977], [-98.8231, 19.51918], [-98.82231, 19.5197], [-98.8221, 19.51947], [-98.82347, 19.51872], [-98.82399, 19.51884], [-98.82354, 19.51929], [-98.82457, 19.51964], [-98.82322, 19.52108], [-98.82219, 19.52044], [-98.82283, 19.51996], [-98.82214, 19.52042], [-98.82182, 19.52018]]]}}, {"id": "1164271", "type": "Feature", "properties": {"id": "1164271", "CVEGEO": "1509900160870059", "POBTOT": 98.0, "score_nse": 53.3613, "NSE": "C-", "VIVTOT": 33.0, "GRAPROES": 9.33, "_ent": "15", "_mun": "099", "_loc": "0016"}, "geometry": {"type": "Polygon", "coordinates": [[[-98.82702, 19.52149], [-98.8268, 19.52217], [-98.82558, 19.52331], [-98.82435, 19.52547], [-98.8235, 19.52491], [-98.82437, 19.52374], [-98.82478, 19.52388], [-98.82392, 19.52337], [-98.82421, 19.52302], [-98.82447, 19.52316], [-98.82424, 19.52298], [-98.82486, 19.52232], [-98.82548, 19.52276], [-98.82488, 19.52229], [-98.82499, 19.52217], [-98.82539, 19.52243], [-98.82597, 19.52194], [-98.82605, 19.52216], [-98.82628, 19.52226], [-98.82596, 19.52253], [-98.82644, 19.52225], [-98.82611, 19.5221], [-98.82607, 19.52175], [-98.8254, 19.52235], [-98.82502, 19.52215], [-98.82591, 19.52121], [-98.82702, 19.52149]]]}}]}