{"type": "FeatureCollection", "features": [{"id": "846515", "type": "Feature", "properties": {"id": "846515", "CVEGEO": "1303400140010001", "POBTOT": 0.0, "score_nse": 0.0, "NSE": null, "VIVTOT": 0.0, "GRAPROES": 0.0, "_ent": "13", "_mun": "034", "_loc": "0014"}, "geometry": {"type": "Polygon", "coordinates": [[[-98.74975, 21.16956], [-98.74913, 21.16923], [-98.74937, 21.16882], [-98.75001, 21.16946], [-98.74975, 21.16956]]]}}, {"id": "846526", "type": "Feature", "properties": {"id": "846526", "CVEGEO": "1303400140010010", "POBTOT": 0.0, "score_nse": 0.0, "NSE": null, "VIVTOT": 0.0, "GRAPROES": 0.0, "_ent": "13", "_mun": "034", "_loc": "0014"}, "geometry": {"type": "Polygon", "coordinates": [[[-98.74905, 21.16919], [-98.74885, 21.16889], [-98.74922, 21.16863], [-98.74928, 21.16875], [-98.74905, 21.16919]]]}}, {"id": "846533", "type": "Feature", "properties": {"id": "846533", "CVEGEO": "1303400140010008", "POBTOT": 0.0, "score_nse": 0.0, "NSE": null, "VIVTOT": 0.0, "GRAPROES": 0.0, "_ent": "13", "_mun": "034", "_loc": "0014"}, "geometry": {"type": "Polygon", "coordinates": [[[-98.74846, 21.1692], [-98.74807, 21.16871], [-98.74808, 21.16841], [-98.74834, 21.16882], [-98.74867, 21.16893], [-98.74846, 21.1692]]]}}, {"id": "846568", "type": "Feature", "properties": {"id": "846568", "CVEGEO": "1303400140010006", "POBTOT": 0.0, "score_nse": 0.0, "NSE": null, "VIVTOT": 0.0, "GRAPROES": 0.0, "_ent": "13", "_mun": "034", "_loc": "0014"}, "geometry": {"type": "Polygon", "coordinates": [[[-98.75022, 21.17072], [-98.74981, 21.17091], [-98.74935, 21.1707], [-98.7494, 21.17036], [-98.74923, 21.17015], [-98.74913, 21.1694], [-98.7499, 21.17013], [-98.75022, 21.17072]]]}}, {"id": "846589", "type": "Feature", "properties": {"id": "846589", "CVEGEO": "1303400140010002", "POBTOT": 0.0, "score_nse": 0.0, "NSE": null, "VIVTOT": 0.0, "GRAPROES": 0.0, "_ent": "13", "_mun": "034", "_loc": "0014"}, "geometry": {"type": "Polygon", "coordinates": [[[-98.74893, 21.16709], [-98.74907, 21.16739], [-98.74886, 21.16812], [-98.7492, 21.1686], [-98.74877, 21.16889], [-98.74835, 21.1687], [-98.74819, 21.16833], [-98.74795, 21.1684], [-98.74782, 21.16788], [-98.74893, 21.16709]]]}}, {"id": "846590", "type": "Feature", "properties": {"id": "846590", "CVEGEO": "1303400140010007", "POBTOT": 0.0, "score_nse": 0.0, "NSE": null, "VIVTOT": 0.0, "GRAPROES": 0.0, "_ent": "13", "_mun": "034", "_loc": "0014"}, "geometry": {"type": "Polygon", "coordinates": [[[-98.74922, 21.17003], [-98.74865, 21.16972], [-98.74844, 21.16929], [-98.74876, 21.16897], [-98.74922, 21.17003]]]}}, {"id": "846747", "type": "Feature", "properties": {"id": "846747", "CVEGEO": "1303400140010009", "POBTOT": 0.0, "score_nse": 0.0, "NSE": null, "VIVTOT": 0.0, "GRAPROES": 0.0, "_ent": "13", "_mun": "034", "_loc": "0014"}, "geometry": {"type": "Polygon", "coordinates": [[[-98.74947, 21.16805], [-98.74909, 21.16779], [-98.74918, 21.16743], [-98.74971, 21.16748], [-98.75035, 21.16788], [-98.75075, 21.16757], [-98.7513, 21.16817], [-98.75087, 21.16857], [-98.75047, 21.16865], [-98.74982, 21.16783], [-98.74947, 21.16805]]]}}, {"id": "846749", "type": "Feature", "properties": {"id": "846749", "CVEGEO": "1303400140010003", "POBTOT": 0.0, "score_nse": 0.0, "NSE": null, "VIVTOT": 0.0, "GRAPROES": 0.0, "_ent": "13", "_mun": "034", "_loc": "0014"}, "geometry": {"type": "Polygon", "coordinates": [[[-98.74942, 21.16866], [-98.74895, 21.16809], [-98.74908, 21.16785], [-98.7497, 21.16847], [-98.74942, 21.16866]]]}}, {"id": "846750", "type": "Feature", "properties": {"id": "846750", "CVEGEO": "1303400140010011", "POBTOT": 0.0, "score_nse": 0.0, "NSE": null, "VIVTOT": 0.0, "GRAPROES": 0.0, "_ent": "13", "_mun": "034", "_loc": "0014"}, "geometry": {"type": "Polygon", "coordinates": [[[-98.75043, 21.16867], [-98.7499, 21.16861], [-98.7495, 21.16808], [-98.74981, 21.16787], [-98.75043, 21.16867]]]}}, {"id": "846769", "type": "Feature", "properties": {"id": "846769", "CVEGEO": "1303400140010005", "POBTOT": 0.0, "score_nse": 0.0, "NSE": null, "VIVTOT": 0.0, "GRAPROES": 0.0, "_ent": "13", "_mun": "034", "_loc": "0014"}, "geometry": {"type": "Polygon", "coordinates": [[[-98.75058, 21.17023], [-98.75029, 21.17071], [-98.74999, 21.17013], [-98.74945, 21.16955], [-98.75058, 21.17023]]]}}, {"id": "846770", "type": "Feature", "properties": {"id": "846770", "CVEGEO": "1303400140010004", "POBTOT": 0.0, "score_nse": 0.0, "NSE": null, "VIVTOT": 0.0, "GRAPROES": 0.0, "_ent": "13", "_mun": "034", "_loc": "0014"}, "geometry": {"type": "Polygon", "coordinates": [[[-98.75052, 21.16869], [-98.75025, 21.16946], [-98.74946, 21.16875], [-98.7497, 21.16854], [-98.75052, 21.16869]]]}}, {"id": "846775", "type": "Feature", "properties": {"id": "846775", "CVEGEO": "1303400140010013", "POBTOT": 0.0, "score_nse": 0.0, "NSE": null, "VIVTOT": 0.0, "GRAPROES": 0.0, "_ent": "13", "_mun": "034", "_loc": "0014"}, "geometry": {"type": "Polygon", "coordinates": [[[-98.75049, 21.16977], [-98.75033, 21.16992], [-98.74986, 21.16963], [-98.75012, 21.16955], [-98.75049, 21.16977]]]}}, {"id": "846776", "type": "Feature", "properties": {"id": "846776", "CVEGEO": "1303400140010014", "POBTOT": 0.0, "score_nse": 0.0, "NSE": null, "VIVTOT": 0.0, "GRAPROES": 0.0, "_ent": "13", "_mun": "034", "_loc": "0014"}, "geometry": {"type": "Polygon", "coordinates": [[[-98.75077, 21.16997], [-98.75062, 21.17019], [-98.75036, 21.16995], [-98.75051, 21.16978], [-98.75077, 21.16997]]]}}, {"id": "846777", "type": "Feature", "properties": {"id": "846777", "CVEGEO": "1303400140010012", "POBTOT": 0.0, "score_nse": 0.0, "NSE": null, "VIVTOT": 0.0, "GRAPROES": 0.0, "_ent": "13", "_mun": "034", "_loc": "0014"}, "geometry": {"type": "Polygon", "coordinates": [[[-98.75146, 21.16857], [-98.75112, 21.16985], [-98.75099, 21.16994], [-98.75031, 21.1695], [-98.75059, 21.16868], [-98.75103, 21.16851], [-98.75146, 21.16857]]]}}]}