{"type": "FeatureCollection", "features": [{"id": "1702490", "type": "Feature", "properties": {"id": "1702490", "CVEGEO": "2111500340053007", "POBTOT": 0.0, "score_nse": 0.0, "NSE": null, "VIVTOT": 0.0, "GRAPROES": 0.0, "_ent": "21", "_mun": "115", "_loc": "0034"}, "geometry": {"type": "Polygon", "coordinates": [[[-97.63694, 18.92648], [-97.63661, 18.9264], [-97.63632, 18.92672], [-97.63578, 18.92671], [-97.6353, 18.92694], [-97.63506, 18.92677], [-97.63531, 18.9264], [-97.63505, 18.92587], [-97.6402, 18.92008], [-97.64148, 18.92143], [-97.63694, 18.92648]]]}}, {"id": "1702491", "type": "Feature", "properties": {"id": "1702491", "CVEGEO": "2111500340053003", "POBTOT": 0.0, "score_nse": 0.0, "NSE": null, "VIVTOT": 0.0, "GRAPROES": 0.0, "_ent": "21", "_mun": "115", "_loc": "0034"}, "geometry": {"type": "Polygon", "coordinates": [[[-97.64151, 18.92139], [-97.64024, 18.92004], [-97.64049, 18.91976], [-97.63911, 18.9184], [-97.63937, 18.9181], [-97.63793, 18.91679], [-97.63871, 18.91593], [-97.63746, 18.91403], [-97.63818, 18.9133], [-97.63993, 18.91573], [-97.64205, 18.9208], [-97.64151, 18.92139]]]}}, {"id": "1702492", "type": "Feature", "properties": {"id": "1702492", "CVEGEO": "2111500340053001", "POBTOT": 0.0, "score_nse": 0.0, "NSE": null, "VIVTOT": 0.0, "GRAPROES": 0.0, "_ent": "21", "_mun": "115", "_loc": "0034"}, "geometry": {"type": "Polygon", "coordinates": [[[-97.6376, 18.91435], [-97.63864, 18.91592], [-97.62908, 18.92687], [-97.62739, 18.92604], [-97.6376, 18.91435]]]}}, {"id": "1702735", "type": "Feature", "properties": {"id": "1702735", "CVEGEO": "2111500340053012", "POBTOT": 0.0, "score_nse": 0.0, "NSE": null, "VIVTOT": 0.0, "GRAPROES": 0.0, "_ent": "21", "_mun": "115", "_loc": "0034"}, "geometry": {"type": "Polygon", "coordinates": [[[-97.63757, 18.9143], [-97.62733, 18.92601], [-97.62558, 18.92523], [-97.63656, 18.91276], [-97.63757, 18.9143]]]}}, {"id": "1702800", "type": "Feature", "properties": {"id": "1702800", "CVEGEO": "2111500340053011", "POBTOT": 0.0, "score_nse": 0.0, "NSE": null, "VIVTOT": 0.0, "GRAPROES": 0.0, "_ent": "21", "_mun": "115", "_loc": "0034"}, "geometry": {"type": "Polygon", "coordinates": [[[-97.63657, 18.91267], [-97.63354, 18.91598], [-97.63223, 18.91477], [-97.6349, 18.91164], [-97.6381, 18.91299], [-97.63813, 18.91314], [-97.63743, 18.91398], [-97.63657, 18.91267]]]}}, {"id": "1702801", "type": "Feature", "properties": {"id": "1702801", "CVEGEO": "2111500340053010", "POBTOT": 0.0, "score_nse": 0.0, "NSE": null, "VIVTOT": 0.0, "GRAPROES": 0.0, "_ent": "21", "_mun": "115", "_loc": "0034"}, "geometry": {"type": "Polygon", "coordinates": [[[-97.62551, 18.9252], [-97.62391, 18.92443], [-97.6322, 18.91481], [-97.6335, 18.91602], [-97.62551, 18.9252]]]}}, {"id": "1703089", "type": "Feature", "properties": {"id": "1703089", "CVEGEO": "2111500340053013", "POBTOT": 0.0, "score_nse": 0.0, "NSE": null, "VIVTOT": 0.0, "GRAPROES": 0.0, "_ent": "21", "_mun": "115", "_loc": "0034"}, "geometry": {"type": "Polygon", "coordinates": [[[-97.6343, 18.92103], [-97.6379, 18.91684], [-97.63929, 18.9181], [-97.63569, 18.9223], [-97.6343, 18.92103]]]}}, {"id": "1703090", "type": "Feature", "properties": {"id": "1703090", "CVEGEO": "2111500340053004", "POBTOT": 0.0, "score_nse": 0.0, "NSE": null, "VIVTOT": 0.0, "GRAPROES": 0.0, "_ent": "21", "_mun": "115", "_loc": "0034"}, "geometry": {"type": "Polygon", "coordinates": [[[-97.63567, 18.92233], [-97.63221, 18.92636], [-97.63908, 18.91844], [-97.64041, 18.91977], [-97.63498, 18.92587], [-97.63525, 18.92641], [-97.63503, 18.92675], [-97.63448, 18.92675], [-97.63341, 18.92724], [-97.63231, 18.92749], [-97.63154, 18.92743], [-97.63111, 18.92794], [-97.63053, 18.92807], [-97.63014, 18.92801], [-97.62912, 18.92691], [-97.63426, 18.92108], [-97.63567, 18.92233]]]}}]}