{"type": "FeatureCollection", "features": [{"id": "1182809", "type": "Feature", "properties": {"id": "1182809", "CVEGEO": "1510800520513002", "POBTOT": 0.0, "score_nse": 0.0, "NSE": null, "VIVTOT": 0.0, "GRAPROES": 0.0, "_ent": "15", "_mun": "108", "_loc": "0052"}, "geometry": {"type": "Polygon", "coordinates": [[[-99.11893, 19.66985], [-99.11741, 19.67115], [-99.11634, 19.67212], [-99.11741, 19.66958], [-99.11893, 19.66985]]]}}, {"id": "1182989", "type": "Feature", "properties": {"id": "1182989", "CVEGEO": "1510800520513005", "POBTOT": 0.0, "score_nse": 0.0, "NSE": null, "VIVTOT": 0.0, "GRAPROES": 0.0, "_ent": "15", "_mun": "108", "_loc": "0052"}, "geometry": {"type": "Polygon", "coordinates": [[[-99.11928, 19.66846], [-99.1186, 19.66815], [-99.11819, 19.66964], [-99.11743, 19.66953], [-99.11813, 19.6673], [-99.12003, 19.66784], [-99.11928, 19.66846]]]}}, {"id": "1183719", "type": "Feature", "properties": {"id": "1183719", "CVEGEO": "1510800520513001", "POBTOT": 0.0, "score_nse": 0.0, "NSE": null, "VIVTOT": 0.0, "GRAPROES": 0.0, "_ent": "15", "_mun": "108", "_loc": "0052"}, "geometry": {"type": "Polygon", "coordinates": [[[-99.12083, 19.66809], [-99.11902, 19.66976], [-99.11862, 19.6697], [-99.11955, 19.66877], [-99.11859, 19.6697], [-99.11825, 19.66965], [-99.11848, 19.66881], [-99.11886, 19.66894], [-99.11849, 19.66879], [-99.11866, 19.66822], [-99.11947, 19.66863], [-99.11933, 19.66849], [-99.12009, 19.66786], [-99.12083, 19.66809]]]}}, {"id": "1183976", "type": "Feature", "properties": {"id": "1183976", "CVEGEO": "1510800520513006", "POBTOT": 0.0, "score_nse": 0.0, "NSE": null, "VIVTOT": 0.0, "GRAPROES": 0.0, "_ent": "15", "_mun": "108", "_loc": "0052"}, "geometry": {"type": "Polygon", "coordinates": [[[-99.1207, 19.66993], [-99.11961, 19.6698], [-99.11954, 19.66971], [-99.11981, 19.66948], [-99.12073, 19.66964], [-99.1207, 19.66993]]]}}, {"id": "1183977", "type": "Feature", "properties": {"id": "1183977", "CVEGEO": "1510800520513008", "POBTOT": 0.0, "score_nse": 0.0, "NSE": null, "VIVTOT": 0.0, "GRAPROES": 0.0, "_ent": "15", "_mun": "108", "_loc": "0052"}, "geometry": {"type": "Polygon", "coordinates": [[[-99.12084, 19.66859], [-99.12082, 19.66918], [-99.12029, 19.66907], [-99.12084, 19.66859]]]}}, {"id": "1183978", "type": "Feature", "properties": {"id": "1183978", "CVEGEO": "1510800520513007", "POBTOT": 0.0, "score_nse": 0.0, "NSE": null, "VIVTOT": 0.0, "GRAPROES": 0.0, "_ent": "15", "_mun": "108", "_loc": "0052"}, "geometry": {"type": "Polygon", "coordinates": [[[-99.12075, 19.66958], [-99.12003, 19.66953], [-99.11987, 19.66945], [-99.12023, 19.66912], [-99.1208, 19.66922], [-99.12075, 19.66958]]]}}, {"id": "1184175", "type": "Feature", "properties": {"id": "1184175", "CVEGEO": "1510800520513009", "POBTOT": 0.0, "score_nse": 0.0, "NSE": null, "VIVTOT": 0.0, "GRAPROES": 0.0, "_ent": "15", "_mun": "108", "_loc": "0052"}, "geometry": {"type": "Polygon", "coordinates": [[[-99.12183, 19.67], [-99.12085, 19.66992], [-99.12101, 19.6686], [-99.1213, 19.66831], [-99.12483, 19.66927], [-99.12454, 19.67125], [-99.12183, 19.67]]]}}]}