{"type": "FeatureCollection", "features": [{"id": "1872652", "type": "Feature", "properties": {"id": "1872652", "CVEGEO": "2403100460055001", "POBTOT": 0.0, "score_nse": 0.0, "NSE": null, "VIVTOT": 0.0, "GRAPROES": 0.0, "_ent": "24", "_mun": "031", "_loc": "0046"}, "geometry": {"type": "Polygon", "coordinates": [[[-99.33304, 21.56815], [-99.33327, 21.56797], [-99.33365, 21.56838], [-99.33344, 21.56854], [-99.33304, 21.56815]]]}}, {"id": "1872653", "type": "Feature", "properties": {"id": "1872653", "CVEGEO": "2403100460055004", "POBTOT": 0.0, "score_nse": 0.0, "NSE": null, "VIVTOT": 0.0, "GRAPROES": 0.0, "_ent": "24", "_mun": "031", "_loc": "0046"}, "geometry": {"type": "Polygon", "coordinates": [[[-99.33323, 21.56774], [-99.3327, 21.56689], [-99.33278, 21.5668], [-99.33347, 21.56687], [-99.33373, 21.5674], [-99.33323, 21.56774]]]}}, {"id": "1872654", "type": "Feature", "properties": {"id": "1872654", "CVEGEO": "2403100460055005", "POBTOT": 0.0, "score_nse": 0.0, "NSE": null, "VIVTOT": 0.0, "GRAPROES": 0.0, "_ent": "24", "_mun": "031", "_loc": "0046"}, "geometry": {"type": "Polygon", "coordinates": [[[-99.33377, 21.56753], [-99.33384, 21.56815], [-99.33363, 21.56821], [-99.33328, 21.56781], [-99.33377, 21.56753]]]}}, {"id": "1872655", "type": "Feature", "properties": {"id": "1872655", "CVEGEO": "2403100460055006", "POBTOT": 0.0, "score_nse": 0.0, "NSE": null, "VIVTOT": 0.0, "GRAPROES": 0.0, "_ent": "24", "_mun": "031", "_loc": "0046"}, "geometry": {"type": "Polygon", "coordinates": [[[-99.33416, 21.56894], [-99.33464, 21.57009], [-99.33424, 21.57028], [-99.33373, 21.56912], [-99.33416, 21.56894]]]}}, {"id": "1872656", "type": "Feature", "properties": {"id": "1872656", "CVEGEO": "2403100460055007", "POBTOT": 0.0, "score_nse": 0.0, "NSE": null, "VIVTOT": 0.0, "GRAPROES": 0.0, "_ent": "24", "_mun": "031", "_loc": "0046"}, "geometry": {"type": "Polygon", "coordinates": [[[-99.33269, 21.56855], [-99.33239, 21.56865], [-99.33225, 21.56826], [-99.33246, 21.56816], [-99.33269, 21.56855]]]}}, {"id": "1872657", "type": "Feature", "properties": {"id": "1872657", "CVEGEO": "2403100460055008", "POBTOT": 0.0, "score_nse": 0.0, "NSE": null, "VIVTOT": 0.0, "GRAPROES": 0.0, "_ent": "24", "_mun": "031", "_loc": "0046"}, "geometry": {"type": "Polygon", "coordinates": [[[-99.33239, 21.56782], [-99.33231, 21.56813], [-99.33204, 21.56829], [-99.33163, 21.56832], [-99.33143, 21.5681], [-99.33168, 21.56763], [-99.33169, 21.56713], [-99.33218, 21.56676], [-99.33256, 21.56681], [-99.33292, 21.56749], [-99.33239, 21.56782]]]}}, {"id": "1872658", "type": "Feature", "properties": {"id": "1872658", "CVEGEO": "2403100460055009", "POBTOT": 0.0, "score_nse": 0.0, "NSE": null, "VIVTOT": 0.0, "GRAPROES": 0.0, "_ent": "24", "_mun": "031", "_loc": "0046"}, "geometry": {"type": "Polygon", "coordinates": [[[-99.33464, 21.57016], [-99.33468, 21.57082], [-99.33489, 21.57125], [-99.33466, 21.57142], [-99.33438, 21.57113], [-99.33427, 21.57033], [-99.33464, 21.57016]]]}}, {"id": "1872659", "type": "Feature", "properties": {"id": "1872659", "CVEGEO": "2403100460055010", "POBTOT": 0.0, "score_nse": 0.0, "NSE": null, "VIVTOT": 0.0, "GRAPROES": 0.0, "_ent": "24", "_mun": "031", "_loc": "0046"}, "geometry": {"type": "Polygon", "coordinates": [[[-99.33167, 21.56876], [-99.33049, 21.56918], [-99.33009, 21.56919], [-99.33006, 21.56901], [-99.33016, 21.56877], [-99.3313, 21.56814], [-99.33143, 21.56815], [-99.33167, 21.56876]]]}}, {"id": "1872660", "type": "Feature", "properties": {"id": "1872660", "CVEGEO": "2403100460055011", "POBTOT": 0.0, "score_nse": 0.0, "NSE": null, "VIVTOT": 0.0, "GRAPROES": 0.0, "_ent": "24", "_mun": "031", "_loc": "0046"}, "geometry": {"type": "Polygon", "coordinates": [[[-99.33519, 21.57173], [-99.33479, 21.57163], [-99.33469, 21.57147], [-99.33493, 21.5713], [-99.33519, 21.57173]]]}}, {"id": "1872661", "type": "Feature", "properties": {"id": "1872661", "CVEGEO": "2403100460055013", "POBTOT": 0.0, "score_nse": 0.0, "NSE": null, "VIVTOT": 0.0, "GRAPROES": 0.0, "_ent": "24", "_mun": "031", "_loc": "0046"}, "geometry": {"type": "Polygon", "coordinates": [[[-99.33371, 21.56906], [-99.3335, 21.56861], [-99.33376, 21.5684], [-99.33414, 21.56888], [-99.33371, 21.56906]]]}}, {"id": "1872707", "type": "Feature", "properties": {"id": "1872707", "CVEGEO": "2403100460055002", "POBTOT": 0.0, "score_nse": 0.0, "NSE": null, "VIVTOT": 0.0, "GRAPROES": 0.0, "_ent": "24", "_mun": "031", "_loc": "0046"}, "geometry": {"type": "Polygon", "coordinates": [[[-99.33282, 21.5685], [-99.33247, 21.56794], [-99.333, 21.56755], [-99.33315, 21.56788], [-99.33292, 21.56813], [-99.33309, 21.56829], [-99.33282, 21.5685]]]}}]}