{"type": "FeatureCollection", "features": [{"id": "285393", "type": "Feature", "properties": {"id": "285393", "CVEGEO": "070600001002A011", "POBTOT": 30.0, "score_nse": 25.08, "NSE": "D", "VIVTOT": 10.0, "GRAPROES": 4.29, "_ent": "07", "_mun": "060", "_loc": "0001"}, "geometry": {"type": "Polygon", "coordinates": [[[-93.16681, 17.22384], [-93.16742, 17.22398], [-93.16758, 17.22417], [-93.16676, 17.22422], [-93.16681, 17.22384]]]}}, {"id": "285394", "type": "Feature", "properties": {"id": "285394", "CVEGEO": "0706000010049012", "POBTOT": 0.0, "score_nse": 10.0, "NSE": "E", "VIVTOT": 1.0, "GRAPROES": 0.0, "_ent": "07", "_mun": "060", "_loc": "0001"}, "geometry": {"type": "Polygon", "coordinates": [[[-93.16214, 17.22841], [-93.16175, 17.2274], [-93.1624, 17.22757], [-93.16254, 17.22841], [-93.16214, 17.22841]]]}}, {"id": "285396", "type": "Feature", "properties": {"id": "285396", "CVEGEO": "0706000010034023", "POBTOT": 71.0, "score_nse": 0.0, "NSE": "ND", "VIVTOT": 19.0, "GRAPROES": 6.56, "_ent": "07", "_mun": "060", "_loc": "0001"}, "geometry": {"type": "Polygon", "coordinates": [[[-93.16265, 17.22427], [-93.16224, 17.22423], [-93.16206, 17.22355], [-93.16254, 17.22348], [-93.16265, 17.22427]]]}}, {"id": "285397", "type": "Feature", "properties": {"id": "285397", "CVEGEO": "0706000010034012", "POBTOT": 100.0, "score_nse": 47.396, "NSE": "C-", "VIVTOT": 25.0, "GRAPROES": 8.39, "_ent": "07", "_mun": "060", "_loc": "0001"}, "geometry": {"type": "Polygon", "coordinates": [[[-93.16359, 17.22529], [-93.16279, 17.22537], [-93.16271, 17.22432], [-93.16354, 17.22439], [-93.16359, 17.22529]]]}}, {"id": "285398", "type": "Feature", "properties": {"id": "285398", "CVEGEO": "0706000010034011", "POBTOT": 71.0, "score_nse": 0.0, "NSE": "ND", "VIVTOT": 22.0, "GRAPROES": 7.86, "_ent": "07", "_mun": "060", "_loc": "0001"}, "geometry": {"type": "Polygon", "coordinates": [[[-93.16275, 17.2263], [-93.16212, 17.22608], [-93.16254, 17.22545], [-93.16272, 17.22543], [-93.16275, 17.2263]]]}}, {"id": "285399", "type": "Feature", "properties": {"id": "285399", "CVEGEO": "0706000010034010", "POBTOT": 106.0, "score_nse": 0.0, "NSE": "ND", "VIVTOT": 27.0, "GRAPROES": 5.9, "_ent": "07", "_mun": "060", "_loc": "0001"}, "geometry": {"type": "Polygon", "coordinates": [[[-93.16245, 17.22752], [-93.16233, 17.22681], [-93.16196, 17.22609], [-93.16282, 17.22634], [-93.16298, 17.22752], [-93.16245, 17.22752]]]}}, {"id": "285400", "type": "Feature", "properties": {"id": "285400", "CVEGEO": "0706000010034008", "POBTOT": 92.0, "score_nse": 0.0, "NSE": "ND", "VIVTOT": 26.0, "GRAPROES": 6.27, "_ent": "07", "_mun": "060", "_loc": "0001"}, "geometry": {"type": "Polygon", "coordinates": [[[-93.16455, 17.22766], [-93.16373, 17.22758], [-93.16377, 17.22692], [-93.16461, 17.22702], [-93.16455, 17.22766]]]}}, {"id": "285401", "type": "Feature", "properties": {"id": "285401", "CVEGEO": "0706000010034006", "POBTOT": 113.0, "score_nse": 0.0, "NSE": "ND", "VIVTOT": 35.0, "GRAPROES": 6.2, "_ent": "07", "_mun": "060", "_loc": "0001"}, "geometry": {"type": "Polygon", "coordinates": [[[-93.16555, 17.22701], [-93.16468, 17.22697], [-93.16468, 17.22613], [-93.16577, 17.22617], [-93.16555, 17.22701]]]}}, {"id": "285402", "type": "Feature", "properties": {"id": "285402", "CVEGEO": "070600001002A002", "POBTOT": 25.0, "score_nse": 15.4, "NSE": "E", "VIVTOT": 5.0, "GRAPROES": 1.5, "_ent": "07", "_mun": "060", "_loc": "0001"}, "geometry": {"type": "Polygon", "coordinates": [[[-93.16779, 17.22421], [-93.168, 17.22389], [-93.1685, 17.22372], [-93.16853, 17.22426], [-93.16779, 17.22421]]]}}, {"id": "285410", "type": "Feature", "properties": {"id": "285410", "CVEGEO": "0706000010034044", "POBTOT": 40.0, "score_nse": 0.0, "NSE": "ND", "VIVTOT": 17.0, "GRAPROES": 7.68, "_ent": "07", "_mun": "060", "_loc": "0001"}, "geometry": {"type": "Polygon", "coordinates": [[[-93.16458, 17.22439], [-93.16449, 17.22357], [-93.16494, 17.22354], [-93.16497, 17.22438], [-93.16458, 17.22439]]]}}, {"id": "285411", "type": "Feature", "properties": {"id": "285411", "CVEGEO": "0706000010034042", "POBTOT": 48.0, "score_nse": 0.0, "NSE": "ND", "VIVTOT": 26.0, "GRAPROES": 5.95, "_ent": "07", "_mun": "060", "_loc": "0001"}, "geometry": {"type": "Polygon", "coordinates": [[[-93.16605, 17.22427], [-93.16503, 17.22438], [-93.16501, 17.22353], [-93.16598, 17.22361], [-93.16605, 17.22427]]]}}, {"id": "285413", "type": "Feature", "properties": {"id": "285413", "CVEGEO": "0706000010034053", "POBTOT": 37.0, "score_nse": 0.0, "NSE": "ND", "VIVTOT": 13.0, "GRAPROES": 7.59, "_ent": "07", "_mun": "060", "_loc": "0001"}, "geometry": {"type": "Polygon", "coordinates": [[[-93.16141, 17.22296], [-93.16138, 17.22256], [-93.16286, 17.22264], [-93.16282, 17.22293], [-93.16236, 17.22296], [-93.16238, 17.22306], [-93.16141, 17.22296]]]}}, {"id": "285415", "type": "Feature", "properties": {"id": "285415", "CVEGEO": "0706000010034018", "POBTOT": 156.0, "score_nse": 0.0, "NSE": "ND", "VIVTOT": 40.0, "GRAPROES": 7.12, "_ent": "07", "_mun": "060", "_loc": "0001"}, "geometry": {"type": "Polygon", "coordinates": [[[-93.16636, 17.22581], [-93.16643, 17.22551], [-93.16656, 17.2255], [-93.16657, 17.2252], [-93.16637, 17.22545], [-93.16631, 17.22575], [-93.16603, 17.22575], [-93.16615, 17.22513], [-93.16674, 17.22508], [-93.16666, 17.22564], [-93.16632, 17.22623], [-93.16586, 17.22612], [-93.16599, 17.22581], [-93.16636, 17.22581]]]}}, {"id": "285420", "type": "Feature", "properties": {"id": "285420", "CVEGEO": "0706000010034037", "POBTOT": 78.0, "score_nse": 0.0, "NSE": "ND", "VIVTOT": 27.0, "GRAPROES": 6.33, "_ent": "07", "_mun": "060", "_loc": "0001"}, "geometry": {"type": "Polygon", "coordinates": [[[-93.16494, 17.22348], [-93.16351, 17.22349], [-93.16347, 17.22266], [-93.16501, 17.22269], [-93.16494, 17.22348]]]}}, {"id": "285423", "type": "Feature", "properties": {"id": "285423", "CVEGEO": "0706000010034046", "POBTOT": 86.0, "score_nse": 46.9717, "NSE": "C-", "VIVTOT": 27.0, "GRAPROES": 9.54, "_ent": "07", "_mun": "060", "_loc": "0001"}, "geometry": {"type": "Polygon", "coordinates": [[[-93.16272, 17.22538], [-93.16227, 17.22539], [-93.16224, 17.22428], [-93.16265, 17.22432], [-93.16272, 17.22538]]]}}, {"id": "285424", "type": "Feature", "properties": {"id": "285424", "CVEGEO": "0706000010034045", "POBTOT": 35.0, "score_nse": 0.0, "NSE": "ND", "VIVTOT": 12.0, "GRAPROES": 6.22, "_ent": "07", "_mun": "060", "_loc": "0001"}, "geometry": {"type": "Polygon", "coordinates": [[[-93.16552, 17.22773], [-93.1657, 17.22659], [-93.16607, 17.22669], [-93.16552, 17.22773]]]}}, {"id": "285425", "type": "Feature", "properties": {"id": "285425", "CVEGEO": "0706000010034014", "POBTOT": 23.0, "score_nse": 0.0, "NSE": "ND", "VIVTOT": 9.0, "GRAPROES": 11.0, "_ent": "07", "_mun": "060", "_loc": "0001"}, "geometry": {"type": "Polygon", "coordinates": [[[-93.16459, 17.22522], [-93.1642, 17.22524], [-93.1641, 17.22442], [-93.16452, 17.22444], [-93.16459, 17.22522]]]}}, {"id": "285431", "type": "Feature", "properties": {"id": "285431", "CVEGEO": "0706000010072001", "POBTOT": 74.0, "score_nse": 0.0, "NSE": "ND", "VIVTOT": 23.0, "GRAPROES": 6.63, "_ent": "07", "_mun": "060", "_loc": "0001"}, "geometry": {"type": "Polygon", "coordinates": [[[-93.16153, 17.22509], [-93.16025, 17.2241], [-93.15947, 17.22377], [-93.16028, 17.22379], [-93.1611, 17.22416], [-93.16153, 17.22509]]]}}, {"id": "285432", "type": "Feature", "properties": {"id": "285432", "CVEGEO": "0706000010053001", "POBTOT": 71.0, "score_nse": 24.9619, "NSE": "D", "VIVTOT": 19.0, "GRAPROES": 5.79, "_ent": "07", "_mun": "060", "_loc": "0001"}, "geometry": {"type": "Polygon", "coordinates": [[[-93.16283, 17.23231], [-93.16258, 17.23231], [-93.1626, 17.23154], [-93.16297, 17.23155], [-93.16283, 17.23231]]]}}, {"id": "285433", "type": "Feature", "properties": {"id": "285433", "CVEGEO": "0706000010049011", "POBTOT": 46.0, "score_nse": 0.0, "NSE": "ND", "VIVTOT": 18.0, "GRAPROES": 6.0, "_ent": "07", "_mun": "060", "_loc": "0001"}, "geometry": {"type": "Polygon", "coordinates": [[[-93.1632, 17.2307], [-93.16309, 17.23072], [-93.16289, 17.22963], [-93.16311, 17.22964], [-93.1632, 17.2307]]]}}, {"id": "285434", "type": "Feature", "properties": {"id": "285434", "CVEGEO": "0706000010049010", "POBTOT": 32.0, "score_nse": 0.0, "NSE": "ND", "VIVTOT": 7.0, "GRAPROES": 6.94, "_ent": "07", "_mun": "060", "_loc": "0001"}, "geometry": {"type": "Polygon", "coordinates": [[[-93.16327, 17.23142], [-93.16302, 17.2315], [-93.16304, 17.23093], [-93.16319, 17.23076], [-93.16327, 17.23142]]]}}, {"id": "285435", "type": "Feature", "properties": {"id": "285435", "CVEGEO": "0706000010034036", "POBTOT": 82.0, "score_nse": 0.0, "NSE": "ND", "VIVTOT": 29.0, "GRAPROES": 6.9, "_ent": "07", "_mun": "060", "_loc": "0001"}, "geometry": {"type": "Polygon", "coordinates": [[[-93.16354, 17.22433], [-93.16271, 17.22427], [-93.16259, 17.22347], [-93.16347, 17.2236], [-93.16354, 17.22433]]]}}, {"id": "285436", "type": "Feature", "properties": {"id": "285436", "CVEGEO": "0706000010034035", "POBTOT": 60.0, "score_nse": 0.0, "NSE": "ND", "VIVTOT": 22.0, "GRAPROES": 7.29, "_ent": "07", "_mun": "060", "_loc": "0001"}, "geometry": {"type": "Polygon", "coordinates": [[[-93.16671, 17.22434], [-93.16673, 17.22502], [-93.16615, 17.22507], [-93.16613, 17.22431], [-93.16671, 17.22434]]]}}, {"id": "285437", "type": "Feature", "properties": {"id": "285437", "CVEGEO": "0706000010034022", "POBTOT": 86.0, "score_nse": 0.0, "NSE": "ND", "VIVTOT": 24.0, "GRAPROES": 6.93, "_ent": "07", "_mun": "060", "_loc": "0001"}, "geometry": {"type": "Polygon", "coordinates": [[[-93.16351, 17.22845], [-93.16311, 17.22843], [-93.16305, 17.22758], [-93.16367, 17.22765], [-93.16351, 17.22845]]]}}, {"id": "285438", "type": "Feature", "properties": {"id": "285438", "CVEGEO": "0706000010034021", "POBTOT": 99.0, "score_nse": 0.0, "NSE": "ND", "VIVTOT": 25.0, "GRAPROES": 5.9, "_ent": "07", "_mun": "060", "_loc": "0001"}, "geometry": {"type": "Polygon", "coordinates": [[[-93.16435, 17.22854], [-93.1636, 17.22846], [-93.16373, 17.22765], [-93.16455, 17.22771], [-93.16435, 17.22854]]]}}, {"id": "285439", "type": "Feature", "properties": {"id": "285439", "CVEGEO": "0706000010034020", "POBTOT": 79.0, "score_nse": 0.0, "NSE": "ND", "VIVTOT": 27.0, "GRAPROES": 5.92, "_ent": "07", "_mun": "060", "_loc": "0001"}, "geometry": {"type": "Polygon", "coordinates": [[[-93.1655, 17.22778], [-93.16528, 17.22858], [-93.16446, 17.22846], [-93.16461, 17.22771], [-93.1655, 17.22778]]]}}, {"id": "285440", "type": "Feature", "properties": {"id": "285440", "CVEGEO": "0706000010034001", "POBTOT": 91.0, "score_nse": 0.0, "NSE": "ND", "VIVTOT": 33.0, "GRAPROES": 7.49, "_ent": "07", "_mun": "060", "_loc": "0001"}, "geometry": {"type": "Polygon", "coordinates": [[[-93.16461, 17.22697], [-93.16378, 17.22686], [-93.16378, 17.22613], [-93.16461, 17.22613], [-93.16461, 17.22697]]]}}, {"id": "285441", "type": "Feature", "properties": {"id": "285441", "CVEGEO": "070600001002A009", "POBTOT": 12.0, "score_nse": 28.68, "NSE": "D", "VIVTOT": 3.0, "GRAPROES": 5.14, "_ent": "07", "_mun": "060", "_loc": "0001"}, "geometry": {"type": "Polygon", "coordinates": [[[-93.16854, 17.22434], [-93.16823, 17.22538], [-93.16685, 17.22627], [-93.16643, 17.22628], [-93.16709, 17.22571], [-93.16735, 17.22464], [-93.16776, 17.22429], [-93.16854, 17.22434]]]}}, {"id": "285442", "type": "Feature", "properties": {"id": "285442", "CVEGEO": "070600001002A008", "POBTOT": 14.0, "score_nse": 18.1289, "NSE": "D", "VIVTOT": 9.0, "GRAPROES": 3.18, "_ent": "07", "_mun": "060", "_loc": "0001"}, "geometry": {"type": "Polygon", "coordinates": [[[-93.16824, 17.22545], [-93.16784, 17.22644], [-93.1675, 17.2266], [-93.16695, 17.22668], [-93.1665, 17.22632], [-93.16685, 17.22633], [-93.16824, 17.22545]]]}}, {"id": "285444", "type": "Feature", "properties": {"id": "285444", "CVEGEO": "0706000010034013", "POBTOT": 68.0, "score_nse": 40.1037, "NSE": "D+", "VIVTOT": 23.0, "GRAPROES": 7.96, "_ent": "07", "_mun": "060", "_loc": "0001"}, "geometry": {"type": "Polygon", "coordinates": [[[-93.16413, 17.22525], [-93.16371, 17.22527], [-93.16361, 17.22439], [-93.16403, 17.22442], [-93.16413, 17.22525]]]}}, {"id": "285445", "type": "Feature", "properties": {"id": "285445", "CVEGEO": "0706000010034005", "POBTOT": 160.0, "score_nse": 34.2302, "NSE": "D+", "VIVTOT": 45.0, "GRAPROES": 7.77, "_ent": "07", "_mun": "060", "_loc": "0001"}, "geometry": {"type": "Polygon", "coordinates": [[[-93.16579, 17.22611], [-93.16468, 17.22607], [-93.16467, 17.22528], [-93.16608, 17.22513], [-93.16604, 17.22555], [-93.16579, 17.22611]]]}}, {"id": "285446", "type": "Feature", "properties": {"id": "285446", "CVEGEO": "0706000010034003", "POBTOT": 122.0, "score_nse": 0.0, "NSE": "ND", "VIVTOT": 31.0, "GRAPROES": 7.32, "_ent": "07", "_mun": "060", "_loc": "0001"}, "geometry": {"type": "Polygon", "coordinates": [[[-93.16365, 17.22533], [-93.16372, 17.22609], [-93.16286, 17.22626], [-93.16279, 17.22543], [-93.16365, 17.22533]]]}}, {"id": "285447", "type": "Feature", "properties": {"id": "285447", "CVEGEO": "0706000010034002", "POBTOT": 105.0, "score_nse": 0.0, "NSE": "ND", "VIVTOT": 25.0, "GRAPROES": 7.65, "_ent": "07", "_mun": "060", "_loc": "0001"}, "geometry": {"type": "Polygon", "coordinates": [[[-93.16372, 17.22686], [-93.16296, 17.22681], [-93.16287, 17.22631], [-93.16372, 17.22614], [-93.16372, 17.22686]]]}}, {"id": "285460", "type": "Feature", "properties": {"id": "285460", "CVEGEO": "0706000010034038", "POBTOT": 34.0, "score_nse": 0.0, "NSE": "ND", "VIVTOT": 11.0, "GRAPROES": 6.05, "_ent": "07", "_mun": "060", "_loc": "0001"}, "geometry": {"type": "Polygon", "coordinates": [[[-93.16239, 17.2231], [-93.16253, 17.22343], [-93.16183, 17.22351], [-93.16156, 17.2234], [-93.16142, 17.2231], [-93.16239, 17.2231]]]}}, {"id": "285461", "type": "Feature", "properties": {"id": "285461", "CVEGEO": "0706000010068004", "POBTOT": 15.0, "score_nse": 0.0, "NSE": "ND", "VIVTOT": 4.0, "GRAPROES": 0.0, "_ent": "07", "_mun": "060", "_loc": "0001"}, "geometry": {"type": "Polygon", "coordinates": [[[-93.16662, 17.22224], [-93.16616, 17.2227], [-93.16617, 17.22216], [-93.16662, 17.22224]]]}}, {"id": "285462", "type": "Feature", "properties": {"id": "285462", "CVEGEO": "0706000010068003", "POBTOT": 40.0, "score_nse": 0.0, "NSE": "ND", "VIVTOT": 19.0, "GRAPROES": 5.84, "_ent": "07", "_mun": "060", "_loc": "0001"}, "geometry": {"type": "Polygon", "coordinates": [[[-93.16389, 17.22186], [-93.16481, 17.22191], [-93.16499, 17.22262], [-93.1639, 17.2226], [-93.16389, 17.22186]]]}}, {"id": "285463", "type": "Feature", "properties": {"id": "285463", "CVEGEO": "0706000010068002", "POBTOT": 19.0, "score_nse": 0.0, "NSE": "ND", "VIVTOT": 7.0, "GRAPROES": 0.0, "_ent": "07", "_mun": "060", "_loc": "0001"}, "geometry": {"type": "Polygon", "coordinates": [[[-93.16608, 17.22227], [-93.16608, 17.22268], [-93.16506, 17.22262], [-93.16503, 17.22249], [-93.16608, 17.22227]]]}}, {"id": "285464", "type": "Feature", "properties": {"id": "285464", "CVEGEO": "0706000010068001", "POBTOT": 58.0, "score_nse": 0.0, "NSE": "ND", "VIVTOT": 23.0, "GRAPROES": 5.9, "_ent": "07", "_mun": "060", "_loc": "0001"}, "geometry": {"type": "Polygon", "coordinates": [[[-93.16502, 17.22244], [-93.16482, 17.22158], [-93.16607, 17.22221], [-93.16502, 17.22244]]]}}, {"id": "285465", "type": "Feature", "properties": {"id": "285465", "CVEGEO": "0706000010053002", "POBTOT": 7.0, "score_nse": 0.0, "NSE": "ND", "VIVTOT": 1.0, "GRAPROES": 0.0, "_ent": "07", "_mun": "060", "_loc": "0001"}, "geometry": {"type": "Polygon", "coordinates": [[[-93.16297, 17.23151], [-93.1626, 17.2315], [-93.16265, 17.23082], [-93.163, 17.2308], [-93.16297, 17.23151]]]}}, {"id": "285466", "type": "Feature", "properties": {"id": "285466", "CVEGEO": "0706000010049004", "POBTOT": 44.0, "score_nse": 0.0, "NSE": "ND", "VIVTOT": 10.0, "GRAPROES": 4.17, "_ent": "07", "_mun": "060", "_loc": "0001"}, "geometry": {"type": "Polygon", "coordinates": [[[-93.16288, 17.23231], [-93.16301, 17.23153], [-93.16327, 17.23146], [-93.16332, 17.23232], [-93.16288, 17.23231]]]}}, {"id": "285467", "type": "Feature", "properties": {"id": "285467", "CVEGEO": "0706000010034051", "POBTOT": 112.0, "score_nse": 0.0, "NSE": "ND", "VIVTOT": 37.0, "GRAPROES": 7.03, "_ent": "07", "_mun": "060", "_loc": "0001"}, "geometry": {"type": "Polygon", "coordinates": [[[-93.16241, 17.223], [-93.16287, 17.22297], [-93.16291, 17.22263], [-93.16342, 17.22266], [-93.16346, 17.22349], [-93.16258, 17.22343], [-93.16241, 17.223]]]}}, {"id": "285468", "type": "Feature", "properties": {"id": "285468", "CVEGEO": "0706000010034050", "POBTOT": 62.0, "score_nse": 0.0, "NSE": "ND", "VIVTOT": 1.0, "GRAPROES": 0.0, "_ent": "07", "_mun": "060", "_loc": "0001"}, "geometry": {"type": "Polygon", "coordinates": [[[-93.16421, 17.2291], [-93.16412, 17.23026], [-93.16328, 17.23031], [-93.16321, 17.22975], [-93.16348, 17.22976], [-93.16353, 17.22908], [-93.16421, 17.2291]]]}}, {"id": "285469", "type": "Feature", "properties": {"id": "285469", "CVEGEO": "0706000010034049", "POBTOT": 50.0, "score_nse": 0.0, "NSE": "ND", "VIVTOT": 15.0, "GRAPROES": 5.54, "_ent": "07", "_mun": "060", "_loc": "0001"}, "geometry": {"type": "Polygon", "coordinates": [[[-93.16306, 17.22843], [-93.1626, 17.22841], [-93.16247, 17.22757], [-93.16299, 17.22758], [-93.16306, 17.22843]]]}}, {"id": "285470", "type": "Feature", "properties": {"id": "285470", "CVEGEO": "0706000010034048", "POBTOT": 113.0, "score_nse": 0.0, "NSE": "ND", "VIVTOT": 23.0, "GRAPROES": 5.55, "_ent": "07", "_mun": "060", "_loc": "0001"}, "geometry": {"type": "Polygon", "coordinates": [[[-93.16136, 17.2229], [-93.16136, 17.22328], [-93.16164, 17.22351], [-93.16201, 17.22355], [-93.16219, 17.22422], [-93.16119, 17.22415], [-93.16066, 17.22288], [-93.16136, 17.2229]]]}}, {"id": "285471", "type": "Feature", "properties": {"id": "285471", "CVEGEO": "0706000010034029", "POBTOT": 71.0, "score_nse": 0.0, "NSE": "ND", "VIVTOT": 31.0, "GRAPROES": 6.82, "_ent": "07", "_mun": "060", "_loc": "0001"}, "geometry": {"type": "Polygon", "coordinates": [[[-93.16354, 17.22852], [-93.16343, 17.2297], [-93.16318, 17.22969], [-93.16312, 17.2285], [-93.16354, 17.22852]]]}}, {"id": "285472", "type": "Feature", "properties": {"id": "285472", "CVEGEO": "0706000010034028", "POBTOT": 49.0, "score_nse": 0.0, "NSE": "ND", "VIVTOT": 16.0, "GRAPROES": 5.75, "_ent": "07", "_mun": "060", "_loc": "0001"}, "geometry": {"type": "Polygon", "coordinates": [[[-93.16433, 17.22859], [-93.16421, 17.22905], [-93.16353, 17.22903], [-93.16361, 17.22852], [-93.16433, 17.22859]]]}}, {"id": "285473", "type": "Feature", "properties": {"id": "285473", "CVEGEO": "0706000010034027", "POBTOT": 68.0, "score_nse": 0.0, "NSE": "ND", "VIVTOT": 17.0, "GRAPROES": 4.83, "_ent": "07", "_mun": "060", "_loc": "0001"}, "geometry": {"type": "Polygon", "coordinates": [[[-93.1652, 17.22863], [-93.16458, 17.23041], [-93.16407, 17.2304], [-93.16431, 17.23028], [-93.1644, 17.2298], [-93.16459, 17.22983], [-93.1644, 17.22976], [-93.16432, 17.2292], [-93.16442, 17.22852], [-93.1652, 17.22863]]]}}, {"id": "285477", "type": "Feature", "properties": {"id": "285477", "CVEGEO": "0706000010049005", "POBTOT": 102.0, "score_nse": 0.0, "NSE": "ND", "VIVTOT": 24.0, "GRAPROES": 5.28, "_ent": "07", "_mun": "060", "_loc": "0001"}, "geometry": {"type": "Polygon", "coordinates": [[[-93.16389, 17.23076], [-93.1633, 17.23074], [-93.16328, 17.23036], [-93.16394, 17.23039], [-93.16389, 17.23076]]]}}, {"id": "285478", "type": "Feature", "properties": {"id": "285478", "CVEGEO": "0706000010034007", "POBTOT": 68.0, "score_nse": 0.0, "NSE": "ND", "VIVTOT": 22.0, "GRAPROES": 5.59, "_ent": "07", "_mun": "060", "_loc": "0001"}, "geometry": {"type": "Polygon", "coordinates": [[[-93.16538, 17.22771], [-93.16462, 17.22766], [-93.16468, 17.22702], [-93.16554, 17.22707], [-93.16538, 17.22771]]]}}, {"id": "285479", "type": "Feature", "properties": {"id": "285479", "CVEGEO": "0706000010034009", "POBTOT": 112.0, "score_nse": 0.0, "NSE": "ND", "VIVTOT": 30.0, "GRAPROES": 6.7, "_ent": "07", "_mun": "060", "_loc": "0001"}, "geometry": {"type": "Polygon", "coordinates": [[[-93.16362, 17.22759], [-93.16304, 17.22752], [-93.16301, 17.22687], [-93.16372, 17.22691], [-93.16365, 17.22725], [-93.16335, 17.22726], [-93.16365, 17.22729], [-93.16362, 17.22759]]]}}, {"id": "285481", "type": "Feature", "properties": {"id": "285481", "CVEGEO": "0706000010049001", "POBTOT": 67.0, "score_nse": 20.379, "NSE": "D", "VIVTOT": 16.0, "GRAPROES": 4.71, "_ent": "07", "_mun": "060", "_loc": "0001"}, "geometry": {"type": "Polygon", "coordinates": [[[-93.16217, 17.22847], [-93.16255, 17.22848], [-93.16302, 17.2307], [-93.16217, 17.22847]]]}}, {"id": "285491", "type": "Feature", "properties": {"id": "285491", "CVEGEO": "0706000010049008", "POBTOT": 55.0, "score_nse": 0.0, "NSE": "ND", "VIVTOT": 17.0, "GRAPROES": 4.91, "_ent": "07", "_mun": "060", "_loc": "0001"}, "geometry": {"type": "Polygon", "coordinates": [[[-93.16333, 17.23159], [-93.1633, 17.23079], [-93.16388, 17.23081], [-93.16368, 17.23159], [-93.16333, 17.23159]]]}}, {"id": "285497", "type": "Feature", "properties": {"id": "285497", "CVEGEO": "0706000010049013", "POBTOT": 26.0, "score_nse": 0.0, "NSE": "ND", "VIVTOT": 8.0, "GRAPROES": 5.27, "_ent": "07", "_mun": "060", "_loc": "0001"}, "geometry": {"type": "Polygon", "coordinates": [[[-93.16238, 17.22751], [-93.162, 17.22731], [-93.16129, 17.22628], [-93.16185, 17.22597], [-93.16227, 17.22683], [-93.16238, 17.22751]]]}}, {"id": "285498", "type": "Feature", "properties": {"id": "285498", "CVEGEO": "0706000010049006", "POBTOT": 119.0, "score_nse": 0.0, "NSE": "ND", "VIVTOT": 35.0, "GRAPROES": 6.79, "_ent": "07", "_mun": "060", "_loc": "0001"}, "geometry": {"type": "Polygon", "coordinates": [[[-93.16458, 17.23042], [-93.16423, 17.23114], [-93.16393, 17.23235], [-93.16339, 17.23233], [-93.16333, 17.23163], [-93.16354, 17.23163], [-93.16354, 17.23179], [-93.16373, 17.2319], [-93.16357, 17.23164], [-93.16389, 17.23163], [-93.16373, 17.23159], [-93.16373, 17.23128], [-93.1639, 17.23109], [-93.164, 17.23042], [-93.16458, 17.23042]]]}}, {"id": "285499", "type": "Feature", "properties": {"id": "285499", "CVEGEO": "0706000010034004", "POBTOT": 81.0, "score_nse": 44.576, "NSE": "C-", "VIVTOT": 22.0, "GRAPROES": 8.74, "_ent": "07", "_mun": "060", "_loc": "0001"}, "geometry": {"type": "Polygon", "coordinates": [[[-93.16461, 17.22607], [-93.16378, 17.22608], [-93.16372, 17.22533], [-93.16459, 17.22529], [-93.16461, 17.22607]]]}}, {"id": "285500", "type": "Feature", "properties": {"id": "285500", "CVEGEO": "070600001002A010", "POBTOT": 67.0, "score_nse": 0.0, "NSE": "ND", "VIVTOT": 20.0, "GRAPROES": 5.89, "_ent": "07", "_mun": "060", "_loc": "0001"}, "geometry": {"type": "Polygon", "coordinates": [[[-93.16505, 17.22336], [-93.16512, 17.22308], [-93.16558, 17.22305], [-93.16513, 17.22303], [-93.16508, 17.22269], [-93.16614, 17.22276], [-93.16601, 17.2234], [-93.16505, 17.22336]]]}}, {"id": "285501", "type": "Feature", "properties": {"id": "285501", "CVEGEO": "070600001002A006", "POBTOT": 135.0, "score_nse": 0.0, "NSE": "ND", "VIVTOT": 31.0, "GRAPROES": 6.27, "_ent": "07", "_mun": "060", "_loc": "0001"}, "geometry": {"type": "Polygon", "coordinates": [[[-93.16639, 17.22626], [-93.16679, 17.22541], [-93.16677, 17.22427], [-93.16772, 17.22424], [-93.16731, 17.22459], [-93.16705, 17.22563], [-93.16639, 17.22626]]]}}, {"id": "285502", "type": "Feature", "properties": {"id": "285502", "CVEGEO": "070600001002A004", "POBTOT": 102.0, "score_nse": 0.0, "NSE": "ND", "VIVTOT": 30.0, "GRAPROES": 4.93, "_ent": "07", "_mun": "060", "_loc": "0001"}, "geometry": {"type": "Polygon", "coordinates": [[[-93.16762, 17.22417], [-93.16744, 17.22395], [-93.16684, 17.22372], [-93.16725, 17.22345], [-93.1681, 17.2234], [-93.16755, 17.22336], [-93.16768, 17.22286], [-93.16846, 17.22291], [-93.16849, 17.22368], [-93.16798, 17.22384], [-93.16762, 17.22417]]]}}, {"id": "285503", "type": "Feature", "properties": {"id": "285503", "CVEGEO": "070600001002A001", "POBTOT": 62.0, "score_nse": 0.0, "NSE": "ND", "VIVTOT": 17.0, "GRAPROES": 5.76, "_ent": "07", "_mun": "060", "_loc": "0001"}, "geometry": {"type": "Polygon", "coordinates": [[[-93.16648, 17.22635], [-93.16692, 17.22671], [-93.16557, 17.22773], [-93.16596, 17.22722], [-93.16617, 17.22659], [-93.16648, 17.22635]]]}}, {"id": "285504", "type": "Feature", "properties": {"id": "285504", "CVEGEO": "0706000010034054", "POBTOT": 26.0, "score_nse": 26.0867, "NSE": "D", "VIVTOT": 6.0, "GRAPROES": 5.75, "_ent": "07", "_mun": "060", "_loc": "0001"}, "geometry": {"type": "Polygon", "coordinates": [[[-93.16136, 17.22284], [-93.16064, 17.22282], [-93.16052, 17.22251], [-93.16133, 17.22255], [-93.16136, 17.22284]]]}}, {"id": "285505", "type": "Feature", "properties": {"id": "285505", "CVEGEO": "070600001002A012", "POBTOT": 118.0, "score_nse": 0.0, "NSE": "ND", "VIVTOT": 33.0, "GRAPROES": 6.85, "_ent": "07", "_mun": "060", "_loc": "0001"}, "geometry": {"type": "Polygon", "coordinates": [[[-93.16763, 17.22285], [-93.1675, 17.22338], [-93.16672, 17.22358], [-93.16653, 17.22352], [-93.1665, 17.22316], [-93.16647, 17.22352], [-93.16604, 17.22357], [-93.16619, 17.22276], [-93.16763, 17.22285]]]}}, {"id": "285506", "type": "Feature", "properties": {"id": "285506", "CVEGEO": "0706000010034016", "POBTOT": 64.0, "score_nse": 0.0, "NSE": "ND", "VIVTOT": 15.0, "GRAPROES": 7.25, "_ent": "07", "_mun": "060", "_loc": "0001"}, "geometry": {"type": "Polygon", "coordinates": [[[-93.16678, 17.22366], [-93.1667, 17.22422], [-93.16611, 17.22426], [-93.16603, 17.22358], [-93.16678, 17.22366]]]}}, {"id": "285507", "type": "Feature", "properties": {"id": "285507", "CVEGEO": "070600001002A007", "POBTOT": 209.0, "score_nse": 0.0, "NSE": "ND", "VIVTOT": 49.0, "GRAPROES": 4.95, "_ent": "07", "_mun": "060", "_loc": "0001"}, "geometry": {"type": "Polygon", "coordinates": [[[-93.16785, 17.22648], [-93.16465, 17.2304], [-93.16524, 17.22864], [-93.16528, 17.229], [-93.16549, 17.22896], [-93.16532, 17.22895], [-93.16538, 17.22858], [-93.16569, 17.22861], [-93.16577, 17.22831], [-93.16566, 17.22858], [-93.16554, 17.22857], [-93.16568, 17.22824], [-93.1655, 17.22856], [-93.16535, 17.22854], [-93.16555, 17.22779], [-93.16587, 17.22768], [-93.16635, 17.2272], [-93.16654, 17.22734], [-93.1664, 17.22717], [-93.16702, 17.22671], [-93.16785, 17.22648]]]}}, {"id": "285508", "type": "Feature", "properties": {"id": "285508", "CVEGEO": "0706000010034015", "POBTOT": 30.0, "score_nse": 0.0, "NSE": "ND", "VIVTOT": 9.0, "GRAPROES": 9.85, "_ent": "07", "_mun": "060", "_loc": "0001"}, "geometry": {"type": "Polygon", "coordinates": [[[-93.16611, 17.22466], [-93.16608, 17.22507], [-93.16523, 17.22513], [-93.1652, 17.22486], [-93.16512, 17.22483], [-93.16519, 17.22514], [-93.16467, 17.22522], [-93.16459, 17.22444], [-93.16499, 17.22445], [-93.16499, 17.22486], [-93.16504, 17.22444], [-93.16524, 17.22439], [-93.16607, 17.22432], [-93.16611, 17.22459], [-93.16562, 17.2246], [-93.16611, 17.22466]]]}}, {"id": "285509", "type": "Feature", "properties": {"id": "285509", "CVEGEO": "0706000010034019", "POBTOT": 39.0, "score_nse": 0.0, "NSE": "ND", "VIVTOT": 12.0, "GRAPROES": 6.59, "_ent": "07", "_mun": "060", "_loc": "0001"}, "geometry": {"type": "Polygon", "coordinates": [[[-93.16584, 17.22616], [-93.16635, 17.2263], [-93.16608, 17.22665], [-93.16571, 17.22654], [-93.16584, 17.22616]]]}}, {"id": "285510", "type": "Feature", "properties": {"id": "285510", "CVEGEO": "0706000010034024", "POBTOT": 67.0, "score_nse": 0.0, "NSE": "ND", "VIVTOT": 19.0, "GRAPROES": 6.33, "_ent": "07", "_mun": "060", "_loc": "0001"}, "geometry": {"type": "Polygon", "coordinates": [[[-93.16452, 17.22438], [-93.1636, 17.22433], [-93.16357, 17.22377], [-93.16389, 17.22381], [-93.16356, 17.22371], [-93.16355, 17.22356], [-93.16441, 17.22357], [-93.16452, 17.22438]]]}}, {"id": "285511", "type": "Feature", "properties": {"id": "285511", "CVEGEO": "0706000010034030", "POBTOT": 83.0, "score_nse": 0.0, "NSE": "ND", "VIVTOT": 19.0, "GRAPROES": 5.14, "_ent": "07", "_mun": "060", "_loc": "0001"}, "geometry": {"type": "Polygon", "coordinates": [[[-93.16312, 17.22958], [-93.1628, 17.22944], [-93.16261, 17.22847], [-93.16306, 17.22849], [-93.16309, 17.22935], [-93.16296, 17.22936], [-93.16296, 17.22941], [-93.16309, 17.22938], [-93.16312, 17.22958]]]}}, {"id": "285512", "type": "Feature", "properties": {"id": "285512", "CVEGEO": "0706000010034033", "POBTOT": 114.0, "score_nse": 0.0, "NSE": "ND", "VIVTOT": 32.0, "GRAPROES": 7.22, "_ent": "07", "_mun": "060", "_loc": "0001"}, "geometry": {"type": "Polygon", "coordinates": [[[-93.16189, 17.22592], [-93.16122, 17.22419], [-93.16219, 17.22427], [-93.16219, 17.2253], [-93.16201, 17.22535], [-93.16245, 17.22546], [-93.16207, 17.22605], [-93.16189, 17.22592]]]}}, {"id": "285513", "type": "Feature", "properties": {"id": "285513", "CVEGEO": "0706000010049002", "POBTOT": 181.0, "score_nse": 0.0, "NSE": "ND", "VIVTOT": 66.0, "GRAPROES": 5.27, "_ent": "07", "_mun": "060", "_loc": "0001"}, "geometry": {"type": "Polygon", "coordinates": [[[-93.16197, 17.22734], [-93.16169, 17.22727], [-93.16063, 17.22559], [-93.15898, 17.22459], [-93.15621, 17.22377], [-93.15541, 17.2244], [-93.15483, 17.22371], [-93.15518, 17.22357], [-93.15554, 17.22299], [-93.15634, 17.22295], [-93.16004, 17.22408], [-93.16127, 17.2249], [-93.16111, 17.22509], [-93.1608, 17.22486], [-93.16053, 17.22521], [-93.16067, 17.22534], [-93.16084, 17.22539], [-93.16062, 17.22519], [-93.16082, 17.22494], [-93.16112, 17.22516], [-93.1613, 17.22495], [-93.16159, 17.22533], [-93.16184, 17.22592], [-93.1612, 17.22628], [-93.16197, 17.22734]]]}}]}