{"type": "FeatureCollection", "features": [{"id": "2248501", "type": "Feature", "properties": {"id": "2248501", "CVEGEO": "3002000350019001", "POBTOT": 0.0, "score_nse": 0.0, "NSE": null, "VIVTOT": 0.0, "GRAPROES": 0.0, "_ent": "30", "_mun": "020", "_loc": "0035"}, "geometry": {"type": "Polygon", "coordinates": [[[-97.08916, 18.67983], [-97.08769, 18.6798], [-97.08704, 18.67934], [-97.08623, 18.67933], [-97.08587, 18.67913], [-97.0856, 18.67925], [-97.08558, 18.67942], [-97.0851, 18.67908], [-97.0849, 18.67911], [-97.08468, 18.67851], [-97.08481, 18.67823], [-97.08595, 18.67784], [-97.08719, 18.67784], [-97.088, 18.67805], [-97.08843, 18.67737], [-97.08839, 18.67821], [-97.08864, 18.67894], [-97.08934, 18.67959], [-97.08916, 18.67983]]]}}, {"id": "2248505", "type": "Feature", "properties": {"id": "2248505", "CVEGEO": "3002000350019003", "POBTOT": 0.0, "score_nse": 0.0, "NSE": null, "VIVTOT": 0.0, "GRAPROES": 0.0, "_ent": "30", "_mun": "020", "_loc": "0035"}, "geometry": {"type": "Polygon", "coordinates": [[[-97.08554, 18.67325], [-97.08482, 18.67379], [-97.08402, 18.67373], [-97.08334, 18.67331], [-97.08398, 18.67341], [-97.08496, 18.67296], [-97.08554, 18.67325]]]}}, {"id": "2248533", "type": "Feature", "properties": {"id": "2248533", "CVEGEO": "3002000350019004", "POBTOT": 0.0, "score_nse": 0.0, "NSE": null, "VIVTOT": 0.0, "GRAPROES": 0.0, "_ent": "30", "_mun": "020", "_loc": "0035"}, "geometry": {"type": "Polygon", "coordinates": [[[-97.08899, 18.67928], [-97.08844, 18.67819], [-97.08855, 18.67739], [-97.0887, 18.67746], [-97.08907, 18.67724], [-97.08963, 18.6773], [-97.09012, 18.67758], [-97.09027, 18.6781], [-97.09042, 18.67824], [-97.09025, 18.67779], [-97.091, 18.67803], [-97.09095, 18.67847], [-97.09035, 18.67926], [-97.08899, 18.67928]]]}}, {"id": "2248534", "type": "Feature", "properties": {"id": "2248534", "CVEGEO": "3002000350019002", "POBTOT": 0.0, "score_nse": 0.0, "NSE": null, "VIVTOT": 0.0, "GRAPROES": 0.0, "_ent": "30", "_mun": "020", "_loc": "0035"}, "geometry": {"type": "Polygon", "coordinates": [[[-97.08632, 18.6734], [-97.08594, 18.67319], [-97.08619, 18.67285], [-97.0863, 18.67298], [-97.08632, 18.6734]]]}}]}