{"type": "FeatureCollection", "features": [{"id": "1058259", "type": "Feature", "properties": {"id": "1058259", "CVEGEO": "1501800200073008", "POBTOT": 0.0, "score_nse": 0.0, "NSE": null, "VIVTOT": 0.0, "GRAPROES": 0.0, "_ent": "15", "_mun": "018", "_loc": "0020"}, "geometry": {"type": "Polygon", "coordinates": [[[-99.63975, 19.14255], [-99.63998, 19.14247], [-99.63993, 19.14265], [-99.63975, 19.14255]]]}}, {"id": "1058622", "type": "Feature", "properties": {"id": "1058622", "CVEGEO": "1501800200073009", "POBTOT": 0.0, "score_nse": 0.0, "NSE": null, "VIVTOT": 0.0, "GRAPROES": 0.0, "_ent": "15", "_mun": "018", "_loc": "0020"}, "geometry": {"type": "Polygon", "coordinates": [[[-99.63955, 19.14244], [-99.6392, 19.14276], [-99.63876, 19.1428], [-99.63793, 19.14265], [-99.63758, 19.14243], [-99.63775, 19.14221], [-99.63955, 19.14244]]]}}, {"id": "1058623", "type": "Feature", "properties": {"id": "1058623", "CVEGEO": "1501800200073006", "POBTOT": 0.0, "score_nse": 0.0, "NSE": null, "VIVTOT": 0.0, "GRAPROES": 0.0, "_ent": "15", "_mun": "018", "_loc": "0020"}, "geometry": {"type": "Polygon", "coordinates": [[[-99.64199, 19.14405], [-99.64159, 19.14405], [-99.64102, 19.1435], [-99.63925, 19.14285], [-99.63958, 19.14246], [-99.64101, 19.14329], [-99.64149, 19.14387], [-99.64199, 19.14405]]]}}, {"id": "1058624", "type": "Feature", "properties": {"id": "1058624", "CVEGEO": "1501800200073004", "POBTOT": 0.0, "score_nse": 0.0, "NSE": null, "VIVTOT": 0.0, "GRAPROES": 0.0, "_ent": "15", "_mun": "018", "_loc": "0020"}, "geometry": {"type": "Polygon", "coordinates": [[[-99.65302, 19.13935], [-99.65291, 19.13972], [-99.65287, 19.14055], [-99.65258, 19.13994], [-99.65278, 19.1388], [-99.65302, 19.13935]]]}}, {"id": "1058625", "type": "Feature", "properties": {"id": "1058625", "CVEGEO": "1501800200073003", "POBTOT": 0.0, "score_nse": 0.0, "NSE": null, "VIVTOT": 0.0, "GRAPROES": 0.0, "_ent": "15", "_mun": "018", "_loc": "0020"}, "geometry": {"type": "Polygon", "coordinates": [[[-99.65212, 19.14179], [-99.65141, 19.14204], [-99.65109, 19.1427], [-99.64884, 19.14356], [-99.6485, 19.14394], [-99.64863, 19.1443], [-99.64851, 19.14435], [-99.64846, 19.14304], [-99.64924, 19.14225], [-99.65017, 19.14196], [-99.65212, 19.14179]]]}}, {"id": "1058626", "type": "Feature", "properties": {"id": "1058626", "CVEGEO": "1501800200073001", "POBTOT": 0.0, "score_nse": 0.0, "NSE": null, "VIVTOT": 0.0, "GRAPROES": 0.0, "_ent": "15", "_mun": "018", "_loc": "0020"}, "geometry": {"type": "Polygon", "coordinates": [[[-99.64932, 19.14353], [-99.64903, 19.14373], [-99.64865, 19.14415], [-99.64854, 19.14397], [-99.64869, 19.14375], [-99.64902, 19.14351], [-99.64932, 19.14353]]]}}, {"id": "1058870", "type": "Feature", "properties": {"id": "1058870", "CVEGEO": "1501800200073010", "POBTOT": 0.0, "score_nse": 0.0, "NSE": null, "VIVTOT": 0.0, "GRAPROES": 0.0, "_ent": "15", "_mun": "018", "_loc": "0020"}, "geometry": {"type": "Polygon", "coordinates": [[[-99.64115, 19.14329], [-99.64007, 19.14267], [-99.64008, 19.1425], [-99.64114, 19.14239], [-99.64115, 19.14329]]]}}]}