{"type": "FeatureCollection", "features": [{"id": "1621492", "type": "Feature", "properties": {"id": "1621492", "CVEGEO": "2051500370116008", "POBTOT": 0.0, "score_nse": 0.0, "NSE": null, "VIVTOT": 0.0, "GRAPROES": 0.0, "_ent": "20", "_mun": "515", "_loc": "0037"}, "geometry": {"type": "Polygon", "coordinates": [[[-95.22199, 16.35409], [-95.22183, 16.35401], [-95.22209, 16.35339], [-95.22238, 16.35341], [-95.22199, 16.35409]]]}}, {"id": "1621508", "type": "Feature", "properties": {"id": "1621508", "CVEGEO": "2051500370116001", "POBTOT": 0.0, "score_nse": 0.0, "NSE": null, "VIVTOT": 0.0, "GRAPROES": 0.0, "_ent": "20", "_mun": "515", "_loc": "0037"}, "geometry": {"type": "Polygon", "coordinates": [[[-95.22402, 16.35094], [-95.22297, 16.35282], [-95.22284, 16.35277], [-95.22344, 16.35073], [-95.22402, 16.35094]]]}}, {"id": "1622209", "type": "Feature", "properties": {"id": "1622209", "CVEGEO": "2051500370116003", "POBTOT": 0.0, "score_nse": 0.0, "NSE": null, "VIVTOT": 0.0, "GRAPROES": 0.0, "_ent": "20", "_mun": "515", "_loc": "0037"}, "geometry": {"type": "Polygon", "coordinates": [[[-95.22541, 16.35087], [-95.22451, 16.3508], [-95.22471, 16.35021], [-95.22429, 16.3508], [-95.22494, 16.34966], [-95.22541, 16.35087]]]}}, {"id": "1622888", "type": "Feature", "properties": {"id": "1622888", "CVEGEO": "2051500370116011", "POBTOT": 0.0, "score_nse": 0.0, "NSE": null, "VIVTOT": 0.0, "GRAPROES": 0.0, "_ent": "20", "_mun": "515", "_loc": "0037"}, "geometry": {"type": "Polygon", "coordinates": [[[-95.22178, 16.35399], [-95.22143, 16.35384], [-95.22154, 16.35328], [-95.22204, 16.35337], [-95.22178, 16.35399]]]}}, {"id": "1622889", "type": "Feature", "properties": {"id": "1622889", "CVEGEO": "2051500370116012", "POBTOT": 0.0, "score_nse": 0.0, "NSE": null, "VIVTOT": 0.0, "GRAPROES": 0.0, "_ent": "20", "_mun": "515", "_loc": "0037"}, "geometry": {"type": "Polygon", "coordinates": [[[-95.2215, 16.35326], [-95.22139, 16.35376], [-95.22087, 16.35349], [-95.22098, 16.35318], [-95.2215, 16.35326]]]}}, {"id": "1622890", "type": "Feature", "properties": {"id": "1622890", "CVEGEO": "2051500370116013", "POBTOT": 0.0, "score_nse": 0.0, "NSE": null, "VIVTOT": 0.0, "GRAPROES": 0.0, "_ent": "20", "_mun": "515", "_loc": "0037"}, "geometry": {"type": "Polygon", "coordinates": [[[-95.22596, 16.34783], [-95.22622, 16.34774], [-95.22509, 16.34962], [-95.22498, 16.34953], [-95.22596, 16.34783]]]}}, {"id": "1623146", "type": "Feature", "properties": {"id": "1623146", "CVEGEO": "2051500370116007", "POBTOT": 0.0, "score_nse": 0.0, "NSE": null, "VIVTOT": 0.0, "GRAPROES": 0.0, "_ent": "20", "_mun": "515", "_loc": "0037"}, "geometry": {"type": "Polygon", "coordinates": [[[-95.22295, 16.35286], [-95.22241, 16.35384], [-95.22172, 16.35506], [-95.22172, 16.35477], [-95.22282, 16.35281], [-95.22295, 16.35286]]]}}, {"id": "1623147", "type": "Feature", "properties": {"id": "1623147", "CVEGEO": "2051500370116006", "POBTOT": 0.0, "score_nse": 0.0, "NSE": null, "VIVTOT": 0.0, "GRAPROES": 0.0, "_ent": "20", "_mun": "515", "_loc": "0037"}, "geometry": {"type": "Polygon", "coordinates": [[[-95.2224, 16.35336], [-95.22213, 16.35332], [-95.22237, 16.35221], [-95.2229, 16.35228], [-95.2224, 16.35336]]]}}, {"id": "1623148", "type": "Feature", "properties": {"id": "1623148", "CVEGEO": "2051500370116005", "POBTOT": 0.0, "score_nse": 0.0, "NSE": null, "VIVTOT": 0.0, "GRAPROES": 0.0, "_ent": "20", "_mun": "515", "_loc": "0037"}, "geometry": {"type": "Polygon", "coordinates": [[[-95.22438, 16.35086], [-95.22379, 16.35214], [-95.22364, 16.35195], [-95.22324, 16.35281], [-95.22364, 16.35203], [-95.22399, 16.35248], [-95.22283, 16.35342], [-95.2238, 16.35155], [-95.22438, 16.35086]]]}}, {"id": "1623178", "type": "Feature", "properties": {"id": "1623178", "CVEGEO": "2051500370116009", "POBTOT": 0.0, "score_nse": 0.0, "NSE": null, "VIVTOT": 0.0, "GRAPROES": 0.0, "_ent": "20", "_mun": "515", "_loc": "0037"}, "geometry": {"type": "Polygon", "coordinates": [[[-95.22238, 16.35419], [-95.22232, 16.3546], [-95.2218, 16.35544], [-95.22176, 16.3552], [-95.22238, 16.35419]]]}}, {"id": "1623190", "type": "Feature", "properties": {"id": "1623190", "CVEGEO": "2051500370116004", "POBTOT": 0.0, "score_nse": 0.0, "NSE": null, "VIVTOT": 0.0, "GRAPROES": 0.0, "_ent": "20", "_mun": "515", "_loc": "0037"}, "geometry": {"type": "Polygon", "coordinates": [[[-95.22554, 16.35182], [-95.22406, 16.35246], [-95.22387, 16.35218], [-95.22442, 16.35081], [-95.2253, 16.35092], [-95.22554, 16.35182]]]}}, {"id": "1623302", "type": "Feature", "properties": {"id": "1623302", "CVEGEO": "2051500370116015", "POBTOT": 0.0, "score_nse": 0.0, "NSE": null, "VIVTOT": 0.0, "GRAPROES": 0.0, "_ent": "20", "_mun": "515", "_loc": "0037"}, "geometry": {"type": "Polygon", "coordinates": [[[-95.22133, 16.35484], [-95.22117, 16.35478], [-95.22156, 16.35395], [-95.22177, 16.35404], [-95.22133, 16.35484]]]}}, {"id": "1623303", "type": "Feature", "properties": {"id": "1623303", "CVEGEO": "2051500370116016", "POBTOT": 0.0, "score_nse": 0.0, "NSE": null, "VIVTOT": 0.0, "GRAPROES": 0.0, "_ent": "20", "_mun": "515", "_loc": "0037"}, "geometry": {"type": "Polygon", "coordinates": [[[-95.22105, 16.35531], [-95.2208, 16.35518], [-95.22104, 16.35478], [-95.22131, 16.35489], [-95.22105, 16.35531]]]}}, {"id": "1623380", "type": "Feature", "properties": {"id": "1623380", "CVEGEO": "2051500370116002", "POBTOT": 0.0, "score_nse": 0.0, "NSE": null, "VIVTOT": 0.0, "GRAPROES": 0.0, "_ent": "20", "_mun": "515", "_loc": "0037"}, "geometry": {"type": "Polygon", "coordinates": [[[-95.22298, 16.35199], [-95.22292, 16.35222], [-95.22239, 16.35216], [-95.22246, 16.35193], [-95.22298, 16.35199]]]}}, {"id": "1623381", "type": "Feature", "properties": {"id": "1623381", "CVEGEO": "2051500370116010", "POBTOT": 0.0, "score_nse": 0.0, "NSE": null, "VIVTOT": 0.0, "GRAPROES": 0.0, "_ent": "20", "_mun": "515", "_loc": "0037"}, "geometry": {"type": "Polygon", "coordinates": [[[-95.22181, 16.35405], [-95.22197, 16.35413], [-95.2215, 16.35503], [-95.2213, 16.35496], [-95.22181, 16.35405]]]}}, {"id": "1623382", "type": "Feature", "properties": {"id": "1623382", "CVEGEO": "2051500370116014", "POBTOT": 0.0, "score_nse": 0.0, "NSE": null, "VIVTOT": 0.0, "GRAPROES": 0.0, "_ent": "20", "_mun": "515", "_loc": "0037"}, "geometry": {"type": "Polygon", "coordinates": [[[-95.22208, 16.35332], [-95.22157, 16.35324], [-95.2218, 16.35237], [-95.22152, 16.35323], [-95.22096, 16.35314], [-95.22147, 16.35131], [-95.22254, 16.35148], [-95.22208, 16.35332]]]}}, {"id": "1623383", "type": "Feature", "properties": {"id": "1623383", "CVEGEO": "2051500370116017", "POBTOT": 0.0, "score_nse": 0.0, "NSE": null, "VIVTOT": 0.0, "GRAPROES": 0.0, "_ent": "20", "_mun": "515", "_loc": "0037"}, "geometry": {"type": "Polygon", "coordinates": [[[-95.22313, 16.34937], [-95.22293, 16.3487], [-95.22351, 16.34919], [-95.22365, 16.34952], [-95.2235, 16.3502], [-95.22291, 16.35036], [-95.22313, 16.34937]]]}}, {"id": "1623384", "type": "Feature", "properties": {"id": "1623384", "CVEGEO": "2051500370116018", "POBTOT": 0.0, "score_nse": 0.0, "NSE": null, "VIVTOT": 0.0, "GRAPROES": 0.0, "_ent": "20", "_mun": "515", "_loc": "0037"}, "geometry": {"type": "Polygon", "coordinates": [[[-95.22347, 16.35028], [-95.22301, 16.35194], [-95.22247, 16.35188], [-95.2229, 16.3504], [-95.22347, 16.35028]]]}}]}