{"type": "FeatureCollection", "features": [{"id": "272734", "type": "Feature", "properties": {"id": "272734", "CVEGEO": "0705200720390009", "POBTOT": 0.0, "score_nse": 0.0, "NSE": null, "VIVTOT": 0.0, "GRAPROES": 0.0, "_ent": "07", "_mun": "052", "_loc": "0072"}, "geometry": {"type": "Polygon", "coordinates": [[[-91.40876, 16.1641], [-91.40816, 16.16362], [-91.40864, 16.16305], [-91.40924, 16.16353], [-91.40876, 16.1641]]]}}, {"id": "274128", "type": "Feature", "properties": {"id": "274128", "CVEGEO": "0705200720390019", "POBTOT": 0.0, "score_nse": 0.0, "NSE": null, "VIVTOT": 0.0, "GRAPROES": 0.0, "_ent": "07", "_mun": "052", "_loc": "0072"}, "geometry": {"type": "Polygon", "coordinates": [[[-91.40756, 16.16224], [-91.40734, 16.16243], [-91.40711, 16.16241], [-91.4074, 16.16206], [-91.40756, 16.16224]]]}}, {"id": "274129", "type": "Feature", "properties": {"id": "274129", "CVEGEO": "0705200720390018", "POBTOT": 0.0, "score_nse": 0.0, "NSE": null, "VIVTOT": 0.0, "GRAPROES": 0.0, "_ent": "07", "_mun": "052", "_loc": "0072"}, "geometry": {"type": "Polygon", "coordinates": [[[-91.40753, 16.16303], [-91.40693, 16.16257], [-91.40741, 16.16247], [-91.40767, 16.16225], [-91.40796, 16.16249], [-91.40753, 16.16303]]]}}, {"id": "274130", "type": "Feature", "properties": {"id": "274130", "CVEGEO": "0705200720390017", "POBTOT": 0.0, "score_nse": 0.0, "NSE": null, "VIVTOT": 0.0, "GRAPROES": 0.0, "_ent": "07", "_mun": "052", "_loc": "0072"}, "geometry": {"type": "Polygon", "coordinates": [[[-91.407, 16.16376], [-91.40638, 16.16325], [-91.40689, 16.16262], [-91.4075, 16.16309], [-91.407, 16.16376]]]}}, {"id": "274131", "type": "Feature", "properties": {"id": "274131", "CVEGEO": "0705200720390016", "POBTOT": 0.0, "score_nse": 0.0, "NSE": null, "VIVTOT": 0.0, "GRAPROES": 0.0, "_ent": "07", "_mun": "052", "_loc": "0072"}, "geometry": {"type": "Polygon", "coordinates": [[[-91.41098, 16.16491], [-91.41109, 16.1656], [-91.41071, 16.16661], [-91.41039, 16.16679], [-91.40981, 16.16605], [-91.41081, 16.16486], [-91.41098, 16.16491]]]}}, {"id": "274132", "type": "Feature", "properties": {"id": "274132", "CVEGEO": "0705200720390015", "POBTOT": 0.0, "score_nse": 0.0, "NSE": null, "VIVTOT": 0.0, "GRAPROES": 0.0, "_ent": "07", "_mun": "052", "_loc": "0072"}, "geometry": {"type": "Polygon", "coordinates": [[[-91.40852, 16.16188], [-91.4091, 16.16235], [-91.40864, 16.16292], [-91.40808, 16.16244], [-91.40852, 16.16188]]]}}, {"id": "274133", "type": "Feature", "properties": {"id": "274133", "CVEGEO": "0705200720390014", "POBTOT": 0.0, "score_nse": 0.0, "NSE": null, "VIVTOT": 0.0, "GRAPROES": 0.0, "_ent": "07", "_mun": "052", "_loc": "0072"}, "geometry": {"type": "Polygon", "coordinates": [[[-91.40811, 16.16356], [-91.4076, 16.16309], [-91.40803, 16.16251], [-91.40859, 16.16299], [-91.40811, 16.16356]]]}}, {"id": "274134", "type": "Feature", "properties": {"id": "274134", "CVEGEO": "0705200720390013", "POBTOT": 0.0, "score_nse": 0.0, "NSE": null, "VIVTOT": 0.0, "GRAPROES": 0.0, "_ent": "07", "_mun": "052", "_loc": "0072"}, "geometry": {"type": "Polygon", "coordinates": [[[-91.40807, 16.16362], [-91.40758, 16.16424], [-91.40707, 16.16382], [-91.40756, 16.16315], [-91.40807, 16.16362]]]}}, {"id": "274135", "type": "Feature", "properties": {"id": "274135", "CVEGEO": "0705200720390012", "POBTOT": 0.0, "score_nse": 0.0, "NSE": null, "VIVTOT": 0.0, "GRAPROES": 0.0, "_ent": "07", "_mun": "052", "_loc": "0072"}, "geometry": {"type": "Polygon", "coordinates": [[[-91.41001, 16.16529], [-91.4102, 16.16543], [-91.40972, 16.16601], [-91.40953, 16.16586], [-91.41001, 16.16529]]]}}, {"id": "275373", "type": "Feature", "properties": {"id": "275373", "CVEGEO": "0705200720390021", "POBTOT": 0.0, "score_nse": 0.0, "NSE": null, "VIVTOT": 0.0, "GRAPROES": 0.0, "_ent": "07", "_mun": "052", "_loc": "0072"}, "geometry": {"type": "Polygon", "coordinates": [[[-91.40802, 16.1624], [-91.40753, 16.16198], [-91.40799, 16.16148], [-91.40848, 16.16183], [-91.40802, 16.1624]]]}}, {"id": "275374", "type": "Feature", "properties": {"id": "275374", "CVEGEO": "0705200720390020", "POBTOT": 0.0, "score_nse": 0.0, "NSE": null, "VIVTOT": 0.0, "GRAPROES": 0.0, "_ent": "07", "_mun": "052", "_loc": "0072"}, "geometry": {"type": "Polygon", "coordinates": [[[-91.41106, 16.16442], [-91.40999, 16.16344], [-91.41018, 16.16317], [-91.40826, 16.16155], [-91.40995, 16.16062], [-91.4107, 16.15982], [-91.41083, 16.15986], [-91.41085, 16.16015], [-91.41009, 16.16108], [-91.41005, 16.16141], [-91.41064, 16.16246], [-91.41091, 16.16267], [-91.41063, 16.16337], [-91.41088, 16.16367], [-91.41149, 16.16382], [-91.41106, 16.16442]]]}}, {"id": "275882", "type": "Feature", "properties": {"id": "275882", "CVEGEO": "0705200720390008", "POBTOT": 0.0, "score_nse": 0.0, "NSE": null, "VIVTOT": 0.0, "GRAPROES": 0.0, "_ent": "07", "_mun": "052", "_loc": "0072"}, "geometry": {"type": "Polygon", "coordinates": [[[-91.40819, 16.16473], [-91.40766, 16.16429], [-91.40812, 16.16369], [-91.4087, 16.16416], [-91.40819, 16.16473]]]}}, {"id": "276041", "type": "Feature", "properties": {"id": "276041", "CVEGEO": "0705200720390010", "POBTOT": 0.0, "score_nse": 0.0, "NSE": null, "VIVTOT": 0.0, "GRAPROES": 0.0, "_ent": "07", "_mun": "052", "_loc": "0072"}, "geometry": {"type": "Polygon", "coordinates": [[[-91.40927, 16.16346], [-91.40872, 16.16299], [-91.40919, 16.16244], [-91.40973, 16.16293], [-91.40927, 16.16346]]]}}, {"id": "276084", "type": "Feature", "properties": {"id": "276084", "CVEGEO": "0705200720390011", "POBTOT": 0.0, "score_nse": 0.0, "NSE": null, "VIVTOT": 0.0, "GRAPROES": 0.0, "_ent": "07", "_mun": "052", "_loc": "0072"}, "geometry": {"type": "Polygon", "coordinates": [[[-91.41056, 16.16469], [-91.41073, 16.16484], [-91.41024, 16.16537], [-91.41005, 16.16521], [-91.41056, 16.16469]]]}}, {"id": "276710", "type": "Feature", "properties": {"id": "276710", "CVEGEO": "0705200720390007", "POBTOT": 0.0, "score_nse": 0.0, "NSE": null, "VIVTOT": 0.0, "GRAPROES": 0.0, "_ent": "07", "_mun": "052", "_loc": "0072"}, "geometry": {"type": "Polygon", "coordinates": [[[-91.40995, 16.16524], [-91.40948, 16.1658], [-91.40887, 16.1653], [-91.40936, 16.16477], [-91.40995, 16.16524]]]}}, {"id": "276711", "type": "Feature", "properties": {"id": "276711", "CVEGEO": "0705200720390006", "POBTOT": 0.0, "score_nse": 0.0, "NSE": null, "VIVTOT": 0.0, "GRAPROES": 0.0, "_ent": "07", "_mun": "052", "_loc": "0072"}, "geometry": {"type": "Polygon", "coordinates": [[[-91.4099, 16.16411], [-91.41049, 16.16463], [-91.41, 16.16516], [-91.4094, 16.16467], [-91.4099, 16.16411]]]}}, {"id": "276712", "type": "Feature", "properties": {"id": "276712", "CVEGEO": "0705200720390005", "POBTOT": 0.0, "score_nse": 0.0, "NSE": null, "VIVTOT": 0.0, "GRAPROES": 0.0, "_ent": "07", "_mun": "052", "_loc": "0072"}, "geometry": {"type": "Polygon", "coordinates": [[[-91.41104, 16.16449], [-91.41078, 16.16478], [-91.40998, 16.16404], [-91.41016, 16.16377], [-91.41104, 16.16449]]]}}, {"id": "276713", "type": "Feature", "properties": {"id": "276713", "CVEGEO": "0705200720390004", "POBTOT": 0.0, "score_nse": 0.0, "NSE": null, "VIVTOT": 0.0, "GRAPROES": 0.0, "_ent": "07", "_mun": "052", "_loc": "0072"}, "geometry": {"type": "Polygon", "coordinates": [[[-91.41003, 16.16318], [-91.40992, 16.16342], [-91.41011, 16.16372], [-91.40991, 16.16399], [-91.40935, 16.16351], [-91.4098, 16.16298], [-91.41003, 16.16318]]]}}, {"id": "276714", "type": "Feature", "properties": {"id": "276714", "CVEGEO": "0705200720390002", "POBTOT": 0.0, "score_nse": 0.0, "NSE": null, "VIVTOT": 0.0, "GRAPROES": 0.0, "_ent": "07", "_mun": "052", "_loc": "0072"}, "geometry": {"type": "Polygon", "coordinates": [[[-91.4088, 16.16523], [-91.40825, 16.1648], [-91.40878, 16.16423], [-91.40929, 16.1647], [-91.4088, 16.16523]]]}}, {"id": "276715", "type": "Feature", "properties": {"id": "276715", "CVEGEO": "0705200720390001", "POBTOT": 0.0, "score_nse": 0.0, "NSE": null, "VIVTOT": 0.0, "GRAPROES": 0.0, "_ent": "07", "_mun": "052", "_loc": "0072"}, "geometry": {"type": "Polygon", "coordinates": [[[-91.40984, 16.16406], [-91.40933, 16.16462], [-91.40884, 16.16417], [-91.40929, 16.16361], [-91.40984, 16.16406]]]}}]}