{"type": "FeatureCollection", "features": [{"id": "1597514", "type": "Feature", "properties": {"id": "1597514", "CVEGEO": "2006800130057034", "POBTOT": 0.0, "score_nse": 0.0, "NSE": null, "VIVTOT": 0.0, "GRAPROES": 0.0, "_ent": "20", "_mun": "068", "_loc": "0013"}, "geometry": {"type": "Polygon", "coordinates": [[[-96.64352, 16.72255], [-96.64305, 16.72267], [-96.64281, 16.72306], [-96.64214, 16.7232], [-96.64185, 16.72353], [-96.64167, 16.72413], [-96.64146, 16.72424], [-96.64032, 16.72335], [-96.6411, 16.72106], [-96.64253, 16.72165], [-96.64352, 16.72255]]]}}, {"id": "1597515", "type": "Feature", "properties": {"id": "1597515", "CVEGEO": "2006800130057033", "POBTOT": 0.0, "score_nse": 0.0, "NSE": null, "VIVTOT": 0.0, "GRAPROES": 0.0, "_ent": "20", "_mun": "068", "_loc": "0013"}, "geometry": {"type": "Polygon", "coordinates": [[[-96.63872, 16.71679], [-96.63859, 16.71713], [-96.63787, 16.71682], [-96.63741, 16.7166], [-96.63751, 16.71624], [-96.63803, 16.71583], [-96.63834, 16.71594], [-96.63841, 16.71652], [-96.63872, 16.71679]]]}}, {"id": "1597516", "type": "Feature", "properties": {"id": "1597516", "CVEGEO": "2006800130057004", "POBTOT": 0.0, "score_nse": 0.0, "NSE": null, "VIVTOT": 0.0, "GRAPROES": 0.0, "_ent": "20", "_mun": "068", "_loc": "0013"}, "geometry": {"type": "Polygon", "coordinates": [[[-96.63894, 16.72103], [-96.63925, 16.72014], [-96.64012, 16.72052], [-96.63981, 16.7214], [-96.63894, 16.72103]]]}}, {"id": "1597517", "type": "Feature", "properties": {"id": "1597517", "CVEGEO": "2006800130057003", "POBTOT": 0.0, "score_nse": 0.0, "NSE": null, "VIVTOT": 0.0, "GRAPROES": 0.0, "_ent": "20", "_mun": "068", "_loc": "0013"}, "geometry": {"type": "Polygon", "coordinates": [[[-96.63832, 16.71974], [-96.6392, 16.72012], [-96.63889, 16.721], [-96.63802, 16.72061], [-96.63832, 16.71974]]]}}, {"id": "1597518", "type": "Feature", "properties": {"id": "1597518", "CVEGEO": "2006800130057002", "POBTOT": 0.0, "score_nse": 0.0, "NSE": null, "VIVTOT": 0.0, "GRAPROES": 0.0, "_ent": "20", "_mun": "068", "_loc": "0013"}, "geometry": {"type": "Polygon", "coordinates": [[[-96.63772, 16.72155], [-96.63801, 16.72067], [-96.63888, 16.72106], [-96.6386, 16.72193], [-96.63772, 16.72155]]]}}, {"id": "1597519", "type": "Feature", "properties": {"id": "1597519", "CVEGEO": "2006800130057001", "POBTOT": 0.0, "score_nse": 0.0, "NSE": null, "VIVTOT": 0.0, "GRAPROES": 0.0, "_ent": "20", "_mun": "068", "_loc": "0013"}, "geometry": {"type": "Polygon", "coordinates": [[[-96.63865, 16.72196], [-96.63893, 16.72108], [-96.6398, 16.72145], [-96.63973, 16.72166], [-96.63951, 16.72156], [-96.63972, 16.72169], [-96.6395, 16.72233], [-96.63865, 16.72196]]]}}, {"id": "1597565", "type": "Feature", "properties": {"id": "1597565", "CVEGEO": "2006800130057022", "POBTOT": 0.0, "score_nse": 0.0, "NSE": null, "VIVTOT": 0.0, "GRAPROES": 0.0, "_ent": "20", "_mun": "068", "_loc": "0013"}, "geometry": {"type": "Polygon", "coordinates": [[[-96.63796, 16.72382], [-96.63775, 16.72451], [-96.63745, 16.72473], [-96.63676, 16.72426], [-96.63707, 16.72342], [-96.63796, 16.72382]]]}}, {"id": "1597566", "type": "Feature", "properties": {"id": "1597566", "CVEGEO": "2006800130057006", "POBTOT": 0.0, "score_nse": 0.0, "NSE": null, "VIVTOT": 0.0, "GRAPROES": 0.0, "_ent": "20", "_mun": "068", "_loc": "0013"}, "geometry": {"type": "Polygon", "coordinates": [[[-96.63958, 16.72237], [-96.63986, 16.72149], [-96.64075, 16.72186], [-96.64046, 16.72275], [-96.63958, 16.72237]]]}}, {"id": "1597576", "type": "Feature", "properties": {"id": "1597576", "CVEGEO": "2006800130057017", "POBTOT": 0.0, "score_nse": 0.0, "NSE": null, "VIVTOT": 0.0, "GRAPROES": 0.0, "_ent": "20", "_mun": "068", "_loc": "0013"}, "geometry": {"type": "Polygon", "coordinates": [[[-96.63727, 16.72263], [-96.63702, 16.72335], [-96.63615, 16.72295], [-96.63656, 16.72177], [-96.63669, 16.72243], [-96.63727, 16.72263]]]}}, {"id": "1597583", "type": "Feature", "properties": {"id": "1597583", "CVEGEO": "2006800130057013", "POBTOT": 0.0, "score_nse": 0.0, "NSE": null, "VIVTOT": 0.0, "GRAPROES": 0.0, "_ent": "20", "_mun": "068", "_loc": "0013"}, "geometry": {"type": "Polygon", "coordinates": [[[-96.64021, 16.72051], [-96.64049, 16.71961], [-96.64138, 16.72], [-96.64108, 16.7209], [-96.64021, 16.72051]]]}}, {"id": "1597584", "type": "Feature", "properties": {"id": "1597584", "CVEGEO": "2006800130057012", "POBTOT": 0.0, "score_nse": 0.0, "NSE": null, "VIVTOT": 0.0, "GRAPROES": 0.0, "_ent": "20", "_mun": "068", "_loc": "0013"}, "geometry": {"type": "Polygon", "coordinates": [[[-96.63926, 16.72008], [-96.63955, 16.71924], [-96.64042, 16.71958], [-96.64009, 16.72047], [-96.63926, 16.72008]]]}}, {"id": "1597588", "type": "Feature", "properties": {"id": "1597588", "CVEGEO": "2006800130057014", "POBTOT": 0.0, "score_nse": 0.0, "NSE": null, "VIVTOT": 0.0, "GRAPROES": 0.0, "_ent": "20", "_mun": "068", "_loc": "0013"}, "geometry": {"type": "Polygon", "coordinates": [[[-96.63942, 16.72393], [-96.63915, 16.72402], [-96.63916, 16.72368], [-96.63928, 16.72382], [-96.63942, 16.72393]]]}}, {"id": "1597617", "type": "Feature", "properties": {"id": "1597617", "CVEGEO": "2006800130057009", "POBTOT": 0.0, "score_nse": 0.0, "NSE": null, "VIVTOT": 0.0, "GRAPROES": 0.0, "_ent": "20", "_mun": "068", "_loc": "0013"}, "geometry": {"type": "Polygon", "coordinates": [[[-96.63858, 16.72199], [-96.63816, 16.72327], [-96.63786, 16.72286], [-96.63734, 16.72261], [-96.63771, 16.72161], [-96.63858, 16.72199]]]}}, {"id": "1597618", "type": "Feature", "properties": {"id": "1597618", "CVEGEO": "2006800130057008", "POBTOT": 0.0, "score_nse": 0.0, "NSE": null, "VIVTOT": 0.0, "GRAPROES": 0.0, "_ent": "20", "_mun": "068", "_loc": "0013"}, "geometry": {"type": "Polygon", "coordinates": [[[-96.63951, 16.72238], [-96.63912, 16.72358], [-96.63821, 16.72331], [-96.63849, 16.72248], [-96.63871, 16.72255], [-96.63849, 16.72245], [-96.63865, 16.722], [-96.63951, 16.72238]]]}}, {"id": "1597619", "type": "Feature", "properties": {"id": "1597619", "CVEGEO": "2006800130057015", "POBTOT": 0.0, "score_nse": 0.0, "NSE": null, "VIVTOT": 0.0, "GRAPROES": 0.0, "_ent": "20", "_mun": "068", "_loc": "0013"}, "geometry": {"type": "Polygon", "coordinates": [[[-96.6391, 16.72364], [-96.63905, 16.72393], [-96.63875, 16.7241], [-96.63804, 16.7238], [-96.63818, 16.72338], [-96.6391, 16.72364]]]}}, {"id": "1597627", "type": "Feature", "properties": {"id": "1597627", "CVEGEO": "2006800130057032", "POBTOT": 0.0, "score_nse": 0.0, "NSE": null, "VIVTOT": 0.0, "GRAPROES": 0.0, "_ent": "20", "_mun": "068", "_loc": "0013"}, "geometry": {"type": "Polygon", "coordinates": [[[-96.63928, 16.71678], [-96.63906, 16.71733], [-96.63862, 16.71714], [-96.63874, 16.71679], [-96.63928, 16.71678]]]}}, {"id": "1597628", "type": "Feature", "properties": {"id": "1597628", "CVEGEO": "2006800130057007", "POBTOT": 0.0, "score_nse": 0.0, "NSE": null, "VIVTOT": 0.0, "GRAPROES": 0.0, "_ent": "20", "_mun": "068", "_loc": "0013"}, "geometry": {"type": "Polygon", "coordinates": [[[-96.64044, 16.7228], [-96.63995, 16.72398], [-96.63948, 16.72389], [-96.63918, 16.72359], [-96.63957, 16.72243], [-96.64044, 16.7228]]]}}, {"id": "1597664", "type": "Feature", "properties": {"id": "1597664", "CVEGEO": "2006800130057028", "POBTOT": 0.0, "score_nse": 0.0, "NSE": null, "VIVTOT": 0.0, "GRAPROES": 0.0, "_ent": "20", "_mun": "068", "_loc": "0013"}, "geometry": {"type": "Polygon", "coordinates": [[[-96.63992, 16.72441], [-96.63933, 16.72614], [-96.63942, 16.72668], [-96.63855, 16.726], [-96.63883, 16.7255], [-96.63851, 16.72596], [-96.63772, 16.72537], [-96.63747, 16.72482], [-96.63807, 16.72476], [-96.63914, 16.72412], [-96.63992, 16.72441]]]}}, {"id": "1597665", "type": "Feature", "properties": {"id": "1597665", "CVEGEO": "2006800130057027", "POBTOT": 0.0, "score_nse": 0.0, "NSE": null, "VIVTOT": 0.0, "GRAPROES": 0.0, "_ent": "20", "_mun": "068", "_loc": "0013"}, "geometry": {"type": "Polygon", "coordinates": [[[-96.64137, 16.72423], [-96.64108, 16.72398], [-96.64019, 16.72375], [-96.6403, 16.72342], [-96.64103, 16.72388], [-96.64137, 16.72423]]]}}, {"id": "1597666", "type": "Feature", "properties": {"id": "1597666", "CVEGEO": "2006800130057026", "POBTOT": 0.0, "score_nse": 0.0, "NSE": null, "VIVTOT": 0.0, "GRAPROES": 0.0, "_ent": "20", "_mun": "068", "_loc": "0013"}, "geometry": {"type": "Polygon", "coordinates": [[[-96.64096, 16.71922], [-96.64075, 16.71967], [-96.64051, 16.71956], [-96.64099, 16.71824], [-96.64184, 16.71862], [-96.64139, 16.71995], [-96.6408, 16.71969], [-96.64096, 16.71922]]]}}, {"id": "1597667", "type": "Feature", "properties": {"id": "1597667", "CVEGEO": "2006800130057024", "POBTOT": 0.0, "score_nse": 0.0, "NSE": null, "VIVTOT": 0.0, "GRAPROES": 0.0, "_ent": "20", "_mun": "068", "_loc": "0013"}, "geometry": {"type": "Polygon", "coordinates": [[[-96.63866, 16.71874], [-96.6391, 16.71741], [-96.64001, 16.71781], [-96.63951, 16.71914], [-96.63866, 16.71874]]]}}, {"id": "1597668", "type": "Feature", "properties": {"id": "1597668", "CVEGEO": "2006800130057010", "POBTOT": 0.0, "score_nse": 0.0, "NSE": null, "VIVTOT": 0.0, "GRAPROES": 0.0, "_ent": "20", "_mun": "068", "_loc": "0013"}, "geometry": {"type": "Polygon", "coordinates": [[[-96.63765, 16.72159], [-96.63729, 16.72258], [-96.63672, 16.7224], [-96.63657, 16.7217], [-96.63678, 16.7212], [-96.63765, 16.72159]]]}}, {"id": "1597712", "type": "Feature", "properties": {"id": "1597712", "CVEGEO": "2006800130057011", "POBTOT": 0.0, "score_nse": 0.0, "NSE": null, "VIVTOT": 0.0, "GRAPROES": 0.0, "_ent": "20", "_mun": "068", "_loc": "0013"}, "geometry": {"type": "Polygon", "coordinates": [[[-96.63948, 16.71918], [-96.63918, 16.72005], [-96.63834, 16.71968], [-96.63864, 16.71881], [-96.63948, 16.71918]]]}}, {"id": "1597725", "type": "Feature", "properties": {"id": "1597725", "CVEGEO": "2006800130057021", "POBTOT": 0.0, "score_nse": 0.0, "NSE": null, "VIVTOT": 0.0, "GRAPROES": 0.0, "_ent": "20", "_mun": "068", "_loc": "0013"}, "geometry": {"type": "Polygon", "coordinates": [[[-96.63876, 16.7242], [-96.63775, 16.72483], [-96.63755, 16.72472], [-96.63778, 16.72451], [-96.63802, 16.72384], [-96.63876, 16.7242]]]}}, {"id": "1597726", "type": "Feature", "properties": {"id": "1597726", "CVEGEO": "2006800130057020", "POBTOT": 0.0, "score_nse": 0.0, "NSE": null, "VIVTOT": 0.0, "GRAPROES": 0.0, "_ent": "20", "_mun": "068", "_loc": "0013"}, "geometry": {"type": "Polygon", "coordinates": [[[-96.64001, 16.72388], [-96.63993, 16.72437], [-96.63918, 16.72411], [-96.63947, 16.72398], [-96.63991, 16.72407], [-96.64001, 16.72388]]]}}, {"id": "1597727", "type": "Feature", "properties": {"id": "1597727", "CVEGEO": "2006800130057019", "POBTOT": 0.0, "score_nse": 0.0, "NSE": null, "VIVTOT": 0.0, "GRAPROES": 0.0, "_ent": "20", "_mun": "068", "_loc": "0013"}, "geometry": {"type": "Polygon", "coordinates": [[[-96.63958, 16.71917], [-96.64006, 16.71784], [-96.64092, 16.71821], [-96.64063, 16.71902], [-96.64029, 16.71895], [-96.6406, 16.7191], [-96.64044, 16.71954], [-96.63958, 16.71917]]]}}, {"id": "1597728", "type": "Feature", "properties": {"id": "1597728", "CVEGEO": "2006800130057018", "POBTOT": 0.0, "score_nse": 0.0, "NSE": null, "VIVTOT": 0.0, "GRAPROES": 0.0, "_ent": "20", "_mun": "068", "_loc": "0013"}, "geometry": {"type": "Polygon", "coordinates": [[[-96.63674, 16.72118], [-96.63654, 16.72169], [-96.63549, 16.72136], [-96.63522, 16.72141], [-96.63417, 16.72042], [-96.63519, 16.7202], [-96.63544, 16.72052], [-96.63674, 16.72118]]]}}, {"id": "1597729", "type": "Feature", "properties": {"id": "1597729", "CVEGEO": "2006800130057016", "POBTOT": 0.0, "score_nse": 0.0, "NSE": null, "VIVTOT": 0.0, "GRAPROES": 0.0, "_ent": "20", "_mun": "068", "_loc": "0013"}, "geometry": {"type": "Polygon", "coordinates": [[[-96.63813, 16.72335], [-96.63793, 16.72375], [-96.63708, 16.72337], [-96.63732, 16.72268], [-96.6378, 16.72294], [-96.63813, 16.72335]]]}}, {"id": "1597763", "type": "Feature", "properties": {"id": "1597763", "CVEGEO": "2006800130057029", "POBTOT": 0.0, "score_nse": 0.0, "NSE": null, "VIVTOT": 0.0, "GRAPROES": 0.0, "_ent": "20", "_mun": "068", "_loc": "0013"}, "geometry": {"type": "Polygon", "coordinates": [[[-96.63739, 16.72477], [-96.63624, 16.72515], [-96.6356, 16.72517], [-96.63484, 16.72495], [-96.6349, 16.72478], [-96.63624, 16.72415], [-96.63705, 16.72443], [-96.63642, 16.72455], [-96.63642, 16.72482], [-96.63645, 16.72458], [-96.63712, 16.72446], [-96.63738, 16.72471], [-96.63699, 16.72483], [-96.63739, 16.72477]]]}}, {"id": "1597769", "type": "Feature", "properties": {"id": "1597769", "CVEGEO": "2006800130057038", "POBTOT": 0.0, "score_nse": 0.0, "NSE": null, "VIVTOT": 0.0, "GRAPROES": 0.0, "_ent": "20", "_mun": "068", "_loc": "0013"}, "geometry": {"type": "Polygon", "coordinates": [[[-96.63618, 16.72412], [-96.63489, 16.72475], [-96.6344, 16.72475], [-96.6341, 16.7245], [-96.63398, 16.72397], [-96.63379, 16.72392], [-96.63618, 16.72412]]]}}, {"id": "1597834", "type": "Feature", "properties": {"id": "1597834", "CVEGEO": "2006800130057030", "POBTOT": 0.0, "score_nse": 0.0, "NSE": null, "VIVTOT": 0.0, "GRAPROES": 0.0, "_ent": "20", "_mun": "068", "_loc": "0013"}, "geometry": {"type": "Polygon", "coordinates": [[[-96.64227, 16.71726], [-96.64186, 16.71853], [-96.63915, 16.71731], [-96.6393, 16.71684], [-96.64146, 16.71601], [-96.64227, 16.71726]]]}}, {"id": "1597852", "type": "Feature", "properties": {"id": "1597852", "CVEGEO": "2006800130057005", "POBTOT": 0.0, "score_nse": 0.0, "NSE": null, "VIVTOT": 0.0, "GRAPROES": 0.0, "_ent": "20", "_mun": "068", "_loc": "0013"}, "geometry": {"type": "Polygon", "coordinates": [[[-96.64106, 16.72094], [-96.64077, 16.72182], [-96.6399, 16.72144], [-96.63998, 16.72116], [-96.64018, 16.72118], [-96.64, 16.72111], [-96.64018, 16.72056], [-96.64106, 16.72094]]]}}, {"id": "1597870", "type": "Feature", "properties": {"id": "1597870", "CVEGEO": "2006800130057037", "POBTOT": 0.0, "score_nse": 0.0, "NSE": null, "VIVTOT": 0.0, "GRAPROES": 0.0, "_ent": "20", "_mun": "068", "_loc": "0013"}, "geometry": {"type": "Polygon", "coordinates": [[[-96.63827, 16.71962], [-96.63758, 16.71931], [-96.63771, 16.71898], [-96.63753, 16.71929], [-96.63671, 16.71891], [-96.63701, 16.71803], [-96.63856, 16.71875], [-96.63827, 16.71962]]]}}, {"id": "1597871", "type": "Feature", "properties": {"id": "1597871", "CVEGEO": "2006800130057036", "POBTOT": 0.0, "score_nse": 0.0, "NSE": null, "VIVTOT": 0.0, "GRAPROES": 0.0, "_ent": "20", "_mun": "068", "_loc": "0013"}, "geometry": {"type": "Polygon", "coordinates": [[[-96.63794, 16.72054], [-96.63753, 16.72037], [-96.63735, 16.72009], [-96.63745, 16.72034], [-96.63636, 16.71989], [-96.63668, 16.71898], [-96.63828, 16.7197], [-96.63794, 16.72054]]]}}, {"id": "1598154", "type": "Feature", "properties": {"id": "1598154", "CVEGEO": "2006800130057023", "POBTOT": 0.0, "score_nse": 0.0, "NSE": null, "VIVTOT": 0.0, "GRAPROES": 0.0, "_ent": "20", "_mun": "068", "_loc": "0013"}, "geometry": {"type": "Polygon", "coordinates": [[[-96.63905, 16.71738], [-96.63898, 16.7176], [-96.63873, 16.71756], [-96.63897, 16.71763], [-96.63859, 16.71871], [-96.63816, 16.71851], [-96.63823, 16.71831], [-96.63818, 16.7181], [-96.63812, 16.71849], [-96.63773, 16.7183], [-96.63782, 16.71787], [-96.6377, 16.71828], [-96.63705, 16.71801], [-96.6374, 16.71665], [-96.63905, 16.71738]]]}}, {"id": "1598155", "type": "Feature", "properties": {"id": "1598155", "CVEGEO": "2006800130057035", "POBTOT": 0.0, "score_nse": 0.0, "NSE": null, "VIVTOT": 0.0, "GRAPROES": 0.0, "_ent": "20", "_mun": "068", "_loc": "0013"}, "geometry": {"type": "Polygon", "coordinates": [[[-96.63702, 16.7234], [-96.6367, 16.72426], [-96.63495, 16.72356], [-96.63423, 16.7231], [-96.63399, 16.72157], [-96.63447, 16.72105], [-96.63525, 16.72147], [-96.63551, 16.72142], [-96.63651, 16.72176], [-96.63611, 16.72293], [-96.63541, 16.72264], [-96.63547, 16.72229], [-96.63508, 16.72219], [-96.63492, 16.72195], [-96.63462, 16.72174], [-96.63507, 16.72222], [-96.63543, 16.7223], [-96.63539, 16.72269], [-96.63702, 16.7234]]]}}, {"id": "1598156", "type": "Feature", "properties": {"id": "1598156", "CVEGEO": "2006800130057039", "POBTOT": 0.0, "score_nse": 0.0, "NSE": null, "VIVTOT": 0.0, "GRAPROES": 0.0, "_ent": "20", "_mun": "068", "_loc": "0013"}, "geometry": {"type": "Polygon", "coordinates": [[[-96.63604, 16.72405], [-96.63398, 16.72384], [-96.63365, 16.72394], [-96.6337, 16.72376], [-96.63337, 16.72318], [-96.63367, 16.72291], [-96.63604, 16.72405]]]}}, {"id": "1598157", "type": "Feature", "properties": {"id": "1598157", "CVEGEO": "2006800130057031", "POBTOT": 0.0, "score_nse": 0.0, "NSE": null, "VIVTOT": 0.0, "GRAPROES": 0.0, "_ent": "20", "_mun": "068", "_loc": "0013"}, "geometry": {"type": "Polygon", "coordinates": [[[-96.63794, 16.72064], [-96.63767, 16.72153], [-96.63601, 16.72077], [-96.63619, 16.72045], [-96.63599, 16.72076], [-96.63547, 16.7205], [-96.63526, 16.72018], [-96.63616, 16.7199], [-96.63661, 16.72007], [-96.63653, 16.72027], [-96.63664, 16.72008], [-96.63706, 16.72023], [-96.63702, 16.72054], [-96.63712, 16.72075], [-96.6371, 16.72026], [-96.63794, 16.72064]]]}}]}