{"type": "FeatureCollection", "features": [{"id": "1597498", "type": "Feature", "properties": {"id": "1597498", "CVEGEO": "2006800170038002", "POBTOT": 0.0, "score_nse": 0.0, "NSE": null, "VIVTOT": 0.0, "GRAPROES": 0.0, "_ent": "20", "_mun": "068", "_loc": "0017"}, "geometry": {"type": "Polygon", "coordinates": [[[-96.65376, 16.77889], [-96.65248, 16.77869], [-96.65176, 16.77814], [-96.65349, 16.77689], [-96.654, 16.77818], [-96.65376, 16.77889]]]}}, {"id": "1597841", "type": "Feature", "properties": {"id": "1597841", "CVEGEO": "2006800170038004", "POBTOT": 0.0, "score_nse": 0.0, "NSE": null, "VIVTOT": 0.0, "GRAPROES": 0.0, "_ent": "20", "_mun": "068", "_loc": "0017"}, "geometry": {"type": "Polygon", "coordinates": [[[-96.65879, 16.77994], [-96.65805, 16.78236], [-96.65796, 16.78234], [-96.65683, 16.78153], [-96.65752, 16.77922], [-96.65879, 16.77994]]]}}, {"id": "1597911", "type": "Feature", "properties": {"id": "1597911", "CVEGEO": "2006800170038001", "POBTOT": 0.0, "score_nse": 0.0, "NSE": null, "VIVTOT": 0.0, "GRAPROES": 0.0, "_ent": "20", "_mun": "068", "_loc": "0017"}, "geometry": {"type": "Polygon", "coordinates": [[[-96.65746, 16.77916], [-96.65676, 16.78153], [-96.65558, 16.78079], [-96.6539, 16.77907], [-96.65415, 16.77822], [-96.6538, 16.77765], [-96.6538, 16.77719], [-96.65352, 16.77686], [-96.65465, 16.77607], [-96.65532, 16.77717], [-96.6563, 16.77807], [-96.65551, 16.7795], [-96.65634, 16.77811], [-96.65696, 16.77868], [-96.65638, 16.78007], [-96.65699, 16.77872], [-96.65722, 16.77899], [-96.65678, 16.78018], [-96.65726, 16.77903], [-96.65746, 16.77916]]]}}, {"id": "1597912", "type": "Feature", "properties": {"id": "1597912", "CVEGEO": "2006800170038003", "POBTOT": 0.0, "score_nse": 0.0, "NSE": null, "VIVTOT": 0.0, "GRAPROES": 0.0, "_ent": "20", "_mun": "068", "_loc": "0017"}, "geometry": {"type": "Polygon", "coordinates": [[[-96.65245, 16.77528], [-96.65186, 16.77543], [-96.65174, 16.775], [-96.65236, 16.77461], [-96.65288, 16.77356], [-96.65352, 16.7745], [-96.6531, 16.77527], [-96.65314, 16.77551], [-96.65245, 16.77528]]]}}, {"id": "1597913", "type": "Feature", "properties": {"id": "1597913", "CVEGEO": "2006800170038005", "POBTOT": 0.0, "score_nse": 0.0, "NSE": null, "VIVTOT": 0.0, "GRAPROES": 0.0, "_ent": "20", "_mun": "068", "_loc": "0017"}, "geometry": {"type": "Polygon", "coordinates": [[[-96.65707, 16.78182], [-96.65698, 16.78234], [-96.65561, 16.78197], [-96.65583, 16.78104], [-96.65707, 16.78182]]]}}, {"id": "1597914", "type": "Feature", "properties": {"id": "1597914", "CVEGEO": "2006800170038006", "POBTOT": 0.0, "score_nse": 0.0, "NSE": null, "VIVTOT": 0.0, "GRAPROES": 0.0, "_ent": "20", "_mun": "068", "_loc": "0017"}, "geometry": {"type": "Polygon", "coordinates": [[[-96.65539, 16.78075], [-96.654, 16.78049], [-96.65381, 16.77907], [-96.65412, 16.77946], [-96.65539, 16.78075]]]}}, {"id": "1597915", "type": "Feature", "properties": {"id": "1597915", "CVEGEO": "2006800170038007", "POBTOT": 0.0, "score_nse": 0.0, "NSE": null, "VIVTOT": 0.0, "GRAPROES": 0.0, "_ent": "20", "_mun": "068", "_loc": "0017"}, "geometry": {"type": "Polygon", "coordinates": [[[-96.65181, 16.77521], [-96.6515, 16.77698], [-96.65138, 16.77699], [-96.65138, 16.77515], [-96.6517, 16.77503], [-96.65181, 16.77521]]]}}, {"id": "1597916", "type": "Feature", "properties": {"id": "1597916", "CVEGEO": "2006800170038008", "POBTOT": 0.0, "score_nse": 0.0, "NSE": null, "VIVTOT": 0.0, "GRAPROES": 0.0, "_ent": "20", "_mun": "068", "_loc": "0017"}, "geometry": {"type": "Polygon", "coordinates": [[[-96.65323, 16.77647], [-96.65228, 16.77639], [-96.6524, 16.77536], [-96.65303, 16.77546], [-96.6532, 16.77577], [-96.65323, 16.77647]]]}}, {"id": "1597917", "type": "Feature", "properties": {"id": "1597917", "CVEGEO": "2006800170038009", "POBTOT": 0.0, "score_nse": 0.0, "NSE": null, "VIVTOT": 0.0, "GRAPROES": 0.0, "_ent": "20", "_mun": "068", "_loc": "0017"}, "geometry": {"type": "Polygon", "coordinates": [[[-96.65224, 16.77604], [-96.65176, 16.77596], [-96.65185, 16.77549], [-96.65233, 16.77539], [-96.65224, 16.77604]]]}}, {"id": "1597918", "type": "Feature", "properties": {"id": "1597918", "CVEGEO": "2006800170038010", "POBTOT": 0.0, "score_nse": 0.0, "NSE": null, "VIVTOT": 0.0, "GRAPROES": 0.0, "_ent": "20", "_mun": "068", "_loc": "0017"}, "geometry": {"type": "Polygon", "coordinates": [[[-96.6506, 16.77769], [-96.6512, 16.77795], [-96.65119, 16.77807], [-96.65005, 16.77887], [-96.64984, 16.77633], [-96.65064, 16.77699], [-96.6506, 16.77769]]]}}, {"id": "1597919", "type": "Feature", "properties": {"id": "1597919", "CVEGEO": "2006800170038011", "POBTOT": 0.0, "score_nse": 0.0, "NSE": null, "VIVTOT": 0.0, "GRAPROES": 0.0, "_ent": "20", "_mun": "068", "_loc": "0017"}, "geometry": {"type": "Polygon", "coordinates": [[[-96.65135, 16.77795], [-96.65067, 16.7777], [-96.65072, 16.77705], [-96.65171, 16.77704], [-96.65166, 16.77774], [-96.65135, 16.77795]]]}}, {"id": "1598097", "type": "Feature", "properties": {"id": "1598097", "CVEGEO": "2006800170038012", "POBTOT": 0.0, "score_nse": 0.0, "NSE": null, "VIVTOT": 0.0, "GRAPROES": 0.0, "_ent": "20", "_mun": "068", "_loc": "0017"}, "geometry": {"type": "Polygon", "coordinates": [[[-96.65413, 16.7813], [-96.65401, 16.78053], [-96.65543, 16.7808], [-96.65538, 16.78101], [-96.65449, 16.78091], [-96.65541, 16.78108], [-96.65549, 16.78079], [-96.65576, 16.78099], [-96.65562, 16.78159], [-96.65413, 16.7813]]]}}, {"id": "1598098", "type": "Feature", "properties": {"id": "1598098", "CVEGEO": "2006800170038013", "POBTOT": 0.0, "score_nse": 0.0, "NSE": null, "VIVTOT": 0.0, "GRAPROES": 0.0, "_ent": "20", "_mun": "068", "_loc": "0017"}, "geometry": {"type": "Polygon", "coordinates": [[[-96.65564, 16.78165], [-96.65545, 16.78235], [-96.65474, 16.78218], [-96.65443, 16.7818], [-96.65396, 16.78172], [-96.65415, 16.78134], [-96.65564, 16.78165]]]}}]}