{"type": "FeatureCollection", "features": [{"id": "1528109", "type": "Feature", "properties": {"id": "1528109", "CVEGEO": "2007700010041007", "POBTOT": 22.0, "score_nse": 0.0, "NSE": "ND", "VIVTOT": 7.0, "GRAPROES": 8.27, "_ent": "20", "_mun": "077", "_loc": "0001"}, "geometry": {"type": "Polygon", "coordinates": [[[-96.81827, 17.19715], [-96.81768, 17.19676], [-96.81646, 17.19662], [-96.81623, 17.19638], [-96.81586, 17.19631], [-96.81561, 17.19712], [-96.81494, 17.19713], [-96.81484, 17.19734], [-96.81457, 17.19741], [-96.81454, 17.19782], [-96.81284, 17.19807], [-96.81307, 17.19754], [-96.81271, 17.19815], [-96.81145, 17.19911], [-96.81122, 17.19908], [-96.811, 17.19864], [-96.81114, 17.1982], [-96.81209, 17.19725], [-96.81501, 17.19565], [-96.81571, 17.19573], [-96.81679, 17.19633], [-96.81878, 17.19672], [-96.81899, 17.1969], [-96.81898, 17.19718], [-96.81827, 17.19715]]]}}, {"id": "1528110", "type": "Feature", "properties": {"id": "1528110", "CVEGEO": "2007700010022013", "POBTOT": 0.0, "score_nse": 0.0, "NSE": "ND", "VIVTOT": 0.0, "GRAPROES": 0.0, "_ent": "20", "_mun": "077", "_loc": "0001"}, "geometry": {"type": "Polygon", "coordinates": [[[-96.81201, 17.19883], [-96.81171, 17.19958], [-96.81183, 17.20009], [-96.81133, 17.19923], [-96.81201, 17.19883]]]}}, {"id": "1528111", "type": "Feature", "properties": {"id": "1528111", "CVEGEO": "2007700010022009", "POBTOT": 36.0, "score_nse": 0.0, "NSE": "ND", "VIVTOT": 16.0, "GRAPROES": 9.17, "_ent": "20", "_mun": "077", "_loc": "0001"}, "geometry": {"type": "Polygon", "coordinates": [[[-96.81772, 17.20311], [-96.81673, 17.20315], [-96.81673, 17.20292], [-96.81827, 17.20266], [-96.81845, 17.20537], [-96.8168, 17.20556], [-96.81673, 17.20318], [-96.81772, 17.20311]]]}}, {"id": "1528112", "type": "Feature", "properties": {"id": "1528112", "CVEGEO": "2007700010037001", "POBTOT": 108.0, "score_nse": 0.0, "NSE": "ND", "VIVTOT": 38.0, "GRAPROES": 11.47, "_ent": "20", "_mun": "077", "_loc": "0001"}, "geometry": {"type": "Polygon", "coordinates": [[[-96.80791, 17.20606], [-96.8083, 17.20612], [-96.80792, 17.20603], [-96.80808, 17.20549], [-96.80961, 17.20548], [-96.80959, 17.20724], [-96.80774, 17.20723], [-96.80791, 17.20606]]]}}, {"id": "1528113", "type": "Feature", "properties": {"id": "1528113", "CVEGEO": "2007700010022014", "POBTOT": 36.0, "score_nse": 0.0, "NSE": "ND", "VIVTOT": 10.0, "GRAPROES": 7.63, "_ent": "20", "_mun": "077", "_loc": "0001"}, "geometry": {"type": "Polygon", "coordinates": [[[-96.81947, 17.20223], [-96.8194, 17.20156], [-96.82037, 17.2015], [-96.82021, 17.20176], [-96.81947, 17.20223]]]}}, {"id": "1528114", "type": "Feature", "properties": {"id": "1528114", "CVEGEO": "2007700010037007", "POBTOT": 38.0, "score_nse": 0.0, "NSE": "ND", "VIVTOT": 9.0, "GRAPROES": 9.56, "_ent": "20", "_mun": "077", "_loc": "0001"}, "geometry": {"type": "Polygon", "coordinates": [[[-96.80875, 17.2054], [-96.80887, 17.2046], [-96.80953, 17.20458], [-96.81006, 17.20534], [-96.80875, 17.2054]]]}}, {"id": "1528115", "type": "Feature", "properties": {"id": "1528115", "CVEGEO": "2007700010037005", "POBTOT": 75.0, "score_nse": 58.042, "NSE": "C", "VIVTOT": 20.0, "GRAPROES": 9.18, "_ent": "20", "_mun": "077", "_loc": "0001"}, "geometry": {"type": "Polygon", "coordinates": [[[-96.81052, 17.20721], [-96.80963, 17.20727], [-96.80965, 17.20633], [-96.81047, 17.20631], [-96.81052, 17.20721]]]}}, {"id": "1528116", "type": "Feature", "properties": {"id": "1528116", "CVEGEO": "2007700010022020", "POBTOT": 174.0, "score_nse": 47.3882, "NSE": "C-", "VIVTOT": 49.0, "GRAPROES": 9.28, "_ent": "20", "_mun": "077", "_loc": "0001"}, "geometry": {"type": "Polygon", "coordinates": [[[-96.81668, 17.20565], [-96.81514, 17.20581], [-96.81507, 17.20622], [-96.81407, 17.2061], [-96.81454, 17.20432], [-96.81669, 17.2042], [-96.8167, 17.20467], [-96.81588, 17.20472], [-96.8167, 17.2047], [-96.8167, 17.20494], [-96.816, 17.20499], [-96.8167, 17.20497], [-96.81668, 17.20565]]]}}, {"id": "1528117", "type": "Feature", "properties": {"id": "1528117", "CVEGEO": "2007700010022002", "POBTOT": 115.0, "score_nse": 54.4471, "NSE": "C-", "VIVTOT": 36.0, "GRAPROES": 9.41, "_ent": "20", "_mun": "077", "_loc": "0001"}, "geometry": {"type": "Polygon", "coordinates": [[[-96.81291, 17.20636], [-96.81291, 17.2059], [-96.81288, 17.20636], [-96.81148, 17.2063], [-96.81149, 17.2055], [-96.81189, 17.20546], [-96.81225, 17.20494], [-96.81233, 17.20513], [-96.8123, 17.2049], [-96.81276, 17.20472], [-96.81424, 17.20473], [-96.81402, 17.20603], [-96.81375, 17.20624], [-96.81291, 17.20636]]]}}, {"id": "1528118", "type": "Feature", "properties": {"id": "1528118", "CVEGEO": "2007700010022001", "POBTOT": 85.0, "score_nse": 0.0, "NSE": "ND", "VIVTOT": 25.0, "GRAPROES": 9.93, "_ent": "20", "_mun": "077", "_loc": "0001"}, "geometry": {"type": "Polygon", "coordinates": [[[-96.81432, 17.20469], [-96.81321, 17.20462], [-96.81229, 17.20484], [-96.81222, 17.20426], [-96.81431, 17.20313], [-96.81448, 17.2043], [-96.81432, 17.20469]]]}}, {"id": "1528122", "type": "Feature", "properties": {"id": "1528122", "CVEGEO": "2007700010022005", "POBTOT": 179.0, "score_nse": 47.4861, "NSE": "C-", "VIVTOT": 64.0, "GRAPROES": 9.17, "_ent": "20", "_mun": "077", "_loc": "0001"}, "geometry": {"type": "Polygon", "coordinates": [[[-96.81021, 17.20945], [-96.81056, 17.20852], [-96.81054, 17.20728], [-96.81123, 17.20727], [-96.81134, 17.20765], [-96.81126, 17.20728], [-96.81275, 17.20735], [-96.81415, 17.20815], [-96.81496, 17.20914], [-96.81305, 17.20879], [-96.81278, 17.20837], [-96.81197, 17.20808], [-96.81158, 17.2082], [-96.81021, 17.20945]]]}}, {"id": "1528124", "type": "Feature", "properties": {"id": "1528124", "CVEGEO": "2007700010022019", "POBTOT": 56.0, "score_nse": 0.0, "NSE": "ND", "VIVTOT": 15.0, "GRAPROES": 9.41, "_ent": "20", "_mun": "077", "_loc": "0001"}, "geometry": {"type": "Polygon", "coordinates": [[[-96.81695, 17.2028], [-96.81684, 17.20022], [-96.81764, 17.19988], [-96.8179, 17.20264], [-96.81695, 17.2028]]]}}, {"id": "1528125", "type": "Feature", "properties": {"id": "1528125", "CVEGEO": "2007700010022004", "POBTOT": 87.0, "score_nse": 62.6002, "NSE": "C", "VIVTOT": 23.0, "GRAPROES": 10.39, "_ent": "20", "_mun": "077", "_loc": "0001"}, "geometry": {"type": "Polygon", "coordinates": [[[-96.8167, 17.20417], [-96.81458, 17.20427], [-96.81439, 17.20311], [-96.81541, 17.20303], [-96.81542, 17.2034], [-96.81544, 17.20303], [-96.81666, 17.20292], [-96.81669, 17.20397], [-96.81645, 17.20402], [-96.81669, 17.20401], [-96.8167, 17.20417]]]}}, {"id": "1528127", "type": "Feature", "properties": {"id": "1528127", "CVEGEO": "2007700010037002", "POBTOT": 69.0, "score_nse": 62.3632, "NSE": "C", "VIVTOT": 21.0, "GRAPROES": 10.4, "_ent": "20", "_mun": "077", "_loc": "0001"}, "geometry": {"type": "Polygon", "coordinates": [[[-96.80768, 17.20722], [-96.80497, 17.20718], [-96.80493, 17.20539], [-96.80697, 17.20546], [-96.80697, 17.20577], [-96.80703, 17.20546], [-96.80803, 17.20549], [-96.80772, 17.20646], [-96.80768, 17.20722]]]}}, {"id": "1528128", "type": "Feature", "properties": {"id": "1528128", "CVEGEO": "2007700010022024", "POBTOT": 25.0, "score_nse": 55.208, "NSE": "C", "VIVTOT": 10.0, "GRAPROES": 9.33, "_ent": "20", "_mun": "077", "_loc": "0001"}, "geometry": {"type": "Polygon", "coordinates": [[[-96.81012, 17.20531], [-96.80965, 17.20458], [-96.81022, 17.20456], [-96.81094, 17.20432], [-96.8114, 17.20444], [-96.81012, 17.20531]]]}}, {"id": "1528129", "type": "Feature", "properties": {"id": "1528129", "CVEGEO": "2007700010022023", "POBTOT": 57.0, "score_nse": 0.0, "NSE": "ND", "VIVTOT": 18.0, "GRAPROES": 10.71, "_ent": "20", "_mun": "077", "_loc": "0001"}, "geometry": {"type": "Polygon", "coordinates": [[[-96.81058, 17.20721], [-96.81052, 17.20589], [-96.81143, 17.20593], [-96.81133, 17.20722], [-96.81058, 17.20721]]]}}, {"id": "1528130", "type": "Feature", "properties": {"id": "1528130", "CVEGEO": "2007700010022022", "POBTOT": 136.0, "score_nse": 0.0, "NSE": "ND", "VIVTOT": 41.0, "GRAPROES": 10.35, "_ent": "20", "_mun": "077", "_loc": "0001"}, "geometry": {"type": "Polygon", "coordinates": [[[-96.81136, 17.20679], [-96.81176, 17.20679], [-96.81137, 17.20676], [-96.81147, 17.20634], [-96.81316, 17.20642], [-96.81316, 17.20628], [-96.81374, 17.20628], [-96.81381, 17.20688], [-96.81346, 17.20692], [-96.81382, 17.20692], [-96.8138, 17.20782], [-96.81271, 17.20725], [-96.81136, 17.20721], [-96.81136, 17.20679]]]}}, {"id": "1528131", "type": "Feature", "properties": {"id": "1528131", "CVEGEO": "2007700010022021", "POBTOT": 74.0, "score_nse": 0.0, "NSE": "ND", "VIVTOT": 18.0, "GRAPROES": 10.98, "_ent": "20", "_mun": "077", "_loc": "0001"}, "geometry": {"type": "Polygon", "coordinates": [[[-96.81224, 17.20489], [-96.81188, 17.20542], [-96.81146, 17.20548], [-96.81144, 17.2059], [-96.81038, 17.20586], [-96.81018, 17.20534], [-96.81143, 17.20452], [-96.81217, 17.20428], [-96.81224, 17.20489]]]}}, {"id": "1528132", "type": "Feature", "properties": {"id": "1528132", "CVEGEO": "2007700010022006", "POBTOT": 236.0, "score_nse": 47.3539, "NSE": "C-", "VIVTOT": 66.0, "GRAPROES": 8.53, "_ent": "20", "_mun": "077", "_loc": "0001"}, "geometry": {"type": "Polygon", "coordinates": [[[-96.81784, 17.20146], [-96.81781, 17.20107], [-96.81824, 17.20105], [-96.81854, 17.20097], [-96.81781, 17.20104], [-96.81769, 17.19986], [-96.81952, 17.19922], [-96.82031, 17.19854], [-96.82036, 17.19949], [-96.81974, 17.19954], [-96.82035, 17.19953], [-96.82042, 17.20146], [-96.81941, 17.20151], [-96.81937, 17.20125], [-96.81942, 17.20225], [-96.81864, 17.20247], [-96.81856, 17.20202], [-96.81862, 17.20247], [-96.81794, 17.20263], [-96.81784, 17.20151], [-96.8182, 17.20152], [-96.81853, 17.2014], [-96.81784, 17.20146]]]}}, {"id": "1528133", "type": "Feature", "properties": {"id": "1528133", "CVEGEO": "2007700010037004", "POBTOT": 0.0, "score_nse": 0.0, "NSE": "ND", "VIVTOT": 0.0, "GRAPROES": 0.0, "_ent": "20", "_mun": "077", "_loc": "0001"}, "geometry": {"type": "Polygon", "coordinates": [[[-96.80966, 17.20629], [-96.80967, 17.20548], [-96.81014, 17.2054], [-96.81045, 17.20589], [-96.81047, 17.20626], [-96.80966, 17.20629]]]}}, {"id": "1528134", "type": "Feature", "properties": {"id": "1528134", "CVEGEO": "2007700010037008", "POBTOT": 5.0, "score_nse": 0.0, "NSE": "ND", "VIVTOT": 2.0, "GRAPROES": 0.0, "_ent": "20", "_mun": "077", "_loc": "0001"}, "geometry": {"type": "Polygon", "coordinates": [[[-96.80883, 17.1988], [-96.8088, 17.1992], [-96.80798, 17.1992], [-96.80799, 17.1988], [-96.80883, 17.1988]]]}}, {"id": "1528137", "type": "Feature", "properties": {"id": "1528137", "CVEGEO": "2007700010041006", "POBTOT": 11.0, "score_nse": 0.0, "NSE": "ND", "VIVTOT": 6.0, "GRAPROES": 0.0, "_ent": "20", "_mun": "077", "_loc": "0001"}, "geometry": {"type": "Polygon", "coordinates": [[[-96.82031, 17.19846], [-96.81996, 17.19879], [-96.81898, 17.19729], [-96.81955, 17.19732], [-96.82031, 17.19846]]]}}, {"id": "1528138", "type": "Feature", "properties": {"id": "1528138", "CVEGEO": "2007700010041008", "POBTOT": 0.0, "score_nse": 10.0, "NSE": "E", "VIVTOT": 1.0, "GRAPROES": 0.0, "_ent": "20", "_mun": "077", "_loc": "0001"}, "geometry": {"type": "Polygon", "coordinates": [[[-96.8208, 17.1974], [-96.82037, 17.1984], [-96.81965, 17.19733], [-96.8208, 17.1974]]]}}, {"id": "1528149", "type": "Feature", "properties": {"id": "1528149", "CVEGEO": "2007700010041001", "POBTOT": 34.0, "score_nse": 0.0, "NSE": "ND", "VIVTOT": 15.0, "GRAPROES": 9.18, "_ent": "20", "_mun": "077", "_loc": "0001"}, "geometry": {"type": "Polygon", "coordinates": [[[-96.81991, 17.19883], [-96.81945, 17.19918], [-96.8166, 17.20018], [-96.81655, 17.19929], [-96.81535, 17.19936], [-96.81529, 17.19837], [-96.8146, 17.1978], [-96.8146, 17.19744], [-96.81487, 17.19737], [-96.81496, 17.19715], [-96.8156, 17.19719], [-96.8158, 17.19644], [-96.81603, 17.19637], [-96.81641, 17.19666], [-96.81769, 17.19681], [-96.81812, 17.19718], [-96.81887, 17.19723], [-96.81991, 17.19883]]]}}, {"id": "1528150", "type": "Feature", "properties": {"id": "1528150", "CVEGEO": "2007700010022016", "POBTOT": 53.0, "score_nse": 0.0, "NSE": "ND", "VIVTOT": 16.0, "GRAPROES": 9.54, "_ent": "20", "_mun": "077", "_loc": "0001"}, "geometry": {"type": "Polygon", "coordinates": [[[-96.82604, 17.20142], [-96.82305, 17.2012], [-96.82052, 17.20144], [-96.82048, 17.20085], [-96.8215, 17.20082], [-96.82048, 17.20082], [-96.8204, 17.1989], [-96.82098, 17.19887], [-96.8204, 17.19887], [-96.82042, 17.19845], [-96.82101, 17.19703], [-96.8212, 17.19691], [-96.82349, 17.19687], [-96.82425, 17.19875], [-96.82415, 17.199], [-96.82493, 17.20044], [-96.82536, 17.20109], [-96.82604, 17.20142]]]}}, {"id": "1528151", "type": "Feature", "properties": {"id": "1528151", "CVEGEO": "2007700010022015", "POBTOT": 40.0, "score_nse": 0.0, "NSE": "ND", "VIVTOT": 10.0, "GRAPROES": 10.11, "_ent": "20", "_mun": "077", "_loc": "0001"}, "geometry": {"type": "Polygon", "coordinates": [[[-96.8245, 17.20363], [-96.82279, 17.20345], [-96.82043, 17.20353], [-96.8203, 17.20183], [-96.82048, 17.2015], [-96.82312, 17.20125], [-96.82403, 17.20138], [-96.82411, 17.20191], [-96.82457, 17.2029], [-96.8245, 17.20363]]]}}, {"id": "1528152", "type": "Feature", "properties": {"id": "1528152", "CVEGEO": "2007700010022010", "POBTOT": 81.0, "score_nse": 52.9189, "NSE": "C-", "VIVTOT": 19.0, "GRAPROES": 8.57, "_ent": "20", "_mun": "077", "_loc": "0001"}, "geometry": {"type": "Polygon", "coordinates": [[[-96.81868, 17.20544], [-96.81846, 17.20778], [-96.81744, 17.20788], [-96.81605, 17.20776], [-96.81431, 17.2081], [-96.81389, 17.20787], [-96.81389, 17.20615], [-96.81505, 17.20626], [-96.81518, 17.20584], [-96.81868, 17.20544]]]}}, {"id": "1528153", "type": "Feature", "properties": {"id": "1528153", "CVEGEO": "2007700010022008", "POBTOT": 116.0, "score_nse": 52.6546, "NSE": "C-", "VIVTOT": 34.0, "GRAPROES": 8.84, "_ent": "20", "_mun": "077", "_loc": "0001"}, "geometry": {"type": "Polygon", "coordinates": [[[-96.82039, 17.20353], [-96.82024, 17.20408], [-96.81949, 17.2041], [-96.81935, 17.20547], [-96.8185, 17.20538], [-96.81838, 17.20353], [-96.81945, 17.20348], [-96.81952, 17.204], [-96.8195, 17.20343], [-96.81837, 17.20349], [-96.81835, 17.20265], [-96.81889, 17.20249], [-96.81895, 17.20284], [-96.81891, 17.20248], [-96.81964, 17.20223], [-96.82026, 17.20181], [-96.82039, 17.20353]]]}}, {"id": "1528154", "type": "Feature", "properties": {"id": "1528154", "CVEGEO": "2007700010037003", "POBTOT": 98.0, "score_nse": 58.44, "NSE": "C", "VIVTOT": 35.0, "GRAPROES": 9.62, "_ent": "20", "_mun": "077", "_loc": "0001"}, "geometry": {"type": "Polygon", "coordinates": [[[-96.80818, 17.19809], [-96.80573, 17.19812], [-96.807, 17.19815], [-96.80702, 17.19858], [-96.80704, 17.19815], [-96.809, 17.19815], [-96.80884, 17.19874], [-96.80708, 17.19873], [-96.80794, 17.1988], [-96.80795, 17.1992], [-96.8072, 17.1992], [-96.80795, 17.19926], [-96.80795, 17.19946], [-96.80772, 17.19949], [-96.80813, 17.19949], [-96.80798, 17.19946], [-96.80798, 17.19926], [-96.8088, 17.19925], [-96.80875, 17.19975], [-96.80837, 17.19976], [-96.80874, 17.1998], [-96.80871, 17.20012], [-96.80777, 17.20012], [-96.80871, 17.20015], [-96.8086, 17.20207], [-96.80545, 17.20225], [-96.80861, 17.20211], [-96.80878, 17.20455], [-96.80868, 17.2054], [-96.80583, 17.20532], [-96.80579, 17.20463], [-96.80574, 17.20533], [-96.80493, 17.2053], [-96.80479, 17.20084], [-96.80457, 17.2002], [-96.80414, 17.19966], [-96.80427, 17.19931], [-96.80526, 17.19813], [-96.80674, 17.19756], [-96.80818, 17.19809]]]}}, {"id": "1528158", "type": "Feature", "properties": {"id": "1528158", "CVEGEO": "2007700010022003", "POBTOT": 149.0, "score_nse": 43.5973, "NSE": "C-", "VIVTOT": 42.0, "GRAPROES": 8.96, "_ent": "20", "_mun": "077", "_loc": "0001"}, "geometry": {"type": "Polygon", "coordinates": [[[-96.8143, 17.20302], [-96.81297, 17.20381], [-96.81285, 17.20277], [-96.81292, 17.20384], [-96.81258, 17.20401], [-96.81254, 17.20269], [-96.81211, 17.20273], [-96.81209, 17.20221], [-96.81127, 17.20223], [-96.81205, 17.20226], [-96.81207, 17.20278], [-96.81251, 17.20275], [-96.81252, 17.20403], [-96.81218, 17.20416], [-96.81216, 17.20379], [-96.81212, 17.20417], [-96.81145, 17.20441], [-96.81099, 17.20427], [-96.81032, 17.20446], [-96.80887, 17.20451], [-96.80869, 17.20114], [-96.80978, 17.20109], [-96.80869, 17.20112], [-96.80895, 17.19859], [-96.81093, 17.19862], [-96.81152, 17.19961], [-96.81047, 17.19974], [-96.80993, 17.20001], [-96.80964, 17.2003], [-96.81048, 17.19977], [-96.81154, 17.19963], [-96.81183, 17.2003], [-96.81146, 17.2005], [-96.81185, 17.20036], [-96.81373, 17.20216], [-96.8143, 17.20302]]]}}, {"id": "1528174", "type": "Feature", "properties": {"id": "1528174", "CVEGEO": "2007700010022012", "POBTOT": 171.0, "score_nse": 0.0, "NSE": "ND", "VIVTOT": 45.0, "GRAPROES": 9.04, "_ent": "20", "_mun": "077", "_loc": "0001"}, "geometry": {"type": "Polygon", "coordinates": [[[-96.81689, 17.2028], [-96.81437, 17.20302], [-96.81384, 17.20223], [-96.81424, 17.20127], [-96.81447, 17.20131], [-96.81479, 17.20129], [-96.81483, 17.20237], [-96.81491, 17.20241], [-96.81506, 17.20238], [-96.81487, 17.20236], [-96.81485, 17.20127], [-96.81422, 17.2012], [-96.81379, 17.20219], [-96.81353, 17.20189], [-96.81396, 17.2007], [-96.8135, 17.20187], [-96.8119, 17.20032], [-96.81182, 17.19955], [-96.81234, 17.19851], [-96.81302, 17.19802], [-96.81461, 17.19787], [-96.81525, 17.19838], [-96.81531, 17.19941], [-96.81651, 17.19934], [-96.81656, 17.2002], [-96.81593, 17.20024], [-96.81675, 17.20022], [-96.81676, 17.2011], [-96.81641, 17.20112], [-96.81636, 17.20088], [-96.81639, 17.20116], [-96.81676, 17.20122], [-96.81595, 17.20128], [-96.81679, 17.20125], [-96.81681, 17.20175], [-96.81639, 17.2018], [-96.81682, 17.2018], [-96.81689, 17.2028]]]}}]}