{"type": "FeatureCollection", "features": [{"id": "2084719", "type": "Feature", "properties": {"id": "2084719", "CVEGEO": "2605700060309010", "POBTOT": 0.0, "score_nse": 0.0, "NSE": null, "VIVTOT": 0.0, "GRAPROES": 0.0, "_ent": "26", "_mun": "057", "_loc": "0006"}, "geometry": {"type": "Polygon", "coordinates": [[[-109.61719, 29.19387], [-109.61779, 29.19391], [-109.61774, 29.19437], [-109.61746, 29.19409], [-109.61719, 29.19387]]]}}, {"id": "2084720", "type": "Feature", "properties": {"id": "2084720", "CVEGEO": "2605700060309009", "POBTOT": 0.0, "score_nse": 0.0, "NSE": null, "VIVTOT": 0.0, "GRAPROES": 0.0, "_ent": "26", "_mun": "057", "_loc": "0006"}, "geometry": {"type": "Polygon", "coordinates": [[[-109.61796, 29.19434], [-109.61788, 29.19246], [-109.61823, 29.19247], [-109.61841, 29.19275], [-109.61837, 29.19435], [-109.61796, 29.19434]]]}}, {"id": "2084721", "type": "Feature", "properties": {"id": "2084721", "CVEGEO": "2605700060309011", "POBTOT": 0.0, "score_nse": 0.0, "NSE": null, "VIVTOT": 0.0, "GRAPROES": 0.0, "_ent": "26", "_mun": "057", "_loc": "0006"}, "geometry": {"type": "Polygon", "coordinates": [[[-109.61668, 29.19372], [-109.6169, 29.19368], [-109.61697, 29.19385], [-109.61702, 29.19531], [-109.61682, 29.19504], [-109.61668, 29.19372]]]}}, {"id": "2084722", "type": "Feature", "properties": {"id": "2084722", "CVEGEO": "2605700060309008", "POBTOT": 0.0, "score_nse": 0.0, "NSE": null, "VIVTOT": 0.0, "GRAPROES": 0.0, "_ent": "26", "_mun": "057", "_loc": "0006"}, "geometry": {"type": "Polygon", "coordinates": [[[-109.61613, 29.19068], [-109.61624, 29.19032], [-109.61658, 29.19032], [-109.61684, 29.19061], [-109.6168, 29.19089], [-109.61613, 29.19068]]]}}, {"id": "2084750", "type": "Feature", "properties": {"id": "2084750", "CVEGEO": "2605700060309006", "POBTOT": 0.0, "score_nse": 0.0, "NSE": null, "VIVTOT": 0.0, "GRAPROES": 0.0, "_ent": "26", "_mun": "057", "_loc": "0006"}, "geometry": {"type": "Polygon", "coordinates": [[[-109.61658, 29.19302], [-109.61653, 29.19229], [-109.61773, 29.19241], [-109.61778, 29.19377], [-109.61704, 29.19377], [-109.61658, 29.19302]]]}}, {"id": "2084751", "type": "Feature", "properties": {"id": "2084751", "CVEGEO": "2605700060309007", "POBTOT": 0.0, "score_nse": 0.0, "NSE": null, "VIVTOT": 0.0, "GRAPROES": 0.0, "_ent": "26", "_mun": "057", "_loc": "0006"}, "geometry": {"type": "Polygon", "coordinates": [[[-109.61588, 29.19267], [-109.616, 29.19216], [-109.61647, 29.19222], [-109.6164, 29.19271], [-109.61588, 29.19267]]]}}, {"id": "2084755", "type": "Feature", "properties": {"id": "2084755", "CVEGEO": "2605700060309001", "POBTOT": 0.0, "score_nse": 0.0, "NSE": null, "VIVTOT": 0.0, "GRAPROES": 0.0, "_ent": "26", "_mun": "057", "_loc": "0006"}, "geometry": {"type": "Polygon", "coordinates": [[[-109.61656, 29.19221], [-109.61667, 29.19173], [-109.61712, 29.19172], [-109.61757, 29.19178], [-109.61767, 29.19235], [-109.61656, 29.19221]]]}}, {"id": "2084756", "type": "Feature", "properties": {"id": "2084756", "CVEGEO": "2605700060309002", "POBTOT": 0.0, "score_nse": 0.0, "NSE": null, "VIVTOT": 0.0, "GRAPROES": 0.0, "_ent": "26", "_mun": "057", "_loc": "0006"}, "geometry": {"type": "Polygon", "coordinates": [[[-109.6154, 29.19239], [-109.61566, 29.19133], [-109.61615, 29.19125], [-109.61608, 29.19211], [-109.61572, 29.1925], [-109.6154, 29.19239]]]}}, {"id": "2084757", "type": "Feature", "properties": {"id": "2084757", "CVEGEO": "2605700060309003", "POBTOT": 0.0, "score_nse": 0.0, "NSE": null, "VIVTOT": 0.0, "GRAPROES": 0.0, "_ent": "26", "_mun": "057", "_loc": "0006"}, "geometry": {"type": "Polygon", "coordinates": [[[-109.61622, 29.19124], [-109.61653, 29.19091], [-109.61681, 29.19093], [-109.61667, 29.19162], [-109.61624, 29.19158], [-109.61622, 29.19124]]]}}, {"id": "2084758", "type": "Feature", "properties": {"id": "2084758", "CVEGEO": "2605700060309004", "POBTOT": 0.0, "score_nse": 0.0, "NSE": null, "VIVTOT": 0.0, "GRAPROES": 0.0, "_ent": "26", "_mun": "057", "_loc": "0006"}, "geometry": {"type": "Polygon", "coordinates": [[[-109.61758, 29.19168], [-109.61674, 29.19163], [-109.61688, 29.19093], [-109.61715, 29.19096], [-109.61758, 29.19168]]]}}, {"id": "2084759", "type": "Feature", "properties": {"id": "2084759", "CVEGEO": "2605700060309005", "POBTOT": 0.0, "score_nse": 0.0, "NSE": null, "VIVTOT": 0.0, "GRAPROES": 0.0, "_ent": "26", "_mun": "057", "_loc": "0006"}, "geometry": {"type": "Polygon", "coordinates": [[[-109.61769, 29.19178], [-109.61797, 29.19176], [-109.6181, 29.19235], [-109.61781, 29.19234], [-109.61769, 29.19178]]]}}]}