{"type": "FeatureCollection", "features": [{"id": "303306", "type": "Feature", "properties": {"id": "303306", "CVEGEO": "0708301640081005", "POBTOT": 0.0, "score_nse": 0.0, "NSE": null, "VIVTOT": 0.0, "GRAPROES": 0.0, "_ent": "07", "_mun": "083", "_loc": "0164"}, "geometry": {"type": "Polygon", "coordinates": [[[-92.28767, 15.94284], [-92.28848, 15.94283], [-92.28866, 15.94355], [-92.28782, 15.94358], [-92.28767, 15.94284]]]}}, {"id": "303307", "type": "Feature", "properties": {"id": "303307", "CVEGEO": "0708301640081006", "POBTOT": 0.0, "score_nse": 0.0, "NSE": null, "VIVTOT": 0.0, "GRAPROES": 0.0, "_ent": "07", "_mun": "083", "_loc": "0164"}, "geometry": {"type": "Polygon", "coordinates": [[[-92.28783, 15.94364], [-92.28868, 15.94361], [-92.28888, 15.9444], [-92.28799, 15.94441], [-92.28783, 15.94364]]]}}, {"id": "303308", "type": "Feature", "properties": {"id": "303308", "CVEGEO": "0708301640081017", "POBTOT": 0.0, "score_nse": 0.0, "NSE": null, "VIVTOT": 0.0, "GRAPROES": 0.0, "_ent": "07", "_mun": "083", "_loc": "0164"}, "geometry": {"type": "Polygon", "coordinates": [[[-92.28751, 15.94204], [-92.28827, 15.94202], [-92.28846, 15.94276], [-92.28766, 15.94277], [-92.28751, 15.94204]]]}}, {"id": "303309", "type": "Feature", "properties": {"id": "303309", "CVEGEO": "0708301640081018", "POBTOT": 0.0, "score_nse": 0.0, "NSE": null, "VIVTOT": 0.0, "GRAPROES": 0.0, "_ent": "07", "_mun": "083", "_loc": "0164"}, "geometry": {"type": "Polygon", "coordinates": [[[-92.286, 15.94684], [-92.28585, 15.94616], [-92.2864, 15.9461], [-92.28651, 15.94683], [-92.286, 15.94684]]]}}, {"id": "303310", "type": "Feature", "properties": {"id": "303310", "CVEGEO": "0708301640081019", "POBTOT": 0.0, "score_nse": 0.0, "NSE": null, "VIVTOT": 0.0, "GRAPROES": 0.0, "_ent": "07", "_mun": "083", "_loc": "0164"}, "geometry": {"type": "Polygon", "coordinates": [[[-92.28497, 15.94535], [-92.28578, 15.94533], [-92.28579, 15.94608], [-92.28501, 15.94612], [-92.28497, 15.94535]]]}}, {"id": "303311", "type": "Feature", "properties": {"id": "303311", "CVEGEO": "0708301640081020", "POBTOT": 0.0, "score_nse": 0.0, "NSE": null, "VIVTOT": 0.0, "GRAPROES": 0.0, "_ent": "07", "_mun": "083", "_loc": "0164"}, "geometry": {"type": "Polygon", "coordinates": [[[-92.28406, 15.94538], [-92.28488, 15.94536], [-92.28493, 15.94612], [-92.2841, 15.94614], [-92.28406, 15.94538]]]}}, {"id": "303312", "type": "Feature", "properties": {"id": "303312", "CVEGEO": "0708301640081021", "POBTOT": 0.0, "score_nse": 0.0, "NSE": null, "VIVTOT": 0.0, "GRAPROES": 0.0, "_ent": "07", "_mun": "083", "_loc": "0164"}, "geometry": {"type": "Polygon", "coordinates": [[[-92.28408, 15.94455], [-92.28482, 15.94453], [-92.28487, 15.9453], [-92.28413, 15.9453], [-92.28408, 15.94455]]]}}, {"id": "303313", "type": "Feature", "properties": {"id": "303313", "CVEGEO": "0708301640081022", "POBTOT": 0.0, "score_nse": 0.0, "NSE": null, "VIVTOT": 0.0, "GRAPROES": 0.0, "_ent": "07", "_mun": "083", "_loc": "0164"}, "geometry": {"type": "Polygon", "coordinates": [[[-92.28403, 15.9437], [-92.28477, 15.9437], [-92.28482, 15.94446], [-92.28408, 15.94448], [-92.28403, 15.9437]]]}}, {"id": "303375", "type": "Feature", "properties": {"id": "303375", "CVEGEO": "0708301640081001", "POBTOT": 0.0, "score_nse": 0.0, "NSE": null, "VIVTOT": 0.0, "GRAPROES": 0.0, "_ent": "07", "_mun": "083", "_loc": "0164"}, "geometry": {"type": "Polygon", "coordinates": [[[-92.28699, 15.94371], [-92.28775, 15.94364], [-92.28791, 15.94441], [-92.28713, 15.94442], [-92.28699, 15.94371]]]}}, {"id": "303376", "type": "Feature", "properties": {"id": "303376", "CVEGEO": "0708301640081002", "POBTOT": 0.0, "score_nse": 0.0, "NSE": null, "VIVTOT": 0.0, "GRAPROES": 0.0, "_ent": "07", "_mun": "083", "_loc": "0164"}, "geometry": {"type": "Polygon", "coordinates": [[[-92.28606, 15.94369], [-92.2869, 15.94368], [-92.28705, 15.94442], [-92.2862, 15.94443], [-92.28606, 15.94369]]]}}, {"id": "303377", "type": "Feature", "properties": {"id": "303377", "CVEGEO": "0708301640081003", "POBTOT": 0.0, "score_nse": 0.0, "NSE": null, "VIVTOT": 0.0, "GRAPROES": 0.0, "_ent": "07", "_mun": "083", "_loc": "0164"}, "geometry": {"type": "Polygon", "coordinates": [[[-92.28589, 15.94286], [-92.28671, 15.94285], [-92.28689, 15.94362], [-92.28605, 15.94363], [-92.28589, 15.94286]]]}}, {"id": "303378", "type": "Feature", "properties": {"id": "303378", "CVEGEO": "0708301640081004", "POBTOT": 0.0, "score_nse": 0.0, "NSE": null, "VIVTOT": 0.0, "GRAPROES": 0.0, "_ent": "07", "_mun": "083", "_loc": "0164"}, "geometry": {"type": "Polygon", "coordinates": [[[-92.28679, 15.94285], [-92.28759, 15.94284], [-92.28774, 15.94358], [-92.28696, 15.94362], [-92.28679, 15.94285]]]}}, {"id": "303411", "type": "Feature", "properties": {"id": "303411", "CVEGEO": "0708301640081023", "POBTOT": 0.0, "score_nse": 0.0, "NSE": null, "VIVTOT": 0.0, "GRAPROES": 0.0, "_ent": "07", "_mun": "083", "_loc": "0164"}, "geometry": {"type": "Polygon", "coordinates": [[[-92.28397, 15.94287], [-92.28471, 15.94287], [-92.28476, 15.94363], [-92.28402, 15.94363], [-92.28397, 15.94287]]]}}, {"id": "303412", "type": "Feature", "properties": {"id": "303412", "CVEGEO": "0708301640081024", "POBTOT": 0.0, "score_nse": 0.0, "NSE": null, "VIVTOT": 0.0, "GRAPROES": 0.0, "_ent": "07", "_mun": "083", "_loc": "0164"}, "geometry": {"type": "Polygon", "coordinates": [[[-92.28559, 15.94202], [-92.28489, 15.94137], [-92.28628, 15.94098], [-92.28652, 15.94199], [-92.28559, 15.94202]]]}}, {"id": "303485", "type": "Feature", "properties": {"id": "303485", "CVEGEO": "0708301640081025", "POBTOT": 0.0, "score_nse": 0.0, "NSE": null, "VIVTOT": 0.0, "GRAPROES": 0.0, "_ent": "07", "_mun": "083", "_loc": "0164"}, "geometry": {"type": "Polygon", "coordinates": [[[-92.28637, 15.94102], [-92.28701, 15.94077], [-92.28724, 15.94108], [-92.28742, 15.94197], [-92.28659, 15.94199], [-92.28637, 15.94102]]]}}, {"id": "303486", "type": "Feature", "properties": {"id": "303486", "CVEGEO": "0708301640081026", "POBTOT": 0.0, "score_nse": 0.0, "NSE": null, "VIVTOT": 0.0, "GRAPROES": 0.0, "_ent": "07", "_mun": "083", "_loc": "0164"}, "geometry": {"type": "Polygon", "coordinates": [[[-92.28835, 15.94202], [-92.28913, 15.94199], [-92.28933, 15.94275], [-92.28854, 15.94276], [-92.28835, 15.94202]]]}}, {"id": "303699", "type": "Feature", "properties": {"id": "303699", "CVEGEO": "0708301640081007", "POBTOT": 0.0, "score_nse": 0.0, "NSE": null, "VIVTOT": 0.0, "GRAPROES": 0.0, "_ent": "07", "_mun": "083", "_loc": "0164"}, "geometry": {"type": "Polygon", "coordinates": [[[-92.288, 15.94446], [-92.28889, 15.94445], [-92.28904, 15.94504], [-92.28825, 15.94567], [-92.288, 15.94446]]]}}, {"id": "303700", "type": "Feature", "properties": {"id": "303700", "CVEGEO": "0708301640081008", "POBTOT": 0.0, "score_nse": 0.0, "NSE": null, "VIVTOT": 0.0, "GRAPROES": 0.0, "_ent": "07", "_mun": "083", "_loc": "0164"}, "geometry": {"type": "Polygon", "coordinates": [[[-92.28714, 15.94448], [-92.28792, 15.94447], [-92.28807, 15.94522], [-92.28728, 15.94524], [-92.28714, 15.94448]]]}}, {"id": "303701", "type": "Feature", "properties": {"id": "303701", "CVEGEO": "0708301640081009", "POBTOT": 0.0, "score_nse": 0.0, "NSE": null, "VIVTOT": 0.0, "GRAPROES": 0.0, "_ent": "07", "_mun": "083", "_loc": "0164"}, "geometry": {"type": "Polygon", "coordinates": [[[-92.28623, 15.94451], [-92.28706, 15.94448], [-92.28721, 15.94524], [-92.28633, 15.94526], [-92.28623, 15.94451]]]}}, {"id": "303702", "type": "Feature", "properties": {"id": "303702", "CVEGEO": "0708301640081010", "POBTOT": 0.0, "score_nse": 0.0, "NSE": null, "VIVTOT": 0.0, "GRAPROES": 0.0, "_ent": "07", "_mun": "083", "_loc": "0164"}, "geometry": {"type": "Polygon", "coordinates": [[[-92.28493, 15.94453], [-92.28547, 15.94451], [-92.28551, 15.94481], [-92.28577, 15.94482], [-92.28578, 15.94527], [-92.28497, 15.9453], [-92.28493, 15.94453]]]}}, {"id": "303703", "type": "Feature", "properties": {"id": "303703", "CVEGEO": "0708301640081011", "POBTOT": 0.0, "score_nse": 0.0, "NSE": null, "VIVTOT": 0.0, "GRAPROES": 0.0, "_ent": "07", "_mun": "083", "_loc": "0164"}, "geometry": {"type": "Polygon", "coordinates": [[[-92.28485, 15.9437], [-92.28599, 15.94369], [-92.28639, 15.94603], [-92.28584, 15.94608], [-92.28582, 15.94482], [-92.28551, 15.94481], [-92.28547, 15.94446], [-92.28492, 15.94445], [-92.28485, 15.9437]]]}}, {"id": "303704", "type": "Feature", "properties": {"id": "303704", "CVEGEO": "0708301640081013", "POBTOT": 0.0, "score_nse": 0.0, "NSE": null, "VIVTOT": 0.0, "GRAPROES": 0.0, "_ent": "07", "_mun": "083", "_loc": "0164"}, "geometry": {"type": "Polygon", "coordinates": [[[-92.28478, 15.94287], [-92.28582, 15.94286], [-92.28598, 15.94363], [-92.28484, 15.94363], [-92.28478, 15.94287]]]}}, {"id": "303705", "type": "Feature", "properties": {"id": "303705", "CVEGEO": "0708301640081014", "POBTOT": 0.0, "score_nse": 0.0, "NSE": null, "VIVTOT": 0.0, "GRAPROES": 0.0, "_ent": "07", "_mun": "083", "_loc": "0164"}, "geometry": {"type": "Polygon", "coordinates": [[[-92.28473, 15.94211], [-92.28556, 15.94209], [-92.28581, 15.94279], [-92.28478, 15.9428], [-92.28473, 15.94211]]]}}, {"id": "303706", "type": "Feature", "properties": {"id": "303706", "CVEGEO": "0708301640081015", "POBTOT": 0.0, "score_nse": 0.0, "NSE": null, "VIVTOT": 0.0, "GRAPROES": 0.0, "_ent": "07", "_mun": "083", "_loc": "0164"}, "geometry": {"type": "Polygon", "coordinates": [[[-92.28588, 15.94279], [-92.28563, 15.94208], [-92.28654, 15.94206], [-92.2867, 15.94278], [-92.28588, 15.94279]]]}}, {"id": "303707", "type": "Feature", "properties": {"id": "303707", "CVEGEO": "0708301640081016", "POBTOT": 0.0, "score_nse": 0.0, "NSE": null, "VIVTOT": 0.0, "GRAPROES": 0.0, "_ent": "07", "_mun": "083", "_loc": "0164"}, "geometry": {"type": "Polygon", "coordinates": [[[-92.28661, 15.94206], [-92.28743, 15.94204], [-92.28758, 15.94277], [-92.28677, 15.94278], [-92.28661, 15.94206]]]}}, {"id": "303708", "type": "Feature", "properties": {"id": "303708", "CVEGEO": "0708301640081027", "POBTOT": 0.0, "score_nse": 0.0, "NSE": null, "VIVTOT": 0.0, "GRAPROES": 0.0, "_ent": "07", "_mun": "083", "_loc": "0164"}, "geometry": {"type": "Polygon", "coordinates": [[[-92.28855, 15.94283], [-92.28935, 15.94281], [-92.28953, 15.94351], [-92.28874, 15.94354], [-92.28855, 15.94283]]]}}, {"id": "303709", "type": "Feature", "properties": {"id": "303709", "CVEGEO": "0708301640081028", "POBTOT": 0.0, "score_nse": 0.0, "NSE": null, "VIVTOT": 0.0, "GRAPROES": 0.0, "_ent": "07", "_mun": "083", "_loc": "0164"}, "geometry": {"type": "Polygon", "coordinates": [[[-92.28875, 15.94361], [-92.28973, 15.94357], [-92.28984, 15.94433], [-92.28896, 15.9444], [-92.28875, 15.94361]]]}}, {"id": "303710", "type": "Feature", "properties": {"id": "303710", "CVEGEO": "0708301640081029", "POBTOT": 0.0, "score_nse": 0.0, "NSE": null, "VIVTOT": 0.0, "GRAPROES": 0.0, "_ent": "07", "_mun": "083", "_loc": "0164"}, "geometry": {"type": "Polygon", "coordinates": [[[-92.28897, 15.94445], [-92.28973, 15.94444], [-92.28911, 15.94499], [-92.28897, 15.94445]]]}}, {"id": "303711", "type": "Feature", "properties": {"id": "303711", "CVEGEO": "0708301640081030", "POBTOT": 0.0, "score_nse": 0.0, "NSE": null, "VIVTOT": 0.0, "GRAPROES": 0.0, "_ent": "07", "_mun": "083", "_loc": "0164"}, "geometry": {"type": "Polygon", "coordinates": [[[-92.28729, 15.9453], [-92.28808, 15.94528], [-92.28817, 15.94574], [-92.28749, 15.94629], [-92.28729, 15.9453]]]}}, {"id": "303712", "type": "Feature", "properties": {"id": "303712", "CVEGEO": "0708301640081031", "POBTOT": 0.0, "score_nse": 0.0, "NSE": null, "VIVTOT": 0.0, "GRAPROES": 0.0, "_ent": "07", "_mun": "083", "_loc": "0164"}, "geometry": {"type": "Polygon", "coordinates": [[[-92.28658, 15.94694], [-92.28634, 15.94532], [-92.28722, 15.9453], [-92.28742, 15.94634], [-92.28658, 15.94694]]]}}, {"id": "303713", "type": "Feature", "properties": {"id": "303713", "CVEGEO": "0708301640081032", "POBTOT": 0.0, "score_nse": 0.0, "NSE": null, "VIVTOT": 0.0, "GRAPROES": 0.0, "_ent": "07", "_mun": "083", "_loc": "0164"}, "geometry": {"type": "Polygon", "coordinates": [[[-92.28502, 15.94619], [-92.2858, 15.94616], [-92.28593, 15.94685], [-92.28506, 15.94687], [-92.28502, 15.94619]]]}}, {"id": "303714", "type": "Feature", "properties": {"id": "303714", "CVEGEO": "0708301640081033", "POBTOT": 0.0, "score_nse": 0.0, "NSE": null, "VIVTOT": 0.0, "GRAPROES": 0.0, "_ent": "07", "_mun": "083", "_loc": "0164"}, "geometry": {"type": "Polygon", "coordinates": [[[-92.28352, 15.94215], [-92.28466, 15.94211], [-92.28471, 15.9428], [-92.28377, 15.94281], [-92.28327, 15.94255], [-92.28352, 15.94215]]]}}]}