{"type": "FeatureCollection", "features": [{"id": "253126", "type": "Feature", "properties": {"id": "253126", "CVEGEO": "0701906100146003", "POBTOT": 0.0, "score_nse": 0.0, "NSE": null, "VIVTOT": 0.0, "GRAPROES": 0.0, "_ent": "07", "_mun": "019", "_loc": "0610"}, "geometry": {"type": "Polygon", "coordinates": [[[-92.14326, 16.26587], [-92.14288, 16.26602], [-92.14254, 16.26538], [-92.14287, 16.26524], [-92.14326, 16.26587]]]}}, {"id": "253127", "type": "Feature", "properties": {"id": "253127", "CVEGEO": "0701906100146002", "POBTOT": 0.0, "score_nse": 0.0, "NSE": null, "VIVTOT": 0.0, "GRAPROES": 0.0, "_ent": "07", "_mun": "019", "_loc": "0610"}, "geometry": {"type": "Polygon", "coordinates": [[[-92.14389, 16.26602], [-92.14355, 16.26619], [-92.14292, 16.26517], [-92.14329, 16.265], [-92.14389, 16.26602]]]}}, {"id": "253128", "type": "Feature", "properties": {"id": "253128", "CVEGEO": "0701906100146001", "POBTOT": 0.0, "score_nse": 0.0, "NSE": null, "VIVTOT": 0.0, "GRAPROES": 0.0, "_ent": "07", "_mun": "019", "_loc": "0610"}, "geometry": {"type": "Polygon", "coordinates": [[[-92.14415, 16.26585], [-92.14393, 16.26599], [-92.14335, 16.26497], [-92.14355, 16.26487], [-92.14415, 16.26585]]]}}, {"id": "253129", "type": "Feature", "properties": {"id": "253129", "CVEGEO": "0701906100146004", "POBTOT": 0.0, "score_nse": 0.0, "NSE": null, "VIVTOT": 0.0, "GRAPROES": 0.0, "_ent": "07", "_mun": "019", "_loc": "0610"}, "geometry": {"type": "Polygon", "coordinates": [[[-92.14285, 16.26603], [-92.14246, 16.26619], [-92.14207, 16.26554], [-92.14247, 16.2654], [-92.14285, 16.26603]]]}}, {"id": "253130", "type": "Feature", "properties": {"id": "253130", "CVEGEO": "0701906100146005", "POBTOT": 0.0, "score_nse": 0.0, "NSE": null, "VIVTOT": 0.0, "GRAPROES": 0.0, "_ent": "07", "_mun": "019", "_loc": "0610"}, "geometry": {"type": "Polygon", "coordinates": [[[-92.14237, 16.26621], [-92.14202, 16.26635], [-92.14166, 16.26566], [-92.14198, 16.26555], [-92.14237, 16.26621]]]}}]}