{"type": "FeatureCollection", "features": [{"id": "1837284", "type": "Feature", "properties": {"id": "1837284", "CVEGEO": "2400700290100001", "POBTOT": 0.0, "score_nse": 0.0, "NSE": null, "VIVTOT": 0.0, "GRAPROES": 0.0, "_ent": "24", "_mun": "007", "_loc": "0029"}, "geometry": {"type": "Polygon", "coordinates": [[[-100.74373, 23.74476], [-100.74416, 23.74378], [-100.74488, 23.74388], [-100.74471, 23.74428], [-100.74373, 23.74476]]]}}, {"id": "1837285", "type": "Feature", "properties": {"id": "1837285", "CVEGEO": "2400700290100002", "POBTOT": 0.0, "score_nse": 0.0, "NSE": null, "VIVTOT": 0.0, "GRAPROES": 0.0, "_ent": "24", "_mun": "007", "_loc": "0029"}, "geometry": {"type": "Polygon", "coordinates": [[[-100.7438, 23.74432], [-100.7433, 23.74493], [-100.7426, 23.74487], [-100.7423, 23.74468], [-100.74209, 23.74414], [-100.74165, 23.7438], [-100.74179, 23.74366], [-100.74264, 23.74357], [-100.74395, 23.74376], [-100.7438, 23.74432]]]}}, {"id": "1837286", "type": "Feature", "properties": {"id": "1837286", "CVEGEO": "2400700290100003", "POBTOT": 0.0, "score_nse": 0.0, "NSE": null, "VIVTOT": 0.0, "GRAPROES": 0.0, "_ent": "24", "_mun": "007", "_loc": "0029"}, "geometry": {"type": "Polygon", "coordinates": [[[-100.74404, 23.74364], [-100.74429, 23.74317], [-100.74439, 23.74311], [-100.74451, 23.74366], [-100.74404, 23.74364]]]}}, {"id": "1837287", "type": "Feature", "properties": {"id": "1837287", "CVEGEO": "2400700290100004", "POBTOT": 0.0, "score_nse": 0.0, "NSE": null, "VIVTOT": 0.0, "GRAPROES": 0.0, "_ent": "24", "_mun": "007", "_loc": "0029"}, "geometry": {"type": "Polygon", "coordinates": [[[-100.74505, 23.74351], [-100.7452, 23.74357], [-100.74516, 23.74388], [-100.74482, 23.74376], [-100.74505, 23.74351]]]}}, {"id": "1837288", "type": "Feature", "properties": {"id": "1837288", "CVEGEO": "2400700290100005", "POBTOT": 0.0, "score_nse": 0.0, "NSE": null, "VIVTOT": 0.0, "GRAPROES": 0.0, "_ent": "24", "_mun": "007", "_loc": "0029"}, "geometry": {"type": "Polygon", "coordinates": [[[-100.74794, 23.74486], [-100.74929, 23.74524], [-100.7493, 23.74538], [-100.74836, 23.74547], [-100.74811, 23.74569], [-100.74773, 23.74542], [-100.74761, 23.74507], [-100.74794, 23.74486]]]}}, {"id": "1837289", "type": "Feature", "properties": {"id": "1837289", "CVEGEO": "2400700290100006", "POBTOT": 0.0, "score_nse": 0.0, "NSE": null, "VIVTOT": 0.0, "GRAPROES": 0.0, "_ent": "24", "_mun": "007", "_loc": "0029"}, "geometry": {"type": "Polygon", "coordinates": [[[-100.74716, 23.74475], [-100.74775, 23.74561], [-100.748, 23.74646], [-100.74779, 23.74704], [-100.74716, 23.74665], [-100.74774, 23.74708], [-100.74731, 23.74767], [-100.74701, 23.74774], [-100.74642, 23.7476], [-100.74632, 23.74753], [-100.74657, 23.74743], [-100.74615, 23.7474], [-100.74582, 23.74689], [-100.7467, 23.74615], [-100.74651, 23.74559], [-100.74667, 23.74537], [-100.74634, 23.74467], [-100.74636, 23.74404], [-100.74716, 23.74475]]]}}, {"id": "1837290", "type": "Feature", "properties": {"id": "1837290", "CVEGEO": "2400700290100008", "POBTOT": 0.0, "score_nse": 0.0, "NSE": null, "VIVTOT": 0.0, "GRAPROES": 0.0, "_ent": "24", "_mun": "007", "_loc": "0029"}, "geometry": {"type": "Polygon", "coordinates": [[[-100.746, 23.74667], [-100.74586, 23.74655], [-100.74588, 23.74613], [-100.74641, 23.74565], [-100.74661, 23.74625], [-100.746, 23.74667]]]}}, {"id": "1837291", "type": "Feature", "properties": {"id": "1837291", "CVEGEO": "2400700290100009", "POBTOT": 0.0, "score_nse": 0.0, "NSE": null, "VIVTOT": 0.0, "GRAPROES": 0.0, "_ent": "24", "_mun": "007", "_loc": "0029"}, "geometry": {"type": "Polygon", "coordinates": [[[-100.74248, 23.74501], [-100.74252, 23.74548], [-100.74228, 23.7463], [-100.74205, 23.74668], [-100.74173, 23.74668], [-100.74136, 23.74643], [-100.74152, 23.74577], [-100.74182, 23.74515], [-100.74248, 23.74501]]]}}, {"id": "1837292", "type": "Feature", "properties": {"id": "1837292", "CVEGEO": "2400700290100012", "POBTOT": 0.0, "score_nse": 0.0, "NSE": null, "VIVTOT": 0.0, "GRAPROES": 0.0, "_ent": "24", "_mun": "007", "_loc": "0029"}, "geometry": {"type": "Polygon", "coordinates": [[[-100.74526, 23.74333], [-100.74463, 23.74362], [-100.74447, 23.74311], [-100.74467, 23.74291], [-100.74502, 23.743], [-100.74526, 23.74333]]]}}, {"id": "1837293", "type": "Feature", "properties": {"id": "1837293", "CVEGEO": "2400700290100013", "POBTOT": 0.0, "score_nse": 0.0, "NSE": null, "VIVTOT": 0.0, "GRAPROES": 0.0, "_ent": "24", "_mun": "007", "_loc": "0029"}, "geometry": {"type": "Polygon", "coordinates": [[[-100.75114, 23.74385], [-100.75081, 23.74478], [-100.74974, 23.74534], [-100.74948, 23.74522], [-100.74922, 23.74482], [-100.74976, 23.74373], [-100.75114, 23.74385]]]}}, {"id": "1837294", "type": "Feature", "properties": {"id": "1837294", "CVEGEO": "2400700290100014", "POBTOT": 0.0, "score_nse": 0.0, "NSE": null, "VIVTOT": 0.0, "GRAPROES": 0.0, "_ent": "24", "_mun": "007", "_loc": "0029"}, "geometry": {"type": "Polygon", "coordinates": [[[-100.74099, 23.74631], [-100.74126, 23.74652], [-100.74094, 23.74707], [-100.74136, 23.74664], [-100.74176, 23.74702], [-100.74136, 23.74764], [-100.74091, 23.74798], [-100.74004, 23.74765], [-100.73971, 23.74695], [-100.73998, 23.74626], [-100.74099, 23.74631]]]}}, {"id": "1837295", "type": "Feature", "properties": {"id": "1837295", "CVEGEO": "2400700290100016", "POBTOT": 0.0, "score_nse": 0.0, "NSE": null, "VIVTOT": 0.0, "GRAPROES": 0.0, "_ent": "24", "_mun": "007", "_loc": "0029"}, "geometry": {"type": "Polygon", "coordinates": [[[-100.74522, 23.74281], [-100.74435, 23.74282], [-100.74452, 23.74222], [-100.74542, 23.7422], [-100.74522, 23.74281]]]}}, {"id": "1837296", "type": "Feature", "properties": {"id": "1837296", "CVEGEO": "2400700290100017", "POBTOT": 0.0, "score_nse": 0.0, "NSE": null, "VIVTOT": 0.0, "GRAPROES": 0.0, "_ent": "24", "_mun": "007", "_loc": "0029"}, "geometry": {"type": "Polygon", "coordinates": [[[-100.74511, 23.74421], [-100.74532, 23.74558], [-100.74507, 23.74648], [-100.74457, 23.74704], [-100.74423, 23.74713], [-100.74346, 23.74648], [-100.74355, 23.74601], [-100.74331, 23.74587], [-100.74337, 23.74557], [-100.74366, 23.74506], [-100.74511, 23.74421]]]}}, {"id": "1837297", "type": "Feature", "properties": {"id": "1837297", "CVEGEO": "2400700290100018", "POBTOT": 0.0, "score_nse": 0.0, "NSE": null, "VIVTOT": 0.0, "GRAPROES": 0.0, "_ent": "24", "_mun": "007", "_loc": "0029"}, "geometry": {"type": "Polygon", "coordinates": [[[-100.74187, 23.74505], [-100.74201, 23.74472], [-100.74212, 23.74436], [-100.74252, 23.74494], [-100.74187, 23.74505]]]}}, {"id": "1837298", "type": "Feature", "properties": {"id": "1837298", "CVEGEO": "2400700290100019", "POBTOT": 0.0, "score_nse": 0.0, "NSE": null, "VIVTOT": 0.0, "GRAPROES": 0.0, "_ent": "24", "_mun": "007", "_loc": "0029"}, "geometry": {"type": "Polygon", "coordinates": [[[-100.74931, 23.74519], [-100.7474, 23.74441], [-100.74748, 23.74425], [-100.74732, 23.74436], [-100.7471, 23.74425], [-100.74711, 23.74377], [-100.74801, 23.74376], [-100.74834, 23.74397], [-100.74891, 23.7445], [-100.74931, 23.74519]]]}}, {"id": "1837299", "type": "Feature", "properties": {"id": "1837299", "CVEGEO": "2400700290100020", "POBTOT": 0.0, "score_nse": 0.0, "NSE": null, "VIVTOT": 0.0, "GRAPROES": 0.0, "_ent": "24", "_mun": "007", "_loc": "0029"}, "geometry": {"type": "Polygon", "coordinates": [[[-100.74934, 23.74545], [-100.74903, 23.74645], [-100.7485, 23.74675], [-100.74812, 23.74652], [-100.74807, 23.74585], [-100.74869, 23.74548], [-100.74934, 23.74545]]]}}, {"id": "1837300", "type": "Feature", "properties": {"id": "1837300", "CVEGEO": "2400700290100021", "POBTOT": 0.0, "score_nse": 0.0, "NSE": null, "VIVTOT": 0.0, "GRAPROES": 0.0, "_ent": "24", "_mun": "007", "_loc": "0029"}, "geometry": {"type": "Polygon", "coordinates": [[[-100.74757, 23.745], [-100.74729, 23.74455], [-100.74737, 23.74446], [-100.74788, 23.74481], [-100.74757, 23.745]]]}}, {"id": "1837795", "type": "Feature", "properties": {"id": "1837795", "CVEGEO": "2400700290100010", "POBTOT": 0.0, "score_nse": 0.0, "NSE": null, "VIVTOT": 0.0, "GRAPROES": 0.0, "_ent": "24", "_mun": "007", "_loc": "0029"}, "geometry": {"type": "Polygon", "coordinates": [[[-100.74207, 23.74423], [-100.74122, 23.74614], [-100.74103, 23.74626], [-100.73986, 23.74623], [-100.7404, 23.74482], [-100.74107, 23.74406], [-100.74138, 23.7439], [-100.74197, 23.74413], [-100.74207, 23.74423]]]}}, {"id": "1837796", "type": "Feature", "properties": {"id": "1837796", "CVEGEO": "2400700290100011", "POBTOT": 0.0, "score_nse": 0.0, "NSE": null, "VIVTOT": 0.0, "GRAPROES": 0.0, "_ent": "24", "_mun": "007", "_loc": "0029"}, "geometry": {"type": "Polygon", "coordinates": [[[-100.74114, 23.74345], [-100.74099, 23.74304], [-100.74124, 23.74217], [-100.74199, 23.74217], [-100.74204, 23.74287], [-100.74202, 23.74217], [-100.74442, 23.74223], [-100.74431, 23.74266], [-100.744, 23.74271], [-100.74429, 23.74296], [-100.7439, 23.74361], [-100.7427, 23.7435], [-100.74252, 23.74328], [-100.74257, 23.74349], [-100.74139, 23.74357], [-100.74114, 23.74345]]]}}, {"id": "1837837", "type": "Feature", "properties": {"id": "1837837", "CVEGEO": "2400700290100022", "POBTOT": 0.0, "score_nse": 0.0, "NSE": null, "VIVTOT": 0.0, "GRAPROES": 0.0, "_ent": "24", "_mun": "007", "_loc": "0029"}, "geometry": {"type": "Polygon", "coordinates": [[[-100.74281, 23.74632], [-100.74221, 23.7466], [-100.74257, 23.74533], [-100.74343, 23.74501], [-100.74281, 23.74632]]]}}]}