{"type": "FeatureCollection", "features": [{"id": "1655255", "type": "Feature", "properties": {"id": "1655255", "CVEGEO": "2104900050022001", "POBTOT": 0.0, "score_nse": 0.0, "NSE": null, "VIVTOT": 0.0, "GRAPROES": 0.0, "_ent": "21", "_mun": "049", "_loc": "0005"}, "geometry": {"type": "Polygon", "coordinates": [[[-97.92203, 20.0707], [-97.92221, 20.07054], [-97.92231, 20.07061], [-97.92215, 20.07083], [-97.92203, 20.0707]]]}}, {"id": "1655400", "type": "Feature", "properties": {"id": "1655400", "CVEGEO": "2104900050022002", "POBTOT": 0.0, "score_nse": 0.0, "NSE": null, "VIVTOT": 0.0, "GRAPROES": 0.0, "_ent": "21", "_mun": "049", "_loc": "0005"}, "geometry": {"type": "Polygon", "coordinates": [[[-97.92281, 20.07006], [-97.9225, 20.06955], [-97.92271, 20.06942], [-97.92331, 20.06959], [-97.92322, 20.06988], [-97.92333, 20.07022], [-97.92308, 20.0705], [-97.92237, 20.0705], [-97.92281, 20.07006]]]}}, {"id": "1655406", "type": "Feature", "properties": {"id": "1655406", "CVEGEO": "2104900050022004", "POBTOT": 0.0, "score_nse": 0.0, "NSE": null, "VIVTOT": 0.0, "GRAPROES": 0.0, "_ent": "21", "_mun": "049", "_loc": "0005"}, "geometry": {"type": "Polygon", "coordinates": [[[-97.92201, 20.07019], [-97.92263, 20.06998], [-97.92274, 20.07005], [-97.92253, 20.07032], [-97.92201, 20.07036], [-97.92201, 20.07019]]]}}, {"id": "1655413", "type": "Feature", "properties": {"id": "1655413", "CVEGEO": "2104900050022003", "POBTOT": 0.0, "score_nse": 0.0, "NSE": null, "VIVTOT": 0.0, "GRAPROES": 0.0, "_ent": "21", "_mun": "049", "_loc": "0005"}, "geometry": {"type": "Polygon", "coordinates": [[[-97.92261, 20.06942], [-97.92244, 20.06954], [-97.92259, 20.06994], [-97.92212, 20.07012], [-97.92191, 20.06966], [-97.92261, 20.06942]]]}}, {"id": "1655414", "type": "Feature", "properties": {"id": "1655414", "CVEGEO": "2104900050022005", "POBTOT": 0.0, "score_nse": 0.0, "NSE": null, "VIVTOT": 0.0, "GRAPROES": 0.0, "_ent": "21", "_mun": "049", "_loc": "0005"}, "geometry": {"type": "Polygon", "coordinates": [[[-97.92254, 20.06931], [-97.92191, 20.06962], [-97.92181, 20.06911], [-97.92245, 20.06893], [-97.92254, 20.06931]]]}}]}