{"type": "FeatureCollection", "features": [{"id": "280836", "type": "Feature", "properties": {"id": "280836", "CVEGEO": "0705904450052021", "POBTOT": 0.0, "score_nse": 0.0, "NSE": null, "VIVTOT": 0.0, "GRAPROES": 0.0, "_ent": "07", "_mun": "059", "_loc": "0445"}, "geometry": {"type": "Polygon", "coordinates": [[[-91.48901, 17.13322], [-91.48876, 17.13263], [-91.48869, 17.13221], [-91.48937, 17.13264], [-91.48901, 17.13322]]]}}, {"id": "282171", "type": "Feature", "properties": {"id": "282171", "CVEGEO": "0705904450052009", "POBTOT": 0.0, "score_nse": 0.0, "NSE": null, "VIVTOT": 0.0, "GRAPROES": 0.0, "_ent": "07", "_mun": "059", "_loc": "0445"}, "geometry": {"type": "Polygon", "coordinates": [[[-91.48427, 17.1294], [-91.48476, 17.12859], [-91.48557, 17.12909], [-91.48509, 17.1299], [-91.48427, 17.1294]]]}}, {"id": "282172", "type": "Feature", "properties": {"id": "282172", "CVEGEO": "0705904450052010", "POBTOT": 0.0, "score_nse": 0.0, "NSE": null, "VIVTOT": 0.0, "GRAPROES": 0.0, "_ent": "07", "_mun": "059", "_loc": "0445"}, "geometry": {"type": "Polygon", "coordinates": [[[-91.48479, 17.12852], [-91.4853, 17.12772], [-91.48612, 17.12824], [-91.48561, 17.12903], [-91.48479, 17.12852]]]}}, {"id": "282173", "type": "Feature", "properties": {"id": "282173", "CVEGEO": "0705904450052008", "POBTOT": 0.0, "score_nse": 0.0, "NSE": null, "VIVTOT": 0.0, "GRAPROES": 0.0, "_ent": "07", "_mun": "059", "_loc": "0445"}, "geometry": {"type": "Polygon", "coordinates": [[[-91.48514, 17.12993], [-91.48563, 17.12913], [-91.48645, 17.12961], [-91.48596, 17.13044], [-91.48514, 17.12993]]]}}, {"id": "282174", "type": "Feature", "properties": {"id": "282174", "CVEGEO": "0705904450052007", "POBTOT": 0.0, "score_nse": 0.0, "NSE": null, "VIVTOT": 0.0, "GRAPROES": 0.0, "_ent": "07", "_mun": "059", "_loc": "0445"}, "geometry": {"type": "Polygon", "coordinates": [[[-91.48603, 17.13047], [-91.48652, 17.12964], [-91.48733, 17.13015], [-91.48684, 17.13098], [-91.48603, 17.13047]]]}}, {"id": "282175", "type": "Feature", "properties": {"id": "282175", "CVEGEO": "0705904450052006", "POBTOT": 0.0, "score_nse": 0.0, "NSE": null, "VIVTOT": 0.0, "GRAPROES": 0.0, "_ent": "07", "_mun": "059", "_loc": "0445"}, "geometry": {"type": "Polygon", "coordinates": [[[-91.48691, 17.13101], [-91.48738, 17.13021], [-91.4882, 17.1307], [-91.48772, 17.13152], [-91.48691, 17.13101]]]}}, {"id": "282176", "type": "Feature", "properties": {"id": "282176", "CVEGEO": "0705904450052005", "POBTOT": 0.0, "score_nse": 0.0, "NSE": null, "VIVTOT": 0.0, "GRAPROES": 0.0, "_ent": "07", "_mun": "059", "_loc": "0445"}, "geometry": {"type": "Polygon", "coordinates": [[[-91.48743, 17.13015], [-91.48793, 17.12933], [-91.48874, 17.12984], [-91.48823, 17.13064], [-91.48743, 17.13015]]]}}, {"id": "282177", "type": "Feature", "properties": {"id": "282177", "CVEGEO": "0705904450052020", "POBTOT": 0.0, "score_nse": 0.0, "NSE": null, "VIVTOT": 0.0, "GRAPROES": 0.0, "_ent": "07", "_mun": "059", "_loc": "0445"}, "geometry": {"type": "Polygon", "coordinates": [[[-91.48866, 17.13209], [-91.48913, 17.13127], [-91.48995, 17.13176], [-91.48942, 17.13256], [-91.48866, 17.13209]]]}}, {"id": "282924", "type": "Feature", "properties": {"id": "282924", "CVEGEO": "0705904450052011", "POBTOT": 0.0, "score_nse": 0.0, "NSE": null, "VIVTOT": 0.0, "GRAPROES": 0.0, "_ent": "07", "_mun": "059", "_loc": "0445"}, "geometry": {"type": "Polygon", "coordinates": [[[-91.48884, 17.12983], [-91.4893, 17.12901], [-91.49017, 17.12953], [-91.48965, 17.13031], [-91.48884, 17.12983]]]}}, {"id": "282926", "type": "Feature", "properties": {"id": "282926", "CVEGEO": "0705904450052002", "POBTOT": 0.0, "score_nse": 0.0, "NSE": null, "VIVTOT": 0.0, "GRAPROES": 0.0, "_ent": "07", "_mun": "059", "_loc": "0445"}, "geometry": {"type": "Polygon", "coordinates": [[[-91.48567, 17.12907], [-91.48618, 17.12828], [-91.487, 17.12877], [-91.48649, 17.12956], [-91.48567, 17.12907]]]}}, {"id": "282927", "type": "Feature", "properties": {"id": "282927", "CVEGEO": "0705904450052003", "POBTOT": 0.0, "score_nse": 0.0, "NSE": null, "VIVTOT": 0.0, "GRAPROES": 0.0, "_ent": "07", "_mun": "059", "_loc": "0445"}, "geometry": {"type": "Polygon", "coordinates": [[[-91.48708, 17.12874], [-91.48758, 17.12796], [-91.48841, 17.12846], [-91.48791, 17.12926], [-91.48708, 17.12874]]]}}, {"id": "283577", "type": "Feature", "properties": {"id": "283577", "CVEGEO": "0705904450052015", "POBTOT": 0.0, "score_nse": 0.0, "NSE": null, "VIVTOT": 0.0, "GRAPROES": 0.0, "_ent": "07", "_mun": "059", "_loc": "0445"}, "geometry": {"type": "Polygon", "coordinates": [[[-91.48393, 17.12799], [-91.48442, 17.12719], [-91.48524, 17.1277], [-91.48473, 17.12849], [-91.48393, 17.12799]]]}}, {"id": "283578", "type": "Feature", "properties": {"id": "283578", "CVEGEO": "0705904450052014", "POBTOT": 0.0, "score_nse": 0.0, "NSE": null, "VIVTOT": 0.0, "GRAPROES": 0.0, "_ent": "07", "_mun": "059", "_loc": "0445"}, "geometry": {"type": "Polygon", "coordinates": [[[-91.4834, 17.12885], [-91.4839, 17.12804], [-91.48469, 17.12854], [-91.48422, 17.12936], [-91.4834, 17.12885]]]}}, {"id": "283579", "type": "Feature", "properties": {"id": "283579", "CVEGEO": "0705904450052017", "POBTOT": 0.0, "score_nse": 0.0, "NSE": null, "VIVTOT": 0.0, "GRAPROES": 0.0, "_ent": "07", "_mun": "059", "_loc": "0445"}, "geometry": {"type": "Polygon", "coordinates": [[[-91.48958, 17.12863], [-91.49045, 17.12904], [-91.4902, 17.12947], [-91.48934, 17.12895], [-91.48958, 17.12863]]]}}, {"id": "283580", "type": "Feature", "properties": {"id": "283580", "CVEGEO": "0705904450052019", "POBTOT": 0.0, "score_nse": 0.0, "NSE": null, "VIVTOT": 0.0, "GRAPROES": 0.0, "_ent": "07", "_mun": "059", "_loc": "0445"}, "geometry": {"type": "Polygon", "coordinates": [[[-91.48916, 17.13121], [-91.48966, 17.13041], [-91.4905, 17.13093], [-91.49, 17.13171], [-91.48916, 17.13121]]]}}, {"id": "283581", "type": "Feature", "properties": {"id": "283581", "CVEGEO": "0705904450052013", "POBTOT": 0.0, "score_nse": 0.0, "NSE": null, "VIVTOT": 0.0, "GRAPROES": 0.0, "_ent": "07", "_mun": "059", "_loc": "0445"}, "geometry": {"type": "Polygon", "coordinates": [[[-91.48777, 17.13155], [-91.48825, 17.13073], [-91.48907, 17.13125], [-91.4886, 17.13204], [-91.48777, 17.13155]]]}}, {"id": "283582", "type": "Feature", "properties": {"id": "283582", "CVEGEO": "0705904450052001", "POBTOT": 0.0, "score_nse": 0.0, "NSE": null, "VIVTOT": 0.0, "GRAPROES": 0.0, "_ent": "07", "_mun": "059", "_loc": "0445"}, "geometry": {"type": "Polygon", "coordinates": [[[-91.48655, 17.12958], [-91.48705, 17.1288], [-91.48786, 17.1293], [-91.48736, 17.1301], [-91.48655, 17.12958]]]}}, {"id": "284363", "type": "Feature", "properties": {"id": "284363", "CVEGEO": "0705904450052016", "POBTOT": 0.0, "score_nse": 0.0, "NSE": null, "VIVTOT": 0.0, "GRAPROES": 0.0, "_ent": "07", "_mun": "059", "_loc": "0445"}, "geometry": {"type": "Polygon", "coordinates": [[[-91.48446, 17.12713], [-91.48495, 17.12635], [-91.48577, 17.12683], [-91.48527, 17.12765], [-91.48446, 17.12713]]]}}, {"id": "284364", "type": "Feature", "properties": {"id": "284364", "CVEGEO": "0705904450052018", "POBTOT": 0.0, "score_nse": 0.0, "NSE": null, "VIVTOT": 0.0, "GRAPROES": 0.0, "_ent": "07", "_mun": "059", "_loc": "0445"}, "geometry": {"type": "Polygon", "coordinates": [[[-91.4897, 17.13035], [-91.49022, 17.12956], [-91.49104, 17.13008], [-91.49054, 17.13087], [-91.4897, 17.13035]]]}}, {"id": "284365", "type": "Feature", "properties": {"id": "284365", "CVEGEO": "0705904450052004", "POBTOT": 0.0, "score_nse": 0.0, "NSE": null, "VIVTOT": 0.0, "GRAPROES": 0.0, "_ent": "07", "_mun": "059", "_loc": "0445"}, "geometry": {"type": "Polygon", "coordinates": [[[-91.48797, 17.12929], [-91.48845, 17.12849], [-91.48925, 17.12898], [-91.48877, 17.1298], [-91.48797, 17.12929]]]}}, {"id": "284366", "type": "Feature", "properties": {"id": "284366", "CVEGEO": "0705904450052012", "POBTOT": 0.0, "score_nse": 0.0, "NSE": null, "VIVTOT": 0.0, "GRAPROES": 0.0, "_ent": "07", "_mun": "059", "_loc": "0445"}, "geometry": {"type": "Polygon", "coordinates": [[[-91.48829, 17.13068], [-91.48879, 17.12988], [-91.48962, 17.13037], [-91.48911, 17.13119], [-91.48829, 17.13068]]]}}, {"id": "284369", "type": "Feature", "properties": {"id": "284369", "CVEGEO": "0705904450052023", "POBTOT": 0.0, "score_nse": 0.0, "NSE": null, "VIVTOT": 0.0, "GRAPROES": 0.0, "_ent": "07", "_mun": "059", "_loc": "0445"}, "geometry": {"type": "Polygon", "coordinates": [[[-91.48532, 17.12768], [-91.48582, 17.12686], [-91.48665, 17.12738], [-91.48616, 17.1282], [-91.48532, 17.12768]]]}}, {"id": "284370", "type": "Feature", "properties": {"id": "284370", "CVEGEO": "0705904450052022", "POBTOT": 0.0, "score_nse": 0.0, "NSE": null, "VIVTOT": 0.0, "GRAPROES": 0.0, "_ent": "07", "_mun": "059", "_loc": "0445"}, "geometry": {"type": "Polygon", "coordinates": [[[-91.48702, 17.12871], [-91.48621, 17.12823], [-91.4867, 17.12741], [-91.48753, 17.12793], [-91.48702, 17.12871]]]}}, {"id": "284745", "type": "Feature", "properties": {"id": "284745", "CVEGEO": "0705904450052024", "POBTOT": 0.0, "score_nse": 0.0, "NSE": null, "VIVTOT": 0.0, "GRAPROES": 0.0, "_ent": "07", "_mun": "059", "_loc": "0445"}, "geometry": {"type": "Polygon", "coordinates": [[[-91.48766, 17.13159], [-91.48732, 17.13215], [-91.48644, 17.13175], [-91.48687, 17.13109], [-91.48766, 17.13159]]]}}, {"id": "284746", "type": "Feature", "properties": {"id": "284746", "CVEGEO": "0705904450052028", "POBTOT": 0.0, "score_nse": 0.0, "NSE": null, "VIVTOT": 0.0, "GRAPROES": 0.0, "_ent": "07", "_mun": "059", "_loc": "0445"}, "geometry": {"type": "Polygon", "coordinates": [[[-91.48416, 17.12943], [-91.48368, 17.13025], [-91.48286, 17.12972], [-91.48337, 17.12891], [-91.48416, 17.12943]]]}}, {"id": "284747", "type": "Feature", "properties": {"id": "284747", "CVEGEO": "0705904450052025", "POBTOT": 0.0, "score_nse": 0.0, "NSE": null, "VIVTOT": 0.0, "GRAPROES": 0.0, "_ent": "07", "_mun": "059", "_loc": "0445"}, "geometry": {"type": "Polygon", "coordinates": [[[-91.48681, 17.13104], [-91.48639, 17.13171], [-91.48561, 17.13127], [-91.48599, 17.13055], [-91.48681, 17.13104]]]}}, {"id": "284748", "type": "Feature", "properties": {"id": "284748", "CVEGEO": "0705904450052026", "POBTOT": 0.0, "score_nse": 0.0, "NSE": null, "VIVTOT": 0.0, "GRAPROES": 0.0, "_ent": "07", "_mun": "059", "_loc": "0445"}, "geometry": {"type": "Polygon", "coordinates": [[[-91.48592, 17.13051], [-91.48555, 17.13124], [-91.48475, 17.1308], [-91.48512, 17.13003], [-91.48592, 17.13051]]]}}, {"id": "284755", "type": "Feature", "properties": {"id": "284755", "CVEGEO": "0705904450052027", "POBTOT": 0.0, "score_nse": 0.0, "NSE": null, "VIVTOT": 0.0, "GRAPROES": 0.0, "_ent": "07", "_mun": "059", "_loc": "0445"}, "geometry": {"type": "Polygon", "coordinates": [[[-91.48505, 17.12998], [-91.48466, 17.13076], [-91.48377, 17.13029], [-91.48423, 17.12947], [-91.48505, 17.12998]]]}}]}