{"type": "FeatureCollection", "features": [{"id": "280837", "type": "Feature", "properties": {"id": "280837", "CVEGEO": "0705904940902010", "POBTOT": 0.0, "score_nse": 0.0, "NSE": null, "VIVTOT": 0.0, "GRAPROES": 0.0, "_ent": "07", "_mun": "059", "_loc": "0494"}, "geometry": {"type": "Polygon", "coordinates": [[[-91.41037, 16.43121], [-91.41092, 16.432], [-91.41018, 16.43265], [-91.40957, 16.43187], [-91.41037, 16.43121]]]}}, {"id": "281547", "type": "Feature", "properties": {"id": "281547", "CVEGEO": "0705904940902001", "POBTOT": 0.0, "score_nse": 0.0, "NSE": null, "VIVTOT": 0.0, "GRAPROES": 0.0, "_ent": "07", "_mun": "059", "_loc": "0494"}, "geometry": {"type": "Polygon", "coordinates": [[[-91.4116, 16.43289], [-91.41238, 16.43222], [-91.41294, 16.43302], [-91.41219, 16.43367], [-91.4116, 16.43289]]]}}, {"id": "281548", "type": "Feature", "properties": {"id": "281548", "CVEGEO": "0705904940902002", "POBTOT": 0.0, "score_nse": 0.0, "NSE": null, "VIVTOT": 0.0, "GRAPROES": 0.0, "_ent": "07", "_mun": "059", "_loc": "0494"}, "geometry": {"type": "Polygon", "coordinates": [[[-91.41098, 16.432], [-91.41174, 16.43135], [-91.41235, 16.43217], [-91.41157, 16.43285], [-91.41098, 16.432]]]}}, {"id": "281549", "type": "Feature", "properties": {"id": "281549", "CVEGEO": "0705904940902003", "POBTOT": 0.0, "score_nse": 0.0, "NSE": null, "VIVTOT": 0.0, "GRAPROES": 0.0, "_ent": "07", "_mun": "059", "_loc": "0494"}, "geometry": {"type": "Polygon", "coordinates": [[[-91.41177, 16.43132], [-91.41244, 16.43074], [-91.41308, 16.43148], [-91.41239, 16.43215], [-91.41177, 16.43132]]]}}, {"id": "281550", "type": "Feature", "properties": {"id": "281550", "CVEGEO": "0705904940902004", "POBTOT": 0.0, "score_nse": 0.0, "NSE": null, "VIVTOT": 0.0, "GRAPROES": 0.0, "_ent": "07", "_mun": "059", "_loc": "0494"}, "geometry": {"type": "Polygon", "coordinates": [[[-91.41372, 16.43234], [-91.41299, 16.43299], [-91.41242, 16.43218], [-91.41311, 16.43151], [-91.41372, 16.43234]]]}}, {"id": "281551", "type": "Feature", "properties": {"id": "281551", "CVEGEO": "0705904940902005", "POBTOT": 0.0, "score_nse": 0.0, "NSE": null, "VIVTOT": 0.0, "GRAPROES": 0.0, "_ent": "07", "_mun": "059", "_loc": "0494"}, "geometry": {"type": "Polygon", "coordinates": [[[-91.41374, 16.43237], [-91.41433, 16.43321], [-91.41362, 16.43384], [-91.41301, 16.43303], [-91.41374, 16.43237]]]}}, {"id": "281552", "type": "Feature", "properties": {"id": "281552", "CVEGEO": "0705904940902006", "POBTOT": 0.0, "score_nse": 0.0, "NSE": null, "VIVTOT": 0.0, "GRAPROES": 0.0, "_ent": "07", "_mun": "059", "_loc": "0494"}, "geometry": {"type": "Polygon", "coordinates": [[[-91.41222, 16.43372], [-91.41298, 16.43306], [-91.41358, 16.43388], [-91.41281, 16.43456], [-91.41222, 16.43372]]]}}, {"id": "281553", "type": "Feature", "properties": {"id": "281553", "CVEGEO": "0705904940902007", "POBTOT": 0.0, "score_nse": 0.0, "NSE": null, "VIVTOT": 0.0, "GRAPROES": 0.0, "_ent": "07", "_mun": "059", "_loc": "0494"}, "geometry": {"type": "Polygon", "coordinates": [[[-91.41277, 16.43459], [-91.41196, 16.43522], [-91.41139, 16.43439], [-91.41218, 16.43374], [-91.41277, 16.43459]]]}}, {"id": "281554", "type": "Feature", "properties": {"id": "281554", "CVEGEO": "0705904940902008", "POBTOT": 0.0, "score_nse": 0.0, "NSE": null, "VIVTOT": 0.0, "GRAPROES": 0.0, "_ent": "07", "_mun": "059", "_loc": "0494"}, "geometry": {"type": "Polygon", "coordinates": [[[-91.41156, 16.43293], [-91.41215, 16.43371], [-91.41137, 16.43435], [-91.41083, 16.43356], [-91.41156, 16.43293]]]}}, {"id": "281555", "type": "Feature", "properties": {"id": "281555", "CVEGEO": "0705904940902009", "POBTOT": 0.0, "score_nse": 0.0, "NSE": null, "VIVTOT": 0.0, "GRAPROES": 0.0, "_ent": "07", "_mun": "059", "_loc": "0494"}, "geometry": {"type": "Polygon", "coordinates": [[[-91.41153, 16.43288], [-91.4108, 16.43351], [-91.41022, 16.4327], [-91.41094, 16.43203], [-91.41153, 16.43288]]]}}, {"id": "281724", "type": "Feature", "properties": {"id": "281724", "CVEGEO": "0705904940902011", "POBTOT": 0.0, "score_nse": 0.0, "NSE": null, "VIVTOT": 0.0, "GRAPROES": 0.0, "_ent": "07", "_mun": "059", "_loc": "0494"}, "geometry": {"type": "Polygon", "coordinates": [[[-91.41115, 16.43056], [-91.41171, 16.43131], [-91.41095, 16.43197], [-91.4104, 16.43118], [-91.41115, 16.43056]]]}}, {"id": "281725", "type": "Feature", "properties": {"id": "281725", "CVEGEO": "0705904940902012", "POBTOT": 0.0, "score_nse": 0.0, "NSE": null, "VIVTOT": 0.0, "GRAPROES": 0.0, "_ent": "07", "_mun": "059", "_loc": "0494"}, "geometry": {"type": "Polygon", "coordinates": [[[-91.41075, 16.43354], [-91.41008, 16.4341], [-91.40934, 16.43363], [-91.41018, 16.43273], [-91.41075, 16.43354]]]}}, {"id": "281726", "type": "Feature", "properties": {"id": "281726", "CVEGEO": "0705904940902013", "POBTOT": 0.0, "score_nse": 0.0, "NSE": null, "VIVTOT": 0.0, "GRAPROES": 0.0, "_ent": "07", "_mun": "059", "_loc": "0494"}, "geometry": {"type": "Polygon", "coordinates": [[[-91.40937, 16.43344], [-91.4088, 16.43248], [-91.40954, 16.4319], [-91.41015, 16.43269], [-91.40937, 16.43344]]]}}, {"id": "284907", "type": "Feature", "properties": {"id": "284907", "CVEGEO": "0705904940902014", "POBTOT": 0.0, "score_nse": 0.0, "NSE": null, "VIVTOT": 0.0, "GRAPROES": 0.0, "_ent": "07", "_mun": "059", "_loc": "0494"}, "geometry": {"type": "Polygon", "coordinates": [[[-91.41128, 16.43438], [-91.41058, 16.43485], [-91.41009, 16.4342], [-91.41078, 16.43364], [-91.41128, 16.43438]]]}}, {"id": "284908", "type": "Feature", "properties": {"id": "284908", "CVEGEO": "0705904940902016", "POBTOT": 0.0, "score_nse": 0.0, "NSE": null, "VIVTOT": 0.0, "GRAPROES": 0.0, "_ent": "07", "_mun": "059", "_loc": "0494"}, "geometry": {"type": "Polygon", "coordinates": [[[-91.41187, 16.43529], [-91.4112, 16.43571], [-91.41062, 16.4349], [-91.4113, 16.43444], [-91.41187, 16.43529]]]}}, {"id": "284909", "type": "Feature", "properties": {"id": "284909", "CVEGEO": "0705904940902017", "POBTOT": 0.0, "score_nse": 0.0, "NSE": null, "VIVTOT": 0.0, "GRAPROES": 0.0, "_ent": "07", "_mun": "059", "_loc": "0494"}, "geometry": {"type": "Polygon", "coordinates": [[[-91.41113, 16.43575], [-91.41009, 16.43645], [-91.40956, 16.43561], [-91.41056, 16.43495], [-91.41113, 16.43575]]]}}, {"id": "284910", "type": "Feature", "properties": {"id": "284910", "CVEGEO": "0705904940902015", "POBTOT": 0.0, "score_nse": 0.0, "NSE": null, "VIVTOT": 0.0, "GRAPROES": 0.0, "_ent": "07", "_mun": "059", "_loc": "0494"}, "geometry": {"type": "Polygon", "coordinates": [[[-91.41051, 16.4349], [-91.40951, 16.43555], [-91.40911, 16.43496], [-91.41002, 16.43423], [-91.41051, 16.4349]]]}}]}