{"type": "FeatureCollection", "features": [{"id": "280275", "type": "Feature", "properties": {"id": "280275", "CVEGEO": "0705906190828003", "POBTOT": 0.0, "score_nse": 0.0, "NSE": null, "VIVTOT": 0.0, "GRAPROES": 0.0, "_ent": "07", "_mun": "059", "_loc": "0619"}, "geometry": {"type": "Polygon", "coordinates": [[[-91.3029, 16.52961], [-91.3036, 16.52912], [-91.30404, 16.52981], [-91.30337, 16.53025], [-91.3029, 16.52961]]]}}, {"id": "280276", "type": "Feature", "properties": {"id": "280276", "CVEGEO": "0705906190828004", "POBTOT": 0.0, "score_nse": 0.0, "NSE": null, "VIVTOT": 0.0, "GRAPROES": 0.0, "_ent": "07", "_mun": "059", "_loc": "0619"}, "geometry": {"type": "Polygon", "coordinates": [[[-91.30393, 16.53089], [-91.30344, 16.53031], [-91.3041, 16.52988], [-91.30452, 16.5305], [-91.30393, 16.53089]]]}}, {"id": "280846", "type": "Feature", "properties": {"id": "280846", "CVEGEO": "0705906190828005", "POBTOT": 0.0, "score_nse": 0.0, "NSE": null, "VIVTOT": 0.0, "GRAPROES": 0.0, "_ent": "07", "_mun": "059", "_loc": "0619"}, "geometry": {"type": "Polygon", "coordinates": [[[-91.30237, 16.53199], [-91.30459, 16.53058], [-91.30575, 16.53225], [-91.30381, 16.53379], [-91.30237, 16.53199]]]}}, {"id": "280847", "type": "Feature", "properties": {"id": "280847", "CVEGEO": "0705906190828006", "POBTOT": 0.0, "score_nse": 0.0, "NSE": null, "VIVTOT": 0.0, "GRAPROES": 0.0, "_ent": "07", "_mun": "059", "_loc": "0619"}, "geometry": {"type": "Polygon", "coordinates": [[[-91.30312, 16.53141], [-91.30232, 16.53194], [-91.30202, 16.5315], [-91.30205, 16.53126], [-91.30273, 16.53081], [-91.30312, 16.53141]]]}}, {"id": "280848", "type": "Feature", "properties": {"id": "280848", "CVEGEO": "0705906190828007", "POBTOT": 0.0, "score_nse": 0.0, "NSE": null, "VIVTOT": 0.0, "GRAPROES": 0.0, "_ent": "07", "_mun": "059", "_loc": "0619"}, "geometry": {"type": "Polygon", "coordinates": [[[-91.30201, 16.53114], [-91.30152, 16.53045], [-91.30221, 16.53001], [-91.30267, 16.53072], [-91.30201, 16.53114]]]}}, {"id": "280849", "type": "Feature", "properties": {"id": "280849", "CVEGEO": "0705906190828008", "POBTOT": 0.0, "score_nse": 0.0, "NSE": null, "VIVTOT": 0.0, "GRAPROES": 0.0, "_ent": "07", "_mun": "059", "_loc": "0619"}, "geometry": {"type": "Polygon", "coordinates": [[[-91.30106, 16.52977], [-91.30175, 16.52933], [-91.30217, 16.52991], [-91.30148, 16.53038], [-91.30106, 16.52977]]]}}, {"id": "281578", "type": "Feature", "properties": {"id": "281578", "CVEGEO": "0705906190828001", "POBTOT": 0.0, "score_nse": 0.0, "NSE": null, "VIVTOT": 0.0, "GRAPROES": 0.0, "_ent": "07", "_mun": "059", "_loc": "0619"}, "geometry": {"type": "Polygon", "coordinates": [[[-91.3038, 16.53093], [-91.30319, 16.53136], [-91.30282, 16.53077], [-91.30339, 16.5304], [-91.3038, 16.53093]]]}}, {"id": "281579", "type": "Feature", "properties": {"id": "281579", "CVEGEO": "0705906190828002", "POBTOT": 0.0, "score_nse": 0.0, "NSE": null, "VIVTOT": 0.0, "GRAPROES": 0.0, "_ent": "07", "_mun": "059", "_loc": "0619"}, "geometry": {"type": "Polygon", "coordinates": [[[-91.30276, 16.53067], [-91.30232, 16.52997], [-91.3028, 16.52966], [-91.30331, 16.53031], [-91.30276, 16.53067]]]}}]}