{"type": "FeatureCollection", "features": [{"id": "2313815", "type": "Feature", "properties": {"id": "2313815", "CVEGEO": "3009500030024007", "POBTOT": 0.0, "score_nse": 0.0, "NSE": null, "VIVTOT": 0.0, "GRAPROES": 0.0, "_ent": "30", "_mun": "095", "_loc": "0003"}, "geometry": {"type": "Polygon", "coordinates": [[[-96.6576, 19.81426], [-96.65767, 19.81446], [-96.65751, 19.81456], [-96.65714, 19.81453], [-96.65709, 19.81429], [-96.6576, 19.81426]]]}}, {"id": "2313816", "type": "Feature", "properties": {"id": "2313816", "CVEGEO": "3009500030024006", "POBTOT": 0.0, "score_nse": 0.0, "NSE": null, "VIVTOT": 0.0, "GRAPROES": 0.0, "_ent": "30", "_mun": "095", "_loc": "0003"}, "geometry": {"type": "Polygon", "coordinates": [[[-96.65866, 19.81372], [-96.65805, 19.81335], [-96.65818, 19.81333], [-96.65803, 19.81331], [-96.65788, 19.8129], [-96.65804, 19.81285], [-96.65787, 19.81286], [-96.65777, 19.81263], [-96.65824, 19.81259], [-96.65866, 19.81372]]]}}, {"id": "2313818", "type": "Feature", "properties": {"id": "2313818", "CVEGEO": "3009500030024005", "POBTOT": 0.0, "score_nse": 0.0, "NSE": null, "VIVTOT": 0.0, "GRAPROES": 0.0, "_ent": "30", "_mun": "095", "_loc": "0003"}, "geometry": {"type": "Polygon", "coordinates": [[[-96.65755, 19.81203], [-96.65816, 19.81231], [-96.65805, 19.81251], [-96.65776, 19.81259], [-96.65755, 19.81203]]]}}, {"id": "2313959", "type": "Feature", "properties": {"id": "2313959", "CVEGEO": "3009500030024001", "POBTOT": 0.0, "score_nse": 0.0, "NSE": null, "VIVTOT": 0.0, "GRAPROES": 0.0, "_ent": "30", "_mun": "095", "_loc": "0003"}, "geometry": {"type": "Polygon", "coordinates": [[[-96.65767, 19.81259], [-96.65799, 19.81343], [-96.65791, 19.8137], [-96.65751, 19.81393], [-96.65732, 19.81373], [-96.65759, 19.81422], [-96.65709, 19.81425], [-96.65704, 19.81336], [-96.65748, 19.81321], [-96.65767, 19.81259]]]}}]}