{"type": "FeatureCollection", "features": [{"id": "2292001", "type": "Feature", "properties": {"id": "2292001", "CVEGEO": "3007200150053004", "POBTOT": 0.0, "score_nse": 0.0, "NSE": null, "VIVTOT": 0.0, "GRAPROES": 0.0, "_ent": "30", "_mun": "072", "_loc": "0015"}, "geometry": {"type": "Polygon", "coordinates": [[[-98.48435, 20.51186], [-98.48358, 20.51223], [-98.48338, 20.51209], [-98.48327, 20.51165], [-98.48408, 20.51147], [-98.48435, 20.51186]]]}}, {"id": "2292002", "type": "Feature", "properties": {"id": "2292002", "CVEGEO": "3007200150053001", "POBTOT": 0.0, "score_nse": 0.0, "NSE": null, "VIVTOT": 0.0, "GRAPROES": 0.0, "_ent": "30", "_mun": "072", "_loc": "0015"}, "geometry": {"type": "Polygon", "coordinates": [[[-98.48531, 20.51498], [-98.48478, 20.51448], [-98.48464, 20.51389], [-98.48388, 20.51337], [-98.48389, 20.51281], [-98.4847, 20.51231], [-98.4853, 20.51215], [-98.4856, 20.51224], [-98.48558, 20.51287], [-98.48583, 20.51362], [-98.4853, 20.51456], [-98.48531, 20.51498]]]}}, {"id": "2292389", "type": "Feature", "properties": {"id": "2292389", "CVEGEO": "3007200150053005", "POBTOT": 0.0, "score_nse": 0.0, "NSE": null, "VIVTOT": 0.0, "GRAPROES": 0.0, "_ent": "30", "_mun": "072", "_loc": "0015"}, "geometry": {"type": "Polygon", "coordinates": [[[-98.48543, 20.51214], [-98.48461, 20.51227], [-98.48449, 20.51205], [-98.48519, 20.51185], [-98.48446, 20.51202], [-98.48428, 20.51159], [-98.48436, 20.5115], [-98.48467, 20.51182], [-98.48537, 20.51167], [-98.48543, 20.51214]]]}}, {"id": "2292390", "type": "Feature", "properties": {"id": "2292390", "CVEGEO": "3007200150053006", "POBTOT": 0.0, "score_nse": 0.0, "NSE": null, "VIVTOT": 0.0, "GRAPROES": 0.0, "_ent": "30", "_mun": "072", "_loc": "0015"}, "geometry": {"type": "Polygon", "coordinates": [[[-98.48422, 20.51238], [-98.48376, 20.51259], [-98.48377, 20.51241], [-98.48416, 20.51224], [-98.48422, 20.51238]]]}}, {"id": "2292397", "type": "Feature", "properties": {"id": "2292397", "CVEGEO": "3007200150053002", "POBTOT": 0.0, "score_nse": 0.0, "NSE": null, "VIVTOT": 0.0, "GRAPROES": 0.0, "_ent": "30", "_mun": "072", "_loc": "0015"}, "geometry": {"type": "Polygon", "coordinates": [[[-98.48433, 20.51258], [-98.48383, 20.51278], [-98.48378, 20.51273], [-98.48425, 20.51243], [-98.48433, 20.51258]]]}}, {"id": "2292398", "type": "Feature", "properties": {"id": "2292398", "CVEGEO": "3007200150053003", "POBTOT": 0.0, "score_nse": 0.0, "NSE": null, "VIVTOT": 0.0, "GRAPROES": 0.0, "_ent": "30", "_mun": "072", "_loc": "0015"}, "geometry": {"type": "Polygon", "coordinates": [[[-98.48413, 20.51221], [-98.48373, 20.51239], [-98.48373, 20.51219], [-98.48404, 20.51205], [-98.48413, 20.51221]]]}}, {"id": "2292399", "type": "Feature", "properties": {"id": "2292399", "CVEGEO": "3007200150053007", "POBTOT": 0.0, "score_nse": 0.0, "NSE": null, "VIVTOT": 0.0, "GRAPROES": 0.0, "_ent": "30", "_mun": "072", "_loc": "0015"}, "geometry": {"type": "Polygon", "coordinates": [[[-98.48433, 20.5119], [-98.4845, 20.51226], [-98.48427, 20.51233], [-98.48409, 20.51202], [-98.48433, 20.5119]]]}}]}