{"type": "FeatureCollection", "features": [{"id": "331411", "type": "Feature", "properties": {"id": "331411", "CVEGEO": "0710500160023001", "POBTOT": 0.0, "score_nse": 0.0, "NSE": null, "VIVTOT": 0.0, "GRAPROES": 0.0, "_ent": "07", "_mun": "105", "_loc": "0016"}, "geometry": {"type": "Polygon", "coordinates": [[[-92.14238, 15.05236], [-92.14247, 15.0519], [-92.14297, 15.05196], [-92.14287, 15.05245], [-92.14238, 15.05236]]]}}, {"id": "331412", "type": "Feature", "properties": {"id": "331412", "CVEGEO": "0710500160023002", "POBTOT": 0.0, "score_nse": 0.0, "NSE": null, "VIVTOT": 0.0, "GRAPROES": 0.0, "_ent": "07", "_mun": "105", "_loc": "0016"}, "geometry": {"type": "Polygon", "coordinates": [[[-92.1424, 15.0519], [-92.14231, 15.05236], [-92.14183, 15.05231], [-92.14193, 15.05182], [-92.1424, 15.0519]]]}}, {"id": "331413", "type": "Feature", "properties": {"id": "331413", "CVEGEO": "0710500160023003", "POBTOT": 0.0, "score_nse": 0.0, "NSE": null, "VIVTOT": 0.0, "GRAPROES": 0.0, "_ent": "07", "_mun": "105", "_loc": "0016"}, "geometry": {"type": "Polygon", "coordinates": [[[-92.14251, 15.05138], [-92.14242, 15.05185], [-92.14194, 15.05177], [-92.14204, 15.05131], [-92.14251, 15.05138]]]}}, {"id": "331414", "type": "Feature", "properties": {"id": "331414", "CVEGEO": "0710500160023004", "POBTOT": 0.0, "score_nse": 0.0, "NSE": null, "VIVTOT": 0.0, "GRAPROES": 0.0, "_ent": "07", "_mun": "105", "_loc": "0016"}, "geometry": {"type": "Polygon", "coordinates": [[[-92.14311, 15.05148], [-92.14309, 15.05193], [-92.14248, 15.05185], [-92.14257, 15.05139], [-92.14311, 15.05148]]]}}, {"id": "331415", "type": "Feature", "properties": {"id": "331415", "CVEGEO": "0710500160023005", "POBTOT": 0.0, "score_nse": 0.0, "NSE": null, "VIVTOT": 0.0, "GRAPROES": 0.0, "_ent": "07", "_mun": "105", "_loc": "0016"}, "geometry": {"type": "Polygon", "coordinates": [[[-92.14361, 15.05194], [-92.14313, 15.05194], [-92.14318, 15.05124], [-92.14347, 15.05128], [-92.14361, 15.05194]]]}}, {"id": "331416", "type": "Feature", "properties": {"id": "331416", "CVEGEO": "0710500160023016", "POBTOT": 0.0, "score_nse": 0.0, "NSE": null, "VIVTOT": 0.0, "GRAPROES": 0.0, "_ent": "07", "_mun": "105", "_loc": "0016"}, "geometry": {"type": "Polygon", "coordinates": [[[-92.14218, 15.05022], [-92.14208, 15.05069], [-92.1416, 15.0506], [-92.14168, 15.05013], [-92.14218, 15.05022]]]}}, {"id": "331474", "type": "Feature", "properties": {"id": "331474", "CVEGEO": "0710500160023019", "POBTOT": 0.0, "score_nse": 0.0, "NSE": null, "VIVTOT": 0.0, "GRAPROES": 0.0, "_ent": "07", "_mun": "105", "_loc": "0016"}, "geometry": {"type": "Polygon", "coordinates": [[[-92.14319, 15.05366], [-92.14309, 15.05419], [-92.14261, 15.05408], [-92.14271, 15.05359], [-92.14319, 15.05366]]]}}, {"id": "331475", "type": "Feature", "properties": {"id": "331475", "CVEGEO": "0710500160023021", "POBTOT": 0.0, "score_nse": 0.0, "NSE": null, "VIVTOT": 0.0, "GRAPROES": 0.0, "_ent": "07", "_mun": "105", "_loc": "0016"}, "geometry": {"type": "Polygon", "coordinates": [[[-92.14226, 15.04987], [-92.14219, 15.05017], [-92.1417, 15.05008], [-92.14178, 15.04967], [-92.14226, 15.04987]]]}}, {"id": "331498", "type": "Feature", "properties": {"id": "331498", "CVEGEO": "0710500160023017", "POBTOT": 0.0, "score_nse": 0.0, "NSE": null, "VIVTOT": 0.0, "GRAPROES": 0.0, "_ent": "07", "_mun": "105", "_loc": "0016"}, "geometry": {"type": "Polygon", "coordinates": [[[-92.14215, 15.0507], [-92.14225, 15.05023], [-92.14272, 15.05034], [-92.14264, 15.05079], [-92.14215, 15.0507]]]}}, {"id": "331499", "type": "Feature", "properties": {"id": "331499", "CVEGEO": "0710500160023018", "POBTOT": 0.0, "score_nse": 0.0, "NSE": null, "VIVTOT": 0.0, "GRAPROES": 0.0, "_ent": "07", "_mun": "105", "_loc": "0016"}, "geometry": {"type": "Polygon", "coordinates": [[[-92.14325, 15.05043], [-92.14318, 15.05094], [-92.14269, 15.05083], [-92.14277, 15.05034], [-92.14325, 15.05043]]]}}, {"id": "331549", "type": "Feature", "properties": {"id": "331549", "CVEGEO": "0710500160023024", "POBTOT": 0.0, "score_nse": 0.0, "NSE": null, "VIVTOT": 0.0, "GRAPROES": 0.0, "_ent": "07", "_mun": "105", "_loc": "0016"}, "geometry": {"type": "Polygon", "coordinates": [[[-92.14308, 15.05425], [-92.14298, 15.05472], [-92.1425, 15.05461], [-92.1426, 15.05414], [-92.14308, 15.05425]]]}}, {"id": "331588", "type": "Feature", "properties": {"id": "331588", "CVEGEO": "0710500160023026", "POBTOT": 0.0, "score_nse": 0.0, "NSE": null, "VIVTOT": 0.0, "GRAPROES": 0.0, "_ent": "07", "_mun": "105", "_loc": "0016"}, "geometry": {"type": "Polygon", "coordinates": [[[-92.1419, 15.04903], [-92.14233, 15.04943], [-92.14228, 15.04981], [-92.14178, 15.04958], [-92.14138, 15.04837], [-92.14171, 15.04834], [-92.1419, 15.04903]]]}}, {"id": "331589", "type": "Feature", "properties": {"id": "331589", "CVEGEO": "0710500160023028", "POBTOT": 0.0, "score_nse": 0.0, "NSE": null, "VIVTOT": 0.0, "GRAPROES": 0.0, "_ent": "07", "_mun": "105", "_loc": "0016"}, "geometry": {"type": "Polygon", "coordinates": [[[-92.14297, 15.05479], [-92.14288, 15.05525], [-92.14241, 15.05511], [-92.1425, 15.05467], [-92.14297, 15.05479]]]}}, {"id": "331615", "type": "Feature", "properties": {"id": "331615", "CVEGEO": "0710500160023014", "POBTOT": 0.0, "score_nse": 0.0, "NSE": null, "VIVTOT": 0.0, "GRAPROES": 0.0, "_ent": "07", "_mun": "105", "_loc": "0016"}, "geometry": {"type": "Polygon", "coordinates": [[[-92.1433, 15.05312], [-92.1432, 15.05359], [-92.14273, 15.05352], [-92.14283, 15.05304], [-92.1433, 15.05312]]]}}, {"id": "331663", "type": "Feature", "properties": {"id": "331663", "CVEGEO": "0710500160023006", "POBTOT": 0.0, "score_nse": 0.0, "NSE": null, "VIVTOT": 0.0, "GRAPROES": 0.0, "_ent": "07", "_mun": "105", "_loc": "0016"}, "geometry": {"type": "Polygon", "coordinates": [[[-92.14293, 15.05245], [-92.14302, 15.05198], [-92.14344, 15.05203], [-92.1434, 15.05251], [-92.14293, 15.05245]]]}}, {"id": "331664", "type": "Feature", "properties": {"id": "331664", "CVEGEO": "0710500160023007", "POBTOT": 0.0, "score_nse": 0.0, "NSE": null, "VIVTOT": 0.0, "GRAPROES": 0.0, "_ent": "07", "_mun": "105", "_loc": "0016"}, "geometry": {"type": "Polygon", "coordinates": [[[-92.14339, 15.05258], [-92.14331, 15.05306], [-92.14283, 15.05298], [-92.14292, 15.05251], [-92.14339, 15.05258]]]}}, {"id": "331665", "type": "Feature", "properties": {"id": "331665", "CVEGEO": "0710500160023010", "POBTOT": 0.0, "score_nse": 0.0, "NSE": null, "VIVTOT": 0.0, "GRAPROES": 0.0, "_ent": "07", "_mun": "105", "_loc": "0016"}, "geometry": {"type": "Polygon", "coordinates": [[[-92.14139, 15.05167], [-92.14148, 15.0512], [-92.14196, 15.0513], [-92.14186, 15.05176], [-92.14139, 15.05167]]]}}, {"id": "331666", "type": "Feature", "properties": {"id": "331666", "CVEGEO": "0710500160023011", "POBTOT": 0.0, "score_nse": 0.0, "NSE": null, "VIVTOT": 0.0, "GRAPROES": 0.0, "_ent": "07", "_mun": "105", "_loc": "0016"}, "geometry": {"type": "Polygon", "coordinates": [[[-92.14207, 15.05076], [-92.14198, 15.05125], [-92.14149, 15.05115], [-92.14159, 15.05066], [-92.14207, 15.05076]]]}}, {"id": "331667", "type": "Feature", "properties": {"id": "331667", "CVEGEO": "0710500160023012", "POBTOT": 0.0, "score_nse": 0.0, "NSE": null, "VIVTOT": 0.0, "GRAPROES": 0.0, "_ent": "07", "_mun": "105", "_loc": "0016"}, "geometry": {"type": "Polygon", "coordinates": [[[-92.14263, 15.05085], [-92.14252, 15.05132], [-92.14204, 15.05126], [-92.14214, 15.05075], [-92.14263, 15.05085]]]}}, {"id": "331668", "type": "Feature", "properties": {"id": "331668", "CVEGEO": "0710500160023013", "POBTOT": 0.0, "score_nse": 0.0, "NSE": null, "VIVTOT": 0.0, "GRAPROES": 0.0, "_ent": "07", "_mun": "105", "_loc": "0016"}, "geometry": {"type": "Polygon", "coordinates": [[[-92.14318, 15.05098], [-92.14312, 15.05143], [-92.14258, 15.05133], [-92.14268, 15.05087], [-92.14318, 15.05098]]]}}, {"id": "331669", "type": "Feature", "properties": {"id": "331669", "CVEGEO": "0710500160023032", "POBTOT": 0.0, "score_nse": 0.0, "NSE": null, "VIVTOT": 0.0, "GRAPROES": 0.0, "_ent": "07", "_mun": "105", "_loc": "0016"}, "geometry": {"type": "Polygon", "coordinates": [[[-92.1412, 15.04797], [-92.14043, 15.04802], [-92.1404, 15.0474], [-92.14111, 15.04766], [-92.1412, 15.04797]]]}}, {"id": "331733", "type": "Feature", "properties": {"id": "331733", "CVEGEO": "0710500160023008", "POBTOT": 0.0, "score_nse": 0.0, "NSE": null, "VIVTOT": 0.0, "GRAPROES": 0.0, "_ent": "07", "_mun": "105", "_loc": "0016"}, "geometry": {"type": "Polygon", "coordinates": [[[-92.14286, 15.05251], [-92.14276, 15.05297], [-92.14227, 15.05291], [-92.14237, 15.05242], [-92.14286, 15.05251]]]}}, {"id": "331734", "type": "Feature", "properties": {"id": "331734", "CVEGEO": "0710500160023015", "POBTOT": 0.0, "score_nse": 0.0, "NSE": null, "VIVTOT": 0.0, "GRAPROES": 0.0, "_ent": "07", "_mun": "105", "_loc": "0016"}, "geometry": {"type": "Polygon", "coordinates": [[[-92.14274, 15.05303], [-92.14265, 15.05353], [-92.14217, 15.05343], [-92.14225, 15.05297], [-92.14274, 15.05303]]]}}, {"id": "331736", "type": "Feature", "properties": {"id": "331736", "CVEGEO": "0710500160023038", "POBTOT": 0.0, "score_nse": 0.0, "NSE": null, "VIVTOT": 0.0, "GRAPROES": 0.0, "_ent": "07", "_mun": "105", "_loc": "0016"}, "geometry": {"type": "Polygon", "coordinates": [[[-92.14254, 15.05413], [-92.14244, 15.0546], [-92.14196, 15.05449], [-92.14205, 15.05403], [-92.14254, 15.05413]]]}}, {"id": "331737", "type": "Feature", "properties": {"id": "331737", "CVEGEO": "0710500160023037", "POBTOT": 0.0, "score_nse": 0.0, "NSE": null, "VIVTOT": 0.0, "GRAPROES": 0.0, "_ent": "07", "_mun": "105", "_loc": "0016"}, "geometry": {"type": "Polygon", "coordinates": [[[-92.14263, 15.05358], [-92.14255, 15.05407], [-92.14207, 15.05395], [-92.14215, 15.05349], [-92.14263, 15.05358]]]}}, {"id": "331738", "type": "Feature", "properties": {"id": "331738", "CVEGEO": "0710500160023036", "POBTOT": 0.0, "score_nse": 0.0, "NSE": null, "VIVTOT": 0.0, "GRAPROES": 0.0, "_ent": "07", "_mun": "105", "_loc": "0016"}, "geometry": {"type": "Polygon", "coordinates": [[[-92.14218, 15.05298], [-92.1421, 15.05342], [-92.14163, 15.05332], [-92.14172, 15.05289], [-92.14218, 15.05298]]]}}, {"id": "331745", "type": "Feature", "properties": {"id": "331745", "CVEGEO": "0710500160023009", "POBTOT": 0.0, "score_nse": 0.0, "NSE": null, "VIVTOT": 0.0, "GRAPROES": 0.0, "_ent": "07", "_mun": "105", "_loc": "0016"}, "geometry": {"type": "Polygon", "coordinates": [[[-92.14182, 15.05236], [-92.1423, 15.05242], [-92.14219, 15.05293], [-92.14173, 15.05284], [-92.14182, 15.05236]]]}}, {"id": "331760", "type": "Feature", "properties": {"id": "331760", "CVEGEO": "0710500160023030", "POBTOT": 0.0, "score_nse": 0.0, "NSE": null, "VIVTOT": 0.0, "GRAPROES": 0.0, "_ent": "07", "_mun": "105", "_loc": "0016"}, "geometry": {"type": "Polygon", "coordinates": [[[-92.14145, 15.04887], [-92.14082, 15.04894], [-92.1408, 15.04916], [-92.14009, 15.04902], [-92.14016, 15.04802], [-92.14121, 15.04802], [-92.14145, 15.04887]]]}}, {"id": "331776", "type": "Feature", "properties": {"id": "331776", "CVEGEO": "0710500160023020", "POBTOT": 0.0, "score_nse": 0.0, "NSE": null, "VIVTOT": 0.0, "GRAPROES": 0.0, "_ent": "07", "_mun": "105", "_loc": "0016"}, "geometry": {"type": "Polygon", "coordinates": [[[-92.14083, 15.04946], [-92.14087, 15.04899], [-92.14147, 15.04892], [-92.1417, 15.04965], [-92.14162, 15.05006], [-92.1399, 15.04973], [-92.14009, 15.04908], [-92.14083, 15.04922], [-92.14081, 15.04943], [-92.14064, 15.04942], [-92.14083, 15.04946]]]}}, {"id": "331777", "type": "Feature", "properties": {"id": "331777", "CVEGEO": "0710500160023035", "POBTOT": 0.0, "score_nse": 0.0, "NSE": null, "VIVTOT": 0.0, "GRAPROES": 0.0, "_ent": "07", "_mun": "105", "_loc": "0016"}, "geometry": {"type": "Polygon", "coordinates": [[[-92.14108, 15.04758], [-92.13972, 15.04708], [-92.13969, 15.04686], [-92.13997, 15.04637], [-92.14071, 15.04663], [-92.14076, 15.04676], [-92.14008, 15.04663], [-92.14079, 15.04681], [-92.14091, 15.04714], [-92.14031, 15.04703], [-92.14093, 15.0472], [-92.14108, 15.04758]]]}}, {"id": "331790", "type": "Feature", "properties": {"id": "331790", "CVEGEO": "0710500160023022", "POBTOT": 0.0, "score_nse": 0.0, "NSE": null, "VIVTOT": 0.0, "GRAPROES": 0.0, "_ent": "07", "_mun": "105", "_loc": "0016"}, "geometry": {"type": "Polygon", "coordinates": [[[-92.14226, 15.05017], [-92.14239, 15.04966], [-92.14278, 15.04972], [-92.14274, 15.05028], [-92.14226, 15.05017]]]}}]}