{"type": "FeatureCollection", "features": [{"id": "1614203", "type": "Feature", "properties": {"id": "1614203", "CVEGEO": "203970043006A004", "POBTOT": 0.0, "score_nse": 0.0, "NSE": null, "VIVTOT": 0.0, "GRAPROES": 0.0, "_ent": "20", "_mun": "397", "_loc": "0043"}, "geometry": {"type": "Polygon", "coordinates": [[[-97.80506, 17.18555], [-97.80452, 17.18556], [-97.80439, 17.18576], [-97.80351, 17.18573], [-97.8037, 17.18319], [-97.80332, 17.18295], [-97.8033, 17.18271], [-97.80293, 17.18267], [-97.80257, 17.18234], [-97.80282, 17.18211], [-97.80354, 17.18221], [-97.80424, 17.18283], [-97.80508, 17.18273], [-97.80527, 17.18387], [-97.80493, 17.18471], [-97.80506, 17.18555]]]}}, {"id": "1614204", "type": "Feature", "properties": {"id": "1614204", "CVEGEO": "203970043006A010", "POBTOT": 0.0, "score_nse": 0.0, "NSE": null, "VIVTOT": 0.0, "GRAPROES": 0.0, "_ent": "20", "_mun": "397", "_loc": "0043"}, "geometry": {"type": "Polygon", "coordinates": [[[-97.79735, 17.18704], [-97.79657, 17.18733], [-97.79578, 17.18715], [-97.79562, 17.18686], [-97.79599, 17.18645], [-97.79779, 17.18599], [-97.79843, 17.18551], [-97.79809, 17.18597], [-97.79793, 17.18653], [-97.79735, 17.18704]]]}}, {"id": "1614205", "type": "Feature", "properties": {"id": "1614205", "CVEGEO": "203970043006A009", "POBTOT": 0.0, "score_nse": 0.0, "NSE": null, "VIVTOT": 0.0, "GRAPROES": 0.0, "_ent": "20", "_mun": "397", "_loc": "0043"}, "geometry": {"type": "Polygon", "coordinates": [[[-97.79684, 17.1887], [-97.79683, 17.18849], [-97.79733, 17.18773], [-97.79746, 17.18702], [-97.79829, 17.18648], [-97.79929, 17.18667], [-97.79869, 17.18782], [-97.79848, 17.18796], [-97.79858, 17.18888], [-97.7983, 17.18919], [-97.79769, 17.1891], [-97.79684, 17.1887]]]}}, {"id": "1614206", "type": "Feature", "properties": {"id": "1614206", "CVEGEO": "203970043006A008", "POBTOT": 0.0, "score_nse": 0.0, "NSE": null, "VIVTOT": 0.0, "GRAPROES": 0.0, "_ent": "20", "_mun": "397", "_loc": "0043"}, "geometry": {"type": "Polygon", "coordinates": [[[-97.80029, 17.18657], [-97.79808, 17.18641], [-97.79828, 17.18581], [-97.79942, 17.18472], [-97.7995, 17.18446], [-97.80028, 17.18452], [-97.80107, 17.18489], [-97.80207, 17.18475], [-97.80209, 17.18549], [-97.80143, 17.18579], [-97.80107, 17.18627], [-97.80057, 17.18635], [-97.80029, 17.18657]]]}}, {"id": "1614207", "type": "Feature", "properties": {"id": "1614207", "CVEGEO": "203970043006A007", "POBTOT": 0.0, "score_nse": 0.0, "NSE": null, "VIVTOT": 0.0, "GRAPROES": 0.0, "_ent": "20", "_mun": "397", "_loc": "0043"}, "geometry": {"type": "Polygon", "coordinates": [[[-97.80229, 17.18437], [-97.80209, 17.18396], [-97.80117, 17.18351], [-97.80121, 17.18291], [-97.80194, 17.18249], [-97.80249, 17.18238], [-97.80281, 17.18269], [-97.80326, 17.18279], [-97.80324, 17.18302], [-97.80363, 17.18321], [-97.80263, 17.18389], [-97.80229, 17.18437]]]}}, {"id": "1614208", "type": "Feature", "properties": {"id": "1614208", "CVEGEO": "203970043006A006", "POBTOT": 0.0, "score_nse": 0.0, "NSE": null, "VIVTOT": 0.0, "GRAPROES": 0.0, "_ent": "20", "_mun": "397", "_loc": "0043"}, "geometry": {"type": "Polygon", "coordinates": [[[-97.80049, 17.18653], [-97.80113, 17.18634], [-97.80149, 17.18585], [-97.80218, 17.18555], [-97.80216, 17.18464], [-97.80311, 17.18356], [-97.80365, 17.18327], [-97.80343, 17.1865], [-97.8029, 17.18633], [-97.80134, 17.18676], [-97.80049, 17.18653]]]}}, {"id": "1614209", "type": "Feature", "properties": {"id": "1614209", "CVEGEO": "203970043006A005", "POBTOT": 0.0, "score_nse": 0.0, "NSE": null, "VIVTOT": 0.0, "GRAPROES": 0.0, "_ent": "20", "_mun": "397", "_loc": "0043"}, "geometry": {"type": "Polygon", "coordinates": [[[-97.80491, 17.18696], [-97.80507, 17.18743], [-97.80493, 17.18776], [-97.80371, 17.18715], [-97.80351, 17.18651], [-97.80359, 17.18582], [-97.80447, 17.18584], [-97.80453, 17.18561], [-97.80509, 17.18558], [-97.80491, 17.18696]]]}}, {"id": "1614210", "type": "Feature", "properties": {"id": "1614210", "CVEGEO": "203970043006A003", "POBTOT": 0.0, "score_nse": 0.0, "NSE": null, "VIVTOT": 0.0, "GRAPROES": 0.0, "_ent": "20", "_mun": "397", "_loc": "0043"}, "geometry": {"type": "Polygon", "coordinates": [[[-97.80599, 17.18102], [-97.8057, 17.18268], [-97.80538, 17.18291], [-97.80456, 17.18172], [-97.80446, 17.18124], [-97.80461, 17.18024], [-97.80593, 17.17947], [-97.80531, 17.18042], [-97.80599, 17.18102]]]}}, {"id": "1614211", "type": "Feature", "properties": {"id": "1614211", "CVEGEO": "203970043006A002", "POBTOT": 0.0, "score_nse": 0.0, "NSE": null, "VIVTOT": 0.0, "GRAPROES": 0.0, "_ent": "20", "_mun": "397", "_loc": "0043"}, "geometry": {"type": "Polygon", "coordinates": [[[-97.80726, 17.18611], [-97.80667, 17.18641], [-97.80622, 17.1862], [-97.8054, 17.1864], [-97.8051, 17.18726], [-97.80503, 17.18714], [-97.80522, 17.18577], [-97.80509, 17.18481], [-97.80542, 17.18405], [-97.80539, 17.18299], [-97.80575, 17.18269], [-97.80591, 17.18192], [-97.80686, 17.18334], [-97.80707, 17.18431], [-97.80666, 17.1848], [-97.80712, 17.18541], [-97.80726, 17.18611]]]}}, {"id": "1614212", "type": "Feature", "properties": {"id": "1614212", "CVEGEO": "203970043006A001", "POBTOT": 0.0, "score_nse": 0.0, "NSE": null, "VIVTOT": 0.0, "GRAPROES": 0.0, "_ent": "20", "_mun": "397", "_loc": "0043"}, "geometry": {"type": "Polygon", "coordinates": [[[-97.80611, 17.18768], [-97.80524, 17.18785], [-97.80499, 17.18779], [-97.80514, 17.18743], [-97.80611, 17.18768]]]}}]}