{"type": "FeatureCollection", "features": [{"id": "1614000", "type": "Feature", "properties": {"id": "1614000", "CVEGEO": "2039700680021002", "POBTOT": 0.0, "score_nse": 0.0, "NSE": null, "VIVTOT": 0.0, "GRAPROES": 0.0, "_ent": "20", "_mun": "397", "_loc": "0068"}, "geometry": {"type": "Polygon", "coordinates": [[[-97.6595, 17.30751], [-97.65883, 17.30668], [-97.66048, 17.3062], [-97.6608, 17.30752], [-97.66042, 17.30834], [-97.66063, 17.30919], [-97.66028, 17.30887], [-97.66034, 17.30854], [-97.6602, 17.30834], [-97.65985, 17.30824], [-97.65979, 17.30794], [-97.65949, 17.30776], [-97.6595, 17.30751]]]}}, {"id": "1614001", "type": "Feature", "properties": {"id": "1614001", "CVEGEO": "2039700680021003", "POBTOT": 0.0, "score_nse": 0.0, "NSE": null, "VIVTOT": 0.0, "GRAPROES": 0.0, "_ent": "20", "_mun": "397", "_loc": "0068"}, "geometry": {"type": "Polygon", "coordinates": [[[-97.6588, 17.30665], [-97.65855, 17.30618], [-97.66025, 17.30488], [-97.66043, 17.3055], [-97.65957, 17.30614], [-97.66045, 17.30554], [-97.66046, 17.30612], [-97.6588, 17.30665]]]}}, {"id": "1614002", "type": "Feature", "properties": {"id": "1614002", "CVEGEO": "2039700680021005", "POBTOT": 0.0, "score_nse": 0.0, "NSE": null, "VIVTOT": 0.0, "GRAPROES": 0.0, "_ent": "20", "_mun": "397", "_loc": "0068"}, "geometry": {"type": "Polygon", "coordinates": [[[-97.6627, 17.30088], [-97.6648, 17.29739], [-97.66483, 17.29894], [-97.66422, 17.29894], [-97.66417, 17.29995], [-97.6636, 17.30067], [-97.66254, 17.30172], [-97.66035, 17.30307], [-97.65988, 17.30386], [-97.65891, 17.30456], [-97.65832, 17.30489], [-97.6591, 17.30413], [-97.6599, 17.30366], [-97.66106, 17.30196], [-97.66173, 17.3017], [-97.6627, 17.30088]]]}}, {"id": "1614003", "type": "Feature", "properties": {"id": "1614003", "CVEGEO": "2039700680021008", "POBTOT": 0.0, "score_nse": 0.0, "NSE": null, "VIVTOT": 0.0, "GRAPROES": 0.0, "_ent": "20", "_mun": "397", "_loc": "0068"}, "geometry": {"type": "Polygon", "coordinates": [[[-97.65418, 17.30678], [-97.65477, 17.30649], [-97.65418, 17.30742], [-97.65322, 17.30804], [-97.65256, 17.30879], [-97.65217, 17.30884], [-97.65418, 17.30678]]]}}, {"id": "1614004", "type": "Feature", "properties": {"id": "1614004", "CVEGEO": "2039700680021004", "POBTOT": 0.0, "score_nse": 0.0, "NSE": null, "VIVTOT": 0.0, "GRAPROES": 0.0, "_ent": "20", "_mun": "397", "_loc": "0068"}, "geometry": {"type": "Polygon", "coordinates": [[[-97.65489, 17.3064], [-97.65658, 17.30603], [-97.65896, 17.30461], [-97.65888, 17.30506], [-97.65836, 17.30538], [-97.65804, 17.30605], [-97.65762, 17.30609], [-97.65757, 17.30644], [-97.65713, 17.30623], [-97.65538, 17.30658], [-97.65489, 17.3064]]]}}, {"id": "1614005", "type": "Feature", "properties": {"id": "1614005", "CVEGEO": "2039700680021007", "POBTOT": 0.0, "score_nse": 0.0, "NSE": null, "VIVTOT": 0.0, "GRAPROES": 0.0, "_ent": "20", "_mun": "397", "_loc": "0068"}, "geometry": {"type": "Polygon", "coordinates": [[[-97.66436, 17.30124], [-97.65845, 17.30607], [-97.6583, 17.3059], [-97.65848, 17.30539], [-97.65893, 17.30509], [-97.65918, 17.30438], [-97.65983, 17.30405], [-97.66058, 17.30304], [-97.66128, 17.30275], [-97.66239, 17.30196], [-97.66361, 17.30088], [-97.66393, 17.30035], [-97.66438, 17.30001], [-97.66426, 17.29912], [-97.66445, 17.29901], [-97.66485, 17.2991], [-97.66482, 17.30023], [-97.66436, 17.30124]]]}}, {"id": "1614067", "type": "Feature", "properties": {"id": "1614067", "CVEGEO": "2039700680021006", "POBTOT": 0.0, "score_nse": 0.0, "NSE": null, "VIVTOT": 0.0, "GRAPROES": 0.0, "_ent": "20", "_mun": "397", "_loc": "0068"}, "geometry": {"type": "Polygon", "coordinates": [[[-97.66432, 17.30176], [-97.665, 17.3001], [-97.66499, 17.30117], [-97.6653, 17.30146], [-97.66432, 17.30176]]]}}, {"id": "1614160", "type": "Feature", "properties": {"id": "1614160", "CVEGEO": "2039700680021009", "POBTOT": 0.0, "score_nse": 0.0, "NSE": null, "VIVTOT": 0.0, "GRAPROES": 0.0, "_ent": "20", "_mun": "397", "_loc": "0068"}, "geometry": {"type": "Polygon", "coordinates": [[[-97.66304, 17.30799], [-97.66188, 17.30702], [-97.66235, 17.30671], [-97.66292, 17.30755], [-97.66261, 17.3069], [-97.66282, 17.30674], [-97.66315, 17.30731], [-97.66288, 17.30672], [-97.66301, 17.30658], [-97.66378, 17.30654], [-97.66396, 17.30688], [-97.66382, 17.30721], [-97.66404, 17.30753], [-97.66397, 17.30774], [-97.66357, 17.30774], [-97.66304, 17.30799]]]}}, {"id": "1614270", "type": "Feature", "properties": {"id": "1614270", "CVEGEO": "2039700680021001", "POBTOT": 0.0, "score_nse": 0.0, "NSE": null, "VIVTOT": 0.0, "GRAPROES": 0.0, "_ent": "20", "_mun": "397", "_loc": "0068"}, "geometry": {"type": "Polygon", "coordinates": [[[-97.66552, 17.30175], [-97.66475, 17.30481], [-97.66377, 17.30648], [-97.66301, 17.30654], [-97.66257, 17.30686], [-97.66221, 17.30663], [-97.66184, 17.30699], [-97.66049, 17.30589], [-97.66031, 17.30476], [-97.66375, 17.30206], [-97.66407, 17.30234], [-97.6649, 17.30162], [-97.6653, 17.30149], [-97.66546, 17.30175], [-97.66522, 17.30204], [-97.66524, 17.30232], [-97.66425, 17.30276], [-97.66526, 17.30239], [-97.66507, 17.30281], [-97.66425, 17.30317], [-97.66506, 17.30287], [-97.66496, 17.30324], [-97.66468, 17.30335], [-97.66496, 17.30329], [-97.66491, 17.30362], [-97.66439, 17.30382], [-97.66426, 17.30357], [-97.66454, 17.30342], [-97.66424, 17.30353], [-97.66411, 17.30322], [-97.66416, 17.30352], [-97.66375, 17.30368], [-97.66357, 17.30401], [-97.66381, 17.3047], [-97.66366, 17.30393], [-97.6642, 17.30359], [-97.66469, 17.30447], [-97.66441, 17.30389], [-97.6649, 17.30368], [-97.66493, 17.3039], [-97.66533, 17.30239], [-97.66529, 17.30206], [-97.66552, 17.30175]]]}}, {"id": "1614271", "type": "Feature", "properties": {"id": "1614271", "CVEGEO": "2039700680021010", "POBTOT": 0.0, "score_nse": 0.0, "NSE": null, "VIVTOT": 0.0, "GRAPROES": 0.0, "_ent": "20", "_mun": "397", "_loc": "0068"}, "geometry": {"type": "Polygon", "coordinates": [[[-97.66382, 17.30202], [-97.66399, 17.30192], [-97.66467, 17.30173], [-97.66406, 17.30228], [-97.66382, 17.30202]]]}}, {"id": "1614428", "type": "Feature", "properties": {"id": "1614428", "CVEGEO": "2039700680021011", "POBTOT": 0.0, "score_nse": 0.0, "NSE": null, "VIVTOT": 0.0, "GRAPROES": 0.0, "_ent": "20", "_mun": "397", "_loc": "0068"}, "geometry": {"type": "Polygon", "coordinates": [[[-97.65446, 17.3073], [-97.65479, 17.3066], [-97.6553, 17.30669], [-97.65709, 17.30635], [-97.65757, 17.3066], [-97.65772, 17.30623], [-97.65825, 17.30606], [-97.65844, 17.30615], [-97.65741, 17.30687], [-97.65572, 17.30761], [-97.65528, 17.30811], [-97.65483, 17.30941], [-97.65436, 17.30997], [-97.65428, 17.30923], [-97.65397, 17.30853], [-97.65416, 17.30799], [-97.65398, 17.30778], [-97.65446, 17.3073]]]}}, {"id": "1614433", "type": "Feature", "properties": {"id": "1614433", "CVEGEO": "2039700680021012", "POBTOT": 0.0, "score_nse": 0.0, "NSE": null, "VIVTOT": 0.0, "GRAPROES": 0.0, "_ent": "20", "_mun": "397", "_loc": "0068"}, "geometry": {"type": "Polygon", "coordinates": [[[-97.6559, 17.30516], [-97.65528, 17.30509], [-97.65465, 17.3042], [-97.65549, 17.30387], [-97.65568, 17.30352], [-97.65698, 17.30399], [-97.65683, 17.3043], [-97.65636, 17.30412], [-97.65679, 17.30433], [-97.6569, 17.3043], [-97.65704, 17.30402], [-97.65724, 17.3041], [-97.6581, 17.30494], [-97.65694, 17.30563], [-97.6559, 17.30516]]]}}]}