{"type": "FeatureCollection", "features": [{"id": "371748", "type": "Feature", "properties": {"id": "371748", "CVEGEO": "0802900151997001", "POBTOT": 44.0, "score_nse": 0.0, "NSE": "ND", "VIVTOT": 15.0, "GRAPROES": 7.39, "_ent": "08", "_mun": "029", "_loc": "0015"}, "geometry": {"type": "Polygon", "coordinates": [[[-107.27279, 26.42883], [-107.27326, 26.42885], [-107.2742, 26.42858], [-107.2743, 26.42912], [-107.27424, 26.42857], [-107.27489, 26.42841], [-107.27525, 26.42975], [-107.27475, 26.42953], [-107.27355, 26.42966], [-107.27286, 26.42943], [-107.27279, 26.42883]]]}}, {"id": "371749", "type": "Feature", "properties": {"id": "371749", "CVEGEO": "0802900151889007", "POBTOT": 66.0, "score_nse": 0.0, "NSE": "ND", "VIVTOT": 16.0, "GRAPROES": 4.26, "_ent": "08", "_mun": "029", "_loc": "0015"}, "geometry": {"type": "Polygon", "coordinates": [[[-107.2553, 26.43039], [-107.25484, 26.43115], [-107.25487, 26.43182], [-107.25574, 26.43283], [-107.25638, 26.43315], [-107.25672, 26.43382], [-107.25641, 26.43419], [-107.25607, 26.43505], [-107.25606, 26.43636], [-107.25514, 26.43673], [-107.25493, 26.43697], [-107.25454, 26.43699], [-107.25437, 26.43639], [-107.25384, 26.43596], [-107.25168, 26.43307], [-107.25236, 26.43261], [-107.25279, 26.43153], [-107.25326, 26.43098], [-107.2542, 26.43059], [-107.2553, 26.43039]]]}}, {"id": "371750", "type": "Feature", "properties": {"id": "371750", "CVEGEO": "0802900151855012", "POBTOT": 17.0, "score_nse": 0.0, "NSE": "ND", "VIVTOT": 9.0, "GRAPROES": 9.5, "_ent": "08", "_mun": "029", "_loc": "0015"}, "geometry": {"type": "Polygon", "coordinates": [[[-107.26516, 26.42883], [-107.26458, 26.42885], [-107.26451, 26.42756], [-107.2652, 26.4277], [-107.26516, 26.42883]]]}}, {"id": "371751", "type": "Feature", "properties": {"id": "371751", "CVEGEO": "0802900151855011", "POBTOT": 23.0, "score_nse": 53.5613, "NSE": "C-", "VIVTOT": 9.0, "GRAPROES": 8.69, "_ent": "08", "_mun": "029", "_loc": "0015"}, "geometry": {"type": "Polygon", "coordinates": [[[-107.26445, 26.42755], [-107.26452, 26.42885], [-107.26436, 26.42886], [-107.26399, 26.42747], [-107.26445, 26.42755]]]}}, {"id": "371752", "type": "Feature", "properties": {"id": "371752", "CVEGEO": "0802900151855009", "POBTOT": 7.0, "score_nse": 0.0, "NSE": "ND", "VIVTOT": 5.0, "GRAPROES": 7.6, "_ent": "08", "_mun": "029", "_loc": "0015"}, "geometry": {"type": "Polygon", "coordinates": [[[-107.26223, 26.42643], [-107.26208, 26.427], [-107.26164, 26.4268], [-107.26213, 26.42625], [-107.26223, 26.42643]]]}}, {"id": "371753", "type": "Feature", "properties": {"id": "371753", "CVEGEO": "0802900151855008", "POBTOT": 40.0, "score_nse": 0.0, "NSE": "ND", "VIVTOT": 17.0, "GRAPROES": 6.63, "_ent": "08", "_mun": "029", "_loc": "0015"}, "geometry": {"type": "Polygon", "coordinates": [[[-107.26068, 26.42735], [-107.26027, 26.42714], [-107.26066, 26.42649], [-107.26024, 26.42712], [-107.25983, 26.42691], [-107.26013, 26.42596], [-107.26119, 26.42661], [-107.26068, 26.42735]]]}}, {"id": "371754", "type": "Feature", "properties": {"id": "371754", "CVEGEO": "0802900151840024", "POBTOT": 43.0, "score_nse": 0.0, "NSE": "ND", "VIVTOT": 24.0, "GRAPROES": 8.08, "_ent": "08", "_mun": "029", "_loc": "0015"}, "geometry": {"type": "Polygon", "coordinates": [[[-107.27071, 26.43308], [-107.27177, 26.43722], [-107.2714, 26.43717], [-107.27105, 26.4369], [-107.27024, 26.43677], [-107.26961, 26.43527], [-107.27012, 26.43501], [-107.26959, 26.43523], [-107.26884, 26.43329], [-107.26925, 26.43323], [-107.26939, 26.43376], [-107.26934, 26.43322], [-107.27071, 26.43308]]]}}, {"id": "371755", "type": "Feature", "properties": {"id": "371755", "CVEGEO": "0802900151840023", "POBTOT": 2.0, "score_nse": 0.0, "NSE": "ND", "VIVTOT": 4.0, "GRAPROES": 0.0, "_ent": "08", "_mun": "029", "_loc": "0015"}, "geometry": {"type": "Polygon", "coordinates": [[[-107.26802, 26.42804], [-107.26865, 26.42795], [-107.26883, 26.42804], [-107.26896, 26.42846], [-107.26813, 26.42858], [-107.26802, 26.42804]]]}}, {"id": "371756", "type": "Feature", "properties": {"id": "371756", "CVEGEO": "0802900151840022", "POBTOT": 0.0, "score_nse": 0.0, "NSE": "ND", "VIVTOT": 0.0, "GRAPROES": 0.0, "_ent": "08", "_mun": "029", "_loc": "0015"}, "geometry": {"type": "Polygon", "coordinates": [[[-107.26772, 26.42823], [-107.26793, 26.4282], [-107.26798, 26.42852], [-107.26778, 26.42855], [-107.26772, 26.42823]]]}}, {"id": "371757", "type": "Feature", "properties": {"id": "371757", "CVEGEO": "0802900151840011", "POBTOT": 18.0, "score_nse": 0.0, "NSE": "ND", "VIVTOT": 11.0, "GRAPROES": 4.83, "_ent": "08", "_mun": "029", "_loc": "0015"}, "geometry": {"type": "Polygon", "coordinates": [[[-107.26827, 26.42945], [-107.26812, 26.42865], [-107.26898, 26.42852], [-107.26913, 26.42934], [-107.26827, 26.42945]]]}}, {"id": "371758", "type": "Feature", "properties": {"id": "371758", "CVEGEO": "0802900151840010", "POBTOT": 3.0, "score_nse": 0.0, "NSE": "ND", "VIVTOT": 2.0, "GRAPROES": 0.0, "_ent": "08", "_mun": "029", "_loc": "0015"}, "geometry": {"type": "Polygon", "coordinates": [[[-107.26795, 26.4295], [-107.26781, 26.42875], [-107.26805, 26.42871], [-107.26819, 26.42946], [-107.26795, 26.4295]]]}}, {"id": "371790", "type": "Feature", "properties": {"id": "371790", "CVEGEO": "0802900151889010", "POBTOT": 8.0, "score_nse": 0.0, "NSE": "ND", "VIVTOT": 2.0, "GRAPROES": 0.0, "_ent": "08", "_mun": "029", "_loc": "0015"}, "geometry": {"type": "Polygon", "coordinates": [[[-107.25109, 26.42512], [-107.25044, 26.42546], [-107.25041, 26.42541], [-107.25051, 26.42512], [-107.25101, 26.42493], [-107.25109, 26.42512]]]}}, {"id": "371791", "type": "Feature", "properties": {"id": "371791", "CVEGEO": "0802900151855013", "POBTOT": 100.0, "score_nse": 0.0, "NSE": "ND", "VIVTOT": 30.0, "GRAPROES": 9.05, "_ent": "08", "_mun": "029", "_loc": "0015"}, "geometry": {"type": "Polygon", "coordinates": [[[-107.26595, 26.42893], [-107.26615, 26.4321], [-107.26561, 26.43237], [-107.26503, 26.4337], [-107.2644, 26.4361], [-107.26433, 26.43658], [-107.26461, 26.43836], [-107.26402, 26.43763], [-107.26284, 26.43422], [-107.26239, 26.43387], [-107.26214, 26.43271], [-107.2618, 26.43269], [-107.26131, 26.43061], [-107.26272, 26.43032], [-107.2635, 26.43041], [-107.26343, 26.43013], [-107.26364, 26.43002], [-107.26346, 26.42962], [-107.26306, 26.42976], [-107.26282, 26.42897], [-107.26327, 26.4289], [-107.26341, 26.42911], [-107.26595, 26.42893]]]}}, {"id": "371866", "type": "Feature", "properties": {"id": "371866", "CVEGEO": "0802900151840014", "POBTOT": 13.0, "score_nse": 0.0, "NSE": "ND", "VIVTOT": 6.0, "GRAPROES": 9.56, "_ent": "08", "_mun": "029", "_loc": "0015"}, "geometry": {"type": "Polygon", "coordinates": [[[-107.26831, 26.43164], [-107.26863, 26.43157], [-107.26881, 26.43265], [-107.26854, 26.43273], [-107.26831, 26.43164]]]}}, {"id": "371867", "type": "Feature", "properties": {"id": "371867", "CVEGEO": "0802900151840013", "POBTOT": 51.0, "score_nse": 0.0, "NSE": "ND", "VIVTOT": 14.0, "GRAPROES": 8.5, "_ent": "08", "_mun": "029", "_loc": "0015"}, "geometry": {"type": "Polygon", "coordinates": [[[-107.26949, 26.43163], [-107.26944, 26.4305], [-107.26995, 26.43043], [-107.27066, 26.433], [-107.26876, 26.43323], [-107.26865, 26.43279], [-107.26886, 26.43268], [-107.26868, 26.43156], [-107.26942, 26.43127], [-107.26949, 26.43163]]]}}, {"id": "371900", "type": "Feature", "properties": {"id": "371900", "CVEGEO": "0802900151855029", "POBTOT": 16.0, "score_nse": 52.6463, "NSE": "C-", "VIVTOT": 7.0, "GRAPROES": 12.0, "_ent": "08", "_mun": "029", "_loc": "0015"}, "geometry": {"type": "Polygon", "coordinates": [[[-107.26092, 26.42856], [-107.26033, 26.42846], [-107.26045, 26.42787], [-107.26103, 26.42792], [-107.26092, 26.42856]]]}}, {"id": "371901", "type": "Feature", "properties": {"id": "371901", "CVEGEO": "0802900151855032", "POBTOT": 18.0, "score_nse": 0.0, "NSE": "ND", "VIVTOT": 6.0, "GRAPROES": 9.38, "_ent": "08", "_mun": "029", "_loc": "0015"}, "geometry": {"type": "Polygon", "coordinates": [[[-107.26064, 26.42743], [-107.2604, 26.42779], [-107.25994, 26.42772], [-107.26024, 26.42722], [-107.26064, 26.42743]]]}}, {"id": "371902", "type": "Feature", "properties": {"id": "371902", "CVEGEO": "0802900151855016", "POBTOT": 10.0, "score_nse": 0.0, "NSE": "ND", "VIVTOT": 3.0, "GRAPROES": 10.75, "_ent": "08", "_mun": "029", "_loc": "0015"}, "geometry": {"type": "Polygon", "coordinates": [[[-107.25958, 26.42899], [-107.25947, 26.42833], [-107.25997, 26.42845], [-107.25998, 26.42901], [-107.25958, 26.42899]]]}}, {"id": "371903", "type": "Feature", "properties": {"id": "371903", "CVEGEO": "0802900151855030", "POBTOT": 20.0, "score_nse": 0.0, "NSE": "ND", "VIVTOT": 5.0, "GRAPROES": 7.0, "_ent": "08", "_mun": "029", "_loc": "0015"}, "geometry": {"type": "Polygon", "coordinates": [[[-107.26003, 26.429], [-107.26007, 26.42847], [-107.26044, 26.42854], [-107.26042, 26.42901], [-107.26003, 26.429]]]}}, {"id": "371904", "type": "Feature", "properties": {"id": "371904", "CVEGEO": "0802900151889009", "POBTOT": 12.0, "score_nse": 0.0, "NSE": "ND", "VIVTOT": 4.0, "GRAPROES": 4.33, "_ent": "08", "_mun": "029", "_loc": "0015"}, "geometry": {"type": "Polygon", "coordinates": [[[-107.24944, 26.42598], [-107.24819, 26.42598], [-107.24773, 26.42456], [-107.24852, 26.42412], [-107.24938, 26.42555], [-107.24944, 26.42598]]]}}, {"id": "371905", "type": "Feature", "properties": {"id": "371905", "CVEGEO": "0802900151889008", "POBTOT": 9.0, "score_nse": 0.0, "NSE": "ND", "VIVTOT": 2.0, "GRAPROES": 0.0, "_ent": "08", "_mun": "029", "_loc": "0015"}, "geometry": {"type": "Polygon", "coordinates": [[[-107.25239, 26.42473], [-107.25199, 26.4251], [-107.25151, 26.42497], [-107.25133, 26.42405], [-107.25145, 26.424], [-107.25239, 26.42473]]]}}, {"id": "371906", "type": "Feature", "properties": {"id": "371906", "CVEGEO": "0802900151893004", "POBTOT": 4.0, "score_nse": 0.0, "NSE": "ND", "VIVTOT": 1.0, "GRAPROES": 0.0, "_ent": "08", "_mun": "029", "_loc": "0015"}, "geometry": {"type": "Polygon", "coordinates": [[[-107.25896, 26.41238], [-107.25821, 26.41246], [-107.25761, 26.41274], [-107.25721, 26.41255], [-107.25713, 26.41184], [-107.2566, 26.41182], [-107.2563, 26.41161], [-107.25631, 26.41137], [-107.25669, 26.41094], [-107.25676, 26.41042], [-107.25724, 26.41106], [-107.25779, 26.41128], [-107.25798, 26.41163], [-107.25884, 26.41218], [-107.25896, 26.41238]]]}}, {"id": "371907", "type": "Feature", "properties": {"id": "371907", "CVEGEO": "0802900151889004", "POBTOT": 28.0, "score_nse": 0.0, "NSE": "ND", "VIVTOT": 9.0, "GRAPROES": 5.69, "_ent": "08", "_mun": "029", "_loc": "0015"}, "geometry": {"type": "Polygon", "coordinates": [[[-107.25212, 26.42843], [-107.25132, 26.42812], [-107.25049, 26.42815], [-107.25001, 26.42797], [-107.2494, 26.42728], [-107.2498, 26.4269], [-107.2507, 26.42707], [-107.25208, 26.42824], [-107.25212, 26.42843]]]}}, {"id": "371908", "type": "Feature", "properties": {"id": "371908", "CVEGEO": "0802900151889003", "POBTOT": 7.0, "score_nse": 0.0, "NSE": "ND", "VIVTOT": 4.0, "GRAPROES": 0.0, "_ent": "08", "_mun": "029", "_loc": "0015"}, "geometry": {"type": "Polygon", "coordinates": [[[-107.25136, 26.42916], [-107.25106, 26.42997], [-107.25049, 26.43004], [-107.25032, 26.42893], [-107.2515, 26.42894], [-107.25154, 26.42907], [-107.25136, 26.42916]]]}}, {"id": "371911", "type": "Feature", "properties": {"id": "371911", "CVEGEO": "0802900151855004", "POBTOT": 18.0, "score_nse": 0.0, "NSE": "ND", "VIVTOT": 4.0, "GRAPROES": 9.64, "_ent": "08", "_mun": "029", "_loc": "0015"}, "geometry": {"type": "Polygon", "coordinates": [[[-107.26173, 26.43042], [-107.26162, 26.42915], [-107.26265, 26.42902], [-107.26309, 26.43018], [-107.26173, 26.43042]]]}}, {"id": "371912", "type": "Feature", "properties": {"id": "371912", "CVEGEO": "0802900151855002", "POBTOT": 26.0, "score_nse": 0.0, "NSE": "ND", "VIVTOT": 10.0, "GRAPROES": 5.93, "_ent": "08", "_mun": "029", "_loc": "0015"}, "geometry": {"type": "Polygon", "coordinates": [[[-107.2616, 26.42859], [-107.26173, 26.42702], [-107.26209, 26.42707], [-107.26206, 26.42732], [-107.26255, 26.42855], [-107.2616, 26.42859]]]}}, {"id": "371913", "type": "Feature", "properties": {"id": "371913", "CVEGEO": "0802900151855005", "POBTOT": 9.0, "score_nse": 0.0, "NSE": "ND", "VIVTOT": 3.0, "GRAPROES": 7.14, "_ent": "08", "_mun": "029", "_loc": "0015"}, "geometry": {"type": "Polygon", "coordinates": [[[-107.26113, 26.42984], [-107.26156, 26.42968], [-107.26165, 26.43044], [-107.26122, 26.43052], [-107.26113, 26.42984]]]}}, {"id": "371914", "type": "Feature", "properties": {"id": "371914", "CVEGEO": "0802900151840031", "POBTOT": 2.0, "score_nse": 0.0, "NSE": "ND", "VIVTOT": 1.0, "GRAPROES": 0.0, "_ent": "08", "_mun": "029", "_loc": "0015"}, "geometry": {"type": "Polygon", "coordinates": [[[-107.26891, 26.4279], [-107.26836, 26.42726], [-107.26819, 26.42692], [-107.26862, 26.42675], [-107.26896, 26.42736], [-107.26914, 26.42732], [-107.26941, 26.42767], [-107.26891, 26.4279]]]}}, {"id": "371915", "type": "Feature", "properties": {"id": "371915", "CVEGEO": "0802900151840030", "POBTOT": 8.0, "score_nse": 0.0, "NSE": "ND", "VIVTOT": 7.0, "GRAPROES": 4.71, "_ent": "08", "_mun": "029", "_loc": "0015"}, "geometry": {"type": "Polygon", "coordinates": [[[-107.26781, 26.42702], [-107.26815, 26.42695], [-107.26872, 26.42788], [-107.26797, 26.42798], [-107.26781, 26.42702]]]}}, {"id": "371916", "type": "Feature", "properties": {"id": "371916", "CVEGEO": "0802900151840029", "POBTOT": 27.0, "score_nse": 0.0, "NSE": "ND", "VIVTOT": 11.0, "GRAPROES": 8.0, "_ent": "08", "_mun": "029", "_loc": "0015"}, "geometry": {"type": "Polygon", "coordinates": [[[-107.2676, 26.42809], [-107.26736, 26.42709], [-107.26774, 26.42701], [-107.26793, 26.42801], [-107.2676, 26.42809]]]}}, {"id": "371917", "type": "Feature", "properties": {"id": "371917", "CVEGEO": "0802900151840028", "POBTOT": 17.0, "score_nse": 0.0, "NSE": "ND", "VIVTOT": 8.0, "GRAPROES": 6.31, "_ent": "08", "_mun": "029", "_loc": "0015"}, "geometry": {"type": "Polygon", "coordinates": [[[-107.26692, 26.42751], [-107.26719, 26.42748], [-107.26731, 26.4273], [-107.26752, 26.42807], [-107.26699, 26.42803], [-107.26692, 26.42751]]]}}, {"id": "371918", "type": "Feature", "properties": {"id": "371918", "CVEGEO": "0802900151840002", "POBTOT": 0.0, "score_nse": 0.0, "NSE": "ND", "VIVTOT": 0.0, "GRAPROES": 0.0, "_ent": "08", "_mun": "029", "_loc": "0015"}, "geometry": {"type": "Polygon", "coordinates": [[[-107.26798, 26.42956], [-107.2682, 26.42953], [-107.2683, 26.43012], [-107.26809, 26.43015], [-107.26798, 26.42956]]]}}, {"id": "371919", "type": "Feature", "properties": {"id": "371919", "CVEGEO": "0802900151840001", "POBTOT": 2.0, "score_nse": 0.0, "NSE": "ND", "VIVTOT": 4.0, "GRAPROES": 0.0, "_ent": "08", "_mun": "029", "_loc": "0015"}, "geometry": {"type": "Polygon", "coordinates": [[[-107.26812, 26.43022], [-107.26834, 26.43019], [-107.26842, 26.43059], [-107.26818, 26.43063], [-107.26812, 26.43022]]]}}, {"id": "371966", "type": "Feature", "properties": {"id": "371966", "CVEGEO": "0802900151855007", "POBTOT": 65.0, "score_nse": 0.0, "NSE": "ND", "VIVTOT": 22.0, "GRAPROES": 8.64, "_ent": "08", "_mun": "029", "_loc": "0015"}, "geometry": {"type": "Polygon", "coordinates": [[[-107.26094, 26.42903], [-107.2611, 26.42788], [-107.26047, 26.4278], [-107.26122, 26.42663], [-107.26166, 26.42705], [-107.26148, 26.42904], [-107.26094, 26.42903]]]}}, {"id": "371967", "type": "Feature", "properties": {"id": "371967", "CVEGEO": "0802900151893003", "POBTOT": 11.0, "score_nse": 0.0, "NSE": "ND", "VIVTOT": 2.0, "GRAPROES": 0.0, "_ent": "08", "_mun": "029", "_loc": "0015"}, "geometry": {"type": "Polygon", "coordinates": [[[-107.26665, 26.41626], [-107.26584, 26.41619], [-107.26527, 26.41574], [-107.26483, 26.41568], [-107.26471, 26.41501], [-107.26405, 26.41365], [-107.26391, 26.41262], [-107.26358, 26.41238], [-107.26371, 26.41188], [-107.2645, 26.41176], [-107.26479, 26.41137], [-107.26562, 26.41085], [-107.26634, 26.41088], [-107.2669, 26.41109], [-107.26734, 26.41175], [-107.26597, 26.41257], [-107.26605, 26.41267], [-107.26736, 26.41187], [-107.26761, 26.41291], [-107.26827, 26.41275], [-107.26909, 26.41284], [-107.26924, 26.41302], [-107.26912, 26.41363], [-107.26657, 26.41539], [-107.26649, 26.41589], [-107.26665, 26.41626]]]}}, {"id": "371968", "type": "Feature", "properties": {"id": "371968", "CVEGEO": "0802900151840021", "POBTOT": 10.0, "score_nse": 0.0, "NSE": "ND", "VIVTOT": 5.0, "GRAPROES": 8.22, "_ent": "08", "_mun": "029", "_loc": "0015"}, "geometry": {"type": "Polygon", "coordinates": [[[-107.26761, 26.4282], [-107.26772, 26.42863], [-107.26712, 26.42871], [-107.26709, 26.42833], [-107.26761, 26.4282]]]}}, {"id": "371969", "type": "Feature", "properties": {"id": "371969", "CVEGEO": "0802900151840020", "POBTOT": 5.0, "score_nse": 0.0, "NSE": "ND", "VIVTOT": 2.0, "GRAPROES": 0.0, "_ent": "08", "_mun": "029", "_loc": "0015"}, "geometry": {"type": "Polygon", "coordinates": [[[-107.26699, 26.42809], [-107.26724, 26.42814], [-107.26742, 26.42818], [-107.26704, 26.4283], [-107.26699, 26.42809]]]}}, {"id": "372021", "type": "Feature", "properties": {"id": "372021", "CVEGEO": "0802900152001001", "POBTOT": 37.0, "score_nse": 0.0, "NSE": "ND", "VIVTOT": 14.0, "GRAPROES": 7.08, "_ent": "08", "_mun": "029", "_loc": "0015"}, "geometry": {"type": "Polygon", "coordinates": [[[-107.25785, 26.43191], [-107.25795, 26.43212], [-107.25753, 26.4326], [-107.25732, 26.43331], [-107.25711, 26.43334], [-107.25725, 26.43253], [-107.25785, 26.43191]]]}}, {"id": "372022", "type": "Feature", "properties": {"id": "372022", "CVEGEO": "0802900151855027", "POBTOT": 1.0, "score_nse": 0.0, "NSE": "ND", "VIVTOT": 1.0, "GRAPROES": 0.0, "_ent": "08", "_mun": "029", "_loc": "0015"}, "geometry": {"type": "Polygon", "coordinates": [[[-107.2635, 26.43003], [-107.2632, 26.43012], [-107.2631, 26.42983], [-107.26339, 26.42974], [-107.2635, 26.43003]]]}}, {"id": "372023", "type": "Feature", "properties": {"id": "372023", "CVEGEO": "0802900151855018", "POBTOT": 54.0, "score_nse": 0.0, "NSE": "ND", "VIVTOT": 19.0, "GRAPROES": 8.52, "_ent": "08", "_mun": "029", "_loc": "0015"}, "geometry": {"type": "Polygon", "coordinates": [[[-107.25634, 26.42998], [-107.25881, 26.43031], [-107.25803, 26.43083], [-107.25758, 26.43191], [-107.25633, 26.43287], [-107.25564, 26.43239], [-107.25551, 26.43168], [-107.25589, 26.43064], [-107.25634, 26.42998]]]}}, {"id": "372024", "type": "Feature", "properties": {"id": "372024", "CVEGEO": "0802900151840019", "POBTOT": 10.0, "score_nse": 0.0, "NSE": "ND", "VIVTOT": 5.0, "GRAPROES": 8.4, "_ent": "08", "_mun": "029", "_loc": "0015"}, "geometry": {"type": "Polygon", "coordinates": [[[-107.26616, 26.42887], [-107.26622, 26.42792], [-107.26697, 26.4281], [-107.26708, 26.42874], [-107.26616, 26.42887]]]}}, {"id": "372025", "type": "Feature", "properties": {"id": "372025", "CVEGEO": "0802900151840017", "POBTOT": 5.0, "score_nse": 0.0, "NSE": "ND", "VIVTOT": 6.0, "GRAPROES": 0.0, "_ent": "08", "_mun": "029", "_loc": "0015"}, "geometry": {"type": "Polygon", "coordinates": [[[-107.26721, 26.42969], [-107.26739, 26.43078], [-107.26642, 26.43095], [-107.26626, 26.42981], [-107.26721, 26.42969]]]}}, {"id": "372026", "type": "Feature", "properties": {"id": "372026", "CVEGEO": "0802900151840016", "POBTOT": 23.0, "score_nse": 0.0, "NSE": "ND", "VIVTOT": 10.0, "GRAPROES": 9.92, "_ent": "08", "_mun": "029", "_loc": "0015"}, "geometry": {"type": "Polygon", "coordinates": [[[-107.26648, 26.43194], [-107.2663, 26.43131], [-107.26642, 26.43103], [-107.26744, 26.43083], [-107.2676, 26.43173], [-107.26648, 26.43194]]]}}, {"id": "372027", "type": "Feature", "properties": {"id": "372027", "CVEGEO": "0802900151840015", "POBTOT": 11.0, "score_nse": 0.0, "NSE": "ND", "VIVTOT": 5.0, "GRAPROES": 9.9, "_ent": "08", "_mun": "029", "_loc": "0015"}, "geometry": {"type": "Polygon", "coordinates": [[[-107.26769, 26.43176], [-107.2682, 26.43163], [-107.26831, 26.43222], [-107.26779, 26.43233], [-107.26769, 26.43176]]]}}, {"id": "372052", "type": "Feature", "properties": {"id": "372052", "CVEGEO": "0802900151855006", "POBTOT": 39.0, "score_nse": 0.0, "NSE": "ND", "VIVTOT": 14.0, "GRAPROES": 8.23, "_ent": "08", "_mun": "029", "_loc": "0015"}, "geometry": {"type": "Polygon", "coordinates": [[[-107.26144, 26.42962], [-107.26071, 26.42993], [-107.26003, 26.43001], [-107.26002, 26.42903], [-107.26146, 26.42909], [-107.26144, 26.42962]]]}}, {"id": "372121", "type": "Feature", "properties": {"id": "372121", "CVEGEO": "0802900151855025", "POBTOT": 52.0, "score_nse": 0.0, "NSE": "ND", "VIVTOT": 16.0, "GRAPROES": 4.94, "_ent": "08", "_mun": "029", "_loc": "0015"}, "geometry": {"type": "Polygon", "coordinates": [[[-107.25728, 26.42378], [-107.25789, 26.42291], [-107.25768, 26.42207], [-107.25786, 26.42194], [-107.25785, 26.42161], [-107.25829, 26.42145], [-107.25866, 26.42068], [-107.25908, 26.42054], [-107.25995, 26.41956], [-107.26028, 26.41961], [-107.25994, 26.42131], [-107.25781, 26.42369], [-107.2576, 26.4235], [-107.25743, 26.42365], [-107.2576, 26.42356], [-107.25778, 26.42372], [-107.25755, 26.42393], [-107.25728, 26.42378]]]}}, {"id": "372122", "type": "Feature", "properties": {"id": "372122", "CVEGEO": "0802900151855022", "POBTOT": 105.0, "score_nse": 0.0, "NSE": "ND", "VIVTOT": 27.0, "GRAPROES": 6.37, "_ent": "08", "_mun": "029", "_loc": "0015"}, "geometry": {"type": "Polygon", "coordinates": [[[-107.25786, 26.42415], [-107.25771, 26.42392], [-107.25848, 26.42308], [-107.25892, 26.42332], [-107.25914, 26.42327], [-107.25994, 26.42233], [-107.25907, 26.42324], [-107.25852, 26.42303], [-107.26006, 26.42127], [-107.26091, 26.41739], [-107.26138, 26.41777], [-107.26093, 26.41732], [-107.2611, 26.41725], [-107.26217, 26.41836], [-107.26182, 26.41895], [-107.26145, 26.41916], [-107.26134, 26.41961], [-107.26097, 26.4198], [-107.2611, 26.42058], [-107.2607, 26.42135], [-107.26077, 26.42197], [-107.26059, 26.42366], [-107.25984, 26.42399], [-107.25956, 26.4236], [-107.25844, 26.42427], [-107.25786, 26.42415]]]}}, {"id": "372123", "type": "Feature", "properties": {"id": "372123", "CVEGEO": "0802900151893007", "POBTOT": 17.0, "score_nse": 16.86, "NSE": "E", "VIVTOT": 9.0, "GRAPROES": 4.11, "_ent": "08", "_mun": "029", "_loc": "0015"}, "geometry": {"type": "Polygon", "coordinates": [[[-107.26188, 26.41261], [-107.26219, 26.41086], [-107.26202, 26.40925], [-107.26227, 26.40903], [-107.26353, 26.40897], [-107.26313, 26.40933], [-107.26288, 26.41038], [-107.2631, 26.41112], [-107.26345, 26.41159], [-107.26337, 26.4122], [-107.26377, 26.41258], [-107.26374, 26.41313], [-107.26349, 26.41301], [-107.26319, 26.41252], [-107.26233, 26.41272], [-107.26188, 26.41261]]]}}, {"id": "372124", "type": "Feature", "properties": {"id": "372124", "CVEGEO": "0802900151893006", "POBTOT": 10.0, "score_nse": 0.0, "NSE": "ND", "VIVTOT": 5.0, "GRAPROES": 0.0, "_ent": "08", "_mun": "029", "_loc": "0015"}, "geometry": {"type": "Polygon", "coordinates": [[[-107.26178, 26.41257], [-107.26114, 26.41193], [-107.26085, 26.41126], [-107.26028, 26.41128], [-107.25952, 26.41056], [-107.25961, 26.40982], [-107.26062, 26.40963], [-107.26088, 26.40973], [-107.26072, 26.40905], [-107.26104, 26.40874], [-107.26153, 26.40877], [-107.2619, 26.40914], [-107.26183, 26.40961], [-107.26207, 26.41089], [-107.26178, 26.41257]]]}}, {"id": "372125", "type": "Feature", "properties": {"id": "372125", "CVEGEO": "0802900151893005", "POBTOT": 7.0, "score_nse": 0.0, "NSE": "ND", "VIVTOT": 3.0, "GRAPROES": 0.0, "_ent": "08", "_mun": "029", "_loc": "0015"}, "geometry": {"type": "Polygon", "coordinates": [[[-107.26157, 26.41368], [-107.26042, 26.41323], [-107.26004, 26.4126], [-107.25973, 26.41244], [-107.25934, 26.41249], [-107.25812, 26.41158], [-107.25791, 26.41119], [-107.25734, 26.41098], [-107.25661, 26.40964], [-107.25505, 26.40874], [-107.25509, 26.40829], [-107.25555, 26.40815], [-107.25743, 26.40818], [-107.25754, 26.40847], [-107.25793, 26.40844], [-107.25803, 26.40926], [-107.25842, 26.40934], [-107.25867, 26.40961], [-107.25872, 26.40946], [-107.25894, 26.40981], [-107.25925, 26.40995], [-107.25916, 26.41087], [-107.25993, 26.41106], [-107.26031, 26.41145], [-107.26078, 26.41142], [-107.26094, 26.41197], [-107.26174, 26.41269], [-107.26157, 26.41368]]]}}, {"id": "372126", "type": "Feature", "properties": {"id": "372126", "CVEGEO": "0802900151855021", "POBTOT": 2.0, "score_nse": 0.0, "NSE": "ND", "VIVTOT": 3.0, "GRAPROES": 0.0, "_ent": "08", "_mun": "029", "_loc": "0015"}, "geometry": {"type": "Polygon", "coordinates": [[[-107.25834, 26.42468], [-107.25794, 26.42443], [-107.2577, 26.42428], [-107.25852, 26.42447], [-107.25834, 26.42468]]]}}, {"id": "372127", "type": "Feature", "properties": {"id": "372127", "CVEGEO": "0802900151855019", "POBTOT": 80.0, "score_nse": 0.0, "NSE": "ND", "VIVTOT": 22.0, "GRAPROES": 8.15, "_ent": "08", "_mun": "029", "_loc": "0015"}, "geometry": {"type": "Polygon", "coordinates": [[[-107.26004, 26.42593], [-107.25938, 26.42828], [-107.25966, 26.43002], [-107.25833, 26.43017], [-107.25835, 26.42978], [-107.25828, 26.43016], [-107.25764, 26.43016], [-107.25637, 26.42989], [-107.25645, 26.42903], [-107.25671, 26.4285], [-107.25752, 26.42844], [-107.25858, 26.42727], [-107.25829, 26.42592], [-107.25865, 26.42515], [-107.25882, 26.4251], [-107.26004, 26.42593]]]}}, {"id": "372130", "type": "Feature", "properties": {"id": "372130", "CVEGEO": "0802900151840037", "POBTOT": 6.0, "score_nse": 0.0, "NSE": "ND", "VIVTOT": 4.0, "GRAPROES": 0.0, "_ent": "08", "_mun": "029", "_loc": "0015"}, "geometry": {"type": "Polygon", "coordinates": [[[-107.2678, 26.42695], [-107.2677, 26.42639], [-107.26781, 26.42637], [-107.26811, 26.42689], [-107.2678, 26.42695]]]}}, {"id": "372131", "type": "Feature", "properties": {"id": "372131", "CVEGEO": "0802900151840036", "POBTOT": 0.0, "score_nse": 10.0, "NSE": "E", "VIVTOT": 4.0, "GRAPROES": 0.0, "_ent": "08", "_mun": "029", "_loc": "0015"}, "geometry": {"type": "Polygon", "coordinates": [[[-107.26717, 26.42628], [-107.26761, 26.42618], [-107.26775, 26.42697], [-107.26739, 26.42706], [-107.26717, 26.42628]]]}}, {"id": "372132", "type": "Feature", "properties": {"id": "372132", "CVEGEO": "0802900151840035", "POBTOT": 25.0, "score_nse": 0.0, "NSE": "ND", "VIVTOT": 12.0, "GRAPROES": 6.94, "_ent": "08", "_mun": "029", "_loc": "0015"}, "geometry": {"type": "Polygon", "coordinates": [[[-107.26734, 26.42713], [-107.26704, 26.42733], [-107.26639, 26.42742], [-107.26645, 26.42685], [-107.2663, 26.42647], [-107.26715, 26.42629], [-107.26734, 26.42713]]]}}, {"id": "372133", "type": "Feature", "properties": {"id": "372133", "CVEGEO": "0802900151840034", "POBTOT": 171.0, "score_nse": 0.0, "NSE": "ND", "VIVTOT": 45.0, "GRAPROES": 6.45, "_ent": "08", "_mun": "029", "_loc": "0015"}, "geometry": {"type": "Polygon", "coordinates": [[[-107.27549, 26.43794], [-107.27212, 26.43477], [-107.27194, 26.43443], [-107.27143, 26.43455], [-107.27106, 26.43297], [-107.27153, 26.43287], [-107.27147, 26.43267], [-107.27145, 26.43283], [-107.27105, 26.43292], [-107.27095, 26.43255], [-107.27167, 26.43243], [-107.27163, 26.43218], [-107.27158, 26.43241], [-107.27094, 26.4325], [-107.27087, 26.43223], [-107.27126, 26.43213], [-107.27125, 26.432], [-107.27086, 26.43219], [-107.27101, 26.432], [-107.27082, 26.43204], [-107.27057, 26.43103], [-107.27176, 26.43133], [-107.27214, 26.43173], [-107.27406, 26.43596], [-107.27536, 26.43721], [-107.27566, 26.43778], [-107.27549, 26.43794]]]}}, {"id": "372134", "type": "Feature", "properties": {"id": "372134", "CVEGEO": "0802900151840009", "POBTOT": 11.0, "score_nse": 0.0, "NSE": "ND", "VIVTOT": 5.0, "GRAPROES": 9.5, "_ent": "08", "_mun": "029", "_loc": "0015"}, "geometry": {"type": "Polygon", "coordinates": [[[-107.26715, 26.42877], [-107.26773, 26.42868], [-107.26787, 26.42951], [-107.26731, 26.42959], [-107.26715, 26.42877]]]}}, {"id": "372135", "type": "Feature", "properties": {"id": "372135", "CVEGEO": "0802900151840008", "POBTOT": 16.0, "score_nse": 0.0, "NSE": "ND", "VIVTOT": 5.0, "GRAPROES": 8.4, "_ent": "08", "_mun": "029", "_loc": "0015"}, "geometry": {"type": "Polygon", "coordinates": [[[-107.26749, 26.43075], [-107.26737, 26.42966], [-107.26792, 26.42958], [-107.2681, 26.43065], [-107.26749, 26.43075]]]}}, {"id": "372136", "type": "Feature", "properties": {"id": "372136", "CVEGEO": "0802900151840007", "POBTOT": 4.0, "score_nse": 0.0, "NSE": "ND", "VIVTOT": 3.0, "GRAPROES": 0.75, "_ent": "08", "_mun": "029", "_loc": "0015"}, "geometry": {"type": "Polygon", "coordinates": [[[-107.26752, 26.43081], [-107.26811, 26.43072], [-107.26821, 26.4316], [-107.26768, 26.43171], [-107.26752, 26.43081]]]}}, {"id": "372137", "type": "Feature", "properties": {"id": "372137", "CVEGEO": "0802900151840006", "POBTOT": 13.0, "score_nse": 0.0, "NSE": "ND", "VIVTOT": 5.0, "GRAPROES": 9.9, "_ent": "08", "_mun": "029", "_loc": "0015"}, "geometry": {"type": "Polygon", "coordinates": [[[-107.26818, 26.4307], [-107.26861, 26.43065], [-107.26876, 26.43139], [-107.26828, 26.43158], [-107.26818, 26.4307]]]}}, {"id": "372138", "type": "Feature", "properties": {"id": "372138", "CVEGEO": "0802900151840005", "POBTOT": 5.0, "score_nse": 0.0, "NSE": "ND", "VIVTOT": 3.0, "GRAPROES": 0.0, "_ent": "08", "_mun": "029", "_loc": "0015"}, "geometry": {"type": "Polygon", "coordinates": [[[-107.26926, 26.43053], [-107.26941, 26.43121], [-107.26883, 26.43134], [-107.26868, 26.43063], [-107.26926, 26.43053]]]}}, {"id": "372170", "type": "Feature", "properties": {"id": "372170", "CVEGEO": "0802900151840018", "POBTOT": 0.0, "score_nse": 0.0, "NSE": "ND", "VIVTOT": 0.0, "GRAPROES": 0.0, "_ent": "08", "_mun": "029", "_loc": "0015"}, "geometry": {"type": "Polygon", "coordinates": [[[-107.26709, 26.42879], [-107.26723, 26.42962], [-107.26632, 26.42974], [-107.26625, 26.42892], [-107.26709, 26.42879]]]}}, {"id": "372217", "type": "Feature", "properties": {"id": "372217", "CVEGEO": "0802900151855028", "POBTOT": 8.0, "score_nse": 0.0, "NSE": "ND", "VIVTOT": 2.0, "GRAPROES": 0.0, "_ent": "08", "_mun": "029", "_loc": "0015"}, "geometry": {"type": "Polygon", "coordinates": [[[-107.26091, 26.4286], [-107.26088, 26.42903], [-107.26046, 26.42901], [-107.26048, 26.42854], [-107.26091, 26.4286]]]}}, {"id": "372218", "type": "Feature", "properties": {"id": "372218", "CVEGEO": "0802900151893001", "POBTOT": 30.0, "score_nse": 0.0, "NSE": "ND", "VIVTOT": 6.0, "GRAPROES": 5.2, "_ent": "08", "_mun": "029", "_loc": "0015"}, "geometry": {"type": "Polygon", "coordinates": [[[-107.26101, 26.41708], [-107.26188, 26.41273], [-107.26278, 26.41287], [-107.26312, 26.41275], [-107.26375, 26.41325], [-107.26404, 26.41421], [-107.2646, 26.41509], [-107.26475, 26.41582], [-107.26515, 26.41584], [-107.26585, 26.41631], [-107.26682, 26.4164], [-107.26607, 26.41742], [-107.26345, 26.41759], [-107.26286, 26.41784], [-107.26237, 26.41835], [-107.26101, 26.41708]]]}}, {"id": "372219", "type": "Feature", "properties": {"id": "372219", "CVEGEO": "0802900151889002", "POBTOT": 42.0, "score_nse": 16.6354, "NSE": "E", "VIVTOT": 13.0, "GRAPROES": 5.06, "_ent": "08", "_mun": "029", "_loc": "0015"}, "geometry": {"type": "Polygon", "coordinates": [[[-107.25395, 26.43033], [-107.25349, 26.4308], [-107.25298, 26.43076], [-107.2525, 26.43093], [-107.25176, 26.43144], [-107.25111, 26.431], [-107.25076, 26.43123], [-107.25061, 26.43154], [-107.24994, 26.43164], [-107.24985, 26.43115], [-107.25026, 26.43096], [-107.25071, 26.43031], [-107.25119, 26.43005], [-107.25157, 26.42923], [-107.25207, 26.42917], [-107.25281, 26.42951], [-107.25294, 26.42986], [-107.25395, 26.43033]]]}}, {"id": "372220", "type": "Feature", "properties": {"id": "372220", "CVEGEO": "0802900151889001", "POBTOT": 33.0, "score_nse": 0.0, "NSE": "ND", "VIVTOT": 9.0, "GRAPROES": 5.0, "_ent": "08", "_mun": "029", "_loc": "0015"}, "geometry": {"type": "Polygon", "coordinates": [[[-107.25573, 26.42974], [-107.2549, 26.43025], [-107.25449, 26.43012], [-107.25408, 26.43028], [-107.25318, 26.42978], [-107.25279, 26.42929], [-107.25237, 26.42924], [-107.2519, 26.42874], [-107.25217, 26.42853], [-107.25283, 26.4286], [-107.25416, 26.42915], [-107.25545, 26.42942], [-107.25569, 26.42952], [-107.25573, 26.42974]]]}}, {"id": "372221", "type": "Feature", "properties": {"id": "372221", "CVEGEO": "0802900151855001", "POBTOT": 34.0, "score_nse": 58.275, "NSE": "C", "VIVTOT": 8.0, "GRAPROES": 9.3, "_ent": "08", "_mun": "029", "_loc": "0015"}, "geometry": {"type": "Polygon", "coordinates": [[[-107.26262, 26.42893], [-107.26161, 26.42908], [-107.26165, 26.42868], [-107.26257, 26.42859], [-107.26262, 26.42893]]]}}, {"id": "372222", "type": "Feature", "properties": {"id": "372222", "CVEGEO": "0802900151840040", "POBTOT": 38.0, "score_nse": 0.0, "NSE": "ND", "VIVTOT": 18.0, "GRAPROES": 7.04, "_ent": "08", "_mun": "029", "_loc": "0015"}, "geometry": {"type": "Polygon", "coordinates": [[[-107.26895, 26.42143], [-107.26898, 26.42183], [-107.2682, 26.42222], [-107.2684, 26.42279], [-107.26816, 26.42359], [-107.26855, 26.42485], [-107.26826, 26.42551], [-107.26862, 26.42595], [-107.26875, 26.42659], [-107.26816, 26.42686], [-107.26763, 26.42607], [-107.26661, 26.42325], [-107.26679, 26.42187], [-107.26895, 26.42143]]]}}, {"id": "372224", "type": "Feature", "properties": {"id": "372224", "CVEGEO": "0802900151840004", "POBTOT": 28.0, "score_nse": 0.0, "NSE": "ND", "VIVTOT": 10.0, "GRAPROES": 5.47, "_ent": "08", "_mun": "029", "_loc": "0015"}, "geometry": {"type": "Polygon", "coordinates": [[[-107.2685, 26.43058], [-107.26829, 26.42954], [-107.26881, 26.42947], [-107.26886, 26.42978], [-107.26925, 26.42974], [-107.26937, 26.43043], [-107.2685, 26.43058]]]}}, {"id": "372225", "type": "Feature", "properties": {"id": "372225", "CVEGEO": "0802900151840003", "POBTOT": 0.0, "score_nse": 0.0, "NSE": "ND", "VIVTOT": 0.0, "GRAPROES": 0.0, "_ent": "08", "_mun": "029", "_loc": "0015"}, "geometry": {"type": "Polygon", "coordinates": [[[-107.26891, 26.42947], [-107.26918, 26.42945], [-107.26921, 26.42972], [-107.26893, 26.42974], [-107.26891, 26.42947]]]}}, {"id": "372258", "type": "Feature", "properties": {"id": "372258", "CVEGEO": "0802900151893008", "POBTOT": 0.0, "score_nse": 0.0, "NSE": "ND", "VIVTOT": 0.0, "GRAPROES": 0.0, "_ent": "08", "_mun": "029", "_loc": "0015"}, "geometry": {"type": "Polygon", "coordinates": [[[-107.25366, 26.40863], [-107.2535, 26.40816], [-107.25398, 26.40806], [-107.25414, 26.40856], [-107.25366, 26.40863]]]}}, {"id": "372264", "type": "Feature", "properties": {"id": "372264", "CVEGEO": "0802900151840012", "POBTOT": 39.0, "score_nse": 52.6667, "NSE": "C-", "VIVTOT": 12.0, "GRAPROES": 9.96, "_ent": "08", "_mun": "029", "_loc": "0015"}, "geometry": {"type": "Polygon", "coordinates": [[[-107.26927, 26.42939], [-107.26947, 26.42938], [-107.27012, 26.42992], [-107.27017, 26.43001], [-107.26983, 26.43011], [-107.2699, 26.43035], [-107.26946, 26.43042], [-107.26927, 26.42939]]]}}, {"id": "372279", "type": "Feature", "properties": {"id": "372279", "CVEGEO": "0802900151889005", "POBTOT": 20.0, "score_nse": 21.02, "NSE": "D", "VIVTOT": 8.0, "GRAPROES": 6.31, "_ent": "08", "_mun": "029", "_loc": "0015"}, "geometry": {"type": "Polygon", "coordinates": [[[-107.25321, 26.42857], [-107.25456, 26.42789], [-107.25456, 26.42756], [-107.25624, 26.42762], [-107.25675, 26.42734], [-107.25708, 26.42751], [-107.25778, 26.42736], [-107.25751, 26.4279], [-107.2563, 26.428], [-107.25594, 26.42846], [-107.2557, 26.42932], [-107.25432, 26.42912], [-107.25338, 26.42872], [-107.25321, 26.42857]]]}}, {"id": "372280", "type": "Feature", "properties": {"id": "372280", "CVEGEO": "0802900151855035", "POBTOT": 179.0, "score_nse": 0.0, "NSE": "ND", "VIVTOT": 52.0, "GRAPROES": 7.17, "_ent": "08", "_mun": "029", "_loc": "0015"}, "geometry": {"type": "Polygon", "coordinates": [[[-107.26626, 26.42693], [-107.2654, 26.42686], [-107.26524, 26.42763], [-107.26218, 26.42701], [-107.26238, 26.42541], [-107.26313, 26.42431], [-107.26369, 26.42309], [-107.26427, 26.42371], [-107.26376, 26.42306], [-107.26405, 26.42277], [-107.26404, 26.42258], [-107.26455, 26.42217], [-107.26697, 26.421], [-107.26705, 26.42128], [-107.26691, 26.42162], [-107.26604, 26.42175], [-107.26582, 26.42241], [-107.2653, 26.42281], [-107.26512, 26.42334], [-107.2659, 26.42526], [-107.26595, 26.42621], [-107.26626, 26.42693]]]}}, {"id": "372282", "type": "Feature", "properties": {"id": "372282", "CVEGEO": "0802900151855010", "POBTOT": 136.0, "score_nse": 0.0, "NSE": "ND", "VIVTOT": 33.0, "GRAPROES": 8.77, "_ent": "08", "_mun": "029", "_loc": "0015"}, "geometry": {"type": "Polygon", "coordinates": [[[-107.26656, 26.42112], [-107.26505, 26.42191], [-107.26441, 26.42213], [-107.26411, 26.422], [-107.26381, 26.42223], [-107.26367, 26.42263], [-107.26344, 26.42278], [-107.263, 26.42431], [-107.26227, 26.42528], [-107.26226, 26.42607], [-107.2617, 26.42666], [-107.26152, 26.42675], [-107.25891, 26.42497], [-107.25893, 26.42465], [-107.25935, 26.42428], [-107.26068, 26.42411], [-107.26126, 26.42363], [-107.26138, 26.42318], [-107.26103, 26.42219], [-107.26107, 26.42102], [-107.2625, 26.41863], [-107.26343, 26.41791], [-107.26619, 26.41765], [-107.26586, 26.41823], [-107.26581, 26.41941], [-107.26656, 26.42112]]]}}, {"id": "372284", "type": "Feature", "properties": {"id": "372284", "CVEGEO": "0802900151889011", "POBTOT": 54.0, "score_nse": 14.3836, "NSE": "E", "VIVTOT": 11.0, "GRAPROES": 4.09, "_ent": "08", "_mun": "029", "_loc": "0015"}, "geometry": {"type": "Polygon", "coordinates": [[[-107.25443, 26.42751], [-107.25454, 26.42785], [-107.25326, 26.42846], [-107.25291, 26.42856], [-107.25242, 26.42839], [-107.25025, 26.42637], [-107.25056, 26.42607], [-107.25036, 26.42559], [-107.25116, 26.42521], [-107.25159, 26.42588], [-107.252, 26.42614], [-107.25225, 26.42683], [-107.2526, 26.42701], [-107.25361, 26.42713], [-107.25443, 26.42751]]]}}, {"id": "372359", "type": "Feature", "properties": {"id": "372359", "CVEGEO": "0802900151855036", "POBTOT": 23.0, "score_nse": 0.0, "NSE": "ND", "VIVTOT": 4.0, "GRAPROES": 9.36, "_ent": "08", "_mun": "029", "_loc": "0015"}, "geometry": {"type": "Polygon", "coordinates": [[[-107.25984, 26.42694], [-107.26024, 26.42717], [-107.25992, 26.42768], [-107.25966, 26.42762], [-107.25984, 26.42694]]]}}, {"id": "372360", "type": "Feature", "properties": {"id": "372360", "CVEGEO": "0802900151855031", "POBTOT": 0.0, "score_nse": 10.0, "NSE": "E", "VIVTOT": 2.0, "GRAPROES": 0.0, "_ent": "08", "_mun": "029", "_loc": "0015"}, "geometry": {"type": "Polygon", "coordinates": [[[-107.25964, 26.42769], [-107.25999, 26.42786], [-107.25987, 26.42831], [-107.2595, 26.42825], [-107.25964, 26.42769]]]}}, {"id": "372368", "type": "Feature", "properties": {"id": "372368", "CVEGEO": "0802900151855033", "POBTOT": 15.0, "score_nse": 0.0, "NSE": "ND", "VIVTOT": 4.0, "GRAPROES": 12.22, "_ent": "08", "_mun": "029", "_loc": "0015"}, "geometry": {"type": "Polygon", "coordinates": [[[-107.26031, 26.42841], [-107.25991, 26.42833], [-107.26005, 26.42777], [-107.26043, 26.42781], [-107.26031, 26.42841]]]}}, {"id": "372385", "type": "Feature", "properties": {"id": "372385", "CVEGEO": "0802900151855015", "POBTOT": 15.0, "score_nse": 0.0, "NSE": "ND", "VIVTOT": 5.0, "GRAPROES": 9.45, "_ent": "08", "_mun": "029", "_loc": "0015"}, "geometry": {"type": "Polygon", "coordinates": [[[-107.26, 26.42903], [-107.25999, 26.43001], [-107.25989, 26.43001], [-107.25962, 26.42901], [-107.26, 26.42903]]]}}, {"id": "372409", "type": "Feature", "properties": {"id": "372409", "CVEGEO": "0802900151840041", "POBTOT": 16.0, "score_nse": 0.0, "NSE": "ND", "VIVTOT": 10.0, "GRAPROES": 4.22, "_ent": "08", "_mun": "029", "_loc": "0015"}, "geometry": {"type": "Polygon", "coordinates": [[[-107.27267, 26.42284], [-107.27203, 26.42382], [-107.27201, 26.42466], [-107.27107, 26.42492], [-107.27044, 26.42402], [-107.27062, 26.4231], [-107.27182, 26.42285], [-107.27181, 26.42247], [-107.27194, 26.42239], [-107.2724, 26.42249], [-107.27267, 26.42284]]]}}, {"id": "372410", "type": "Feature", "properties": {"id": "372410", "CVEGEO": "0802900151840043", "POBTOT": 26.0, "score_nse": 0.0, "NSE": "ND", "VIVTOT": 12.0, "GRAPROES": 4.92, "_ent": "08", "_mun": "029", "_loc": "0015"}, "geometry": {"type": "Polygon", "coordinates": [[[-107.27105, 26.42507], [-107.27026, 26.42573], [-107.26888, 26.42653], [-107.26869, 26.42589], [-107.26838, 26.42553], [-107.26871, 26.42484], [-107.26836, 26.42347], [-107.26856, 26.42304], [-107.26837, 26.42217], [-107.26908, 26.42188], [-107.26917, 26.42158], [-107.269, 26.42126], [-107.27019, 26.42057], [-107.27073, 26.42086], [-107.27036, 26.42179], [-107.2705, 26.42308], [-107.27037, 26.42407], [-107.27105, 26.42507]]]}}, {"id": "372412", "type": "Feature", "properties": {"id": "372412", "CVEGEO": "0802900151840044", "POBTOT": 43.0, "score_nse": 0.0, "NSE": "ND", "VIVTOT": 13.0, "GRAPROES": 4.83, "_ent": "08", "_mun": "029", "_loc": "0015"}, "geometry": {"type": "Polygon", "coordinates": [[[-107.27371, 26.4226], [-107.27267, 26.4228], [-107.2725, 26.42246], [-107.27186, 26.42235], [-107.27174, 26.42243], [-107.27177, 26.4228], [-107.27063, 26.42304], [-107.27041, 26.42172], [-107.27077, 26.42092], [-107.27128, 26.42104], [-107.2723, 26.42054], [-107.27317, 26.42087], [-107.27413, 26.42079], [-107.27423, 26.42174], [-107.27412, 26.4221], [-107.27371, 26.4226]]]}}, {"id": "372415", "type": "Feature", "properties": {"id": "372415", "CVEGEO": "0802900151840032", "POBTOT": 4.0, "score_nse": 0.0, "NSE": "ND", "VIVTOT": 1.0, "GRAPROES": 0.0, "_ent": "08", "_mun": "029", "_loc": "0015"}, "geometry": {"type": "Polygon", "coordinates": [[[-107.27033, 26.42997], [-107.26959, 26.42934], [-107.26929, 26.42932], [-107.26915, 26.42838], [-107.26999, 26.42769], [-107.27163, 26.428], [-107.27273, 26.42866], [-107.2727, 26.42953], [-107.27033, 26.42997]]]}}, {"id": "372416", "type": "Feature", "properties": {"id": "372416", "CVEGEO": "0802900151855003", "POBTOT": 50.0, "score_nse": 0.0, "NSE": "ND", "VIVTOT": 20.0, "GRAPROES": 7.26, "_ent": "08", "_mun": "029", "_loc": "0015"}, "geometry": {"type": "Polygon", "coordinates": [[[-107.26428, 26.42877], [-107.26353, 26.42899], [-107.26328, 26.42881], [-107.26271, 26.42888], [-107.26258, 26.42838], [-107.26323, 26.42726], [-107.26393, 26.42743], [-107.26428, 26.42877]]]}}, {"id": "372419", "type": "Feature", "properties": {"id": "372419", "CVEGEO": "0802900151855017", "POBTOT": 7.0, "score_nse": 0.0, "NSE": "ND", "VIVTOT": 3.0, "GRAPROES": 0.0, "_ent": "08", "_mun": "029", "_loc": "0015"}, "geometry": {"type": "Polygon", "coordinates": [[[-107.26602, 26.42784], [-107.26593, 26.42836], [-107.26527, 26.42828], [-107.26528, 26.4277], [-107.26602, 26.42784]]]}}, {"id": "372421", "type": "Feature", "properties": {"id": "372421", "CVEGEO": "0802900151855037", "POBTOT": 26.0, "score_nse": 0.0, "NSE": "ND", "VIVTOT": 12.0, "GRAPROES": 8.06, "_ent": "08", "_mun": "029", "_loc": "0015"}, "geometry": {"type": "Polygon", "coordinates": [[[-107.26317, 26.42728], [-107.26274, 26.42779], [-107.26258, 26.42821], [-107.26226, 26.42776], [-107.26213, 26.42708], [-107.26317, 26.42728]]]}}, {"id": "372423", "type": "Feature", "properties": {"id": "372423", "CVEGEO": "0802900151855038", "POBTOT": 4.0, "score_nse": 0.0, "NSE": "ND", "VIVTOT": 1.0, "GRAPROES": 0.0, "_ent": "08", "_mun": "029", "_loc": "0015"}, "geometry": {"type": "Polygon", "coordinates": [[[-107.26592, 26.4284], [-107.2659, 26.42885], [-107.26531, 26.42883], [-107.26529, 26.42832], [-107.26592, 26.4284]]]}}, {"id": "372473", "type": "Feature", "properties": {"id": "372473", "CVEGEO": "0802900151840025", "POBTOT": 42.0, "score_nse": 0.0, "NSE": "ND", "VIVTOT": 21.0, "GRAPROES": 7.59, "_ent": "08", "_mun": "029", "_loc": "0015"}, "geometry": {"type": "Polygon", "coordinates": [[[-107.27018, 26.43681], [-107.26854, 26.43619], [-107.26757, 26.43612], [-107.26729, 26.43589], [-107.26717, 26.43486], [-107.26777, 26.43471], [-107.26791, 26.43518], [-107.26785, 26.4347], [-107.2682, 26.43463], [-107.26839, 26.43504], [-107.26828, 26.43467], [-107.26878, 26.43463], [-107.26921, 26.43608], [-107.26884, 26.43462], [-107.26917, 26.43447], [-107.27018, 26.43681]]]}}, {"id": "372474", "type": "Feature", "properties": {"id": "372474", "CVEGEO": "0802900151840026", "POBTOT": 29.0, "score_nse": 0.0, "NSE": "ND", "VIVTOT": 15.0, "GRAPROES": 7.35, "_ent": "08", "_mun": "029", "_loc": "0015"}, "geometry": {"type": "Polygon", "coordinates": [[[-107.26914, 26.43441], [-107.26834, 26.43461], [-107.26805, 26.43378], [-107.26816, 26.43455], [-107.26775, 26.43459], [-107.26756, 26.43388], [-107.26771, 26.43467], [-107.2674, 26.43474], [-107.26715, 26.43397], [-107.26734, 26.43475], [-107.26706, 26.43482], [-107.26655, 26.43198], [-107.26763, 26.43177], [-107.26777, 26.43236], [-107.26828, 26.43232], [-107.26914, 26.43441]]]}}, {"id": "372475", "type": "Feature", "properties": {"id": "372475", "CVEGEO": "0802900151840027", "POBTOT": 10.0, "score_nse": 0.0, "NSE": "ND", "VIVTOT": 3.0, "GRAPROES": 8.6, "_ent": "08", "_mun": "029", "_loc": "0015"}, "geometry": {"type": "Polygon", "coordinates": [[[-107.26694, 26.42797], [-107.2663, 26.42784], [-107.26638, 26.42745], [-107.26685, 26.42741], [-107.26694, 26.42797]]]}}, {"id": "372476", "type": "Feature", "properties": {"id": "372476", "CVEGEO": "0802900151840033", "POBTOT": 29.0, "score_nse": 0.0, "NSE": "ND", "VIVTOT": 16.0, "GRAPROES": 9.1, "_ent": "08", "_mun": "029", "_loc": "0015"}, "geometry": {"type": "Polygon", "coordinates": [[[-107.27322, 26.43225], [-107.27262, 26.43238], [-107.27188, 26.43126], [-107.27143, 26.43113], [-107.2715, 26.43092], [-107.27133, 26.4311], [-107.27054, 26.43091], [-107.27037, 26.43017], [-107.27046, 26.43004], [-107.2729, 26.42957], [-107.27305, 26.42977], [-107.27299, 26.43096], [-107.27325, 26.43174], [-107.27313, 26.43195], [-107.27322, 26.43225]]]}}, {"id": "372477", "type": "Feature", "properties": {"id": "372477", "CVEGEO": "0802900151840038", "POBTOT": 66.0, "score_nse": 0.0, "NSE": "ND", "VIVTOT": 32.0, "GRAPROES": 7.85, "_ent": "08", "_mun": "029", "_loc": "0015"}, "geometry": {"type": "Polygon", "coordinates": [[[-107.27369, 26.42727], [-107.27184, 26.42782], [-107.27066, 26.42767], [-107.27029, 26.42749], [-107.26977, 26.42766], [-107.26919, 26.42721], [-107.26893, 26.42673], [-107.27066, 26.42564], [-107.27124, 26.42506], [-107.27183, 26.42547], [-107.27254, 26.42664], [-107.27294, 26.42696], [-107.27313, 26.42686], [-107.2736, 26.42708], [-107.27369, 26.42727]]]}}, {"id": "372478", "type": "Feature", "properties": {"id": "372478", "CVEGEO": "0802900151840039", "POBTOT": 40.0, "score_nse": 0.0, "NSE": "ND", "VIVTOT": 20.0, "GRAPROES": 9.31, "_ent": "08", "_mun": "029", "_loc": "0015"}, "geometry": {"type": "Polygon", "coordinates": [[[-107.26759, 26.42613], [-107.26721, 26.42622], [-107.26649, 26.42402], [-107.26652, 26.42429], [-107.26612, 26.42434], [-107.26638, 26.42505], [-107.26603, 26.42509], [-107.26543, 26.42367], [-107.26533, 26.42306], [-107.26628, 26.42194], [-107.26675, 26.42189], [-107.26658, 26.42321], [-107.26759, 26.42613]]]}}, {"id": "372479", "type": "Feature", "properties": {"id": "372479", "CVEGEO": "0802900151840042", "POBTOT": 36.0, "score_nse": 0.0, "NSE": "ND", "VIVTOT": 9.0, "GRAPROES": 4.56, "_ent": "08", "_mun": "029", "_loc": "0015"}, "geometry": {"type": "Polygon", "coordinates": [[[-107.27041, 26.41929], [-107.26916, 26.41959], [-107.26762, 26.42043], [-107.26785, 26.41999], [-107.26775, 26.41952], [-107.2676, 26.41944], [-107.2678, 26.41995], [-107.26758, 26.4205], [-107.2667, 26.421], [-107.26598, 26.41967], [-107.26591, 26.41917], [-107.26684, 26.41919], [-107.26691, 26.41909], [-107.26738, 26.41923], [-107.26777, 26.41912], [-107.26804, 26.41926], [-107.2688, 26.41898], [-107.26891, 26.41873], [-107.26964, 26.41842], [-107.26999, 26.41903], [-107.27041, 26.41929]]]}}, {"id": "372480", "type": "Feature", "properties": {"id": "372480", "CVEGEO": "0802900151840045", "POBTOT": 0.0, "score_nse": 0.0, "NSE": null, "VIVTOT": 0.0, "GRAPROES": 0.0, "_ent": "08", "_mun": "029", "_loc": "0015"}, "geometry": {"type": "Polygon", "coordinates": [[[-107.27328, 26.43226], [-107.27355, 26.43246], [-107.27361, 26.43286], [-107.27337, 26.43391], [-107.27262, 26.43254], [-107.27328, 26.43226]]]}}, {"id": "372481", "type": "Feature", "properties": {"id": "372481", "CVEGEO": "0802900151840046", "POBTOT": 0.0, "score_nse": 0.0, "NSE": null, "VIVTOT": 0.0, "GRAPROES": 0.0, "_ent": "08", "_mun": "029", "_loc": "0015"}, "geometry": {"type": "Polygon", "coordinates": [[[-107.27415, 26.4285], [-107.27317, 26.4287], [-107.27245, 26.42832], [-107.27212, 26.42799], [-107.27213, 26.42777], [-107.27365, 26.4273], [-107.27415, 26.4285]]]}}, {"id": "372482", "type": "Feature", "properties": {"id": "372482", "CVEGEO": "0802900151840047", "POBTOT": 0.0, "score_nse": 0.0, "NSE": null, "VIVTOT": 0.0, "GRAPROES": 0.0, "_ent": "08", "_mun": "029", "_loc": "0015"}, "geometry": {"type": "Polygon", "coordinates": [[[-107.27504, 26.42817], [-107.27424, 26.42846], [-107.27385, 26.42746], [-107.27412, 26.42736], [-107.27439, 26.42778], [-107.27488, 26.42792], [-107.27504, 26.42817]]]}}, {"id": "372483", "type": "Feature", "properties": {"id": "372483", "CVEGEO": "0802900151840048", "POBTOT": 0.0, "score_nse": 0.0, "NSE": null, "VIVTOT": 0.0, "GRAPROES": 0.0, "_ent": "08", "_mun": "029", "_loc": "0015"}, "geometry": {"type": "Polygon", "coordinates": [[[-107.26609, 26.42516], [-107.2668, 26.42503], [-107.26714, 26.42624], [-107.2662, 26.42642], [-107.26609, 26.42516]]]}}, {"id": "372484", "type": "Feature", "properties": {"id": "372484", "CVEGEO": "0802900151840049", "POBTOT": 0.0, "score_nse": 0.0, "NSE": null, "VIVTOT": 0.0, "GRAPROES": 0.0, "_ent": "08", "_mun": "029", "_loc": "0015"}, "geometry": {"type": "Polygon", "coordinates": [[[-107.26677, 26.42498], [-107.26645, 26.42504], [-107.26619, 26.4244], [-107.26654, 26.42434], [-107.26677, 26.42498]]]}}, {"id": "372485", "type": "Feature", "properties": {"id": "372485", "CVEGEO": "0802900151840050", "POBTOT": 0.0, "score_nse": 0.0, "NSE": null, "VIVTOT": 0.0, "GRAPROES": 0.0, "_ent": "08", "_mun": "029", "_loc": "0015"}, "geometry": {"type": "Polygon", "coordinates": [[[-107.27201, 26.42029], [-107.27129, 26.42089], [-107.27062, 26.42051], [-107.26997, 26.42041], [-107.26935, 26.41969], [-107.27052, 26.41932], [-107.27163, 26.41982], [-107.27201, 26.42029]]]}}, {"id": "372486", "type": "Feature", "properties": {"id": "372486", "CVEGEO": "0802900151840051", "POBTOT": 0.0, "score_nse": 0.0, "NSE": null, "VIVTOT": 0.0, "GRAPROES": 0.0, "_ent": "08", "_mun": "029", "_loc": "0015"}, "geometry": {"type": "Polygon", "coordinates": [[[-107.26995, 26.42055], [-107.26895, 26.42117], [-107.26706, 26.42154], [-107.26716, 26.42092], [-107.26791, 26.42031], [-107.26922, 26.41962], [-107.26995, 26.42055]]]}}, {"id": "372487", "type": "Feature", "properties": {"id": "372487", "CVEGEO": "0802900151855014", "POBTOT": 41.0, "score_nse": 0.0, "NSE": "ND", "VIVTOT": 12.0, "GRAPROES": 5.41, "_ent": "08", "_mun": "029", "_loc": "0015"}, "geometry": {"type": "Polygon", "coordinates": [[[-107.26455, 26.4384], [-107.26482, 26.43912], [-107.26407, 26.44002], [-107.26355, 26.44219], [-107.26335, 26.44258], [-107.26311, 26.44269], [-107.26214, 26.44129], [-107.26124, 26.44072], [-107.26089, 26.43969], [-107.26072, 26.43819], [-107.26021, 26.43755], [-107.26018, 26.43689], [-107.25945, 26.4357], [-107.25935, 26.4346], [-107.25796, 26.43182], [-107.25816, 26.43094], [-107.25849, 26.43064], [-107.25961, 26.4301], [-107.26054, 26.43009], [-107.26104, 26.42992], [-107.26172, 26.43274], [-107.2621, 26.43276], [-107.26235, 26.434], [-107.26277, 26.43423], [-107.26386, 26.437], [-107.26393, 26.43762], [-107.26455, 26.4384]]]}}, {"id": "372488", "type": "Feature", "properties": {"id": "372488", "CVEGEO": "0802900151855020", "POBTOT": 45.0, "score_nse": 0.0, "NSE": "ND", "VIVTOT": 15.0, "GRAPROES": 7.55, "_ent": "08", "_mun": "029", "_loc": "0015"}, "geometry": {"type": "Polygon", "coordinates": [[[-107.25815, 26.42461], [-107.25793, 26.42593], [-107.25731, 26.4256], [-107.25576, 26.42611], [-107.25574, 26.42459], [-107.25677, 26.42439], [-107.25679, 26.42493], [-107.25682, 26.42438], [-107.25758, 26.42427], [-107.25815, 26.42461]]]}}, {"id": "372489", "type": "Feature", "properties": {"id": "372489", "CVEGEO": "0802900151855024", "POBTOT": 57.0, "score_nse": 0.0, "NSE": "ND", "VIVTOT": 20.0, "GRAPROES": 7.41, "_ent": "08", "_mun": "029", "_loc": "0015"}, "geometry": {"type": "Polygon", "coordinates": [[[-107.2556, 26.42453], [-107.25464, 26.42457], [-107.25386, 26.42348], [-107.25485, 26.42345], [-107.2556, 26.42453]]]}}, {"id": "372490", "type": "Feature", "properties": {"id": "372490", "CVEGEO": "0802900151855034", "POBTOT": 6.0, "score_nse": 0.0, "NSE": "ND", "VIVTOT": 3.0, "GRAPROES": 0.0, "_ent": "08", "_mun": "029", "_loc": "0015"}, "geometry": {"type": "Polygon", "coordinates": [[[-107.26621, 26.42729], [-107.2661, 26.42777], [-107.26535, 26.42762], [-107.26542, 26.42725], [-107.26621, 26.42729]]]}}, {"id": "372491", "type": "Feature", "properties": {"id": "372491", "CVEGEO": "0802900151855039", "POBTOT": 0.0, "score_nse": 0.0, "NSE": null, "VIVTOT": 0.0, "GRAPROES": 0.0, "_ent": "08", "_mun": "029", "_loc": "0015"}, "geometry": {"type": "Polygon", "coordinates": [[[-107.25842, 26.42478], [-107.25826, 26.42494], [-107.2581, 26.42514], [-107.25817, 26.42469], [-107.25842, 26.42478]]]}}, {"id": "372492", "type": "Feature", "properties": {"id": "372492", "CVEGEO": "0802900151855040", "POBTOT": 0.0, "score_nse": 0.0, "NSE": null, "VIVTOT": 0.0, "GRAPROES": 0.0, "_ent": "08", "_mun": "029", "_loc": "0015"}, "geometry": {"type": "Polygon", "coordinates": [[[-107.25741, 26.42409], [-107.25565, 26.42452], [-107.255, 26.42355], [-107.25594, 26.42403], [-107.25641, 26.42384], [-107.25741, 26.42409]]]}}, {"id": "372493", "type": "Feature", "properties": {"id": "372493", "CVEGEO": "0802900151855041", "POBTOT": 0.0, "score_nse": 0.0, "NSE": null, "VIVTOT": 0.0, "GRAPROES": 0.0, "_ent": "08", "_mun": "029", "_loc": "0015"}, "geometry": {"type": "Polygon", "coordinates": [[[-107.26627, 26.42698], [-107.26625, 26.42723], [-107.26548, 26.4272], [-107.2655, 26.42694], [-107.26627, 26.42698]]]}}, {"id": "372494", "type": "Feature", "properties": {"id": "372494", "CVEGEO": "0802900151889006", "POBTOT": 29.0, "score_nse": 0.0, "NSE": "ND", "VIVTOT": 6.0, "GRAPROES": 5.0, "_ent": "08", "_mun": "029", "_loc": "0015"}, "geometry": {"type": "Polygon", "coordinates": [[[-107.25571, 26.42462], [-107.25577, 26.42659], [-107.25549, 26.4274], [-107.25471, 26.4275], [-107.25369, 26.42704], [-107.25279, 26.42702], [-107.25224, 26.42666], [-107.25201, 26.42606], [-107.25216, 26.42587], [-107.25306, 26.42643], [-107.25363, 26.42654], [-107.25457, 26.42631], [-107.25439, 26.4255], [-107.2549, 26.4251], [-107.25481, 26.42477], [-107.25516, 26.4247], [-107.25533, 26.42562], [-107.25501, 26.42641], [-107.25509, 26.4267], [-107.25506, 26.42636], [-107.25535, 26.42587], [-107.25525, 26.42472], [-107.25571, 26.42462]]]}}, {"id": "372495", "type": "Feature", "properties": {"id": "372495", "CVEGEO": "0802900151893002", "POBTOT": 37.0, "score_nse": 0.0, "NSE": "ND", "VIVTOT": 12.0, "GRAPROES": 6.64, "_ent": "08", "_mun": "029", "_loc": "0015"}, "geometry": {"type": "Polygon", "coordinates": [[[-107.26155, 26.41379], [-107.26101, 26.41645], [-107.26042, 26.41636], [-107.25955, 26.41604], [-107.25946, 26.41536], [-107.25849, 26.41432], [-107.25777, 26.41314], [-107.25837, 26.413], [-107.26024, 26.41307], [-107.26047, 26.41332], [-107.26155, 26.41379]]]}}, {"id": "372496", "type": "Feature", "properties": {"id": "372496", "CVEGEO": "0802900151893009", "POBTOT": 0.0, "score_nse": 0.0, "NSE": null, "VIVTOT": 0.0, "GRAPROES": 0.0, "_ent": "08", "_mun": "029", "_loc": "0015"}, "geometry": {"type": "Polygon", "coordinates": [[[-107.26016, 26.413], [-107.2579, 26.41303], [-107.25782, 26.41292], [-107.25818, 26.41253], [-107.2587, 26.41261], [-107.25914, 26.4124], [-107.25976, 26.41256], [-107.26016, 26.413]]]}}, {"id": "372497", "type": "Feature", "properties": {"id": "372497", "CVEGEO": "0802900152016001", "POBTOT": 6.0, "score_nse": 0.0, "NSE": "ND", "VIVTOT": 4.0, "GRAPROES": 0.0, "_ent": "08", "_mun": "029", "_loc": "0015"}, "geometry": {"type": "Polygon", "coordinates": [[[-107.27355, 26.42694], [-107.27265, 26.42663], [-107.2719, 26.42552], [-107.27212, 26.42555], [-107.27232, 26.42582], [-107.27273, 26.4259], [-107.27355, 26.42694]]]}}, {"id": "372498", "type": "Feature", "properties": {"id": "372498", "CVEGEO": "0802900152016002", "POBTOT": 19.0, "score_nse": 19.8733, "NSE": "D", "VIVTOT": 9.0, "GRAPROES": 4.22, "_ent": "08", "_mun": "029", "_loc": "0015"}, "geometry": {"type": "Polygon", "coordinates": [[[-107.2723, 26.4255], [-107.27164, 26.42534], [-107.2713, 26.42503], [-107.27203, 26.4247], [-107.2723, 26.4255]]]}}, {"id": "372499", "type": "Feature", "properties": {"id": "372499", "CVEGEO": "0802900152016003", "POBTOT": 0.0, "score_nse": 0.0, "NSE": null, "VIVTOT": 0.0, "GRAPROES": 0.0, "_ent": "08", "_mun": "029", "_loc": "0015"}, "geometry": {"type": "Polygon", "coordinates": [[[-107.27494, 26.42682], [-107.27462, 26.42722], [-107.27381, 26.42727], [-107.27376, 26.42675], [-107.273, 26.42616], [-107.27282, 26.42563], [-107.27344, 26.42568], [-107.27377, 26.42601], [-107.27355, 26.42569], [-107.27412, 26.42558], [-107.27458, 26.42607], [-107.27494, 26.42682]]]}}]}