{"type": "FeatureCollection", "features": [{"id": "385435", "type": "Feature", "properties": {"id": "385435", "CVEGEO": "0805000540723011", "POBTOT": 0.0, "score_nse": 0.0, "NSE": null, "VIVTOT": 0.0, "GRAPROES": 0.0, "_ent": "08", "_mun": "050", "_loc": "0054"}, "geometry": {"type": "Polygon", "coordinates": [[[-107.92448, 30.74548], [-107.92213, 30.74572], [-107.92202, 30.74431], [-107.92437, 30.74418], [-107.92448, 30.74548]]]}}, {"id": "385436", "type": "Feature", "properties": {"id": "385436", "CVEGEO": "0805000540723010", "POBTOT": 0.0, "score_nse": 0.0, "NSE": null, "VIVTOT": 0.0, "GRAPROES": 0.0, "_ent": "08", "_mun": "050", "_loc": "0054"}, "geometry": {"type": "Polygon", "coordinates": [[[-107.89973, 30.74708], [-107.89954, 30.74579], [-107.90098, 30.7457], [-107.9011, 30.74699], [-107.89973, 30.74708]]]}}, {"id": "385437", "type": "Feature", "properties": {"id": "385437", "CVEGEO": "0805000540723009", "POBTOT": 0.0, "score_nse": 0.0, "NSE": null, "VIVTOT": 0.0, "GRAPROES": 0.0, "_ent": "08", "_mun": "050", "_loc": "0054"}, "geometry": {"type": "Polygon", "coordinates": [[[-107.90379, 30.74838], [-107.89975, 30.74859], [-107.89965, 30.74726], [-107.9037, 30.74696], [-107.90379, 30.74838]]]}}, {"id": "385438", "type": "Feature", "properties": {"id": "385438", "CVEGEO": "0805000540723008", "POBTOT": 0.0, "score_nse": 0.0, "NSE": null, "VIVTOT": 0.0, "GRAPROES": 0.0, "_ent": "08", "_mun": "050", "_loc": "0054"}, "geometry": {"type": "Polygon", "coordinates": [[[-107.92224, 30.74745], [-107.92106, 30.7475], [-107.92096, 30.74728], [-107.91912, 30.74738], [-107.91901, 30.74601], [-107.92211, 30.74585], [-107.92224, 30.74745]]]}}, {"id": "385439", "type": "Feature", "properties": {"id": "385439", "CVEGEO": "0805000540723007", "POBTOT": 0.0, "score_nse": 0.0, "NSE": null, "VIVTOT": 0.0, "GRAPROES": 0.0, "_ent": "08", "_mun": "050", "_loc": "0054"}, "geometry": {"type": "Polygon", "coordinates": [[[-107.9209, 30.74583], [-107.92076, 30.74409], [-107.92184, 30.74401], [-107.922, 30.74574], [-107.9209, 30.74583]]]}}, {"id": "385477", "type": "Feature", "properties": {"id": "385477", "CVEGEO": "0805000540723006", "POBTOT": 0.0, "score_nse": 0.0, "NSE": null, "VIVTOT": 0.0, "GRAPROES": 0.0, "_ent": "08", "_mun": "050", "_loc": "0054"}, "geometry": {"type": "Polygon", "coordinates": [[[-107.90174, 30.74696], [-107.90159, 30.74522], [-107.90238, 30.74517], [-107.90245, 30.74542], [-107.90322, 30.74538], [-107.90318, 30.74495], [-107.90536, 30.74481], [-107.90554, 30.74674], [-107.90174, 30.74696]]]}}, {"id": "385478", "type": "Feature", "properties": {"id": "385478", "CVEGEO": "0805000540723005", "POBTOT": 0.0, "score_nse": 0.0, "NSE": null, "VIVTOT": 0.0, "GRAPROES": 0.0, "_ent": "08", "_mun": "050", "_loc": "0054"}, "geometry": {"type": "Polygon", "coordinates": [[[-107.90563, 30.74826], [-107.90481, 30.74829], [-107.90473, 30.74692], [-107.90556, 30.74687], [-107.90563, 30.74826]]]}}, {"id": "385479", "type": "Feature", "properties": {"id": "385479", "CVEGEO": "0805000540723004", "POBTOT": 0.0, "score_nse": 0.0, "NSE": null, "VIVTOT": 0.0, "GRAPROES": 0.0, "_ent": "08", "_mun": "050", "_loc": "0054"}, "geometry": {"type": "Polygon", "coordinates": [[[-107.9171, 30.74603], [-107.91696, 30.74406], [-107.91772, 30.74402], [-107.91774, 30.74424], [-107.91884, 30.74417], [-107.91899, 30.74591], [-107.9171, 30.74603]]]}}, {"id": "385480", "type": "Feature", "properties": {"id": "385480", "CVEGEO": "0805000540723003", "POBTOT": 0.0, "score_nse": 0.0, "NSE": null, "VIVTOT": 0.0, "GRAPROES": 0.0, "_ent": "08", "_mun": "050", "_loc": "0054"}, "geometry": {"type": "Polygon", "coordinates": [[[-107.90612, 30.74671], [-107.90596, 30.74477], [-107.91031, 30.74449], [-107.91033, 30.74477], [-107.91234, 30.74469], [-107.91245, 30.74632], [-107.90612, 30.74671]]]}}, {"id": "385481", "type": "Feature", "properties": {"id": "385481", "CVEGEO": "0805000540723001", "POBTOT": 0.0, "score_nse": 0.0, "NSE": null, "VIVTOT": 0.0, "GRAPROES": 0.0, "_ent": "08", "_mun": "050", "_loc": "0054"}, "geometry": {"type": "Polygon", "coordinates": [[[-107.91431, 30.74621], [-107.91416, 30.74479], [-107.91572, 30.74455], [-107.91571, 30.74424], [-107.91633, 30.74419], [-107.91649, 30.74607], [-107.91431, 30.74621]]]}}]}