{"type": "FeatureCollection", "features": [{"id": "397098", "type": "Feature", "properties": {"id": "397098", "CVEGEO": "0804300100112001", "POBTOT": 0.0, "score_nse": 0.0, "NSE": null, "VIVTOT": 0.0, "GRAPROES": 0.0, "_ent": "08", "_mun": "043", "_loc": "0010"}, "geometry": {"type": "Polygon", "coordinates": [[[-107.7004, 28.74848], [-107.70078, 28.74804], [-107.701, 28.74814], [-107.70079, 28.7485], [-107.7004, 28.74848]]]}}, {"id": "397099", "type": "Feature", "properties": {"id": "397099", "CVEGEO": "0804300100112002", "POBTOT": 0.0, "score_nse": 0.0, "NSE": null, "VIVTOT": 0.0, "GRAPROES": 0.0, "_ent": "08", "_mun": "043", "_loc": "0010"}, "geometry": {"type": "Polygon", "coordinates": [[[-107.70192, 28.74987], [-107.70012, 28.74889], [-107.70054, 28.74857], [-107.70086, 28.74856], [-107.70096, 28.74879], [-107.7009, 28.74848], [-107.70116, 28.74809], [-107.70155, 28.74815], [-107.70149, 28.7484], [-107.70164, 28.74841], [-107.70169, 28.74814], [-107.70209, 28.74819], [-107.70192, 28.74987]]]}}, {"id": "397100", "type": "Feature", "properties": {"id": "397100", "CVEGEO": "0804300100112003", "POBTOT": 0.0, "score_nse": 0.0, "NSE": null, "VIVTOT": 0.0, "GRAPROES": 0.0, "_ent": "08", "_mun": "043", "_loc": "0010"}, "geometry": {"type": "Polygon", "coordinates": [[[-107.7014, 28.7472], [-107.70243, 28.74613], [-107.70271, 28.74623], [-107.70205, 28.74757], [-107.70159, 28.74749], [-107.7014, 28.7472]]]}}, {"id": "397101", "type": "Feature", "properties": {"id": "397101", "CVEGEO": "0804300100112004", "POBTOT": 0.0, "score_nse": 0.0, "NSE": null, "VIVTOT": 0.0, "GRAPROES": 0.0, "_ent": "08", "_mun": "043", "_loc": "0010"}, "geometry": {"type": "Polygon", "coordinates": [[[-107.70159, 28.7476], [-107.7015, 28.74806], [-107.7009, 28.74793], [-107.70119, 28.74759], [-107.70159, 28.7476]]]}}, {"id": "397102", "type": "Feature", "properties": {"id": "397102", "CVEGEO": "0804300100112005", "POBTOT": 0.0, "score_nse": 0.0, "NSE": null, "VIVTOT": 0.0, "GRAPROES": 0.0, "_ent": "08", "_mun": "043", "_loc": "0010"}, "geometry": {"type": "Polygon", "coordinates": [[[-107.70153, 28.74806], [-107.70165, 28.74755], [-107.70202, 28.74763], [-107.70201, 28.7481], [-107.70153, 28.74806]]]}}, {"id": "397103", "type": "Feature", "properties": {"id": "397103", "CVEGEO": "0804300100112006", "POBTOT": 0.0, "score_nse": 0.0, "NSE": null, "VIVTOT": 0.0, "GRAPROES": 0.0, "_ent": "08", "_mun": "043", "_loc": "0010"}, "geometry": {"type": "Polygon", "coordinates": [[[-107.70211, 28.74786], [-107.70213, 28.74752], [-107.70309, 28.74763], [-107.703, 28.74791], [-107.70211, 28.74786]]]}}, {"id": "397104", "type": "Feature", "properties": {"id": "397104", "CVEGEO": "0804300100112007", "POBTOT": 0.0, "score_nse": 0.0, "NSE": null, "VIVTOT": 0.0, "GRAPROES": 0.0, "_ent": "08", "_mun": "043", "_loc": "0010"}, "geometry": {"type": "Polygon", "coordinates": [[[-107.70221, 28.74748], [-107.70284, 28.74612], [-107.70327, 28.74626], [-107.7035, 28.74617], [-107.7034, 28.74718], [-107.70369, 28.74744], [-107.70457, 28.7477], [-107.70483, 28.74831], [-107.70313, 28.74785], [-107.70317, 28.74758], [-107.70221, 28.74748]]]}}, {"id": "397105", "type": "Feature", "properties": {"id": "397105", "CVEGEO": "0804300100112008", "POBTOT": 0.0, "score_nse": 0.0, "NSE": null, "VIVTOT": 0.0, "GRAPROES": 0.0, "_ent": "08", "_mun": "043", "_loc": "0010"}, "geometry": {"type": "Polygon", "coordinates": [[[-107.70691, 28.74992], [-107.70534, 28.74922], [-107.70429, 28.74828], [-107.70498, 28.74839], [-107.70529, 28.74879], [-107.70631, 28.7492], [-107.70651, 28.74963], [-107.70677, 28.74967], [-107.70691, 28.74992]]]}}]}