{"type": "FeatureCollection", "features": [{"id": "793371", "type": "Feature", "properties": {"id": "793371", "CVEGEO": "1205100060252002", "POBTOT": 0.0, "score_nse": 0.0, "NSE": null, "VIVTOT": 0.0, "GRAPROES": 0.0, "_ent": "12", "_mun": "051", "_loc": "0006"}, "geometry": {"type": "Polygon", "coordinates": [[[-99.10347, 17.29831], [-99.10323, 17.29857], [-99.10273, 17.29851], [-99.10314, 17.29812], [-99.10347, 17.29831]]]}}, {"id": "793408", "type": "Feature", "properties": {"id": "793408", "CVEGEO": "1205100060252001", "POBTOT": 0.0, "score_nse": 0.0, "NSE": null, "VIVTOT": 0.0, "GRAPROES": 0.0, "_ent": "12", "_mun": "051", "_loc": "0006"}, "geometry": {"type": "Polygon", "coordinates": [[[-99.10269, 17.29856], [-99.10289, 17.29873], [-99.10225, 17.29929], [-99.10215, 17.29896], [-99.10269, 17.29856]]]}}]}