{"type": "FeatureCollection", "features": [{"id": "793366", "type": "Feature", "properties": {"id": "793366", "CVEGEO": "1205101210252001", "POBTOT": 0.0, "score_nse": 0.0, "NSE": null, "VIVTOT": 0.0, "GRAPROES": 0.0, "_ent": "12", "_mun": "051", "_loc": "0121"}, "geometry": {"type": "Polygon", "coordinates": [[[-99.05073, 17.32364], [-99.05031, 17.32404], [-99.05049, 17.32397], [-99.05093, 17.32343], [-99.05092, 17.32383], [-99.05054, 17.3244], [-99.0505, 17.32516], [-99.0504, 17.32529], [-99.05007, 17.32527], [-99.04977, 17.32501], [-99.04997, 17.32411], [-99.04976, 17.3234], [-99.05033, 17.3232], [-99.05068, 17.32289], [-99.05127, 17.32283], [-99.05139, 17.32312], [-99.05086, 17.32316], [-99.05073, 17.32364]]]}}]}