{"type": "FeatureCollection", "features": [{"id": "316081", "type": "Feature", "properties": {"id": "316081", "CVEGEO": "0709902760221005", "POBTOT": 0.0, "score_nse": 0.0, "NSE": null, "VIVTOT": 0.0, "GRAPROES": 0.0, "_ent": "07", "_mun": "099", "_loc": "0276"}, "geometry": {"type": "Polygon", "coordinates": [[[-91.98926, 15.90574], [-91.98908, 15.90607], [-91.98832, 15.9061], [-91.98818, 15.90556], [-91.98911, 15.90542], [-91.98926, 15.90574]]]}}, {"id": "316082", "type": "Feature", "properties": {"id": "316082", "CVEGEO": "0709902760221004", "POBTOT": 0.0, "score_nse": 0.0, "NSE": null, "VIVTOT": 0.0, "GRAPROES": 0.0, "_ent": "07", "_mun": "099", "_loc": "0276"}, "geometry": {"type": "Polygon", "coordinates": [[[-91.98815, 15.90549], [-91.98801, 15.905], [-91.98857, 15.90492], [-91.98868, 15.9054], [-91.98815, 15.90549]]]}}, {"id": "316083", "type": "Feature", "properties": {"id": "316083", "CVEGEO": "0709902760221003", "POBTOT": 0.0, "score_nse": 0.0, "NSE": null, "VIVTOT": 0.0, "GRAPROES": 0.0, "_ent": "07", "_mun": "099", "_loc": "0276"}, "geometry": {"type": "Polygon", "coordinates": [[[-91.988, 15.90495], [-91.98774, 15.90419], [-91.98835, 15.90428], [-91.98855, 15.90486], [-91.988, 15.90495]]]}}, {"id": "316084", "type": "Feature", "properties": {"id": "316084", "CVEGEO": "0709902760221002", "POBTOT": 0.0, "score_nse": 0.0, "NSE": null, "VIVTOT": 0.0, "GRAPROES": 0.0, "_ent": "07", "_mun": "099", "_loc": "0276"}, "geometry": {"type": "Polygon", "coordinates": [[[-91.98712, 15.90505], [-91.98693, 15.9043], [-91.98767, 15.90421], [-91.98793, 15.90492], [-91.98712, 15.90505]]]}}, {"id": "316085", "type": "Feature", "properties": {"id": "316085", "CVEGEO": "0709902760221001", "POBTOT": 0.0, "score_nse": 0.0, "NSE": null, "VIVTOT": 0.0, "GRAPROES": 0.0, "_ent": "07", "_mun": "099", "_loc": "0276"}, "geometry": {"type": "Polygon", "coordinates": [[[-91.9872, 15.90561], [-91.98713, 15.90512], [-91.98794, 15.90501], [-91.98807, 15.90549], [-91.9872, 15.90561]]]}}, {"id": "317828", "type": "Feature", "properties": {"id": "317828", "CVEGEO": "0709902760221010", "POBTOT": 0.0, "score_nse": 0.0, "NSE": null, "VIVTOT": 0.0, "GRAPROES": 0.0, "_ent": "07", "_mun": "099", "_loc": "0276"}, "geometry": {"type": "Polygon", "coordinates": [[[-91.98881, 15.90536], [-91.98865, 15.90491], [-91.98917, 15.90484], [-91.98922, 15.90527], [-91.98881, 15.90536]]]}}, {"id": "317829", "type": "Feature", "properties": {"id": "317829", "CVEGEO": "0709902760221009", "POBTOT": 0.0, "score_nse": 0.0, "NSE": null, "VIVTOT": 0.0, "GRAPROES": 0.0, "_ent": "07", "_mun": "099", "_loc": "0276"}, "geometry": {"type": "Polygon", "coordinates": [[[-91.98863, 15.90484], [-91.9884, 15.90427], [-91.98911, 15.90477], [-91.98863, 15.90484]]]}}, {"id": "317830", "type": "Feature", "properties": {"id": "317830", "CVEGEO": "0709902760221008", "POBTOT": 0.0, "score_nse": 0.0, "NSE": null, "VIVTOT": 0.0, "GRAPROES": 0.0, "_ent": "07", "_mun": "099", "_loc": "0276"}, "geometry": {"type": "Polygon", "coordinates": [[[-91.98638, 15.9052], [-91.98598, 15.90452], [-91.98685, 15.90434], [-91.987, 15.90508], [-91.98638, 15.9052]]]}}, {"id": "317831", "type": "Feature", "properties": {"id": "317831", "CVEGEO": "0709902760221007", "POBTOT": 0.0, "score_nse": 0.0, "NSE": null, "VIVTOT": 0.0, "GRAPROES": 0.0, "_ent": "07", "_mun": "099", "_loc": "0276"}, "geometry": {"type": "Polygon", "coordinates": [[[-91.98673, 15.90625], [-91.98637, 15.90525], [-91.98701, 15.90513], [-91.98728, 15.90618], [-91.98673, 15.90625]]]}}, {"id": "317832", "type": "Feature", "properties": {"id": "317832", "CVEGEO": "0709902760221006", "POBTOT": 0.0, "score_nse": 0.0, "NSE": null, "VIVTOT": 0.0, "GRAPROES": 0.0, "_ent": "07", "_mun": "099", "_loc": "0276"}, "geometry": {"type": "Polygon", "coordinates": [[[-91.98736, 15.90618], [-91.98722, 15.90567], [-91.9881, 15.90557], [-91.98824, 15.90609], [-91.98736, 15.90618]]]}}, {"id": "318784", "type": "Feature", "properties": {"id": "318784", "CVEGEO": "0709902760221011", "POBTOT": 0.0, "score_nse": 0.0, "NSE": null, "VIVTOT": 0.0, "GRAPROES": 0.0, "_ent": "07", "_mun": "099", "_loc": "0276"}, "geometry": {"type": "Polygon", "coordinates": [[[-91.98669, 15.90626], [-91.98632, 15.90594], [-91.98525, 15.90625], [-91.98498, 15.90556], [-91.98585, 15.90522], [-91.98632, 15.90525], [-91.98669, 15.90626]]]}}]}