{"type": "FeatureCollection", "features": [{"id": "2022149", "type": "Feature", "properties": {"id": "2022149", "CVEGEO": "2602500330396036", "POBTOT": 0.0, "score_nse": 0.0, "NSE": null, "VIVTOT": 0.0, "GRAPROES": 0.0, "_ent": "26", "_mun": "025", "_loc": "0033"}, "geometry": {"type": "Polygon", "coordinates": [[[-110.67858, 28.05415], [-110.67965, 28.05432], [-110.67954, 28.05485], [-110.67847, 28.05469], [-110.67858, 28.05415]]]}}, {"id": "2022152", "type": "Feature", "properties": {"id": "2022152", "CVEGEO": "2602500330396048", "POBTOT": 0.0, "score_nse": 0.0, "NSE": null, "VIVTOT": 0.0, "GRAPROES": 0.0, "_ent": "26", "_mun": "025", "_loc": "0033"}, "geometry": {"type": "Polygon", "coordinates": [[[-110.67577, 28.05048], [-110.67682, 28.05065], [-110.67662, 28.05162], [-110.67557, 28.05143], [-110.67577, 28.05048]]]}}, {"id": "2022184", "type": "Feature", "properties": {"id": "2022184", "CVEGEO": "2602500330396054", "POBTOT": 0.0, "score_nse": 0.0, "NSE": null, "VIVTOT": 0.0, "GRAPROES": 0.0, "_ent": "26", "_mun": "025", "_loc": "0033"}, "geometry": {"type": "Polygon", "coordinates": [[[-110.68165, 28.05041], [-110.68191, 28.05045], [-110.68176, 28.05142], [-110.68146, 28.05137], [-110.68165, 28.05041]]]}}, {"id": "2022185", "type": "Feature", "properties": {"id": "2022185", "CVEGEO": "2602500330396044", "POBTOT": 0.0, "score_nse": 0.0, "NSE": null, "VIVTOT": 0.0, "GRAPROES": 0.0, "_ent": "26", "_mun": "025", "_loc": "0033"}, "geometry": {"type": "Polygon", "coordinates": [[[-110.67783, 28.04656], [-110.67887, 28.04675], [-110.67868, 28.04772], [-110.6776, 28.04754], [-110.67783, 28.04656]]]}}, {"id": "2022186", "type": "Feature", "properties": {"id": "2022186", "CVEGEO": "2602500330396043", "POBTOT": 0.0, "score_nse": 0.0, "NSE": null, "VIVTOT": 0.0, "GRAPROES": 0.0, "_ent": "26", "_mun": "025", "_loc": "0033"}, "geometry": {"type": "Polygon", "coordinates": [[[-110.67645, 28.04735], [-110.67664, 28.04636], [-110.67772, 28.04654], [-110.6775, 28.04752], [-110.67645, 28.04735]]]}}, {"id": "2022187", "type": "Feature", "properties": {"id": "2022187", "CVEGEO": "2602500330396042", "POBTOT": 0.0, "score_nse": 0.0, "NSE": null, "VIVTOT": 0.0, "GRAPROES": 0.0, "_ent": "26", "_mun": "025", "_loc": "0033"}, "geometry": {"type": "Polygon", "coordinates": [[[-110.67545, 28.04616], [-110.67655, 28.04635], [-110.67637, 28.04733], [-110.67526, 28.04714], [-110.67545, 28.04616]]]}}, {"id": "2022188", "type": "Feature", "properties": {"id": "2022188", "CVEGEO": "2602500330396031", "POBTOT": 0.0, "score_nse": 0.0, "NSE": null, "VIVTOT": 0.0, "GRAPROES": 0.0, "_ent": "26", "_mun": "025", "_loc": "0033"}, "geometry": {"type": "Polygon", "coordinates": [[[-110.67855, 28.04875], [-110.67875, 28.0478], [-110.67979, 28.04798], [-110.67959, 28.04892], [-110.67855, 28.04875]]]}}, {"id": "2022189", "type": "Feature", "properties": {"id": "2022189", "CVEGEO": "2602500330396030", "POBTOT": 0.0, "score_nse": 0.0, "NSE": null, "VIVTOT": 0.0, "GRAPROES": 0.0, "_ent": "26", "_mun": "025", "_loc": "0033"}, "geometry": {"type": "Polygon", "coordinates": [[[-110.67759, 28.04761], [-110.67867, 28.04779], [-110.67844, 28.04873], [-110.67736, 28.04856], [-110.67759, 28.04761]]]}}, {"id": "2022190", "type": "Feature", "properties": {"id": "2022190", "CVEGEO": "2602500330396022", "POBTOT": 0.0, "score_nse": 0.0, "NSE": null, "VIVTOT": 0.0, "GRAPROES": 0.0, "_ent": "26", "_mun": "025", "_loc": "0033"}, "geometry": {"type": "Polygon", "coordinates": [[[-110.67649, 28.05272], [-110.67756, 28.0529], [-110.67736, 28.05384], [-110.67629, 28.05367], [-110.67649, 28.05272]]]}}, {"id": "2022191", "type": "Feature", "properties": {"id": "2022191", "CVEGEO": "2602500330396011", "POBTOT": 0.0, "score_nse": 0.0, "NSE": null, "VIVTOT": 0.0, "GRAPROES": 0.0, "_ent": "26", "_mun": "025", "_loc": "0033"}, "geometry": {"type": "Polygon", "coordinates": [[[-110.67482, 28.04927], [-110.6759, 28.04945], [-110.6757, 28.0504], [-110.67462, 28.05021], [-110.67482, 28.04927]]]}}, {"id": "2022192", "type": "Feature", "properties": {"id": "2022192", "CVEGEO": "2602500330396010", "POBTOT": 0.0, "score_nse": 0.0, "NSE": null, "VIVTOT": 0.0, "GRAPROES": 0.0, "_ent": "26", "_mun": "025", "_loc": "0033"}, "geometry": {"type": "Polygon", "coordinates": [[[-110.67439, 28.05131], [-110.67547, 28.0515], [-110.67528, 28.05244], [-110.67418, 28.05226], [-110.67439, 28.05131]]]}}, {"id": "2022193", "type": "Feature", "properties": {"id": "2022193", "CVEGEO": "2602500330396001", "POBTOT": 0.0, "score_nse": 0.0, "NSE": null, "VIVTOT": 0.0, "GRAPROES": 0.0, "_ent": "26", "_mun": "025", "_loc": "0033"}, "geometry": {"type": "Polygon", "coordinates": [[[-110.67672, 28.05163], [-110.67692, 28.05067], [-110.678, 28.05085], [-110.67779, 28.05181], [-110.67672, 28.05163]]]}}, {"id": "2022348", "type": "Feature", "properties": {"id": "2022348", "CVEGEO": "2602500330396063", "POBTOT": 0.0, "score_nse": 0.0, "NSE": null, "VIVTOT": 0.0, "GRAPROES": 0.0, "_ent": "26", "_mun": "025", "_loc": "0033"}, "geometry": {"type": "Polygon", "coordinates": [[[-110.6822, 28.05435], [-110.68214, 28.0547], [-110.68154, 28.05461], [-110.68159, 28.05427], [-110.6822, 28.05435]]]}}, {"id": "2022349", "type": "Feature", "properties": {"id": "2022349", "CVEGEO": "2602500330396064", "POBTOT": 0.0, "score_nse": 0.0, "NSE": null, "VIVTOT": 0.0, "GRAPROES": 0.0, "_ent": "26", "_mun": "025", "_loc": "0033"}, "geometry": {"type": "Polygon", "coordinates": [[[-110.67996, 28.05333], [-110.68145, 28.05361], [-110.68113, 28.05511], [-110.67964, 28.05485], [-110.67996, 28.05333]]]}}, {"id": "2022350", "type": "Feature", "properties": {"id": "2022350", "CVEGEO": "2602500330396062", "POBTOT": 0.0, "score_nse": 0.0, "NSE": null, "VIVTOT": 0.0, "GRAPROES": 0.0, "_ent": "26", "_mun": "025", "_loc": "0033"}, "geometry": {"type": "Polygon", "coordinates": [[[-110.67181, 28.05195], [-110.67287, 28.05212], [-110.67271, 28.05306], [-110.67155, 28.0529], [-110.67181, 28.05195]]]}}, {"id": "2022351", "type": "Feature", "properties": {"id": "2022351", "CVEGEO": "2602500330396061", "POBTOT": 0.0, "score_nse": 0.0, "NSE": null, "VIVTOT": 0.0, "GRAPROES": 0.0, "_ent": "26", "_mun": "025", "_loc": "0033"}, "geometry": {"type": "Polygon", "coordinates": [[[-110.67716, 28.05526], [-110.67729, 28.05458], [-110.67808, 28.05471], [-110.67793, 28.0554], [-110.67716, 28.05526]]]}}, {"id": "2022352", "type": "Feature", "properties": {"id": "2022352", "CVEGEO": "2602500330396060", "POBTOT": 0.0, "score_nse": 0.0, "NSE": null, "VIVTOT": 0.0, "GRAPROES": 0.0, "_ent": "26", "_mun": "025", "_loc": "0033"}, "geometry": {"type": "Polygon", "coordinates": [[[-110.68177, 28.05248], [-110.68284, 28.05261], [-110.68269, 28.05348], [-110.68161, 28.05335], [-110.68177, 28.05248]]]}}, {"id": "2022353", "type": "Feature", "properties": {"id": "2022353", "CVEGEO": "2602500330396059", "POBTOT": 0.0, "score_nse": 0.0, "NSE": null, "VIVTOT": 0.0, "GRAPROES": 0.0, "_ent": "26", "_mun": "025", "_loc": "0033"}, "geometry": {"type": "Polygon", "coordinates": [[[-110.67279, 28.04781], [-110.67306, 28.04648], [-110.67408, 28.04665], [-110.6738, 28.04796], [-110.67279, 28.04781]]]}}, {"id": "2022354", "type": "Feature", "properties": {"id": "2022354", "CVEGEO": "2602500330396058", "POBTOT": 0.0, "score_nse": 0.0, "NSE": null, "VIVTOT": 0.0, "GRAPROES": 0.0, "_ent": "26", "_mun": "025", "_loc": "0033"}, "geometry": {"type": "Polygon", "coordinates": [[[-110.67233, 28.04986], [-110.67276, 28.04791], [-110.67375, 28.04807], [-110.67333, 28.04998], [-110.67233, 28.04986]]]}}, {"id": "2022355", "type": "Feature", "properties": {"id": "2022355", "CVEGEO": "2602500330396053", "POBTOT": 0.0, "score_nse": 0.0, "NSE": null, "VIVTOT": 0.0, "GRAPROES": 0.0, "_ent": "26", "_mun": "025", "_loc": "0033"}, "geometry": {"type": "Polygon", "coordinates": [[[-110.68166, 28.05035], [-110.68186, 28.0494], [-110.68205, 28.04944], [-110.68191, 28.05039], [-110.68166, 28.05035]]]}}, {"id": "2022356", "type": "Feature", "properties": {"id": "2022356", "CVEGEO": "2602500330396052", "POBTOT": 0.0, "score_nse": 0.0, "NSE": null, "VIVTOT": 0.0, "GRAPROES": 0.0, "_ent": "26", "_mun": "025", "_loc": "0033"}, "geometry": {"type": "Polygon", "coordinates": [[[-110.68188, 28.04933], [-110.68217, 28.04859], [-110.68206, 28.04936], [-110.68188, 28.04933]]]}}, {"id": "2022357", "type": "Feature", "properties": {"id": "2022357", "CVEGEO": "2602500330396051", "POBTOT": 0.0, "score_nse": 0.0, "NSE": null, "VIVTOT": 0.0, "GRAPROES": 0.0, "_ent": "26", "_mun": "025", "_loc": "0033"}, "geometry": {"type": "Polygon", "coordinates": [[[-110.68016, 28.05231], [-110.68119, 28.05249], [-110.68101, 28.05342], [-110.67995, 28.05324], [-110.68016, 28.05231]]]}}, {"id": "2022358", "type": "Feature", "properties": {"id": "2022358", "CVEGEO": "2602500330396050", "POBTOT": 0.0, "score_nse": 0.0, "NSE": null, "VIVTOT": 0.0, "GRAPROES": 0.0, "_ent": "26", "_mun": "025", "_loc": "0033"}, "geometry": {"type": "Polygon", "coordinates": [[[-110.68061, 28.05017], [-110.68081, 28.04921], [-110.68181, 28.04939], [-110.68161, 28.05034], [-110.68061, 28.05017]]]}}, {"id": "2022359", "type": "Feature", "properties": {"id": "2022359", "CVEGEO": "2602500330396047", "POBTOT": 0.0, "score_nse": 0.0, "NSE": null, "VIVTOT": 0.0, "GRAPROES": 0.0, "_ent": "26", "_mun": "025", "_loc": "0033"}, "geometry": {"type": "Polygon", "coordinates": [[[-110.68105, 28.04812], [-110.68127, 28.04718], [-110.68238, 28.04737], [-110.68215, 28.04831], [-110.68105, 28.04812]]]}}, {"id": "2022360", "type": "Feature", "properties": {"id": "2022360", "CVEGEO": "2602500330396041", "POBTOT": 0.0, "score_nse": 0.0, "NSE": null, "VIVTOT": 0.0, "GRAPROES": 0.0, "_ent": "26", "_mun": "025", "_loc": "0033"}, "geometry": {"type": "Polygon", "coordinates": [[[-110.67438, 28.04598], [-110.67536, 28.04615], [-110.67517, 28.04713], [-110.67417, 28.04695], [-110.67438, 28.04598]]]}}, {"id": "2022361", "type": "Feature", "properties": {"id": "2022361", "CVEGEO": "2602500330396040", "POBTOT": 0.0, "score_nse": 0.0, "NSE": null, "VIVTOT": 0.0, "GRAPROES": 0.0, "_ent": "26", "_mun": "025", "_loc": "0033"}, "geometry": {"type": "Polygon", "coordinates": [[[-110.6728, 28.05315], [-110.67385, 28.05334], [-110.67375, 28.05386], [-110.6727, 28.05368], [-110.6728, 28.05315]]]}}, {"id": "2022362", "type": "Feature", "properties": {"id": "2022362", "CVEGEO": "2602500330396039", "POBTOT": 0.0, "score_nse": 0.0, "NSE": null, "VIVTOT": 0.0, "GRAPROES": 0.0, "_ent": "26", "_mun": "025", "_loc": "0033"}, "geometry": {"type": "Polygon", "coordinates": [[[-110.67604, 28.05437], [-110.67385, 28.05388], [-110.67396, 28.05336], [-110.67617, 28.05375], [-110.67604, 28.05437]]]}}, {"id": "2022363", "type": "Feature", "properties": {"id": "2022363", "CVEGEO": "2602500330396038", "POBTOT": 0.0, "score_nse": 0.0, "NSE": null, "VIVTOT": 0.0, "GRAPROES": 0.0, "_ent": "26", "_mun": "025", "_loc": "0033"}, "geometry": {"type": "Polygon", "coordinates": [[[-110.67627, 28.05375], [-110.67734, 28.05393], [-110.67721, 28.0545], [-110.67615, 28.05435], [-110.67627, 28.05375]]]}}, {"id": "2022364", "type": "Feature", "properties": {"id": "2022364", "CVEGEO": "2602500330396037", "POBTOT": 0.0, "score_nse": 0.0, "NSE": null, "VIVTOT": 0.0, "GRAPROES": 0.0, "_ent": "26", "_mun": "025", "_loc": "0033"}, "geometry": {"type": "Polygon", "coordinates": [[[-110.67731, 28.05451], [-110.67742, 28.05395], [-110.6785, 28.05413], [-110.6784, 28.05468], [-110.67731, 28.05451]]]}}, {"id": "2022365", "type": "Feature", "properties": {"id": "2022365", "CVEGEO": "2602500330396029", "POBTOT": 0.0, "score_nse": 0.0, "NSE": null, "VIVTOT": 0.0, "GRAPROES": 0.0, "_ent": "26", "_mun": "025", "_loc": "0033"}, "geometry": {"type": "Polygon", "coordinates": [[[-110.67623, 28.04838], [-110.67643, 28.04742], [-110.67749, 28.0476], [-110.67727, 28.04855], [-110.67623, 28.04838]]]}}, {"id": "2022366", "type": "Feature", "properties": {"id": "2022366", "CVEGEO": "2602500330396028", "POBTOT": 0.0, "score_nse": 0.0, "NSE": null, "VIVTOT": 0.0, "GRAPROES": 0.0, "_ent": "26", "_mun": "025", "_loc": "0033"}, "geometry": {"type": "Polygon", "coordinates": [[[-110.67524, 28.04723], [-110.67635, 28.04741], [-110.67614, 28.04836], [-110.67505, 28.04817], [-110.67524, 28.04723]]]}}, {"id": "2022367", "type": "Feature", "properties": {"id": "2022367", "CVEGEO": "2602500330396026", "POBTOT": 0.0, "score_nse": 0.0, "NSE": null, "VIVTOT": 0.0, "GRAPROES": 0.0, "_ent": "26", "_mun": "025", "_loc": "0033"}, "geometry": {"type": "Polygon", "coordinates": [[[-110.67369, 28.04908], [-110.67475, 28.04926], [-110.67456, 28.0502], [-110.67348, 28.05], [-110.67369, 28.04908]]]}}, {"id": "2022368", "type": "Feature", "properties": {"id": "2022368", "CVEGEO": "2602500330396025", "POBTOT": 0.0, "score_nse": 0.0, "NSE": null, "VIVTOT": 0.0, "GRAPROES": 0.0, "_ent": "26", "_mun": "025", "_loc": "0033"}, "geometry": {"type": "Polygon", "coordinates": [[[-110.67299, 28.05217], [-110.67406, 28.0523], [-110.67387, 28.05326], [-110.67282, 28.05308], [-110.67299, 28.05217]]]}}, {"id": "2022369", "type": "Feature", "properties": {"id": "2022369", "CVEGEO": "2602500330396021", "POBTOT": 0.0, "score_nse": 0.0, "NSE": null, "VIVTOT": 0.0, "GRAPROES": 0.0, "_ent": "26", "_mun": "025", "_loc": "0033"}, "geometry": {"type": "Polygon", "coordinates": [[[-110.67744, 28.05386], [-110.67763, 28.05291], [-110.67871, 28.05309], [-110.67852, 28.05405], [-110.67744, 28.05386]]]}}, {"id": "2022370", "type": "Feature", "properties": {"id": "2022370", "CVEGEO": "2602500330396020", "POBTOT": 0.0, "score_nse": 0.0, "NSE": null, "VIVTOT": 0.0, "GRAPROES": 0.0, "_ent": "26", "_mun": "025", "_loc": "0033"}, "geometry": {"type": "Polygon", "coordinates": [[[-110.67879, 28.05311], [-110.67988, 28.05329], [-110.67967, 28.05425], [-110.6786, 28.05406], [-110.67879, 28.05311]]]}}, {"id": "2022371", "type": "Feature", "properties": {"id": "2022371", "CVEGEO": "2602500330396019", "POBTOT": 0.0, "score_nse": 0.0, "NSE": null, "VIVTOT": 0.0, "GRAPROES": 0.0, "_ent": "26", "_mun": "025", "_loc": "0033"}, "geometry": {"type": "Polygon", "coordinates": [[[-110.6788, 28.05305], [-110.679, 28.05211], [-110.68009, 28.0523], [-110.67989, 28.05324], [-110.6788, 28.05305]]]}}, {"id": "2022372", "type": "Feature", "properties": {"id": "2022372", "CVEGEO": "2602500330396018", "POBTOT": 0.0, "score_nse": 0.0, "NSE": null, "VIVTOT": 0.0, "GRAPROES": 0.0, "_ent": "26", "_mun": "025", "_loc": "0033"}, "geometry": {"type": "Polygon", "coordinates": [[[-110.67923, 28.05105], [-110.68031, 28.05123], [-110.68011, 28.05219], [-110.67902, 28.05201], [-110.67923, 28.05105]]]}}, {"id": "2022373", "type": "Feature", "properties": {"id": "2022373", "CVEGEO": "2602500330396017", "POBTOT": 0.0, "score_nse": 0.0, "NSE": null, "VIVTOT": 0.0, "GRAPROES": 0.0, "_ent": "26", "_mun": "025", "_loc": "0033"}, "geometry": {"type": "Polygon", "coordinates": [[[-110.67946, 28.05004], [-110.68052, 28.05022], [-110.68033, 28.05117], [-110.67925, 28.05097], [-110.67946, 28.05004]]]}}, {"id": "2022374", "type": "Feature", "properties": {"id": "2022374", "CVEGEO": "2602500330396016", "POBTOT": 0.0, "score_nse": 0.0, "NSE": null, "VIVTOT": 0.0, "GRAPROES": 0.0, "_ent": "26", "_mun": "025", "_loc": "0033"}, "geometry": {"type": "Polygon", "coordinates": [[[-110.67947, 28.04997], [-110.67968, 28.04902], [-110.68073, 28.0492], [-110.68053, 28.05015], [-110.67947, 28.04997]]]}}, {"id": "2022375", "type": "Feature", "properties": {"id": "2022375", "CVEGEO": "2602500330396015", "POBTOT": 0.0, "score_nse": 0.0, "NSE": null, "VIVTOT": 0.0, "GRAPROES": 0.0, "_ent": "26", "_mun": "025", "_loc": "0033"}, "geometry": {"type": "Polygon", "coordinates": [[[-110.67832, 28.04978], [-110.67853, 28.04882], [-110.67957, 28.049], [-110.67937, 28.04996], [-110.67832, 28.04978]]]}}, {"id": "2022376", "type": "Feature", "properties": {"id": "2022376", "CVEGEO": "2602500330396009", "POBTOT": 0.0, "score_nse": 0.0, "NSE": null, "VIVTOT": 0.0, "GRAPROES": 0.0, "_ent": "26", "_mun": "025", "_loc": "0033"}, "geometry": {"type": "Polygon", "coordinates": [[[-110.67536, 28.05246], [-110.67555, 28.05151], [-110.6766, 28.05169], [-110.6764, 28.05263], [-110.67536, 28.05246]]]}}, {"id": "2022377", "type": "Feature", "properties": {"id": "2022377", "CVEGEO": "2602500330396008", "POBTOT": 0.0, "score_nse": 0.0, "NSE": null, "VIVTOT": 0.0, "GRAPROES": 0.0, "_ent": "26", "_mun": "025", "_loc": "0033"}, "geometry": {"type": "Polygon", "coordinates": [[[-110.6765, 28.05265], [-110.6767, 28.05171], [-110.67777, 28.05189], [-110.67758, 28.05283], [-110.6765, 28.05265]]]}}, {"id": "2022378", "type": "Feature", "properties": {"id": "2022378", "CVEGEO": "2602500330396007", "POBTOT": 0.0, "score_nse": 0.0, "NSE": null, "VIVTOT": 0.0, "GRAPROES": 0.0, "_ent": "26", "_mun": "025", "_loc": "0033"}, "geometry": {"type": "Polygon", "coordinates": [[[-110.67765, 28.05284], [-110.67785, 28.05191], [-110.67892, 28.05209], [-110.67872, 28.05303], [-110.67765, 28.05284]]]}}, {"id": "2022379", "type": "Feature", "properties": {"id": "2022379", "CVEGEO": "2602500330396006", "POBTOT": 0.0, "score_nse": 0.0, "NSE": null, "VIVTOT": 0.0, "GRAPROES": 0.0, "_ent": "26", "_mun": "025", "_loc": "0033"}, "geometry": {"type": "Polygon", "coordinates": [[[-110.67808, 28.05086], [-110.67914, 28.05103], [-110.67894, 28.052], [-110.67787, 28.05182], [-110.67808, 28.05086]]]}}, {"id": "2022380", "type": "Feature", "properties": {"id": "2022380", "CVEGEO": "2602500330396005", "POBTOT": 0.0, "score_nse": 0.0, "NSE": null, "VIVTOT": 0.0, "GRAPROES": 0.0, "_ent": "26", "_mun": "025", "_loc": "0033"}, "geometry": {"type": "Polygon", "coordinates": [[[-110.6781, 28.05078], [-110.6783, 28.04985], [-110.67936, 28.05002], [-110.67916, 28.05095], [-110.6781, 28.05078]]]}}, {"id": "2022381", "type": "Feature", "properties": {"id": "2022381", "CVEGEO": "2602500330396004", "POBTOT": 0.0, "score_nse": 0.0, "NSE": null, "VIVTOT": 0.0, "GRAPROES": 0.0, "_ent": "26", "_mun": "025", "_loc": "0033"}, "geometry": {"type": "Polygon", "coordinates": [[[-110.67713, 28.04965], [-110.67821, 28.04983], [-110.67801, 28.05077], [-110.67693, 28.0506], [-110.67713, 28.04965]]]}}, {"id": "2022414", "type": "Feature", "properties": {"id": "2022414", "CVEGEO": "2602500330396056", "POBTOT": 0.0, "score_nse": 0.0, "NSE": null, "VIVTOT": 0.0, "GRAPROES": 0.0, "_ent": "26", "_mun": "025", "_loc": "0033"}, "geometry": {"type": "Polygon", "coordinates": [[[-110.68125, 28.0525], [-110.68159, 28.05256], [-110.68146, 28.0535], [-110.68107, 28.05343], [-110.68125, 28.0525]]]}}, {"id": "2022415", "type": "Feature", "properties": {"id": "2022415", "CVEGEO": "2602500330396055", "POBTOT": 0.0, "score_nse": 0.0, "NSE": null, "VIVTOT": 0.0, "GRAPROES": 0.0, "_ent": "26", "_mun": "025", "_loc": "0033"}, "geometry": {"type": "Polygon", "coordinates": [[[-110.68127, 28.05239], [-110.68145, 28.05142], [-110.68175, 28.05148], [-110.68161, 28.05245], [-110.68127, 28.05239]]]}}, {"id": "2022416", "type": "Feature", "properties": {"id": "2022416", "CVEGEO": "2602500330396046", "POBTOT": 0.0, "score_nse": 0.0, "NSE": null, "VIVTOT": 0.0, "GRAPROES": 0.0, "_ent": "26", "_mun": "025", "_loc": "0033"}, "geometry": {"type": "Polygon", "coordinates": [[[-110.68015, 28.04698], [-110.68118, 28.04716], [-110.68097, 28.04811], [-110.67993, 28.04793], [-110.68015, 28.04698]]]}}, {"id": "2022417", "type": "Feature", "properties": {"id": "2022417", "CVEGEO": "2602500330396045", "POBTOT": 0.0, "score_nse": 0.0, "NSE": null, "VIVTOT": 0.0, "GRAPROES": 0.0, "_ent": "26", "_mun": "025", "_loc": "0033"}, "geometry": {"type": "Polygon", "coordinates": [[[-110.67897, 28.04677], [-110.68, 28.04695], [-110.6798, 28.04791], [-110.67877, 28.04774], [-110.67897, 28.04677]]]}}, {"id": "2022418", "type": "Feature", "properties": {"id": "2022418", "CVEGEO": "2602500330396035", "POBTOT": 0.0, "score_nse": 0.0, "NSE": null, "VIVTOT": 0.0, "GRAPROES": 0.0, "_ent": "26", "_mun": "025", "_loc": "0033"}, "geometry": {"type": "Polygon", "coordinates": [[[-110.68018, 28.0522], [-110.68039, 28.05124], [-110.6814, 28.05142], [-110.68121, 28.05238], [-110.68018, 28.0522]]]}}, {"id": "2022419", "type": "Feature", "properties": {"id": "2022419", "CVEGEO": "2602500330396033", "POBTOT": 0.0, "score_nse": 0.0, "NSE": null, "VIVTOT": 0.0, "GRAPROES": 0.0, "_ent": "26", "_mun": "025", "_loc": "0033"}, "geometry": {"type": "Polygon", "coordinates": [[[-110.68082, 28.04915], [-110.68103, 28.0482], [-110.6822, 28.0484], [-110.68183, 28.04932], [-110.68082, 28.04915]]]}}, {"id": "2022867", "type": "Feature", "properties": {"id": "2022867", "CVEGEO": "2602500330396032", "POBTOT": 0.0, "score_nse": 0.0, "NSE": null, "VIVTOT": 0.0, "GRAPROES": 0.0, "_ent": "26", "_mun": "025", "_loc": "0033"}, "geometry": {"type": "Polygon", "coordinates": [[[-110.6797, 28.04894], [-110.67991, 28.048], [-110.68096, 28.04819], [-110.68075, 28.04913], [-110.6797, 28.04894]]]}}, {"id": "2023436", "type": "Feature", "properties": {"id": "2023436", "CVEGEO": "2602500330396034", "POBTOT": 0.0, "score_nse": 0.0, "NSE": null, "VIVTOT": 0.0, "GRAPROES": 0.0, "_ent": "26", "_mun": "025", "_loc": "0033"}, "geometry": {"type": "Polygon", "coordinates": [[[-110.6806, 28.05023], [-110.6816, 28.0504], [-110.68141, 28.05136], [-110.6804, 28.05118], [-110.6806, 28.05023]]]}}, {"id": "2023586", "type": "Feature", "properties": {"id": "2023586", "CVEGEO": "2602500330396024", "POBTOT": 0.0, "score_nse": 0.0, "NSE": null, "VIVTOT": 0.0, "GRAPROES": 0.0, "_ent": "26", "_mun": "025", "_loc": "0033"}, "geometry": {"type": "Polygon", "coordinates": [[[-110.67397, 28.05328], [-110.67417, 28.05232], [-110.67526, 28.05251], [-110.67504, 28.05347], [-110.67397, 28.05328]]]}}, {"id": "2023671", "type": "Feature", "properties": {"id": "2023671", "CVEGEO": "2602500330396023", "POBTOT": 0.0, "score_nse": 0.0, "NSE": null, "VIVTOT": 0.0, "GRAPROES": 0.0, "_ent": "26", "_mun": "025", "_loc": "0033"}, "geometry": {"type": "Polygon", "coordinates": [[[-110.67534, 28.05252], [-110.67639, 28.0527], [-110.67619, 28.05365], [-110.67515, 28.05348], [-110.67534, 28.05252]]]}}, {"id": "2023672", "type": "Feature", "properties": {"id": "2023672", "CVEGEO": "2602500330396014", "POBTOT": 0.0, "score_nse": 0.0, "NSE": null, "VIVTOT": 0.0, "GRAPROES": 0.0, "_ent": "26", "_mun": "025", "_loc": "0033"}, "geometry": {"type": "Polygon", "coordinates": [[[-110.67733, 28.0487], [-110.67842, 28.0488], [-110.67823, 28.04976], [-110.67715, 28.04958], [-110.67733, 28.0487]]]}}, {"id": "2023673", "type": "Feature", "properties": {"id": "2023673", "CVEGEO": "2602500330396013", "POBTOT": 0.0, "score_nse": 0.0, "NSE": null, "VIVTOT": 0.0, "GRAPROES": 0.0, "_ent": "26", "_mun": "025", "_loc": "0033"}, "geometry": {"type": "Polygon", "coordinates": [[[-110.67622, 28.04844], [-110.67726, 28.04861], [-110.67705, 28.04956], [-110.67601, 28.04938], [-110.67622, 28.04844]]]}}, {"id": "2023674", "type": "Feature", "properties": {"id": "2023674", "CVEGEO": "2602500330396012", "POBTOT": 0.0, "score_nse": 0.0, "NSE": null, "VIVTOT": 0.0, "GRAPROES": 0.0, "_ent": "26", "_mun": "025", "_loc": "0033"}, "geometry": {"type": "Polygon", "coordinates": [[[-110.67503, 28.04827], [-110.67612, 28.04843], [-110.67592, 28.04937], [-110.67484, 28.04918], [-110.67503, 28.04827]]]}}, {"id": "2023675", "type": "Feature", "properties": {"id": "2023675", "CVEGEO": "2602500330396003", "POBTOT": 0.0, "score_nse": 0.0, "NSE": null, "VIVTOT": 0.0, "GRAPROES": 0.0, "_ent": "26", "_mun": "025", "_loc": "0033"}, "geometry": {"type": "Polygon", "coordinates": [[[-110.67579, 28.05041], [-110.67599, 28.04946], [-110.67704, 28.04964], [-110.67684, 28.05059], [-110.67579, 28.05041]]]}}, {"id": "2023676", "type": "Feature", "properties": {"id": "2023676", "CVEGEO": "2602500330396002", "POBTOT": 0.0, "score_nse": 0.0, "NSE": null, "VIVTOT": 0.0, "GRAPROES": 0.0, "_ent": "26", "_mun": "025", "_loc": "0033"}, "geometry": {"type": "Polygon", "coordinates": [[[-110.6744, 28.05124], [-110.6746, 28.05029], [-110.67569, 28.05047], [-110.67549, 28.05143], [-110.6744, 28.05124]]]}}, {"id": "2023915", "type": "Feature", "properties": {"id": "2023915", "CVEGEO": "2602500330396067", "POBTOT": 0.0, "score_nse": 0.0, "NSE": null, "VIVTOT": 0.0, "GRAPROES": 0.0, "_ent": "26", "_mun": "025", "_loc": "0033"}, "geometry": {"type": "Polygon", "coordinates": [[[-110.67198, 28.05133], [-110.67231, 28.04999], [-110.67323, 28.0501], [-110.67296, 28.05147], [-110.67198, 28.05133]]]}}, {"id": "2023916", "type": "Feature", "properties": {"id": "2023916", "CVEGEO": "2602500330396066", "POBTOT": 0.0, "score_nse": 0.0, "NSE": null, "VIVTOT": 0.0, "GRAPROES": 0.0, "_ent": "26", "_mun": "025", "_loc": "0033"}, "geometry": {"type": "Polygon", "coordinates": [[[-110.67184, 28.05186], [-110.67192, 28.05159], [-110.67291, 28.05174], [-110.67286, 28.05203], [-110.67184, 28.05186]]]}}, {"id": "2023986", "type": "Feature", "properties": {"id": "2023986", "CVEGEO": "2602500330396065", "POBTOT": 0.0, "score_nse": 0.0, "NSE": null, "VIVTOT": 0.0, "GRAPROES": 0.0, "_ent": "26", "_mun": "025", "_loc": "0033"}, "geometry": {"type": "Polygon", "coordinates": [[[-110.67408, 28.04809], [-110.67398, 28.04861], [-110.67379, 28.04859], [-110.6739, 28.04806], [-110.67408, 28.04809]]]}}, {"id": "2024097", "type": "Feature", "properties": {"id": "2024097", "CVEGEO": "2602500330396027", "POBTOT": 0.0, "score_nse": 0.0, "NSE": null, "VIVTOT": 0.0, "GRAPROES": 0.0, "_ent": "26", "_mun": "025", "_loc": "0033"}, "geometry": {"type": "Polygon", "coordinates": [[[-110.67438, 28.04709], [-110.67515, 28.04722], [-110.67497, 28.04816], [-110.67417, 28.04801], [-110.67438, 28.04709]]]}}, {"id": "2024101", "type": "Feature", "properties": {"id": "2024101", "CVEGEO": "2602500330396049", "POBTOT": 0.0, "score_nse": 0.0, "NSE": null, "VIVTOT": 0.0, "GRAPROES": 0.0, "_ent": "26", "_mun": "025", "_loc": "0033"}, "geometry": {"type": "Polygon", "coordinates": [[[-110.67377, 28.04865], [-110.67401, 28.04868], [-110.67413, 28.0481], [-110.67496, 28.04823], [-110.67477, 28.04917], [-110.6737, 28.04898], [-110.67377, 28.04865]]]}}, {"id": "2024258", "type": "Feature", "properties": {"id": "2024258", "CVEGEO": "2602500330396068", "POBTOT": 0.0, "score_nse": 0.0, "NSE": null, "VIVTOT": 0.0, "GRAPROES": 0.0, "_ent": "26", "_mun": "025", "_loc": "0033"}, "geometry": {"type": "Polygon", "coordinates": [[[-110.67432, 28.04709], [-110.67411, 28.04801], [-110.67387, 28.04796], [-110.67413, 28.04705], [-110.67432, 28.04709]]]}}]}