{"type": "FeatureCollection", "features": [{"id": "1519832", "type": "Feature", "properties": {"id": "1519832", "CVEGEO": "2003800030024002", "POBTOT": 0.0, "score_nse": 0.0, "NSE": null, "VIVTOT": 0.0, "GRAPROES": 0.0, "_ent": "20", "_mun": "038", "_loc": "0003"}, "geometry": {"type": "Polygon", "coordinates": [[[-96.14781, 17.17538], [-96.14713, 17.17515], [-96.14707, 17.17484], [-96.14796, 17.17494], [-96.14781, 17.17538]]]}}, {"id": "1519833", "type": "Feature", "properties": {"id": "1519833", "CVEGEO": "2003800030024004", "POBTOT": 0.0, "score_nse": 0.0, "NSE": null, "VIVTOT": 0.0, "GRAPROES": 0.0, "_ent": "20", "_mun": "038", "_loc": "0003"}, "geometry": {"type": "Polygon", "coordinates": [[[-96.14799, 17.1749], [-96.14706, 17.17479], [-96.147, 17.17444], [-96.14762, 17.1744], [-96.14812, 17.17458], [-96.14799, 17.1749]]]}}, {"id": "1519834", "type": "Feature", "properties": {"id": "1519834", "CVEGEO": "2003800030024003", "POBTOT": 0.0, "score_nse": 0.0, "NSE": null, "VIVTOT": 0.0, "GRAPROES": 0.0, "_ent": "20", "_mun": "038", "_loc": "0003"}, "geometry": {"type": "Polygon", "coordinates": [[[-96.14866, 17.17543], [-96.14804, 17.17493], [-96.1482, 17.17454], [-96.14898, 17.17529], [-96.14866, 17.17543]]]}}, {"id": "1519835", "type": "Feature", "properties": {"id": "1519835", "CVEGEO": "2003800030024001", "POBTOT": 0.0, "score_nse": 0.0, "NSE": null, "VIVTOT": 0.0, "GRAPROES": 0.0, "_ent": "20", "_mun": "038", "_loc": "0003"}, "geometry": {"type": "Polygon", "coordinates": [[[-96.14839, 17.1758], [-96.14785, 17.17539], [-96.14802, 17.17496], [-96.14865, 17.1755], [-96.14839, 17.1758]]]}}]}