{"type": "FeatureCollection", "features": [{"id": "1617305", "type": "Feature", "properties": {"id": "1617305", "CVEGEO": "2041800060038003", "POBTOT": 0.0, "score_nse": 0.0, "NSE": null, "VIVTOT": 0.0, "GRAPROES": 0.0, "_ent": "20", "_mun": "418", "_loc": "0006"}, "geometry": {"type": "Polygon", "coordinates": [[[-95.53032, 16.60592], [-95.52981, 16.60618], [-95.52876, 16.60624], [-95.52824, 16.60599], [-95.52825, 16.60527], [-95.52837, 16.60506], [-95.52893, 16.60548], [-95.53032, 16.60592]]]}}, {"id": "1617384", "type": "Feature", "properties": {"id": "1617384", "CVEGEO": "2041800060038002", "POBTOT": 0.0, "score_nse": 0.0, "NSE": null, "VIVTOT": 0.0, "GRAPROES": 0.0, "_ent": "20", "_mun": "418", "_loc": "0006"}, "geometry": {"type": "Polygon", "coordinates": [[[-95.52739, 16.60444], [-95.52701, 16.60513], [-95.52588, 16.60439], [-95.52606, 16.60397], [-95.52677, 16.60387], [-95.52688, 16.60411], [-95.52739, 16.60444]]]}}, {"id": "1617398", "type": "Feature", "properties": {"id": "1617398", "CVEGEO": "2041800060038001", "POBTOT": 0.0, "score_nse": 0.0, "NSE": null, "VIVTOT": 0.0, "GRAPROES": 0.0, "_ent": "20", "_mun": "418", "_loc": "0006"}, "geometry": {"type": "Polygon", "coordinates": [[[-95.52826, 16.60567], [-95.5281, 16.60592], [-95.52697, 16.60544], [-95.52716, 16.60503], [-95.52739, 16.60514], [-95.5272, 16.60542], [-95.52773, 16.60472], [-95.52814, 16.60508], [-95.52826, 16.60567]]]}}, {"id": "1617399", "type": "Feature", "properties": {"id": "1617399", "CVEGEO": "2041800060038005", "POBTOT": 0.0, "score_nse": 0.0, "NSE": null, "VIVTOT": 0.0, "GRAPROES": 0.0, "_ent": "20", "_mun": "418", "_loc": "0006"}, "geometry": {"type": "Polygon", "coordinates": [[[-95.5277, 16.6047], [-95.52739, 16.60512], [-95.52716, 16.60501], [-95.5274, 16.60455], [-95.5277, 16.6047]]]}}]}