{"type": "FeatureCollection", "features": [{"id": "341940", "type": "Feature", "properties": {"id": "341940", "CVEGEO": "0712500240026002", "POBTOT": 0.0, "score_nse": 0.0, "NSE": null, "VIVTOT": 0.0, "GRAPROES": 0.0, "_ent": "07", "_mun": "125", "_loc": "0024"}, "geometry": {"type": "Polygon", "coordinates": [[[-92.47877, 15.54724], [-92.47827, 15.54655], [-92.47888, 15.54601], [-92.47911, 15.54647], [-92.47877, 15.54724]]]}}, {"id": "341941", "type": "Feature", "properties": {"id": "341941", "CVEGEO": "0712500240026001", "POBTOT": 0.0, "score_nse": 0.0, "NSE": null, "VIVTOT": 0.0, "GRAPROES": 0.0, "_ent": "07", "_mun": "125", "_loc": "0024"}, "geometry": {"type": "Polygon", "coordinates": [[[-92.47877, 15.54734], [-92.47922, 15.54647], [-92.4792, 15.54739], [-92.47908, 15.54764], [-92.47878, 15.5477], [-92.47877, 15.54734]]]}}]}