{"type": "FeatureCollection", "features": [{"id": "1892914", "type": "Feature", "properties": {"id": "1892914", "CVEGEO": "2405500040080001", "POBTOT": 0.0, "score_nse": 0.0, "NSE": null, "VIVTOT": 0.0, "GRAPROES": 0.0, "_ent": "24", "_mun": "055", "_loc": "0004"}, "geometry": {"type": "Polygon", "coordinates": [[[-100.62523, 21.94144], [-100.6254, 21.94132], [-100.62569, 21.94163], [-100.62552, 21.94174], [-100.62523, 21.94144]]]}}, {"id": "1892915", "type": "Feature", "properties": {"id": "1892915", "CVEGEO": "2405500040080002", "POBTOT": 0.0, "score_nse": 0.0, "NSE": null, "VIVTOT": 0.0, "GRAPROES": 0.0, "_ent": "24", "_mun": "055", "_loc": "0004"}, "geometry": {"type": "Polygon", "coordinates": [[[-100.62534, 21.94118], [-100.62551, 21.94103], [-100.62582, 21.94135], [-100.62566, 21.94147], [-100.62534, 21.94118]]]}}, {"id": "1892916", "type": "Feature", "properties": {"id": "1892916", "CVEGEO": "2405500040080003", "POBTOT": 0.0, "score_nse": 0.0, "NSE": null, "VIVTOT": 0.0, "GRAPROES": 0.0, "_ent": "24", "_mun": "055", "_loc": "0004"}, "geometry": {"type": "Polygon", "coordinates": [[[-100.62443, 21.94152], [-100.62417, 21.94142], [-100.62429, 21.94117], [-100.62455, 21.9413], [-100.62443, 21.94152]]]}}, {"id": "1892917", "type": "Feature", "properties": {"id": "1892917", "CVEGEO": "2405500040080005", "POBTOT": 0.0, "score_nse": 0.0, "NSE": null, "VIVTOT": 0.0, "GRAPROES": 0.0, "_ent": "24", "_mun": "055", "_loc": "0004"}, "geometry": {"type": "Polygon", "coordinates": [[[-100.62381, 21.94098], [-100.62346, 21.9409], [-100.62348, 21.94068], [-100.62392, 21.94071], [-100.62381, 21.94098]]]}}]}