{"type": "FeatureCollection", "features": [{"id": "779479", "type": "Feature", "properties": {"id": "779479", "CVEGEO": "1203600110082001", "POBTOT": 0.0, "score_nse": 0.0, "NSE": null, "VIVTOT": 0.0, "GRAPROES": 0.0, "_ent": "12", "_mun": "036", "_loc": "0011"}, "geometry": {"type": "Polygon", "coordinates": [[[-98.47094, 16.69618], [-98.46984, 16.69586], [-98.46933, 16.69604], [-98.46976, 16.69529], [-98.47027, 16.69516], [-98.47059, 16.6953], [-98.47094, 16.69618]]]}}, {"id": "779480", "type": "Feature", "properties": {"id": "779480", "CVEGEO": "1203600110082002", "POBTOT": 0.0, "score_nse": 0.0, "NSE": null, "VIVTOT": 0.0, "GRAPROES": 0.0, "_ent": "12", "_mun": "036", "_loc": "0011"}, "geometry": {"type": "Polygon", "coordinates": [[[-98.47008, 16.69426], [-98.47047, 16.69415], [-98.47147, 16.69451], [-98.47088, 16.69502], [-98.4701, 16.6951], [-98.4698, 16.69474], [-98.47015, 16.69434], [-98.47008, 16.69426]]]}}]}