{"type": "FeatureCollection", "features": [{"id": "701857", "type": "Feature", "properties": {"id": "701857", "CVEGEO": "1103900210022008", "POBTOT": 0.0, "score_nse": 0.0, "NSE": null, "VIVTOT": 0.0, "GRAPROES": 0.0, "_ent": "11", "_mun": "039", "_loc": "0021"}, "geometry": {"type": "Polygon", "coordinates": [[[-100.68396, 20.33581], [-100.68367, 20.33614], [-100.68357, 20.33655], [-100.68288, 20.33621], [-100.68289, 20.33581], [-100.68313, 20.3357], [-100.68381, 20.33574], [-100.68396, 20.33581]]]}}, {"id": "702121", "type": "Feature", "properties": {"id": "702121", "CVEGEO": "1103900210022007", "POBTOT": 0.0, "score_nse": 0.0, "NSE": null, "VIVTOT": 0.0, "GRAPROES": 0.0, "_ent": "11", "_mun": "039", "_loc": "0021"}, "geometry": {"type": "Polygon", "coordinates": [[[-100.68177, 20.33642], [-100.68292, 20.33633], [-100.68351, 20.33661], [-100.68347, 20.33691], [-100.68294, 20.33678], [-100.68168, 20.3368], [-100.68177, 20.33642]]]}}, {"id": "702122", "type": "Feature", "properties": {"id": "702122", "CVEGEO": "1103900210022006", "POBTOT": 0.0, "score_nse": 0.0, "NSE": null, "VIVTOT": 0.0, "GRAPROES": 0.0, "_ent": "11", "_mun": "039", "_loc": "0021"}, "geometry": {"type": "Polygon", "coordinates": [[[-100.68641, 20.33779], [-100.68577, 20.33813], [-100.68556, 20.33803], [-100.68581, 20.33767], [-100.68394, 20.33772], [-100.68409, 20.33745], [-100.68369, 20.33768], [-100.68347, 20.33749], [-100.68355, 20.33671], [-100.68369, 20.33663], [-100.68456, 20.33683], [-100.68457, 20.33711], [-100.68619, 20.33707], [-100.68628, 20.33767], [-100.68608, 20.3377], [-100.68633, 20.3377], [-100.6864, 20.33763], [-100.68641, 20.33779]]]}}, {"id": "702304", "type": "Feature", "properties": {"id": "702304", "CVEGEO": "1103900210022015", "POBTOT": 0.0, "score_nse": 0.0, "NSE": null, "VIVTOT": 0.0, "GRAPROES": 0.0, "_ent": "11", "_mun": "039", "_loc": "0021"}, "geometry": {"type": "Polygon", "coordinates": [[[-100.69092, 20.33549], [-100.69169, 20.33546], [-100.69176, 20.33639], [-100.69104, 20.33654], [-100.69092, 20.33549]]]}}, {"id": "702305", "type": "Feature", "properties": {"id": "702305", "CVEGEO": "1103900210022014", "POBTOT": 0.0, "score_nse": 0.0, "NSE": null, "VIVTOT": 0.0, "GRAPROES": 0.0, "_ent": "11", "_mun": "039", "_loc": "0021"}, "geometry": {"type": "Polygon", "coordinates": [[[-100.69095, 20.33655], [-100.69015, 20.33637], [-100.69004, 20.33548], [-100.69083, 20.33549], [-100.69095, 20.33655]]]}}, {"id": "702306", "type": "Feature", "properties": {"id": "702306", "CVEGEO": "1103900210022013", "POBTOT": 0.0, "score_nse": 0.0, "NSE": null, "VIVTOT": 0.0, "GRAPROES": 0.0, "_ent": "11", "_mun": "039", "_loc": "0021"}, "geometry": {"type": "Polygon", "coordinates": [[[-100.69006, 20.33634], [-100.68909, 20.33618], [-100.68902, 20.33547], [-100.68995, 20.33548], [-100.69006, 20.33634]]]}}, {"id": "702307", "type": "Feature", "properties": {"id": "702307", "CVEGEO": "1103900210022012", "POBTOT": 0.0, "score_nse": 0.0, "NSE": null, "VIVTOT": 0.0, "GRAPROES": 0.0, "_ent": "11", "_mun": "039", "_loc": "0021"}, "geometry": {"type": "Polygon", "coordinates": [[[-100.68168, 20.33691], [-100.68362, 20.3376], [-100.6836, 20.33773], [-100.68164, 20.33776], [-100.68168, 20.33691]]]}}, {"id": "702360", "type": "Feature", "properties": {"id": "702360", "CVEGEO": "1103900210022022", "POBTOT": 0.0, "score_nse": 0.0, "NSE": null, "VIVTOT": 0.0, "GRAPROES": 0.0, "_ent": "11", "_mun": "039", "_loc": "0021"}, "geometry": {"type": "Polygon", "coordinates": [[[-100.68991, 20.33506], [-100.68996, 20.33542], [-100.68897, 20.33539], [-100.68894, 20.33504], [-100.68991, 20.33506]]]}}, {"id": "702361", "type": "Feature", "properties": {"id": "702361", "CVEGEO": "1103900210022021", "POBTOT": 0.0, "score_nse": 0.0, "NSE": null, "VIVTOT": 0.0, "GRAPROES": 0.0, "_ent": "11", "_mun": "039", "_loc": "0021"}, "geometry": {"type": "Polygon", "coordinates": [[[-100.68125, 20.33605], [-100.68282, 20.33576], [-100.68285, 20.33631], [-100.68091, 20.33649], [-100.68055, 20.3364], [-100.68125, 20.33605]]]}}, {"id": "702362", "type": "Feature", "properties": {"id": "702362", "CVEGEO": "1103900210022020", "POBTOT": 0.0, "score_nse": 0.0, "NSE": null, "VIVTOT": 0.0, "GRAPROES": 0.0, "_ent": "11", "_mun": "039", "_loc": "0021"}, "geometry": {"type": "Polygon", "coordinates": [[[-100.68167, 20.33685], [-100.68346, 20.33696], [-100.68343, 20.3375], [-100.68167, 20.33685]]]}}, {"id": "702363", "type": "Feature", "properties": {"id": "702363", "CVEGEO": "1103900210022019", "POBTOT": 0.0, "score_nse": 0.0, "NSE": null, "VIVTOT": 0.0, "GRAPROES": 0.0, "_ent": "11", "_mun": "039", "_loc": "0021"}, "geometry": {"type": "Polygon", "coordinates": [[[-100.68812, 20.33723], [-100.68627, 20.33701], [-100.68635, 20.33644], [-100.68768, 20.33646], [-100.68812, 20.33723]]]}}, {"id": "702364", "type": "Feature", "properties": {"id": "702364", "CVEGEO": "1103900210022018", "POBTOT": 0.0, "score_nse": 0.0, "NSE": null, "VIVTOT": 0.0, "GRAPROES": 0.0, "_ent": "11", "_mun": "039", "_loc": "0021"}, "geometry": {"type": "Polygon", "coordinates": [[[-100.6894, 20.33631], [-100.68941, 20.33726], [-100.68817, 20.33723], [-100.68775, 20.33644], [-100.6894, 20.33631]]]}}, {"id": "702365", "type": "Feature", "properties": {"id": "702365", "CVEGEO": "1103900210022004", "POBTOT": 0.0, "score_nse": 0.0, "NSE": null, "VIVTOT": 0.0, "GRAPROES": 0.0, "_ent": "11", "_mun": "039", "_loc": "0021"}, "geometry": {"type": "Polygon", "coordinates": [[[-100.68703, 20.33565], [-100.68721, 20.33643], [-100.68637, 20.33635], [-100.6865, 20.33595], [-100.68703, 20.33565]]]}}, {"id": "702366", "type": "Feature", "properties": {"id": "702366", "CVEGEO": "1103900210022002", "POBTOT": 0.0, "score_nse": 0.0, "NSE": null, "VIVTOT": 0.0, "GRAPROES": 0.0, "_ent": "11", "_mun": "039", "_loc": "0021"}, "geometry": {"type": "Polygon", "coordinates": [[[-100.68421, 20.33613], [-100.6843, 20.336], [-100.68455, 20.33612], [-100.68457, 20.33667], [-100.68412, 20.33674], [-100.68371, 20.33654], [-100.68371, 20.33628], [-100.68403, 20.33588], [-100.68425, 20.33597], [-100.68421, 20.33613]]]}}, {"id": "702367", "type": "Feature", "properties": {"id": "702367", "CVEGEO": "1103900210022001", "POBTOT": 0.0, "score_nse": 0.0, "NSE": null, "VIVTOT": 0.0, "GRAPROES": 0.0, "_ent": "11", "_mun": "039", "_loc": "0021"}, "geometry": {"type": "Polygon", "coordinates": [[[-100.68618, 20.337], [-100.68469, 20.33705], [-100.68461, 20.33613], [-100.68627, 20.33642], [-100.68618, 20.337]]]}}, {"id": "702630", "type": "Feature", "properties": {"id": "702630", "CVEGEO": "1103900210022005", "POBTOT": 0.0, "score_nse": 0.0, "NSE": null, "VIVTOT": 0.0, "GRAPROES": 0.0, "_ent": "11", "_mun": "039", "_loc": "0021"}, "geometry": {"type": "Polygon", "coordinates": [[[-100.6885, 20.33728], [-100.68856, 20.33799], [-100.68845, 20.33825], [-100.68715, 20.33823], [-100.68631, 20.33744], [-100.68625, 20.33708], [-100.6881, 20.33727], [-100.68808, 20.33769], [-100.68817, 20.33727], [-100.6885, 20.33728]]]}}, {"id": "702641", "type": "Feature", "properties": {"id": "702641", "CVEGEO": "1103900210022011", "POBTOT": 0.0, "score_nse": 0.0, "NSE": null, "VIVTOT": 0.0, "GRAPROES": 0.0, "_ent": "11", "_mun": "039", "_loc": "0021"}, "geometry": {"type": "Polygon", "coordinates": [[[-100.6873, 20.33642], [-100.68722, 20.33581], [-100.68889, 20.33506], [-100.68902, 20.33617], [-100.6873, 20.33642]]]}}, {"id": "702830", "type": "Feature", "properties": {"id": "702830", "CVEGEO": "1103900210022010", "POBTOT": 0.0, "score_nse": 0.0, "NSE": null, "VIVTOT": 0.0, "GRAPROES": 0.0, "_ent": "11", "_mun": "039", "_loc": "0021"}, "geometry": {"type": "Polygon", "coordinates": [[[-100.6832, 20.33441], [-100.68332, 20.33419], [-100.68369, 20.33429], [-100.68363, 20.33444], [-100.68463, 20.33465], [-100.68393, 20.33535], [-100.6832, 20.33441]]]}}, {"id": "702831", "type": "Feature", "properties": {"id": "702831", "CVEGEO": "1103900210022016", "POBTOT": 0.0, "score_nse": 0.0, "NSE": null, "VIVTOT": 0.0, "GRAPROES": 0.0, "_ent": "11", "_mun": "039", "_loc": "0021"}, "geometry": {"type": "Polygon", "coordinates": [[[-100.6912, 20.33466], [-100.69165, 20.33461], [-100.69169, 20.33538], [-100.69091, 20.3354], [-100.69086, 20.33496], [-100.69124, 20.33494], [-100.6912, 20.33466]]]}}, {"id": "702832", "type": "Feature", "properties": {"id": "702832", "CVEGEO": "1103900210022017", "POBTOT": 0.0, "score_nse": 0.0, "NSE": null, "VIVTOT": 0.0, "GRAPROES": 0.0, "_ent": "11", "_mun": "039", "_loc": "0021"}, "geometry": {"type": "Polygon", "coordinates": [[[-100.69034, 20.33474], [-100.69072, 20.33471], [-100.69081, 20.3354], [-100.69005, 20.33542], [-100.68999, 20.33505], [-100.69036, 20.33505], [-100.69034, 20.33474]]]}}, {"id": "702941", "type": "Feature", "properties": {"id": "702941", "CVEGEO": "1103900210022009", "POBTOT": 0.0, "score_nse": 0.0, "NSE": null, "VIVTOT": 0.0, "GRAPROES": 0.0, "_ent": "11", "_mun": "039", "_loc": "0021"}, "geometry": {"type": "Polygon", "coordinates": [[[-100.68397, 20.33574], [-100.6833, 20.33559], [-100.68269, 20.33568], [-100.68254, 20.33426], [-100.68313, 20.33443], [-100.68368, 20.33521], [-100.68342, 20.33536], [-100.68372, 20.33525], [-100.68404, 20.33556], [-100.68397, 20.33574]]]}}, {"id": "702942", "type": "Feature", "properties": {"id": "702942", "CVEGEO": "1103900210022003", "POBTOT": 0.0, "score_nse": 0.0, "NSE": null, "VIVTOT": 0.0, "GRAPROES": 0.0, "_ent": "11", "_mun": "039", "_loc": "0021"}, "geometry": {"type": "Polygon", "coordinates": [[[-100.68637, 20.33547], [-100.68632, 20.33633], [-100.6852, 20.33618], [-100.68516, 20.33562], [-100.68553, 20.33559], [-100.68509, 20.3356], [-100.68515, 20.33617], [-100.68459, 20.33606], [-100.6841, 20.33567], [-100.68465, 20.33547], [-100.68416, 20.33552], [-100.68398, 20.33538], [-100.6847, 20.33471], [-100.68539, 20.33517], [-100.68621, 20.33492], [-100.68637, 20.33521], [-100.68689, 20.33519], [-100.68699, 20.33557], [-100.68649, 20.33585], [-100.68637, 20.33547]]]}}]}