{"type": "FeatureCollection", "features": [{"id": "701824", "type": "Feature", "properties": {"id": "701824", "CVEGEO": "1103900310056027", "POBTOT": 0.0, "score_nse": 0.0, "NSE": null, "VIVTOT": 0.0, "GRAPROES": 0.0, "_ent": "11", "_mun": "039", "_loc": "0031"}, "geometry": {"type": "Polygon", "coordinates": [[[-100.78433, 20.23113], [-100.78275, 20.23093], [-100.78276, 20.23044], [-100.78432, 20.23054], [-100.78433, 20.23113]]]}}, {"id": "701825", "type": "Feature", "properties": {"id": "701825", "CVEGEO": "1103900310056026", "POBTOT": 0.0, "score_nse": 0.0, "NSE": null, "VIVTOT": 0.0, "GRAPROES": 0.0, "_ent": "11", "_mun": "039", "_loc": "0031"}, "geometry": {"type": "Polygon", "coordinates": [[[-100.7827, 20.23105], [-100.78222, 20.23122], [-100.7822, 20.23047], [-100.78271, 20.23044], [-100.7827, 20.23105]]]}}, {"id": "701854", "type": "Feature", "properties": {"id": "701854", "CVEGEO": "1103900310056025", "POBTOT": 0.0, "score_nse": 0.0, "NSE": null, "VIVTOT": 0.0, "GRAPROES": 0.0, "_ent": "11", "_mun": "039", "_loc": "0031"}, "geometry": {"type": "Polygon", "coordinates": [[[-100.78215, 20.23124], [-100.78166, 20.23141], [-100.78162, 20.2305], [-100.78213, 20.23047], [-100.78215, 20.23124]]]}}, {"id": "701899", "type": "Feature", "properties": {"id": "701899", "CVEGEO": "1103900310056010", "POBTOT": 0.0, "score_nse": 0.0, "NSE": null, "VIVTOT": 0.0, "GRAPROES": 0.0, "_ent": "11", "_mun": "039", "_loc": "0031"}, "geometry": {"type": "Polygon", "coordinates": [[[-100.7788, 20.2346], [-100.77771, 20.23442], [-100.77793, 20.23383], [-100.7787, 20.2338], [-100.7788, 20.2346]]]}}, {"id": "701900", "type": "Feature", "properties": {"id": "701900", "CVEGEO": "1103900310056009", "POBTOT": 0.0, "score_nse": 0.0, "NSE": null, "VIVTOT": 0.0, "GRAPROES": 0.0, "_ent": "11", "_mun": "039", "_loc": "0031"}, "geometry": {"type": "Polygon", "coordinates": [[[-100.77884, 20.23506], [-100.77649, 20.23493], [-100.77659, 20.23431], [-100.77692, 20.23421], [-100.77802, 20.23458], [-100.77881, 20.23464], [-100.77884, 20.23506]]]}}, {"id": "701901", "type": "Feature", "properties": {"id": "701901", "CVEGEO": "1103900310056008", "POBTOT": 0.0, "score_nse": 0.0, "NSE": null, "VIVTOT": 0.0, "GRAPROES": 0.0, "_ent": "11", "_mun": "039", "_loc": "0031"}, "geometry": {"type": "Polygon", "coordinates": [[[-100.77889, 20.23504], [-100.77885, 20.23461], [-100.77981, 20.23462], [-100.77983, 20.23498], [-100.77889, 20.23504]]]}}, {"id": "701902", "type": "Feature", "properties": {"id": "701902", "CVEGEO": "1103900310056007", "POBTOT": 0.0, "score_nse": 0.0, "NSE": null, "VIVTOT": 0.0, "GRAPROES": 0.0, "_ent": "11", "_mun": "039", "_loc": "0031"}, "geometry": {"type": "Polygon", "coordinates": [[[-100.78129, 20.23586], [-100.78128, 20.23653], [-100.78072, 20.23651], [-100.78064, 20.23499], [-100.77988, 20.23497], [-100.77988, 20.23432], [-100.78053, 20.23403], [-100.78093, 20.23448], [-100.78126, 20.2344], [-100.78129, 20.23411], [-100.78166, 20.23413], [-100.78202, 20.2349], [-100.78181, 20.23574], [-100.78129, 20.23586]]]}}, {"id": "701903", "type": "Feature", "properties": {"id": "701903", "CVEGEO": "1103900310056006", "POBTOT": 0.0, "score_nse": 0.0, "NSE": null, "VIVTOT": 0.0, "GRAPROES": 0.0, "_ent": "11", "_mun": "039", "_loc": "0031"}, "geometry": {"type": "Polygon", "coordinates": [[[-100.7826, 20.23436], [-100.78208, 20.2349], [-100.78174, 20.23412], [-100.78259, 20.234], [-100.7826, 20.23436]]]}}, {"id": "701904", "type": "Feature", "properties": {"id": "701904", "CVEGEO": "1103900310056005", "POBTOT": 0.0, "score_nse": 0.0, "NSE": null, "VIVTOT": 0.0, "GRAPROES": 0.0, "_ent": "11", "_mun": "039", "_loc": "0031"}, "geometry": {"type": "Polygon", "coordinates": [[[-100.78174, 20.23399], [-100.78149, 20.23347], [-100.78186, 20.23326], [-100.78202, 20.23387], [-100.78174, 20.23399]]]}}, {"id": "701905", "type": "Feature", "properties": {"id": "701905", "CVEGEO": "1103900310056004", "POBTOT": 0.0, "score_nse": 0.0, "NSE": null, "VIVTOT": 0.0, "GRAPROES": 0.0, "_ent": "11", "_mun": "039", "_loc": "0031"}, "geometry": {"type": "Polygon", "coordinates": [[[-100.78142, 20.23338], [-100.78095, 20.23238], [-100.78175, 20.23228], [-100.78266, 20.23254], [-100.78142, 20.23338]]]}}, {"id": "702069", "type": "Feature", "properties": {"id": "702069", "CVEGEO": "1103900310056036", "POBTOT": 0.0, "score_nse": 0.0, "NSE": null, "VIVTOT": 0.0, "GRAPROES": 0.0, "_ent": "11", "_mun": "039", "_loc": "0031"}, "geometry": {"type": "Polygon", "coordinates": [[[-100.78054, 20.23054], [-100.78051, 20.22982], [-100.78101, 20.2298], [-100.78102, 20.2305], [-100.78054, 20.23054]]]}}, {"id": "702070", "type": "Feature", "properties": {"id": "702070", "CVEGEO": "1103900310056035", "POBTOT": 0.0, "score_nse": 0.0, "NSE": null, "VIVTOT": 0.0, "GRAPROES": 0.0, "_ent": "11", "_mun": "039", "_loc": "0031"}, "geometry": {"type": "Polygon", "coordinates": [[[-100.78271, 20.22973], [-100.78003, 20.22975], [-100.77963, 20.22868], [-100.77992, 20.22864], [-100.77996, 20.22878], [-100.78207, 20.22856], [-100.78271, 20.22973]]]}}, {"id": "702071", "type": "Feature", "properties": {"id": "702071", "CVEGEO": "1103900310056034", "POBTOT": 0.0, "score_nse": 0.0, "NSE": null, "VIVTOT": 0.0, "GRAPROES": 0.0, "_ent": "11", "_mun": "039", "_loc": "0031"}, "geometry": {"type": "Polygon", "coordinates": [[[-100.78444, 20.23089], [-100.78479, 20.23083], [-100.78476, 20.23234], [-100.78414, 20.23256], [-100.78396, 20.23286], [-100.78366, 20.23269], [-100.78391, 20.23224], [-100.78431, 20.232], [-100.78444, 20.23089]]]}}, {"id": "702072", "type": "Feature", "properties": {"id": "702072", "CVEGEO": "1103900310056031", "POBTOT": 0.0, "score_nse": 0.0, "NSE": null, "VIVTOT": 0.0, "GRAPROES": 0.0, "_ent": "11", "_mun": "039", "_loc": "0031"}, "geometry": {"type": "Polygon", "coordinates": [[[-100.78108, 20.23049], [-100.78107, 20.22981], [-100.78156, 20.22978], [-100.78158, 20.23046], [-100.78108, 20.23049]]]}}, {"id": "702073", "type": "Feature", "properties": {"id": "702073", "CVEGEO": "1103900310056030", "POBTOT": 0.0, "score_nse": 0.0, "NSE": null, "VIVTOT": 0.0, "GRAPROES": 0.0, "_ent": "11", "_mun": "039", "_loc": "0031"}, "geometry": {"type": "Polygon", "coordinates": [[[-100.77933, 20.23689], [-100.77843, 20.2369], [-100.77841, 20.23667], [-100.77933, 20.23665], [-100.77933, 20.23689]]]}}, {"id": "702074", "type": "Feature", "properties": {"id": "702074", "CVEGEO": "1103900310056029", "POBTOT": 0.0, "score_nse": 0.0, "NSE": null, "VIVTOT": 0.0, "GRAPROES": 0.0, "_ent": "11", "_mun": "039", "_loc": "0031"}, "geometry": {"type": "Polygon", "coordinates": [[[-100.78381, 20.23238], [-100.78326, 20.23278], [-100.78276, 20.2325], [-100.78291, 20.23205], [-100.78361, 20.23189], [-100.78381, 20.23238]]]}}, {"id": "702075", "type": "Feature", "properties": {"id": "702075", "CVEGEO": "1103900310056018", "POBTOT": 0.0, "score_nse": 0.0, "NSE": null, "VIVTOT": 0.0, "GRAPROES": 0.0, "_ent": "11", "_mun": "039", "_loc": "0031"}, "geometry": {"type": "Polygon", "coordinates": [[[-100.7818, 20.23669], [-100.782, 20.23573], [-100.78235, 20.23572], [-100.78256, 20.23611], [-100.78239, 20.23679], [-100.7818, 20.23669]]]}}, {"id": "702076", "type": "Feature", "properties": {"id": "702076", "CVEGEO": "1103900310056017", "POBTOT": 0.0, "score_nse": 0.0, "NSE": null, "VIVTOT": 0.0, "GRAPROES": 0.0, "_ent": "11", "_mun": "039", "_loc": "0031"}, "geometry": {"type": "Polygon", "coordinates": [[[-100.78269, 20.2362], [-100.78226, 20.23492], [-100.78266, 20.23442], [-100.78271, 20.2337], [-100.78332, 20.23324], [-100.78356, 20.23281], [-100.78382, 20.23289], [-100.783, 20.23397], [-100.78331, 20.23402], [-100.78326, 20.23428], [-100.78277, 20.23426], [-100.78269, 20.2362]]]}}, {"id": "702077", "type": "Feature", "properties": {"id": "702077", "CVEGEO": "1103900310056016", "POBTOT": 0.0, "score_nse": 0.0, "NSE": null, "VIVTOT": 0.0, "GRAPROES": 0.0, "_ent": "11", "_mun": "039", "_loc": "0031"}, "geometry": {"type": "Polygon", "coordinates": [[[-100.78328, 20.2332], [-100.78273, 20.23358], [-100.7826, 20.23388], [-100.78216, 20.23395], [-100.7819, 20.23312], [-100.7827, 20.23256], [-100.78342, 20.23291], [-100.78328, 20.2332]]]}}, {"id": "702078", "type": "Feature", "properties": {"id": "702078", "CVEGEO": "1103900310056015", "POBTOT": 0.0, "score_nse": 0.0, "NSE": null, "VIVTOT": 0.0, "GRAPROES": 0.0, "_ent": "11", "_mun": "039", "_loc": "0031"}, "geometry": {"type": "Polygon", "coordinates": [[[-100.78026, 20.23064], [-100.78102, 20.23058], [-100.7811, 20.23135], [-100.78108, 20.23057], [-100.78157, 20.23053], [-100.78162, 20.23147], [-100.7827, 20.23109], [-100.78281, 20.23232], [-100.7827, 20.23248], [-100.78202, 20.23213], [-100.78239, 20.23236], [-100.78176, 20.23224], [-100.78092, 20.23234], [-100.78026, 20.23064]]]}}, {"id": "702079", "type": "Feature", "properties": {"id": "702079", "CVEGEO": "1103900310056013", "POBTOT": 0.0, "score_nse": 0.0, "NSE": null, "VIVTOT": 0.0, "GRAPROES": 0.0, "_ent": "11", "_mun": "039", "_loc": "0031"}, "geometry": {"type": "Polygon", "coordinates": [[[-100.77995, 20.23326], [-100.77984, 20.23296], [-100.77967, 20.23218], [-100.78028, 20.2322], [-100.78056, 20.23301], [-100.77995, 20.23326]]]}}, {"id": "702080", "type": "Feature", "properties": {"id": "702080", "CVEGEO": "1103900310056012", "POBTOT": 0.0, "score_nse": 0.0, "NSE": null, "VIVTOT": 0.0, "GRAPROES": 0.0, "_ent": "11", "_mun": "039", "_loc": "0031"}, "geometry": {"type": "Polygon", "coordinates": [[[-100.77969, 20.23334], [-100.77792, 20.23275], [-100.77807, 20.23194], [-100.77962, 20.23218], [-100.77989, 20.23328], [-100.77969, 20.23334]]]}}, {"id": "702081", "type": "Feature", "properties": {"id": "702081", "CVEGEO": "1103900310056011", "POBTOT": 0.0, "score_nse": 0.0, "NSE": null, "VIVTOT": 0.0, "GRAPROES": 0.0, "_ent": "11", "_mun": "039", "_loc": "0031"}, "geometry": {"type": "Polygon", "coordinates": [[[-100.77913, 20.23368], [-100.77795, 20.23373], [-100.77817, 20.23292], [-100.77913, 20.23325], [-100.77913, 20.23368]]]}}, {"id": "702529", "type": "Feature", "properties": {"id": "702529", "CVEGEO": "1103900310056038", "POBTOT": 0.0, "score_nse": 0.0, "NSE": null, "VIVTOT": 0.0, "GRAPROES": 0.0, "_ent": "11", "_mun": "039", "_loc": "0031"}, "geometry": {"type": "Polygon", "coordinates": [[[-100.77923, 20.23365], [-100.77922, 20.2333], [-100.77951, 20.23338], [-100.77952, 20.23361], [-100.77923, 20.23365]]]}}, {"id": "702530", "type": "Feature", "properties": {"id": "702530", "CVEGEO": "1103900310056037", "POBTOT": 0.0, "score_nse": 0.0, "NSE": null, "VIVTOT": 0.0, "GRAPROES": 0.0, "_ent": "11", "_mun": "039", "_loc": "0031"}, "geometry": {"type": "Polygon", "coordinates": [[[-100.7802, 20.23056], [-100.78005, 20.22983], [-100.78046, 20.22982], [-100.78049, 20.23055], [-100.7802, 20.23056]]]}}, {"id": "702531", "type": "Feature", "properties": {"id": "702531", "CVEGEO": "1103900310056028", "POBTOT": 0.0, "score_nse": 0.0, "NSE": null, "VIVTOT": 0.0, "GRAPROES": 0.0, "_ent": "11", "_mun": "039", "_loc": "0031"}, "geometry": {"type": "Polygon", "coordinates": [[[-100.78432, 20.23118], [-100.78424, 20.23194], [-100.78384, 20.23213], [-100.78376, 20.23182], [-100.78285, 20.23201], [-100.78276, 20.23101], [-100.78432, 20.23118]]]}}, {"id": "702532", "type": "Feature", "properties": {"id": "702532", "CVEGEO": "1103900310056021", "POBTOT": 0.0, "score_nse": 0.0, "NSE": null, "VIVTOT": 0.0, "GRAPROES": 0.0, "_ent": "11", "_mun": "039", "_loc": "0031"}, "geometry": {"type": "Polygon", "coordinates": [[[-100.77984, 20.2353], [-100.77875, 20.23535], [-100.77892, 20.2351], [-100.77983, 20.23504], [-100.77984, 20.2353]]]}}, {"id": "702533", "type": "Feature", "properties": {"id": "702533", "CVEGEO": "1103900310056019", "POBTOT": 0.0, "score_nse": 0.0, "NSE": null, "VIVTOT": 0.0, "GRAPROES": 0.0, "_ent": "11", "_mun": "039", "_loc": "0031"}, "geometry": {"type": "Polygon", "coordinates": [[[-100.78134, 20.23657], [-100.78135, 20.23591], [-100.7818, 20.23581], [-100.78162, 20.2366], [-100.78134, 20.23657]]]}}, {"id": "702534", "type": "Feature", "properties": {"id": "702534", "CVEGEO": "1103900310056003", "POBTOT": 0.0, "score_nse": 0.0, "NSE": null, "VIVTOT": 0.0, "GRAPROES": 0.0, "_ent": "11", "_mun": "039", "_loc": "0031"}, "geometry": {"type": "Polygon", "coordinates": [[[-100.78119, 20.23351], [-100.781, 20.23315], [-100.78061, 20.23297], [-100.78051, 20.23264], [-100.78093, 20.23252], [-100.78135, 20.23341], [-100.78119, 20.23351]]]}}, {"id": "702535", "type": "Feature", "properties": {"id": "702535", "CVEGEO": "1103900310056002", "POBTOT": 0.0, "score_nse": 0.0, "NSE": null, "VIVTOT": 0.0, "GRAPROES": 0.0, "_ent": "11", "_mun": "039", "_loc": "0031"}, "geometry": {"type": "Polygon", "coordinates": [[[-100.78112, 20.23346], [-100.78116, 20.23375], [-100.78095, 20.2337], [-100.78116, 20.2338], [-100.78119, 20.23432], [-100.78094, 20.23438], [-100.78044, 20.23377], [-100.7805, 20.23399], [-100.77979, 20.23432], [-100.77979, 20.23456], [-100.77885, 20.23457], [-100.77876, 20.2338], [-100.77959, 20.23363], [-100.77957, 20.23343], [-100.78056, 20.23306], [-100.78097, 20.23318], [-100.78107, 20.23332], [-100.78093, 20.23339], [-100.78112, 20.23346]]]}}, {"id": "702618", "type": "Feature", "properties": {"id": "702618", "CVEGEO": "1103900310056001", "POBTOT": 0.0, "score_nse": 0.0, "NSE": null, "VIVTOT": 0.0, "GRAPROES": 0.0, "_ent": "11", "_mun": "039", "_loc": "0031"}, "geometry": {"type": "Polygon", "coordinates": [[[-100.78129, 20.23402], [-100.78121, 20.23357], [-100.78139, 20.23348], [-100.78164, 20.23406], [-100.78129, 20.23402]]]}}, {"id": "702863", "type": "Feature", "properties": {"id": "702863", "CVEGEO": "1103900310056014", "POBTOT": 0.0, "score_nse": 0.0, "NSE": null, "VIVTOT": 0.0, "GRAPROES": 0.0, "_ent": "11", "_mun": "039", "_loc": "0031"}, "geometry": {"type": "Polygon", "coordinates": [[[-100.78027, 20.23216], [-100.77914, 20.23206], [-100.77934, 20.23152], [-100.77993, 20.23195], [-100.77987, 20.23171], [-100.78013, 20.23161], [-100.77958, 20.22978], [-100.77991, 20.22972], [-100.78092, 20.23249], [-100.7805, 20.23261], [-100.78027, 20.23216]]]}}, {"id": "702864", "type": "Feature", "properties": {"id": "702864", "CVEGEO": "1103900310056020", "POBTOT": 0.0, "score_nse": 0.0, "NSE": null, "VIVTOT": 0.0, "GRAPROES": 0.0, "_ent": "11", "_mun": "039", "_loc": "0031"}, "geometry": {"type": "Polygon", "coordinates": [[[-100.77989, 20.2356], [-100.78061, 20.23557], [-100.78065, 20.23652], [-100.77863, 20.23655], [-100.77872, 20.23543], [-100.77988, 20.23538], [-100.77989, 20.2356]]]}}, {"id": "702865", "type": "Feature", "properties": {"id": "702865", "CVEGEO": "1103900310056040", "POBTOT": 0.0, "score_nse": 0.0, "NSE": null, "VIVTOT": 0.0, "GRAPROES": 0.0, "_ent": "11", "_mun": "039", "_loc": "0031"}, "geometry": {"type": "Polygon", "coordinates": [[[-100.77989, 20.23503], [-100.78057, 20.23502], [-100.7806, 20.23553], [-100.77992, 20.23555], [-100.77989, 20.23503]]]}}, {"id": "702894", "type": "Feature", "properties": {"id": "702894", "CVEGEO": "1103900310056023", "POBTOT": 0.0, "score_nse": 0.0, "NSE": null, "VIVTOT": 0.0, "GRAPROES": 0.0, "_ent": "11", "_mun": "039", "_loc": "0031"}, "geometry": {"type": "Polygon", "coordinates": [[[-100.77767, 20.23439], [-100.77684, 20.23412], [-100.77769, 20.23216], [-100.77794, 20.23222], [-100.77783, 20.23279], [-100.77812, 20.23289], [-100.77767, 20.23439]]]}}, {"id": "702999", "type": "Feature", "properties": {"id": "702999", "CVEGEO": "1103900310056022", "POBTOT": 0.0, "score_nse": 0.0, "NSE": null, "VIVTOT": 0.0, "GRAPROES": 0.0, "_ent": "11", "_mun": "039", "_loc": "0031"}, "geometry": {"type": "Polygon", "coordinates": [[[-100.77864, 20.23511], [-100.77856, 20.23655], [-100.77796, 20.23654], [-100.77807, 20.23553], [-100.77744, 20.23548], [-100.77802, 20.23558], [-100.77797, 20.23594], [-100.77727, 20.23588], [-100.77797, 20.23601], [-100.77791, 20.23654], [-100.77622, 20.23602], [-100.7765, 20.23499], [-100.77864, 20.23511]]]}}, {"id": "703020", "type": "Feature", "properties": {"id": "703020", "CVEGEO": "1103900310056024", "POBTOT": 0.0, "score_nse": 0.0, "NSE": null, "VIVTOT": 0.0, "GRAPROES": 0.0, "_ent": "11", "_mun": "039", "_loc": "0031"}, "geometry": {"type": "Polygon", "coordinates": [[[-100.78164, 20.23044], [-100.78163, 20.22977], [-100.78213, 20.22977], [-100.78213, 20.23042], [-100.78164, 20.23044]]]}}, {"id": "703021", "type": "Feature", "properties": {"id": "703021", "CVEGEO": "1103900310056032", "POBTOT": 0.0, "score_nse": 0.0, "NSE": null, "VIVTOT": 0.0, "GRAPROES": 0.0, "_ent": "11", "_mun": "039", "_loc": "0031"}, "geometry": {"type": "Polygon", "coordinates": [[[-100.78271, 20.22978], [-100.7827, 20.23039], [-100.78216, 20.23041], [-100.78216, 20.22978], [-100.78271, 20.22978]]]}}, {"id": "703022", "type": "Feature", "properties": {"id": "703022", "CVEGEO": "1103900310056033", "POBTOT": 0.0, "score_nse": 0.0, "NSE": null, "VIVTOT": 0.0, "GRAPROES": 0.0, "_ent": "11", "_mun": "039", "_loc": "0031"}, "geometry": {"type": "Polygon", "coordinates": [[[-100.78391, 20.23046], [-100.78276, 20.23039], [-100.78277, 20.22954], [-100.78261, 20.22931], [-100.7832, 20.22918], [-100.78325, 20.22956], [-100.78369, 20.23009], [-100.78388, 20.23009], [-100.78374, 20.2292], [-100.7841, 20.22952], [-100.7843, 20.23048], [-100.78397, 20.23047], [-100.78396, 20.23017], [-100.78391, 20.23046]]]}}]}