{"type": "FeatureCollection", "features": [{"id": "910389", "type": "Feature", "properties": {"id": "910389", "CVEGEO": "1401600200089032", "POBTOT": 0.0, "score_nse": 0.0, "NSE": null, "VIVTOT": 0.0, "GRAPROES": 0.0, "_ent": "14", "_mun": "016", "_loc": "0020"}, "geometry": {"type": "Polygon", "coordinates": [[[-102.3287, 20.35337], [-102.32918, 20.35336], [-102.32914, 20.35403], [-102.32865, 20.35393], [-102.3287, 20.35337]]]}}, {"id": "910390", "type": "Feature", "properties": {"id": "910390", "CVEGEO": "1401600200089031", "POBTOT": 0.0, "score_nse": 0.0, "NSE": null, "VIVTOT": 0.0, "GRAPROES": 0.0, "_ent": "14", "_mun": "016", "_loc": "0020"}, "geometry": {"type": "Polygon", "coordinates": [[[-102.32924, 20.35336], [-102.32968, 20.35333], [-102.32948, 20.35408], [-102.32919, 20.35404], [-102.32924, 20.35336]]]}}, {"id": "910391", "type": "Feature", "properties": {"id": "910391", "CVEGEO": "1401600200089030", "POBTOT": 0.0, "score_nse": 0.0, "NSE": null, "VIVTOT": 0.0, "GRAPROES": 0.0, "_ent": "14", "_mun": "016", "_loc": "0020"}, "geometry": {"type": "Polygon", "coordinates": [[[-102.332, 20.3512], [-102.33258, 20.35115], [-102.33249, 20.35243], [-102.33179, 20.35244], [-102.332, 20.3512]]]}}, {"id": "910392", "type": "Feature", "properties": {"id": "910392", "CVEGEO": "1401600200089029", "POBTOT": 0.0, "score_nse": 0.0, "NSE": null, "VIVTOT": 0.0, "GRAPROES": 0.0, "_ent": "14", "_mun": "016", "_loc": "0020"}, "geometry": {"type": "Polygon", "coordinates": [[[-102.33212, 20.35017], [-102.33267, 20.35034], [-102.3326, 20.35106], [-102.33205, 20.35101], [-102.33212, 20.35017]]]}}, {"id": "910393", "type": "Feature", "properties": {"id": "910393", "CVEGEO": "1401600200089028", "POBTOT": 0.0, "score_nse": 0.0, "NSE": null, "VIVTOT": 0.0, "GRAPROES": 0.0, "_ent": "14", "_mun": "016", "_loc": "0020"}, "geometry": {"type": "Polygon", "coordinates": [[[-102.33103, 20.34899], [-102.33156, 20.34943], [-102.33157, 20.34944], [-102.33099, 20.34945], [-102.33103, 20.34899]]]}}, {"id": "910394", "type": "Feature", "properties": {"id": "910394", "CVEGEO": "1401600200089027", "POBTOT": 0.0, "score_nse": 0.0, "NSE": null, "VIVTOT": 0.0, "GRAPROES": 0.0, "_ent": "14", "_mun": "016", "_loc": "0020"}, "geometry": {"type": "Polygon", "coordinates": [[[-102.33036, 20.34944], [-102.33042, 20.34846], [-102.33099, 20.34895], [-102.33095, 20.34945], [-102.33036, 20.34944]]]}}, {"id": "910395", "type": "Feature", "properties": {"id": "910395", "CVEGEO": "1401600200089026", "POBTOT": 0.0, "score_nse": 0.0, "NSE": null, "VIVTOT": 0.0, "GRAPROES": 0.0, "_ent": "14", "_mun": "016", "_loc": "0020"}, "geometry": {"type": "Polygon", "coordinates": [[[-102.33038, 20.34838], [-102.3303, 20.34931], [-102.32977, 20.34921], [-102.32964, 20.34942], [-102.32841, 20.34935], [-102.32915, 20.34844], [-102.33, 20.34826], [-102.33038, 20.34838]]]}}, {"id": "910396", "type": "Feature", "properties": {"id": "910396", "CVEGEO": "1401600200089013", "POBTOT": 0.0, "score_nse": 0.0, "NSE": null, "VIVTOT": 0.0, "GRAPROES": 0.0, "_ent": "14", "_mun": "016", "_loc": "0020"}, "geometry": {"type": "Polygon", "coordinates": [[[-102.33036, 20.3495], [-102.33095, 20.3495], [-102.33091, 20.35008], [-102.33032, 20.35008], [-102.33036, 20.3495]]]}}, {"id": "910397", "type": "Feature", "properties": {"id": "910397", "CVEGEO": "1401600200089012", "POBTOT": 0.0, "score_nse": 0.0, "NSE": null, "VIVTOT": 0.0, "GRAPROES": 0.0, "_ent": "14", "_mun": "016", "_loc": "0020"}, "geometry": {"type": "Polygon", "coordinates": [[[-102.32976, 20.35005], [-102.32975, 20.34936], [-102.33026, 20.34937], [-102.33024, 20.35006], [-102.32976, 20.35005]]]}}, {"id": "910398", "type": "Feature", "properties": {"id": "910398", "CVEGEO": "1401600200089011", "POBTOT": 0.0, "score_nse": 0.0, "NSE": null, "VIVTOT": 0.0, "GRAPROES": 0.0, "_ent": "14", "_mun": "016", "_loc": "0020"}, "geometry": {"type": "Polygon", "coordinates": [[[-102.32915, 20.34947], [-102.32964, 20.34947], [-102.32969, 20.35], [-102.32927, 20.35002], [-102.32915, 20.34947]]]}}, {"id": "910399", "type": "Feature", "properties": {"id": "910399", "CVEGEO": "1401600200089010", "POBTOT": 0.0, "score_nse": 0.0, "NSE": null, "VIVTOT": 0.0, "GRAPROES": 0.0, "_ent": "14", "_mun": "016", "_loc": "0020"}, "geometry": {"type": "Polygon", "coordinates": [[[-102.32937, 20.35009], [-102.32972, 20.35009], [-102.32975, 20.35068], [-102.3294, 20.35069], [-102.32937, 20.35009]]]}}, {"id": "910400", "type": "Feature", "properties": {"id": "910400", "CVEGEO": "1401600200089009", "POBTOT": 0.0, "score_nse": 0.0, "NSE": null, "VIVTOT": 0.0, "GRAPROES": 0.0, "_ent": "14", "_mun": "016", "_loc": "0020"}, "geometry": {"type": "Polygon", "coordinates": [[[-102.32941, 20.35129], [-102.33009, 20.35128], [-102.32997, 20.35218], [-102.32934, 20.35207], [-102.32941, 20.35129]]]}}, {"id": "910401", "type": "Feature", "properties": {"id": "910401", "CVEGEO": "1401600200089008", "POBTOT": 0.0, "score_nse": 0.0, "NSE": null, "VIVTOT": 0.0, "GRAPROES": 0.0, "_ent": "14", "_mun": "016", "_loc": "0020"}, "geometry": {"type": "Polygon", "coordinates": [[[-102.33018, 20.35129], [-102.3308, 20.35127], [-102.33086, 20.35233], [-102.33003, 20.3522], [-102.33018, 20.35129]]]}}, {"id": "910402", "type": "Feature", "properties": {"id": "910402", "CVEGEO": "1401600200089007", "POBTOT": 0.0, "score_nse": 0.0, "NSE": null, "VIVTOT": 0.0, "GRAPROES": 0.0, "_ent": "14", "_mun": "016", "_loc": "0020"}, "geometry": {"type": "Polygon", "coordinates": [[[-102.33089, 20.35233], [-102.33088, 20.35125], [-102.33135, 20.35124], [-102.33111, 20.35237], [-102.33089, 20.35233]]]}}, {"id": "910544", "type": "Feature", "properties": {"id": "910544", "CVEGEO": "1401600200089038", "POBTOT": 0.0, "score_nse": 0.0, "NSE": null, "VIVTOT": 0.0, "GRAPROES": 0.0, "_ent": "14", "_mun": "016", "_loc": "0020"}, "geometry": {"type": "Polygon", "coordinates": [[[-102.32945, 20.35452], [-102.32987, 20.35462], [-102.32965, 20.35556], [-102.32923, 20.35547], [-102.32945, 20.35452]]]}}, {"id": "910545", "type": "Feature", "properties": {"id": "910545", "CVEGEO": "1401600200089037", "POBTOT": 0.0, "score_nse": 0.0, "NSE": null, "VIVTOT": 0.0, "GRAPROES": 0.0, "_ent": "14", "_mun": "016", "_loc": "0020"}, "geometry": {"type": "Polygon", "coordinates": [[[-102.33009, 20.35571], [-102.32861, 20.35814], [-102.32814, 20.358], [-102.32879, 20.3569], [-102.32896, 20.35697], [-102.32882, 20.35681], [-102.32917, 20.35552], [-102.32964, 20.35574], [-102.32991, 20.35466], [-102.33048, 20.3548], [-102.33009, 20.35571]]]}}, {"id": "910546", "type": "Feature", "properties": {"id": "910546", "CVEGEO": "1401600200089005", "POBTOT": 0.0, "score_nse": 0.0, "NSE": null, "VIVTOT": 0.0, "GRAPROES": 0.0, "_ent": "14", "_mun": "016", "_loc": "0020"}, "geometry": {"type": "Polygon", "coordinates": [[[-102.33094, 20.35012], [-102.33149, 20.35013], [-102.33144, 20.35092], [-102.33091, 20.35086], [-102.33094, 20.35012]]]}}, {"id": "910547", "type": "Feature", "properties": {"id": "910547", "CVEGEO": "1401600200089004", "POBTOT": 0.0, "score_nse": 0.0, "NSE": null, "VIVTOT": 0.0, "GRAPROES": 0.0, "_ent": "14", "_mun": "016", "_loc": "0020"}, "geometry": {"type": "Polygon", "coordinates": [[[-102.33032, 20.35011], [-102.33089, 20.35012], [-102.33085, 20.35086], [-102.33027, 20.35076], [-102.33032, 20.35011]]]}}, {"id": "910548", "type": "Feature", "properties": {"id": "910548", "CVEGEO": "1401600200089003", "POBTOT": 0.0, "score_nse": 0.0, "NSE": null, "VIVTOT": 0.0, "GRAPROES": 0.0, "_ent": "14", "_mun": "016", "_loc": "0020"}, "geometry": {"type": "Polygon", "coordinates": [[[-102.33019, 20.35011], [-102.33016, 20.35071], [-102.32981, 20.35067], [-102.3298, 20.35011], [-102.33019, 20.35011]]]}}, {"id": "910647", "type": "Feature", "properties": {"id": "910647", "CVEGEO": "1401600200089050", "POBTOT": 0.0, "score_nse": 0.0, "NSE": null, "VIVTOT": 0.0, "GRAPROES": 0.0, "_ent": "14", "_mun": "016", "_loc": "0020"}, "geometry": {"type": "Polygon", "coordinates": [[[-102.33037, 20.34772], [-102.33038, 20.34833], [-102.32999, 20.3482], [-102.32917, 20.34839], [-102.32885, 20.34808], [-102.32972, 20.34718], [-102.33037, 20.34772]]]}}, {"id": "910648", "type": "Feature", "properties": {"id": "910648", "CVEGEO": "1401600200089049", "POBTOT": 0.0, "score_nse": 0.0, "NSE": null, "VIVTOT": 0.0, "GRAPROES": 0.0, "_ent": "14", "_mun": "016", "_loc": "0020"}, "geometry": {"type": "Polygon", "coordinates": [[[-102.33061, 20.35458], [-102.33055, 20.35475], [-102.3302, 20.35467], [-102.33024, 20.35449], [-102.33061, 20.35458]]]}}, {"id": "910649", "type": "Feature", "properties": {"id": "910649", "CVEGEO": "1401600200089048", "POBTOT": 0.0, "score_nse": 0.0, "NSE": null, "VIVTOT": 0.0, "GRAPROES": 0.0, "_ent": "14", "_mun": "016", "_loc": "0020"}, "geometry": {"type": "Polygon", "coordinates": [[[-102.32808, 20.35292], [-102.32806, 20.3533], [-102.32734, 20.35327], [-102.32738, 20.35289], [-102.32808, 20.35292]]]}}, {"id": "910650", "type": "Feature", "properties": {"id": "910650", "CVEGEO": "1401600200089047", "POBTOT": 0.0, "score_nse": 0.0, "NSE": null, "VIVTOT": 0.0, "GRAPROES": 0.0, "_ent": "14", "_mun": "016", "_loc": "0020"}, "geometry": {"type": "Polygon", "coordinates": [[[-102.32802, 20.34941], [-102.32825, 20.34946], [-102.32823, 20.34978], [-102.32764, 20.34973], [-102.32766, 20.3492], [-102.32815, 20.34848], [-102.32863, 20.34897], [-102.32825, 20.3494], [-102.32802, 20.34941]]]}}, {"id": "910651", "type": "Feature", "properties": {"id": "910651", "CVEGEO": "1401600200089046", "POBTOT": 0.0, "score_nse": 0.0, "NSE": null, "VIVTOT": 0.0, "GRAPROES": 0.0, "_ent": "14", "_mun": "016", "_loc": "0020"}, "geometry": {"type": "Polygon", "coordinates": [[[-102.32806, 20.35333], [-102.32804, 20.35385], [-102.32729, 20.35373], [-102.32733, 20.35331], [-102.32806, 20.35333]]]}}, {"id": "910727", "type": "Feature", "properties": {"id": "910727", "CVEGEO": "1401600200089034", "POBTOT": 0.0, "score_nse": 0.0, "NSE": null, "VIVTOT": 0.0, "GRAPROES": 0.0, "_ent": "14", "_mun": "016", "_loc": "0020"}, "geometry": {"type": "Polygon", "coordinates": [[[-102.32819, 20.35133], [-102.32876, 20.35131], [-102.32873, 20.35202], [-102.32817, 20.35199], [-102.32819, 20.35133]]]}}, {"id": "910728", "type": "Feature", "properties": {"id": "910728", "CVEGEO": "1401600200089025", "POBTOT": 0.0, "score_nse": 0.0, "NSE": null, "VIVTOT": 0.0, "GRAPROES": 0.0, "_ent": "14", "_mun": "016", "_loc": "0020"}, "geometry": {"type": "Polygon", "coordinates": [[[-102.32828, 20.35009], [-102.32832, 20.34946], [-102.32911, 20.34947], [-102.32923, 20.35003], [-102.32828, 20.35009]]]}}, {"id": "910729", "type": "Feature", "properties": {"id": "910729", "CVEGEO": "1401600200089024", "POBTOT": 0.0, "score_nse": 0.0, "NSE": null, "VIVTOT": 0.0, "GRAPROES": 0.0, "_ent": "14", "_mun": "016", "_loc": "0020"}, "geometry": {"type": "Polygon", "coordinates": [[[-102.32828, 20.35014], [-102.3293, 20.35007], [-102.32932, 20.35072], [-102.32823, 20.35078], [-102.32828, 20.35014]]]}}, {"id": "910730", "type": "Feature", "properties": {"id": "910730", "CVEGEO": "1401600200089023", "POBTOT": 0.0, "score_nse": 0.0, "NSE": null, "VIVTOT": 0.0, "GRAPROES": 0.0, "_ent": "14", "_mun": "016", "_loc": "0020"}, "geometry": {"type": "Polygon", "coordinates": [[[-102.32935, 20.35077], [-102.32934, 20.35124], [-102.32819, 20.35128], [-102.32821, 20.35083], [-102.32935, 20.35077]]]}}, {"id": "910731", "type": "Feature", "properties": {"id": "910731", "CVEGEO": "1401600200089022", "POBTOT": 0.0, "score_nse": 0.0, "NSE": null, "VIVTOT": 0.0, "GRAPROES": 0.0, "_ent": "14", "_mun": "016", "_loc": "0020"}, "geometry": {"type": "Polygon", "coordinates": [[[-102.32881, 20.35132], [-102.32936, 20.3513], [-102.32928, 20.35206], [-102.3288, 20.35202], [-102.32881, 20.35132]]]}}, {"id": "910732", "type": "Feature", "properties": {"id": "910732", "CVEGEO": "1401600200089021", "POBTOT": 0.0, "score_nse": 0.0, "NSE": null, "VIVTOT": 0.0, "GRAPROES": 0.0, "_ent": "14", "_mun": "016", "_loc": "0020"}, "geometry": {"type": "Polygon", "coordinates": [[[-102.32879, 20.35207], [-102.32927, 20.3521], [-102.32917, 20.35331], [-102.32868, 20.35333], [-102.32879, 20.35207]]]}}, {"id": "910733", "type": "Feature", "properties": {"id": "910733", "CVEGEO": "1401600200089001", "POBTOT": 0.0, "score_nse": 0.0, "NSE": null, "VIVTOT": 0.0, "GRAPROES": 0.0, "_ent": "14", "_mun": "016", "_loc": "0020"}, "geometry": {"type": "Polygon", "coordinates": [[[-102.33082, 20.35089], [-102.3308, 20.35119], [-102.33022, 20.35121], [-102.33026, 20.35081], [-102.33082, 20.35089]]]}}, {"id": "910789", "type": "Feature", "properties": {"id": "910789", "CVEGEO": "1401600200089039", "POBTOT": 0.0, "score_nse": 0.0, "NSE": null, "VIVTOT": 0.0, "GRAPROES": 0.0, "_ent": "14", "_mun": "016", "_loc": "0020"}, "geometry": {"type": "Polygon", "coordinates": [[[-102.32851, 20.35399], [-102.32945, 20.35414], [-102.32889, 20.35623], [-102.32827, 20.35619], [-102.32851, 20.35399]]]}}, {"id": "910810", "type": "Feature", "properties": {"id": "910810", "CVEGEO": "1401600200089002", "POBTOT": 0.0, "score_nse": 0.0, "NSE": null, "VIVTOT": 0.0, "GRAPROES": 0.0, "_ent": "14", "_mun": "016", "_loc": "0020"}, "geometry": {"type": "Polygon", "coordinates": [[[-102.32941, 20.35075], [-102.33016, 20.35076], [-102.33013, 20.3512], [-102.3294, 20.35124], [-102.32941, 20.35075]]]}}, {"id": "910868", "type": "Feature", "properties": {"id": "910868", "CVEGEO": "1401600200089036", "POBTOT": 0.0, "score_nse": 0.0, "NSE": null, "VIVTOT": 0.0, "GRAPROES": 0.0, "_ent": "14", "_mun": "016", "_loc": "0020"}, "geometry": {"type": "Polygon", "coordinates": [[[-102.3309, 20.34809], [-102.33166, 20.34795], [-102.33159, 20.34929], [-102.33053, 20.34835], [-102.3309, 20.34809]]]}}, {"id": "910869", "type": "Feature", "properties": {"id": "910869", "CVEGEO": "1401600200089020", "POBTOT": 0.0, "score_nse": 0.0, "NSE": null, "VIVTOT": 0.0, "GRAPROES": 0.0, "_ent": "14", "_mun": "016", "_loc": "0020"}, "geometry": {"type": "Polygon", "coordinates": [[[-102.32932, 20.3521], [-102.32995, 20.35221], [-102.32969, 20.35328], [-102.32923, 20.35329], [-102.32932, 20.3521]]]}}, {"id": "910870", "type": "Feature", "properties": {"id": "910870", "CVEGEO": "1401600200089017", "POBTOT": 0.0, "score_nse": 0.0, "NSE": null, "VIVTOT": 0.0, "GRAPROES": 0.0, "_ent": "14", "_mun": "016", "_loc": "0020"}, "geometry": {"type": "Polygon", "coordinates": [[[-102.33146, 20.35097], [-102.33224, 20.3511], [-102.33143, 20.35117], [-102.33146, 20.35097]]]}}, {"id": "910871", "type": "Feature", "properties": {"id": "910871", "CVEGEO": "1401600200089015", "POBTOT": 0.0, "score_nse": 0.0, "NSE": null, "VIVTOT": 0.0, "GRAPROES": 0.0, "_ent": "14", "_mun": "016", "_loc": "0020"}, "geometry": {"type": "Polygon", "coordinates": [[[-102.33158, 20.34945], [-102.33242, 20.35013], [-102.33153, 20.3501], [-102.33158, 20.34945]]]}}, {"id": "910872", "type": "Feature", "properties": {"id": "910872", "CVEGEO": "1401600200089006", "POBTOT": 0.0, "score_nse": 0.0, "NSE": null, "VIVTOT": 0.0, "GRAPROES": 0.0, "_ent": "14", "_mun": "016", "_loc": "0020"}, "geometry": {"type": "Polygon", "coordinates": [[[-102.33143, 20.35096], [-102.3314, 20.35118], [-102.33087, 20.35119], [-102.33089, 20.35091], [-102.33143, 20.35096]]]}}, {"id": "910891", "type": "Feature", "properties": {"id": "910891", "CVEGEO": "1401600200089045", "POBTOT": 0.0, "score_nse": 0.0, "NSE": null, "VIVTOT": 0.0, "GRAPROES": 0.0, "_ent": "14", "_mun": "016", "_loc": "0020"}, "geometry": {"type": "Polygon", "coordinates": [[[-102.32859, 20.35393], [-102.3281, 20.35386], [-102.32811, 20.35341], [-102.32865, 20.35338], [-102.32859, 20.35393]]]}}, {"id": "910892", "type": "Feature", "properties": {"id": "910892", "CVEGEO": "1401600200089042", "POBTOT": 0.0, "score_nse": 0.0, "NSE": null, "VIVTOT": 0.0, "GRAPROES": 0.0, "_ent": "14", "_mun": "016", "_loc": "0020"}, "geometry": {"type": "Polygon", "coordinates": [[[-102.33114, 20.34792], [-102.33115, 20.347], [-102.3322, 20.34698], [-102.33225, 20.34726], [-102.33259, 20.34729], [-102.33256, 20.34777], [-102.3312, 20.34791], [-102.33203, 20.34708], [-102.33114, 20.34792]]]}}, {"id": "910893", "type": "Feature", "properties": {"id": "910893", "CVEGEO": "1401600200089041", "POBTOT": 0.0, "score_nse": 0.0, "NSE": null, "VIVTOT": 0.0, "GRAPROES": 0.0, "_ent": "14", "_mun": "016", "_loc": "0020"}, "geometry": {"type": "Polygon", "coordinates": [[[-102.33109, 20.34794], [-102.33084, 20.34806], [-102.33059, 20.34786], [-102.33098, 20.34747], [-102.33109, 20.34794]]]}}, {"id": "910941", "type": "Feature", "properties": {"id": "910941", "CVEGEO": "1401600200089033", "POBTOT": 0.0, "score_nse": 0.0, "NSE": null, "VIVTOT": 0.0, "GRAPROES": 0.0, "_ent": "14", "_mun": "016", "_loc": "0020"}, "geometry": {"type": "Polygon", "coordinates": [[[-102.32874, 20.35207], [-102.32864, 20.35335], [-102.32812, 20.35338], [-102.32818, 20.35204], [-102.32874, 20.35207]]]}}, {"id": "910942", "type": "Feature", "properties": {"id": "910942", "CVEGEO": "1401600200089014", "POBTOT": 0.0, "score_nse": 0.0, "NSE": null, "VIVTOT": 0.0, "GRAPROES": 0.0, "_ent": "14", "_mun": "016", "_loc": "0020"}, "geometry": {"type": "Polygon", "coordinates": [[[-102.33098, 20.34949], [-102.33153, 20.34948], [-102.3315, 20.35009], [-102.33095, 20.35009], [-102.33098, 20.34949]]]}}, {"id": "910949", "type": "Feature", "properties": {"id": "910949", "CVEGEO": "1401600200089016", "POBTOT": 0.0, "score_nse": 0.0, "NSE": null, "VIVTOT": 0.0, "GRAPROES": 0.0, "_ent": "14", "_mun": "016", "_loc": "0020"}, "geometry": {"type": "Polygon", "coordinates": [[[-102.33153, 20.35015], [-102.33207, 20.35017], [-102.33202, 20.351], [-102.33148, 20.35092], [-102.33153, 20.35015]]]}}, {"id": "910967", "type": "Feature", "properties": {"id": "910967", "CVEGEO": "1401600200089018", "POBTOT": 0.0, "score_nse": 0.0, "NSE": null, "VIVTOT": 0.0, "GRAPROES": 0.0, "_ent": "14", "_mun": "016", "_loc": "0020"}, "geometry": {"type": "Polygon", "coordinates": [[[-102.3314, 20.35124], [-102.33194, 20.3512], [-102.33175, 20.35245], [-102.33114, 20.35237], [-102.3314, 20.35124]]]}}, {"id": "910978", "type": "Feature", "properties": {"id": "910978", "CVEGEO": "1401600200089035", "POBTOT": 0.0, "score_nse": 0.0, "NSE": null, "VIVTOT": 0.0, "GRAPROES": 0.0, "_ent": "14", "_mun": "016", "_loc": "0020"}, "geometry": {"type": "Polygon", "coordinates": [[[-102.33076, 20.34808], [-102.33053, 20.34825], [-102.33047, 20.34788], [-102.33076, 20.34808]]]}}, {"id": "911127", "type": "Feature", "properties": {"id": "911127", "CVEGEO": "1401600200089053", "POBTOT": 0.0, "score_nse": 0.0, "NSE": null, "VIVTOT": 0.0, "GRAPROES": 0.0, "_ent": "14", "_mun": "016", "_loc": "0020"}, "geometry": {"type": "Polygon", "coordinates": [[[-102.32728, 20.3538], [-102.32777, 20.35386], [-102.32768, 20.35458], [-102.32704, 20.35452], [-102.32728, 20.3538]]]}}, {"id": "911168", "type": "Feature", "properties": {"id": "911168", "CVEGEO": "1401600200089040", "POBTOT": 0.0, "score_nse": 0.0, "NSE": null, "VIVTOT": 0.0, "GRAPROES": 0.0, "_ent": "14", "_mun": "016", "_loc": "0020"}, "geometry": {"type": "Polygon", "coordinates": [[[-102.32785, 20.35388], [-102.32842, 20.35398], [-102.3282, 20.35622], [-102.32885, 20.35629], [-102.32861, 20.35716], [-102.32787, 20.35812], [-102.32753, 20.35783], [-102.32803, 20.35723], [-102.3283, 20.35727], [-102.32804, 20.35623], [-102.32753, 20.35613], [-102.32785, 20.35388]]]}}, {"id": "911234", "type": "Feature", "properties": {"id": "911234", "CVEGEO": "1401600200089019", "POBTOT": 0.0, "score_nse": 0.0, "NSE": null, "VIVTOT": 0.0, "GRAPROES": 0.0, "_ent": "14", "_mun": "016", "_loc": "0020"}, "geometry": {"type": "Polygon", "coordinates": [[[-102.33324, 20.35178], [-102.3326, 20.35269], [-102.33222, 20.35296], [-102.33125, 20.35345], [-102.33054, 20.35335], [-102.33017, 20.35465], [-102.32946, 20.35447], [-102.33003, 20.35222], [-102.33082, 20.35236], [-102.33081, 20.35265], [-102.33089, 20.35237], [-102.3323, 20.35256], [-102.33253, 20.35246], [-102.33272, 20.35027], [-102.33165, 20.3493], [-102.33173, 20.34798], [-102.33214, 20.34793], [-102.33205, 20.34912], [-102.33301, 20.34999], [-102.33347, 20.35011], [-102.33348, 20.351], [-102.33455, 20.35109], [-102.33447, 20.3513], [-102.33411, 20.35139], [-102.33356, 20.3519], [-102.33324, 20.35178]]]}}]}