{"type": "FeatureCollection", "features": [{"id": "2298322", "type": "Feature", "properties": {"id": "2298322", "CVEGEO": "3008300290108005", "POBTOT": 0.0, "score_nse": 0.0, "NSE": null, "VIVTOT": 0.0, "GRAPROES": 0.0, "_ent": "30", "_mun": "083", "_loc": "0029"}, "geometry": {"type": "Polygon", "coordinates": [[[-98.02304, 20.58734], [-98.0223, 20.58728], [-98.02193, 20.58689], [-98.02098, 20.5867], [-98.02116, 20.58533], [-98.02221, 20.5858], [-98.02304, 20.58734]]]}}, {"id": "2298323", "type": "Feature", "properties": {"id": "2298323", "CVEGEO": "3008300290108003", "POBTOT": 0.0, "score_nse": 0.0, "NSE": null, "VIVTOT": 0.0, "GRAPROES": 0.0, "_ent": "30", "_mun": "083", "_loc": "0029"}, "geometry": {"type": "Polygon", "coordinates": [[[-98.02373, 20.58732], [-98.02347, 20.58728], [-98.02329, 20.58644], [-98.02297, 20.58608], [-98.02251, 20.58608], [-98.02227, 20.58575], [-98.02302, 20.58571], [-98.02333, 20.58588], [-98.02368, 20.58518], [-98.02396, 20.58549], [-98.02395, 20.58602], [-98.02411, 20.58591], [-98.02461, 20.58604], [-98.02375, 20.58689], [-98.02373, 20.58732]]]}}, {"id": "2298324", "type": "Feature", "properties": {"id": "2298324", "CVEGEO": "3008300290108002", "POBTOT": 0.0, "score_nse": 0.0, "NSE": null, "VIVTOT": 0.0, "GRAPROES": 0.0, "_ent": "30", "_mun": "083", "_loc": "0029"}, "geometry": {"type": "Polygon", "coordinates": [[[-98.02326, 20.58651], [-98.02324, 20.58669], [-98.02313, 20.58664], [-98.02267, 20.58618], [-98.02289, 20.58611], [-98.02326, 20.58651]]]}}, {"id": "2298325", "type": "Feature", "properties": {"id": "2298325", "CVEGEO": "3008300290108001", "POBTOT": 0.0, "score_nse": 0.0, "NSE": null, "VIVTOT": 0.0, "GRAPROES": 0.0, "_ent": "30", "_mun": "083", "_loc": "0029"}, "geometry": {"type": "Polygon", "coordinates": [[[-98.02324, 20.58682], [-98.02315, 20.58728], [-98.02285, 20.58707], [-98.02248, 20.58611], [-98.02324, 20.58682]]]}}, {"id": "2299148", "type": "Feature", "properties": {"id": "2299148", "CVEGEO": "3008300290108006", "POBTOT": 0.0, "score_nse": 0.0, "NSE": null, "VIVTOT": 0.0, "GRAPROES": 0.0, "_ent": "30", "_mun": "083", "_loc": "0029"}, "geometry": {"type": "Polygon", "coordinates": [[[-98.02213, 20.58571], [-98.02154, 20.58555], [-98.021, 20.58518], [-98.02083, 20.58487], [-98.02097, 20.58484], [-98.02092, 20.58468], [-98.0213, 20.5847], [-98.0215, 20.58435], [-98.02196, 20.58455], [-98.02156, 20.58485], [-98.02213, 20.58571]]]}}]}