{"type": "FeatureCollection", "features": [{"id": "2298401", "type": "Feature", "properties": {"id": "2298401", "CVEGEO": "3008300830057007", "POBTOT": 0.0, "score_nse": 0.0, "NSE": null, "VIVTOT": 0.0, "GRAPROES": 0.0, "_ent": "30", "_mun": "083", "_loc": "0083"}, "geometry": {"type": "Polygon", "coordinates": [[[-97.99885, 20.66238], [-97.9987, 20.66208], [-97.99902, 20.66193], [-97.99917, 20.66224], [-97.99885, 20.66238]]]}}, {"id": "2298513", "type": "Feature", "properties": {"id": "2298513", "CVEGEO": "3008300830057001", "POBTOT": 0.0, "score_nse": 0.0, "NSE": null, "VIVTOT": 0.0, "GRAPROES": 0.0, "_ent": "30", "_mun": "083", "_loc": "0083"}, "geometry": {"type": "Polygon", "coordinates": [[[-97.99923, 20.66176], [-97.99863, 20.66205], [-97.99846, 20.66145], [-97.9993, 20.66125], [-97.99923, 20.66176]]]}}, {"id": "2298742", "type": "Feature", "properties": {"id": "2298742", "CVEGEO": "3008300830057005", "POBTOT": 0.0, "score_nse": 0.0, "NSE": null, "VIVTOT": 0.0, "GRAPROES": 0.0, "_ent": "30", "_mun": "083", "_loc": "0083"}, "geometry": {"type": "Polygon", "coordinates": [[[-98.00138, 20.66129], [-97.99972, 20.6621], [-97.99951, 20.66116], [-98.00046, 20.66134], [-98.00138, 20.66129]]]}}, {"id": "2299269", "type": "Feature", "properties": {"id": "2299269", "CVEGEO": "3008300830057002", "POBTOT": 0.0, "score_nse": 0.0, "NSE": null, "VIVTOT": 0.0, "GRAPROES": 0.0, "_ent": "30", "_mun": "083", "_loc": "0083"}, "geometry": {"type": "Polygon", "coordinates": [[[-97.99873, 20.66242], [-97.99781, 20.66279], [-97.99736, 20.66318], [-97.9971, 20.66311], [-97.99692, 20.66267], [-97.99692, 20.66254], [-97.99755, 20.66216], [-97.99798, 20.66229], [-97.9986, 20.66211], [-97.99873, 20.66242]]]}}, {"id": "2299338", "type": "Feature", "properties": {"id": "2299338", "CVEGEO": "3008300830057012", "POBTOT": 0.0, "score_nse": 0.0, "NSE": null, "VIVTOT": 0.0, "GRAPROES": 0.0, "_ent": "30", "_mun": "083", "_loc": "0083"}, "geometry": {"type": "Polygon", "coordinates": [[[-98.00018, 20.66247], [-97.99974, 20.66231], [-97.99971, 20.66214], [-98.00019, 20.66199], [-98.00018, 20.66247]]]}}, {"id": "2299339", "type": "Feature", "properties": {"id": "2299339", "CVEGEO": "3008300830057013", "POBTOT": 0.0, "score_nse": 0.0, "NSE": null, "VIVTOT": 0.0, "GRAPROES": 0.0, "_ent": "30", "_mun": "083", "_loc": "0083"}, "geometry": {"type": "Polygon", "coordinates": [[[-97.99967, 20.66214], [-97.99967, 20.66238], [-97.9994, 20.66246], [-97.99932, 20.66225], [-97.99967, 20.66214]]]}}, {"id": "2299340", "type": "Feature", "properties": {"id": "2299340", "CVEGEO": "3008300830057011", "POBTOT": 0.0, "score_nse": 0.0, "NSE": null, "VIVTOT": 0.0, "GRAPROES": 0.0, "_ent": "30", "_mun": "083", "_loc": "0083"}, "geometry": {"type": "Polygon", "coordinates": [[[-97.99967, 20.6621], [-97.99924, 20.66223], [-97.99906, 20.66188], [-97.99928, 20.66175], [-97.99934, 20.66124], [-97.99947, 20.66119], [-97.99967, 20.6621]]]}}, {"id": "2299341", "type": "Feature", "properties": {"id": "2299341", "CVEGEO": "3008300830057010", "POBTOT": 0.0, "score_nse": 0.0, "NSE": null, "VIVTOT": 0.0, "GRAPROES": 0.0, "_ent": "30", "_mun": "083", "_loc": "0083"}, "geometry": {"type": "Polygon", "coordinates": [[[-97.99858, 20.66207], [-97.99832, 20.66218], [-97.9982, 20.66201], [-97.9983, 20.66219], [-97.99798, 20.66226], [-97.99757, 20.66214], [-97.99845, 20.66146], [-97.99858, 20.66207]]]}}, {"id": "2299342", "type": "Feature", "properties": {"id": "2299342", "CVEGEO": "3008300830057008", "POBTOT": 0.0, "score_nse": 0.0, "NSE": null, "VIVTOT": 0.0, "GRAPROES": 0.0, "_ent": "30", "_mun": "083", "_loc": "0083"}, "geometry": {"type": "Polygon", "coordinates": [[[-97.99675, 20.66331], [-97.99657, 20.66294], [-97.99688, 20.66261], [-97.99706, 20.6631], [-97.99675, 20.66331]]]}}, {"id": "2299352", "type": "Feature", "properties": {"id": "2299352", "CVEGEO": "3008300830057009", "POBTOT": 0.0, "score_nse": 0.0, "NSE": null, "VIVTOT": 0.0, "GRAPROES": 0.0, "_ent": "30", "_mun": "083", "_loc": "0083"}, "geometry": {"type": "Polygon", "coordinates": [[[-97.99661, 20.66279], [-97.99679, 20.66237], [-97.9976, 20.66198], [-97.99835, 20.66124], [-97.99935, 20.66105], [-97.9994, 20.66116], [-97.99923, 20.66123], [-97.9985, 20.66137], [-97.99661, 20.66279]]]}}, {"id": "2299375", "type": "Feature", "properties": {"id": "2299375", "CVEGEO": "3008300830057003", "POBTOT": 0.0, "score_nse": 0.0, "NSE": null, "VIVTOT": 0.0, "GRAPROES": 0.0, "_ent": "30", "_mun": "083", "_loc": "0083"}, "geometry": {"type": "Polygon", "coordinates": [[[-97.99817, 20.66293], [-97.99768, 20.66352], [-97.99666, 20.66355], [-97.99667, 20.66333], [-97.99706, 20.66314], [-97.99739, 20.66323], [-97.99803, 20.66273], [-97.99898, 20.66238], [-97.99907, 20.66245], [-97.99902, 20.66235], [-97.99927, 20.66227], [-97.99937, 20.66251], [-97.99992, 20.66233], [-98.00051, 20.66286], [-98.00021, 20.66247], [-98.00022, 20.66198], [-98.00041, 20.66191], [-98.00058, 20.66238], [-98.00078, 20.66238], [-98.00099, 20.66215], [-98.00081, 20.66167], [-98.00136, 20.66136], [-98.00143, 20.66153], [-98.00115, 20.66249], [-98.00049, 20.66339], [-97.99944, 20.66304], [-97.99867, 20.66309], [-97.99817, 20.66293]]]}}, {"id": "2299376", "type": "Feature", "properties": {"id": "2299376", "CVEGEO": "3008300830057006", "POBTOT": 0.0, "score_nse": 0.0, "NSE": null, "VIVTOT": 0.0, "GRAPROES": 0.0, "_ent": "30", "_mun": "083", "_loc": "0083"}, "geometry": {"type": "Polygon", "coordinates": [[[-98.00062, 20.66235], [-98.00044, 20.66189], [-98.00078, 20.66169], [-98.00095, 20.66222], [-98.00062, 20.66235]]]}}]}