{"type": "FeatureCollection", "features": [{"id": "1954676", "type": "Feature", "properties": {"id": "1954676", "CVEGEO": "2500800350403041", "POBTOT": 0.0, "score_nse": 0.0, "NSE": null, "VIVTOT": 0.0, "GRAPROES": 0.0, "_ent": "25", "_mun": "008", "_loc": "0035"}, "geometry": {"type": "Polygon", "coordinates": [[[-106.89079, 24.12301], [-106.89172, 24.12335], [-106.89153, 24.12379], [-106.89058, 24.12346], [-106.89079, 24.12301]]]}}, {"id": "1954677", "type": "Feature", "properties": {"id": "1954677", "CVEGEO": "2500800350403005", "POBTOT": 0.0, "score_nse": 0.0, "NSE": null, "VIVTOT": 0.0, "GRAPROES": 0.0, "_ent": "25", "_mun": "008", "_loc": "0035"}, "geometry": {"type": "Polygon", "coordinates": [[[-106.891, 24.11993], [-106.89194, 24.12029], [-106.89169, 24.12086], [-106.89075, 24.1205], [-106.891, 24.11993]]]}}, {"id": "1954678", "type": "Feature", "properties": {"id": "1954678", "CVEGEO": "2500800350403004", "POBTOT": 0.0, "score_nse": 0.0, "NSE": null, "VIVTOT": 0.0, "GRAPROES": 0.0, "_ent": "25", "_mun": "008", "_loc": "0035"}, "geometry": {"type": "Polygon", "coordinates": [[[-106.89064, 24.12079], [-106.89152, 24.12113], [-106.89127, 24.12171], [-106.89036, 24.12138], [-106.89064, 24.12079]]]}}, {"id": "1954679", "type": "Feature", "properties": {"id": "1954679", "CVEGEO": "2500800350403003", "POBTOT": 0.0, "score_nse": 0.0, "NSE": null, "VIVTOT": 0.0, "GRAPROES": 0.0, "_ent": "25", "_mun": "008", "_loc": "0035"}, "geometry": {"type": "Polygon", "coordinates": [[[-106.89163, 24.12118], [-106.89255, 24.1215], [-106.8923, 24.12209], [-106.89138, 24.12175], [-106.89163, 24.12118]]]}}, {"id": "1954680", "type": "Feature", "properties": {"id": "1954680", "CVEGEO": "2500800350403002", "POBTOT": 0.0, "score_nse": 0.0, "NSE": null, "VIVTOT": 0.0, "GRAPROES": 0.0, "_ent": "25", "_mun": "008", "_loc": "0035"}, "geometry": {"type": "Polygon", "coordinates": [[[-106.89263, 24.12155], [-106.89354, 24.12187], [-106.89328, 24.12245], [-106.89239, 24.12212], [-106.89263, 24.12155]]]}}, {"id": "1954681", "type": "Feature", "properties": {"id": "1954681", "CVEGEO": "2500800350403013", "POBTOT": 0.0, "score_nse": 0.0, "NSE": null, "VIVTOT": 0.0, "GRAPROES": 0.0, "_ent": "25", "_mun": "008", "_loc": "0035"}, "geometry": {"type": "Polygon", "coordinates": [[[-106.89135, 24.12182], [-106.89228, 24.12216], [-106.89204, 24.12267], [-106.89113, 24.1223], [-106.89135, 24.12182]]]}}, {"id": "1954871", "type": "Feature", "properties": {"id": "1954871", "CVEGEO": "2500800350403031", "POBTOT": 0.0, "score_nse": 0.0, "NSE": null, "VIVTOT": 0.0, "GRAPROES": 0.0, "_ent": "25", "_mun": "008", "_loc": "0035"}, "geometry": {"type": "Polygon", "coordinates": [[[-106.89, 24.12197], [-106.88977, 24.12249], [-106.889, 24.12218], [-106.88932, 24.12171], [-106.89, 24.12197]]]}}, {"id": "1954872", "type": "Feature", "properties": {"id": "1954872", "CVEGEO": "2500800350403030", "POBTOT": 0.0, "score_nse": 0.0, "NSE": null, "VIVTOT": 0.0, "GRAPROES": 0.0, "_ent": "25", "_mun": "008", "_loc": "0035"}, "geometry": {"type": "Polygon", "coordinates": [[[-106.88987, 24.12253], [-106.89008, 24.12204], [-106.89096, 24.12237], [-106.89071, 24.1229], [-106.88987, 24.12253]]]}}, {"id": "1954873", "type": "Feature", "properties": {"id": "1954873", "CVEGEO": "2500800350403026", "POBTOT": 0.0, "score_nse": 0.0, "NSE": null, "VIVTOT": 0.0, "GRAPROES": 0.0, "_ent": "25", "_mun": "008", "_loc": "0035"}, "geometry": {"type": "Polygon", "coordinates": [[[-106.89436, 24.12294], [-106.89494, 24.12315], [-106.89492, 24.12368], [-106.89416, 24.12344], [-106.89436, 24.12294]]]}}, {"id": "1954874", "type": "Feature", "properties": {"id": "1954874", "CVEGEO": "2500800350403006", "POBTOT": 0.0, "score_nse": 0.0, "NSE": null, "VIVTOT": 0.0, "GRAPROES": 0.0, "_ent": "25", "_mun": "008", "_loc": "0035"}, "geometry": {"type": "Polygon", "coordinates": [[[-106.89126, 24.11935], [-106.89219, 24.1197], [-106.89197, 24.12021], [-106.89103, 24.11988], [-106.89126, 24.11935]]]}}, {"id": "1955009", "type": "Feature", "properties": {"id": "1955009", "CVEGEO": "2500800350403032", "POBTOT": 0.0, "score_nse": 0.0, "NSE": null, "VIVTOT": 0.0, "GRAPROES": 0.0, "_ent": "25", "_mun": "008", "_loc": "0035"}, "geometry": {"type": "Polygon", "coordinates": [[[-106.89114, 24.11787], [-106.89172, 24.11814], [-106.89152, 24.11858], [-106.89114, 24.11839], [-106.89114, 24.11787]]]}}, {"id": "1955010", "type": "Feature", "properties": {"id": "1955010", "CVEGEO": "2500800350403028", "POBTOT": 0.0, "score_nse": 0.0, "NSE": null, "VIVTOT": 0.0, "GRAPROES": 0.0, "_ent": "25", "_mun": "008", "_loc": "0035"}, "geometry": {"type": "Polygon", "coordinates": [[[-106.89306, 24.12315], [-106.89404, 24.12349], [-106.89382, 24.12402], [-106.89283, 24.12366], [-106.89306, 24.12315]]]}}, {"id": "1955011", "type": "Feature", "properties": {"id": "1955011", "CVEGEO": "2500800350403027", "POBTOT": 0.0, "score_nse": 0.0, "NSE": null, "VIVTOT": 0.0, "GRAPROES": 0.0, "_ent": "25", "_mun": "008", "_loc": "0035"}, "geometry": {"type": "Polygon", "coordinates": [[[-106.89461, 24.12429], [-106.89391, 24.12405], [-106.89413, 24.12352], [-106.89492, 24.12377], [-106.89498, 24.12425], [-106.89461, 24.12429]]]}}, {"id": "1955012", "type": "Feature", "properties": {"id": "1955012", "CVEGEO": "2500800350403025", "POBTOT": 0.0, "score_nse": 0.0, "NSE": null, "VIVTOT": 0.0, "GRAPROES": 0.0, "_ent": "25", "_mun": "008", "_loc": "0035"}, "geometry": {"type": "Polygon", "coordinates": [[[-106.89465, 24.12225], [-106.89524, 24.12241], [-106.89495, 24.12308], [-106.89439, 24.12286], [-106.89465, 24.12225]]]}}, {"id": "1955227", "type": "Feature", "properties": {"id": "1955227", "CVEGEO": "2500800350403051", "POBTOT": 0.0, "score_nse": 0.0, "NSE": null, "VIVTOT": 0.0, "GRAPROES": 0.0, "_ent": "25", "_mun": "008", "_loc": "0035"}, "geometry": {"type": "Polygon", "coordinates": [[[-106.89021, 24.12447], [-106.89032, 24.12402], [-106.89124, 24.12438], [-106.89105, 24.12481], [-106.89021, 24.12447]]]}}, {"id": "1955228", "type": "Feature", "properties": {"id": "1955228", "CVEGEO": "2500800350403050", "POBTOT": 0.0, "score_nse": 0.0, "NSE": null, "VIVTOT": 0.0, "GRAPROES": 0.0, "_ent": "25", "_mun": "008", "_loc": "0035"}, "geometry": {"type": "Polygon", "coordinates": [[[-106.89134, 24.12443], [-106.89223, 24.12478], [-106.89205, 24.1252], [-106.89116, 24.12485], [-106.89134, 24.12443]]]}}, {"id": "1955229", "type": "Feature", "properties": {"id": "1955229", "CVEGEO": "2500800350403049", "POBTOT": 0.0, "score_nse": 0.0, "NSE": null, "VIVTOT": 0.0, "GRAPROES": 0.0, "_ent": "25", "_mun": "008", "_loc": "0035"}, "geometry": {"type": "Polygon", "coordinates": [[[-106.89158, 24.12391], [-106.89247, 24.12423], [-106.89226, 24.12472], [-106.89137, 24.12437], [-106.89158, 24.12391]]]}}, {"id": "1955230", "type": "Feature", "properties": {"id": "1955230", "CVEGEO": "2500800350403047", "POBTOT": 0.0, "score_nse": 0.0, "NSE": null, "VIVTOT": 0.0, "GRAPROES": 0.0, "_ent": "25", "_mun": "008", "_loc": "0035"}, "geometry": {"type": "Polygon", "coordinates": [[[-106.89297, 24.11816], [-106.89344, 24.1184], [-106.89329, 24.11883], [-106.89279, 24.11858], [-106.89297, 24.11816]]]}}, {"id": "1955231", "type": "Feature", "properties": {"id": "1955231", "CVEGEO": "2500800350403045", "POBTOT": 0.0, "score_nse": 0.0, "NSE": null, "VIVTOT": 0.0, "GRAPROES": 0.0, "_ent": "25", "_mun": "008", "_loc": "0035"}, "geometry": {"type": "Polygon", "coordinates": [[[-106.89105, 24.11763], [-106.89106, 24.1172], [-106.89194, 24.11765], [-106.89176, 24.11805], [-106.89105, 24.11763]]]}}, {"id": "1955232", "type": "Feature", "properties": {"id": "1955232", "CVEGEO": "2500800350403044", "POBTOT": 0.0, "score_nse": 0.0, "NSE": null, "VIVTOT": 0.0, "GRAPROES": 0.0, "_ent": "25", "_mun": "008", "_loc": "0035"}, "geometry": {"type": "Polygon", "coordinates": [[[-106.88851, 24.12069], [-106.88816, 24.12051], [-106.88845, 24.1201], [-106.88949, 24.12051], [-106.88891, 24.12147], [-106.88817, 24.12113], [-106.88851, 24.12069]]]}}, {"id": "1955233", "type": "Feature", "properties": {"id": "1955233", "CVEGEO": "2500800350403024", "POBTOT": 0.0, "score_nse": 0.0, "NSE": null, "VIVTOT": 0.0, "GRAPROES": 0.0, "_ent": "25", "_mun": "008", "_loc": "0035"}, "geometry": {"type": "Polygon", "coordinates": [[[-106.89498, 24.12147], [-106.89524, 24.12159], [-106.89522, 24.12218], [-106.89475, 24.12202], [-106.89498, 24.12147]]]}}, {"id": "1955234", "type": "Feature", "properties": {"id": "1955234", "CVEGEO": "2500800350403023", "POBTOT": 0.0, "score_nse": 0.0, "NSE": null, "VIVTOT": 0.0, "GRAPROES": 0.0, "_ent": "25", "_mun": "008", "_loc": "0035"}, "geometry": {"type": "Polygon", "coordinates": [[[-106.89515, 24.12105], [-106.89545, 24.12122], [-106.89526, 24.12153], [-106.895, 24.12141], [-106.89515, 24.12105]]]}}, {"id": "1955235", "type": "Feature", "properties": {"id": "1955235", "CVEGEO": "2500800350403012", "POBTOT": 0.0, "score_nse": 0.0, "NSE": null, "VIVTOT": 0.0, "GRAPROES": 0.0, "_ent": "25", "_mun": "008", "_loc": "0035"}, "geometry": {"type": "Polygon", "coordinates": [[[-106.89236, 24.12219], [-106.89325, 24.12252], [-106.89274, 24.12363], [-106.89185, 24.12331], [-106.89236, 24.12219]]]}}, {"id": "1955236", "type": "Feature", "properties": {"id": "1955236", "CVEGEO": "2500800350403011", "POBTOT": 0.0, "score_nse": 0.0, "NSE": null, "VIVTOT": 0.0, "GRAPROES": 0.0, "_ent": "25", "_mun": "008", "_loc": "0035"}, "geometry": {"type": "Polygon", "coordinates": [[[-106.89334, 24.12255], [-106.89427, 24.1229], [-106.89407, 24.1234], [-106.8931, 24.12307], [-106.89334, 24.12255]]]}}, {"id": "1955237", "type": "Feature", "properties": {"id": "1955237", "CVEGEO": "2500800350403010", "POBTOT": 0.0, "score_nse": 0.0, "NSE": null, "VIVTOT": 0.0, "GRAPROES": 0.0, "_ent": "25", "_mun": "008", "_loc": "0035"}, "geometry": {"type": "Polygon", "coordinates": [[[-106.89364, 24.1219], [-106.89457, 24.12222], [-106.8943, 24.12283], [-106.89337, 24.12248], [-106.89364, 24.1219]]]}}, {"id": "1955238", "type": "Feature", "properties": {"id": "1955238", "CVEGEO": "2500800350403009", "POBTOT": 0.0, "score_nse": 0.0, "NSE": null, "VIVTOT": 0.0, "GRAPROES": 0.0, "_ent": "25", "_mun": "008", "_loc": "0035"}, "geometry": {"type": "Polygon", "coordinates": [[[-106.89401, 24.1211], [-106.89489, 24.12145], [-106.89467, 24.12198], [-106.89377, 24.12163], [-106.89401, 24.1211]]]}}, {"id": "1955239", "type": "Feature", "properties": {"id": "1955239", "CVEGEO": "2500800350403008", "POBTOT": 0.0, "score_nse": 0.0, "NSE": null, "VIVTOT": 0.0, "GRAPROES": 0.0, "_ent": "25", "_mun": "008", "_loc": "0035"}, "geometry": {"type": "Polygon", "coordinates": [[[-106.89427, 24.12058], [-106.89508, 24.12101], [-106.89493, 24.12137], [-106.89404, 24.12104], [-106.89427, 24.12058]]]}}, {"id": "1955240", "type": "Feature", "properties": {"id": "1955240", "CVEGEO": "2500800350403007", "POBTOT": 0.0, "score_nse": 0.0, "NSE": null, "VIVTOT": 0.0, "GRAPROES": 0.0, "_ent": "25", "_mun": "008", "_loc": "0035"}, "geometry": {"type": "Polygon", "coordinates": [[[-106.89229, 24.11974], [-106.89418, 24.12053], [-106.89396, 24.121], [-106.89207, 24.12026], [-106.89229, 24.11974]]]}}, {"id": "1955566", "type": "Feature", "properties": {"id": "1955566", "CVEGEO": "2500800350403029", "POBTOT": 0.0, "score_nse": 0.0, "NSE": null, "VIVTOT": 0.0, "GRAPROES": 0.0, "_ent": "25", "_mun": "008", "_loc": "0035"}, "geometry": {"type": "Polygon", "coordinates": [[[-106.89107, 24.1224], [-106.892, 24.12276], [-106.89175, 24.12328], [-106.89082, 24.12294], [-106.89107, 24.1224]]]}}, {"id": "1955609", "type": "Feature", "properties": {"id": "1955609", "CVEGEO": "2500800350403040", "POBTOT": 0.0, "score_nse": 0.0, "NSE": null, "VIVTOT": 0.0, "GRAPROES": 0.0, "_ent": "25", "_mun": "008", "_loc": "0035"}, "geometry": {"type": "Polygon", "coordinates": [[[-106.89182, 24.12338], [-106.89271, 24.1237], [-106.89251, 24.12414], [-106.89161, 24.12382], [-106.89182, 24.12338]]]}}, {"id": "1955610", "type": "Feature", "properties": {"id": "1955610", "CVEGEO": "2500800350403001", "POBTOT": 0.0, "score_nse": 0.0, "NSE": null, "VIVTOT": 0.0, "GRAPROES": 0.0, "_ent": "25", "_mun": "008", "_loc": "0035"}, "geometry": {"type": "Polygon", "coordinates": [[[-106.89204, 24.12033], [-106.89393, 24.12106], [-106.89368, 24.1216], [-106.8918, 24.1209], [-106.89204, 24.12033]]]}}, {"id": "1956039", "type": "Feature", "properties": {"id": "1956039", "CVEGEO": "2500800350403056", "POBTOT": 0.0, "score_nse": 0.0, "NSE": null, "VIVTOT": 0.0, "GRAPROES": 0.0, "_ent": "25", "_mun": "008", "_loc": "0035"}, "geometry": {"type": "Polygon", "coordinates": [[[-106.89054, 24.12354], [-106.89149, 24.12388], [-106.89127, 24.12433], [-106.89035, 24.12396], [-106.89054, 24.12354]]]}}, {"id": "1956040", "type": "Feature", "properties": {"id": "1956040", "CVEGEO": "2500800350403055", "POBTOT": 0.0, "score_nse": 0.0, "NSE": null, "VIVTOT": 0.0, "GRAPROES": 0.0, "_ent": "25", "_mun": "008", "_loc": "0035"}, "geometry": {"type": "Polygon", "coordinates": [[[-106.89363, 24.12499], [-106.89326, 24.12519], [-106.89304, 24.12483], [-106.89365, 24.12449], [-106.89363, 24.12499]]]}}, {"id": "1956041", "type": "Feature", "properties": {"id": "1956041", "CVEGEO": "2500800350403054", "POBTOT": 0.0, "score_nse": 0.0, "NSE": null, "VIVTOT": 0.0, "GRAPROES": 0.0, "_ent": "25", "_mun": "008", "_loc": "0035"}, "geometry": {"type": "Polygon", "coordinates": [[[-106.89024, 24.12512], [-106.8908, 24.12534], [-106.89039, 24.12626], [-106.8903, 24.12625], [-106.89024, 24.12512]]]}}, {"id": "1956042", "type": "Feature", "properties": {"id": "1956042", "CVEGEO": "2500800350403053", "POBTOT": 0.0, "score_nse": 0.0, "NSE": null, "VIVTOT": 0.0, "GRAPROES": 0.0, "_ent": "25", "_mun": "008", "_loc": "0035"}, "geometry": {"type": "Polygon", "coordinates": [[[-106.89021, 24.12454], [-106.89102, 24.12486], [-106.89082, 24.12529], [-106.89024, 24.12505], [-106.89021, 24.12454]]]}}, {"id": "1956043", "type": "Feature", "properties": {"id": "1956043", "CVEGEO": "2500800350403052", "POBTOT": 0.0, "score_nse": 0.0, "NSE": null, "VIVTOT": 0.0, "GRAPROES": 0.0, "_ent": "25", "_mun": "008", "_loc": "0035"}, "geometry": {"type": "Polygon", "coordinates": [[[-106.89113, 24.1249], [-106.89202, 24.12526], [-106.89153, 24.12557], [-106.89094, 24.12533], [-106.89113, 24.1249]]]}}, {"id": "1956044", "type": "Feature", "properties": {"id": "1956044", "CVEGEO": "2500800350403039", "POBTOT": 0.0, "score_nse": 0.0, "NSE": null, "VIVTOT": 0.0, "GRAPROES": 0.0, "_ent": "25", "_mun": "008", "_loc": "0035"}, "geometry": {"type": "Polygon", "coordinates": [[[-106.89235, 24.12475], [-106.8928, 24.12373], [-106.89379, 24.12409], [-106.89368, 24.12437], [-106.89272, 24.1249], [-106.89235, 24.12475]]]}}, {"id": "1956045", "type": "Feature", "properties": {"id": "1956045", "CVEGEO": "2500800350403038", "POBTOT": 0.0, "score_nse": 0.0, "NSE": null, "VIVTOT": 0.0, "GRAPROES": 0.0, "_ent": "25", "_mun": "008", "_loc": "0035"}, "geometry": {"type": "Polygon", "coordinates": [[[-106.89459, 24.12436], [-106.89455, 24.12461], [-106.89377, 24.1244], [-106.89388, 24.12412], [-106.89459, 24.12436]]]}}, {"id": "1956046", "type": "Feature", "properties": {"id": "1956046", "CVEGEO": "2500800350403037", "POBTOT": 0.0, "score_nse": 0.0, "NSE": null, "VIVTOT": 0.0, "GRAPROES": 0.0, "_ent": "25", "_mun": "008", "_loc": "0035"}, "geometry": {"type": "Polygon", "coordinates": [[[-106.8965, 24.12228], [-106.89689, 24.12245], [-106.89675, 24.12273], [-106.89636, 24.12258], [-106.8965, 24.12228]]]}}, {"id": "1956047", "type": "Feature", "properties": {"id": "1956047", "CVEGEO": "2500800350403036", "POBTOT": 0.0, "score_nse": 0.0, "NSE": null, "VIVTOT": 0.0, "GRAPROES": 0.0, "_ent": "25", "_mun": "008", "_loc": "0035"}, "geometry": {"type": "Polygon", "coordinates": [[[-106.89563, 24.12118], [-106.89667, 24.12078], [-106.89723, 24.12074], [-106.89711, 24.12108], [-106.8966, 24.12108], [-106.89582, 24.12146], [-106.89563, 24.12118]]]}}, {"id": "1956048", "type": "Feature", "properties": {"id": "1956048", "CVEGEO": "2500800350403034", "POBTOT": 0.0, "score_nse": 0.0, "NSE": null, "VIVTOT": 0.0, "GRAPROES": 0.0, "_ent": "25", "_mun": "008", "_loc": "0035"}, "geometry": {"type": "Polygon", "coordinates": [[[-106.89254, 24.11916], [-106.89276, 24.11866], [-106.89326, 24.11892], [-106.89309, 24.11943], [-106.89254, 24.11916]]]}}, {"id": "1956049", "type": "Feature", "properties": {"id": "1956049", "CVEGEO": "2500800350403033", "POBTOT": 0.0, "score_nse": 0.0, "NSE": null, "VIVTOT": 0.0, "GRAPROES": 0.0, "_ent": "25", "_mun": "008", "_loc": "0035"}, "geometry": {"type": "Polygon", "coordinates": [[[-106.89181, 24.11818], [-106.89266, 24.11861], [-106.89245, 24.11911], [-106.89158, 24.11867], [-106.89181, 24.11818]]]}}, {"id": "1956050", "type": "Feature", "properties": {"id": "1956050", "CVEGEO": "2500800350403021", "POBTOT": 0.0, "score_nse": 0.0, "NSE": null, "VIVTOT": 0.0, "GRAPROES": 0.0, "_ent": "25", "_mun": "008", "_loc": "0035"}, "geometry": {"type": "Polygon", "coordinates": [[[-106.89511, 24.12092], [-106.89232, 24.11968], [-106.89251, 24.11925], [-106.89523, 24.12065], [-106.89511, 24.12092]]]}}, {"id": "1956051", "type": "Feature", "properties": {"id": "1956051", "CVEGEO": "2500800350403020", "POBTOT": 0.0, "score_nse": 0.0, "NSE": null, "VIVTOT": 0.0, "GRAPROES": 0.0, "_ent": "25", "_mun": "008", "_loc": "0035"}, "geometry": {"type": "Polygon", "coordinates": [[[-106.89154, 24.11876], [-106.89241, 24.1192], [-106.89222, 24.11964], [-106.8913, 24.1193], [-106.89154, 24.11876]]]}}, {"id": "1956052", "type": "Feature", "properties": {"id": "1956052", "CVEGEO": "2500800350403018", "POBTOT": 0.0, "score_nse": 0.0, "NSE": null, "VIVTOT": 0.0, "GRAPROES": 0.0, "_ent": "25", "_mun": "008", "_loc": "0035"}, "geometry": {"type": "Polygon", "coordinates": [[[-106.89094, 24.11984], [-106.89031, 24.11961], [-106.89047, 24.11909], [-106.89117, 24.11935], [-106.89094, 24.11984]]]}}, {"id": "1956053", "type": "Feature", "properties": {"id": "1956053", "CVEGEO": "2500800350403017", "POBTOT": 0.0, "score_nse": 0.0, "NSE": null, "VIVTOT": 0.0, "GRAPROES": 0.0, "_ent": "25", "_mun": "008", "_loc": "0035"}, "geometry": {"type": "Polygon", "coordinates": [[[-106.89068, 24.12047], [-106.89005, 24.12021], [-106.89026, 24.11968], [-106.89091, 24.11991], [-106.89068, 24.12047]]]}}, {"id": "1956054", "type": "Feature", "properties": {"id": "1956054", "CVEGEO": "2500800350403016", "POBTOT": 0.0, "score_nse": 0.0, "NSE": null, "VIVTOT": 0.0, "GRAPROES": 0.0, "_ent": "25", "_mun": "008", "_loc": "0035"}, "geometry": {"type": "Polygon", "coordinates": [[[-106.89053, 24.12075], [-106.89028, 24.12133], [-106.88969, 24.12113], [-106.88992, 24.12052], [-106.89053, 24.12075]]]}}, {"id": "1956055", "type": "Feature", "properties": {"id": "1956055", "CVEGEO": "2500800350403015", "POBTOT": 0.0, "score_nse": 0.0, "NSE": null, "VIVTOT": 0.0, "GRAPROES": 0.0, "_ent": "25", "_mun": "008", "_loc": "0035"}, "geometry": {"type": "Polygon", "coordinates": [[[-106.89024, 24.12142], [-106.89002, 24.12192], [-106.88943, 24.12169], [-106.88967, 24.12122], [-106.89024, 24.12142]]]}}, {"id": "1956056", "type": "Feature", "properties": {"id": "1956056", "CVEGEO": "2500800350403014", "POBTOT": 0.0, "score_nse": 0.0, "NSE": null, "VIVTOT": 0.0, "GRAPROES": 0.0, "_ent": "25", "_mun": "008", "_loc": "0035"}, "geometry": {"type": "Polygon", "coordinates": [[[-106.89033, 24.12145], [-106.89123, 24.12178], [-106.891, 24.12226], [-106.89012, 24.12194], [-106.89033, 24.12145]]]}}, {"id": "1956263", "type": "Feature", "properties": {"id": "1956263", "CVEGEO": "2500800350403062", "POBTOT": 0.0, "score_nse": 0.0, "NSE": null, "VIVTOT": 0.0, "GRAPROES": 0.0, "_ent": "25", "_mun": "008", "_loc": "0035"}, "geometry": {"type": "Polygon", "coordinates": [[[-106.89082, 24.11822], [-106.89081, 24.11791], [-106.89072, 24.11737], [-106.89093, 24.11739], [-106.89104, 24.11834], [-106.89082, 24.11822]]]}}, {"id": "1956264", "type": "Feature", "properties": {"id": "1956264", "CVEGEO": "2500800350403061", "POBTOT": 0.0, "score_nse": 0.0, "NSE": null, "VIVTOT": 0.0, "GRAPROES": 0.0, "_ent": "25", "_mun": "008", "_loc": "0035"}, "geometry": {"type": "Polygon", "coordinates": [[[-106.88959, 24.12313], [-106.88983, 24.1226], [-106.89067, 24.12298], [-106.89047, 24.12342], [-106.88959, 24.12313]]]}}, {"id": "1956265", "type": "Feature", "properties": {"id": "1956265", "CVEGEO": "2500800350403060", "POBTOT": 0.0, "score_nse": 0.0, "NSE": null, "VIVTOT": 0.0, "GRAPROES": 0.0, "_ent": "25", "_mun": "008", "_loc": "0035"}, "geometry": {"type": "Polygon", "coordinates": [[[-106.89261, 24.12489], [-106.89216, 24.12516], [-106.89229, 24.1248], [-106.89261, 24.12489]]]}}, {"id": "1956267", "type": "Feature", "properties": {"id": "1956267", "CVEGEO": "2500800350403042", "POBTOT": 0.0, "score_nse": 0.0, "NSE": null, "VIVTOT": 0.0, "GRAPROES": 0.0, "_ent": "25", "_mun": "008", "_loc": "0035"}, "geometry": {"type": "Polygon", "coordinates": [[[-106.88957, 24.12317], [-106.89044, 24.12349], [-106.89025, 24.12392], [-106.88937, 24.1236], [-106.88957, 24.12317]]]}}, {"id": "1956289", "type": "Feature", "properties": {"id": "1956289", "CVEGEO": "2500800350403046", "POBTOT": 0.0, "score_nse": 0.0, "NSE": null, "VIVTOT": 0.0, "GRAPROES": 0.0, "_ent": "25", "_mun": "008", "_loc": "0035"}, "geometry": {"type": "Polygon", "coordinates": [[[-106.89185, 24.1181], [-106.89203, 24.11769], [-106.89287, 24.11811], [-106.89269, 24.11853], [-106.89185, 24.1181]]]}}, {"id": "1956292", "type": "Feature", "properties": {"id": "1956292", "CVEGEO": "2500800350403019", "POBTOT": 0.0, "score_nse": 0.0, "NSE": null, "VIVTOT": 0.0, "GRAPROES": 0.0, "_ent": "25", "_mun": "008", "_loc": "0035"}, "geometry": {"type": "Polygon", "coordinates": [[[-106.89082, 24.11827], [-106.89148, 24.11868], [-106.89121, 24.11926], [-106.89052, 24.11899], [-106.89082, 24.11827]]]}}, {"id": "1956325", "type": "Feature", "properties": {"id": "1956325", "CVEGEO": "2500800350403059", "POBTOT": 0.0, "score_nse": 0.0, "NSE": null, "VIVTOT": 0.0, "GRAPROES": 0.0, "_ent": "25", "_mun": "008", "_loc": "0035"}, "geometry": {"type": "Polygon", "coordinates": [[[-106.89238, 24.12565], [-106.89166, 24.12605], [-106.89125, 24.12579], [-106.89213, 24.12528], [-106.89238, 24.12565]]]}}, {"id": "1956343", "type": "Feature", "properties": {"id": "1956343", "CVEGEO": "2500800350403058", "POBTOT": 0.0, "score_nse": 0.0, "NSE": null, "VIVTOT": 0.0, "GRAPROES": 0.0, "_ent": "25", "_mun": "008", "_loc": "0035"}, "geometry": {"type": "Polygon", "coordinates": [[[-106.89244, 24.12561], [-106.89219, 24.12526], [-106.89296, 24.12484], [-106.89317, 24.12522], [-106.89244, 24.12561]]]}}, {"id": "1956533", "type": "Feature", "properties": {"id": "1956533", "CVEGEO": "2500800350403043", "POBTOT": 0.0, "score_nse": 0.0, "NSE": null, "VIVTOT": 0.0, "GRAPROES": 0.0, "_ent": "25", "_mun": "008", "_loc": "0035"}, "geometry": {"type": "Polygon", "coordinates": [[[-106.88975, 24.12257], [-106.88953, 24.12309], [-106.88883, 24.1228], [-106.88909, 24.12228], [-106.88975, 24.12257]]]}}, {"id": "1956534", "type": "Feature", "properties": {"id": "1956534", "CVEGEO": "2500800350403063", "POBTOT": 0.0, "score_nse": 0.0, "NSE": null, "VIVTOT": 0.0, "GRAPROES": 0.0, "_ent": "25", "_mun": "008", "_loc": "0035"}, "geometry": {"type": "Polygon", "coordinates": [[[-106.89145, 24.12559], [-106.89061, 24.12605], [-106.8909, 24.12535], [-106.89145, 24.12559]]]}}, {"id": "1956583", "type": "Feature", "properties": {"id": "1956583", "CVEGEO": "2500800350403022", "POBTOT": 0.0, "score_nse": 0.0, "NSE": null, "VIVTOT": 0.0, "GRAPROES": 0.0, "_ent": "25", "_mun": "008", "_loc": "0035"}, "geometry": {"type": "Polygon", "coordinates": [[[-106.89737, 24.12065], [-106.89665, 24.1207], [-106.89574, 24.12099], [-106.8957, 24.12066], [-106.8957, 24.12105], [-106.89554, 24.12116], [-106.89519, 24.12097], [-106.89544, 24.12036], [-106.89622, 24.12036], [-106.89629, 24.12058], [-106.89684, 24.12046], [-106.89677, 24.12006], [-106.89736, 24.12019], [-106.89737, 24.12065]]]}}, {"id": "1956797", "type": "Feature", "properties": {"id": "1956797", "CVEGEO": "2500800350403064", "POBTOT": 0.0, "score_nse": 0.0, "NSE": null, "VIVTOT": 0.0, "GRAPROES": 0.0, "_ent": "25", "_mun": "008", "_loc": "0035"}, "geometry": {"type": "Polygon", "coordinates": [[[-106.88934, 24.12354], [-106.88864, 24.12328], [-106.88882, 24.12287], [-106.88953, 24.12313], [-106.88934, 24.12354]]]}}, {"id": "1956798", "type": "Feature", "properties": {"id": "1956798", "CVEGEO": "2500800350403065", "POBTOT": 0.0, "score_nse": 0.0, "NSE": null, "VIVTOT": 0.0, "GRAPROES": 0.0, "_ent": "25", "_mun": "008", "_loc": "0035"}, "geometry": {"type": "Polygon", "coordinates": [[[-106.88842, 24.12265], [-106.88884, 24.12223], [-106.88902, 24.12231], [-106.88879, 24.12278], [-106.88842, 24.12265]]]}}, {"id": "1956799", "type": "Feature", "properties": {"id": "1956799", "CVEGEO": "2500800350403066", "POBTOT": 0.0, "score_nse": 0.0, "NSE": null, "VIVTOT": 0.0, "GRAPROES": 0.0, "_ent": "25", "_mun": "008", "_loc": "0035"}, "geometry": {"type": "Polygon", "coordinates": [[[-106.88865, 24.12213], [-106.88878, 24.1222], [-106.88845, 24.12255], [-106.88804, 24.12249], [-106.88865, 24.12213]]]}}]}