{"type": "FeatureCollection", "features": [{"id": "1564849", "type": "Feature", "properties": {"id": "1564849", "CVEGEO": "2040300010054001", "POBTOT": 38.0, "score_nse": 0.0, "NSE": "ND", "VIVTOT": 13.0, "GRAPROES": 10.11, "_ent": "20", "_mun": "403", "_loc": "0001"}, "geometry": {"type": "Polygon", "coordinates": [[[-96.71016, 16.96785], [-96.71006, 16.96871], [-96.70902, 16.96851], [-96.70917, 16.96768], [-96.71016, 16.96785]]]}}, {"id": "1564850", "type": "Feature", "properties": {"id": "1564850", "CVEGEO": "2040300010054002", "POBTOT": 0.0, "score_nse": 0.0, "NSE": "ND", "VIVTOT": 0.0, "GRAPROES": 0.0, "_ent": "20", "_mun": "403", "_loc": "0001"}, "geometry": {"type": "Polygon", "coordinates": [[[-96.71005, 16.96875], [-96.70997, 16.96924], [-96.70892, 16.96904], [-96.70898, 16.96874], [-96.70969, 16.96885], [-96.70899, 16.96869], [-96.70902, 16.96854], [-96.71005, 16.96875]]]}}, {"id": "1564851", "type": "Feature", "properties": {"id": "1564851", "CVEGEO": "2040300010054003", "POBTOT": 35.0, "score_nse": 0.0, "NSE": "ND", "VIVTOT": 10.0, "GRAPROES": 9.5, "_ent": "20", "_mun": "403", "_loc": "0001"}, "geometry": {"type": "Polygon", "coordinates": [[[-96.712, 16.96829], [-96.7119, 16.96874], [-96.71014, 16.96839], [-96.71013, 16.96822], [-96.71018, 16.96792], [-96.712, 16.96829]]]}}, {"id": "1564852", "type": "Feature", "properties": {"id": "1564852", "CVEGEO": "2040300010035015", "POBTOT": 3.0, "score_nse": 0.0, "NSE": "ND", "VIVTOT": 1.0, "GRAPROES": 0.0, "_ent": "20", "_mun": "403", "_loc": "0001"}, "geometry": {"type": "Polygon", "coordinates": [[[-96.70785, 16.96857], [-96.70676, 16.96841], [-96.70695, 16.9673], [-96.70806, 16.96747], [-96.70785, 16.96857]]]}}, {"id": "1564853", "type": "Feature", "properties": {"id": "1564853", "CVEGEO": "2040300010035042", "POBTOT": 5.0, "score_nse": 0.0, "NSE": "ND", "VIVTOT": 1.0, "GRAPROES": 0.0, "_ent": "20", "_mun": "403", "_loc": "0001"}, "geometry": {"type": "Polygon", "coordinates": [[[-96.70454, 16.97143], [-96.70441, 16.97205], [-96.70411, 16.97179], [-96.70356, 16.97197], [-96.70372, 16.97125], [-96.70454, 16.97143]]]}}, {"id": "1564854", "type": "Feature", "properties": {"id": "1564854", "CVEGEO": "2040300010035040", "POBTOT": 35.0, "score_nse": 0.0, "NSE": "ND", "VIVTOT": 7.0, "GRAPROES": 9.78, "_ent": "20", "_mun": "403", "_loc": "0001"}, "geometry": {"type": "Polygon", "coordinates": [[[-96.69994, 16.9684], [-96.70041, 16.96848], [-96.70028, 16.96916], [-96.6998, 16.96909], [-96.69994, 16.9684]]]}}, {"id": "1564855", "type": "Feature", "properties": {"id": "1564855", "CVEGEO": "2040300010035041", "POBTOT": 0.0, "score_nse": 0.0, "NSE": "ND", "VIVTOT": 0.0, "GRAPROES": 0.0, "_ent": "20", "_mun": "403", "_loc": "0001"}, "geometry": {"type": "Polygon", "coordinates": [[[-96.70815, 16.97299], [-96.70915, 16.97309], [-96.70914, 16.97315], [-96.70815, 16.97299]]]}}, {"id": "1564856", "type": "Feature", "properties": {"id": "1564856", "CVEGEO": "204030001004A015", "POBTOT": 64.0, "score_nse": 48.8432, "NSE": "C-", "VIVTOT": 33.0, "GRAPROES": 10.22, "_ent": "20", "_mun": "403", "_loc": "0001"}, "geometry": {"type": "Polygon", "coordinates": [[[-96.70757, 16.96326], [-96.70747, 16.96397], [-96.70714, 16.96392], [-96.70718, 16.96347], [-96.7071, 16.96391], [-96.70641, 16.96383], [-96.70655, 16.96305], [-96.70757, 16.96326]]]}}, {"id": "1564857", "type": "Feature", "properties": {"id": "1564857", "CVEGEO": "204030001004A004", "POBTOT": 60.0, "score_nse": 47.14, "NSE": "C-", "VIVTOT": 20.0, "GRAPROES": 9.52, "_ent": "20", "_mun": "403", "_loc": "0001"}, "geometry": {"type": "Polygon", "coordinates": [[[-96.70622, 16.96487], [-96.7064, 16.96389], [-96.70745, 16.96403], [-96.70727, 16.96503], [-96.70622, 16.96487]]]}}, {"id": "1564858", "type": "Feature", "properties": {"id": "1564858", "CVEGEO": "2040300010035030", "POBTOT": 12.0, "score_nse": 0.0, "NSE": "ND", "VIVTOT": 6.0, "GRAPROES": 9.0, "_ent": "20", "_mun": "403", "_loc": "0001"}, "geometry": {"type": "Polygon", "coordinates": [[[-96.70817, 16.97289], [-96.70662, 16.97271], [-96.70636, 16.97165], [-96.70738, 16.97145], [-96.70795, 16.97152], [-96.70781, 16.97226], [-96.70827, 16.97238], [-96.70817, 16.97289]]]}}, {"id": "1564859", "type": "Feature", "properties": {"id": "1564859", "CVEGEO": "2040300010035029", "POBTOT": 36.0, "score_nse": 53.4622, "NSE": "C-", "VIVTOT": 18.0, "GRAPROES": 11.59, "_ent": "20", "_mun": "403", "_loc": "0001"}, "geometry": {"type": "Polygon", "coordinates": [[[-96.7081, 16.97663], [-96.70823, 16.97573], [-96.7087, 16.97581], [-96.70862, 16.97675], [-96.7081, 16.97663]]]}}, {"id": "1564860", "type": "Feature", "properties": {"id": "1564860", "CVEGEO": "2040300010035028", "POBTOT": 81.0, "score_nse": 0.0, "NSE": "ND", "VIVTOT": 40.0, "GRAPROES": 8.88, "_ent": "20", "_mun": "403", "_loc": "0001"}, "geometry": {"type": "Polygon", "coordinates": [[[-96.70476, 16.96974], [-96.7041, 16.96955], [-96.70441, 16.96806], [-96.70516, 16.9682], [-96.70476, 16.96974]]]}}, {"id": "1564861", "type": "Feature", "properties": {"id": "1564861", "CVEGEO": "2040300010035027", "POBTOT": 16.0, "score_nse": 0.0, "NSE": "ND", "VIVTOT": 4.0, "GRAPROES": 7.46, "_ent": "20", "_mun": "403", "_loc": "0001"}, "geometry": {"type": "Polygon", "coordinates": [[[-96.70842, 16.98009], [-96.70756, 16.97657], [-96.70862, 16.9768], [-96.70842, 16.98009]]]}}, {"id": "1564862", "type": "Feature", "properties": {"id": "1564862", "CVEGEO": "2040300010035026", "POBTOT": 35.0, "score_nse": 58.3451, "NSE": "C", "VIVTOT": 14.0, "GRAPROES": 10.63, "_ent": "20", "_mun": "403", "_loc": "0001"}, "geometry": {"type": "Polygon", "coordinates": [[[-96.70824, 16.97568], [-96.70841, 16.97473], [-96.70886, 16.97481], [-96.70871, 16.97577], [-96.70824, 16.97568]]]}}, {"id": "1564863", "type": "Feature", "properties": {"id": "1564863", "CVEGEO": "204030001004A012", "POBTOT": 109.0, "score_nse": 0.0, "NSE": "ND", "VIVTOT": 39.0, "GRAPROES": 9.24, "_ent": "20", "_mun": "403", "_loc": "0001"}, "geometry": {"type": "Polygon", "coordinates": [[[-96.70387, 16.96456], [-96.70405, 16.96354], [-96.70515, 16.9637], [-96.70503, 16.96431], [-96.70458, 16.96424], [-96.70502, 16.96435], [-96.70495, 16.96471], [-96.70387, 16.96456]]]}}, {"id": "1564864", "type": "Feature", "properties": {"id": "1564864", "CVEGEO": "2040300010035039", "POBTOT": 3.0, "score_nse": 0.0, "NSE": "ND", "VIVTOT": 1.0, "GRAPROES": 0.0, "_ent": "20", "_mun": "403", "_loc": "0001"}, "geometry": {"type": "Polygon", "coordinates": [[[-96.70087, 16.96643], [-96.7022, 16.96664], [-96.70191, 16.96828], [-96.7005, 16.96844], [-96.70087, 16.96643]]]}}, {"id": "1564865", "type": "Feature", "properties": {"id": "1564865", "CVEGEO": "2040300010035024", "POBTOT": 8.0, "score_nse": 0.0, "NSE": "ND", "VIVTOT": 2.0, "GRAPROES": 0.0, "_ent": "20", "_mun": "403", "_loc": "0001"}, "geometry": {"type": "Polygon", "coordinates": [[[-96.70903, 16.9738], [-96.70858, 16.97371], [-96.70868, 16.9731], [-96.70913, 16.97317], [-96.70903, 16.9738]]]}}, {"id": "1564866", "type": "Feature", "properties": {"id": "1564866", "CVEGEO": "2040300010035018", "POBTOT": 49.0, "score_nse": 0.0, "NSE": "ND", "VIVTOT": 24.0, "GRAPROES": 11.15, "_ent": "20", "_mun": "403", "_loc": "0001"}, "geometry": {"type": "Polygon", "coordinates": [[[-96.70032, 16.96922], [-96.70047, 16.96849], [-96.70226, 16.96828], [-96.70196, 16.96928], [-96.70122, 16.96914], [-96.70194, 16.96931], [-96.70177, 16.96945], [-96.69973, 16.96942], [-96.69979, 16.96913], [-96.70032, 16.96922]]]}}, {"id": "1564867", "type": "Feature", "properties": {"id": "1564867", "CVEGEO": "2040300010035016", "POBTOT": 61.0, "score_nse": 0.0, "NSE": "ND", "VIVTOT": 24.0, "GRAPROES": 8.57, "_ent": "20", "_mun": "403", "_loc": "0001"}, "geometry": {"type": "Polygon", "coordinates": [[[-96.70713, 16.97014], [-96.70645, 16.97001], [-96.70674, 16.96845], [-96.70702, 16.96849], [-96.70698, 16.96896], [-96.70706, 16.9685], [-96.70735, 16.96855], [-96.70728, 16.96918], [-96.70739, 16.96855], [-96.70784, 16.96862], [-96.70761, 16.96991], [-96.70713, 16.97014]]]}}, {"id": "1564868", "type": "Feature", "properties": {"id": "1564868", "CVEGEO": "2040300010035014", "POBTOT": 36.0, "score_nse": 0.0, "NSE": "ND", "VIVTOT": 10.0, "GRAPROES": 10.0, "_ent": "20", "_mun": "403", "_loc": "0001"}, "geometry": {"type": "Polygon", "coordinates": [[[-96.70185, 16.96947], [-96.70214, 16.96912], [-96.70234, 16.96826], [-96.70312, 16.96819], [-96.70281, 16.96973], [-96.70185, 16.96947]]]}}, {"id": "1564869", "type": "Feature", "properties": {"id": "1564869", "CVEGEO": "2040300010035037", "POBTOT": 10.0, "score_nse": 0.0, "NSE": "ND", "VIVTOT": 4.0, "GRAPROES": 0.0, "_ent": "20", "_mun": "403", "_loc": "0001"}, "geometry": {"type": "Polygon", "coordinates": [[[-96.70225, 16.97157], [-96.70181, 16.97114], [-96.70114, 16.97103], [-96.70081, 16.97114], [-96.70063, 16.97097], [-96.70128, 16.97057], [-96.70158, 16.96961], [-96.70173, 16.96954], [-96.70261, 16.96977], [-96.70225, 16.97157]]]}}, {"id": "1564870", "type": "Feature", "properties": {"id": "1564870", "CVEGEO": "2040300010035036", "POBTOT": 76.0, "score_nse": 0.0, "NSE": "ND", "VIVTOT": 27.0, "GRAPROES": 9.52, "_ent": "20", "_mun": "403", "_loc": "0001"}, "geometry": {"type": "Polygon", "coordinates": [[[-96.70302, 16.9719], [-96.70357, 16.96985], [-96.704, 16.96974], [-96.7035, 16.97196], [-96.70302, 16.9719]]]}}, {"id": "1564871", "type": "Feature", "properties": {"id": "1564871", "CVEGEO": "2040300010035034", "POBTOT": 115.0, "score_nse": 0.0, "NSE": "ND", "VIVTOT": 31.0, "GRAPROES": 8.95, "_ent": "20", "_mun": "403", "_loc": "0001"}, "geometry": {"type": "Polygon", "coordinates": [[[-96.70251, 16.97052], [-96.70292, 16.97061], [-96.70269, 16.97186], [-96.70228, 16.97168], [-96.70251, 16.97052]]]}}, {"id": "1564872", "type": "Feature", "properties": {"id": "1564872", "CVEGEO": "2040300010035033", "POBTOT": 80.0, "score_nse": 50.7103, "NSE": "C-", "VIVTOT": 21.0, "GRAPROES": 8.76, "_ent": "20", "_mun": "403", "_loc": "0001"}, "geometry": {"type": "Polygon", "coordinates": [[[-96.70635, 16.9716], [-96.70634, 16.97056], [-96.70766, 16.97077], [-96.70762, 16.971], [-96.70769, 16.97077], [-96.70808, 16.97084], [-96.70796, 16.97148], [-96.70735, 16.9714], [-96.70635, 16.9716]]]}}, {"id": "1564873", "type": "Feature", "properties": {"id": "1564873", "CVEGEO": "2040300010035021", "POBTOT": 3.0, "score_nse": 0.0, "NSE": "ND", "VIVTOT": 2.0, "GRAPROES": 0.0, "_ent": "20", "_mun": "403", "_loc": "0001"}, "geometry": {"type": "Polygon", "coordinates": [[[-96.70812, 16.97292], [-96.70722, 16.97282], [-96.70705, 16.97324], [-96.70672, 16.97317], [-96.70663, 16.97275], [-96.70812, 16.97292]]]}}, {"id": "1564874", "type": "Feature", "properties": {"id": "1564874", "CVEGEO": "204030001004A024", "POBTOT": 0.0, "score_nse": 0.0, "NSE": "ND", "VIVTOT": 0.0, "GRAPROES": 0.0, "_ent": "20", "_mun": "403", "_loc": "0001"}, "geometry": {"type": "Polygon", "coordinates": [[[-96.70939, 16.96652], [-96.70979, 16.96436], [-96.71077, 16.96452], [-96.71037, 16.96663], [-96.70939, 16.96652]]]}}, {"id": "1564875", "type": "Feature", "properties": {"id": "1564875", "CVEGEO": "204030001004A001", "POBTOT": 40.0, "score_nse": 48.8235, "NSE": "C-", "VIVTOT": 16.0, "GRAPROES": 9.14, "_ent": "20", "_mun": "403", "_loc": "0001"}, "geometry": {"type": "Polygon", "coordinates": [[[-96.70603, 16.96602], [-96.70621, 16.96493], [-96.70725, 16.96509], [-96.70706, 16.96617], [-96.70603, 16.96602]]]}}, {"id": "1564876", "type": "Feature", "properties": {"id": "1564876", "CVEGEO": "204030001004A021", "POBTOT": 0.0, "score_nse": 0.0, "NSE": "ND", "VIVTOT": 0.0, "GRAPROES": 0.0, "_ent": "20", "_mun": "403", "_loc": "0001"}, "geometry": {"type": "Polygon", "coordinates": [[[-96.70379, 16.96454], [-96.70149, 16.96417], [-96.70176, 16.96299], [-96.70293, 16.96315], [-96.70339, 16.96355], [-96.70414, 16.96272], [-96.70379, 16.96454]]]}}, {"id": "1564877", "type": "Feature", "properties": {"id": "1564877", "CVEGEO": "204030001004A003", "POBTOT": 86.0, "score_nse": 49.9188, "NSE": "C-", "VIVTOT": 27.0, "GRAPROES": 9.8, "_ent": "20", "_mun": "403", "_loc": "0001"}, "geometry": {"type": "Polygon", "coordinates": [[[-96.70603, 16.96487], [-96.70501, 16.96472], [-96.70521, 16.96371], [-96.70621, 16.96388], [-96.70603, 16.96487]]]}}, {"id": "1564878", "type": "Feature", "properties": {"id": "1564878", "CVEGEO": "204030001004A002", "POBTOT": 47.0, "score_nse": 0.0, "NSE": "ND", "VIVTOT": 24.0, "GRAPROES": 8.75, "_ent": "20", "_mun": "403", "_loc": "0001"}, "geometry": {"type": "Polygon", "coordinates": [[[-96.70481, 16.96583], [-96.705, 16.96478], [-96.70603, 16.96493], [-96.70584, 16.96599], [-96.70481, 16.96583]]]}}, {"id": "1564879", "type": "Feature", "properties": {"id": "1564879", "CVEGEO": "2040300010035025", "POBTOT": 31.0, "score_nse": 64.468, "NSE": "C", "VIVTOT": 10.0, "GRAPROES": 10.86, "_ent": "20", "_mun": "403", "_loc": "0001"}, "geometry": {"type": "Polygon", "coordinates": [[[-96.70842, 16.97468], [-96.70857, 16.97375], [-96.70902, 16.97385], [-96.70887, 16.97476], [-96.70842, 16.97468]]]}}, {"id": "1564880", "type": "Feature", "properties": {"id": "1564880", "CVEGEO": "2040300010035004", "POBTOT": 16.0, "score_nse": 0.0, "NSE": "ND", "VIVTOT": 5.0, "GRAPROES": 8.07, "_ent": "20", "_mun": "403", "_loc": "0001"}, "geometry": {"type": "Polygon", "coordinates": [[[-96.70441, 16.96801], [-96.7046, 16.967], [-96.70562, 16.96718], [-96.70548, 16.9682], [-96.70441, 16.96801]]]}}, {"id": "1564881", "type": "Feature", "properties": {"id": "1564881", "CVEGEO": "2040300010035003", "POBTOT": 67.0, "score_nse": 0.0, "NSE": "ND", "VIVTOT": 16.0, "GRAPROES": 10.87, "_ent": "20", "_mun": "403", "_loc": "0001"}, "geometry": {"type": "Polygon", "coordinates": [[[-96.70337, 16.96727], [-96.70382, 16.96734], [-96.70339, 16.96722], [-96.70346, 16.96683], [-96.70455, 16.96698], [-96.70435, 16.96801], [-96.70321, 16.96812], [-96.70337, 16.96727]]]}}, {"id": "1564882", "type": "Feature", "properties": {"id": "1564882", "CVEGEO": "2040300010035002", "POBTOT": 106.0, "score_nse": 0.0, "NSE": "ND", "VIVTOT": 29.0, "GRAPROES": 9.42, "_ent": "20", "_mun": "403", "_loc": "0001"}, "geometry": {"type": "Polygon", "coordinates": [[[-96.70403, 16.96957], [-96.70288, 16.96975], [-96.70308, 16.96878], [-96.70346, 16.96882], [-96.70309, 16.96875], [-96.7032, 16.96818], [-96.70435, 16.96805], [-96.70403, 16.96957]]]}}, {"id": "1564883", "type": "Feature", "properties": {"id": "1564883", "CVEGEO": "204030001004A018", "POBTOT": 4.0, "score_nse": 0.0, "NSE": "ND", "VIVTOT": 4.0, "GRAPROES": 0.0, "_ent": "20", "_mun": "403", "_loc": "0001"}, "geometry": {"type": "Polygon", "coordinates": [[[-96.70814, 16.96742], [-96.70833, 16.9664], [-96.70932, 16.96656], [-96.70913, 16.96762], [-96.70814, 16.96742]]]}}, {"id": "1564884", "type": "Feature", "properties": {"id": "1564884", "CVEGEO": "204030001004A016", "POBTOT": 0.0, "score_nse": 0.0, "NSE": "ND", "VIVTOT": 0.0, "GRAPROES": 0.0, "_ent": "20", "_mun": "403", "_loc": "0001"}, "geometry": {"type": "Polygon", "coordinates": [[[-96.70854, 16.9652], [-96.70874, 16.96421], [-96.70971, 16.96441], [-96.70955, 16.96538], [-96.70854, 16.9652]]]}}, {"id": "1564885", "type": "Feature", "properties": {"id": "1564885", "CVEGEO": "204030001004A014", "POBTOT": 35.0, "score_nse": 58.584, "NSE": "C", "VIVTOT": 10.0, "GRAPROES": 10.12, "_ent": "20", "_mun": "403", "_loc": "0001"}, "geometry": {"type": "Polygon", "coordinates": [[[-96.7052, 16.96364], [-96.70531, 16.96296], [-96.70573, 16.96283], [-96.70638, 16.96297], [-96.70623, 16.96381], [-96.7052, 16.96364]]]}}, {"id": "1564886", "type": "Feature", "properties": {"id": "1564886", "CVEGEO": "204030001004A013", "POBTOT": 40.0, "score_nse": 0.0, "NSE": "ND", "VIVTOT": 17.0, "GRAPROES": 10.29, "_ent": "20", "_mun": "403", "_loc": "0001"}, "geometry": {"type": "Polygon", "coordinates": [[[-96.70435, 16.96351], [-96.7044, 16.96301], [-96.70431, 16.9635], [-96.70407, 16.96347], [-96.70418, 16.9627], [-96.70495, 16.96276], [-96.70525, 16.96294], [-96.70515, 16.96363], [-96.70435, 16.96351]]]}}, {"id": "1564887", "type": "Feature", "properties": {"id": "1564887", "CVEGEO": "204030001004A011", "POBTOT": 114.0, "score_nse": 0.0, "NSE": "ND", "VIVTOT": 37.0, "GRAPROES": 9.09, "_ent": "20", "_mun": "403", "_loc": "0001"}, "geometry": {"type": "Polygon", "coordinates": [[[-96.70369, 16.96566], [-96.70387, 16.96462], [-96.70493, 16.96477], [-96.70475, 16.96582], [-96.70369, 16.96566]]]}}, {"id": "1564888", "type": "Feature", "properties": {"id": "1564888", "CVEGEO": "2040300010035013", "POBTOT": 34.0, "score_nse": 68.205, "NSE": "C", "VIVTOT": 8.0, "GRAPROES": 10.64, "_ent": "20", "_mun": "403", "_loc": "0001"}, "geometry": {"type": "Polygon", "coordinates": [[[-96.70268, 16.96977], [-96.70351, 16.96986], [-96.70298, 16.9719], [-96.70272, 16.97187], [-96.70297, 16.97058], [-96.70252, 16.97049], [-96.70268, 16.96977]]]}}, {"id": "1564889", "type": "Feature", "properties": {"id": "1564889", "CVEGEO": "2040300010035011", "POBTOT": 38.0, "score_nse": 0.0, "NSE": "ND", "VIVTOT": 12.0, "GRAPROES": 12.13, "_ent": "20", "_mun": "403", "_loc": "0001"}, "geometry": {"type": "Polygon", "coordinates": [[[-96.70373, 16.9712], [-96.70405, 16.96975], [-96.70443, 16.96982], [-96.7041, 16.97128], [-96.70373, 16.9712]]]}}, {"id": "1564890", "type": "Feature", "properties": {"id": "1564890", "CVEGEO": "2040300010035010", "POBTOT": 30.0, "score_nse": 0.0, "NSE": "ND", "VIVTOT": 20.0, "GRAPROES": 12.68, "_ent": "20", "_mun": "403", "_loc": "0001"}, "geometry": {"type": "Polygon", "coordinates": [[[-96.70448, 16.96983], [-96.70486, 16.96991], [-96.70455, 16.97137], [-96.70416, 16.97129], [-96.70448, 16.96983]]]}}, {"id": "1564891", "type": "Feature", "properties": {"id": "1564891", "CVEGEO": "2040300010035009", "POBTOT": 47.0, "score_nse": 55.9453, "NSE": "C", "VIVTOT": 15.0, "GRAPROES": 9.73, "_ent": "20", "_mun": "403", "_loc": "0001"}, "geometry": {"type": "Polygon", "coordinates": [[[-96.70449, 16.97223], [-96.70492, 16.96992], [-96.70519, 16.96996], [-96.70548, 16.97013], [-96.70505, 16.97216], [-96.70449, 16.97223]]]}}, {"id": "1564892", "type": "Feature", "properties": {"id": "1564892", "CVEGEO": "2040300010035001", "POBTOT": 57.0, "score_nse": 60.8295, "NSE": "C", "VIVTOT": 16.0, "GRAPROES": 11.76, "_ent": "20", "_mun": "403", "_loc": "0001"}, "geometry": {"type": "Polygon", "coordinates": [[[-96.70542, 16.97003], [-96.70492, 16.96977], [-96.70524, 16.96822], [-96.70547, 16.96827], [-96.70579, 16.96991], [-96.70542, 16.97003]]]}}, {"id": "1564893", "type": "Feature", "properties": {"id": "1564893", "CVEGEO": "204030001004A019", "POBTOT": 35.0, "score_nse": 0.0, "NSE": "ND", "VIVTOT": 11.0, "GRAPROES": 9.04, "_ent": "20", "_mun": "403", "_loc": "0001"}, "geometry": {"type": "Polygon", "coordinates": [[[-96.70226, 16.96658], [-96.70246, 16.96552], [-96.7036, 16.9657], [-96.70341, 16.96677], [-96.70226, 16.96658]]]}}, {"id": "1564894", "type": "Feature", "properties": {"id": "1564894", "CVEGEO": "204030001004A009", "POBTOT": 54.0, "score_nse": 53.8569, "NSE": "C-", "VIVTOT": 18.0, "GRAPROES": 9.87, "_ent": "20", "_mun": "403", "_loc": "0001"}, "geometry": {"type": "Polygon", "coordinates": [[[-96.70563, 16.96712], [-96.70461, 16.96694], [-96.7048, 16.96589], [-96.70582, 16.96604], [-96.70563, 16.96712]]]}}, {"id": "1564895", "type": "Feature", "properties": {"id": "1564895", "CVEGEO": "204030001004A026", "POBTOT": 0.0, "score_nse": 0.0, "NSE": "ND", "VIVTOT": 0.0, "GRAPROES": 0.0, "_ent": "20", "_mun": "403", "_loc": "0001"}, "geometry": {"type": "Polygon", "coordinates": [[[-96.7012, 16.96526], [-96.70147, 16.96424], [-96.70259, 16.96442], [-96.70241, 16.96542], [-96.7012, 16.96526]]]}}, {"id": "1564896", "type": "Feature", "properties": {"id": "1564896", "CVEGEO": "204030001004A023", "POBTOT": 7.0, "score_nse": 0.0, "NSE": "ND", "VIVTOT": 4.0, "GRAPROES": 0.0, "_ent": "20", "_mun": "403", "_loc": "0001"}, "geometry": {"type": "Polygon", "coordinates": [[[-96.70875, 16.96415], [-96.70914, 16.9621], [-96.71124, 16.96243], [-96.71085, 16.96445], [-96.70875, 16.96415]]]}}, {"id": "1564897", "type": "Feature", "properties": {"id": "1564897", "CVEGEO": "204030001004A008", "POBTOT": 25.0, "score_nse": 0.0, "NSE": "ND", "VIVTOT": 7.0, "GRAPROES": 8.0, "_ent": "20", "_mun": "403", "_loc": "0001"}, "geometry": {"type": "Polygon", "coordinates": [[[-96.70584, 16.9671], [-96.70602, 16.96607], [-96.70705, 16.96623], [-96.70688, 16.96723], [-96.70584, 16.9671]]]}}, {"id": "1564898", "type": "Feature", "properties": {"id": "1564898", "CVEGEO": "204030001004A006", "POBTOT": 85.0, "score_nse": 0.0, "NSE": "ND", "VIVTOT": 29.0, "GRAPROES": 9.48, "_ent": "20", "_mun": "403", "_loc": "0001"}, "geometry": {"type": "Polygon", "coordinates": [[[-96.70714, 16.96617], [-96.70733, 16.96508], [-96.70847, 16.96525], [-96.70828, 16.96634], [-96.70714, 16.96617]]]}}, {"id": "1564899", "type": "Feature", "properties": {"id": "1564899", "CVEGEO": "204030001004A005", "POBTOT": 67.0, "score_nse": 46.6933, "NSE": "C-", "VIVTOT": 24.0, "GRAPROES": 8.35, "_ent": "20", "_mun": "403", "_loc": "0001"}, "geometry": {"type": "Polygon", "coordinates": [[[-96.70848, 16.9652], [-96.70734, 16.96504], [-96.70752, 16.96403], [-96.70867, 16.96421], [-96.70848, 16.9652]]]}}, {"id": "1564900", "type": "Feature", "properties": {"id": "1564900", "CVEGEO": "2040300010035008", "POBTOT": 0.0, "score_nse": 10.0, "NSE": "E", "VIVTOT": 1.0, "GRAPROES": 0.0, "_ent": "20", "_mun": "403", "_loc": "0001"}, "geometry": {"type": "Polygon", "coordinates": [[[-96.7051, 16.97217], [-96.70554, 16.97011], [-96.70581, 16.97002], [-96.70617, 16.97166], [-96.70575, 16.97214], [-96.7051, 16.97217]]]}}, {"id": "1564901", "type": "Feature", "properties": {"id": "1564901", "CVEGEO": "2040300010035007", "POBTOT": 0.0, "score_nse": 0.0, "NSE": "ND", "VIVTOT": 0.0, "GRAPROES": 0.0, "_ent": "20", "_mun": "403", "_loc": "0001"}, "geometry": {"type": "Polygon", "coordinates": [[[-96.706, 16.96996], [-96.70638, 16.97004], [-96.70621, 16.97088], [-96.706, 16.96996]]]}}, {"id": "1564902", "type": "Feature", "properties": {"id": "1564902", "CVEGEO": "2040300010035006", "POBTOT": 10.0, "score_nse": 0.0, "NSE": "ND", "VIVTOT": 5.0, "GRAPROES": 8.29, "_ent": "20", "_mun": "403", "_loc": "0001"}, "geometry": {"type": "Polygon", "coordinates": [[[-96.706, 16.9699], [-96.70571, 16.96856], [-96.70569, 16.96832], [-96.70669, 16.96845], [-96.7064, 16.97], [-96.706, 16.9699]]]}}, {"id": "1564903", "type": "Feature", "properties": {"id": "1564903", "CVEGEO": "2040300010035005", "POBTOT": 68.0, "score_nse": 0.0, "NSE": "ND", "VIVTOT": 21.0, "GRAPROES": 9.82, "_ent": "20", "_mun": "403", "_loc": "0001"}, "geometry": {"type": "Polygon", "coordinates": [[[-96.70569, 16.96826], [-96.70583, 16.96716], [-96.70688, 16.9673], [-96.7067, 16.96839], [-96.70569, 16.96826]]]}}, {"id": "1564904", "type": "Feature", "properties": {"id": "1564904", "CVEGEO": "2040300010035019", "POBTOT": 95.0, "score_nse": 53.8034, "NSE": "C-", "VIVTOT": 26.0, "GRAPROES": 9.67, "_ent": "20", "_mun": "403", "_loc": "0001"}, "geometry": {"type": "Polygon", "coordinates": [[[-96.69796, 16.96833], [-96.69798, 16.96809], [-96.6992, 16.96759], [-96.69922, 16.96808], [-96.69925, 16.96755], [-96.69947, 16.96736], [-96.69949, 16.96765], [-96.6995, 16.96734], [-96.70016, 16.96631], [-96.70081, 16.96643], [-96.70038, 16.96841], [-96.69796, 16.96833]]]}}, {"id": "1564905", "type": "Feature", "properties": {"id": "1564905", "CVEGEO": "2040300010035043", "POBTOT": 33.0, "score_nse": 0.0, "NSE": "ND", "VIVTOT": 14.0, "GRAPROES": 10.12, "_ent": "20", "_mun": "403", "_loc": "0001"}, "geometry": {"type": "Polygon", "coordinates": [[[-96.70102, 16.96532], [-96.70239, 16.96553], [-96.70218, 16.96657], [-96.7002, 16.96624], [-96.70042, 16.96575], [-96.70102, 16.96532]]]}}, {"id": "1564921", "type": "Feature", "properties": {"id": "1564921", "CVEGEO": "2040300010035044", "POBTOT": 37.0, "score_nse": 0.0, "NSE": "ND", "VIVTOT": 10.0, "GRAPROES": 9.04, "_ent": "20", "_mun": "403", "_loc": "0001"}, "geometry": {"type": "Polygon", "coordinates": [[[-96.70149, 16.96956], [-96.70144, 16.96987], [-96.69967, 16.9698], [-96.69971, 16.96955], [-96.70149, 16.96956]]]}}, {"id": "1564922", "type": "Feature", "properties": {"id": "1564922", "CVEGEO": "2040300010035045", "POBTOT": 0.0, "score_nse": 0.0, "NSE": "ND", "VIVTOT": 0.0, "GRAPROES": 0.0, "_ent": "20", "_mun": "403", "_loc": "0001"}, "geometry": {"type": "Polygon", "coordinates": [[[-96.70143, 16.96995], [-96.70124, 16.97053], [-96.69929, 16.97139], [-96.69965, 16.96983], [-96.70143, 16.96995]]]}}, {"id": "1564923", "type": "Feature", "properties": {"id": "1564923", "CVEGEO": "204030001004A017", "POBTOT": 67.0, "score_nse": 52.3446, "NSE": "C-", "VIVTOT": 19.0, "GRAPROES": 9.39, "_ent": "20", "_mun": "403", "_loc": "0001"}, "geometry": {"type": "Polygon", "coordinates": [[[-96.70833, 16.96636], [-96.7084, 16.96597], [-96.70875, 16.96602], [-96.70841, 16.96594], [-96.70853, 16.96526], [-96.70954, 16.96543], [-96.70934, 16.96653], [-96.70833, 16.96636]]]}}, {"id": "1564936", "type": "Feature", "properties": {"id": "1564936", "CVEGEO": "2040300010035038", "POBTOT": 7.0, "score_nse": 0.0, "NSE": "ND", "VIVTOT": 4.0, "GRAPROES": 0.0, "_ent": "20", "_mun": "403", "_loc": "0001"}, "geometry": {"type": "Polygon", "coordinates": [[[-96.69518, 16.97063], [-96.69535, 16.96905], [-96.69595, 16.96897], [-96.69757, 16.96838], [-96.69989, 16.96839], [-96.69928, 16.97118], [-96.69719, 16.97089], [-96.69706, 16.9712], [-96.69716, 16.97152], [-96.69537, 16.97116], [-96.6954, 16.97077], [-96.69518, 16.97063]]]}}, {"id": "1564937", "type": "Feature", "properties": {"id": "1564937", "CVEGEO": "2040300010035035", "POBTOT": 68.0, "score_nse": 0.0, "NSE": "ND", "VIVTOT": 23.0, "GRAPROES": 9.66, "_ent": "20", "_mun": "403", "_loc": "0001"}, "geometry": {"type": "Polygon", "coordinates": [[[-96.70224, 16.96664], [-96.70341, 16.96682], [-96.70322, 16.96772], [-96.70284, 16.96766], [-96.70321, 16.96778], [-96.70314, 16.96812], [-96.70195, 16.96826], [-96.70224, 16.96664]]]}}, {"id": "1564938", "type": "Feature", "properties": {"id": "1564938", "CVEGEO": "204030001004A010", "POBTOT": 102.0, "score_nse": 0.0, "NSE": "ND", "VIVTOT": 40.0, "GRAPROES": 9.19, "_ent": "20", "_mun": "403", "_loc": "0001"}, "geometry": {"type": "Polygon", "coordinates": [[[-96.70474, 16.96588], [-96.70456, 16.96693], [-96.70417, 16.96687], [-96.70421, 16.96667], [-96.70414, 16.96687], [-96.70387, 16.96683], [-96.70403, 16.96584], [-96.70383, 16.96682], [-96.70348, 16.96678], [-96.70367, 16.96571], [-96.70474, 16.96588]]]}}, {"id": "1564939", "type": "Feature", "properties": {"id": "1564939", "CVEGEO": "2040300010035017", "POBTOT": 23.0, "score_nse": 0.0, "NSE": "ND", "VIVTOT": 10.0, "GRAPROES": 6.75, "_ent": "20", "_mun": "403", "_loc": "0001"}, "geometry": {"type": "Polygon", "coordinates": [[[-96.70823, 16.9729], [-96.70848, 16.97166], [-96.70802, 16.9715], [-96.70815, 16.97085], [-96.70853, 16.97092], [-96.70844, 16.97161], [-96.70858, 16.97093], [-96.70904, 16.97095], [-96.70926, 16.97252], [-96.70917, 16.97302], [-96.70823, 16.9729]]]}}, {"id": "1564940", "type": "Feature", "properties": {"id": "1564940", "CVEGEO": "2040300010035032", "POBTOT": 23.0, "score_nse": 0.0, "NSE": "ND", "VIVTOT": 6.0, "GRAPROES": 9.88, "_ent": "20", "_mun": "403", "_loc": "0001"}, "geometry": {"type": "Polygon", "coordinates": [[[-96.70787, 16.97223], [-96.70801, 16.97154], [-96.70842, 16.97169], [-96.70828, 16.97234], [-96.70787, 16.97223]]]}}, {"id": "1564941", "type": "Feature", "properties": {"id": "1564941", "CVEGEO": "2040300010035031", "POBTOT": 84.0, "score_nse": 0.0, "NSE": "ND", "VIVTOT": 25.0, "GRAPROES": 8.6, "_ent": "20", "_mun": "403", "_loc": "0001"}, "geometry": {"type": "Polygon", "coordinates": [[[-96.70903, 16.97091], [-96.70635, 16.97052], [-96.70645, 16.97006], [-96.70731, 16.97023], [-96.70754, 16.96998], [-96.70768, 16.97011], [-96.70768, 16.96996], [-96.70846, 16.97015], [-96.70845, 16.97042], [-96.70851, 16.97016], [-96.70895, 16.97027], [-96.70901, 16.97079], [-96.70813, 16.97064], [-96.70903, 16.97091]]]}}, {"id": "1564942", "type": "Feature", "properties": {"id": "1564942", "CVEGEO": "2040300010035020", "POBTOT": 26.0, "score_nse": 0.0, "NSE": "ND", "VIVTOT": 9.0, "GRAPROES": 10.08, "_ent": "20", "_mun": "403", "_loc": "0001"}, "geometry": {"type": "Polygon", "coordinates": [[[-96.70777, 16.96992], [-96.70776, 16.96953], [-96.70795, 16.96955], [-96.70776, 16.96948], [-96.70813, 16.96747], [-96.70912, 16.96768], [-96.70882, 16.96929], [-96.70893, 16.97021], [-96.70777, 16.96992]]]}}, {"id": "1564943", "type": "Feature", "properties": {"id": "1564943", "CVEGEO": "204030001004A025", "POBTOT": 21.0, "score_nse": 0.0, "NSE": "ND", "VIVTOT": 12.0, "GRAPROES": 8.46, "_ent": "20", "_mun": "403", "_loc": "0001"}, "geometry": {"type": "Polygon", "coordinates": [[[-96.70919, 16.96763], [-96.70937, 16.96657], [-96.71035, 16.96675], [-96.71029, 16.96712], [-96.70997, 16.96711], [-96.71028, 16.96717], [-96.71023, 16.96742], [-96.70997, 16.9674], [-96.71023, 16.96747], [-96.71017, 16.96781], [-96.70919, 16.96763]]]}}, {"id": "1564944", "type": "Feature", "properties": {"id": "1564944", "CVEGEO": "2040300010035022", "POBTOT": 57.0, "score_nse": 57.8729, "NSE": "C", "VIVTOT": 28.0, "GRAPROES": 11.56, "_ent": "20", "_mun": "403", "_loc": "0001"}, "geometry": {"type": "Polygon", "coordinates": [[[-96.70818, 16.97573], [-96.70805, 16.97662], [-96.70755, 16.97652], [-96.70736, 16.97558], [-96.70818, 16.97573]]]}}, {"id": "1564945", "type": "Feature", "properties": {"id": "1564945", "CVEGEO": "2040300010035046", "POBTOT": 0.0, "score_nse": 0.0, "NSE": null, "VIVTOT": 0.0, "GRAPROES": 0.0, "_ent": "20", "_mun": "403", "_loc": "0001"}, "geometry": {"type": "Polygon", "coordinates": [[[-96.70799, 16.97362], [-96.70817, 16.97302], [-96.70863, 16.97309], [-96.70818, 16.97568], [-96.70736, 16.97552], [-96.70673, 16.97322], [-96.70712, 16.97327], [-96.70709, 16.97296], [-96.70724, 16.97284], [-96.70811, 16.97301], [-96.70799, 16.97362]]]}}, {"id": "1564946", "type": "Feature", "properties": {"id": "1564946", "CVEGEO": "204030001004A007", "POBTOT": 129.0, "score_nse": 47.1088, "NSE": "C-", "VIVTOT": 42.0, "GRAPROES": 9.53, "_ent": "20", "_mun": "403", "_loc": "0001"}, "geometry": {"type": "Polygon", "coordinates": [[[-96.70827, 16.9664], [-96.70815, 16.96702], [-96.70767, 16.96693], [-96.70814, 16.96706], [-96.70808, 16.96742], [-96.70696, 16.96724], [-96.70712, 16.96623], [-96.70827, 16.9664]]]}}, {"id": "1564947", "type": "Feature", "properties": {"id": "1564947", "CVEGEO": "204030001004A020", "POBTOT": 62.0, "score_nse": 42.808, "NSE": "C-", "VIVTOT": 25.0, "GRAPROES": 9.2, "_ent": "20", "_mun": "403", "_loc": "0001"}, "geometry": {"type": "Polygon", "coordinates": [[[-96.7038, 16.96461], [-96.70369, 16.96523], [-96.70329, 16.96517], [-96.70369, 16.96526], [-96.70361, 16.96564], [-96.70247, 16.96546], [-96.70266, 16.96442], [-96.7038, 16.96461]]]}}, {"id": "1564949", "type": "Feature", "properties": {"id": "1564949", "CVEGEO": "204030001004A022", "POBTOT": 46.0, "score_nse": 0.0, "NSE": "ND", "VIVTOT": 18.0, "GRAPROES": 7.74, "_ent": "20", "_mun": "403", "_loc": "0001"}, "geometry": {"type": "Polygon", "coordinates": [[[-96.70907, 16.96209], [-96.70868, 16.96414], [-96.70754, 16.96397], [-96.70765, 16.96331], [-96.70791, 16.96334], [-96.70783, 16.96376], [-96.70795, 16.96335], [-96.70844, 16.96342], [-96.70767, 16.96326], [-96.70793, 16.96191], [-96.70907, 16.96209]]]}}]}