{"type": "FeatureCollection", "features": [{"id": "1564950", "type": "Feature", "properties": {"id": "1564950", "CVEGEO": "2040300020016001", "POBTOT": 0.0, "score_nse": 0.0, "NSE": null, "VIVTOT": 0.0, "GRAPROES": 0.0, "_ent": "20", "_mun": "403", "_loc": "0002"}, "geometry": {"type": "Polygon", "coordinates": [[[-96.71178, 16.97539], [-96.71166, 16.97596], [-96.71013, 16.97563], [-96.71031, 16.97475], [-96.71066, 16.97527], [-96.71074, 16.97531], [-96.71084, 16.97531], [-96.71059, 16.9751], [-96.71178, 16.97539]]]}}, {"id": "1564951", "type": "Feature", "properties": {"id": "1564951", "CVEGEO": "2040300020016002", "POBTOT": 0.0, "score_nse": 0.0, "NSE": null, "VIVTOT": 0.0, "GRAPROES": 0.0, "_ent": "20", "_mun": "403", "_loc": "0002"}, "geometry": {"type": "Polygon", "coordinates": [[[-96.71008, 16.97562], [-96.70959, 16.97553], [-96.7097, 16.97485], [-96.71026, 16.97474], [-96.71008, 16.97562]]]}}, {"id": "1564952", "type": "Feature", "properties": {"id": "1564952", "CVEGEO": "2040300020016003", "POBTOT": 0.0, "score_nse": 0.0, "NSE": null, "VIVTOT": 0.0, "GRAPROES": 0.0, "_ent": "20", "_mun": "403", "_loc": "0002"}, "geometry": {"type": "Polygon", "coordinates": [[[-96.70956, 16.97552], [-96.70882, 16.97539], [-96.70921, 16.97308], [-96.70957, 16.97327], [-96.70947, 16.97344], [-96.70919, 16.97465], [-96.70959, 16.97334], [-96.7103, 16.97467], [-96.70969, 16.97479], [-96.70956, 16.97552]]]}}]}