{"type": "FeatureCollection", "features": [{"id": "1930858", "type": "Feature", "properties": {"id": "1930858", "CVEGEO": "250050006037A004", "POBTOT": 0.0, "score_nse": 0.0, "NSE": null, "VIVTOT": 0.0, "GRAPROES": 0.0, "_ent": "25", "_mun": "005", "_loc": "0006"}, "geometry": {"type": "Polygon", "coordinates": [[[-106.87266, 24.49085], [-106.87274, 24.49069], [-106.87293, 24.49074], [-106.87284, 24.49096], [-106.87266, 24.49085]]]}}, {"id": "1931056", "type": "Feature", "properties": {"id": "1931056", "CVEGEO": "250050006037A002", "POBTOT": 0.0, "score_nse": 0.0, "NSE": null, "VIVTOT": 0.0, "GRAPROES": 0.0, "_ent": "25", "_mun": "005", "_loc": "0006"}, "geometry": {"type": "Polygon", "coordinates": [[[-106.87181, 24.49212], [-106.8721, 24.49228], [-106.87256, 24.49347], [-106.87246, 24.49357], [-106.87215, 24.49344], [-106.8718, 24.49341], [-106.87223, 24.49351], [-106.87225, 24.49386], [-106.87136, 24.49378], [-106.87181, 24.49212]]]}}, {"id": "1931100", "type": "Feature", "properties": {"id": "1931100", "CVEGEO": "250050006037A001", "POBTOT": 0.0, "score_nse": 0.0, "NSE": null, "VIVTOT": 0.0, "GRAPROES": 0.0, "_ent": "25", "_mun": "005", "_loc": "0006"}, "geometry": {"type": "Polygon", "coordinates": [[[-106.87305, 24.49378], [-106.87278, 24.49366], [-106.87246, 24.49312], [-106.8722, 24.4922], [-106.87182, 24.49194], [-106.8718, 24.49127], [-106.87206, 24.48997], [-106.87229, 24.49064], [-106.87334, 24.4914], [-106.87316, 24.49169], [-106.87334, 24.49225], [-106.87298, 24.49282], [-106.87316, 24.49334], [-106.87305, 24.49378]]]}}, {"id": "1931107", "type": "Feature", "properties": {"id": "1931107", "CVEGEO": "250050006037A006", "POBTOT": 0.0, "score_nse": 0.0, "NSE": null, "VIVTOT": 0.0, "GRAPROES": 0.0, "_ent": "25", "_mun": "005", "_loc": "0006"}, "geometry": {"type": "Polygon", "coordinates": [[[-106.87325, 24.49335], [-106.87308, 24.49301], [-106.87323, 24.49275], [-106.8735, 24.49313], [-106.87382, 24.49313], [-106.87353, 24.49306], [-106.87321, 24.49266], [-106.87338, 24.49229], [-106.87371, 24.49223], [-106.87334, 24.49201], [-106.87322, 24.4917], [-106.87344, 24.49146], [-106.87481, 24.49235], [-106.87409, 24.49295], [-106.87397, 24.49401], [-106.87354, 24.4938], [-106.8731, 24.49379], [-106.87325, 24.49335]]]}}]}