{"type": "FeatureCollection", "features": [{"id": "1843182", "type": "Feature", "properties": {"id": "1843182", "CVEGEO": "2401100130033001", "POBTOT": 0.0, "score_nse": 0.0, "NSE": null, "VIVTOT": 0.0, "GRAPROES": 0.0, "_ent": "24", "_mun": "011", "_loc": "0013"}, "geometry": {"type": "Polygon", "coordinates": [[[-100.07956, 21.98546], [-100.0808, 21.98411], [-100.08156, 21.98454], [-100.08157, 21.98469], [-100.08029, 21.98608], [-100.07956, 21.98546]]]}}, {"id": "1843183", "type": "Feature", "properties": {"id": "1843183", "CVEGEO": "2401100130033002", "POBTOT": 0.0, "score_nse": 0.0, "NSE": null, "VIVTOT": 0.0, "GRAPROES": 0.0, "_ent": "24", "_mun": "011", "_loc": "0013"}, "geometry": {"type": "Polygon", "coordinates": [[[-100.0789, 21.98492], [-100.07997, 21.98377], [-100.08073, 21.98408], [-100.0795, 21.98541], [-100.0789, 21.98492]]]}}, {"id": "1843184", "type": "Feature", "properties": {"id": "1843184", "CVEGEO": "2401100130033003", "POBTOT": 0.0, "score_nse": 0.0, "NSE": null, "VIVTOT": 0.0, "GRAPROES": 0.0, "_ent": "24", "_mun": "011", "_loc": "0013"}, "geometry": {"type": "Polygon", "coordinates": [[[-100.08224, 21.98395], [-100.08168, 21.98443], [-100.07957, 21.98347], [-100.07988, 21.98319], [-100.08105, 21.98296], [-100.08224, 21.98395]]]}}, {"id": "1843185", "type": "Feature", "properties": {"id": "1843185", "CVEGEO": "2401100130033006", "POBTOT": 0.0, "score_nse": 0.0, "NSE": null, "VIVTOT": 0.0, "GRAPROES": 0.0, "_ent": "24", "_mun": "011", "_loc": "0013"}, "geometry": {"type": "Polygon", "coordinates": [[[-100.08064, 21.98684], [-100.07988, 21.98886], [-100.0797, 21.9903], [-100.07937, 21.99035], [-100.07884, 21.99003], [-100.07852, 21.99007], [-100.07855, 21.98968], [-100.07987, 21.98821], [-100.07909, 21.98758], [-100.08035, 21.98619], [-100.08085, 21.98665], [-100.08064, 21.98684]]]}}, {"id": "1843186", "type": "Feature", "properties": {"id": "1843186", "CVEGEO": "2401100130033007", "POBTOT": 0.0, "score_nse": 0.0, "NSE": null, "VIVTOT": 0.0, "GRAPROES": 0.0, "_ent": "24", "_mun": "011", "_loc": "0013"}, "geometry": {"type": "Polygon", "coordinates": [[[-100.07824, 21.98691], [-100.07952, 21.98552], [-100.08025, 21.98613], [-100.07899, 21.98751], [-100.07824, 21.98691]]]}}, {"id": "1843187", "type": "Feature", "properties": {"id": "1843187", "CVEGEO": "2401100130033008", "POBTOT": 0.0, "score_nse": 0.0, "NSE": null, "VIVTOT": 0.0, "GRAPROES": 0.0, "_ent": "24", "_mun": "011", "_loc": "0013"}, "geometry": {"type": "Polygon", "coordinates": [[[-100.0782, 21.98686], [-100.07756, 21.98635], [-100.07885, 21.98498], [-100.07945, 21.98547], [-100.0782, 21.98686]]]}}, {"id": "1843188", "type": "Feature", "properties": {"id": "1843188", "CVEGEO": "2401100130033009", "POBTOT": 0.0, "score_nse": 0.0, "NSE": null, "VIVTOT": 0.0, "GRAPROES": 0.0, "_ent": "24", "_mun": "011", "_loc": "0013"}, "geometry": {"type": "Polygon", "coordinates": [[[-100.07894, 21.98756], [-100.07761, 21.98904], [-100.07778, 21.98965], [-100.0773, 21.98988], [-100.07748, 21.98939], [-100.07692, 21.98755], [-100.0774, 21.98312], [-100.07782, 21.98286], [-100.0791, 21.98338], [-100.07814, 21.98441], [-100.0788, 21.98493], [-100.07746, 21.98637], [-100.07894, 21.98756]]]}}, {"id": "1843189", "type": "Feature", "properties": {"id": "1843189", "CVEGEO": "2401100130033010", "POBTOT": 0.0, "score_nse": 0.0, "NSE": null, "VIVTOT": 0.0, "GRAPROES": 0.0, "_ent": "24", "_mun": "011", "_loc": "0013"}, "geometry": {"type": "Polygon", "coordinates": [[[-100.07826, 21.98439], [-100.07915, 21.98342], [-100.07991, 21.98374], [-100.07885, 21.98488], [-100.07826, 21.98439]]]}}, {"id": "1843190", "type": "Feature", "properties": {"id": "1843190", "CVEGEO": "2401100130033011", "POBTOT": 0.0, "score_nse": 0.0, "NSE": null, "VIVTOT": 0.0, "GRAPROES": 0.0, "_ent": "24", "_mun": "011", "_loc": "0013"}, "geometry": {"type": "Polygon", "coordinates": [[[-100.07816, 21.98285], [-100.07923, 21.98161], [-100.08046, 21.98216], [-100.08037, 21.98227], [-100.08096, 21.98282], [-100.07995, 21.98309], [-100.07952, 21.98344], [-100.07816, 21.98285]]]}}, {"id": "1843191", "type": "Feature", "properties": {"id": "1843191", "CVEGEO": "2401100130033017", "POBTOT": 0.0, "score_nse": 0.0, "NSE": null, "VIVTOT": 0.0, "GRAPROES": 0.0, "_ent": "24", "_mun": "011", "_loc": "0013"}, "geometry": {"type": "Polygon", "coordinates": [[[-100.07794, 21.98986], [-100.07777, 21.98897], [-100.07903, 21.98762], [-100.07977, 21.98822], [-100.07846, 21.98965], [-100.07794, 21.98986]]]}}, {"id": "1843192", "type": "Feature", "properties": {"id": "1843192", "CVEGEO": "2401100130033018", "POBTOT": 0.0, "score_nse": 0.0, "NSE": null, "VIVTOT": 0.0, "GRAPROES": 0.0, "_ent": "24", "_mun": "011", "_loc": "0013"}, "geometry": {"type": "Polygon", "coordinates": [[[-100.0785, 21.99013], [-100.07891, 21.99014], [-100.07863, 21.9906], [-100.07833, 21.99058], [-100.0785, 21.99013]]]}}, {"id": "1843193", "type": "Feature", "properties": {"id": "1843193", "CVEGEO": "2401100130033019", "POBTOT": 0.0, "score_nse": 0.0, "NSE": null, "VIVTOT": 0.0, "GRAPROES": 0.0, "_ent": "24", "_mun": "011", "_loc": "0013"}, "geometry": {"type": "Polygon", "coordinates": [[[-100.07796, 21.98995], [-100.07847, 21.98975], [-100.07819, 21.99062], [-100.07796, 21.98995]]]}}, {"id": "1843194", "type": "Feature", "properties": {"id": "1843194", "CVEGEO": "2401100130033021", "POBTOT": 0.0, "score_nse": 0.0, "NSE": null, "VIVTOT": 0.0, "GRAPROES": 0.0, "_ent": "24", "_mun": "011", "_loc": "0013"}, "geometry": {"type": "Polygon", "coordinates": [[[-100.0778, 21.98969], [-100.07843, 21.9915], [-100.078, 21.9914], [-100.07746, 21.98989], [-100.0778, 21.98969]]]}}, {"id": "1843195", "type": "Feature", "properties": {"id": "1843195", "CVEGEO": "2401100130033022", "POBTOT": 0.0, "score_nse": 0.0, "NSE": null, "VIVTOT": 0.0, "GRAPROES": 0.0, "_ent": "24", "_mun": "011", "_loc": "0013"}, "geometry": {"type": "Polygon", "coordinates": [[[-100.07784, 21.99116], [-100.07734, 21.99116], [-100.07698, 21.99016], [-100.07741, 21.98992], [-100.07784, 21.99116]]]}}, {"id": "1843196", "type": "Feature", "properties": {"id": "1843196", "CVEGEO": "2401100130033023", "POBTOT": 0.0, "score_nse": 0.0, "NSE": null, "VIVTOT": 0.0, "GRAPROES": 0.0, "_ent": "24", "_mun": "011", "_loc": "0013"}, "geometry": {"type": "Polygon", "coordinates": [[[-100.07746, 21.99126], [-100.07785, 21.9912], [-100.07792, 21.99139], [-100.07656, 21.99107], [-100.07664, 21.99035], [-100.07692, 21.99019], [-100.07746, 21.99126]]]}}, {"id": "1843346", "type": "Feature", "properties": {"id": "1843346", "CVEGEO": "2401100130033026", "POBTOT": 0.0, "score_nse": 0.0, "NSE": null, "VIVTOT": 0.0, "GRAPROES": 0.0, "_ent": "24", "_mun": "011", "_loc": "0013"}, "geometry": {"type": "Polygon", "coordinates": [[[-100.07335, 21.98184], [-100.07297, 21.98318], [-100.07252, 21.98308], [-100.07287, 21.9817], [-100.07335, 21.98184]]]}}, {"id": "1843351", "type": "Feature", "properties": {"id": "1843351", "CVEGEO": "2401100130033005", "POBTOT": 0.0, "score_nse": 0.0, "NSE": null, "VIVTOT": 0.0, "GRAPROES": 0.0, "_ent": "24", "_mun": "011", "_loc": "0013"}, "geometry": {"type": "Polygon", "coordinates": [[[-100.07772, 21.98282], [-100.07636, 21.98342], [-100.07545, 21.98375], [-100.07563, 21.98235], [-100.07772, 21.98282]]]}}, {"id": "1843352", "type": "Feature", "properties": {"id": "1843352", "CVEGEO": "2401100130033016", "POBTOT": 0.0, "score_nse": 0.0, "NSE": null, "VIVTOT": 0.0, "GRAPROES": 0.0, "_ent": "24", "_mun": "011", "_loc": "0013"}, "geometry": {"type": "Polygon", "coordinates": [[[-100.0737, 21.98193], [-100.07335, 21.98312], [-100.07307, 21.98306], [-100.07339, 21.98186], [-100.0737, 21.98193]]]}}, {"id": "1843411", "type": "Feature", "properties": {"id": "1843411", "CVEGEO": "2401100130033012", "POBTOT": 0.0, "score_nse": 0.0, "NSE": null, "VIVTOT": 0.0, "GRAPROES": 0.0, "_ent": "24", "_mun": "011", "_loc": "0013"}, "geometry": {"type": "Polygon", "coordinates": [[[-100.08162, 21.98261], [-100.08149, 21.98251], [-100.0812, 21.98295], [-100.0808, 21.98254], [-100.08064, 21.9817], [-100.08077, 21.98168], [-100.08061, 21.98151], [-100.08053, 21.98213], [-100.07936, 21.98155], [-100.07967, 21.98105], [-100.07925, 21.98077], [-100.0794, 21.97992], [-100.07929, 21.97934], [-100.08004, 21.97896], [-100.08061, 21.98003], [-100.08245, 21.98182], [-100.08351, 21.9832], [-100.08233, 21.9839], [-100.08127, 21.983], [-100.08162, 21.98261]]]}}, {"id": "1843412", "type": "Feature", "properties": {"id": "1843412", "CVEGEO": "2401100130033004", "POBTOT": 0.0, "score_nse": 0.0, "NSE": null, "VIVTOT": 0.0, "GRAPROES": 0.0, "_ent": "24", "_mun": "011", "_loc": "0013"}, "geometry": {"type": "Polygon", "coordinates": [[[-100.08331, 21.98506], [-100.0822, 21.98524], [-100.08171, 21.98549], [-100.08131, 21.98582], [-100.08088, 21.98662], [-100.08037, 21.98614], [-100.08247, 21.98389], [-100.08331, 21.98506]]]}}, {"id": "1843443", "type": "Feature", "properties": {"id": "1843443", "CVEGEO": "2401100130033027", "POBTOT": 0.0, "score_nse": 0.0, "NSE": null, "VIVTOT": 0.0, "GRAPROES": 0.0, "_ent": "24", "_mun": "011", "_loc": "0013"}, "geometry": {"type": "Polygon", "coordinates": [[[-100.07898, 21.9814], [-100.07921, 21.98152], [-100.07808, 21.98282], [-100.07761, 21.98262], [-100.07898, 21.98092], [-100.07922, 21.98082], [-100.07957, 21.98108], [-100.07925, 21.98149], [-100.07898, 21.9814]]]}}, {"id": "1843488", "type": "Feature", "properties": {"id": "1843488", "CVEGEO": "2401100130033024", "POBTOT": 0.0, "score_nse": 0.0, "NSE": null, "VIVTOT": 0.0, "GRAPROES": 0.0, "_ent": "24", "_mun": "011", "_loc": "0013"}, "geometry": {"type": "Polygon", "coordinates": [[[-100.0835, 21.98355], [-100.08394, 21.98467], [-100.08337, 21.98504], [-100.08252, 21.98385], [-100.08324, 21.98343], [-100.0835, 21.98355]]]}}, {"id": "1843533", "type": "Feature", "properties": {"id": "1843533", "CVEGEO": "2401100130033020", "POBTOT": 0.0, "score_nse": 0.0, "NSE": null, "VIVTOT": 0.0, "GRAPROES": 0.0, "_ent": "24", "_mun": "011", "_loc": "0013"}, "geometry": {"type": "Polygon", "coordinates": [[[-100.07971, 21.99039], [-100.0796, 21.99182], [-100.07979, 21.99201], [-100.07947, 21.99252], [-100.07942, 21.99334], [-100.07892, 21.99341], [-100.07887, 21.99275], [-100.07838, 21.99125], [-100.07921, 21.99134], [-100.07837, 21.99121], [-100.0782, 21.99069], [-100.07866, 21.99065], [-100.079, 21.99024], [-100.07971, 21.99039]]]}}, {"id": "1843534", "type": "Feature", "properties": {"id": "1843534", "CVEGEO": "2401100130033028", "POBTOT": 0.0, "score_nse": 0.0, "NSE": null, "VIVTOT": 0.0, "GRAPROES": 0.0, "_ent": "24", "_mun": "011", "_loc": "0013"}, "geometry": {"type": "Polygon", "coordinates": [[[-100.07539, 21.98378], [-100.07482, 21.98397], [-100.07503, 21.9822], [-100.07557, 21.98231], [-100.07539, 21.98378]]]}}, {"id": "1843535", "type": "Feature", "properties": {"id": "1843535", "CVEGEO": "2401100130033029", "POBTOT": 0.0, "score_nse": 0.0, "NSE": null, "VIVTOT": 0.0, "GRAPROES": 0.0, "_ent": "24", "_mun": "011", "_loc": "0013"}, "geometry": {"type": "Polygon", "coordinates": [[[-100.07236, 21.98345], [-100.07195, 21.98335], [-100.07243, 21.9816], [-100.0728, 21.98169], [-100.07236, 21.98345]]]}}]}