{"type": "FeatureCollection", "features": [{"id": "1834707", "type": "Feature", "properties": {"id": "1834707", "CVEGEO": "2400300060027003", "POBTOT": 0.0, "score_nse": 0.0, "NSE": null, "VIVTOT": 0.0, "GRAPROES": 0.0, "_ent": "24", "_mun": "003", "_loc": "0006"}, "geometry": {"type": "Polygon", "coordinates": [[[-99.20072, 21.89087], [-99.20143, 21.89069], [-99.20156, 21.89104], [-99.20142, 21.8905], [-99.2014, 21.89063], [-99.20043, 21.89084], [-99.20036, 21.89039], [-99.20057, 21.88946], [-99.2004, 21.88876], [-99.20053, 21.88869], [-99.20097, 21.88869], [-99.2014, 21.8902], [-99.20181, 21.89004], [-99.20208, 21.89131], [-99.20109, 21.89137], [-99.20072, 21.89087]]]}}, {"id": "1834708", "type": "Feature", "properties": {"id": "1834708", "CVEGEO": "2400300060027002", "POBTOT": 0.0, "score_nse": 0.0, "NSE": null, "VIVTOT": 0.0, "GRAPROES": 0.0, "_ent": "24", "_mun": "003", "_loc": "0006"}, "geometry": {"type": "Polygon", "coordinates": [[[-99.20028, 21.89094], [-99.19962, 21.89153], [-99.19895, 21.89166], [-99.19847, 21.89154], [-99.19886, 21.89082], [-99.19902, 21.88946], [-99.19923, 21.88902], [-99.20023, 21.88857], [-99.20052, 21.88948], [-99.20047, 21.88977], [-99.19999, 21.88978], [-99.20046, 21.88983], [-99.20025, 21.89044], [-99.20029, 21.89088], [-99.20007, 21.89095], [-99.20028, 21.89094]]]}}, {"id": "1834824", "type": "Feature", "properties": {"id": "1834824", "CVEGEO": "2400300060027001", "POBTOT": 0.0, "score_nse": 0.0, "NSE": null, "VIVTOT": 0.0, "GRAPROES": 0.0, "_ent": "24", "_mun": "003", "_loc": "0006"}, "geometry": {"type": "Polygon", "coordinates": [[[-99.20199, 21.89347], [-99.20174, 21.89387], [-99.20086, 21.89384], [-99.20109, 21.8934], [-99.20081, 21.89381], [-99.20022, 21.8935], [-99.19968, 21.89278], [-99.19973, 21.89177], [-99.19947, 21.89163], [-99.19987, 21.89154], [-99.20033, 21.89097], [-99.20067, 21.89086], [-99.20177, 21.89233], [-99.20199, 21.89347]]]}}]}