{"type": "FeatureCollection", "features": [{"id": "295201", "type": "Feature", "properties": {"id": "295201", "CVEGEO": "0707100090042001", "POBTOT": 0.0, "score_nse": 0.0, "NSE": null, "VIVTOT": 0.0, "GRAPROES": 0.0, "_ent": "07", "_mun": "071", "_loc": "0009"}, "geometry": {"type": "Polygon", "coordinates": [[[-92.61919, 15.19996], [-92.6162, 15.19861], [-92.62112, 15.18969], [-92.62401, 15.19104], [-92.62109, 15.19633], [-92.62092, 15.19624], [-92.61919, 15.19996]]]}}, {"id": "295202", "type": "Feature", "properties": {"id": "295202", "CVEGEO": "0707100090042006", "POBTOT": 0.0, "score_nse": 0.0, "NSE": null, "VIVTOT": 0.0, "GRAPROES": 0.0, "_ent": "07", "_mun": "071", "_loc": "0009"}, "geometry": {"type": "Polygon", "coordinates": [[[-92.62111, 15.19641], [-92.62405, 15.19106], [-92.62755, 15.19267], [-92.62588, 15.19617], [-92.62499, 15.19578], [-92.62585, 15.19623], [-92.62488, 15.1983], [-92.62318, 15.19752], [-92.62485, 15.19835], [-92.62322, 15.20161], [-92.61923, 15.19999], [-92.62094, 15.19632], [-92.62111, 15.19641]]]}}, {"id": "295203", "type": "Feature", "properties": {"id": "295203", "CVEGEO": "0707100090042007", "POBTOT": 0.0, "score_nse": 0.0, "NSE": null, "VIVTOT": 0.0, "GRAPROES": 0.0, "_ent": "07", "_mun": "071", "_loc": "0009"}, "geometry": {"type": "Polygon", "coordinates": [[[-92.62638, 15.19526], [-92.628, 15.19586], [-92.62847, 15.19711], [-92.62857, 15.1978], [-92.62845, 15.1984], [-92.62781, 15.1999], [-92.62484, 15.19858], [-92.62638, 15.19526]]]}}, {"id": "295230", "type": "Feature", "properties": {"id": "295230", "CVEGEO": "0707100090042008", "POBTOT": 0.0, "score_nse": 0.0, "NSE": null, "VIVTOT": 0.0, "GRAPROES": 0.0, "_ent": "07", "_mun": "071", "_loc": "0009"}, "geometry": {"type": "Polygon", "coordinates": [[[-92.6314, 15.20164], [-92.62844, 15.20205], [-92.62748, 15.20312], [-92.62677, 15.20347], [-92.62327, 15.20192], [-92.62481, 15.19866], [-92.6314, 15.20164]]]}}, {"id": "295231", "type": "Feature", "properties": {"id": "295231", "CVEGEO": "0707100090042002", "POBTOT": 0.0, "score_nse": 0.0, "NSE": null, "VIVTOT": 0.0, "GRAPROES": 0.0, "_ent": "07", "_mun": "071", "_loc": "0009"}, "geometry": {"type": "Polygon", "coordinates": [[[-92.61322, 15.19721], [-92.61821, 15.18808], [-92.62112, 15.18952], [-92.61615, 15.19858], [-92.61322, 15.19721]]]}}]}