{"type": "FeatureCollection", "features": [{"id": "294758", "type": "Feature", "properties": {"id": "294758", "CVEGEO": "0707102350023005", "POBTOT": 0.0, "score_nse": 0.0, "NSE": null, "VIVTOT": 0.0, "GRAPROES": 0.0, "_ent": "07", "_mun": "071", "_loc": "0235"}, "geometry": {"type": "Polygon", "coordinates": [[[-92.57311, 15.24803], [-92.57342, 15.24764], [-92.57402, 15.24798], [-92.57379, 15.24839], [-92.57311, 15.24803]]]}}, {"id": "294880", "type": "Feature", "properties": {"id": "294880", "CVEGEO": "0707102350023002", "POBTOT": 0.0, "score_nse": 0.0, "NSE": null, "VIVTOT": 0.0, "GRAPROES": 0.0, "_ent": "07", "_mun": "071", "_loc": "0235"}, "geometry": {"type": "Polygon", "coordinates": [[[-92.57519, 15.24828], [-92.57471, 15.24907], [-92.57428, 15.24883], [-92.57474, 15.24802], [-92.57519, 15.24828]]]}}, {"id": "294881", "type": "Feature", "properties": {"id": "294881", "CVEGEO": "0707102350023003", "POBTOT": 0.0, "score_nse": 0.0, "NSE": null, "VIVTOT": 0.0, "GRAPROES": 0.0, "_ent": "07", "_mun": "071", "_loc": "0235"}, "geometry": {"type": "Polygon", "coordinates": [[[-92.57421, 15.24879], [-92.5738, 15.24856], [-92.57429, 15.24778], [-92.57467, 15.24798], [-92.57421, 15.24879]]]}}, {"id": "294882", "type": "Feature", "properties": {"id": "294882", "CVEGEO": "0707102350023004", "POBTOT": 0.0, "score_nse": 0.0, "NSE": null, "VIVTOT": 0.0, "GRAPROES": 0.0, "_ent": "07", "_mun": "071", "_loc": "0235"}, "geometry": {"type": "Polygon", "coordinates": [[[-92.57305, 15.24813], [-92.57372, 15.24848], [-92.57363, 15.24862], [-92.57404, 15.24885], [-92.57385, 15.24912], [-92.57277, 15.2485], [-92.57305, 15.24813]]]}}, {"id": "295161", "type": "Feature", "properties": {"id": "295161", "CVEGEO": "0707102350023006", "POBTOT": 0.0, "score_nse": 0.0, "NSE": null, "VIVTOT": 0.0, "GRAPROES": 0.0, "_ent": "07", "_mun": "071", "_loc": "0235"}, "geometry": {"type": "Polygon", "coordinates": [[[-92.57346, 15.2476], [-92.57361, 15.24738], [-92.57418, 15.24773], [-92.57405, 15.24793], [-92.57346, 15.2476]]]}}, {"id": "295162", "type": "Feature", "properties": {"id": "295162", "CVEGEO": "0707102350023007", "POBTOT": 0.0, "score_nse": 0.0, "NSE": null, "VIVTOT": 0.0, "GRAPROES": 0.0, "_ent": "07", "_mun": "071", "_loc": "0235"}, "geometry": {"type": "Polygon", "coordinates": [[[-92.57524, 15.24832], [-92.57554, 15.24852], [-92.57528, 15.2489], [-92.575, 15.24873], [-92.57524, 15.24832]]]}}, {"id": "295189", "type": "Feature", "properties": {"id": "295189", "CVEGEO": "0707102350023001", "POBTOT": 0.0, "score_nse": 0.0, "NSE": null, "VIVTOT": 0.0, "GRAPROES": 0.0, "_ent": "07", "_mun": "071", "_loc": "0235"}, "geometry": {"type": "Polygon", "coordinates": [[[-92.57498, 15.24876], [-92.57526, 15.24893], [-92.57503, 15.24927], [-92.57475, 15.2491], [-92.57498, 15.24876]]]}}]}