{"type": "FeatureCollection", "features": [{"id": "870273", "type": "Feature", "properties": {"id": "870273", "CVEGEO": "130570012002A003", "POBTOT": 0.0, "score_nse": 0.0, "NSE": null, "VIVTOT": 0.0, "GRAPROES": 0.0, "_ent": "13", "_mun": "057", "_loc": "0012"}, "geometry": {"type": "Polygon", "coordinates": [[[-98.59578, 20.01531], [-98.59557, 20.01519], [-98.59568, 20.01499], [-98.5959, 20.0151], [-98.59578, 20.01531]]]}}, {"id": "870274", "type": "Feature", "properties": {"id": "870274", "CVEGEO": "130570012002A002", "POBTOT": 0.0, "score_nse": 0.0, "NSE": null, "VIVTOT": 0.0, "GRAPROES": 0.0, "_ent": "13", "_mun": "057", "_loc": "0012"}, "geometry": {"type": "Polygon", "coordinates": [[[-98.59593, 20.01507], [-98.59574, 20.01487], [-98.59526, 20.01466], [-98.59537, 20.01445], [-98.59602, 20.01475], [-98.59593, 20.01507]]]}}, {"id": "870349", "type": "Feature", "properties": {"id": "870349", "CVEGEO": "130570012002A001", "POBTOT": 0.0, "score_nse": 0.0, "NSE": null, "VIVTOT": 0.0, "GRAPROES": 0.0, "_ent": "13", "_mun": "057", "_loc": "0012"}, "geometry": {"type": "Polygon", "coordinates": [[[-98.59516, 20.01482], [-98.59521, 20.01471], [-98.59558, 20.01489], [-98.59552, 20.01499], [-98.59516, 20.01482]]]}}, {"id": "870350", "type": "Feature", "properties": {"id": "870350", "CVEGEO": "130570012002A004", "POBTOT": 0.0, "score_nse": 0.0, "NSE": null, "VIVTOT": 0.0, "GRAPROES": 0.0, "_ent": "13", "_mun": "057", "_loc": "0012"}, "geometry": {"type": "Polygon", "coordinates": [[[-98.59506, 20.01498], [-98.59513, 20.01485], [-98.5956, 20.01507], [-98.59553, 20.01521], [-98.59506, 20.01498]]]}}, {"id": "870477", "type": "Feature", "properties": {"id": "870477", "CVEGEO": "130570012002A005", "POBTOT": 0.0, "score_nse": 0.0, "NSE": null, "VIVTOT": 0.0, "GRAPROES": 0.0, "_ent": "13", "_mun": "057", "_loc": "0012"}, "geometry": {"type": "Polygon", "coordinates": [[[-98.59502, 20.01497], [-98.5943, 20.01467], [-98.59439, 20.01453], [-98.59493, 20.0147], [-98.59492, 20.01457], [-98.5952, 20.01463], [-98.59502, 20.01497]]]}}, {"id": "870524", "type": "Feature", "properties": {"id": "870524", "CVEGEO": "130570012002A006", "POBTOT": 0.0, "score_nse": 0.0, "NSE": null, "VIVTOT": 0.0, "GRAPROES": 0.0, "_ent": "13", "_mun": "057", "_loc": "0012"}, "geometry": {"type": "Polygon", "coordinates": [[[-98.59522, 20.01459], [-98.59449, 20.01432], [-98.59426, 20.01466], [-98.59406, 20.01454], [-98.59449, 20.01404], [-98.59533, 20.01444], [-98.59522, 20.01459]]]}}]}