{"type": "FeatureCollection", "features": [{"id": "370063", "type": "Feature", "properties": {"id": "370063", "CVEGEO": "0802700261297002", "POBTOT": 0.0, "score_nse": 0.0, "NSE": null, "VIVTOT": 0.0, "GRAPROES": 0.0, "_ent": "08", "_mun": "027", "_loc": "0026"}, "geometry": {"type": "Polygon", "coordinates": [[[-107.10933, 26.73032], [-107.1093, 26.73056], [-107.11099, 26.73047], [-107.11192, 26.73168], [-107.1113, 26.73192], [-107.11, 26.73282], [-107.10922, 26.73294], [-107.10849, 26.7328], [-107.10785, 26.73331], [-107.10734, 26.73285], [-107.10746, 26.73211], [-107.10729, 26.73109], [-107.10757, 26.73069], [-107.10754, 26.73043], [-107.10818, 26.73039], [-107.1088, 26.73007], [-107.10933, 26.73032]]]}}, {"id": "370086", "type": "Feature", "properties": {"id": "370086", "CVEGEO": "0802700261297005", "POBTOT": 0.0, "score_nse": 0.0, "NSE": null, "VIVTOT": 0.0, "GRAPROES": 0.0, "_ent": "08", "_mun": "027", "_loc": "0026"}, "geometry": {"type": "Polygon", "coordinates": [[[-107.10767, 26.73507], [-107.10678, 26.73531], [-107.10676, 26.73487], [-107.10733, 26.73462], [-107.10767, 26.73507]]]}}, {"id": "370087", "type": "Feature", "properties": {"id": "370087", "CVEGEO": "0802700261297004", "POBTOT": 0.0, "score_nse": 0.0, "NSE": null, "VIVTOT": 0.0, "GRAPROES": 0.0, "_ent": "08", "_mun": "027", "_loc": "0026"}, "geometry": {"type": "Polygon", "coordinates": [[[-107.1093, 26.73547], [-107.10916, 26.73568], [-107.10797, 26.73567], [-107.10779, 26.73514], [-107.10897, 26.73507], [-107.1093, 26.73547]]]}}, {"id": "370089", "type": "Feature", "properties": {"id": "370089", "CVEGEO": "0802700261297003", "POBTOT": 0.0, "score_nse": 0.0, "NSE": null, "VIVTOT": 0.0, "GRAPROES": 0.0, "_ent": "08", "_mun": "027", "_loc": "0026"}, "geometry": {"type": "Polygon", "coordinates": [[[-107.11097, 26.73657], [-107.11061, 26.737], [-107.10928, 26.73569], [-107.10942, 26.73548], [-107.10907, 26.73505], [-107.10938, 26.73502], [-107.11097, 26.73657]]]}}, {"id": "370317", "type": "Feature", "properties": {"id": "370317", "CVEGEO": "0802700261297001", "POBTOT": 0.0, "score_nse": 0.0, "NSE": null, "VIVTOT": 0.0, "GRAPROES": 0.0, "_ent": "08", "_mun": "027", "_loc": "0026"}, "geometry": {"type": "Polygon", "coordinates": [[[-107.10963, 26.73457], [-107.10935, 26.73494], [-107.10775, 26.73506], [-107.10676, 26.73355], [-107.10784, 26.73344], [-107.10862, 26.73296], [-107.10963, 26.73457]]]}}, {"id": "370544", "type": "Feature", "properties": {"id": "370544", "CVEGEO": "0802700261297006", "POBTOT": 0.0, "score_nse": 0.0, "NSE": null, "VIVTOT": 0.0, "GRAPROES": 0.0, "_ent": "08", "_mun": "027", "_loc": "0026"}, "geometry": {"type": "Polygon", "coordinates": [[[-107.10778, 26.73337], [-107.10658, 26.73345], [-107.10661, 26.73303], [-107.10609, 26.73317], [-107.10578, 26.73273], [-107.10576, 26.73226], [-107.10534, 26.73176], [-107.10594, 26.73119], [-107.10628, 26.73145], [-107.10643, 26.73136], [-107.10731, 26.73222], [-107.10726, 26.73289], [-107.10778, 26.73337]]]}}]}