{"type": "FeatureCollection", "features": [{"id": "370326", "type": "Feature", "properties": {"id": "370326", "CVEGEO": "0802707531263003", "POBTOT": 0.0, "score_nse": 0.0, "NSE": null, "VIVTOT": 0.0, "GRAPROES": 0.0, "_ent": "08", "_mun": "027", "_loc": "0753"}, "geometry": {"type": "Polygon", "coordinates": [[[-106.96338, 26.86932], [-106.96172, 26.86859], [-106.96241, 26.86793], [-106.96244, 26.86772], [-106.96429, 26.86758], [-106.96556, 26.86774], [-106.96397, 26.8693], [-106.96338, 26.86932]]]}}, {"id": "370462", "type": "Feature", "properties": {"id": "370462", "CVEGEO": "0802707531263002", "POBTOT": 0.0, "score_nse": 0.0, "NSE": null, "VIVTOT": 0.0, "GRAPROES": 0.0, "_ent": "08", "_mun": "027", "_loc": "0753"}, "geometry": {"type": "Polygon", "coordinates": [[[-106.9658, 26.87022], [-106.96565, 26.87046], [-106.964, 26.87087], [-106.96321, 26.86983], [-106.96351, 26.86947], [-106.9658, 26.87022]]]}}, {"id": "370463", "type": "Feature", "properties": {"id": "370463", "CVEGEO": "0802707531263001", "POBTOT": 0.0, "score_nse": 0.0, "NSE": null, "VIVTOT": 0.0, "GRAPROES": 0.0, "_ent": "08", "_mun": "027", "_loc": "0753"}, "geometry": {"type": "Polygon", "coordinates": [[[-106.96402, 26.86936], [-106.96616, 26.86722], [-106.9667, 26.86775], [-106.96645, 26.86798], [-106.96675, 26.86829], [-106.96665, 26.86883], [-106.96638, 26.86881], [-106.96607, 26.8702], [-106.96363, 26.86942], [-106.96402, 26.86936]]]}}]}