{"type": "FeatureCollection", "features": [{"id": "370240", "type": "Feature", "properties": {"id": "370240", "CVEGEO": "0802711751155003", "POBTOT": 0.0, "score_nse": 0.0, "NSE": null, "VIVTOT": 0.0, "GRAPROES": 0.0, "_ent": "08", "_mun": "027", "_loc": "1175"}, "geometry": {"type": "Polygon", "coordinates": [[[-107.09161, 27.10596], [-107.09098, 27.10607], [-107.09041, 27.10585], [-107.0905, 27.10517], [-107.09148, 27.1051], [-107.09162, 27.10451], [-107.09133, 27.10415], [-107.09178, 27.1039], [-107.09218, 27.1023], [-107.09287, 27.10217], [-107.09266, 27.10269], [-107.09273, 27.10446], [-107.09161, 27.10596]]]}}, {"id": "370274", "type": "Feature", "properties": {"id": "370274", "CVEGEO": "0802711751155006", "POBTOT": 0.0, "score_nse": 0.0, "NSE": null, "VIVTOT": 0.0, "GRAPROES": 0.0, "_ent": "08", "_mun": "027", "_loc": "1175"}, "geometry": {"type": "Polygon", "coordinates": [[[-107.09098, 27.11143], [-107.08985, 27.11174], [-107.08979, 27.10993], [-107.08897, 27.10917], [-107.08884, 27.10859], [-107.08807, 27.10796], [-107.08939, 27.10711], [-107.08983, 27.106], [-107.09045, 27.10528], [-107.09034, 27.10584], [-107.09094, 27.10611], [-107.0916, 27.10601], [-107.09162, 27.10634], [-107.09213, 27.10729], [-107.0917, 27.10741], [-107.0916, 27.10769], [-107.09071, 27.10831], [-107.09049, 27.10962], [-107.09053, 27.10975], [-107.0911, 27.10965], [-107.09119, 27.10995], [-107.09118, 27.11024], [-107.09093, 27.11046], [-107.09098, 27.11143]]]}}, {"id": "370275", "type": "Feature", "properties": {"id": "370275", "CVEGEO": "0802711751155005", "POBTOT": 0.0, "score_nse": 0.0, "NSE": null, "VIVTOT": 0.0, "GRAPROES": 0.0, "_ent": "08", "_mun": "027", "_loc": "1175"}, "geometry": {"type": "Polygon", "coordinates": [[[-107.10272, 27.10402], [-107.10209, 27.10396], [-107.10152, 27.10357], [-107.10131, 27.10267], [-107.10144, 27.10282], [-107.10256, 27.10263], [-107.10244, 27.10315], [-107.10268, 27.10335], [-107.10253, 27.10348], [-107.10272, 27.10402]]]}}, {"id": "370444", "type": "Feature", "properties": {"id": "370444", "CVEGEO": "0802711751155002", "POBTOT": 0.0, "score_nse": 0.0, "NSE": null, "VIVTOT": 0.0, "GRAPROES": 0.0, "_ent": "08", "_mun": "027", "_loc": "1175"}, "geometry": {"type": "Polygon", "coordinates": [[[-107.09428, 27.09724], [-107.0946, 27.09792], [-107.0943, 27.09853], [-107.09359, 27.09769], [-107.09428, 27.09724]]]}}, {"id": "370720", "type": "Feature", "properties": {"id": "370720", "CVEGEO": "0802711751155001", "POBTOT": 0.0, "score_nse": 0.0, "NSE": null, "VIVTOT": 0.0, "GRAPROES": 0.0, "_ent": "08", "_mun": "027", "_loc": "1175"}, "geometry": {"type": "Polygon", "coordinates": [[[-107.09139, 27.10499], [-107.09055, 27.10497], [-107.09076, 27.10467], [-107.09033, 27.10425], [-107.0903, 27.10349], [-107.08988, 27.10298], [-107.0899, 27.10272], [-107.08947, 27.10264], [-107.08929, 27.1023], [-107.08945, 27.10202], [-107.08939, 27.10147], [-107.08956, 27.10139], [-107.08939, 27.10094], [-107.08953, 27.10027], [-107.08987, 27.09992], [-107.08983, 27.09964], [-107.09, 27.09968], [-107.08998, 27.09953], [-107.09047, 27.09939], [-107.09057, 27.0992], [-107.09128, 27.09911], [-107.0921, 27.09854], [-107.09378, 27.10036], [-107.09379, 27.1009], [-107.09312, 27.10171], [-107.09198, 27.10216], [-107.09197, 27.10285], [-107.09166, 27.1037], [-107.09118, 27.10406], [-107.09143, 27.10454], [-107.09139, 27.10499]]]}}, {"id": "370816", "type": "Feature", "properties": {"id": "370816", "CVEGEO": "0802711751155004", "POBTOT": 0.0, "score_nse": 0.0, "NSE": null, "VIVTOT": 0.0, "GRAPROES": 0.0, "_ent": "08", "_mun": "027", "_loc": "1175"}, "geometry": {"type": "Polygon", "coordinates": [[[-107.09251, 27.09825], [-107.09221, 27.09765], [-107.09154, 27.09709], [-107.09158, 27.09645], [-107.09269, 27.09516], [-107.09277, 27.09461], [-107.09425, 27.09457], [-107.09358, 27.09614], [-107.09418, 27.09716], [-107.09251, 27.09825]]]}}]}