{"type": "FeatureCollection", "features": [{"id": "1210731", "type": "Feature", "properties": {"id": "1210731", "CVEGEO": "1512400420061001", "POBTOT": 0.0, "score_nse": 0.0, "NSE": null, "VIVTOT": 0.0, "GRAPROES": 0.0, "_ent": "15", "_mun": "124", "_loc": "0042"}, "geometry": {"type": "Polygon", "coordinates": [[[-100.15949, 19.61545], [-100.16105, 19.61508], [-100.16127, 19.61579], [-100.15779, 19.6182], [-100.15772, 19.61667], [-100.15796, 19.61573], [-100.15941, 19.61548], [-100.15936, 19.61618], [-100.15949, 19.61545]]]}}, {"id": "1210732", "type": "Feature", "properties": {"id": "1210732", "CVEGEO": "1512400420061002", "POBTOT": 0.0, "score_nse": 0.0, "NSE": null, "VIVTOT": 0.0, "GRAPROES": 0.0, "_ent": "15", "_mun": "124", "_loc": "0042"}, "geometry": {"type": "Polygon", "coordinates": [[[-100.15558, 19.61769], [-100.1523, 19.61614], [-100.1534, 19.61583], [-100.15643, 19.61576], [-100.15628, 19.61652], [-100.15649, 19.61703], [-100.15638, 19.61779], [-100.15558, 19.61769]]]}}, {"id": "1210733", "type": "Feature", "properties": {"id": "1210733", "CVEGEO": "1512400420061003", "POBTOT": 0.0, "score_nse": 0.0, "NSE": null, "VIVTOT": 0.0, "GRAPROES": 0.0, "_ent": "15", "_mun": "124", "_loc": "0042"}, "geometry": {"type": "Polygon", "coordinates": [[[-100.15649, 19.61778], [-100.15649, 19.61575], [-100.1579, 19.61572], [-100.15766, 19.61667], [-100.15774, 19.61824], [-100.1573, 19.61883], [-100.15724, 19.61853], [-100.15647, 19.61847], [-100.15593, 19.61785], [-100.15649, 19.61778]]]}}]}