{"type": "FeatureCollection", "features": [{"id": "1210450", "type": "Feature", "properties": {"id": "1210450", "CVEGEO": "1512400480061010", "POBTOT": 0.0, "score_nse": 0.0, "NSE": null, "VIVTOT": 0.0, "GRAPROES": 0.0, "_ent": "15", "_mun": "124", "_loc": "0048"}, "geometry": {"type": "Polygon", "coordinates": [[[-100.12831, 19.61356], [-100.12887, 19.61341], [-100.12898, 19.6138], [-100.12991, 19.61397], [-100.13085, 19.61384], [-100.13159, 19.614], [-100.13252, 19.6145], [-100.13424, 19.61413], [-100.13435, 19.61481], [-100.13326, 19.61509], [-100.1333, 19.61557], [-100.13238, 19.61559], [-100.13218, 19.61605], [-100.1314, 19.61624], [-100.12967, 19.6147], [-100.12833, 19.61514], [-100.12831, 19.61356]]]}}, {"id": "1210519", "type": "Feature", "properties": {"id": "1210519", "CVEGEO": "1512400480061002", "POBTOT": 0.0, "score_nse": 0.0, "NSE": null, "VIVTOT": 0.0, "GRAPROES": 0.0, "_ent": "15", "_mun": "124", "_loc": "0048"}, "geometry": {"type": "Polygon", "coordinates": [[[-100.12675, 19.6123], [-100.12556, 19.61187], [-100.1244, 19.61181], [-100.12447, 19.61083], [-100.12587, 19.61135], [-100.12739, 19.61219], [-100.12819, 19.61224], [-100.12816, 19.61341], [-100.12827, 19.61348], [-100.12781, 19.61343], [-100.12777, 19.6132], [-100.12675, 19.6123]]]}}, {"id": "1210748", "type": "Feature", "properties": {"id": "1210748", "CVEGEO": "1512400480061013", "POBTOT": 0.0, "score_nse": 0.0, "NSE": null, "VIVTOT": 0.0, "GRAPROES": 0.0, "_ent": "15", "_mun": "124", "_loc": "0048"}, "geometry": {"type": "Polygon", "coordinates": [[[-100.12942, 19.61202], [-100.12839, 19.61208], [-100.12842, 19.61122], [-100.12944, 19.61125], [-100.12942, 19.61202]]]}}, {"id": "1210749", "type": "Feature", "properties": {"id": "1210749", "CVEGEO": "1512400480061014", "POBTOT": 0.0, "score_nse": 0.0, "NSE": null, "VIVTOT": 0.0, "GRAPROES": 0.0, "_ent": "15", "_mun": "124", "_loc": "0048"}, "geometry": {"type": "Polygon", "coordinates": [[[-100.12845, 19.61043], [-100.12832, 19.61205], [-100.12791, 19.61214], [-100.12729, 19.612], [-100.12604, 19.61129], [-100.12446, 19.61069], [-100.1248, 19.60817], [-100.12542, 19.60797], [-100.12649, 19.60833], [-100.12723, 19.61005], [-100.12845, 19.61043]]]}}]}