{"type": "FeatureCollection", "features": [{"id": "1210405", "type": "Feature", "properties": {"id": "1210405", "CVEGEO": "1512401490057004", "POBTOT": 0.0, "score_nse": 0.0, "NSE": null, "VIVTOT": 0.0, "GRAPROES": 0.0, "_ent": "15", "_mun": "124", "_loc": "0149"}, "geometry": {"type": "Polygon", "coordinates": [[[-100.08135, 19.63556], [-100.0814, 19.63749], [-100.08041, 19.6364], [-100.08069, 19.63574], [-100.08058, 19.63555], [-100.08113, 19.63504], [-100.08135, 19.63556]]]}}, {"id": "1210410", "type": "Feature", "properties": {"id": "1210410", "CVEGEO": "1512401490057001", "POBTOT": 0.0, "score_nse": 0.0, "NSE": null, "VIVTOT": 0.0, "GRAPROES": 0.0, "_ent": "15", "_mun": "124", "_loc": "0149"}, "geometry": {"type": "Polygon", "coordinates": [[[-100.08113, 19.63485], [-100.08164, 19.63416], [-100.08174, 19.63445], [-100.0814, 19.6355], [-100.08113, 19.63485]]]}}, {"id": "1210413", "type": "Feature", "properties": {"id": "1210413", "CVEGEO": "1512401490057010", "POBTOT": 0.0, "score_nse": 0.0, "NSE": null, "VIVTOT": 0.0, "GRAPROES": 0.0, "_ent": "15", "_mun": "124", "_loc": "0149"}, "geometry": {"type": "Polygon", "coordinates": [[[-100.08224, 19.63956], [-100.08175, 19.63914], [-100.08198, 19.63879], [-100.08408, 19.63903], [-100.08421, 19.63963], [-100.08406, 19.63982], [-100.08368, 19.63975], [-100.08295, 19.6399], [-100.08282, 19.64052], [-100.08213, 19.64109], [-100.08153, 19.64135], [-100.0814, 19.64048], [-100.08167, 19.6399], [-100.08174, 19.6392], [-100.08224, 19.63956]]]}}, {"id": "1210415", "type": "Feature", "properties": {"id": "1210415", "CVEGEO": "1512401490057005", "POBTOT": 0.0, "score_nse": 0.0, "NSE": null, "VIVTOT": 0.0, "GRAPROES": 0.0, "_ent": "15", "_mun": "124", "_loc": "0149"}, "geometry": {"type": "Polygon", "coordinates": [[[-100.07958, 19.63401], [-100.08158, 19.63412], [-100.08107, 19.6348], [-100.0811, 19.63496], [-100.08055, 19.6355], [-100.0802, 19.63496], [-100.07974, 19.63461], [-100.07944, 19.6347], [-100.07919, 19.63438], [-100.07958, 19.63401]]]}}, {"id": "1210418", "type": "Feature", "properties": {"id": "1210418", "CVEGEO": "1512401490057003", "POBTOT": 0.0, "score_nse": 0.0, "NSE": null, "VIVTOT": 0.0, "GRAPROES": 0.0, "_ent": "15", "_mun": "124", "_loc": "0149"}, "geometry": {"type": "Polygon", "coordinates": [[[-100.08311, 19.63514], [-100.0826, 19.63493], [-100.08263, 19.6347], [-100.08229, 19.63555], [-100.08156, 19.63528], [-100.08205, 19.63407], [-100.08328, 19.63454], [-100.08318, 19.63482], [-100.08482, 19.63587], [-100.0871, 19.63702], [-100.08688, 19.63791], [-100.08611, 19.63925], [-100.0857, 19.63896], [-100.0852, 19.63884], [-100.08494, 19.63812], [-100.085, 19.6377], [-100.08476, 19.63743], [-100.0847, 19.63749], [-100.08491, 19.63772], [-100.08486, 19.63811], [-100.08512, 19.63884], [-100.084, 19.63893], [-100.08165, 19.6385], [-100.08146, 19.63769], [-100.08164, 19.63726], [-100.08156, 19.63535], [-100.08276, 19.63576], [-100.08311, 19.63514]]]}}, {"id": "1210631", "type": "Feature", "properties": {"id": "1210631", "CVEGEO": "1512401490057002", "POBTOT": 0.0, "score_nse": 0.0, "NSE": null, "VIVTOT": 0.0, "GRAPROES": 0.0, "_ent": "15", "_mun": "124", "_loc": "0149"}, "geometry": {"type": "Polygon", "coordinates": [[[-100.08259, 19.63499], [-100.08301, 19.63517], [-100.08274, 19.63568], [-100.08238, 19.63551], [-100.08259, 19.63499]]]}}, {"id": "1210634", "type": "Feature", "properties": {"id": "1210634", "CVEGEO": "1512401490057011", "POBTOT": 0.0, "score_nse": 0.0, "NSE": null, "VIVTOT": 0.0, "GRAPROES": 0.0, "_ent": "15", "_mun": "124", "_loc": "0149"}, "geometry": {"type": "Polygon", "coordinates": [[[-100.07943, 19.64094], [-100.07902, 19.64081], [-100.07872, 19.64102], [-100.0782, 19.64093], [-100.07877, 19.64069], [-100.07906, 19.64027], [-100.07923, 19.63958], [-100.08024, 19.63847], [-100.08074, 19.63857], [-100.0814, 19.63842], [-100.08179, 19.63871], [-100.08162, 19.63989], [-100.08137, 19.64046], [-100.08147, 19.64137], [-100.08049, 19.64149], [-100.07998, 19.6412], [-100.07972, 19.64123], [-100.07943, 19.64094]]]}}, {"id": "1210821", "type": "Feature", "properties": {"id": "1210821", "CVEGEO": "1512401490057017", "POBTOT": 0.0, "score_nse": 0.0, "NSE": null, "VIVTOT": 0.0, "GRAPROES": 0.0, "_ent": "15", "_mun": "124", "_loc": "0149"}, "geometry": {"type": "Polygon", "coordinates": [[[-100.07809, 19.64148], [-100.07337, 19.63644], [-100.07429, 19.6357], [-100.07492, 19.63545], [-100.07652, 19.63568], [-100.07744, 19.63556], [-100.07846, 19.63614], [-100.07852, 19.63635], [-100.07798, 19.63665], [-100.07791, 19.63626], [-100.07727, 19.6358], [-100.07703, 19.63572], [-100.07671, 19.63573], [-100.07643, 19.63607], [-100.07583, 19.63613], [-100.07551, 19.6358], [-100.07581, 19.63617], [-100.07642, 19.63611], [-100.07649, 19.63652], [-100.07623, 19.63695], [-100.07629, 19.63704], [-100.07653, 19.63653], [-100.07646, 19.63608], [-100.07675, 19.63576], [-100.07726, 19.63583], [-100.07788, 19.63627], [-100.07786, 19.63738], [-100.07874, 19.63754], [-100.08016, 19.63836], [-100.07916, 19.63953], [-100.07884, 19.64048], [-100.07809, 19.64082], [-100.07788, 19.64064], [-100.07813, 19.64017], [-100.07784, 19.64061], [-100.07757, 19.6403], [-100.07745, 19.63964], [-100.07756, 19.63938], [-100.07753, 19.63822], [-100.07728, 19.63787], [-100.07744, 19.63822], [-100.0774, 19.6395], [-100.07749, 19.64016], [-100.07756, 19.64038], [-100.07786, 19.64072], [-100.07831, 19.64109], [-100.07809, 19.64148]]]}}, {"id": "1210822", "type": "Feature", "properties": {"id": "1210822", "CVEGEO": "1512401490057022", "POBTOT": 0.0, "score_nse": 0.0, "NSE": null, "VIVTOT": 0.0, "GRAPROES": 0.0, "_ent": "15", "_mun": "124", "_loc": "0149"}, "geometry": {"type": "Polygon", "coordinates": [[[-100.08129, 19.63755], [-100.08141, 19.6383], [-100.08108, 19.63827], [-100.08055, 19.6385], [-100.0787, 19.63748], [-100.07829, 19.63747], [-100.07786, 19.63725], [-100.07801, 19.63674], [-100.0783, 19.63649], [-100.07848, 19.63653], [-100.07862, 19.63626], [-100.07978, 19.63687], [-100.08044, 19.63695], [-100.08129, 19.63755]]]}}]}