{"type": "FeatureCollection", "features": [{"id": "878939", "type": "Feature", "properties": {"id": "878939", "CVEGEO": "1306800050023002", "POBTOT": 0.0, "score_nse": 0.0, "NSE": null, "VIVTOT": 0.0, "GRAPROES": 0.0, "_ent": "13", "_mun": "068", "_loc": "0005"}, "geometry": {"type": "Polygon", "coordinates": [[[-98.46694, 20.75892], [-98.46644, 20.75832], [-98.46635, 20.75802], [-98.46691, 20.7584], [-98.46694, 20.75892]]]}}, {"id": "878940", "type": "Feature", "properties": {"id": "878940", "CVEGEO": "1306800050023004", "POBTOT": 0.0, "score_nse": 0.0, "NSE": null, "VIVTOT": 0.0, "GRAPROES": 0.0, "_ent": "13", "_mun": "068", "_loc": "0005"}, "geometry": {"type": "Polygon", "coordinates": [[[-98.46575, 20.75931], [-98.4661, 20.75882], [-98.46659, 20.75911], [-98.466, 20.7594], [-98.46575, 20.75931]]]}}, {"id": "878957", "type": "Feature", "properties": {"id": "878957", "CVEGEO": "1306800050023005", "POBTOT": 0.0, "score_nse": 0.0, "NSE": null, "VIVTOT": 0.0, "GRAPROES": 0.0, "_ent": "13", "_mun": "068", "_loc": "0005"}, "geometry": {"type": "Polygon", "coordinates": [[[-98.46559, 20.75824], [-98.46538, 20.75832], [-98.46557, 20.75863], [-98.4651, 20.75887], [-98.465, 20.75825], [-98.46511, 20.75773], [-98.46527, 20.75768], [-98.46562, 20.75792], [-98.4655, 20.75808], [-98.46559, 20.75824]]]}}, {"id": "878958", "type": "Feature", "properties": {"id": "878958", "CVEGEO": "1306800050023007", "POBTOT": 0.0, "score_nse": 0.0, "NSE": null, "VIVTOT": 0.0, "GRAPROES": 0.0, "_ent": "13", "_mun": "068", "_loc": "0005"}, "geometry": {"type": "Polygon", "coordinates": [[[-98.46694, 20.75827], [-98.46634, 20.75796], [-98.46638, 20.75833], [-98.46609, 20.75854], [-98.46561, 20.75817], [-98.4663, 20.75702], [-98.46656, 20.75707], [-98.46689, 20.75769], [-98.46694, 20.75827]]]}}, {"id": "878959", "type": "Feature", "properties": {"id": "878959", "CVEGEO": "1306800050023001", "POBTOT": 0.0, "score_nse": 0.0, "NSE": null, "VIVTOT": 0.0, "GRAPROES": 0.0, "_ent": "13", "_mun": "068", "_loc": "0005"}, "geometry": {"type": "Polygon", "coordinates": [[[-98.46694, 20.75894], [-98.46653, 20.75906], [-98.46612, 20.7588], [-98.46625, 20.75838], [-98.46659, 20.75852], [-98.46694, 20.75894]]]}}, {"id": "878966", "type": "Feature", "properties": {"id": "878966", "CVEGEO": "1306800050023013", "POBTOT": 0.0, "score_nse": 0.0, "NSE": null, "VIVTOT": 0.0, "GRAPROES": 0.0, "_ent": "13", "_mun": "068", "_loc": "0005"}, "geometry": {"type": "Polygon", "coordinates": [[[-98.46695, 20.75843], [-98.46834, 20.75872], [-98.46862, 20.75849], [-98.46902, 20.7585], [-98.46948, 20.75876], [-98.46812, 20.75942], [-98.46742, 20.75895], [-98.46696, 20.75892], [-98.46695, 20.75843]]]}}, {"id": "879187", "type": "Feature", "properties": {"id": "879187", "CVEGEO": "1306800050023012", "POBTOT": 0.0, "score_nse": 0.0, "NSE": null, "VIVTOT": 0.0, "GRAPROES": 0.0, "_ent": "13", "_mun": "068", "_loc": "0005"}, "geometry": {"type": "Polygon", "coordinates": [[[-98.46607, 20.75896], [-98.46547, 20.75875], [-98.46561, 20.75855], [-98.4654, 20.75833], [-98.46562, 20.75825], [-98.46608, 20.75857], [-98.46607, 20.75896]]]}}, {"id": "879188", "type": "Feature", "properties": {"id": "879188", "CVEGEO": "1306800050023009", "POBTOT": 0.0, "score_nse": 0.0, "NSE": null, "VIVTOT": 0.0, "GRAPROES": 0.0, "_ent": "13", "_mun": "068", "_loc": "0005"}, "geometry": {"type": "Polygon", "coordinates": [[[-98.46548, 20.75877], [-98.46603, 20.75908], [-98.46547, 20.75937], [-98.46525, 20.75925], [-98.46511, 20.75891], [-98.46548, 20.75877]]]}}, {"id": "879189", "type": "Feature", "properties": {"id": "879189", "CVEGEO": "1306800050023010", "POBTOT": 0.0, "score_nse": 0.0, "NSE": null, "VIVTOT": 0.0, "GRAPROES": 0.0, "_ent": "13", "_mun": "068", "_loc": "0005"}, "geometry": {"type": "Polygon", "coordinates": [[[-98.46598, 20.75759], [-98.46507, 20.75771], [-98.46496, 20.75836], [-98.46479, 20.75848], [-98.4645, 20.75861], [-98.46371, 20.75841], [-98.46429, 20.75817], [-98.4649, 20.75722], [-98.46571, 20.75732], [-98.46659, 20.75656], [-98.46598, 20.75759]]]}}, {"id": "879190", "type": "Feature", "properties": {"id": "879190", "CVEGEO": "1306800050023008", "POBTOT": 0.0, "score_nse": 0.0, "NSE": null, "VIVTOT": 0.0, "GRAPROES": 0.0, "_ent": "13", "_mun": "068", "_loc": "0005"}, "geometry": {"type": "Polygon", "coordinates": [[[-98.46966, 20.75852], [-98.46941, 20.7586], [-98.46862, 20.75845], [-98.46833, 20.75869], [-98.46727, 20.75854], [-98.46695, 20.75838], [-98.46692, 20.7577], [-98.46731, 20.75808], [-98.46787, 20.7583], [-98.46859, 20.75802], [-98.46944, 20.75829], [-98.46966, 20.75852]]]}}]}