{"type": "FeatureCollection", "features": [{"id": "836201", "type": "Feature", "properties": {"id": "836201", "CVEGEO": "1302400220014005", "POBTOT": 0.0, "score_nse": 0.0, "NSE": null, "VIVTOT": 0.0, "GRAPROES": 0.0, "_ent": "13", "_mun": "024", "_loc": "0022"}, "geometry": {"type": "Polygon", "coordinates": [[[-98.58323, 20.3012], [-98.58284, 20.30223], [-98.58172, 20.30184], [-98.58246, 20.30084], [-98.58323, 20.3012]]]}}, {"id": "836202", "type": "Feature", "properties": {"id": "836202", "CVEGEO": "1302400220014006", "POBTOT": 0.0, "score_nse": 0.0, "NSE": null, "VIVTOT": 0.0, "GRAPROES": 0.0, "_ent": "13", "_mun": "024", "_loc": "0022"}, "geometry": {"type": "Polygon", "coordinates": [[[-98.58246, 20.29999], [-98.58237, 20.30092], [-98.58178, 20.30154], [-98.58068, 20.30128], [-98.58098, 20.30026], [-98.58148, 20.30031], [-98.58189, 20.29961], [-98.58246, 20.29999]]]}}, {"id": "836203", "type": "Feature", "properties": {"id": "836203", "CVEGEO": "1302400220014004", "POBTOT": 0.0, "score_nse": 0.0, "NSE": null, "VIVTOT": 0.0, "GRAPROES": 0.0, "_ent": "13", "_mun": "024", "_loc": "0022"}, "geometry": {"type": "Polygon", "coordinates": [[[-98.58229, 20.29832], [-98.58257, 20.29903], [-98.58217, 20.29908], [-98.58169, 20.29874], [-98.58141, 20.2988], [-98.58074, 20.29831], [-98.58141, 20.29791], [-98.58229, 20.29832]]]}}, {"id": "836204", "type": "Feature", "properties": {"id": "836204", "CVEGEO": "1302400220014002", "POBTOT": 0.0, "score_nse": 0.0, "NSE": null, "VIVTOT": 0.0, "GRAPROES": 0.0, "_ent": "13", "_mun": "024", "_loc": "0022"}, "geometry": {"type": "Polygon", "coordinates": [[[-98.58211, 20.29909], [-98.58187, 20.29955], [-98.581, 20.29897], [-98.58114, 20.29862], [-98.58211, 20.29909]]]}}, {"id": "836205", "type": "Feature", "properties": {"id": "836205", "CVEGEO": "1302400220014001", "POBTOT": 0.0, "score_nse": 0.0, "NSE": null, "VIVTOT": 0.0, "GRAPROES": 0.0, "_ent": "13", "_mun": "024", "_loc": "0022"}, "geometry": {"type": "Polygon", "coordinates": [[[-98.58185, 20.29961], [-98.58145, 20.30027], [-98.58098, 20.30022], [-98.58101, 20.29974], [-98.5813, 20.29968], [-98.58104, 20.29967], [-98.58099, 20.29907], [-98.58185, 20.29961]]]}}, {"id": "836206", "type": "Feature", "properties": {"id": "836206", "CVEGEO": "1302400220014007", "POBTOT": 0.0, "score_nse": 0.0, "NSE": null, "VIVTOT": 0.0, "GRAPROES": 0.0, "_ent": "13", "_mun": "024", "_loc": "0022"}, "geometry": {"type": "Polygon", "coordinates": [[[-98.5811, 20.30388], [-98.5817, 20.30189], [-98.58284, 20.3023], [-98.58273, 20.30368], [-98.58283, 20.304], [-98.58171, 20.30408], [-98.5811, 20.30388]]]}}, {"id": "836207", "type": "Feature", "properties": {"id": "836207", "CVEGEO": "1302400220014008", "POBTOT": 0.0, "score_nse": 0.0, "NSE": null, "VIVTOT": 0.0, "GRAPROES": 0.0, "_ent": "13", "_mun": "024", "_loc": "0022"}, "geometry": {"type": "Polygon", "coordinates": [[[-98.58174, 20.30158], [-98.58145, 20.30234], [-98.58071, 20.3021], [-98.58057, 20.30145], [-98.58064, 20.30132], [-98.58174, 20.30158]]]}}, {"id": "836226", "type": "Feature", "properties": {"id": "836226", "CVEGEO": "1302400220014009", "POBTOT": 0.0, "score_nse": 0.0, "NSE": null, "VIVTOT": 0.0, "GRAPROES": 0.0, "_ent": "13", "_mun": "024", "_loc": "0022"}, "geometry": {"type": "Polygon", "coordinates": [[[-98.58377, 20.29908], [-98.58273, 20.29904], [-98.58228, 20.29825], [-98.58183, 20.29797], [-98.58108, 20.29791], [-98.58121, 20.29762], [-98.58202, 20.2975], [-98.58248, 20.2976], [-98.58224, 20.29729], [-98.58259, 20.29743], [-98.58377, 20.29908]]]}}]}