{"type": "FeatureCollection", "features": [{"id": "835737", "type": "Feature", "properties": {"id": "835737", "CVEGEO": "1302400250014040", "POBTOT": 0.0, "score_nse": 0.0, "NSE": null, "VIVTOT": 0.0, "GRAPROES": 0.0, "_ent": "13", "_mun": "024", "_loc": "0025"}, "geometry": {"type": "Polygon", "coordinates": [[[-98.60992, 20.22524], [-98.60916, 20.22542], [-98.60892, 20.22509], [-98.60845, 20.22504], [-98.60835, 20.22487], [-98.60775, 20.22516], [-98.60707, 20.22524], [-98.60679, 20.22478], [-98.60647, 20.2248], [-98.60575, 20.22446], [-98.60561, 20.22421], [-98.60487, 20.22406], [-98.60412, 20.22357], [-98.60395, 20.22368], [-98.60352, 20.2234], [-98.60375, 20.22292], [-98.60367, 20.22251], [-98.60405, 20.22216], [-98.60499, 20.22246], [-98.6059, 20.2223], [-98.6065, 20.22153], [-98.60696, 20.22159], [-98.60731, 20.22128], [-98.60869, 20.22168], [-98.61028, 20.22166], [-98.61084, 20.22213], [-98.6112, 20.22363], [-98.61163, 20.22409], [-98.61123, 20.22407], [-98.61115, 20.22438], [-98.61095, 20.22444], [-98.60971, 20.22456], [-98.60916, 20.22429], [-98.60862, 20.22453], [-98.60916, 20.22434], [-98.60969, 20.22461], [-98.61095, 20.22448], [-98.61122, 20.22436], [-98.61132, 20.2241], [-98.61301, 20.22428], [-98.61248, 20.22494], [-98.61273, 20.22505], [-98.61268, 20.22482], [-98.61311, 20.22429], [-98.61431, 20.22489], [-98.61463, 20.22642], [-98.61014, 20.22557], [-98.60992, 20.22524]]]}}, {"id": "835741", "type": "Feature", "properties": {"id": "835741", "CVEGEO": "1302400250014027", "POBTOT": 0.0, "score_nse": 0.0, "NSE": null, "VIVTOT": 0.0, "GRAPROES": 0.0, "_ent": "13", "_mun": "024", "_loc": "0025"}, "geometry": {"type": "Polygon", "coordinates": [[[-98.60977, 20.21917], [-98.60896, 20.21895], [-98.6086, 20.21863], [-98.60762, 20.21873], [-98.60908, 20.21743], [-98.6094, 20.2173], [-98.61066, 20.21729], [-98.61233, 20.21538], [-98.61365, 20.2149], [-98.6143, 20.21529], [-98.6146, 20.2158], [-98.61527, 20.21642], [-98.61759, 20.21773], [-98.61372, 20.2182], [-98.61149, 20.21884], [-98.61091, 20.21921], [-98.60977, 20.21917]]]}}, {"id": "835742", "type": "Feature", "properties": {"id": "835742", "CVEGEO": "1302400250014026", "POBTOT": 0.0, "score_nse": 0.0, "NSE": null, "VIVTOT": 0.0, "GRAPROES": 0.0, "_ent": "13", "_mun": "024", "_loc": "0025"}, "geometry": {"type": "Polygon", "coordinates": [[[-98.60467, 20.22], [-98.60616, 20.21965], [-98.60761, 20.21882], [-98.60841, 20.21876], [-98.60947, 20.21927], [-98.61096, 20.21941], [-98.61146, 20.21903], [-98.61279, 20.21857], [-98.6146, 20.21822], [-98.61576, 20.21826], [-98.61696, 20.21794], [-98.61755, 20.21803], [-98.61802, 20.21943], [-98.61639, 20.21975], [-98.6142, 20.21983], [-98.61255, 20.22008], [-98.61208, 20.22051], [-98.61071, 20.22087], [-98.60916, 20.22152], [-98.60717, 20.22073], [-98.60467, 20.22]]]}}, {"id": "835755", "type": "Feature", "properties": {"id": "835755", "CVEGEO": "1302400250014011", "POBTOT": 0.0, "score_nse": 0.0, "NSE": null, "VIVTOT": 0.0, "GRAPROES": 0.0, "_ent": "13", "_mun": "024", "_loc": "0025"}, "geometry": {"type": "Polygon", "coordinates": [[[-98.62464, 20.20888], [-98.62488, 20.20917], [-98.62448, 20.2098], [-98.62291, 20.21092], [-98.62305, 20.20979], [-98.6229, 20.20923], [-98.62424, 20.20884], [-98.62464, 20.20888]]]}}, {"id": "835756", "type": "Feature", "properties": {"id": "835756", "CVEGEO": "1302400250014020", "POBTOT": 0.0, "score_nse": 0.0, "NSE": null, "VIVTOT": 0.0, "GRAPROES": 0.0, "_ent": "13", "_mun": "024", "_loc": "0025"}, "geometry": {"type": "Polygon", "coordinates": [[[-98.61972, 20.20319], [-98.61903, 20.20323], [-98.61905, 20.20299], [-98.61886, 20.20359], [-98.61842, 20.20353], [-98.61808, 20.20213], [-98.61869, 20.20192], [-98.61904, 20.20131], [-98.61997, 20.20082], [-98.62037, 20.20153], [-98.62023, 20.20305], [-98.61977, 20.20419], [-98.61921, 20.20411], [-98.61921, 20.20371], [-98.6189, 20.20357], [-98.61902, 20.20326], [-98.61972, 20.20319]]]}}, {"id": "835763", "type": "Feature", "properties": {"id": "835763", "CVEGEO": "1302400250014031", "POBTOT": 0.0, "score_nse": 0.0, "NSE": null, "VIVTOT": 0.0, "GRAPROES": 0.0, "_ent": "13", "_mun": "024", "_loc": "0025"}, "geometry": {"type": "Polygon", "coordinates": [[[-98.61443, 20.20325], [-98.61469, 20.20315], [-98.615, 20.20272], [-98.61554, 20.20161], [-98.61603, 20.20131], [-98.61655, 20.20068], [-98.61671, 20.20111], [-98.61561, 20.20322], [-98.61522, 20.20352], [-98.61444, 20.20465], [-98.61372, 20.20468], [-98.61408, 20.20441], [-98.61411, 20.20367], [-98.61443, 20.20325]]]}}, {"id": "835764", "type": "Feature", "properties": {"id": "835764", "CVEGEO": "1302400250014033", "POBTOT": 0.0, "score_nse": 0.0, "NSE": null, "VIVTOT": 0.0, "GRAPROES": 0.0, "_ent": "13", "_mun": "024", "_loc": "0025"}, "geometry": {"type": "Polygon", "coordinates": [[[-98.62961, 20.20098], [-98.63027, 20.20051], [-98.63057, 20.20071], [-98.63047, 20.2011], [-98.63091, 20.20127], [-98.63128, 20.20225], [-98.62985, 20.20373], [-98.62778, 20.2044], [-98.62717, 20.20141], [-98.62961, 20.20098]]]}}, {"id": "835765", "type": "Feature", "properties": {"id": "835765", "CVEGEO": "1302400250014008", "POBTOT": 0.0, "score_nse": 0.0, "NSE": null, "VIVTOT": 0.0, "GRAPROES": 0.0, "_ent": "13", "_mun": "024", "_loc": "0025"}, "geometry": {"type": "Polygon", "coordinates": [[[-98.61436, 20.20635], [-98.61422, 20.20476], [-98.61584, 20.20469], [-98.61582, 20.20566], [-98.61589, 20.20469], [-98.61709, 20.20454], [-98.61667, 20.20598], [-98.61463, 20.20637], [-98.61436, 20.20635]]]}}, {"id": "835797", "type": "Feature", "properties": {"id": "835797", "CVEGEO": "1302400250014028", "POBTOT": 0.0, "score_nse": 0.0, "NSE": null, "VIVTOT": 0.0, "GRAPROES": 0.0, "_ent": "13", "_mun": "024", "_loc": "0025"}, "geometry": {"type": "Polygon", "coordinates": [[[-98.60649, 20.21704], [-98.60724, 20.21678], [-98.60803, 20.21562], [-98.60891, 20.2147], [-98.6104, 20.21366], [-98.6115, 20.21356], [-98.61206, 20.21371], [-98.61268, 20.21356], [-98.61219, 20.21476], [-98.61178, 20.21519], [-98.61183, 20.21557], [-98.61153, 20.21615], [-98.61091, 20.21664], [-98.61062, 20.21711], [-98.6093, 20.21717], [-98.60878, 20.2174], [-98.60745, 20.2187], [-98.60598, 20.21948], [-98.60515, 20.21963], [-98.60438, 20.21999], [-98.60364, 20.22005], [-98.60346, 20.21972], [-98.6037, 20.21889], [-98.60476, 20.2181], [-98.60596, 20.21753], [-98.60649, 20.21704]]]}}, {"id": "835798", "type": "Feature", "properties": {"id": "835798", "CVEGEO": "1302400250014016", "POBTOT": 0.0, "score_nse": 0.0, "NSE": null, "VIVTOT": 0.0, "GRAPROES": 0.0, "_ent": "13", "_mun": "024", "_loc": "0025"}, "geometry": {"type": "Polygon", "coordinates": [[[-98.61414, 20.20478], [-98.61419, 20.20626], [-98.61384, 20.20626], [-98.61377, 20.2051], [-98.61414, 20.20478]]]}}, {"id": "835799", "type": "Feature", "properties": {"id": "835799", "CVEGEO": "1302400250014019", "POBTOT": 0.0, "score_nse": 0.0, "NSE": null, "VIVTOT": 0.0, "GRAPROES": 0.0, "_ent": "13", "_mun": "024", "_loc": "0025"}, "geometry": {"type": "Polygon", "coordinates": [[[-98.61679, 20.20448], [-98.61642, 20.20273], [-98.61805, 20.20215], [-98.61832, 20.20337], [-98.6178, 20.20357], [-98.61831, 20.20344], [-98.6184, 20.20358], [-98.61912, 20.2037], [-98.61916, 20.2041], [-98.61679, 20.20448]]]}}, {"id": "835800", "type": "Feature", "properties": {"id": "835800", "CVEGEO": "1302400250014009", "POBTOT": 0.0, "score_nse": 0.0, "NSE": null, "VIVTOT": 0.0, "GRAPROES": 0.0, "_ent": "13", "_mun": "024", "_loc": "0025"}, "geometry": {"type": "Polygon", "coordinates": [[[-98.6168, 20.20601], [-98.6172, 20.2048], [-98.61777, 20.20491], [-98.61823, 20.20482], [-98.61981, 20.20428], [-98.62121, 20.20431], [-98.62083, 20.20566], [-98.62027, 20.20585], [-98.62039, 20.2061], [-98.61988, 20.20584], [-98.61934, 20.20591], [-98.61877, 20.20571], [-98.61712, 20.20632], [-98.6168, 20.20601]]]}}, {"id": "835836", "type": "Feature", "properties": {"id": "835836", "CVEGEO": "1302400250014054", "POBTOT": 0.0, "score_nse": 0.0, "NSE": null, "VIVTOT": 0.0, "GRAPROES": 0.0, "_ent": "13", "_mun": "024", "_loc": "0025"}, "geometry": {"type": "Polygon", "coordinates": [[[-98.60213, 20.21303], [-98.6011, 20.2129], [-98.6011, 20.21221], [-98.60059, 20.21175], [-98.60083, 20.21096], [-98.60104, 20.21087], [-98.60135, 20.21145], [-98.60168, 20.21167], [-98.60271, 20.21174], [-98.60349, 20.21203], [-98.60365, 20.21248], [-98.60298, 20.21289], [-98.60213, 20.21303]]]}}, {"id": "835837", "type": "Feature", "properties": {"id": "835837", "CVEGEO": "1302400250014038", "POBTOT": 0.0, "score_nse": 0.0, "NSE": null, "VIVTOT": 0.0, "GRAPROES": 0.0, "_ent": "13", "_mun": "024", "_loc": "0025"}, "geometry": {"type": "Polygon", "coordinates": [[[-98.61708, 20.22285], [-98.61582, 20.22298], [-98.61513, 20.2226], [-98.61462, 20.22266], [-98.61437, 20.22174], [-98.61453, 20.22149], [-98.61567, 20.22125], [-98.61625, 20.22092], [-98.61805, 20.22087], [-98.6184, 20.22065], [-98.61768, 20.22281], [-98.61741, 20.22302], [-98.61708, 20.22285]]]}}, {"id": "835838", "type": "Feature", "properties": {"id": "835838", "CVEGEO": "1302400250014037", "POBTOT": 0.0, "score_nse": 0.0, "NSE": null, "VIVTOT": 0.0, "GRAPROES": 0.0, "_ent": "13", "_mun": "024", "_loc": "0025"}, "geometry": {"type": "Polygon", "coordinates": [[[-98.61858, 20.22321], [-98.61742, 20.22312], [-98.61797, 20.22232], [-98.61856, 20.22031], [-98.61906, 20.222], [-98.61937, 20.22258], [-98.61924, 20.22308], [-98.61858, 20.22321]]]}}, {"id": "835840", "type": "Feature", "properties": {"id": "835840", "CVEGEO": "1302400250014036", "POBTOT": 0.0, "score_nse": 0.0, "NSE": null, "VIVTOT": 0.0, "GRAPROES": 0.0, "_ent": "13", "_mun": "024", "_loc": "0025"}, "geometry": {"type": "Polygon", "coordinates": [[[-98.61996, 20.2195], [-98.61855, 20.22021], [-98.61811, 20.2195], [-98.61897, 20.21942], [-98.61996, 20.2195]]]}}, {"id": "835841", "type": "Feature", "properties": {"id": "835841", "CVEGEO": "1302400250014035", "POBTOT": 0.0, "score_nse": 0.0, "NSE": null, "VIVTOT": 0.0, "GRAPROES": 0.0, "_ent": "13", "_mun": "024", "_loc": "0025"}, "geometry": {"type": "Polygon", "coordinates": [[[-98.62045, 20.21936], [-98.62084, 20.21937], [-98.62019, 20.22115], [-98.61933, 20.22235], [-98.61857, 20.22027], [-98.62045, 20.21936]]]}}, {"id": "835842", "type": "Feature", "properties": {"id": "835842", "CVEGEO": "1302400250014021", "POBTOT": 0.0, "score_nse": 0.0, "NSE": null, "VIVTOT": 0.0, "GRAPROES": 0.0, "_ent": "13", "_mun": "024", "_loc": "0025"}, "geometry": {"type": "Polygon", "coordinates": [[[-98.62489, 20.21649], [-98.62468, 20.21451], [-98.62477, 20.21408], [-98.62514, 20.21348], [-98.62532, 20.21346], [-98.62543, 20.21303], [-98.62629, 20.21187], [-98.62664, 20.211], [-98.62682, 20.20988], [-98.62929, 20.21058], [-98.6296, 20.21033], [-98.62997, 20.21307], [-98.62898, 20.21321], [-98.62756, 20.214], [-98.62831, 20.21349], [-98.62868, 20.21259], [-98.62862, 20.21192], [-98.62839, 20.21291], [-98.62803, 20.21343], [-98.62813, 20.21353], [-98.62733, 20.2141], [-98.62642, 20.21338], [-98.62633, 20.21316], [-98.62724, 20.21235], [-98.6263, 20.21317], [-98.62645, 20.21347], [-98.62728, 20.21412], [-98.62679, 20.21422], [-98.62668, 20.21431], [-98.62723, 20.21419], [-98.62653, 20.21536], [-98.62744, 20.21409], [-98.62706, 20.21476], [-98.62695, 20.21546], [-98.6265, 20.21591], [-98.62489, 20.21649]]]}}, {"id": "835846", "type": "Feature", "properties": {"id": "835846", "CVEGEO": "1302400250014006", "POBTOT": 0.0, "score_nse": 0.0, "NSE": null, "VIVTOT": 0.0, "GRAPROES": 0.0, "_ent": "13", "_mun": "024", "_loc": "0025"}, "geometry": {"type": "Polygon", "coordinates": [[[-98.61558, 20.21019], [-98.61581, 20.21086], [-98.61551, 20.21189], [-98.61565, 20.21263], [-98.61556, 20.21295], [-98.61486, 20.21451], [-98.61388, 20.21475], [-98.61283, 20.21348], [-98.61349, 20.21297], [-98.61406, 20.21194], [-98.61535, 20.21084], [-98.61558, 20.21019]]]}}, {"id": "835847", "type": "Feature", "properties": {"id": "835847", "CVEGEO": "1302400250014003", "POBTOT": 0.0, "score_nse": 0.0, "NSE": null, "VIVTOT": 0.0, "GRAPROES": 0.0, "_ent": "13", "_mun": "024", "_loc": "0025"}, "geometry": {"type": "Polygon", "coordinates": [[[-98.6239, 20.21971], [-98.62261, 20.21927], [-98.62255, 20.21857], [-98.62282, 20.2182], [-98.62333, 20.21803], [-98.62415, 20.21703], [-98.62442, 20.21723], [-98.62524, 20.21723], [-98.62593, 20.21762], [-98.62817, 20.21664], [-98.63028, 20.21684], [-98.63087, 20.21649], [-98.63119, 20.21953], [-98.62609, 20.21939], [-98.62559, 20.21997], [-98.6239, 20.21971]]]}}, {"id": "835848", "type": "Feature", "properties": {"id": "835848", "CVEGEO": "1302400250014002", "POBTOT": 0.0, "score_nse": 0.0, "NSE": null, "VIVTOT": 0.0, "GRAPROES": 0.0, "_ent": "13", "_mun": "024", "_loc": "0025"}, "geometry": {"type": "Polygon", "coordinates": [[[-98.62448, 20.21377], [-98.62444, 20.2131], [-98.62366, 20.21222], [-98.6228, 20.21169], [-98.62291, 20.21099], [-98.62466, 20.20963], [-98.62509, 20.21059], [-98.62469, 20.20959], [-98.62497, 20.20912], [-98.62587, 20.20846], [-98.62647, 20.20761], [-98.62695, 20.20737], [-98.62875, 20.20502], [-98.62965, 20.20492], [-98.62908, 20.20709], [-98.62958, 20.21027], [-98.62934, 20.21052], [-98.6268, 20.2098], [-98.62667, 20.20949], [-98.62703, 20.20771], [-98.62658, 20.20939], [-98.6266, 20.21034], [-98.62625, 20.21091], [-98.62618, 20.21166], [-98.6257, 20.21214], [-98.62564, 20.21253], [-98.62522, 20.21294], [-98.62523, 20.21318], [-98.62493, 20.21357], [-98.62475, 20.21346], [-98.62448, 20.21377]]]}}, {"id": "835877", "type": "Feature", "properties": {"id": "835877", "CVEGEO": "1302400250014017", "POBTOT": 0.0, "score_nse": 0.0, "NSE": null, "VIVTOT": 0.0, "GRAPROES": 0.0, "_ent": "13", "_mun": "024", "_loc": "0025"}, "geometry": {"type": "Polygon", "coordinates": [[[-98.61535, 20.20358], [-98.61657, 20.20359], [-98.61674, 20.20451], [-98.6145, 20.20465], [-98.61535, 20.20358]]]}}, {"id": "835884", "type": "Feature", "properties": {"id": "835884", "CVEGEO": "1302400250014013", "POBTOT": 0.0, "score_nse": 0.0, "NSE": null, "VIVTOT": 0.0, "GRAPROES": 0.0, "_ent": "13", "_mun": "024", "_loc": "0025"}, "geometry": {"type": "Polygon", "coordinates": [[[-98.61455, 20.21561], [-98.6139, 20.21485], [-98.61499, 20.21463], [-98.61455, 20.21561]]]}}, {"id": "835896", "type": "Feature", "properties": {"id": "835896", "CVEGEO": "1302400250014018", "POBTOT": 0.0, "score_nse": 0.0, "NSE": null, "VIVTOT": 0.0, "GRAPROES": 0.0, "_ent": "13", "_mun": "024", "_loc": "0025"}, "geometry": {"type": "Polygon", "coordinates": [[[-98.61643, 20.20158], [-98.61722, 20.20163], [-98.61757, 20.2022], [-98.61634, 20.20267], [-98.61654, 20.20353], [-98.61527, 20.20353], [-98.61569, 20.20318], [-98.61643, 20.20158]]]}}, {"id": "835914", "type": "Feature", "properties": {"id": "835914", "CVEGEO": "1302400250014042", "POBTOT": 0.0, "score_nse": 0.0, "NSE": null, "VIVTOT": 0.0, "GRAPROES": 0.0, "_ent": "13", "_mun": "024", "_loc": "0025"}, "geometry": {"type": "Polygon", "coordinates": [[[-98.60238, 20.22293], [-98.60139, 20.22271], [-98.59983, 20.22277], [-98.59936, 20.22226], [-98.59936, 20.22157], [-98.59974, 20.22142], [-98.59982, 20.2211], [-98.60025, 20.22115], [-98.60006, 20.2208], [-98.60043, 20.22059], [-98.60207, 20.22046], [-98.6037, 20.22009], [-98.60471, 20.22013], [-98.60433, 20.22034], [-98.60397, 20.22111], [-98.60355, 20.22143], [-98.60361, 20.22212], [-98.6034, 20.22231], [-98.60332, 20.22271], [-98.60238, 20.22293]]]}}, {"id": "835922", "type": "Feature", "properties": {"id": "835922", "CVEGEO": "1302400250014032", "POBTOT": 0.0, "score_nse": 0.0, "NSE": null, "VIVTOT": 0.0, "GRAPROES": 0.0, "_ent": "13", "_mun": "024", "_loc": "0025"}, "geometry": {"type": "Polygon", "coordinates": [[[-98.61683, 20.20102], [-98.6171, 20.20074], [-98.61798, 20.20037], [-98.61923, 20.20035], [-98.61989, 20.20074], [-98.61963, 20.20099], [-98.61909, 20.20109], [-98.61853, 20.20196], [-98.61763, 20.20218], [-98.61726, 20.2016], [-98.61691, 20.20144], [-98.61697, 20.20112], [-98.61683, 20.20102]]]}}, {"id": "835928", "type": "Feature", "properties": {"id": "835928", "CVEGEO": "1302400250014053", "POBTOT": 0.0, "score_nse": 0.0, "NSE": null, "VIVTOT": 0.0, "GRAPROES": 0.0, "_ent": "13", "_mun": "024", "_loc": "0025"}, "geometry": {"type": "Polygon", "coordinates": [[[-98.60901, 20.21354], [-98.61034, 20.21364], [-98.60887, 20.21468], [-98.60793, 20.2157], [-98.60731, 20.21668], [-98.60691, 20.21696], [-98.60643, 20.21704], [-98.6059, 20.21753], [-98.60472, 20.21808], [-98.60364, 20.2189], [-98.60343, 20.21972], [-98.60359, 20.22007], [-98.59998, 20.22067], [-98.59945, 20.22013], [-98.59905, 20.22007], [-98.60045, 20.21926], [-98.60075, 20.21877], [-98.60073, 20.2184], [-98.60125, 20.21795], [-98.6028, 20.21774], [-98.6023, 20.21771], [-98.60233, 20.21721], [-98.60213, 20.21683], [-98.60242, 20.21705], [-98.60406, 20.21706], [-98.60328, 20.21702], [-98.603, 20.21683], [-98.60246, 20.21692], [-98.60206, 20.21673], [-98.60223, 20.2149], [-98.60248, 20.21432], [-98.60228, 20.21327], [-98.60328, 20.21314], [-98.60376, 20.21271], [-98.6045, 20.21287], [-98.60499, 20.21251], [-98.60545, 20.21242], [-98.60733, 20.21315], [-98.60901, 20.21354]]]}}, {"id": "835929", "type": "Feature", "properties": {"id": "835929", "CVEGEO": "1302400250014030", "POBTOT": 0.0, "score_nse": 0.0, "NSE": null, "VIVTOT": 0.0, "GRAPROES": 0.0, "_ent": "13", "_mun": "024", "_loc": "0025"}, "geometry": {"type": "Polygon", "coordinates": [[[-98.60353, 20.21199], [-98.60273, 20.21169], [-98.6017, 20.21161], [-98.60139, 20.21142], [-98.6011, 20.21086], [-98.6014, 20.21062], [-98.60136, 20.21045], [-98.6023, 20.21041], [-98.60311, 20.20981], [-98.60353, 20.20917], [-98.6042, 20.209], [-98.60492, 20.20836], [-98.60667, 20.20757], [-98.6073, 20.20671], [-98.60779, 20.20635], [-98.60849, 20.20628], [-98.60893, 20.20646], [-98.61007, 20.20645], [-98.61093, 20.20595], [-98.61129, 20.20549], [-98.61155, 20.20613], [-98.61215, 20.20656], [-98.61161, 20.20748], [-98.61128, 20.20861], [-98.61117, 20.20976], [-98.6114, 20.21057], [-98.61124, 20.2115], [-98.61136, 20.21287], [-98.6105, 20.21358], [-98.60936, 20.2136], [-98.60735, 20.2131], [-98.60547, 20.21237], [-98.60496, 20.21246], [-98.60449, 20.21282], [-98.60381, 20.21268], [-98.60432, 20.21249], [-98.60483, 20.2115], [-98.60592, 20.21094], [-98.6074, 20.20968], [-98.60835, 20.2092], [-98.60962, 20.20797], [-98.60922, 20.20809], [-98.60803, 20.2091], [-98.60595, 20.21004], [-98.60525, 20.2108], [-98.60452, 20.21097], [-98.60416, 20.21138], [-98.60397, 20.2122], [-98.60374, 20.21246], [-98.60353, 20.21199]]]}}, {"id": "835931", "type": "Feature", "properties": {"id": "835931", "CVEGEO": "1302400250014015", "POBTOT": 0.0, "score_nse": 0.0, "NSE": null, "VIVTOT": 0.0, "GRAPROES": 0.0, "_ent": "13", "_mun": "024", "_loc": "0025"}, "geometry": {"type": "Polygon", "coordinates": [[[-98.61384, 20.20633], [-98.61436, 20.20644], [-98.61428, 20.20798], [-98.61383, 20.20787], [-98.61384, 20.20633]]]}}, {"id": "835932", "type": "Feature", "properties": {"id": "835932", "CVEGEO": "1302400250014004", "POBTOT": 0.0, "score_nse": 0.0, "NSE": null, "VIVTOT": 0.0, "GRAPROES": 0.0, "_ent": "13", "_mun": "024", "_loc": "0025"}, "geometry": {"type": "Polygon", "coordinates": [[[-98.61458, 20.22264], [-98.61391, 20.22211], [-98.61351, 20.22217], [-98.61264, 20.22178], [-98.61163, 20.22119], [-98.61159, 20.22098], [-98.61268, 20.22029], [-98.61309, 20.22037], [-98.61387, 20.22009], [-98.61436, 20.22019], [-98.61473, 20.21996], [-98.61729, 20.21956], [-98.61807, 20.2195], [-98.61852, 20.22023], [-98.61835, 20.22066], [-98.61803, 20.22084], [-98.61698, 20.22077], [-98.61622, 20.2209], [-98.61578, 20.22118], [-98.61447, 20.22148], [-98.61429, 20.22193], [-98.61458, 20.22264]]]}}, {"id": "835966", "type": "Feature", "properties": {"id": "835966", "CVEGEO": "1302400250014041", "POBTOT": 0.0, "score_nse": 0.0, "NSE": null, "VIVTOT": 0.0, "GRAPROES": 0.0, "_ent": "13", "_mun": "024", "_loc": "0025"}, "geometry": {"type": "Polygon", "coordinates": [[[-98.60497, 20.22233], [-98.60391, 20.22192], [-98.60387, 20.22174], [-98.60436, 20.22093], [-98.60501, 20.22028], [-98.60624, 20.22048], [-98.60833, 20.22123], [-98.60729, 20.22106], [-98.60687, 20.22141], [-98.60614, 20.22152], [-98.60572, 20.22217], [-98.60497, 20.22233]]]}}, {"id": "835968", "type": "Feature", "properties": {"id": "835968", "CVEGEO": "1302400250014025", "POBTOT": 0.0, "score_nse": 0.0, "NSE": null, "VIVTOT": 0.0, "GRAPROES": 0.0, "_ent": "13", "_mun": "024", "_loc": "0025"}, "geometry": {"type": "Polygon", "coordinates": [[[-98.61764, 20.218], [-98.61989, 20.21742], [-98.62039, 20.21765], [-98.62093, 20.2182], [-98.62122, 20.21824], [-98.62085, 20.21932], [-98.62001, 20.21947], [-98.61808, 20.21944], [-98.61764, 20.218]]]}}, {"id": "835969", "type": "Feature", "properties": {"id": "835969", "CVEGEO": "1302400250014024", "POBTOT": 0.0, "score_nse": 0.0, "NSE": null, "VIVTOT": 0.0, "GRAPROES": 0.0, "_ent": "13", "_mun": "024", "_loc": "0025"}, "geometry": {"type": "Polygon", "coordinates": [[[-98.62336, 20.21652], [-98.62407, 20.21699], [-98.62323, 20.21791], [-98.62259, 20.2183], [-98.62242, 20.21876], [-98.62253, 20.21927], [-98.62094, 20.21926], [-98.62128, 20.21824], [-98.62186, 20.21729], [-98.62261, 20.21654], [-98.62336, 20.21652]]]}}, {"id": "835970", "type": "Feature", "properties": {"id": "835970", "CVEGEO": "1302400250014023", "POBTOT": 0.0, "score_nse": 0.0, "NSE": null, "VIVTOT": 0.0, "GRAPROES": 0.0, "_ent": "13", "_mun": "024", "_loc": "0025"}, "geometry": {"type": "Polygon", "coordinates": [[[-98.62332, 20.21645], [-98.62266, 20.21646], [-98.62441, 20.21395], [-98.62462, 20.21544], [-98.62445, 20.21617], [-98.62464, 20.2165], [-98.62408, 20.21694], [-98.62332, 20.21645]]]}}, {"id": "835971", "type": "Feature", "properties": {"id": "835971", "CVEGEO": "1302400250014022", "POBTOT": 0.0, "score_nse": 0.0, "NSE": null, "VIVTOT": 0.0, "GRAPROES": 0.0, "_ent": "13", "_mun": "024", "_loc": "0025"}, "geometry": {"type": "Polygon", "coordinates": [[[-98.62519, 20.21718], [-98.6244, 20.21718], [-98.6242, 20.21692], [-98.62542, 20.21629], [-98.62663, 20.21599], [-98.62704, 20.21554], [-98.62713, 20.21492], [-98.62755, 20.21404], [-98.62896, 20.21324], [-98.62998, 20.21319], [-98.63007, 20.21416], [-98.63079, 20.21505], [-98.63086, 20.21642], [-98.63071, 20.2166], [-98.63039, 20.21678], [-98.62844, 20.21662], [-98.62842, 20.21619], [-98.6284, 20.21648], [-98.62671, 20.21729], [-98.62656, 20.21711], [-98.62667, 20.21731], [-98.62608, 20.21754], [-98.62582, 20.21757], [-98.62519, 20.21718]]]}}, {"id": "835972", "type": "Feature", "properties": {"id": "835972", "CVEGEO": "1302400250014007", "POBTOT": 0.0, "score_nse": 0.0, "NSE": null, "VIVTOT": 0.0, "GRAPROES": 0.0, "_ent": "13", "_mun": "024", "_loc": "0025"}, "geometry": {"type": "Polygon", "coordinates": [[[-98.61469, 20.20897], [-98.61439, 20.20886], [-98.61433, 20.20859], [-98.61444, 20.20641], [-98.61667, 20.20605], [-98.61659, 20.20646], [-98.61592, 20.20706], [-98.61559, 20.20858], [-98.61554, 20.21003], [-98.61469, 20.20897]]]}}, {"id": "835973", "type": "Feature", "properties": {"id": "835973", "CVEGEO": "1302400250014005", "POBTOT": 0.0, "score_nse": 0.0, "NSE": null, "VIVTOT": 0.0, "GRAPROES": 0.0, "_ent": "13", "_mun": "024", "_loc": "0025"}, "geometry": {"type": "Polygon", "coordinates": [[[-98.61335, 20.20686], [-98.61378, 20.20689], [-98.61375, 20.20785], [-98.61315, 20.20764], [-98.61294, 20.2077], [-98.61428, 20.20803], [-98.61438, 20.20889], [-98.61403, 20.2094], [-98.61441, 20.20891], [-98.61477, 20.20908], [-98.61531, 20.20974], [-98.6149, 20.21054], [-98.61448, 20.21098], [-98.61352, 20.21123], [-98.61354, 20.21128], [-98.61451, 20.21103], [-98.61494, 20.21055], [-98.61535, 20.20979], [-98.6155, 20.21018], [-98.61525, 20.2107], [-98.61366, 20.21211], [-98.61335, 20.21278], [-98.61292, 20.21325], [-98.61245, 20.21356], [-98.61175, 20.21364], [-98.61245, 20.21308], [-98.6117, 20.21361], [-98.61147, 20.21311], [-98.61282, 20.21174], [-98.61145, 20.21305], [-98.61129, 20.21152], [-98.61146, 20.21072], [-98.61121, 20.2101], [-98.61139, 20.2083], [-98.61197, 20.2068], [-98.6121, 20.20667], [-98.61213, 20.20779], [-98.61214, 20.20664], [-98.61374, 20.20515], [-98.61378, 20.20682], [-98.61335, 20.20686]]]}}, {"id": "835975", "type": "Feature", "properties": {"id": "835975", "CVEGEO": "1302400250014001", "POBTOT": 0.0, "score_nse": 0.0, "NSE": null, "VIVTOT": 0.0, "GRAPROES": 0.0, "_ent": "13", "_mun": "024", "_loc": "0025"}, "geometry": {"type": "Polygon", "coordinates": [[[-98.61626, 20.207], [-98.61688, 20.20648], [-98.61732, 20.20651], [-98.61828, 20.20592], [-98.61883, 20.20581], [-98.61927, 20.20597], [-98.61995, 20.2059], [-98.62161, 20.20682], [-98.62155, 20.20733], [-98.62307, 20.20848], [-98.62299, 20.20869], [-98.6224, 20.20889], [-98.62294, 20.20876], [-98.62278, 20.20919], [-98.62148, 20.21013], [-98.62089, 20.21029], [-98.61937, 20.21238], [-98.61808, 20.21371], [-98.61711, 20.21432], [-98.61689, 20.2149], [-98.6151, 20.2145], [-98.61579, 20.21252], [-98.61568, 20.21185], [-98.61591, 20.21099], [-98.61559, 20.21014], [-98.61584, 20.2079], [-98.61626, 20.207]]]}}, {"id": "836003", "type": "Feature", "properties": {"id": "836003", "CVEGEO": "1302400250014043", "POBTOT": 0.0, "score_nse": 0.0, "NSE": null, "VIVTOT": 0.0, "GRAPROES": 0.0, "_ent": "13", "_mun": "024", "_loc": "0025"}, "geometry": {"type": "Polygon", "coordinates": [[[-98.59883, 20.21844], [-98.59831, 20.21848], [-98.59755, 20.21817], [-98.59804, 20.21818], [-98.59869, 20.21787], [-98.59919, 20.21791], [-98.60143, 20.21734], [-98.60211, 20.21685], [-98.60227, 20.2171], [-98.60226, 20.2177], [-98.60124, 20.21793], [-98.60084, 20.2182], [-98.60061, 20.21887], [-98.59956, 20.21873], [-98.59883, 20.21844]]]}}, {"id": "836008", "type": "Feature", "properties": {"id": "836008", "CVEGEO": "1302400250014010", "POBTOT": 0.0, "score_nse": 0.0, "NSE": null, "VIVTOT": 0.0, "GRAPROES": 0.0, "_ent": "13", "_mun": "024", "_loc": "0025"}, "geometry": {"type": "Polygon", "coordinates": [[[-98.62284, 20.20916], [-98.62308, 20.20835], [-98.6216, 20.20732], [-98.62166, 20.20682], [-98.6203, 20.20594], [-98.62087, 20.20568], [-98.62124, 20.20432], [-98.62139, 20.20437], [-98.62146, 20.20483], [-98.62172, 20.20509], [-98.62149, 20.20479], [-98.62145, 20.20436], [-98.62331, 20.20445], [-98.62502, 20.20476], [-98.62517, 20.20502], [-98.62504, 20.20599], [-98.62434, 20.20619], [-98.6235, 20.20763], [-98.62296, 20.20741], [-98.62348, 20.20767], [-98.62358, 20.2076], [-98.62433, 20.20624], [-98.62479, 20.20611], [-98.62495, 20.20662], [-98.62541, 20.20697], [-98.62543, 20.20743], [-98.62542, 20.20697], [-98.62491, 20.20648], [-98.62489, 20.20611], [-98.6251, 20.20596], [-98.6252, 20.20502], [-98.62508, 20.20477], [-98.62655, 20.20474], [-98.62986, 20.20384], [-98.62966, 20.20484], [-98.62871, 20.20496], [-98.62704, 20.2072], [-98.62647, 20.20757], [-98.62564, 20.20859], [-98.62491, 20.20908], [-98.62459, 20.20874], [-98.62284, 20.20916]]]}}, {"id": "836015", "type": "Feature", "properties": {"id": "836015", "CVEGEO": "1302400250014045", "POBTOT": 0.0, "score_nse": 0.0, "NSE": null, "VIVTOT": 0.0, "GRAPROES": 0.0, "_ent": "13", "_mun": "024", "_loc": "0025"}, "geometry": {"type": "Polygon", "coordinates": [[[-98.62604, 20.21948], [-98.6312, 20.21957], [-98.63125, 20.22078], [-98.62563, 20.21997], [-98.62604, 20.21948]]]}}, {"id": "836016", "type": "Feature", "properties": {"id": "836016", "CVEGEO": "1302400250014014", "POBTOT": 0.0, "score_nse": 0.0, "NSE": null, "VIVTOT": 0.0, "GRAPROES": 0.0, "_ent": "13", "_mun": "024", "_loc": "0025"}, "geometry": {"type": "Polygon", "coordinates": [[[-98.61199, 20.21531], [-98.61281, 20.21356], [-98.61375, 20.21472], [-98.61279, 20.21486], [-98.61199, 20.21531]]]}}, {"id": "836028", "type": "Feature", "properties": {"id": "836028", "CVEGEO": "1302400250014012", "POBTOT": 0.0, "score_nse": 0.0, "NSE": null, "VIVTOT": 0.0, "GRAPROES": 0.0, "_ent": "13", "_mun": "024", "_loc": "0025"}, "geometry": {"type": "Polygon", "coordinates": [[[-98.61856, 20.21761], [-98.6198, 20.21708], [-98.61781, 20.21774], [-98.61533, 20.21641], [-98.61458, 20.21563], [-98.61503, 20.21464], [-98.61696, 20.2151], [-98.61737, 20.21437], [-98.61816, 20.21392], [-98.61945, 20.21259], [-98.62011, 20.21149], [-98.62094, 20.21061], [-98.62206, 20.21002], [-98.62282, 20.20928], [-98.623, 20.20996], [-98.62275, 20.21169], [-98.6236, 20.21221], [-98.62437, 20.21307], [-98.62449, 20.21349], [-98.62431, 20.21412], [-98.62241, 20.21665], [-98.62173, 20.21651], [-98.62171, 20.21628], [-98.6215, 20.2158], [-98.62117, 20.21556], [-98.62131, 20.21513], [-98.62127, 20.21501], [-98.62116, 20.21494], [-98.62127, 20.21509], [-98.62111, 20.21551], [-98.62068, 20.21532], [-98.62146, 20.2158], [-98.62149, 20.21592], [-98.62085, 20.21607], [-98.62087, 20.21611], [-98.62147, 20.21596], [-98.62175, 20.21657], [-98.62236, 20.21669], [-98.62126, 20.21821], [-98.62088, 20.21813], [-98.62044, 20.21763], [-98.61996, 20.21739], [-98.61856, 20.21761]]]}}, {"id": "836052", "type": "Feature", "properties": {"id": "836052", "CVEGEO": "1302400250014044", "POBTOT": 0.0, "score_nse": 0.0, "NSE": null, "VIVTOT": 0.0, "GRAPROES": 0.0, "_ent": "13", "_mun": "024", "_loc": "0025"}, "geometry": {"type": "Polygon", "coordinates": [[[-98.61302, 20.2048], [-98.61411, 20.20477], [-98.6122, 20.20653], [-98.61154, 20.206], [-98.61133, 20.20545], [-98.61144, 20.20536], [-98.61302, 20.2048]]]}}, {"id": "836061", "type": "Feature", "properties": {"id": "836061", "CVEGEO": "1302400250014029", "POBTOT": 0.0, "score_nse": 0.0, "NSE": null, "VIVTOT": 0.0, "GRAPROES": 0.0, "_ent": "13", "_mun": "024", "_loc": "0025"}, "geometry": {"type": "Polygon", "coordinates": [[[-98.61137, 20.21293], [-98.6115, 20.21349], [-98.61055, 20.2136], [-98.6109, 20.21334], [-98.61137, 20.21293]]]}}, {"id": "836062", "type": "Feature", "properties": {"id": "836062", "CVEGEO": "1302400250014039", "POBTOT": 0.0, "score_nse": 0.0, "NSE": null, "VIVTOT": 0.0, "GRAPROES": 0.0, "_ent": "13", "_mun": "024", "_loc": "0025"}, "geometry": {"type": "Polygon", "coordinates": [[[-98.62394, 20.22637], [-98.62355, 20.22697], [-98.62344, 20.22754], [-98.6224, 20.2276], [-98.61933, 20.22715], [-98.61942, 20.2258], [-98.61913, 20.22511], [-98.61917, 20.22454], [-98.61938, 20.2242], [-98.61907, 20.22357], [-98.62002, 20.22412], [-98.62012, 20.22498], [-98.62027, 20.22501], [-98.62032, 20.22482], [-98.62088, 20.22532], [-98.62109, 20.22526], [-98.62146, 20.22552], [-98.62174, 20.2254], [-98.62216, 20.22596], [-98.62245, 20.22584], [-98.6233, 20.22607], [-98.62346, 20.22636], [-98.62394, 20.22637]]]}}, {"id": "836090", "type": "Feature", "properties": {"id": "836090", "CVEGEO": "1302400250014055", "POBTOT": 0.0, "score_nse": 0.0, "NSE": null, "VIVTOT": 0.0, "GRAPROES": 0.0, "_ent": "13", "_mun": "024", "_loc": "0025"}, "geometry": {"type": "Polygon", "coordinates": [[[-98.619, 20.22354], [-98.61932, 20.22411], [-98.61907, 20.22509], [-98.61936, 20.22578], [-98.61929, 20.22722], [-98.61471, 20.22636], [-98.6144, 20.22488], [-98.61393, 20.22448], [-98.61444, 20.22316], [-98.61463, 20.22318], [-98.61464, 20.2229], [-98.61505, 20.22295], [-98.61551, 20.22332], [-98.61618, 20.22315], [-98.61632, 20.22334], [-98.61665, 20.2232], [-98.61774, 20.22347], [-98.61822, 20.22329], [-98.619, 20.22354]]]}}, {"id": "836091", "type": "Feature", "properties": {"id": "836091", "CVEGEO": "1302400250014056", "POBTOT": 0.0, "score_nse": 0.0, "NSE": null, "VIVTOT": 0.0, "GRAPROES": 0.0, "_ent": "13", "_mun": "024", "_loc": "0025"}, "geometry": {"type": "Polygon", "coordinates": [[[-98.61387, 20.22448], [-98.61295, 20.22416], [-98.61169, 20.22401], [-98.61129, 20.22368], [-98.61088, 20.22207], [-98.61044, 20.22167], [-98.60997, 20.22158], [-98.61127, 20.22142], [-98.614, 20.22254], [-98.61428, 20.22284], [-98.61415, 20.22307], [-98.61441, 20.22311], [-98.61387, 20.22448]]]}}]}