{"type": "FeatureCollection", "features": [{"id": "1107015", "type": "Feature", "properties": {"id": "1107015", "CVEGEO": "150460004003A016", "POBTOT": 0.0, "score_nse": 0.0, "NSE": null, "VIVTOT": 0.0, "GRAPROES": 0.0, "_ent": "15", "_mun": "046", "_loc": "0004"}, "geometry": {"type": "Polygon", "coordinates": [[[-99.3987, 19.53198], [-99.39857, 19.53285], [-99.39795, 19.53342], [-99.39684, 19.53415], [-99.39631, 19.53419], [-99.3964, 19.53371], [-99.39746, 19.5327], [-99.39807, 19.53223], [-99.3987, 19.53198]]]}}, {"id": "1107035", "type": "Feature", "properties": {"id": "1107035", "CVEGEO": "150460004003A001", "POBTOT": 0.0, "score_nse": 0.0, "NSE": null, "VIVTOT": 0.0, "GRAPROES": 0.0, "_ent": "15", "_mun": "046", "_loc": "0004"}, "geometry": {"type": "Polygon", "coordinates": [[[-99.40216, 19.52932], [-99.40119, 19.53027], [-99.40093, 19.5308], [-99.40096, 19.5312], [-99.39873, 19.53176], [-99.39915, 19.53066], [-99.40038, 19.52929], [-99.40076, 19.52925], [-99.40107, 19.52887], [-99.40216, 19.52932]]]}}, {"id": "1107046", "type": "Feature", "properties": {"id": "1107046", "CVEGEO": "150460004003A005", "POBTOT": 0.0, "score_nse": 0.0, "NSE": null, "VIVTOT": 0.0, "GRAPROES": 0.0, "_ent": "15", "_mun": "046", "_loc": "0004"}, "geometry": {"type": "Polygon", "coordinates": [[[-99.39763, 19.53072], [-99.39858, 19.53163], [-99.39784, 19.53197], [-99.39795, 19.53228], [-99.39631, 19.5337], [-99.39619, 19.53421], [-99.39559, 19.53407], [-99.39553, 19.53383], [-99.39609, 19.53307], [-99.39629, 19.53223], [-99.39659, 19.53177], [-99.39763, 19.53072]]]}}, {"id": "1107047", "type": "Feature", "properties": {"id": "1107047", "CVEGEO": "150460004003A003", "POBTOT": 0.0, "score_nse": 0.0, "NSE": null, "VIVTOT": 0.0, "GRAPROES": 0.0, "_ent": "15", "_mun": "046", "_loc": "0004"}, "geometry": {"type": "Polygon", "coordinates": [[[-99.40547, 19.53322], [-99.4034, 19.53411], [-99.40287, 19.53409], [-99.40296, 19.53444], [-99.3998, 19.53427], [-99.39887, 19.53473], [-99.39843, 19.53306], [-99.39862, 19.53296], [-99.39884, 19.53187], [-99.39925, 19.53177], [-99.39991, 19.53289], [-99.40151, 19.53359], [-99.40235, 19.53361], [-99.40365, 19.53292], [-99.40547, 19.53322]]]}}, {"id": "1107065", "type": "Feature", "properties": {"id": "1107065", "CVEGEO": "150460004003A011", "POBTOT": 0.0, "score_nse": 0.0, "NSE": null, "VIVTOT": 0.0, "GRAPROES": 0.0, "_ent": "15", "_mun": "046", "_loc": "0004"}, "geometry": {"type": "Polygon", "coordinates": [[[-99.39766, 19.53067], [-99.39823, 19.53013], [-99.39904, 19.53069], [-99.39863, 19.53159], [-99.39766, 19.53067]]]}}, {"id": "1107073", "type": "Feature", "properties": {"id": "1107073", "CVEGEO": "150460004003A004", "POBTOT": 0.0, "score_nse": 0.0, "NSE": null, "VIVTOT": 0.0, "GRAPROES": 0.0, "_ent": "15", "_mun": "046", "_loc": "0004"}, "geometry": {"type": "Polygon", "coordinates": [[[-99.39868, 19.53193], [-99.39804, 19.53219], [-99.39787, 19.5321], [-99.39859, 19.53169], [-99.39868, 19.53193]]]}}, {"id": "1107093", "type": "Feature", "properties": {"id": "1107093", "CVEGEO": "150460004003A014", "POBTOT": 0.0, "score_nse": 0.0, "NSE": null, "VIVTOT": 0.0, "GRAPROES": 0.0, "_ent": "15", "_mun": "046", "_loc": "0004"}, "geometry": {"type": "Polygon", "coordinates": [[[-99.40816, 19.52187], [-99.40772, 19.52227], [-99.4066, 19.52262], [-99.40457, 19.52385], [-99.40295, 19.52346], [-99.40263, 19.52312], [-99.40278, 19.52248], [-99.40334, 19.52324], [-99.40454, 19.52282], [-99.40643, 19.52184], [-99.40775, 19.52061], [-99.40866, 19.52004], [-99.40893, 19.51965], [-99.4098, 19.5193], [-99.40816, 19.52187]]]}}, {"id": "1107100", "type": "Feature", "properties": {"id": "1107100", "CVEGEO": "150460004003A015", "POBTOT": 0.0, "score_nse": 0.0, "NSE": null, "VIVTOT": 0.0, "GRAPROES": 0.0, "_ent": "15", "_mun": "046", "_loc": "0004"}, "geometry": {"type": "Polygon", "coordinates": [[[-99.39648, 19.53591], [-99.39562, 19.53591], [-99.39418, 19.53513], [-99.39498, 19.53471], [-99.39551, 19.53411], [-99.39604, 19.5343], [-99.39684, 19.53425], [-99.39716, 19.53467], [-99.397, 19.53551], [-99.39648, 19.53591]]]}}, {"id": "1107117", "type": "Feature", "properties": {"id": "1107117", "CVEGEO": "150460004003A017", "POBTOT": 0.0, "score_nse": 0.0, "NSE": null, "VIVTOT": 0.0, "GRAPROES": 0.0, "_ent": "15", "_mun": "046", "_loc": "0004"}, "geometry": {"type": "Polygon", "coordinates": [[[-99.39909, 19.53059], [-99.39853, 19.53025], [-99.39884, 19.52985], [-99.3985, 19.53015], [-99.39808, 19.53011], [-99.39755, 19.53066], [-99.39697, 19.52996], [-99.39633, 19.52986], [-99.3956, 19.52924], [-99.39477, 19.52903], [-99.39466, 19.52795], [-99.39672, 19.52712], [-99.39801, 19.52691], [-99.39796, 19.52762], [-99.39885, 19.52802], [-99.39904, 19.52834], [-99.39884, 19.52798], [-99.398, 19.52758], [-99.39806, 19.5269], [-99.39911, 19.52671], [-99.39988, 19.52746], [-99.39923, 19.52667], [-99.40042, 19.52643], [-99.40109, 19.52655], [-99.40125, 19.52682], [-99.40086, 19.52776], [-99.40109, 19.52858], [-99.40073, 19.52914], [-99.40022, 19.52925], [-99.39975, 19.52985], [-99.39932, 19.5295], [-99.39945, 19.52895], [-99.39919, 19.52952], [-99.39964, 19.52994], [-99.39909, 19.53059]]]}}, {"id": "1107120", "type": "Feature", "properties": {"id": "1107120", "CVEGEO": "150460004003A013", "POBTOT": 0.0, "score_nse": 0.0, "NSE": null, "VIVTOT": 0.0, "GRAPROES": 0.0, "_ent": "15", "_mun": "046", "_loc": "0004"}, "geometry": {"type": "Polygon", "coordinates": [[[-99.39447, 19.53297], [-99.39554, 19.53363], [-99.3951, 19.53451], [-99.39413, 19.535], [-99.39405, 19.53418], [-99.3934, 19.53313], [-99.39366, 19.5315], [-99.39413, 19.53177], [-99.39441, 19.53171], [-99.39587, 19.53094], [-99.39636, 19.53028], [-99.39639, 19.52998], [-99.39702, 19.53013], [-99.39749, 19.53071], [-99.39633, 19.53188], [-99.3961, 19.53227], [-99.39599, 19.53299], [-99.39558, 19.53356], [-99.39447, 19.53297]]]}}, {"id": "1107163", "type": "Feature", "properties": {"id": "1107163", "CVEGEO": "150460004003A012", "POBTOT": 0.0, "score_nse": 0.0, "NSE": null, "VIVTOT": 0.0, "GRAPROES": 0.0, "_ent": "15", "_mun": "046", "_loc": "0004"}, "geometry": {"type": "Polygon", "coordinates": [[[-99.4011, 19.52884], [-99.40124, 19.52854], [-99.40103, 19.52761], [-99.40121, 19.52709], [-99.4016, 19.52674], [-99.40228, 19.52711], [-99.40299, 19.528], [-99.40262, 19.52835], [-99.40259, 19.52874], [-99.40218, 19.52929], [-99.4011, 19.52884]]]}}, {"id": "1107168", "type": "Feature", "properties": {"id": "1107168", "CVEGEO": "150460004003A029", "POBTOT": 0.0, "score_nse": 0.0, "NSE": null, "VIVTOT": 0.0, "GRAPROES": 0.0, "_ent": "15", "_mun": "046", "_loc": "0004"}, "geometry": {"type": "Polygon", "coordinates": [[[-99.40512, 19.5274], [-99.40439, 19.52686], [-99.40381, 19.52689], [-99.40398, 19.52631], [-99.40387, 19.52615], [-99.40457, 19.52595], [-99.40502, 19.5261], [-99.40512, 19.5274]]]}}, {"id": "1107169", "type": "Feature", "properties": {"id": "1107169", "CVEGEO": "150460004003A028", "POBTOT": 0.0, "score_nse": 0.0, "NSE": null, "VIVTOT": 0.0, "GRAPROES": 0.0, "_ent": "15", "_mun": "046", "_loc": "0004"}, "geometry": {"type": "Polygon", "coordinates": [[[-99.39744, 19.53623], [-99.39718, 19.53669], [-99.39567, 19.53622], [-99.39588, 19.53603], [-99.39693, 19.53638], [-99.39744, 19.53623]]]}}, {"id": "1107170", "type": "Feature", "properties": {"id": "1107170", "CVEGEO": "150460004003A027", "POBTOT": 0.0, "score_nse": 0.0, "NSE": null, "VIVTOT": 0.0, "GRAPROES": 0.0, "_ent": "15", "_mun": "046", "_loc": "0004"}, "geometry": {"type": "Polygon", "coordinates": [[[-99.3944, 19.53541], [-99.3941, 19.53555], [-99.39368, 19.53608], [-99.39325, 19.53596], [-99.39313, 19.53497], [-99.39334, 19.53392], [-99.39295, 19.53335], [-99.39297, 19.53261], [-99.39268, 19.53216], [-99.39272, 19.53192], [-99.39319, 19.5315], [-99.39347, 19.53153], [-99.39319, 19.53295], [-99.3939, 19.5342], [-99.39402, 19.53503], [-99.3944, 19.53541]]]}}, {"id": "1107171", "type": "Feature", "properties": {"id": "1107171", "CVEGEO": "150460004003A026", "POBTOT": 0.0, "score_nse": 0.0, "NSE": null, "VIVTOT": 0.0, "GRAPROES": 0.0, "_ent": "15", "_mun": "046", "_loc": "0004"}, "geometry": {"type": "Polygon", "coordinates": [[[-99.40214, 19.53042], [-99.4013, 19.5303], [-99.40223, 19.52937], [-99.40263, 19.52876], [-99.40264, 19.52836], [-99.40294, 19.52807], [-99.40336, 19.52853], [-99.40259, 19.53017], [-99.40214, 19.53042]]]}}, {"id": "1107172", "type": "Feature", "properties": {"id": "1107172", "CVEGEO": "150460004003A025", "POBTOT": 0.0, "score_nse": 0.0, "NSE": null, "VIVTOT": 0.0, "GRAPROES": 0.0, "_ent": "15", "_mun": "046", "_loc": "0004"}, "geometry": {"type": "Polygon", "coordinates": [[[-99.40302, 19.53047], [-99.40216, 19.53043], [-99.40265, 19.5301], [-99.40329, 19.52862], [-99.40375, 19.52847], [-99.40383, 19.52966], [-99.40321, 19.53004], [-99.40302, 19.53047]]]}}, {"id": "1107173", "type": "Feature", "properties": {"id": "1107173", "CVEGEO": "150460004003A024", "POBTOT": 0.0, "score_nse": 0.0, "NSE": null, "VIVTOT": 0.0, "GRAPROES": 0.0, "_ent": "15", "_mun": "046", "_loc": "0004"}, "geometry": {"type": "Polygon", "coordinates": [[[-99.40464, 19.52927], [-99.40395, 19.52963], [-99.40381, 19.52851], [-99.40453, 19.52854], [-99.40464, 19.52927]]]}}, {"id": "1107174", "type": "Feature", "properties": {"id": "1107174", "CVEGEO": "150460004003A023", "POBTOT": 0.0, "score_nse": 0.0, "NSE": null, "VIVTOT": 0.0, "GRAPROES": 0.0, "_ent": "15", "_mun": "046", "_loc": "0004"}, "geometry": {"type": "Polygon", "coordinates": [[[-99.40475, 19.52921], [-99.40462, 19.52855], [-99.40672, 19.5282], [-99.40475, 19.52921]]]}}, {"id": "1107175", "type": "Feature", "properties": {"id": "1107175", "CVEGEO": "150460004003A022", "POBTOT": 0.0, "score_nse": 0.0, "NSE": null, "VIVTOT": 0.0, "GRAPROES": 0.0, "_ent": "15", "_mun": "046", "_loc": "0004"}, "geometry": {"type": "Polygon", "coordinates": [[[-99.40723, 19.52787], [-99.40672, 19.52819], [-99.40615, 19.52819], [-99.40513, 19.52854], [-99.40373, 19.52841], [-99.40339, 19.52851], [-99.40297, 19.52807], [-99.40298, 19.52776], [-99.40356, 19.52765], [-99.4039, 19.52764], [-99.40506, 19.52809], [-99.40635, 19.52782], [-99.40723, 19.52787]]]}}, {"id": "1107176", "type": "Feature", "properties": {"id": "1107176", "CVEGEO": "150460004003A021", "POBTOT": 0.0, "score_nse": 0.0, "NSE": null, "VIVTOT": 0.0, "GRAPROES": 0.0, "_ent": "15", "_mun": "046", "_loc": "0004"}, "geometry": {"type": "Polygon", "coordinates": [[[-99.40291, 19.52776], [-99.40236, 19.52713], [-99.40286, 19.52714], [-99.40393, 19.52762], [-99.40291, 19.52776]]]}}, {"id": "1107179", "type": "Feature", "properties": {"id": "1107179", "CVEGEO": "150460004003A018", "POBTOT": 0.0, "score_nse": 0.0, "NSE": null, "VIVTOT": 0.0, "GRAPROES": 0.0, "_ent": "15", "_mun": "046", "_loc": "0004"}, "geometry": {"type": "Polygon", "coordinates": [[[-99.40121, 19.53031], [-99.402, 19.53053], [-99.40298, 19.53053], [-99.40292, 19.53089], [-99.4021, 19.53136], [-99.401, 19.53118], [-99.40096, 19.53089], [-99.40121, 19.53031]]]}}, {"id": "1107180", "type": "Feature", "properties": {"id": "1107180", "CVEGEO": "150460004003A020", "POBTOT": 0.0, "score_nse": 0.0, "NSE": null, "VIVTOT": 0.0, "GRAPROES": 0.0, "_ent": "15", "_mun": "046", "_loc": "0004"}, "geometry": {"type": "Polygon", "coordinates": [[[-99.40171, 19.52672], [-99.40172, 19.52648], [-99.40233, 19.52619], [-99.40317, 19.52611], [-99.40367, 19.5264], [-99.40385, 19.52616], [-99.40395, 19.52632], [-99.40375, 19.5269], [-99.40339, 19.52698], [-99.40294, 19.52668], [-99.40226, 19.52651], [-99.40195, 19.52653], [-99.40184, 19.52678], [-99.40171, 19.52672]]]}}, {"id": "1107181", "type": "Feature", "properties": {"id": "1107181", "CVEGEO": "150460004003A019", "POBTOT": 0.0, "score_nse": 0.0, "NSE": null, "VIVTOT": 0.0, "GRAPROES": 0.0, "_ent": "15", "_mun": "046", "_loc": "0004"}, "geometry": {"type": "Polygon", "coordinates": [[[-99.4051, 19.52746], [-99.40514, 19.52797], [-99.40446, 19.52783], [-99.40288, 19.52707], [-99.40228, 19.52703], [-99.40192, 19.52669], [-99.40204, 19.52657], [-99.40254, 19.5266], [-99.40337, 19.52701], [-99.40436, 19.52689], [-99.4051, 19.52746]]]}}]}