{"type": "FeatureCollection", "features": [{"id": "690607", "type": "Feature", "properties": {"id": "690607", "CVEGEO": "1103200900055003", "POBTOT": 0.0, "score_nse": 0.0, "NSE": null, "VIVTOT": 0.0, "GRAPROES": 0.0, "_ent": "11", "_mun": "032", "_loc": "0090"}, "geometry": {"type": "Polygon", "coordinates": [[[-100.39403, 20.93034], [-100.39453, 20.93012], [-100.39461, 20.93052], [-100.39458, 20.93011], [-100.39527, 20.92984], [-100.39519, 20.93099], [-100.39492, 20.93126], [-100.39452, 20.93069], [-100.39403, 20.93034]]]}}, {"id": "690608", "type": "Feature", "properties": {"id": "690608", "CVEGEO": "1103200900055056", "POBTOT": 0.0, "score_nse": 0.0, "NSE": null, "VIVTOT": 0.0, "GRAPROES": 0.0, "_ent": "11", "_mun": "032", "_loc": "0090"}, "geometry": {"type": "Polygon", "coordinates": [[[-100.39752, 20.934], [-100.39743, 20.93466], [-100.39761, 20.93469], [-100.39755, 20.93502], [-100.39738, 20.935], [-100.39734, 20.9352], [-100.39701, 20.93511], [-100.39728, 20.93503], [-100.39704, 20.93496], [-100.39726, 20.93396], [-100.39752, 20.934]]]}}, {"id": "690609", "type": "Feature", "properties": {"id": "690609", "CVEGEO": "1103200900055040", "POBTOT": 0.0, "score_nse": 0.0, "NSE": null, "VIVTOT": 0.0, "GRAPROES": 0.0, "_ent": "11", "_mun": "032", "_loc": "0090"}, "geometry": {"type": "Polygon", "coordinates": [[[-100.38998, 20.93721], [-100.39061, 20.93565], [-100.39099, 20.9362], [-100.39186, 20.93641], [-100.39198, 20.93694], [-100.39144, 20.93709], [-100.3909, 20.93686], [-100.38998, 20.93721]]]}}, {"id": "690610", "type": "Feature", "properties": {"id": "690610", "CVEGEO": "1103200900055050", "POBTOT": 0.0, "score_nse": 0.0, "NSE": null, "VIVTOT": 0.0, "GRAPROES": 0.0, "_ent": "11", "_mun": "032", "_loc": "0090"}, "geometry": {"type": "Polygon", "coordinates": [[[-100.39894, 20.92699], [-100.39989, 20.92717], [-100.39966, 20.92822], [-100.39871, 20.92804], [-100.39894, 20.92699]]]}}, {"id": "690611", "type": "Feature", "properties": {"id": "690611", "CVEGEO": "1103200900055035", "POBTOT": 0.0, "score_nse": 0.0, "NSE": null, "VIVTOT": 0.0, "GRAPROES": 0.0, "_ent": "11", "_mun": "032", "_loc": "0090"}, "geometry": {"type": "Polygon", "coordinates": [[[-100.3967, 20.93905], [-100.39612, 20.93898], [-100.39628, 20.93829], [-100.39681, 20.93881], [-100.3967, 20.93905]]]}}, {"id": "690612", "type": "Feature", "properties": {"id": "690612", "CVEGEO": "1103200900055034", "POBTOT": 0.0, "score_nse": 0.0, "NSE": null, "VIVTOT": 0.0, "GRAPROES": 0.0, "_ent": "11", "_mun": "032", "_loc": "0090"}, "geometry": {"type": "Polygon", "coordinates": [[[-100.3964, 20.93773], [-100.397, 20.93517], [-100.39719, 20.93522], [-100.39746, 20.9354], [-100.39701, 20.9363], [-100.39698, 20.93674], [-100.39725, 20.93691], [-100.39711, 20.93765], [-100.3964, 20.93773]]]}}, {"id": "690614", "type": "Feature", "properties": {"id": "690614", "CVEGEO": "1103200900055053", "POBTOT": 0.0, "score_nse": 0.0, "NSE": null, "VIVTOT": 0.0, "GRAPROES": 0.0, "_ent": "11", "_mun": "032", "_loc": "0090"}, "geometry": {"type": "Polygon", "coordinates": [[[-100.3911, 20.93324], [-100.39135, 20.93286], [-100.39205, 20.93299], [-100.39265, 20.93289], [-100.3933, 20.9336], [-100.39295, 20.93389], [-100.3911, 20.93324]]]}}, {"id": "690615", "type": "Feature", "properties": {"id": "690615", "CVEGEO": "1103200900055025", "POBTOT": 0.0, "score_nse": 0.0, "NSE": null, "VIVTOT": 0.0, "GRAPROES": 0.0, "_ent": "11", "_mun": "032", "_loc": "0090"}, "geometry": {"type": "Polygon", "coordinates": [[[-100.39544, 20.93783], [-100.39452, 20.93769], [-100.39451, 20.93666], [-100.39533, 20.93739], [-100.39544, 20.93783]]]}}, {"id": "690616", "type": "Feature", "properties": {"id": "690616", "CVEGEO": "1103200900055024", "POBTOT": 0.0, "score_nse": 0.0, "NSE": null, "VIVTOT": 0.0, "GRAPROES": 0.0, "_ent": "11", "_mun": "032", "_loc": "0090"}, "geometry": {"type": "Polygon", "coordinates": [[[-100.39547, 20.93761], [-100.39552, 20.93735], [-100.39633, 20.93753], [-100.39627, 20.9378], [-100.39547, 20.93761]]]}}, {"id": "690617", "type": "Feature", "properties": {"id": "690617", "CVEGEO": "1103200900055009", "POBTOT": 0.0, "score_nse": 0.0, "NSE": null, "VIVTOT": 0.0, "GRAPROES": 0.0, "_ent": "11", "_mun": "032", "_loc": "0090"}, "geometry": {"type": "Polygon", "coordinates": [[[-100.39499, 20.93316], [-100.39543, 20.93324], [-100.39569, 20.93383], [-100.3952, 20.93475], [-100.39464, 20.93472], [-100.39427, 20.93336], [-100.39499, 20.93316]]]}}, {"id": "690618", "type": "Feature", "properties": {"id": "690618", "CVEGEO": "1103200900055008", "POBTOT": 0.0, "score_nse": 0.0, "NSE": null, "VIVTOT": 0.0, "GRAPROES": 0.0, "_ent": "11", "_mun": "032", "_loc": "0090"}, "geometry": {"type": "Polygon", "coordinates": [[[-100.39656, 20.93398], [-100.39661, 20.93507], [-100.39555, 20.93554], [-100.3953, 20.9354], [-100.3951, 20.93503], [-100.39586, 20.93467], [-100.39628, 20.934], [-100.39656, 20.93398]]]}}, {"id": "690619", "type": "Feature", "properties": {"id": "690619", "CVEGEO": "1103200900055007", "POBTOT": 0.0, "score_nse": 0.0, "NSE": null, "VIVTOT": 0.0, "GRAPROES": 0.0, "_ent": "11", "_mun": "032", "_loc": "0090"}, "geometry": {"type": "Polygon", "coordinates": [[[-100.39666, 20.93507], [-100.39664, 20.93398], [-100.39715, 20.93392], [-100.39692, 20.93504], [-100.39666, 20.93507]]]}}, {"id": "690731", "type": "Feature", "properties": {"id": "690731", "CVEGEO": "1103200900055010", "POBTOT": 0.0, "score_nse": 0.0, "NSE": null, "VIVTOT": 0.0, "GRAPROES": 0.0, "_ent": "11", "_mun": "032", "_loc": "0090"}, "geometry": {"type": "Polygon", "coordinates": [[[-100.39443, 20.93438], [-100.394, 20.93433], [-100.39345, 20.93356], [-100.39422, 20.93349], [-100.39443, 20.93438]]]}}, {"id": "690739", "type": "Feature", "properties": {"id": "690739", "CVEGEO": "1103200900055051", "POBTOT": 0.0, "score_nse": 0.0, "NSE": null, "VIVTOT": 0.0, "GRAPROES": 0.0, "_ent": "11", "_mun": "032", "_loc": "0090"}, "geometry": {"type": "Polygon", "coordinates": [[[-100.39009, 20.93725], [-100.39084, 20.93693], [-100.39144, 20.93717], [-100.39186, 20.93708], [-100.39188, 20.93782], [-100.39053, 20.93796], [-100.38976, 20.93776], [-100.389, 20.93787], [-100.3889, 20.9374], [-100.39009, 20.93725]]]}}, {"id": "690740", "type": "Feature", "properties": {"id": "690740", "CVEGEO": "1103200900055039", "POBTOT": 0.0, "score_nse": 0.0, "NSE": null, "VIVTOT": 0.0, "GRAPROES": 0.0, "_ent": "11", "_mun": "032", "_loc": "0090"}, "geometry": {"type": "Polygon", "coordinates": [[[-100.39285, 20.93779], [-100.39201, 20.93788], [-100.39192, 20.93704], [-100.39215, 20.937], [-100.39285, 20.93742], [-100.39296, 20.93757], [-100.39285, 20.93779]]]}}, {"id": "690878", "type": "Feature", "properties": {"id": "690878", "CVEGEO": "1103200900055021", "POBTOT": 0.0, "score_nse": 0.0, "NSE": null, "VIVTOT": 0.0, "GRAPROES": 0.0, "_ent": "11", "_mun": "032", "_loc": "0090"}, "geometry": {"type": "Polygon", "coordinates": [[[-100.38842, 20.93492], [-100.39035, 20.93524], [-100.39036, 20.93537], [-100.38845, 20.93537], [-100.38826, 20.93513], [-100.38842, 20.93492]]]}}, {"id": "690879", "type": "Feature", "properties": {"id": "690879", "CVEGEO": "1103200900055020", "POBTOT": 0.0, "score_nse": 0.0, "NSE": null, "VIVTOT": 0.0, "GRAPROES": 0.0, "_ent": "11", "_mun": "032", "_loc": "0090"}, "geometry": {"type": "Polygon", "coordinates": [[[-100.39048, 20.93516], [-100.38983, 20.93507], [-100.39005, 20.93457], [-100.39048, 20.93516]]]}}, {"id": "691134", "type": "Feature", "properties": {"id": "691134", "CVEGEO": "1103200900055057", "POBTOT": 0.0, "score_nse": 0.0, "NSE": null, "VIVTOT": 0.0, "GRAPROES": 0.0, "_ent": "11", "_mun": "032", "_loc": "0090"}, "geometry": {"type": "Polygon", "coordinates": [[[-100.39229, 20.9327], [-100.39189, 20.93276], [-100.39146, 20.93271], [-100.39211, 20.93241], [-100.39229, 20.9327]]]}}, {"id": "691135", "type": "Feature", "properties": {"id": "691135", "CVEGEO": "1103200900055055", "POBTOT": 0.0, "score_nse": 0.0, "NSE": null, "VIVTOT": 0.0, "GRAPROES": 0.0, "_ent": "11", "_mun": "032", "_loc": "0090"}, "geometry": {"type": "Polygon", "coordinates": [[[-100.39107, 20.93322], [-100.39025, 20.933], [-100.39085, 20.93291], [-100.39113, 20.9331], [-100.39107, 20.93322]]]}}, {"id": "691136", "type": "Feature", "properties": {"id": "691136", "CVEGEO": "1103200900055026", "POBTOT": 0.0, "score_nse": 0.0, "NSE": null, "VIVTOT": 0.0, "GRAPROES": 0.0, "_ent": "11", "_mun": "032", "_loc": "0090"}, "geometry": {"type": "Polygon", "coordinates": [[[-100.39301, 20.9339], [-100.39332, 20.93363], [-100.39387, 20.93441], [-100.39432, 20.93479], [-100.39495, 20.93505], [-100.39486, 20.93543], [-100.39414, 20.93549], [-100.39386, 20.93529], [-100.39391, 20.93503], [-100.39336, 20.93459], [-100.39301, 20.9339]]]}}, {"id": "691137", "type": "Feature", "properties": {"id": "691137", "CVEGEO": "1103200900055046", "POBTOT": 0.0, "score_nse": 0.0, "NSE": null, "VIVTOT": 0.0, "GRAPROES": 0.0, "_ent": "11", "_mun": "032", "_loc": "0090"}, "geometry": {"type": "Polygon", "coordinates": [[[-100.39282, 20.92847], [-100.39253, 20.92931], [-100.39202, 20.92931], [-100.39224, 20.92854], [-100.39282, 20.92847]]]}}, {"id": "691138", "type": "Feature", "properties": {"id": "691138", "CVEGEO": "1103200900055044", "POBTOT": 0.0, "score_nse": 0.0, "NSE": null, "VIVTOT": 0.0, "GRAPROES": 0.0, "_ent": "11", "_mun": "032", "_loc": "0090"}, "geometry": {"type": "Polygon", "coordinates": [[[-100.39666, 20.92674], [-100.39509, 20.92671], [-100.39694, 20.92513], [-100.39666, 20.92674]]]}}, {"id": "691139", "type": "Feature", "properties": {"id": "691139", "CVEGEO": "1103200900055043", "POBTOT": 0.0, "score_nse": 0.0, "NSE": null, "VIVTOT": 0.0, "GRAPROES": 0.0, "_ent": "11", "_mun": "032", "_loc": "0090"}, "geometry": {"type": "Polygon", "coordinates": [[[-100.39517, 20.92802], [-100.39329, 20.92824], [-100.39219, 20.92803], [-100.39215, 20.92706], [-100.3931, 20.92639], [-100.39462, 20.92648], [-100.39496, 20.92687], [-100.39517, 20.92802]]]}}, {"id": "691140", "type": "Feature", "properties": {"id": "691140", "CVEGEO": "1103200900055042", "POBTOT": 0.0, "score_nse": 0.0, "NSE": null, "VIVTOT": 0.0, "GRAPROES": 0.0, "_ent": "11", "_mun": "032", "_loc": "0090"}, "geometry": {"type": "Polygon", "coordinates": [[[-100.39138, 20.92793], [-100.39057, 20.92755], [-100.3908, 20.92689], [-100.39206, 20.92681], [-100.39208, 20.92803], [-100.39138, 20.92793]]]}}, {"id": "691141", "type": "Feature", "properties": {"id": "691141", "CVEGEO": "1103200900055041", "POBTOT": 0.0, "score_nse": 0.0, "NSE": null, "VIVTOT": 0.0, "GRAPROES": 0.0, "_ent": "11", "_mun": "032", "_loc": "0090"}, "geometry": {"type": "Polygon", "coordinates": [[[-100.38893, 20.9379], [-100.38732, 20.93795], [-100.38727, 20.93764], [-100.38876, 20.93748], [-100.38893, 20.9379]]]}}, {"id": "691142", "type": "Feature", "properties": {"id": "691142", "CVEGEO": "1103200900055030", "POBTOT": 0.0, "score_nse": 0.0, "NSE": null, "VIVTOT": 0.0, "GRAPROES": 0.0, "_ent": "11", "_mun": "032", "_loc": "0090"}, "geometry": {"type": "Polygon", "coordinates": [[[-100.3891, 20.93547], [-100.39054, 20.9355], [-100.39057, 20.93562], [-100.38992, 20.9372], [-100.38836, 20.93729], [-100.38829, 20.9371], [-100.38867, 20.93631], [-100.38854, 20.93624], [-100.3885, 20.93563], [-100.38867, 20.93539], [-100.38895, 20.93543], [-100.38894, 20.93561], [-100.3891, 20.93547]]]}}, {"id": "691143", "type": "Feature", "properties": {"id": "691143", "CVEGEO": "1103200900055029", "POBTOT": 0.0, "score_nse": 0.0, "NSE": null, "VIVTOT": 0.0, "GRAPROES": 0.0, "_ent": "11", "_mun": "032", "_loc": "0090"}, "geometry": {"type": "Polygon", "coordinates": [[[-100.39423, 20.93628], [-100.39338, 20.93631], [-100.39202, 20.93692], [-100.39191, 20.93634], [-100.39101, 20.93616], [-100.39056, 20.9353], [-100.39367, 20.93578], [-100.39423, 20.93628]]]}}, {"id": "691144", "type": "Feature", "properties": {"id": "691144", "CVEGEO": "1103200900055019", "POBTOT": 0.0, "score_nse": 0.0, "NSE": null, "VIVTOT": 0.0, "GRAPROES": 0.0, "_ent": "11", "_mun": "032", "_loc": "0090"}, "geometry": {"type": "Polygon", "coordinates": [[[-100.3919, 20.93544], [-100.39056, 20.93518], [-100.38956, 20.93371], [-100.38962, 20.93329], [-100.39017, 20.93311], [-100.39183, 20.93362], [-100.3919, 20.93544]]]}}, {"id": "691145", "type": "Feature", "properties": {"id": "691145", "CVEGEO": "1103200900055018", "POBTOT": 0.0, "score_nse": 0.0, "NSE": null, "VIVTOT": 0.0, "GRAPROES": 0.0, "_ent": "11", "_mun": "032", "_loc": "0090"}, "geometry": {"type": "Polygon", "coordinates": [[[-100.39325, 20.93454], [-100.39369, 20.93521], [-100.39366, 20.93573], [-100.39196, 20.93545], [-100.39195, 20.93445], [-100.39325, 20.93454]]]}}, {"id": "691146", "type": "Feature", "properties": {"id": "691146", "CVEGEO": "1103200900055017", "POBTOT": 0.0, "score_nse": 0.0, "NSE": null, "VIVTOT": 0.0, "GRAPROES": 0.0, "_ent": "11", "_mun": "032", "_loc": "0090"}, "geometry": {"type": "Polygon", "coordinates": [[[-100.39389, 20.93599], [-100.39391, 20.93556], [-100.39425, 20.93557], [-100.39424, 20.936], [-100.39389, 20.93599]]]}}, {"id": "691147", "type": "Feature", "properties": {"id": "691147", "CVEGEO": "1103200900055016", "POBTOT": 0.0, "score_nse": 0.0, "NSE": null, "VIVTOT": 0.0, "GRAPROES": 0.0, "_ent": "11", "_mun": "032", "_loc": "0090"}, "geometry": {"type": "Polygon", "coordinates": [[[-100.396, 20.93729], [-100.39539, 20.93721], [-100.3946, 20.93656], [-100.39456, 20.93604], [-100.39499, 20.93609], [-100.39551, 20.93586], [-100.396, 20.93729]]]}}, {"id": "691148", "type": "Feature", "properties": {"id": "691148", "CVEGEO": "1103200900055015", "POBTOT": 0.0, "score_nse": 0.0, "NSE": null, "VIVTOT": 0.0, "GRAPROES": 0.0, "_ent": "11", "_mun": "032", "_loc": "0090"}, "geometry": {"type": "Polygon", "coordinates": [[[-100.39662, 20.93598], [-100.39638, 20.93736], [-100.39609, 20.9374], [-100.39562, 20.93594], [-100.39612, 20.93542], [-100.39656, 20.93524], [-100.39662, 20.93598]]]}}, {"id": "691149", "type": "Feature", "properties": {"id": "691149", "CVEGEO": "1103200900055014", "POBTOT": 0.0, "score_nse": 0.0, "NSE": null, "VIVTOT": 0.0, "GRAPROES": 0.0, "_ent": "11", "_mun": "032", "_loc": "0090"}, "geometry": {"type": "Polygon", "coordinates": [[[-100.39681, 20.93559], [-100.39667, 20.93515], [-100.39692, 20.93512], [-100.39681, 20.93559]]]}}, {"id": "691150", "type": "Feature", "properties": {"id": "691150", "CVEGEO": "1103200900055054", "POBTOT": 0.0, "score_nse": 0.0, "NSE": null, "VIVTOT": 0.0, "GRAPROES": 0.0, "_ent": "11", "_mun": "032", "_loc": "0090"}, "geometry": {"type": "Polygon", "coordinates": [[[-100.39399, 20.93047], [-100.3945, 20.93077], [-100.3942, 20.93093], [-100.39454, 20.9308], [-100.39489, 20.93132], [-100.39489, 20.93198], [-100.39471, 20.93248], [-100.39406, 20.93254], [-100.39369, 20.93228], [-100.39372, 20.93107], [-100.39399, 20.93047]]]}}, {"id": "691151", "type": "Feature", "properties": {"id": "691151", "CVEGEO": "1103200900055002", "POBTOT": 0.0, "score_nse": 0.0, "NSE": null, "VIVTOT": 0.0, "GRAPROES": 0.0, "_ent": "11", "_mun": "032", "_loc": "0090"}, "geometry": {"type": "Polygon", "coordinates": [[[-100.39424, 20.93332], [-100.39406, 20.93271], [-100.3947, 20.93258], [-100.39467, 20.93307], [-100.39424, 20.93332]]]}}, {"id": "691598", "type": "Feature", "properties": {"id": "691598", "CVEGEO": "1103200900055049", "POBTOT": 0.0, "score_nse": 0.0, "NSE": null, "VIVTOT": 0.0, "GRAPROES": 0.0, "_ent": "11", "_mun": "032", "_loc": "0090"}, "geometry": {"type": "Polygon", "coordinates": [[[-100.39685, 20.92967], [-100.39684, 20.92777], [-100.39844, 20.92806], [-100.39803, 20.92989], [-100.39685, 20.92967]]]}}, {"id": "691599", "type": "Feature", "properties": {"id": "691599", "CVEGEO": "1103200900055048", "POBTOT": 0.0, "score_nse": 0.0, "NSE": null, "VIVTOT": 0.0, "GRAPROES": 0.0, "_ent": "11", "_mun": "032", "_loc": "0090"}, "geometry": {"type": "Polygon", "coordinates": [[[-100.39189, 20.93364], [-100.39284, 20.93394], [-100.39322, 20.93448], [-100.39192, 20.93438], [-100.39189, 20.93364]]]}}, {"id": "691600", "type": "Feature", "properties": {"id": "691600", "CVEGEO": "1103200900055047", "POBTOT": 0.0, "score_nse": 0.0, "NSE": null, "VIVTOT": 0.0, "GRAPROES": 0.0, "_ent": "11", "_mun": "032", "_loc": "0090"}, "geometry": {"type": "Polygon", "coordinates": [[[-100.39873, 20.92812], [-100.3993, 20.92826], [-100.39931, 20.92856], [-100.39893, 20.92853], [-100.3989, 20.93006], [-100.3983, 20.92995], [-100.39873, 20.92812]]]}}, {"id": "691601", "type": "Feature", "properties": {"id": "691601", "CVEGEO": "1103200900055038", "POBTOT": 0.0, "score_nse": 0.0, "NSE": null, "VIVTOT": 0.0, "GRAPROES": 0.0, "_ent": "11", "_mun": "032", "_loc": "0090"}, "geometry": {"type": "Polygon", "coordinates": [[[-100.39291, 20.93781], [-100.39301, 20.93763], [-100.39375, 20.93788], [-100.39499, 20.93786], [-100.39491, 20.93854], [-100.3943, 20.93844], [-100.39363, 20.93806], [-100.39309, 20.93801], [-100.39291, 20.93781]]]}}, {"id": "691602", "type": "Feature", "properties": {"id": "691602", "CVEGEO": "1103200900055037", "POBTOT": 0.0, "score_nse": 0.0, "NSE": null, "VIVTOT": 0.0, "GRAPROES": 0.0, "_ent": "11", "_mun": "032", "_loc": "0090"}, "geometry": {"type": "Polygon", "coordinates": [[[-100.39606, 20.93886], [-100.395, 20.93849], [-100.39504, 20.93812], [-100.39528, 20.93847], [-100.39607, 20.93855], [-100.39606, 20.93886]]]}}, {"id": "691603", "type": "Feature", "properties": {"id": "691603", "CVEGEO": "1103200900055036", "POBTOT": 0.0, "score_nse": 0.0, "NSE": null, "VIVTOT": 0.0, "GRAPROES": 0.0, "_ent": "11", "_mun": "032", "_loc": "0090"}, "geometry": {"type": "Polygon", "coordinates": [[[-100.39533, 20.93845], [-100.39505, 20.93788], [-100.39593, 20.93796], [-100.39591, 20.9381], [-100.39614, 20.93812], [-100.39611, 20.93852], [-100.39533, 20.93845]]]}}, {"id": "691658", "type": "Feature", "properties": {"id": "691658", "CVEGEO": "1103200900055012", "POBTOT": 0.0, "score_nse": 0.0, "NSE": null, "VIVTOT": 0.0, "GRAPROES": 0.0, "_ent": "11", "_mun": "032", "_loc": "0090"}, "geometry": {"type": "Polygon", "coordinates": [[[-100.39375, 20.93057], [-100.39363, 20.93133], [-100.3934, 20.93162], [-100.39228, 20.93227], [-100.39199, 20.93176], [-100.39226, 20.93148], [-100.39216, 20.93097], [-100.3926, 20.9302], [-100.39262, 20.92942], [-100.39375, 20.93057]]]}}, {"id": "691695", "type": "Feature", "properties": {"id": "691695", "CVEGEO": "1103200900055006", "POBTOT": 0.0, "score_nse": 0.0, "NSE": null, "VIVTOT": 0.0, "GRAPROES": 0.0, "_ent": "11", "_mun": "032", "_loc": "0090"}, "geometry": {"type": "Polygon", "coordinates": [[[-100.39687, 20.93116], [-100.39685, 20.92973], [-100.39802, 20.92995], [-100.39766, 20.93153], [-100.39687, 20.93116]]]}}, {"id": "692182", "type": "Feature", "properties": {"id": "692182", "CVEGEO": "1103200900055052", "POBTOT": 0.0, "score_nse": 0.0, "NSE": null, "VIVTOT": 0.0, "GRAPROES": 0.0, "_ent": "11", "_mun": "032", "_loc": "0090"}, "geometry": {"type": "Polygon", "coordinates": [[[-100.39714, 20.93386], [-100.39667, 20.93388], [-100.39689, 20.93297], [-100.39692, 20.93173], [-100.39759, 20.93181], [-100.39714, 20.93386]]]}}, {"id": "692256", "type": "Feature", "properties": {"id": "692256", "CVEGEO": "1103200900055032", "POBTOT": 0.0, "score_nse": 0.0, "NSE": null, "VIVTOT": 0.0, "GRAPROES": 0.0, "_ent": "11", "_mun": "032", "_loc": "0090"}, "geometry": {"type": "Polygon", "coordinates": [[[-100.39658, 20.92681], [-100.39654, 20.92769], [-100.39531, 20.92801], [-100.39508, 20.92738], [-100.39558, 20.92732], [-100.39508, 20.92733], [-100.39506, 20.9268], [-100.39658, 20.92681]]]}}, {"id": "692257", "type": "Feature", "properties": {"id": "692257", "CVEGEO": "1103200900055022", "POBTOT": 0.0, "score_nse": 0.0, "NSE": null, "VIVTOT": 0.0, "GRAPROES": 0.0, "_ent": "11", "_mun": "032", "_loc": "0090"}, "geometry": {"type": "Polygon", "coordinates": [[[-100.39251, 20.92934], [-100.39248, 20.93038], [-100.39213, 20.93083], [-100.39113, 20.93108], [-100.39046, 20.93094], [-100.39056, 20.93051], [-100.39031, 20.93009], [-100.39, 20.93011], [-100.3896, 20.92935], [-100.39059, 20.92906], [-100.39067, 20.92942], [-100.39087, 20.92959], [-100.39091, 20.9301], [-100.39093, 20.92958], [-100.39065, 20.92905], [-100.39158, 20.92874], [-100.39199, 20.92938], [-100.39251, 20.92934]]]}}, {"id": "692258", "type": "Feature", "properties": {"id": "692258", "CVEGEO": "1103200900055001", "POBTOT": 0.0, "score_nse": 0.0, "NSE": null, "VIVTOT": 0.0, "GRAPROES": 0.0, "_ent": "11", "_mun": "032", "_loc": "0090"}, "geometry": {"type": "Polygon", "coordinates": [[[-100.39529, 20.93089], [-100.39533, 20.93055], [-100.39557, 20.93108], [-100.39571, 20.93115], [-100.39536, 20.93054], [-100.39534, 20.92996], [-100.3962, 20.92985], [-100.39535, 20.92989], [-100.39542, 20.92932], [-100.39603, 20.92839], [-100.39668, 20.92774], [-100.39654, 20.92819], [-100.39657, 20.9298], [-100.39676, 20.93029], [-100.39684, 20.93227], [-100.3965, 20.93247], [-100.39685, 20.93235], [-100.39686, 20.93291], [-100.39657, 20.93391], [-100.39587, 20.93389], [-100.39555, 20.93352], [-100.39593, 20.93266], [-100.39563, 20.93316], [-100.39472, 20.93308], [-100.3949, 20.93213], [-100.39565, 20.93212], [-100.39529, 20.93089]]]}}, {"id": "692259", "type": "Feature", "properties": {"id": "692259", "CVEGEO": "1103200900055011", "POBTOT": 0.0, "score_nse": 0.0, "NSE": null, "VIVTOT": 0.0, "GRAPROES": 0.0, "_ent": "11", "_mun": "032", "_loc": "0090"}, "geometry": {"type": "Polygon", "coordinates": [[[-100.39419, 20.93333], [-100.39352, 20.93348], [-100.39221, 20.93246], [-100.39317, 20.93265], [-100.39219, 20.93237], [-100.39271, 20.93225], [-100.39381, 20.93251], [-100.39398, 20.93278], [-100.39357, 20.93277], [-100.39402, 20.93284], [-100.39419, 20.93333]]]}}, {"id": "692260", "type": "Feature", "properties": {"id": "692260", "CVEGEO": "1103200900055028", "POBTOT": 0.0, "score_nse": 0.0, "NSE": null, "VIVTOT": 0.0, "GRAPROES": 0.0, "_ent": "11", "_mun": "032", "_loc": "0090"}, "geometry": {"type": "Polygon", "coordinates": [[[-100.3945, 20.93773], [-100.39423, 20.93788], [-100.39351, 20.9378], [-100.39303, 20.9376], [-100.39226, 20.93692], [-100.39322, 20.93641], [-100.39425, 20.93636], [-100.39447, 20.93655], [-100.39447, 20.93714], [-100.3943, 20.93718], [-100.39448, 20.93719], [-100.3945, 20.93773]]]}}, {"id": "692351", "type": "Feature", "properties": {"id": "692351", "CVEGEO": "1103200900055045", "POBTOT": 0.0, "score_nse": 0.0, "NSE": null, "VIVTOT": 0.0, "GRAPROES": 0.0, "_ent": "11", "_mun": "032", "_loc": "0090"}, "geometry": {"type": "Polygon", "coordinates": [[[-100.39805, 20.93996], [-100.397, 20.93909], [-100.39715, 20.93892], [-100.39661, 20.93837], [-100.39778, 20.9383], [-100.39782, 20.93906], [-100.39841, 20.93959], [-100.39805, 20.93996]]]}}, {"id": "692381", "type": "Feature", "properties": {"id": "692381", "CVEGEO": "1103200900055061", "POBTOT": 0.0, "score_nse": 0.0, "NSE": null, "VIVTOT": 0.0, "GRAPROES": 0.0, "_ent": "11", "_mun": "032", "_loc": "0090"}, "geometry": {"type": "Polygon", "coordinates": [[[-100.39765, 20.93157], [-100.39761, 20.93176], [-100.39692, 20.93168], [-100.39692, 20.93126], [-100.39765, 20.93157]]]}}, {"id": "692416", "type": "Feature", "properties": {"id": "692416", "CVEGEO": "1103200900055060", "POBTOT": 0.0, "score_nse": 0.0, "NSE": null, "VIVTOT": 0.0, "GRAPROES": 0.0, "_ent": "11", "_mun": "032", "_loc": "0090"}, "geometry": {"type": "Polygon", "coordinates": [[[-100.39631, 20.92788], [-100.39605, 20.92823], [-100.39576, 20.92817], [-100.39482, 20.92856], [-100.39479, 20.92834], [-100.39631, 20.92788]]]}}, {"id": "692417", "type": "Feature", "properties": {"id": "692417", "CVEGEO": "1103200900055059", "POBTOT": 0.0, "score_nse": 0.0, "NSE": null, "VIVTOT": 0.0, "GRAPROES": 0.0, "_ent": "11", "_mun": "032", "_loc": "0090"}, "geometry": {"type": "Polygon", "coordinates": [[[-100.39555, 20.93208], [-100.39494, 20.93207], [-100.39495, 20.93172], [-100.39549, 20.93172], [-100.39555, 20.93208]]]}}, {"id": "692418", "type": "Feature", "properties": {"id": "692418", "CVEGEO": "1103200900055058", "POBTOT": 0.0, "score_nse": 0.0, "NSE": null, "VIVTOT": 0.0, "GRAPROES": 0.0, "_ent": "11", "_mun": "032", "_loc": "0090"}, "geometry": {"type": "Polygon", "coordinates": [[[-100.39495, 20.93167], [-100.39498, 20.93129], [-100.39529, 20.93096], [-100.39548, 20.93167], [-100.39495, 20.93167]]]}}, {"id": "692652", "type": "Feature", "properties": {"id": "692652", "CVEGEO": "1103200900055023", "POBTOT": 0.0, "score_nse": 0.0, "NSE": null, "VIVTOT": 0.0, "GRAPROES": 0.0, "_ent": "11", "_mun": "032", "_loc": "0090"}, "geometry": {"type": "Polygon", "coordinates": [[[-100.39599, 20.92829], [-100.39531, 20.92934], [-100.39528, 20.92973], [-100.39454, 20.93006], [-100.39327, 20.93008], [-100.39268, 20.92943], [-100.39269, 20.92927], [-100.39317, 20.92906], [-100.39319, 20.92933], [-100.39322, 20.92903], [-100.39357, 20.92885], [-100.39459, 20.92876], [-100.39457, 20.92923], [-100.39479, 20.92858], [-100.39576, 20.92824], [-100.39599, 20.92829]]]}}, {"id": "692653", "type": "Feature", "properties": {"id": "692653", "CVEGEO": "1103200900055031", "POBTOT": 0.0, "score_nse": 0.0, "NSE": null, "VIVTOT": 0.0, "GRAPROES": 0.0, "_ent": "11", "_mun": "032", "_loc": "0090"}, "geometry": {"type": "Polygon", "coordinates": [[[-100.39476, 20.92856], [-100.39453, 20.92874], [-100.3934, 20.92882], [-100.3932, 20.92898], [-100.39323, 20.92854], [-100.39475, 20.92832], [-100.39476, 20.92856]]]}}, {"id": "692654", "type": "Feature", "properties": {"id": "692654", "CVEGEO": "1103200900055062", "POBTOT": 0.0, "score_nse": 0.0, "NSE": null, "VIVTOT": 0.0, "GRAPROES": 0.0, "_ent": "11", "_mun": "032", "_loc": "0090"}, "geometry": {"type": "Polygon", "coordinates": [[[-100.39317, 20.929], [-100.39296, 20.92913], [-100.39265, 20.92925], [-100.39318, 20.92856], [-100.39317, 20.929]]]}}, {"id": "692655", "type": "Feature", "properties": {"id": "692655", "CVEGEO": "1103200900055063", "POBTOT": 0.0, "score_nse": 0.0, "NSE": null, "VIVTOT": 0.0, "GRAPROES": 0.0, "_ent": "11", "_mun": "032", "_loc": "0090"}, "geometry": {"type": "Polygon", "coordinates": [[[-100.39334, 20.9301], [-100.39422, 20.93014], [-100.39423, 20.93016], [-100.39382, 20.93055], [-100.39334, 20.9301]]]}}]}