{"type": "FeatureCollection", "features": [{"id": "690581", "type": "Feature", "properties": {"id": "690581", "CVEGEO": "1103201290017005", "POBTOT": 0.0, "score_nse": 0.0, "NSE": null, "VIVTOT": 0.0, "GRAPROES": 0.0, "_ent": "11", "_mun": "032", "_loc": "0129"}, "geometry": {"type": "Polygon", "coordinates": [[[-100.46303, 21.05693], [-100.46311, 21.05622], [-100.46336, 21.05622], [-100.46339, 21.05697], [-100.46303, 21.05693]]]}}, {"id": "690729", "type": "Feature", "properties": {"id": "690729", "CVEGEO": "1103201290017007", "POBTOT": 0.0, "score_nse": 0.0, "NSE": null, "VIVTOT": 0.0, "GRAPROES": 0.0, "_ent": "11", "_mun": "032", "_loc": "0129"}, "geometry": {"type": "Polygon", "coordinates": [[[-100.46706, 21.05994], [-100.46743, 21.05987], [-100.46775, 21.06124], [-100.46736, 21.0613], [-100.46706, 21.05994]]]}}, {"id": "690734", "type": "Feature", "properties": {"id": "690734", "CVEGEO": "1103201290017008", "POBTOT": 0.0, "score_nse": 0.0, "NSE": null, "VIVTOT": 0.0, "GRAPROES": 0.0, "_ent": "11", "_mun": "032", "_loc": "0129"}, "geometry": {"type": "Polygon", "coordinates": [[[-100.46663, 21.05985], [-100.46667, 21.05922], [-100.46697, 21.0592], [-100.46696, 21.05979], [-100.46663, 21.05985]]]}}, {"id": "691074", "type": "Feature", "properties": {"id": "691074", "CVEGEO": "1103201290017003", "POBTOT": 0.0, "score_nse": 0.0, "NSE": null, "VIVTOT": 0.0, "GRAPROES": 0.0, "_ent": "11", "_mun": "032", "_loc": "0129"}, "geometry": {"type": "Polygon", "coordinates": [[[-100.46229, 21.06063], [-100.46126, 21.05862], [-100.46363, 21.05903], [-100.46376, 21.0604], [-100.46229, 21.06063]]]}}, {"id": "691075", "type": "Feature", "properties": {"id": "691075", "CVEGEO": "1103201290017002", "POBTOT": 0.0, "score_nse": 0.0, "NSE": null, "VIVTOT": 0.0, "GRAPROES": 0.0, "_ent": "11", "_mun": "032", "_loc": "0129"}, "geometry": {"type": "Polygon", "coordinates": [[[-100.46786, 21.05967], [-100.46778, 21.05902], [-100.46778, 21.05969], [-100.46708, 21.05978], [-100.46706, 21.05793], [-100.46885, 21.05832], [-100.46882, 21.05954], [-100.46786, 21.05967]]]}}, {"id": "691076", "type": "Feature", "properties": {"id": "691076", "CVEGEO": "1103201290017001", "POBTOT": 0.0, "score_nse": 0.0, "NSE": null, "VIVTOT": 0.0, "GRAPROES": 0.0, "_ent": "11", "_mun": "032", "_loc": "0129"}, "geometry": {"type": "Polygon", "coordinates": [[[-100.4673, 21.06131], [-100.46678, 21.06139], [-100.4667, 21.06095], [-100.46684, 21.06093], [-100.46662, 21.06002], [-100.46701, 21.05995], [-100.4673, 21.06131]]]}}, {"id": "692008", "type": "Feature", "properties": {"id": "692008", "CVEGEO": "1103201290017006", "POBTOT": 0.0, "score_nse": 0.0, "NSE": null, "VIVTOT": 0.0, "GRAPROES": 0.0, "_ent": "11", "_mun": "032", "_loc": "0129"}, "geometry": {"type": "Polygon", "coordinates": [[[-100.46345, 21.05623], [-100.46337, 21.05541], [-100.46619, 21.05537], [-100.46624, 21.05578], [-100.46532, 21.05581], [-100.4653, 21.05619], [-100.46345, 21.05623]]]}}, {"id": "692312", "type": "Feature", "properties": {"id": "692312", "CVEGEO": "1103201290017004", "POBTOT": 0.0, "score_nse": 0.0, "NSE": null, "VIVTOT": 0.0, "GRAPROES": 0.0, "_ent": "11", "_mun": "032", "_loc": "0129"}, "geometry": {"type": "Polygon", "coordinates": [[[-100.46351, 21.05714], [-100.46345, 21.05633], [-100.4653, 21.05627], [-100.4653, 21.05679], [-100.46351, 21.05714]]]}}, {"id": "692433", "type": "Feature", "properties": {"id": "692433", "CVEGEO": "1103201290017009", "POBTOT": 0.0, "score_nse": 0.0, "NSE": null, "VIVTOT": 0.0, "GRAPROES": 0.0, "_ent": "11", "_mun": "032", "_loc": "0129"}, "geometry": {"type": "Polygon", "coordinates": [[[-100.46536, 21.05678], [-100.46537, 21.05591], [-100.46562, 21.0558], [-100.46619, 21.05587], [-100.46613, 21.05663], [-100.46536, 21.05678]]]}}]}