{"type": "FeatureCollection", "features": [{"id": "871288", "type": "Feature", "properties": {"id": "871288", "CVEGEO": "1305900150058016", "POBTOT": 0.0, "score_nse": 0.0, "NSE": null, "VIVTOT": 0.0, "GRAPROES": 0.0, "_ent": "13", "_mun": "059", "_loc": "0015"}, "geometry": {"type": "Polygon", "coordinates": [[[-99.56195, 20.53121], [-99.56144, 20.53074], [-99.56144, 20.53038], [-99.56134, 20.5307], [-99.56102, 20.53048], [-99.561, 20.52986], [-99.56127, 20.52969], [-99.56201, 20.5301], [-99.56222, 20.53078], [-99.56163, 20.53038], [-99.56249, 20.53101], [-99.56238, 20.53114], [-99.56252, 20.53105], [-99.56307, 20.53139], [-99.56195, 20.53121]]]}}, {"id": "871736", "type": "Feature", "properties": {"id": "871736", "CVEGEO": "1305900150058006", "POBTOT": 0.0, "score_nse": 0.0, "NSE": null, "VIVTOT": 0.0, "GRAPROES": 0.0, "_ent": "13", "_mun": "059", "_loc": "0015"}, "geometry": {"type": "Polygon", "coordinates": [[[-99.55995, 20.53173], [-99.56006, 20.53271], [-99.55887, 20.53202], [-99.55849, 20.53165], [-99.55841, 20.53136], [-99.55859, 20.53126], [-99.55902, 20.53147], [-99.55973, 20.53127], [-99.55995, 20.53173]]]}}, {"id": "871781", "type": "Feature", "properties": {"id": "871781", "CVEGEO": "1305900150058003", "POBTOT": 0.0, "score_nse": 0.0, "NSE": null, "VIVTOT": 0.0, "GRAPROES": 0.0, "_ent": "13", "_mun": "059", "_loc": "0015"}, "geometry": {"type": "Polygon", "coordinates": [[[-99.56276, 20.52841], [-99.56264, 20.5287], [-99.56229, 20.52868], [-99.56257, 20.52837], [-99.56276, 20.52841]]]}}, {"id": "871834", "type": "Feature", "properties": {"id": "871834", "CVEGEO": "1305900150058012", "POBTOT": 0.0, "score_nse": 0.0, "NSE": null, "VIVTOT": 0.0, "GRAPROES": 0.0, "_ent": "13", "_mun": "059", "_loc": "0015"}, "geometry": {"type": "Polygon", "coordinates": [[[-99.56306, 20.53004], [-99.56458, 20.53143], [-99.56459, 20.53174], [-99.56466, 20.53149], [-99.56524, 20.53191], [-99.5648, 20.53245], [-99.5631, 20.53119], [-99.56273, 20.5311], [-99.56261, 20.531], [-99.56276, 20.53089], [-99.56252, 20.53093], [-99.56225, 20.5304], [-99.56248, 20.53], [-99.56306, 20.53004]]]}}, {"id": "871898", "type": "Feature", "properties": {"id": "871898", "CVEGEO": "1305900150058014", "POBTOT": 0.0, "score_nse": 0.0, "NSE": null, "VIVTOT": 0.0, "GRAPROES": 0.0, "_ent": "13", "_mun": "059", "_loc": "0015"}, "geometry": {"type": "Polygon", "coordinates": [[[-99.56463, 20.53268], [-99.5642, 20.5322], [-99.56476, 20.5325], [-99.56463, 20.53268]]]}}, {"id": "871947", "type": "Feature", "properties": {"id": "871947", "CVEGEO": "1305900150058009", "POBTOT": 0.0, "score_nse": 0.0, "NSE": null, "VIVTOT": 0.0, "GRAPROES": 0.0, "_ent": "13", "_mun": "059", "_loc": "0015"}, "geometry": {"type": "Polygon", "coordinates": [[[-99.56122, 20.52753], [-99.56163, 20.52748], [-99.56147, 20.52788], [-99.56081, 20.52843], [-99.56033, 20.5282], [-99.56122, 20.52753]]]}}, {"id": "872013", "type": "Feature", "properties": {"id": "872013", "CVEGEO": "1305900150058004", "POBTOT": 0.0, "score_nse": 0.0, "NSE": null, "VIVTOT": 0.0, "GRAPROES": 0.0, "_ent": "13", "_mun": "059", "_loc": "0015"}, "geometry": {"type": "Polygon", "coordinates": [[[-99.56227, 20.53015], [-99.56199, 20.52985], [-99.56152, 20.52966], [-99.56157, 20.52948], [-99.56207, 20.52882], [-99.56268, 20.52875], [-99.56267, 20.52971], [-99.56227, 20.53015]]]}}, {"id": "872014", "type": "Feature", "properties": {"id": "872014", "CVEGEO": "1305900150058001", "POBTOT": 0.0, "score_nse": 0.0, "NSE": null, "VIVTOT": 0.0, "GRAPROES": 0.0, "_ent": "13", "_mun": "059", "_loc": "0015"}, "geometry": {"type": "Polygon", "coordinates": [[[-99.55772, 20.53128], [-99.55743, 20.53069], [-99.55907, 20.53032], [-99.55974, 20.52986], [-99.55962, 20.53122], [-99.55908, 20.5314], [-99.55859, 20.53119], [-99.55814, 20.53148], [-99.55772, 20.53128]]]}}, {"id": "872015", "type": "Feature", "properties": {"id": "872015", "CVEGEO": "1305900150058015", "POBTOT": 0.0, "score_nse": 0.0, "NSE": null, "VIVTOT": 0.0, "GRAPROES": 0.0, "_ent": "13", "_mun": "059", "_loc": "0015"}, "geometry": {"type": "Polygon", "coordinates": [[[-99.56574, 20.53181], [-99.56523, 20.5318], [-99.56467, 20.53141], [-99.56486, 20.5312], [-99.56574, 20.53181]]]}}, {"id": "872016", "type": "Feature", "properties": {"id": "872016", "CVEGEO": "1305900150058018", "POBTOT": 0.0, "score_nse": 0.0, "NSE": null, "VIVTOT": 0.0, "GRAPROES": 0.0, "_ent": "13", "_mun": "059", "_loc": "0015"}, "geometry": {"type": "Polygon", "coordinates": [[[-99.56277, 20.52873], [-99.56391, 20.52911], [-99.56386, 20.52925], [-99.56348, 20.52968], [-99.56272, 20.52971], [-99.56277, 20.52873]]]}}, {"id": "872201", "type": "Feature", "properties": {"id": "872201", "CVEGEO": "1305900150058002", "POBTOT": 0.0, "score_nse": 0.0, "NSE": null, "VIVTOT": 0.0, "GRAPROES": 0.0, "_ent": "13", "_mun": "059", "_loc": "0015"}, "geometry": {"type": "Polygon", "coordinates": [[[-99.55709, 20.53037], [-99.55792, 20.5296], [-99.55906, 20.52972], [-99.55912, 20.53026], [-99.55898, 20.53032], [-99.55798, 20.53042], [-99.55708, 20.53076], [-99.55709, 20.53037]]]}}, {"id": "872202", "type": "Feature", "properties": {"id": "872202", "CVEGEO": "1305900150058020", "POBTOT": 0.0, "score_nse": 0.0, "NSE": null, "VIVTOT": 0.0, "GRAPROES": 0.0, "_ent": "13", "_mun": "059", "_loc": "0015"}, "geometry": {"type": "Polygon", "coordinates": [[[-99.56354, 20.53052], [-99.56317, 20.53], [-99.56279, 20.52977], [-99.56348, 20.52974], [-99.56387, 20.52928], [-99.56414, 20.5294], [-99.56402, 20.52979], [-99.56417, 20.53017], [-99.5648, 20.52992], [-99.56534, 20.53032], [-99.56491, 20.53061], [-99.56427, 20.53064], [-99.56408, 20.53085], [-99.56354, 20.53052]]]}}, {"id": "872203", "type": "Feature", "properties": {"id": "872203", "CVEGEO": "1305900150058013", "POBTOT": 0.0, "score_nse": 0.0, "NSE": null, "VIVTOT": 0.0, "GRAPROES": 0.0, "_ent": "13", "_mun": "059", "_loc": "0015"}, "geometry": {"type": "Polygon", "coordinates": [[[-99.56567, 20.5317], [-99.56508, 20.53122], [-99.56485, 20.53117], [-99.56465, 20.5314], [-99.56411, 20.53093], [-99.56432, 20.53068], [-99.56478, 20.53065], [-99.56637, 20.53122], [-99.56662, 20.53164], [-99.56567, 20.5317]]]}}, {"id": "872204", "type": "Feature", "properties": {"id": "872204", "CVEGEO": "1305900150058010", "POBTOT": 0.0, "score_nse": 0.0, "NSE": null, "VIVTOT": 0.0, "GRAPROES": 0.0, "_ent": "13", "_mun": "059", "_loc": "0015"}, "geometry": {"type": "Polygon", "coordinates": [[[-99.56193, 20.52795], [-99.56071, 20.52886], [-99.56018, 20.52948], [-99.56008, 20.52944], [-99.56129, 20.52805], [-99.56175, 20.52782], [-99.56193, 20.52795]]]}}, {"id": "872205", "type": "Feature", "properties": {"id": "872205", "CVEGEO": "1305900150058008", "POBTOT": 0.0, "score_nse": 0.0, "NSE": null, "VIVTOT": 0.0, "GRAPROES": 0.0, "_ent": "13", "_mun": "059", "_loc": "0015"}, "geometry": {"type": "Polygon", "coordinates": [[[-99.55996, 20.52949], [-99.55961, 20.52934], [-99.55988, 20.52954], [-99.55918, 20.53021], [-99.55916, 20.5293], [-99.55932, 20.52871], [-99.55988, 20.52808], [-99.56073, 20.52849], [-99.56037, 20.52883], [-99.56016, 20.52872], [-99.56035, 20.52885], [-99.55996, 20.52949]]]}}, {"id": "872206", "type": "Feature", "properties": {"id": "872206", "CVEGEO": "1305900150058011", "POBTOT": 0.0, "score_nse": 0.0, "NSE": null, "VIVTOT": 0.0, "GRAPROES": 0.0, "_ent": "13", "_mun": "059", "_loc": "0015"}, "geometry": {"type": "Polygon", "coordinates": [[[-99.56024, 20.52954], [-99.56114, 20.52856], [-99.56252, 20.52751], [-99.56383, 20.52685], [-99.56279, 20.52821], [-99.56206, 20.52873], [-99.56142, 20.52957], [-99.56104, 20.52972], [-99.56113, 20.52939], [-99.56101, 20.52942], [-99.56087, 20.52977], [-99.56024, 20.52954]]]}}, {"id": "872207", "type": "Feature", "properties": {"id": "872207", "CVEGEO": "1305900150058005", "POBTOT": 0.0, "score_nse": 0.0, "NSE": null, "VIVTOT": 0.0, "GRAPROES": 0.0, "_ent": "13", "_mun": "059", "_loc": "0015"}, "geometry": {"type": "Polygon", "coordinates": [[[-99.56091, 20.53032], [-99.56111, 20.53063], [-99.56203, 20.5313], [-99.56341, 20.53158], [-99.5632, 20.53178], [-99.56292, 20.53162], [-99.56247, 20.53201], [-99.5624, 20.53223], [-99.56269, 20.53241], [-99.562, 20.5339], [-99.56028, 20.53274], [-99.55973, 20.53089], [-99.55971, 20.53036], [-99.55993, 20.52963], [-99.56014, 20.52957], [-99.56088, 20.52985], [-99.56091, 20.53032]]]}}, {"id": "872208", "type": "Feature", "properties": {"id": "872208", "CVEGEO": "1305900150058019", "POBTOT": 0.0, "score_nse": 0.0, "NSE": null, "VIVTOT": 0.0, "GRAPROES": 0.0, "_ent": "13", "_mun": "059", "_loc": "0015"}, "geometry": {"type": "Polygon", "coordinates": [[[-99.55644, 20.53068], [-99.55723, 20.52966], [-99.55768, 20.52957], [-99.55877, 20.52854], [-99.55901, 20.52792], [-99.55942, 20.52767], [-99.55978, 20.52802], [-99.55929, 20.52864], [-99.55907, 20.52965], [-99.55796, 20.52952], [-99.55703, 20.53031], [-99.55705, 20.53074], [-99.55687, 20.53069], [-99.55649, 20.53099], [-99.55644, 20.53068]]]}}]}