{"type": "FeatureCollection", "features": [{"id": "871310", "type": "Feature", "properties": {"id": "871310", "CVEGEO": "1305900330024015", "POBTOT": 0.0, "score_nse": 0.0, "NSE": null, "VIVTOT": 0.0, "GRAPROES": 0.0, "_ent": "13", "_mun": "059", "_loc": "0033"}, "geometry": {"type": "Polygon", "coordinates": [[[-99.62271, 20.48533], [-99.62271, 20.48555], [-99.62201, 20.48521], [-99.62161, 20.48474], [-99.62076, 20.48432], [-99.62141, 20.48382], [-99.62207, 20.48488], [-99.62271, 20.48533]]]}}, {"id": "871311", "type": "Feature", "properties": {"id": "871311", "CVEGEO": "1305900330024014", "POBTOT": 0.0, "score_nse": 0.0, "NSE": null, "VIVTOT": 0.0, "GRAPROES": 0.0, "_ent": "13", "_mun": "059", "_loc": "0033"}, "geometry": {"type": "Polygon", "coordinates": [[[-99.62205, 20.48363], [-99.62231, 20.4845], [-99.62258, 20.48509], [-99.62212, 20.48485], [-99.62147, 20.48378], [-99.62205, 20.48363]]]}}, {"id": "871384", "type": "Feature", "properties": {"id": "871384", "CVEGEO": "1305900330024003", "POBTOT": 0.0, "score_nse": 0.0, "NSE": null, "VIVTOT": 0.0, "GRAPROES": 0.0, "_ent": "13", "_mun": "059", "_loc": "0033"}, "geometry": {"type": "Polygon", "coordinates": [[[-99.62454, 20.47929], [-99.62443, 20.48067], [-99.62417, 20.48107], [-99.62413, 20.48153], [-99.62335, 20.48146], [-99.62318, 20.47948], [-99.62454, 20.47929]]]}}, {"id": "871398", "type": "Feature", "properties": {"id": "871398", "CVEGEO": "1305900330024030", "POBTOT": 0.0, "score_nse": 0.0, "NSE": null, "VIVTOT": 0.0, "GRAPROES": 0.0, "_ent": "13", "_mun": "059", "_loc": "0033"}, "geometry": {"type": "Polygon", "coordinates": [[[-99.61753, 20.47848], [-99.61634, 20.47708], [-99.61611, 20.47622], [-99.61633, 20.47579], [-99.61712, 20.47593], [-99.61845, 20.47535], [-99.6189, 20.47426], [-99.62064, 20.47616], [-99.62115, 20.47858], [-99.62057, 20.47823], [-99.61936, 20.47828], [-99.61842, 20.47902], [-99.61812, 20.47945], [-99.61753, 20.47848]]]}}, {"id": "871461", "type": "Feature", "properties": {"id": "871461", "CVEGEO": "1305900330024026", "POBTOT": 0.0, "score_nse": 0.0, "NSE": null, "VIVTOT": 0.0, "GRAPROES": 0.0, "_ent": "13", "_mun": "059", "_loc": "0033"}, "geometry": {"type": "Polygon", "coordinates": [[[-99.62455, 20.47916], [-99.62423, 20.47843], [-99.62435, 20.47802], [-99.6257, 20.47787], [-99.62593, 20.47836], [-99.62559, 20.47899], [-99.62455, 20.47916]]]}}, {"id": "871462", "type": "Feature", "properties": {"id": "871462", "CVEGEO": "1305900330024025", "POBTOT": 0.0, "score_nse": 0.0, "NSE": null, "VIVTOT": 0.0, "GRAPROES": 0.0, "_ent": "13", "_mun": "059", "_loc": "0033"}, "geometry": {"type": "Polygon", "coordinates": [[[-99.63172, 20.49388], [-99.63193, 20.49353], [-99.63317, 20.49297], [-99.63348, 20.49323], [-99.63324, 20.49288], [-99.63335, 20.49281], [-99.63462, 20.49301], [-99.63518, 20.49293], [-99.63628, 20.49164], [-99.63696, 20.49047], [-99.63764, 20.49178], [-99.63759, 20.49251], [-99.63732, 20.49294], [-99.63596, 20.4939], [-99.63515, 20.49417], [-99.63488, 20.49443], [-99.63444, 20.49599], [-99.63242, 20.49538], [-99.63212, 20.49517], [-99.63183, 20.49461], [-99.63172, 20.49388]]]}}, {"id": "871463", "type": "Feature", "properties": {"id": "871463", "CVEGEO": "1305900330024024", "POBTOT": 0.0, "score_nse": 0.0, "NSE": null, "VIVTOT": 0.0, "GRAPROES": 0.0, "_ent": "13", "_mun": "059", "_loc": "0033"}, "geometry": {"type": "Polygon", "coordinates": [[[-99.62747, 20.48739], [-99.63025, 20.48799], [-99.63098, 20.48878], [-99.63113, 20.48924], [-99.63103, 20.48976], [-99.63025, 20.49069], [-99.63014, 20.4912], [-99.63039, 20.49235], [-99.63002, 20.49196], [-99.62957, 20.48964], [-99.63044, 20.48927], [-99.62951, 20.48956], [-99.62886, 20.48915], [-99.62628, 20.4887], [-99.62515, 20.48804], [-99.62424, 20.48681], [-99.62413, 20.48646], [-99.62367, 20.48627], [-99.62396, 20.48596], [-99.62546, 20.48636], [-99.62747, 20.48739]]]}}, {"id": "871464", "type": "Feature", "properties": {"id": "871464", "CVEGEO": "1305900330024011", "POBTOT": 0.0, "score_nse": 0.0, "NSE": null, "VIVTOT": 0.0, "GRAPROES": 0.0, "_ent": "13", "_mun": "059", "_loc": "0033"}, "geometry": {"type": "Polygon", "coordinates": [[[-99.62567, 20.48078], [-99.62462, 20.48101], [-99.62444, 20.48114], [-99.6244, 20.48153], [-99.62422, 20.48156], [-99.62421, 20.48121], [-99.62455, 20.48057], [-99.62461, 20.47929], [-99.62472, 20.47987], [-99.62479, 20.47929], [-99.62582, 20.47921], [-99.62599, 20.47937], [-99.62623, 20.48], [-99.62655, 20.48036], [-99.62567, 20.48078]]]}}, {"id": "871485", "type": "Feature", "properties": {"id": "871485", "CVEGEO": "1305900330024010", "POBTOT": 0.0, "score_nse": 0.0, "NSE": null, "VIVTOT": 0.0, "GRAPROES": 0.0, "_ent": "13", "_mun": "059", "_loc": "0033"}, "geometry": {"type": "Polygon", "coordinates": [[[-99.62449, 20.47917], [-99.62318, 20.4794], [-99.6231, 20.47825], [-99.62421, 20.47802], [-99.62432, 20.47775], [-99.62416, 20.47844], [-99.62449, 20.47917]]]}}, {"id": "871612", "type": "Feature", "properties": {"id": "871612", "CVEGEO": "1305900330024017", "POBTOT": 0.0, "score_nse": 0.0, "NSE": null, "VIVTOT": 0.0, "GRAPROES": 0.0, "_ent": "13", "_mun": "059", "_loc": "0033"}, "geometry": {"type": "Polygon", "coordinates": [[[-99.62236, 20.47482], [-99.62268, 20.47741], [-99.62251, 20.47758], [-99.62213, 20.47744], [-99.62103, 20.47754], [-99.62067, 20.47603], [-99.62166, 20.47588], [-99.62236, 20.47482]]]}}, {"id": "871613", "type": "Feature", "properties": {"id": "871613", "CVEGEO": "1305900330024009", "POBTOT": 0.0, "score_nse": 0.0, "NSE": null, "VIVTOT": 0.0, "GRAPROES": 0.0, "_ent": "13", "_mun": "059", "_loc": "0033"}, "geometry": {"type": "Polygon", "coordinates": [[[-99.62237, 20.47753], [-99.62297, 20.47846], [-99.6231, 20.4794], [-99.62229, 20.47931], [-99.62127, 20.47865], [-99.62105, 20.47761], [-99.62209, 20.47749], [-99.62237, 20.47753]]]}}, {"id": "871614", "type": "Feature", "properties": {"id": "871614", "CVEGEO": "1305900330024002", "POBTOT": 0.0, "score_nse": 0.0, "NSE": null, "VIVTOT": 0.0, "GRAPROES": 0.0, "_ent": "13", "_mun": "059", "_loc": "0033"}, "geometry": {"type": "Polygon", "coordinates": [[[-99.62307, 20.47948], [-99.6232, 20.4807], [-99.62148, 20.48081], [-99.62127, 20.47871], [-99.62225, 20.47936], [-99.62307, 20.47948]]]}}, {"id": "871615", "type": "Feature", "properties": {"id": "871615", "CVEGEO": "1305900330024001", "POBTOT": 0.0, "score_nse": 0.0, "NSE": null, "VIVTOT": 0.0, "GRAPROES": 0.0, "_ent": "13", "_mun": "059", "_loc": "0033"}, "geometry": {"type": "Polygon", "coordinates": [[[-99.62154, 20.48222], [-99.62149, 20.4809], [-99.62322, 20.48082], [-99.62332, 20.48214], [-99.62154, 20.48222]]]}}, {"id": "871811", "type": "Feature", "properties": {"id": "871811", "CVEGEO": "1305900330024008", "POBTOT": 0.0, "score_nse": 0.0, "NSE": null, "VIVTOT": 0.0, "GRAPROES": 0.0, "_ent": "13", "_mun": "059", "_loc": "0033"}, "geometry": {"type": "Polygon", "coordinates": [[[-99.62139, 20.48079], [-99.62028, 20.48088], [-99.62001, 20.48063], [-99.61902, 20.48062], [-99.61822, 20.47951], [-99.6193, 20.47841], [-99.62048, 20.47829], [-99.62118, 20.47868], [-99.62139, 20.48079]]]}}, {"id": "871812", "type": "Feature", "properties": {"id": "871812", "CVEGEO": "1305900330024007", "POBTOT": 0.0, "score_nse": 0.0, "NSE": null, "VIVTOT": 0.0, "GRAPROES": 0.0, "_ent": "13", "_mun": "059", "_loc": "0033"}, "geometry": {"type": "Polygon", "coordinates": [[[-99.6214, 20.48233], [-99.62093, 20.48228], [-99.62089, 20.48164], [-99.62038, 20.48097], [-99.62139, 20.48091], [-99.6214, 20.48233]]]}}, {"id": "871813", "type": "Feature", "properties": {"id": "871813", "CVEGEO": "1305900330024006", "POBTOT": 0.0, "score_nse": 0.0, "NSE": null, "VIVTOT": 0.0, "GRAPROES": 0.0, "_ent": "13", "_mun": "059", "_loc": "0033"}, "geometry": {"type": "Polygon", "coordinates": [[[-99.62142, 20.48242], [-99.62202, 20.48355], [-99.62142, 20.48372], [-99.62111, 20.48321], [-99.62095, 20.48236], [-99.62142, 20.48242]]]}}, {"id": "871814", "type": "Feature", "properties": {"id": "871814", "CVEGEO": "1305900330024005", "POBTOT": 0.0, "score_nse": 0.0, "NSE": null, "VIVTOT": 0.0, "GRAPROES": 0.0, "_ent": "13", "_mun": "059", "_loc": "0033"}, "geometry": {"type": "Polygon", "coordinates": [[[-99.62332, 20.48222], [-99.62333, 20.48382], [-99.62233, 20.48397], [-99.62155, 20.4823], [-99.62332, 20.48222]]]}}, {"id": "871815", "type": "Feature", "properties": {"id": "871815", "CVEGEO": "1305900330024004", "POBTOT": 0.0, "score_nse": 0.0, "NSE": null, "VIVTOT": 0.0, "GRAPROES": 0.0, "_ent": "13", "_mun": "059", "_loc": "0033"}, "geometry": {"type": "Polygon", "coordinates": [[[-99.62411, 20.48161], [-99.62399, 20.48268], [-99.6234, 20.48267], [-99.62333, 20.48155], [-99.62411, 20.48161]]]}}, {"id": "871874", "type": "Feature", "properties": {"id": "871874", "CVEGEO": "1305900330024012", "POBTOT": 0.0, "score_nse": 0.0, "NSE": null, "VIVTOT": 0.0, "GRAPROES": 0.0, "_ent": "13", "_mun": "059", "_loc": "0033"}, "geometry": {"type": "Polygon", "coordinates": [[[-99.62577, 20.48348], [-99.62411, 20.4844], [-99.62399, 20.48462], [-99.62396, 20.48354], [-99.62419, 20.48185], [-99.62505, 20.48253], [-99.6252, 20.48295], [-99.62577, 20.48348]]]}}, {"id": "872046", "type": "Feature", "properties": {"id": "872046", "CVEGEO": "1305900330024021", "POBTOT": 0.0, "score_nse": 0.0, "NSE": null, "VIVTOT": 0.0, "GRAPROES": 0.0, "_ent": "13", "_mun": "059", "_loc": "0033"}, "geometry": {"type": "Polygon", "coordinates": [[[-99.62696, 20.48323], [-99.62614, 20.48492], [-99.62664, 20.48565], [-99.62652, 20.48604], [-99.62634, 20.48593], [-99.62619, 20.48611], [-99.6251, 20.48552], [-99.62479, 20.48612], [-99.6245, 20.48585], [-99.62434, 20.48518], [-99.62407, 20.48478], [-99.6242, 20.48441], [-99.62569, 20.48354], [-99.62696, 20.48323]]]}}, {"id": "872047", "type": "Feature", "properties": {"id": "872047", "CVEGEO": "1305900330024019", "POBTOT": 0.0, "score_nse": 0.0, "NSE": null, "VIVTOT": 0.0, "GRAPROES": 0.0, "_ent": "13", "_mun": "059", "_loc": "0033"}, "geometry": {"type": "Polygon", "coordinates": [[[-99.6256, 20.47779], [-99.62437, 20.47788], [-99.62462, 20.47681], [-99.62448, 20.47659], [-99.62467, 20.4761], [-99.62507, 20.47594], [-99.62564, 20.476], [-99.6256, 20.47779]]]}}, {"id": "872263", "type": "Feature", "properties": {"id": "872263", "CVEGEO": "1305900330024034", "POBTOT": 0.0, "score_nse": 0.0, "NSE": null, "VIVTOT": 0.0, "GRAPROES": 0.0, "_ent": "13", "_mun": "059", "_loc": "0033"}, "geometry": {"type": "Polygon", "coordinates": [[[-99.62611, 20.47815], [-99.62571, 20.4777], [-99.62573, 20.47599], [-99.62647, 20.47605], [-99.62611, 20.47815]]]}}, {"id": "872264", "type": "Feature", "properties": {"id": "872264", "CVEGEO": "1305900330024035", "POBTOT": 0.0, "score_nse": 0.0, "NSE": null, "VIVTOT": 0.0, "GRAPROES": 0.0, "_ent": "13", "_mun": "059", "_loc": "0033"}, "geometry": {"type": "Polygon", "coordinates": [[[-99.62645, 20.48045], [-99.6266, 20.4804], [-99.62817, 20.48265], [-99.62795, 20.48278], [-99.62723, 20.48145], [-99.62645, 20.48045]]]}}, {"id": "872272", "type": "Feature", "properties": {"id": "872272", "CVEGEO": "1305900330024016", "POBTOT": 0.0, "score_nse": 0.0, "NSE": null, "VIVTOT": 0.0, "GRAPROES": 0.0, "_ent": "13", "_mun": "059", "_loc": "0033"}, "geometry": {"type": "Polygon", "coordinates": [[[-99.61947, 20.48238], [-99.61802, 20.48124], [-99.61742, 20.48109], [-99.61692, 20.48058], [-99.61787, 20.47997], [-99.61817, 20.47957], [-99.61889, 20.48061], [-99.62004, 20.48073], [-99.62064, 20.48127], [-99.62082, 20.48162], [-99.62096, 20.48298], [-99.62135, 20.48373], [-99.62071, 20.48427], [-99.62052, 20.48414], [-99.62006, 20.48348], [-99.61919, 20.48294], [-99.61947, 20.48238]]]}}, {"id": "872273", "type": "Feature", "properties": {"id": "872273", "CVEGEO": "1305900330024013", "POBTOT": 0.0, "score_nse": 0.0, "NSE": null, "VIVTOT": 0.0, "GRAPROES": 0.0, "_ent": "13", "_mun": "059", "_loc": "0033"}, "geometry": {"type": "Polygon", "coordinates": [[[-99.62398, 20.4828], [-99.62395, 20.48472], [-99.62308, 20.48455], [-99.62254, 20.4848], [-99.62238, 20.48408], [-99.62337, 20.48389], [-99.62342, 20.48273], [-99.62398, 20.4828]]]}}, {"id": "872274", "type": "Feature", "properties": {"id": "872274", "CVEGEO": "1305900330024022", "POBTOT": 0.0, "score_nse": 0.0, "NSE": null, "VIVTOT": 0.0, "GRAPROES": 0.0, "_ent": "13", "_mun": "059", "_loc": "0033"}, "geometry": {"type": "Polygon", "coordinates": [[[-99.62395, 20.48589], [-99.62259, 20.48489], [-99.62298, 20.48468], [-99.62396, 20.48478], [-99.62427, 20.48522], [-99.6244, 20.48586], [-99.62465, 20.48609], [-99.62395, 20.48589]]]}}, {"id": "872275", "type": "Feature", "properties": {"id": "872275", "CVEGEO": "1305900330024033", "POBTOT": 0.0, "score_nse": 0.0, "NSE": null, "VIVTOT": 0.0, "GRAPROES": 0.0, "_ent": "13", "_mun": "059", "_loc": "0033"}, "geometry": {"type": "Polygon", "coordinates": [[[-99.62297, 20.48811], [-99.62292, 20.48681], [-99.62307, 20.48593], [-99.62398, 20.48655], [-99.62365, 20.48694], [-99.62399, 20.48657], [-99.62427, 20.48694], [-99.62397, 20.48748], [-99.62431, 20.48698], [-99.62497, 20.48792], [-99.62433, 20.48875], [-99.62297, 20.48811]]]}}, {"id": "872276", "type": "Feature", "properties": {"id": "872276", "CVEGEO": "1305900330024031", "POBTOT": 0.0, "score_nse": 0.0, "NSE": null, "VIVTOT": 0.0, "GRAPROES": 0.0, "_ent": "13", "_mun": "059", "_loc": "0033"}, "geometry": {"type": "Polygon", "coordinates": [[[-99.62501, 20.48902], [-99.6244, 20.48877], [-99.625, 20.48798], [-99.62608, 20.48867], [-99.62734, 20.48893], [-99.62659, 20.48922], [-99.62501, 20.48902]]]}}, {"id": "872277", "type": "Feature", "properties": {"id": "872277", "CVEGEO": "1305900330024023", "POBTOT": 0.0, "score_nse": 0.0, "NSE": null, "VIVTOT": 0.0, "GRAPROES": 0.0, "_ent": "13", "_mun": "059", "_loc": "0033"}, "geometry": {"type": "Polygon", "coordinates": [[[-99.63105, 20.49348], [-99.63019, 20.49164], [-99.63018, 20.49118], [-99.6303, 20.49074], [-99.63109, 20.48978], [-99.63119, 20.48922], [-99.63102, 20.48873], [-99.63033, 20.48797], [-99.62747, 20.48734], [-99.6266, 20.48691], [-99.62616, 20.48655], [-99.62606, 20.48625], [-99.62634, 20.48603], [-99.62658, 20.48611], [-99.62672, 20.48557], [-99.62622, 20.48489], [-99.62705, 20.48323], [-99.6282, 20.48272], [-99.63047, 20.48607], [-99.62989, 20.48632], [-99.6305, 20.48611], [-99.63265, 20.48931], [-99.63462, 20.49027], [-99.63516, 20.49074], [-99.63496, 20.49225], [-99.63385, 20.49215], [-99.63493, 20.49232], [-99.63492, 20.49289], [-99.63334, 20.49274], [-99.6318, 20.49353], [-99.6317, 20.49374], [-99.63105, 20.49348]]]}}, {"id": "872296", "type": "Feature", "properties": {"id": "872296", "CVEGEO": "1305900330024018", "POBTOT": 0.0, "score_nse": 0.0, "NSE": null, "VIVTOT": 0.0, "GRAPROES": 0.0, "_ent": "13", "_mun": "059", "_loc": "0033"}, "geometry": {"type": "Polygon", "coordinates": [[[-99.62432, 20.47771], [-99.62441, 20.47684], [-99.62421, 20.47793], [-99.62295, 20.47823], [-99.62253, 20.47765], [-99.62275, 20.47743], [-99.62241, 20.47491], [-99.62261, 20.47378], [-99.62285, 20.47313], [-99.62351, 20.47231], [-99.62412, 20.47405], [-99.62418, 20.47491], [-99.62402, 20.476], [-99.62456, 20.47684], [-99.62432, 20.47771]]]}}, {"id": "872298", "type": "Feature", "properties": {"id": "872298", "CVEGEO": "1305900330024020", "POBTOT": 0.0, "score_nse": 0.0, "NSE": null, "VIVTOT": 0.0, "GRAPROES": 0.0, "_ent": "13", "_mun": "059", "_loc": "0033"}, "geometry": {"type": "Polygon", "coordinates": [[[-99.62789, 20.48279], [-99.62585, 20.48347], [-99.62514, 20.48271], [-99.62524, 20.48223], [-99.62519, 20.48203], [-99.6251, 20.48248], [-99.62419, 20.48179], [-99.62422, 20.48162], [-99.62446, 20.48159], [-99.62447, 20.48122], [-99.62497, 20.48104], [-99.6249, 20.48168], [-99.62528, 20.48166], [-99.62495, 20.48163], [-99.62506, 20.48099], [-99.62559, 20.48091], [-99.62639, 20.48052], [-99.62697, 20.48121], [-99.62789, 20.48279]]]}}]}