{"type": "FeatureCollection", "features": [{"id": "1077328", "type": "Feature", "properties": {"id": "1077328", "CVEGEO": "1503200120049017", "POBTOT": 37.0, "score_nse": 0.0, "NSE": "ND", "VIVTOT": 14.0, "GRAPROES": 10.1, "_ent": "15", "_mun": "032", "_loc": "0012"}, "geometry": {"type": "Polygon", "coordinates": [[[-100.25946, 19.31281], [-100.25949, 19.31433], [-100.25852, 19.3143], [-100.25849, 19.31293], [-100.25946, 19.31281]]]}}, {"id": "1077332", "type": "Feature", "properties": {"id": "1077332", "CVEGEO": "1503200120049010", "POBTOT": 23.0, "score_nse": 0.0, "NSE": "ND", "VIVTOT": 5.0, "GRAPROES": 11.81, "_ent": "15", "_mun": "032", "_loc": "0012"}, "geometry": {"type": "Polygon", "coordinates": [[[-100.25889, 19.31093], [-100.25894, 19.31148], [-100.25842, 19.31148], [-100.25843, 19.31094], [-100.25889, 19.31093]]]}}, {"id": "1077335", "type": "Feature", "properties": {"id": "1077335", "CVEGEO": "1503200120049048", "POBTOT": 101.0, "score_nse": 0.0, "NSE": "ND", "VIVTOT": 37.0, "GRAPROES": 9.19, "_ent": "15", "_mun": "032", "_loc": "0012"}, "geometry": {"type": "Polygon", "coordinates": [[[-100.24758, 19.30503], [-100.24221, 19.30423], [-100.24205, 19.3016], [-100.24507, 19.30218], [-100.24697, 19.30295], [-100.24892, 19.30348], [-100.24919, 19.30515], [-100.24819, 19.30485], [-100.24758, 19.30503]]]}}, {"id": "1077390", "type": "Feature", "properties": {"id": "1077390", "CVEGEO": "1503200120049049", "POBTOT": 47.0, "score_nse": 0.0, "NSE": "ND", "VIVTOT": 14.0, "GRAPROES": 10.14, "_ent": "15", "_mun": "032", "_loc": "0012"}, "geometry": {"type": "Polygon", "coordinates": [[[-100.25853, 19.31442], [-100.2595, 19.31439], [-100.25941, 19.31566], [-100.25853, 19.31562], [-100.25853, 19.31442]]]}}, {"id": "1077418", "type": "Feature", "properties": {"id": "1077418", "CVEGEO": "1503200120049057", "POBTOT": 121.0, "score_nse": 0.0, "NSE": "ND", "VIVTOT": 52.0, "GRAPROES": 7.0, "_ent": "15", "_mun": "032", "_loc": "0012"}, "geometry": {"type": "Polygon", "coordinates": [[[-100.23334, 19.31007], [-100.23365, 19.30931], [-100.23308, 19.3068], [-100.23326, 19.30484], [-100.23292, 19.30359], [-100.23295, 19.30328], [-100.23403, 19.30153], [-100.23635, 19.30139], [-100.23937, 19.30157], [-100.23916, 19.30245], [-100.23826, 19.30351], [-100.23467, 19.30304], [-100.23774, 19.30355], [-100.23598, 19.30665], [-100.23518, 19.30698], [-100.23503, 19.3078], [-100.2346, 19.30843], [-100.23428, 19.31013], [-100.23334, 19.31007]]]}}, {"id": "1077419", "type": "Feature", "properties": {"id": "1077419", "CVEGEO": "1503200120049056", "POBTOT": 13.0, "score_nse": 0.0, "NSE": "ND", "VIVTOT": 4.0, "GRAPROES": 4.29, "_ent": "15", "_mun": "032", "_loc": "0012"}, "geometry": {"type": "Polygon", "coordinates": [[[-100.23459, 19.30885], [-100.23507, 19.30787], [-100.2366, 19.30805], [-100.23557, 19.30849], [-100.23505, 19.30924], [-100.23447, 19.30974], [-100.23459, 19.30885]]]}}, {"id": "1077420", "type": "Feature", "properties": {"id": "1077420", "CVEGEO": "1503200120049055", "POBTOT": 32.0, "score_nse": 0.0, "NSE": "ND", "VIVTOT": 6.0, "GRAPROES": 6.42, "_ent": "15", "_mun": "032", "_loc": "0012"}, "geometry": {"type": "Polygon", "coordinates": [[[-100.24988, 19.31438], [-100.24846, 19.31436], [-100.24846, 19.31389], [-100.24988, 19.31402], [-100.24988, 19.31438]]]}}, {"id": "1077421", "type": "Feature", "properties": {"id": "1077421", "CVEGEO": "1503200120049054", "POBTOT": 51.0, "score_nse": 0.0, "NSE": "ND", "VIVTOT": 17.0, "GRAPROES": 7.27, "_ent": "15", "_mun": "032", "_loc": "0012"}, "geometry": {"type": "Polygon", "coordinates": [[[-100.24212, 19.30421], [-100.23954, 19.30399], [-100.23929, 19.30376], [-100.23833, 19.30355], [-100.23926, 19.30243], [-100.23945, 19.30157], [-100.24199, 19.30159], [-100.24212, 19.30421]]]}}, {"id": "1077422", "type": "Feature", "properties": {"id": "1077422", "CVEGEO": "1503200120049051", "POBTOT": 17.0, "score_nse": 0.0, "NSE": "ND", "VIVTOT": 3.0, "GRAPROES": 7.45, "_ent": "15", "_mun": "032", "_loc": "0012"}, "geometry": {"type": "Polygon", "coordinates": [[[-100.25638, 19.31315], [-100.25589, 19.31318], [-100.25589, 19.31287], [-100.25638, 19.31315]]]}}, {"id": "1077423", "type": "Feature", "properties": {"id": "1077423", "CVEGEO": "1503200120049034", "POBTOT": 39.0, "score_nse": 0.0, "NSE": "ND", "VIVTOT": 13.0, "GRAPROES": 10.12, "_ent": "15", "_mun": "032", "_loc": "0012"}, "geometry": {"type": "Polygon", "coordinates": [[[-100.25949, 19.31566], [-100.25958, 19.31435], [-100.26193, 19.31446], [-100.26209, 19.31477], [-100.26343, 19.31488], [-100.26307, 19.31575], [-100.25949, 19.31566]]]}}, {"id": "1077424", "type": "Feature", "properties": {"id": "1077424", "CVEGEO": "1503200120049021", "POBTOT": 49.0, "score_nse": 0.0, "NSE": "ND", "VIVTOT": 14.0, "GRAPROES": 7.74, "_ent": "15", "_mun": "032", "_loc": "0012"}, "geometry": {"type": "Polygon", "coordinates": [[[-100.25942, 19.31022], [-100.25969, 19.31045], [-100.25971, 19.31081], [-100.25898, 19.31082], [-100.25899, 19.31025], [-100.25942, 19.31022]]]}}, {"id": "1077425", "type": "Feature", "properties": {"id": "1077425", "CVEGEO": "1503200120049016", "POBTOT": 68.0, "score_nse": 39.8009, "NSE": "D+", "VIVTOT": 28.0, "GRAPROES": 7.96, "_ent": "15", "_mun": "032", "_loc": "0012"}, "geometry": {"type": "Polygon", "coordinates": [[[-100.25954, 19.31279], [-100.26222, 19.31249], [-100.26335, 19.31278], [-100.26409, 19.31349], [-100.26414, 19.31383], [-100.26386, 19.31453], [-100.26329, 19.31484], [-100.26219, 19.31472], [-100.26216, 19.31451], [-100.26181, 19.31437], [-100.25957, 19.31429], [-100.25954, 19.31279]]]}}, {"id": "1077426", "type": "Feature", "properties": {"id": "1077426", "CVEGEO": "1503200120049015", "POBTOT": 50.0, "score_nse": 0.0, "NSE": "ND", "VIVTOT": 16.0, "GRAPROES": 6.55, "_ent": "15", "_mun": "032", "_loc": "0012"}, "geometry": {"type": "Polygon", "coordinates": [[[-100.26066, 19.31196], [-100.26134, 19.31189], [-100.26276, 19.31256], [-100.26219, 19.3124], [-100.26064, 19.31257], [-100.26066, 19.31196]]]}}, {"id": "1077427", "type": "Feature", "properties": {"id": "1077427", "CVEGEO": "1503200120049014", "POBTOT": 25.0, "score_nse": 68.0749, "NSE": "C", "VIVTOT": 7.0, "GRAPROES": 11.8, "_ent": "15", "_mun": "032", "_loc": "0012"}, "geometry": {"type": "Polygon", "coordinates": [[[-100.26093, 19.31155], [-100.26127, 19.31184], [-100.26062, 19.3119], [-100.26059, 19.31155], [-100.26093, 19.31155]]]}}, {"id": "1077428", "type": "Feature", "properties": {"id": "1077428", "CVEGEO": "1503200120049013", "POBTOT": 0.0, "score_nse": 10.0, "NSE": "E", "VIVTOT": 1.0, "GRAPROES": 0.0, "_ent": "15", "_mun": "032", "_loc": "0012"}, "geometry": {"type": "Polygon", "coordinates": [[[-100.26086, 19.31149], [-100.26059, 19.31148], [-100.26059, 19.31122], [-100.26086, 19.31149]]]}}, {"id": "1077429", "type": "Feature", "properties": {"id": "1077429", "CVEGEO": "1503200120049012", "POBTOT": 36.0, "score_nse": 0.0, "NSE": "ND", "VIVTOT": 7.0, "GRAPROES": 7.91, "_ent": "15", "_mun": "032", "_loc": "0012"}, "geometry": {"type": "Polygon", "coordinates": [[[-100.26019, 19.31088], [-100.26056, 19.31118], [-100.26054, 19.31148], [-100.25981, 19.3115], [-100.25983, 19.31089], [-100.26019, 19.31088]]]}}, {"id": "1077430", "type": "Feature", "properties": {"id": "1077430", "CVEGEO": "1503200120049011", "POBTOT": 27.0, "score_nse": 0.0, "NSE": "ND", "VIVTOT": 5.0, "GRAPROES": 9.53, "_ent": "15", "_mun": "032", "_loc": "0012"}, "geometry": {"type": "Polygon", "coordinates": [[[-100.25972, 19.31088], [-100.25974, 19.31149], [-100.25902, 19.31148], [-100.25901, 19.31093], [-100.25972, 19.31088]]]}}, {"id": "1077431", "type": "Feature", "properties": {"id": "1077431", "CVEGEO": "1503200120049006", "POBTOT": 15.0, "score_nse": 0.0, "NSE": "ND", "VIVTOT": 9.0, "GRAPROES": 8.83, "_ent": "15", "_mun": "032", "_loc": "0012"}, "geometry": {"type": "Polygon", "coordinates": [[[-100.26058, 19.31197], [-100.26057, 19.31259], [-100.25982, 19.31264], [-100.25983, 19.31207], [-100.26058, 19.31197]]]}}, {"id": "1077432", "type": "Feature", "properties": {"id": "1077432", "CVEGEO": "1503200120049005", "POBTOT": 14.0, "score_nse": 0.0, "NSE": "ND", "VIVTOT": 10.0, "GRAPROES": 5.27, "_ent": "15", "_mun": "032", "_loc": "0012"}, "geometry": {"type": "Polygon", "coordinates": [[[-100.26054, 19.31153], [-100.26054, 19.31192], [-100.25985, 19.312], [-100.25981, 19.31156], [-100.26054, 19.31153]]]}}, {"id": "1077433", "type": "Feature", "properties": {"id": "1077433", "CVEGEO": "1503200120049003", "POBTOT": 37.0, "score_nse": 63.1017, "NSE": "C", "VIVTOT": 14.0, "GRAPROES": 13.08, "_ent": "15", "_mun": "032", "_loc": "0012"}, "geometry": {"type": "Polygon", "coordinates": [[[-100.25892, 19.31155], [-100.25892, 19.31211], [-100.25849, 19.31213], [-100.25846, 19.31155], [-100.25892, 19.31155]]]}}, {"id": "1077434", "type": "Feature", "properties": {"id": "1077434", "CVEGEO": "1503200120049002", "POBTOT": 25.0, "score_nse": 0.0, "NSE": "ND", "VIVTOT": 8.0, "GRAPROES": 11.33, "_ent": "15", "_mun": "032", "_loc": "0012"}, "geometry": {"type": "Polygon", "coordinates": [[[-100.2589, 19.31215], [-100.25892, 19.3124], [-100.25848, 19.31248], [-100.25848, 19.31221], [-100.2589, 19.31215]]]}}, {"id": "1077461", "type": "Feature", "properties": {"id": "1077461", "CVEGEO": "1503200120049022", "POBTOT": 11.0, "score_nse": 0.0, "NSE": "ND", "VIVTOT": 4.0, "GRAPROES": 9.63, "_ent": "15", "_mun": "032", "_loc": "0012"}, "geometry": {"type": "Polygon", "coordinates": [[[-100.25979, 19.31051], [-100.26015, 19.31081], [-100.25978, 19.31082], [-100.25979, 19.31051]]]}}, {"id": "1077493", "type": "Feature", "properties": {"id": "1077493", "CVEGEO": "1503200120049004", "POBTOT": 29.0, "score_nse": 0.0, "NSE": "ND", "VIVTOT": 10.0, "GRAPROES": 8.09, "_ent": "15", "_mun": "032", "_loc": "0012"}, "geometry": {"type": "Polygon", "coordinates": [[[-100.25973, 19.31157], [-100.25973, 19.31202], [-100.25901, 19.31209], [-100.259, 19.31155], [-100.25973, 19.31157]]]}}, {"id": "1077501", "type": "Feature", "properties": {"id": "1077501", "CVEGEO": "1503200120049046", "POBTOT": 23.0, "score_nse": 0.0, "NSE": "ND", "VIVTOT": 9.0, "GRAPROES": 8.47, "_ent": "15", "_mun": "032", "_loc": "0012"}, "geometry": {"type": "Polygon", "coordinates": [[[-100.2494, 19.30593], [-100.24899, 19.3035], [-100.25024, 19.30372], [-100.25044, 19.30577], [-100.25014, 19.30583], [-100.25014, 19.30601], [-100.25054, 19.30667], [-100.25018, 19.30685], [-100.25086, 19.30754], [-100.25065, 19.30853], [-100.25102, 19.30884], [-100.25092, 19.31006], [-100.24882, 19.30888], [-100.24887, 19.30703], [-100.2494, 19.30593]]]}}, {"id": "1077502", "type": "Feature", "properties": {"id": "1077502", "CVEGEO": "1503200120049020", "POBTOT": 8.0, "score_nse": 0.0, "NSE": "ND", "VIVTOT": 9.0, "GRAPROES": 4.0, "_ent": "15", "_mun": "032", "_loc": "0012"}, "geometry": {"type": "Polygon", "coordinates": [[[-100.25891, 19.31025], [-100.25891, 19.31083], [-100.25844, 19.31086], [-100.25842, 19.31027], [-100.25891, 19.31025]]]}}, {"id": "1077528", "type": "Feature", "properties": {"id": "1077528", "CVEGEO": "1503200120049026", "POBTOT": 20.0, "score_nse": 0.0, "NSE": "ND", "VIVTOT": 10.0, "GRAPROES": 8.5, "_ent": "15", "_mun": "032", "_loc": "0012"}, "geometry": {"type": "Polygon", "coordinates": [[[-100.25887, 19.30977], [-100.25887, 19.31016], [-100.25843, 19.31019], [-100.25844, 19.30947], [-100.25887, 19.30977]]]}}, {"id": "1077529", "type": "Feature", "properties": {"id": "1077529", "CVEGEO": "1503200120049027", "POBTOT": 5.0, "score_nse": 0.0, "NSE": "ND", "VIVTOT": 1.0, "GRAPROES": 0.0, "_ent": "15", "_mun": "032", "_loc": "0012"}, "geometry": {"type": "Polygon", "coordinates": [[[-100.25935, 19.31016], [-100.25894, 19.31018], [-100.25892, 19.30981], [-100.25935, 19.31016]]]}}, {"id": "1077548", "type": "Feature", "properties": {"id": "1077548", "CVEGEO": "1503200120049058", "POBTOT": 59.0, "score_nse": 27.3907, "NSE": "D", "VIVTOT": 19.0, "GRAPROES": 4.59, "_ent": "15", "_mun": "032", "_loc": "0012"}, "geometry": {"type": "Polygon", "coordinates": [[[-100.24416, 19.30551], [-100.24424, 19.30455], [-100.24737, 19.30503], [-100.247, 19.306], [-100.24416, 19.30551]]]}}, {"id": "1077549", "type": "Feature", "properties": {"id": "1077549", "CVEGEO": "1503200120049059", "POBTOT": 55.0, "score_nse": 0.0, "NSE": "ND", "VIVTOT": 20.0, "GRAPROES": 6.56, "_ent": "15", "_mun": "032", "_loc": "0012"}, "geometry": {"type": "Polygon", "coordinates": [[[-100.24848, 19.30696], [-100.2479, 19.30678], [-100.24792, 19.30639], [-100.24739, 19.30544], [-100.24746, 19.30513], [-100.24802, 19.3049], [-100.2492, 19.30528], [-100.24934, 19.30564], [-100.24873, 19.30746], [-100.24848, 19.30696]]]}}, {"id": "1077574", "type": "Feature", "properties": {"id": "1077574", "CVEGEO": "1503200120049018", "POBTOT": 42.0, "score_nse": 0.0, "NSE": "ND", "VIVTOT": 25.0, "GRAPROES": 8.37, "_ent": "15", "_mun": "032", "_loc": "0012"}, "geometry": {"type": "Polygon", "coordinates": [[[-100.25738, 19.31499], [-100.25738, 19.31464], [-100.25762, 19.31425], [-100.25763, 19.31307], [-100.25841, 19.31302], [-100.25843, 19.31439], [-100.25754, 19.31444], [-100.25756, 19.31517], [-100.25844, 19.3152], [-100.25843, 19.31666], [-100.25799, 19.31751], [-100.25745, 19.31715], [-100.25683, 19.31605], [-100.25706, 19.31598], [-100.25749, 19.31621], [-100.25768, 19.31603], [-100.25771, 19.31545], [-100.25738, 19.31499]]]}}, {"id": "1077575", "type": "Feature", "properties": {"id": "1077575", "CVEGEO": "1503200120049009", "POBTOT": 89.0, "score_nse": 0.0, "NSE": "ND", "VIVTOT": 23.0, "GRAPROES": 8.05, "_ent": "15", "_mun": "032", "_loc": "0012"}, "geometry": {"type": "Polygon", "coordinates": [[[-100.25647, 19.30829], [-100.25834, 19.30939], [-100.25834, 19.31017], [-100.25797, 19.31016], [-100.25834, 19.31019], [-100.25838, 19.31147], [-100.2578, 19.31148], [-100.2573, 19.31105], [-100.25724, 19.31024], [-100.2561, 19.30942], [-100.25647, 19.30829]]]}}, {"id": "1077576", "type": "Feature", "properties": {"id": "1077576", "CVEGEO": "1503200120049001", "POBTOT": 15.0, "score_nse": 0.0, "NSE": "ND", "VIVTOT": 13.0, "GRAPROES": 9.85, "_ent": "15", "_mun": "032", "_loc": "0012"}, "geometry": {"type": "Polygon", "coordinates": [[[-100.25975, 19.31268], [-100.25848, 19.31286], [-100.25849, 19.31253], [-100.25899, 19.31244], [-100.25897, 19.31215], [-100.25975, 19.31208], [-100.25975, 19.31268]]]}}, {"id": "1077584", "type": "Feature", "properties": {"id": "1077584", "CVEGEO": "1503200120049008", "POBTOT": 161.0, "score_nse": 0.0, "NSE": "ND", "VIVTOT": 47.0, "GRAPROES": 6.86, "_ent": "15", "_mun": "032", "_loc": "0012"}, "geometry": {"type": "Polygon", "coordinates": [[[-100.25563, 19.31264], [-100.25113, 19.31017], [-100.2514, 19.3092], [-100.25121, 19.30864], [-100.2509, 19.30844], [-100.25089, 19.30711], [-100.25051, 19.30691], [-100.25086, 19.30669], [-100.25032, 19.30596], [-100.2506, 19.30602], [-100.25069, 19.30579], [-100.25041, 19.30375], [-100.25068, 19.30384], [-100.25185, 19.30539], [-100.25317, 19.30632], [-100.25286, 19.30725], [-100.25322, 19.30635], [-100.25632, 19.30823], [-100.25601, 19.30907], [-100.25596, 19.31023], [-100.25453, 19.3094], [-100.25479, 19.30849], [-100.25448, 19.30937], [-100.25423, 19.30923], [-100.25445, 19.30854], [-100.25438, 19.30836], [-100.25419, 19.30921], [-100.25365, 19.30895], [-100.25595, 19.31032], [-100.25579, 19.31145], [-100.25508, 19.31104], [-100.25579, 19.31148], [-100.25563, 19.31264]]]}}, {"id": "1077588", "type": "Feature", "properties": {"id": "1077588", "CVEGEO": "1503200120049063", "POBTOT": 11.0, "score_nse": 0.0, "NSE": "ND", "VIVTOT": 3.0, "GRAPROES": 14.4, "_ent": "15", "_mun": "032", "_loc": "0012"}, "geometry": {"type": "Polygon", "coordinates": [[[-100.25757, 19.31443], [-100.25844, 19.31443], [-100.25844, 19.31515], [-100.25756, 19.31514], [-100.25757, 19.31443]]]}}, {"id": "1077592", "type": "Feature", "properties": {"id": "1077592", "CVEGEO": "1503200120049061", "POBTOT": 24.0, "score_nse": 0.0, "NSE": "ND", "VIVTOT": 7.0, "GRAPROES": 6.6, "_ent": "15", "_mun": "032", "_loc": "0012"}, "geometry": {"type": "Polygon", "coordinates": [[[-100.25724, 19.31102], [-100.25604, 19.3103], [-100.25609, 19.30949], [-100.25719, 19.31027], [-100.25724, 19.31102]]]}}, {"id": "1077593", "type": "Feature", "properties": {"id": "1077593", "CVEGEO": "1503200120049060", "POBTOT": 14.0, "score_nse": 0.0, "NSE": "ND", "VIVTOT": 4.0, "GRAPROES": 10.08, "_ent": "15", "_mun": "032", "_loc": "0012"}, "geometry": {"type": "Polygon", "coordinates": [[[-100.25599, 19.31037], [-100.25779, 19.31156], [-100.25838, 19.31155], [-100.25841, 19.31295], [-100.25653, 19.31313], [-100.25566, 19.31267], [-100.25599, 19.31037]]]}}, {"id": "1077601", "type": "Feature", "properties": {"id": "1077601", "CVEGEO": "1503200120049062", "POBTOT": 6.0, "score_nse": 0.0, "NSE": "ND", "VIVTOT": 3.0, "GRAPROES": 0.0, "_ent": "15", "_mun": "032", "_loc": "0012"}, "geometry": {"type": "Polygon", "coordinates": [[[-100.24986, 19.31443], [-100.24992, 19.31538], [-100.24913, 19.31559], [-100.24912, 19.31442], [-100.24986, 19.31443]]]}}]}