{"type": "FeatureCollection", "features": [{"id": "1233249", "type": "Feature", "properties": {"id": "1233249", "CVEGEO": "1603400170103010", "POBTOT": 0.0, "score_nse": 0.0, "NSE": null, "VIVTOT": 0.0, "GRAPROES": 0.0, "_ent": "16", "_mun": "034", "_loc": "0017"}, "geometry": {"type": "Polygon", "coordinates": [[[-100.50409, 19.63682], [-100.50381, 19.63615], [-100.50406, 19.63607], [-100.50422, 19.6362], [-100.50392, 19.63571], [-100.50451, 19.63599], [-100.5047, 19.63625], [-100.50409, 19.63682]]]}}, {"id": "1233309", "type": "Feature", "properties": {"id": "1233309", "CVEGEO": "1603400170103003", "POBTOT": 0.0, "score_nse": 0.0, "NSE": null, "VIVTOT": 0.0, "GRAPROES": 0.0, "_ent": "16", "_mun": "034", "_loc": "0017"}, "geometry": {"type": "Polygon", "coordinates": [[[-100.50386, 19.63704], [-100.50409, 19.63689], [-100.50443, 19.63717], [-100.50415, 19.63749], [-100.50386, 19.63704]]]}}, {"id": "1233414", "type": "Feature", "properties": {"id": "1233414", "CVEGEO": "1603400170103017", "POBTOT": 0.0, "score_nse": 0.0, "NSE": null, "VIVTOT": 0.0, "GRAPROES": 0.0, "_ent": "16", "_mun": "034", "_loc": "0017"}, "geometry": {"type": "Polygon", "coordinates": [[[-100.50156, 19.63694], [-100.50236, 19.63646], [-100.50249, 19.63717], [-100.50204, 19.63746], [-100.50156, 19.63694]]]}}, {"id": "1233415", "type": "Feature", "properties": {"id": "1233415", "CVEGEO": "1603400170103016", "POBTOT": 0.0, "score_nse": 0.0, "NSE": null, "VIVTOT": 0.0, "GRAPROES": 0.0, "_ent": "16", "_mun": "034", "_loc": "0017"}, "geometry": {"type": "Polygon", "coordinates": [[[-100.50252, 19.63727], [-100.5026, 19.63834], [-100.50212, 19.63855], [-100.50196, 19.63817], [-100.50202, 19.63847], [-100.50153, 19.63839], [-100.50129, 19.63812], [-100.50125, 19.63786], [-100.50187, 19.63731], [-100.50203, 19.63752], [-100.50252, 19.63727]]]}}, {"id": "1233416", "type": "Feature", "properties": {"id": "1233416", "CVEGEO": "1603400170103001", "POBTOT": 0.0, "score_nse": 0.0, "NSE": null, "VIVTOT": 0.0, "GRAPROES": 0.0, "_ent": "16", "_mun": "034", "_loc": "0017"}, "geometry": {"type": "Polygon", "coordinates": [[[-100.50299, 19.63714], [-100.50373, 19.63684], [-100.50409, 19.63754], [-100.50365, 19.63784], [-100.50299, 19.63714]]]}}, {"id": "1233533", "type": "Feature", "properties": {"id": "1233533", "CVEGEO": "1603400170103018", "POBTOT": 0.0, "score_nse": 0.0, "NSE": null, "VIVTOT": 0.0, "GRAPROES": 0.0, "_ent": "16", "_mun": "034", "_loc": "0017"}, "geometry": {"type": "Polygon", "coordinates": [[[-100.50172, 19.6356], [-100.5024, 19.63496], [-100.50341, 19.63532], [-100.5025, 19.63601], [-100.50186, 19.6358], [-100.50172, 19.6356]]]}}, {"id": "1233975", "type": "Feature", "properties": {"id": "1233975", "CVEGEO": "1603400170103014", "POBTOT": 0.0, "score_nse": 0.0, "NSE": null, "VIVTOT": 0.0, "GRAPROES": 0.0, "_ent": "16", "_mun": "034", "_loc": "0017"}, "geometry": {"type": "Polygon", "coordinates": [[[-100.50498, 19.6355], [-100.50482, 19.63524], [-100.50504, 19.63505], [-100.50549, 19.63516], [-100.50547, 19.63547], [-100.50559, 19.63529], [-100.50587, 19.63548], [-100.50525, 19.63668], [-100.50531, 19.63682], [-100.50499, 19.63693], [-100.50493, 19.63736], [-100.50414, 19.63688], [-100.50463, 19.63655], [-100.50498, 19.63602], [-100.50498, 19.6355]]]}}, {"id": "1233976", "type": "Feature", "properties": {"id": "1233976", "CVEGEO": "1603400170103013", "POBTOT": 0.0, "score_nse": 0.0, "NSE": null, "VIVTOT": 0.0, "GRAPROES": 0.0, "_ent": "16", "_mun": "034", "_loc": "0017"}, "geometry": {"type": "Polygon", "coordinates": [[[-100.50343, 19.63808], [-100.50355, 19.63799], [-100.50383, 19.63818], [-100.50365, 19.63825], [-100.50343, 19.63808]]]}}, {"id": "1233977", "type": "Feature", "properties": {"id": "1233977", "CVEGEO": "1603400170103012", "POBTOT": 0.0, "score_nse": 0.0, "NSE": null, "VIVTOT": 0.0, "GRAPROES": 0.0, "_ent": "16", "_mun": "034", "_loc": "0017"}, "geometry": {"type": "Polygon", "coordinates": [[[-100.50376, 19.63678], [-100.50326, 19.63604], [-100.50339, 19.63563], [-100.50384, 19.6363], [-100.50395, 19.63667], [-100.50376, 19.63678]]]}}, {"id": "1233978", "type": "Feature", "properties": {"id": "1233978", "CVEGEO": "1603400170103011", "POBTOT": 0.0, "score_nse": 0.0, "NSE": null, "VIVTOT": 0.0, "GRAPROES": 0.0, "_ent": "16", "_mun": "034", "_loc": "0017"}, "geometry": {"type": "Polygon", "coordinates": [[[-100.50443, 19.63535], [-100.5047, 19.6353], [-100.50496, 19.6356], [-100.50477, 19.63618], [-100.50445, 19.63585], [-100.50443, 19.63535]]]}}, {"id": "1233979", "type": "Feature", "properties": {"id": "1233979", "CVEGEO": "1603400170103002", "POBTOT": 0.0, "score_nse": 0.0, "NSE": null, "VIVTOT": 0.0, "GRAPROES": 0.0, "_ent": "16", "_mun": "034", "_loc": "0017"}, "geometry": {"type": "Polygon", "coordinates": [[[-100.50378, 19.6368], [-100.50396, 19.6367], [-100.50405, 19.63687], [-100.50389, 19.63697], [-100.50378, 19.6368]]]}}, {"id": "1234613", "type": "Feature", "properties": {"id": "1234613", "CVEGEO": "1603400170103009", "POBTOT": 0.0, "score_nse": 0.0, "NSE": null, "VIVTOT": 0.0, "GRAPROES": 0.0, "_ent": "16", "_mun": "034", "_loc": "0017"}, "geometry": {"type": "Polygon", "coordinates": [[[-100.50344, 19.63562], [-100.50382, 19.63568], [-100.50402, 19.63601], [-100.50378, 19.63609], [-100.50344, 19.63562]]]}}, {"id": "1234614", "type": "Feature", "properties": {"id": "1234614", "CVEGEO": "1603400170103008", "POBTOT": 0.0, "score_nse": 0.0, "NSE": null, "VIVTOT": 0.0, "GRAPROES": 0.0, "_ent": "16", "_mun": "034", "_loc": "0017"}, "geometry": {"type": "Polygon", "coordinates": [[[-100.50245, 19.63605], [-100.503, 19.63561], [-100.50347, 19.63537], [-100.50293, 19.63682], [-100.50245, 19.63605]]]}}, {"id": "1234615", "type": "Feature", "properties": {"id": "1234615", "CVEGEO": "1603400170103007", "POBTOT": 0.0, "score_nse": 0.0, "NSE": null, "VIVTOT": 0.0, "GRAPROES": 0.0, "_ent": "16", "_mun": "034", "_loc": "0017"}, "geometry": {"type": "Polygon", "coordinates": [[[-100.5027, 19.63739], [-100.50245, 19.63635], [-100.50291, 19.63698], [-100.5027, 19.63739]]]}}, {"id": "1234616", "type": "Feature", "properties": {"id": "1234616", "CVEGEO": "1603400170103006", "POBTOT": 0.0, "score_nse": 0.0, "NSE": null, "VIVTOT": 0.0, "GRAPROES": 0.0, "_ent": "16", "_mun": "034", "_loc": "0017"}, "geometry": {"type": "Polygon", "coordinates": [[[-100.50291, 19.63719], [-100.50308, 19.63746], [-100.50267, 19.63778], [-100.5027, 19.63752], [-100.50291, 19.63719]]]}}, {"id": "1234617", "type": "Feature", "properties": {"id": "1234617", "CVEGEO": "1603400170103005", "POBTOT": 0.0, "score_nse": 0.0, "NSE": null, "VIVTOT": 0.0, "GRAPROES": 0.0, "_ent": "16", "_mun": "034", "_loc": "0017"}, "geometry": {"type": "Polygon", "coordinates": [[[-100.50301, 19.63757], [-100.5036, 19.63787], [-100.50331, 19.63816], [-100.50267, 19.63821], [-100.50267, 19.63785], [-100.50301, 19.63757]]]}}, {"id": "1234618", "type": "Feature", "properties": {"id": "1234618", "CVEGEO": "1603400170103004", "POBTOT": 0.0, "score_nse": 0.0, "NSE": null, "VIVTOT": 0.0, "GRAPROES": 0.0, "_ent": "16", "_mun": "034", "_loc": "0017"}, "geometry": {"type": "Polygon", "coordinates": [[[-100.50282, 19.6384], [-100.50397, 19.63825], [-100.50359, 19.63796], [-100.50447, 19.63722], [-100.5049, 19.63741], [-100.50447, 19.63842], [-100.5041, 19.63882], [-100.50351, 19.63885], [-100.50282, 19.6384]]]}}, {"id": "1235828", "type": "Feature", "properties": {"id": "1235828", "CVEGEO": "1603400170103020", "POBTOT": 0.0, "score_nse": 0.0, "NSE": null, "VIVTOT": 0.0, "GRAPROES": 0.0, "_ent": "16", "_mun": "034", "_loc": "0017"}, "geometry": {"type": "Polygon", "coordinates": [[[-100.503, 19.63709], [-100.50324, 19.63606], [-100.50373, 19.63679], [-100.503, 19.63709]]]}}, {"id": "1235829", "type": "Feature", "properties": {"id": "1235829", "CVEGEO": "1603400170103019", "POBTOT": 0.0, "score_nse": 0.0, "NSE": null, "VIVTOT": 0.0, "GRAPROES": 0.0, "_ent": "16", "_mun": "034", "_loc": "0017"}, "geometry": {"type": "Polygon", "coordinates": [[[-100.50144, 19.63703], [-100.50182, 19.63726], [-100.50125, 19.63782], [-100.50104, 19.63751], [-100.50144, 19.63703]]]}}]}