{"type": "FeatureCollection", "features": [{"id": "1234874", "type": "Feature", "properties": {"id": "1234874", "CVEGEO": "1603402330048010", "POBTOT": 0.0, "score_nse": 0.0, "NSE": null, "VIVTOT": 0.0, "GRAPROES": 0.0, "_ent": "16", "_mun": "034", "_loc": "0233"}, "geometry": {"type": "Polygon", "coordinates": [[[-100.65063, 19.67986], [-100.65082, 19.67986], [-100.65086, 19.68077], [-100.65066, 19.68078], [-100.65063, 19.67986]]]}}, {"id": "1234875", "type": "Feature", "properties": {"id": "1234875", "CVEGEO": "1603402330048018", "POBTOT": 0.0, "score_nse": 0.0, "NSE": null, "VIVTOT": 0.0, "GRAPROES": 0.0, "_ent": "16", "_mun": "034", "_loc": "0233"}, "geometry": {"type": "Polygon", "coordinates": [[[-100.65098, 19.68162], [-100.65139, 19.6816], [-100.65142, 19.68243], [-100.65101, 19.68245], [-100.65098, 19.68162]]]}}, {"id": "1234876", "type": "Feature", "properties": {"id": "1234876", "CVEGEO": "1603402330048017", "POBTOT": 0.0, "score_nse": 0.0, "NSE": null, "VIVTOT": 0.0, "GRAPROES": 0.0, "_ent": "16", "_mun": "034", "_loc": "0233"}, "geometry": {"type": "Polygon", "coordinates": [[[-100.65067, 19.68085], [-100.65088, 19.68084], [-100.65092, 19.68223], [-100.65072, 19.68224], [-100.65067, 19.68085]]]}}, {"id": "1234877", "type": "Feature", "properties": {"id": "1234877", "CVEGEO": "1603402330048004", "POBTOT": 0.0, "score_nse": 0.0, "NSE": null, "VIVTOT": 0.0, "GRAPROES": 0.0, "_ent": "16", "_mun": "034", "_loc": "0233"}, "geometry": {"type": "Polygon", "coordinates": [[[-100.64984, 19.68081], [-100.64977, 19.67986], [-100.65056, 19.67983], [-100.6506, 19.68031], [-100.65027, 19.68038], [-100.65061, 19.68036], [-100.65062, 19.68078], [-100.64984, 19.68081]]]}}, {"id": "1234878", "type": "Feature", "properties": {"id": "1234878", "CVEGEO": "1603402330048016", "POBTOT": 0.0, "score_nse": 0.0, "NSE": null, "VIVTOT": 0.0, "GRAPROES": 0.0, "_ent": "16", "_mun": "034", "_loc": "0233"}, "geometry": {"type": "Polygon", "coordinates": [[[-100.65095, 19.68076], [-100.65091, 19.67978], [-100.6512, 19.67986], [-100.6513, 19.68075], [-100.65095, 19.68076]]]}}, {"id": "1234879", "type": "Feature", "properties": {"id": "1234879", "CVEGEO": "1603402330048021", "POBTOT": 0.0, "score_nse": 0.0, "NSE": null, "VIVTOT": 0.0, "GRAPROES": 0.0, "_ent": "16", "_mun": "034", "_loc": "0233"}, "geometry": {"type": "Polygon", "coordinates": [[[-100.65098, 19.68156], [-100.65095, 19.68083], [-100.65135, 19.68082], [-100.65138, 19.68154], [-100.65098, 19.68156]]]}}, {"id": "1234880", "type": "Feature", "properties": {"id": "1234880", "CVEGEO": "1603402330048022", "POBTOT": 0.0, "score_nse": 0.0, "NSE": null, "VIVTOT": 0.0, "GRAPROES": 0.0, "_ent": "16", "_mun": "034", "_loc": "0233"}, "geometry": {"type": "Polygon", "coordinates": [[[-100.65144, 19.68335], [-100.65106, 19.68334], [-100.65104, 19.68253], [-100.65142, 19.68251], [-100.65144, 19.68335]]]}}, {"id": "1234881", "type": "Feature", "properties": {"id": "1234881", "CVEGEO": "1603402330048023", "POBTOT": 0.0, "score_nse": 0.0, "NSE": null, "VIVTOT": 0.0, "GRAPROES": 0.0, "_ent": "16", "_mun": "034", "_loc": "0233"}, "geometry": {"type": "Polygon", "coordinates": [[[-100.6489, 19.67978], [-100.64836, 19.68069], [-100.64766, 19.68058], [-100.6464, 19.68072], [-100.64603, 19.68114], [-100.64575, 19.68038], [-100.6489, 19.67978]]]}}, {"id": "1234882", "type": "Feature", "properties": {"id": "1234882", "CVEGEO": "1603402330048003", "POBTOT": 0.0, "score_nse": 0.0, "NSE": null, "VIVTOT": 0.0, "GRAPROES": 0.0, "_ent": "16", "_mun": "034", "_loc": "0233"}, "geometry": {"type": "Polygon", "coordinates": [[[-100.65072, 19.67965], [-100.64899, 19.67989], [-100.64896, 19.67976], [-100.65067, 19.67943], [-100.65072, 19.67965]]]}}, {"id": "1234883", "type": "Feature", "properties": {"id": "1234883", "CVEGEO": "1603402330048024", "POBTOT": 0.0, "score_nse": 0.0, "NSE": null, "VIVTOT": 0.0, "GRAPROES": 0.0, "_ent": "16", "_mun": "034", "_loc": "0233"}, "geometry": {"type": "Polygon", "coordinates": [[[-100.64856, 19.68173], [-100.64821, 19.68177], [-100.64823, 19.68089], [-100.64843, 19.68087], [-100.64856, 19.68173]]]}}, {"id": "1234912", "type": "Feature", "properties": {"id": "1234912", "CVEGEO": "1603402330048001", "POBTOT": 0.0, "score_nse": 0.0, "NSE": null, "VIVTOT": 0.0, "GRAPROES": 0.0, "_ent": "16", "_mun": "034", "_loc": "0233"}, "geometry": {"type": "Polygon", "coordinates": [[[-100.6494, 19.68066], [-100.64868, 19.68064], [-100.64897, 19.68003], [-100.64933, 19.67998], [-100.6494, 19.68066]]]}}, {"id": "1235182", "type": "Feature", "properties": {"id": "1235182", "CVEGEO": "1603402330048025", "POBTOT": 0.0, "score_nse": 0.0, "NSE": null, "VIVTOT": 0.0, "GRAPROES": 0.0, "_ent": "16", "_mun": "034", "_loc": "0233"}, "geometry": {"type": "Polygon", "coordinates": [[[-100.64859, 19.68143], [-100.6485, 19.68084], [-100.64869, 19.68071], [-100.64881, 19.68139], [-100.64859, 19.68143]]]}}, {"id": "1235700", "type": "Feature", "properties": {"id": "1235700", "CVEGEO": "1603402330048019", "POBTOT": 0.0, "score_nse": 0.0, "NSE": null, "VIVTOT": 0.0, "GRAPROES": 0.0, "_ent": "16", "_mun": "034", "_loc": "0233"}, "geometry": {"type": "Polygon", "coordinates": [[[-100.65067, 19.68225], [-100.65044, 19.68212], [-100.65048, 19.68301], [-100.65028, 19.68303], [-100.64976, 19.68196], [-100.64935, 19.67993], [-100.64971, 19.67985], [-100.64979, 19.68084], [-100.65008, 19.68088], [-100.65017, 19.68242], [-100.65015, 19.68088], [-100.65062, 19.68086], [-100.65067, 19.68225]]]}}, {"id": "1235701", "type": "Feature", "properties": {"id": "1235701", "CVEGEO": "1603402330048026", "POBTOT": 0.0, "score_nse": 0.0, "NSE": null, "VIVTOT": 0.0, "GRAPROES": 0.0, "_ent": "16", "_mun": "034", "_loc": "0233"}, "geometry": {"type": "Polygon", "coordinates": [[[-100.65093, 19.68263], [-100.65073, 19.68264], [-100.65077, 19.68336], [-100.65056, 19.68336], [-100.65052, 19.68232], [-100.65092, 19.6823], [-100.65093, 19.68263]]]}}]}