{"type": "FeatureCollection", "features": [{"id": "886206", "type": "Feature", "properties": {"id": "886206", "CVEGEO": "1307301320019002", "POBTOT": 0.0, "score_nse": 0.0, "NSE": null, "VIVTOT": 0.0, "GRAPROES": 0.0, "_ent": "13", "_mun": "073", "_loc": "0132"}, "geometry": {"type": "Polygon", "coordinates": [[[-98.72481, 21.05183], [-98.72543, 21.05136], [-98.72566, 21.05153], [-98.72403, 21.05266], [-98.72406, 21.05195], [-98.72481, 21.05183]]]}}, {"id": "886523", "type": "Feature", "properties": {"id": "886523", "CVEGEO": "1307301320019001", "POBTOT": 0.0, "score_nse": 0.0, "NSE": null, "VIVTOT": 0.0, "GRAPROES": 0.0, "_ent": "13", "_mun": "073", "_loc": "0132"}, "geometry": {"type": "Polygon", "coordinates": [[[-98.72232, 21.05281], [-98.72312, 21.05252], [-98.72327, 21.05262], [-98.72319, 21.05278], [-98.72364, 21.05223], [-98.72361, 21.05207], [-98.72401, 21.05197], [-98.72397, 21.05266], [-98.72299, 21.05322], [-98.72277, 21.05369], [-98.72233, 21.05333], [-98.72232, 21.05281]]]}}, {"id": "886525", "type": "Feature", "properties": {"id": "886525", "CVEGEO": "1307301320019003", "POBTOT": 0.0, "score_nse": 0.0, "NSE": null, "VIVTOT": 0.0, "GRAPROES": 0.0, "_ent": "13", "_mun": "073", "_loc": "0132"}, "geometry": {"type": "Polygon", "coordinates": [[[-98.72338, 21.05247], [-98.72329, 21.05259], [-98.72291, 21.05252], [-98.72314, 21.05229], [-98.72338, 21.05247]]]}}, {"id": "886526", "type": "Feature", "properties": {"id": "886526", "CVEGEO": "1307301320019004", "POBTOT": 0.0, "score_nse": 0.0, "NSE": null, "VIVTOT": 0.0, "GRAPROES": 0.0, "_ent": "13", "_mun": "073", "_loc": "0132"}, "geometry": {"type": "Polygon", "coordinates": [[[-98.7237, 21.05199], [-98.7234, 21.05245], [-98.72317, 21.05227], [-98.72346, 21.052], [-98.7237, 21.05199]]]}}]}