{"type": "FeatureCollection", "features": [{"id": "2025562", "type": "Feature", "properties": {"id": "2025562", "CVEGEO": "2602601080410007", "POBTOT": 0.0, "score_nse": 0.0, "NSE": null, "VIVTOT": 0.0, "GRAPROES": 0.0, "_ent": "26", "_mun": "026", "_loc": "0108"}, "geometry": {"type": "Polygon", "coordinates": [[[-109.63819, 26.8848], [-109.63779, 26.88481], [-109.63779, 26.88371], [-109.6382, 26.8837], [-109.63819, 26.8848]]]}}, {"id": "2025724", "type": "Feature", "properties": {"id": "2025724", "CVEGEO": "2602601080410004", "POBTOT": 0.0, "score_nse": 0.0, "NSE": null, "VIVTOT": 0.0, "GRAPROES": 0.0, "_ent": "26", "_mun": "026", "_loc": "0108"}, "geometry": {"type": "Polygon", "coordinates": [[[-109.6415, 26.88479], [-109.64151, 26.88372], [-109.64173, 26.88372], [-109.64173, 26.88479], [-109.6415, 26.88479]]]}}, {"id": "2025725", "type": "Feature", "properties": {"id": "2025725", "CVEGEO": "2602601080410003", "POBTOT": 0.0, "score_nse": 0.0, "NSE": null, "VIVTOT": 0.0, "GRAPROES": 0.0, "_ent": "26", "_mun": "026", "_loc": "0108"}, "geometry": {"type": "Polygon", "coordinates": [[[-109.64019, 26.88424], [-109.64081, 26.88428], [-109.64078, 26.8846], [-109.64006, 26.88458], [-109.63948, 26.88367], [-109.64082, 26.88366], [-109.64081, 26.88424], [-109.64019, 26.88424]]]}}, {"id": "2025736", "type": "Feature", "properties": {"id": "2025736", "CVEGEO": "2602601080410002", "POBTOT": 0.0, "score_nse": 0.0, "NSE": null, "VIVTOT": 0.0, "GRAPROES": 0.0, "_ent": "26", "_mun": "026", "_loc": "0108"}, "geometry": {"type": "Polygon", "coordinates": [[[-109.63903, 26.88452], [-109.63902, 26.88368], [-109.6394, 26.88367], [-109.63994, 26.88457], [-109.63903, 26.88452]]]}}, {"id": "2025737", "type": "Feature", "properties": {"id": "2025737", "CVEGEO": "2602601080410008", "POBTOT": 0.0, "score_nse": 0.0, "NSE": null, "VIVTOT": 0.0, "GRAPROES": 0.0, "_ent": "26", "_mun": "026", "_loc": "0108"}, "geometry": {"type": "Polygon", "coordinates": [[[-109.63779, 26.88489], [-109.63818, 26.88489], [-109.63817, 26.88598], [-109.63777, 26.88597], [-109.63779, 26.88489]]]}}, {"id": "2025738", "type": "Feature", "properties": {"id": "2025738", "CVEGEO": "2602601080410001", "POBTOT": 0.0, "score_nse": 0.0, "NSE": null, "VIVTOT": 0.0, "GRAPROES": 0.0, "_ent": "26", "_mun": "026", "_loc": "0108"}, "geometry": {"type": "Polygon", "coordinates": [[[-109.63962, 26.88501], [-109.63968, 26.88464], [-109.64088, 26.88466], [-109.64089, 26.8837], [-109.64148, 26.88369], [-109.64145, 26.88542], [-109.63841, 26.88533], [-109.63828, 26.8849], [-109.63879, 26.88486], [-109.63828, 26.88483], [-109.63827, 26.88369], [-109.63893, 26.88369], [-109.63894, 26.88457], [-109.63957, 26.88462], [-109.63962, 26.88501]]]}}]}