{"type": "FeatureCollection", "features": [{"id": "297409", "type": "Feature", "properties": {"id": "297409", "CVEGEO": "070760019002A005", "POBTOT": 0.0, "score_nse": 0.0, "NSE": null, "VIVTOT": 0.0, "GRAPROES": 0.0, "_ent": "07", "_mun": "076", "_loc": "0019"}, "geometry": {"type": "Polygon", "coordinates": [[[-92.62735, 17.28904], [-92.62773, 17.28891], [-92.62793, 17.28865], [-92.62742, 17.28935], [-92.62735, 17.28904]]]}}, {"id": "297410", "type": "Feature", "properties": {"id": "297410", "CVEGEO": "070760019002A004", "POBTOT": 0.0, "score_nse": 0.0, "NSE": null, "VIVTOT": 0.0, "GRAPROES": 0.0, "_ent": "07", "_mun": "076", "_loc": "0019"}, "geometry": {"type": "Polygon", "coordinates": [[[-92.62743, 17.28938], [-92.62785, 17.28884], [-92.62797, 17.28873], [-92.62794, 17.28943], [-92.62749, 17.28965], [-92.62743, 17.28938]]]}}, {"id": "297411", "type": "Feature", "properties": {"id": "297411", "CVEGEO": "070760019002A001", "POBTOT": 0.0, "score_nse": 0.0, "NSE": null, "VIVTOT": 0.0, "GRAPROES": 0.0, "_ent": "07", "_mun": "076", "_loc": "0019"}, "geometry": {"type": "Polygon", "coordinates": [[[-92.62823, 17.28968], [-92.628, 17.28942], [-92.62809, 17.28897], [-92.62914, 17.28968], [-92.62919, 17.2899], [-92.62904, 17.29013], [-92.62921, 17.28996], [-92.62933, 17.29056], [-92.6288, 17.2909], [-92.62828, 17.29007], [-92.62823, 17.28968]]]}}, {"id": "297552", "type": "Feature", "properties": {"id": "297552", "CVEGEO": "070760019002A002", "POBTOT": 0.0, "score_nse": 0.0, "NSE": null, "VIVTOT": 0.0, "GRAPROES": 0.0, "_ent": "07", "_mun": "076", "_loc": "0019"}, "geometry": {"type": "Polygon", "coordinates": [[[-92.62762, 17.29021], [-92.6282, 17.29006], [-92.62875, 17.29093], [-92.62814, 17.29131], [-92.62762, 17.29021]]]}}, {"id": "297553", "type": "Feature", "properties": {"id": "297553", "CVEGEO": "070760019002A003", "POBTOT": 0.0, "score_nse": 0.0, "NSE": null, "VIVTOT": 0.0, "GRAPROES": 0.0, "_ent": "07", "_mun": "076", "_loc": "0019"}, "geometry": {"type": "Polygon", "coordinates": [[[-92.62751, 17.28969], [-92.62798, 17.28947], [-92.62817, 17.28971], [-92.62814, 17.29003], [-92.62764, 17.29015], [-92.62751, 17.28969]]]}}]}