{"type": "FeatureCollection", "features": [{"id": "1142014", "type": "Feature", "properties": {"id": "1142014", "CVEGEO": "1507400070161001", "POBTOT": 0.0, "score_nse": 0.0, "NSE": null, "VIVTOT": 0.0, "GRAPROES": 0.0, "_ent": "15", "_mun": "074", "_loc": "0007"}, "geometry": {"type": "Polygon", "coordinates": [[[-99.95161, 19.70571], [-99.95127, 19.70336], [-99.9505, 19.70207], [-99.95066, 19.7013], [-99.9519, 19.70165], [-99.9535, 19.70235], [-99.95635, 19.70178], [-99.95965, 19.70319], [-99.96086, 19.70342], [-99.95999, 19.70487], [-99.9595, 19.70511], [-99.95851, 19.70519], [-99.95837, 19.70535], [-99.95754, 19.70499], [-99.9567, 19.70382], [-99.95741, 19.70492], [-99.95721, 19.70487], [-99.95699, 19.70535], [-99.95666, 19.70546], [-99.95645, 19.70504], [-99.95661, 19.70548], [-99.95633, 19.70556], [-99.956, 19.70491], [-99.95628, 19.70557], [-99.95613, 19.70562], [-99.95703, 19.70542], [-99.95721, 19.70492], [-99.95833, 19.7054], [-99.9574, 19.70638], [-99.95615, 19.70662], [-99.9552, 19.70585], [-99.95506, 19.70494], [-99.95514, 19.70581], [-99.95404, 19.70505], [-99.95415, 19.70449], [-99.95462, 19.70428], [-99.95448, 19.70345], [-99.95404, 19.7033], [-99.95445, 19.7035], [-99.95457, 19.70425], [-99.9541, 19.70447], [-99.95398, 19.70503], [-99.95201, 19.70456], [-99.95181, 19.70481], [-99.95161, 19.70571]]]}}, {"id": "1142172", "type": "Feature", "properties": {"id": "1142172", "CVEGEO": "1507400070161005", "POBTOT": 0.0, "score_nse": 0.0, "NSE": null, "VIVTOT": 0.0, "GRAPROES": 0.0, "_ent": "15", "_mun": "074", "_loc": "0007"}, "geometry": {"type": "Polygon", "coordinates": [[[-99.95587, 19.69963], [-99.95542, 19.70003], [-99.95491, 19.70138], [-99.9545, 19.70191], [-99.95364, 19.70209], [-99.95403, 19.70108], [-99.95391, 19.70018], [-99.95511, 19.69961], [-99.95587, 19.69963]]]}}, {"id": "1142565", "type": "Feature", "properties": {"id": "1142565", "CVEGEO": "1507400070161013", "POBTOT": 0.0, "score_nse": 0.0, "NSE": null, "VIVTOT": 0.0, "GRAPROES": 0.0, "_ent": "15", "_mun": "074", "_loc": "0007"}, "geometry": {"type": "Polygon", "coordinates": [[[-99.96286, 19.70275], [-99.96328, 19.7029], [-99.96395, 19.7034], [-99.96391, 19.70354], [-99.96272, 19.70386], [-99.96286, 19.70275]]]}}, {"id": "1143142", "type": "Feature", "properties": {"id": "1143142", "CVEGEO": "1507400070161011", "POBTOT": 0.0, "score_nse": 0.0, "NSE": null, "VIVTOT": 0.0, "GRAPROES": 0.0, "_ent": "15", "_mun": "074", "_loc": "0007"}, "geometry": {"type": "Polygon", "coordinates": [[[-99.96292, 19.70132], [-99.96281, 19.70239], [-99.9623, 19.70229], [-99.96183, 19.70263], [-99.9611, 19.70218], [-99.96057, 19.70147], [-99.96038, 19.70139], [-99.96086, 19.70206], [-99.96177, 19.7027], [-99.9609, 19.70321], [-99.95916, 19.7028], [-99.9595, 19.7021], [-99.95939, 19.70178], [-99.96064, 19.70029], [-99.96172, 19.70076], [-99.9621, 19.70077], [-99.96292, 19.70132]]]}}, {"id": "1143143", "type": "Feature", "properties": {"id": "1143143", "CVEGEO": "1507400070161004", "POBTOT": 0.0, "score_nse": 0.0, "NSE": null, "VIVTOT": 0.0, "GRAPROES": 0.0, "_ent": "15", "_mun": "074", "_loc": "0007"}, "geometry": {"type": "Polygon", "coordinates": [[[-99.96276, 19.70415], [-99.96292, 19.70498], [-99.96274, 19.70548], [-99.96253, 19.70568], [-99.96237, 19.70548], [-99.96193, 19.7054], [-99.96176, 19.70569], [-99.96145, 19.7057], [-99.96121, 19.70594], [-99.9618, 19.70573], [-99.96198, 19.70544], [-99.96235, 19.70554], [-99.96243, 19.70583], [-99.9617, 19.70631], [-99.95752, 19.70638], [-99.95854, 19.70525], [-99.95927, 19.70521], [-99.95998, 19.70496], [-99.96091, 19.70344], [-99.96174, 19.70389], [-99.96276, 19.70415]]]}}, {"id": "1143144", "type": "Feature", "properties": {"id": "1143144", "CVEGEO": "1507400070161002", "POBTOT": 0.0, "score_nse": 0.0, "NSE": null, "VIVTOT": 0.0, "GRAPROES": 0.0, "_ent": "15", "_mun": "074", "_loc": "0007"}, "geometry": {"type": "Polygon", "coordinates": [[[-99.95922, 19.70644], [-99.95843, 19.70667], [-99.9583, 19.70695], [-99.95842, 19.70727], [-99.9574, 19.70673], [-99.95731, 19.70646], [-99.95922, 19.70644]]]}}, {"id": "1143176", "type": "Feature", "properties": {"id": "1143176", "CVEGEO": "1507400070161012", "POBTOT": 0.0, "score_nse": 0.0, "NSE": null, "VIVTOT": 0.0, "GRAPROES": 0.0, "_ent": "15", "_mun": "074", "_loc": "0007"}, "geometry": {"type": "Polygon", "coordinates": [[[-99.96281, 19.70251], [-99.96268, 19.70386], [-99.96184, 19.70372], [-99.96097, 19.70322], [-99.96125, 19.70295], [-99.96151, 19.70305], [-99.96236, 19.70233], [-99.96281, 19.70251]]]}}, {"id": "1143178", "type": "Feature", "properties": {"id": "1143178", "CVEGEO": "1507400070161014", "POBTOT": 0.0, "score_nse": 0.0, "NSE": null, "VIVTOT": 0.0, "GRAPROES": 0.0, "_ent": "15", "_mun": "074", "_loc": "0007"}, "geometry": {"type": "Polygon", "coordinates": [[[-99.95632, 19.71033], [-99.95706, 19.70984], [-99.95736, 19.70926], [-99.9573, 19.70851], [-99.95753, 19.7079], [-99.9573, 19.70721], [-99.95736, 19.70676], [-99.95859, 19.70757], [-99.95856, 19.7083], [-99.95798, 19.70903], [-99.95846, 19.70865], [-99.95867, 19.70804], [-99.95866, 19.70761], [-99.95927, 19.70856], [-99.95926, 19.70917], [-99.95887, 19.70957], [-99.95764, 19.70998], [-99.95754, 19.71022], [-99.958, 19.70992], [-99.95772, 19.71082], [-99.95734, 19.71132], [-99.95643, 19.71101], [-99.95619, 19.71168], [-99.95576, 19.71093], [-99.95632, 19.71033]]]}}, {"id": "1143179", "type": "Feature", "properties": {"id": "1143179", "CVEGEO": "1507400070161003", "POBTOT": 0.0, "score_nse": 0.0, "NSE": null, "VIVTOT": 0.0, "GRAPROES": 0.0, "_ent": "15", "_mun": "074", "_loc": "0007"}, "geometry": {"type": "Polygon", "coordinates": [[[-99.95435, 19.71028], [-99.95268, 19.71119], [-99.95251, 19.71089], [-99.95243, 19.71035], [-99.9522, 19.71009], [-99.95262, 19.70999], [-99.95309, 19.7095], [-99.95394, 19.70908], [-99.95339, 19.70929], [-99.95307, 19.70866], [-99.95334, 19.70931], [-99.95303, 19.70947], [-99.95258, 19.70994], [-99.95216, 19.71005], [-99.95221, 19.70987], [-99.95275, 19.70972], [-99.95261, 19.70926], [-99.9519, 19.70894], [-99.95232, 19.70898], [-99.95267, 19.70885], [-99.95207, 19.70886], [-99.95261, 19.70856], [-99.95199, 19.70882], [-99.95228, 19.70852], [-99.95225, 19.70829], [-99.95166, 19.70774], [-99.95208, 19.70743], [-99.95158, 19.70769], [-99.95114, 19.70751], [-99.95062, 19.70702], [-99.95173, 19.70561], [-99.95191, 19.70562], [-99.95189, 19.706], [-99.95195, 19.70563], [-99.95222, 19.70568], [-99.95223, 19.70608], [-99.95227, 19.70568], [-99.95296, 19.70554], [-99.953, 19.70582], [-99.95289, 19.70591], [-99.95279, 19.70616], [-99.95275, 19.70662], [-99.95303, 19.70586], [-99.95303, 19.70553], [-99.95393, 19.70575], [-99.95373, 19.70622], [-99.95371, 19.70641], [-99.95347, 19.70655], [-99.9535, 19.70659], [-99.95373, 19.70647], [-99.95401, 19.70576], [-99.95437, 19.70575], [-99.95451, 19.70545], [-99.95533, 19.70612], [-99.95519, 19.70619], [-99.95499, 19.70656], [-99.95518, 19.70667], [-99.9551, 19.70687], [-99.95528, 19.70704], [-99.95515, 19.70684], [-99.95525, 19.70669], [-99.95503, 19.70657], [-99.95521, 19.70622], [-99.95538, 19.70616], [-99.95607, 19.70668], [-99.95568, 19.70696], [-99.95564, 19.70713], [-99.95612, 19.70669], [-99.95662, 19.7066], [-99.95663, 19.70684], [-99.95699, 19.70696], [-99.95667, 19.70679], [-99.95667, 19.70659], [-99.95729, 19.70655], [-99.95723, 19.70731], [-99.95605, 19.70732], [-99.95727, 19.70735], [-99.95747, 19.70777], [-99.95724, 19.70842], [-99.95731, 19.70926], [-99.95712, 19.70967], [-99.95569, 19.71087], [-99.9548, 19.71033], [-99.95467, 19.70973], [-99.95519, 19.70895], [-99.95461, 19.7097], [-99.95476, 19.71038], [-99.95572, 19.71095], [-99.95616, 19.7117], [-99.95557, 19.71161], [-99.95493, 19.71113], [-99.95435, 19.71028]]]}}, {"id": "1143265", "type": "Feature", "properties": {"id": "1143265", "CVEGEO": "1507400070161008", "POBTOT": 0.0, "score_nse": 0.0, "NSE": null, "VIVTOT": 0.0, "GRAPROES": 0.0, "_ent": "15", "_mun": "074", "_loc": "0007"}, "geometry": {"type": "Polygon", "coordinates": [[[-99.95041, 19.70207], [-99.95102, 19.70306], [-99.95096, 19.70331], [-99.95009, 19.70285], [-99.94981, 19.70289], [-99.94971, 19.70248], [-99.94874, 19.70293], [-99.94846, 19.70252], [-99.94815, 19.70265], [-99.94845, 19.70257], [-99.9487, 19.70298], [-99.94965, 19.70254], [-99.95042, 19.7046], [-99.94965, 19.705], [-99.95044, 19.70464], [-99.95065, 19.70511], [-99.94932, 19.70566], [-99.94948, 19.70421], [-99.94905, 19.70407], [-99.94815, 19.70434], [-99.94812, 19.70332], [-99.94728, 19.7028], [-99.9477, 19.70191], [-99.94995, 19.70082], [-99.95053, 19.70123], [-99.95041, 19.70207]]]}}, {"id": "1143266", "type": "Feature", "properties": {"id": "1143266", "CVEGEO": "1507400070161010", "POBTOT": 0.0, "score_nse": 0.0, "NSE": null, "VIVTOT": 0.0, "GRAPROES": 0.0, "_ent": "15", "_mun": "074", "_loc": "0007"}, "geometry": {"type": "Polygon", "coordinates": [[[-99.95444, 19.7054], [-99.95433, 19.70572], [-99.95296, 19.70547], [-99.95224, 19.70563], [-99.95217, 19.70516], [-99.95294, 19.70482], [-99.95392, 19.70506], [-99.95444, 19.7054]]]}}, {"id": "1143267", "type": "Feature", "properties": {"id": "1143267", "CVEGEO": "1507400070161015", "POBTOT": 0.0, "score_nse": 0.0, "NSE": null, "VIVTOT": 0.0, "GRAPROES": 0.0, "_ent": "15", "_mun": "074", "_loc": "0007"}, "geometry": {"type": "Polygon", "coordinates": [[[-99.95106, 19.70307], [-99.95154, 19.70577], [-99.95108, 19.70633], [-99.9512, 19.70602], [-99.95055, 19.70474], [-99.95101, 19.70455], [-99.95053, 19.7047], [-99.95034, 19.7043], [-99.95092, 19.70412], [-99.95032, 19.70425], [-99.94982, 19.70293], [-99.95006, 19.70288], [-99.95097, 19.70338], [-99.95106, 19.70307]]]}}, {"id": "1143268", "type": "Feature", "properties": {"id": "1143268", "CVEGEO": "1507400070161016", "POBTOT": 0.0, "score_nse": 0.0, "NSE": null, "VIVTOT": 0.0, "GRAPROES": 0.0, "_ent": "15", "_mun": "074", "_loc": "0007"}, "geometry": {"type": "Polygon", "coordinates": [[[-99.95096, 19.70651], [-99.95054, 19.70701], [-99.95049, 19.70679], [-99.95079, 19.70654], [-99.95079, 19.70623], [-99.95051, 19.7061], [-99.94961, 19.70616], [-99.94932, 19.70569], [-99.95067, 19.70515], [-99.95081, 19.70538], [-99.94998, 19.7057], [-99.95083, 19.70541], [-99.95108, 19.7059], [-99.95096, 19.70651]]]}}, {"id": "1143269", "type": "Feature", "properties": {"id": "1143269", "CVEGEO": "1507400070161017", "POBTOT": 0.0, "score_nse": 0.0, "NSE": null, "VIVTOT": 0.0, "GRAPROES": 0.0, "_ent": "15", "_mun": "074", "_loc": "0007"}, "geometry": {"type": "Polygon", "coordinates": [[[-99.95213, 19.7052], [-99.95217, 19.70561], [-99.95178, 19.70554], [-99.95184, 19.70512], [-99.95213, 19.7052]]]}}, {"id": "1143270", "type": "Feature", "properties": {"id": "1143270", "CVEGEO": "1507400070161018", "POBTOT": 0.0, "score_nse": 0.0, "NSE": null, "VIVTOT": 0.0, "GRAPROES": 0.0, "_ent": "15", "_mun": "074", "_loc": "0007"}, "geometry": {"type": "Polygon", "coordinates": [[[-99.95289, 19.70478], [-99.95211, 19.70516], [-99.95185, 19.70509], [-99.95211, 19.70462], [-99.95289, 19.70478]]]}}]}