{"type": "FeatureCollection", "features": [{"id": "1142121", "type": "Feature", "properties": {"id": "1142121", "CVEGEO": "1507400640161007", "POBTOT": 0.0, "score_nse": 0.0, "NSE": null, "VIVTOT": 0.0, "GRAPROES": 0.0, "_ent": "15", "_mun": "074", "_loc": "0064"}, "geometry": {"type": "Polygon", "coordinates": [[[-100.03957, 19.73369], [-100.04009, 19.73388], [-100.04068, 19.73452], [-100.03998, 19.73475], [-100.03947, 19.73474], [-100.03825, 19.73395], [-100.03957, 19.73369]]]}}, {"id": "1142219", "type": "Feature", "properties": {"id": "1142219", "CVEGEO": "1507400640161003", "POBTOT": 0.0, "score_nse": 0.0, "NSE": null, "VIVTOT": 0.0, "GRAPROES": 0.0, "_ent": "15", "_mun": "074", "_loc": "0064"}, "geometry": {"type": "Polygon", "coordinates": [[[-100.02868, 19.73951], [-100.02873, 19.73898], [-100.02949, 19.73822], [-100.03056, 19.73765], [-100.03057, 19.73948], [-100.03077, 19.74032], [-100.03034, 19.74075], [-100.02976, 19.74118], [-100.02953, 19.74081], [-100.02908, 19.74053], [-100.02868, 19.73951]]]}}, {"id": "1142609", "type": "Feature", "properties": {"id": "1142609", "CVEGEO": "1507400640161009", "POBTOT": 0.0, "score_nse": 0.0, "NSE": null, "VIVTOT": 0.0, "GRAPROES": 0.0, "_ent": "15", "_mun": "074", "_loc": "0064"}, "geometry": {"type": "Polygon", "coordinates": [[[-100.03194, 19.73146], [-100.03324, 19.73271], [-100.03319, 19.73291], [-100.03165, 19.73472], [-100.03129, 19.73583], [-100.03098, 19.73602], [-100.03075, 19.73646], [-100.03023, 19.73653], [-100.03002, 19.736], [-100.03073, 19.73377], [-100.03087, 19.73241], [-100.03155, 19.73195], [-100.03194, 19.73146]]]}}, {"id": "1142626", "type": "Feature", "properties": {"id": "1142626", "CVEGEO": "1507400640161004", "POBTOT": 0.0, "score_nse": 0.0, "NSE": null, "VIVTOT": 0.0, "GRAPROES": 0.0, "_ent": "15", "_mun": "074", "_loc": "0064"}, "geometry": {"type": "Polygon", "coordinates": [[[-100.03178, 19.73463], [-100.03331, 19.73281], [-100.03465, 19.73412], [-100.0326, 19.73515], [-100.03057, 19.73664], [-100.0315, 19.73558], [-100.03178, 19.73463]]]}}, {"id": "1142637", "type": "Feature", "properties": {"id": "1142637", "CVEGEO": "1507400640161001", "POBTOT": 0.0, "score_nse": 0.0, "NSE": null, "VIVTOT": 0.0, "GRAPROES": 0.0, "_ent": "15", "_mun": "074", "_loc": "0064"}, "geometry": {"type": "Polygon", "coordinates": [[[-100.0307, 19.73971], [-100.03057, 19.73685], [-100.03078, 19.73664], [-100.03146, 19.73761], [-100.0313, 19.73803], [-100.0312, 19.73952], [-100.03154, 19.74035], [-100.03098, 19.74008], [-100.0307, 19.73971]]]}}, {"id": "1142825", "type": "Feature", "properties": {"id": "1142825", "CVEGEO": "1507400640161006", "POBTOT": 0.0, "score_nse": 0.0, "NSE": null, "VIVTOT": 0.0, "GRAPROES": 0.0, "_ent": "15", "_mun": "074", "_loc": "0064"}, "geometry": {"type": "Polygon", "coordinates": [[[-100.02931, 19.73824], [-100.02934, 19.7384], [-100.02869, 19.73895], [-100.02861, 19.73931], [-100.02897, 19.74044], [-100.02971, 19.74122], [-100.0293, 19.74143], [-100.02865, 19.74108], [-100.02805, 19.73947], [-100.02826, 19.73895], [-100.02931, 19.73824]]]}}, {"id": "1142995", "type": "Feature", "properties": {"id": "1142995", "CVEGEO": "1507400640161010", "POBTOT": 0.0, "score_nse": 0.0, "NSE": null, "VIVTOT": 0.0, "GRAPROES": 0.0, "_ent": "15", "_mun": "074", "_loc": "0064"}, "geometry": {"type": "Polygon", "coordinates": [[[-100.03765, 19.73575], [-100.03828, 19.73567], [-100.03907, 19.73515], [-100.04025, 19.73474], [-100.04035, 19.73503], [-100.03834, 19.73681], [-100.03789, 19.73644], [-100.03765, 19.73575]]]}}, {"id": "1142996", "type": "Feature", "properties": {"id": "1142996", "CVEGEO": "1507400640161012", "POBTOT": 0.0, "score_nse": 0.0, "NSE": null, "VIVTOT": 0.0, "GRAPROES": 0.0, "_ent": "15", "_mun": "074", "_loc": "0064"}, "geometry": {"type": "Polygon", "coordinates": [[[-100.03694, 19.73813], [-100.03581, 19.73914], [-100.03491, 19.7378], [-100.03683, 19.7374], [-100.03705, 19.7375], [-100.03685, 19.73799], [-100.03694, 19.73813]]]}}, {"id": "1142997", "type": "Feature", "properties": {"id": "1142997", "CVEGEO": "1507400640161013", "POBTOT": 0.0, "score_nse": 0.0, "NSE": null, "VIVTOT": 0.0, "GRAPROES": 0.0, "_ent": "15", "_mun": "074", "_loc": "0064"}, "geometry": {"type": "Polygon", "coordinates": [[[-100.03078, 19.7331], [-100.03043, 19.73358], [-100.02989, 19.73384], [-100.02897, 19.73386], [-100.02924, 19.73321], [-100.02954, 19.73306], [-100.02953, 19.73243], [-100.02997, 19.73178], [-100.03098, 19.73088], [-100.03165, 19.73114], [-100.0319, 19.73142], [-100.03148, 19.73195], [-100.03089, 19.73228], [-100.03078, 19.7331]]]}}, {"id": "1142998", "type": "Feature", "properties": {"id": "1142998", "CVEGEO": "1507400640161014", "POBTOT": 0.0, "score_nse": 0.0, "NSE": null, "VIVTOT": 0.0, "GRAPROES": 0.0, "_ent": "15", "_mun": "074", "_loc": "0064"}, "geometry": {"type": "Polygon", "coordinates": [[[-100.02807, 19.7429], [-100.02703, 19.74168], [-100.02769, 19.74112], [-100.02811, 19.74099], [-100.02931, 19.74148], [-100.02981, 19.74122], [-100.0306, 19.7427], [-100.02888, 19.74244], [-100.02886, 19.74224], [-100.02807, 19.7429]]]}}, {"id": "1142999", "type": "Feature", "properties": {"id": "1142999", "CVEGEO": "1507400640161016", "POBTOT": 0.0, "score_nse": 0.0, "NSE": null, "VIVTOT": 0.0, "GRAPROES": 0.0, "_ent": "15", "_mun": "074", "_loc": "0064"}, "geometry": {"type": "Polygon", "coordinates": [[[-100.03126, 19.73949], [-100.03152, 19.73759], [-100.03083, 19.73659], [-100.03195, 19.7357], [-100.03185, 19.73734], [-100.0322, 19.73863], [-100.03186, 19.73917], [-100.03213, 19.7396], [-100.03178, 19.74036], [-100.03162, 19.74036], [-100.03126, 19.73949]]]}}, {"id": "1143000", "type": "Feature", "properties": {"id": "1143000", "CVEGEO": "1507400640161015", "POBTOT": 0.0, "score_nse": 0.0, "NSE": null, "VIVTOT": 0.0, "GRAPROES": 0.0, "_ent": "15", "_mun": "074", "_loc": "0064"}, "geometry": {"type": "Polygon", "coordinates": [[[-100.03298, 19.7359], [-100.03262, 19.73569], [-100.03246, 19.73531], [-100.03356, 19.73469], [-100.03419, 19.73581], [-100.03368, 19.73599], [-100.03298, 19.7359]]]}}, {"id": "1143001", "type": "Feature", "properties": {"id": "1143001", "CVEGEO": "1507400640161002", "POBTOT": 0.0, "score_nse": 0.0, "NSE": null, "VIVTOT": 0.0, "GRAPROES": 0.0, "_ent": "15", "_mun": "074", "_loc": "0064"}, "geometry": {"type": "Polygon", "coordinates": [[[-100.032, 19.73568], [-100.03241, 19.73534], [-100.03257, 19.73571], [-100.03296, 19.73594], [-100.03401, 19.73601], [-100.03421, 19.73583], [-100.03454, 19.73649], [-100.03428, 19.73715], [-100.03484, 19.73765], [-100.03478, 19.73845], [-100.0343, 19.73862], [-100.0336, 19.73751], [-100.03343, 19.73742], [-100.03352, 19.737], [-100.0334, 19.73743], [-100.03428, 19.73865], [-100.03398, 19.73903], [-100.03248, 19.73987], [-100.03209, 19.73987], [-100.03278, 19.73866], [-100.0331, 19.73845], [-100.03278, 19.73861], [-100.03217, 19.73952], [-100.03191, 19.73926], [-100.03225, 19.73861], [-100.03191, 19.73738], [-100.032, 19.73568]]]}}, {"id": "1143284", "type": "Feature", "properties": {"id": "1143284", "CVEGEO": "1507400640161005", "POBTOT": 0.0, "score_nse": 0.0, "NSE": null, "VIVTOT": 0.0, "GRAPROES": 0.0, "_ent": "15", "_mun": "074", "_loc": "0064"}, "geometry": {"type": "Polygon", "coordinates": [[[-100.03479, 19.73532], [-100.0348, 19.73431], [-100.03741, 19.73382], [-100.03807, 19.73398], [-100.03724, 19.73427], [-100.03699, 19.73529], [-100.03736, 19.73423], [-100.03815, 19.73403], [-100.03978, 19.73487], [-100.03902, 19.73512], [-100.03824, 19.73563], [-100.03744, 19.73575], [-100.03679, 19.73693], [-100.03562, 19.73759], [-100.03487, 19.73763], [-100.03437, 19.73718], [-100.03459, 19.73647], [-100.03362, 19.73468], [-100.03475, 19.73431], [-100.03473, 19.73524], [-100.03508, 19.73615], [-100.03477, 19.73611], [-100.03511, 19.73619], [-100.03501, 19.73577], [-100.03582, 19.73609], [-100.03578, 19.73663], [-100.03589, 19.73608], [-100.03507, 19.73576], [-100.03479, 19.73532]]]}}, {"id": "1143285", "type": "Feature", "properties": {"id": "1143285", "CVEGEO": "1507400640161011", "POBTOT": 0.0, "score_nse": 0.0, "NSE": null, "VIVTOT": 0.0, "GRAPROES": 0.0, "_ent": "15", "_mun": "074", "_loc": "0064"}, "geometry": {"type": "Polygon", "coordinates": [[[-100.03831, 19.73685], [-100.037, 19.7381], [-100.03689, 19.73799], [-100.03708, 19.73747], [-100.03679, 19.73736], [-100.03747, 19.73733], [-100.03711, 19.73727], [-100.03614, 19.73743], [-100.03683, 19.73697], [-100.03734, 19.73593], [-100.03758, 19.73575], [-100.0379, 19.73651], [-100.03831, 19.73685]]]}}]}