{"type": "FeatureCollection", "features": [{"id": "1611113", "type": "Feature", "properties": {"id": "1611113", "CVEGEO": "2032701960116001", "POBTOT": 0.0, "score_nse": 0.0, "NSE": null, "VIVTOT": 0.0, "GRAPROES": 0.0, "_ent": "20", "_mun": "327", "_loc": "0196"}, "geometry": {"type": "Polygon", "coordinates": [[[-94.18909, 16.26291], [-94.18827, 16.26338], [-94.18778, 16.26257], [-94.18861, 16.26211], [-94.18909, 16.26291]]]}}, {"id": "1611114", "type": "Feature", "properties": {"id": "1611114", "CVEGEO": "2032701960116002", "POBTOT": 0.0, "score_nse": 0.0, "NSE": null, "VIVTOT": 0.0, "GRAPROES": 0.0, "_ent": "20", "_mun": "327", "_loc": "0196"}, "geometry": {"type": "Polygon", "coordinates": [[[-94.18819, 16.26343], [-94.18736, 16.26392], [-94.18687, 16.26309], [-94.18771, 16.26262], [-94.18819, 16.26343]]]}}, {"id": "1611115", "type": "Feature", "properties": {"id": "1611115", "CVEGEO": "2032701960116003", "POBTOT": 0.0, "score_nse": 0.0, "NSE": null, "VIVTOT": 0.0, "GRAPROES": 0.0, "_ent": "20", "_mun": "327", "_loc": "0196"}, "geometry": {"type": "Polygon", "coordinates": [[[-94.18766, 16.26257], [-94.18682, 16.26302], [-94.18632, 16.26225], [-94.18718, 16.26176], [-94.18766, 16.26257]]]}}, {"id": "1611116", "type": "Feature", "properties": {"id": "1611116", "CVEGEO": "2032701960116004", "POBTOT": 0.0, "score_nse": 0.0, "NSE": null, "VIVTOT": 0.0, "GRAPROES": 0.0, "_ent": "20", "_mun": "327", "_loc": "0196"}, "geometry": {"type": "Polygon", "coordinates": [[[-94.18872, 16.26429], [-94.1879, 16.26475], [-94.18741, 16.26397], [-94.18825, 16.26349], [-94.18872, 16.26429]]]}}, {"id": "1611117", "type": "Feature", "properties": {"id": "1611117", "CVEGEO": "2032701960116005", "POBTOT": 0.0, "score_nse": 0.0, "NSE": null, "VIVTOT": 0.0, "GRAPROES": 0.0, "_ent": "20", "_mun": "327", "_loc": "0196"}, "geometry": {"type": "Polygon", "coordinates": [[[-94.19072, 16.26549], [-94.18988, 16.26598], [-94.18939, 16.26519], [-94.19023, 16.2647], [-94.19072, 16.26549]]]}}, {"id": "1611118", "type": "Feature", "properties": {"id": "1611118", "CVEGEO": "2032701960116006", "POBTOT": 0.0, "score_nse": 0.0, "NSE": null, "VIVTOT": 0.0, "GRAPROES": 0.0, "_ent": "20", "_mun": "327", "_loc": "0196"}, "geometry": {"type": "Polygon", "coordinates": [[[-94.18984, 16.26603], [-94.18897, 16.26652], [-94.18847, 16.2657], [-94.18932, 16.26523], [-94.18984, 16.26603]]]}}, {"id": "1611119", "type": "Feature", "properties": {"id": "1611119", "CVEGEO": "2032701960116007", "POBTOT": 0.0, "score_nse": 0.0, "NSE": null, "VIVTOT": 0.0, "GRAPROES": 0.0, "_ent": "20", "_mun": "327", "_loc": "0196"}, "geometry": {"type": "Polygon", "coordinates": [[[-94.1899, 16.26603], [-94.19075, 16.26554], [-94.19128, 16.26637], [-94.19092, 16.26775], [-94.1899, 16.26603]]]}}, {"id": "1611120", "type": "Feature", "properties": {"id": "1611120", "CVEGEO": "2032701960116008", "POBTOT": 0.0, "score_nse": 0.0, "NSE": null, "VIVTOT": 0.0, "GRAPROES": 0.0, "_ent": "20", "_mun": "327", "_loc": "0196"}, "geometry": {"type": "Polygon", "coordinates": [[[-94.19077, 16.26551], [-94.19173, 16.26505], [-94.19131, 16.26634], [-94.19077, 16.26551]]]}}]}