{"type": "FeatureCollection", "features": [{"id": "815279", "type": "Feature", "properties": {"id": "815279", "CVEGEO": "1207601400020002", "POBTOT": 0.0, "score_nse": 0.0, "NSE": null, "VIVTOT": 0.0, "GRAPROES": 0.0, "_ent": "12", "_mun": "076", "_loc": "0140"}, "geometry": {"type": "Polygon", "coordinates": [[[-99.12084, 17.13214], [-99.12154, 17.1332], [-99.12082, 17.1328], [-99.11971, 17.13343], [-99.11939, 17.13314], [-99.12084, 17.13214]]]}}, {"id": "815532", "type": "Feature", "properties": {"id": "815532", "CVEGEO": "1207601400020001", "POBTOT": 0.0, "score_nse": 0.0, "NSE": null, "VIVTOT": 0.0, "GRAPROES": 0.0, "_ent": "12", "_mun": "076", "_loc": "0140"}, "geometry": {"type": "Polygon", "coordinates": [[[-99.12132, 17.1328], [-99.12075, 17.13203], [-99.12083, 17.13152], [-99.12115, 17.13153], [-99.12131, 17.13173], [-99.12132, 17.1328]]]}}]}