{"type": "FeatureCollection", "features": [{"id": "1652990", "type": "Feature", "properties": {"id": "1652990", "CVEGEO": "2104500210095042", "POBTOT": 0.0, "score_nse": 0.0, "NSE": null, "VIVTOT": 0.0, "GRAPROES": 0.0, "_ent": "21", "_mun": "045", "_loc": "0021"}, "geometry": {"type": "Polygon", "coordinates": [[[-97.47194, 18.94981], [-97.47288, 18.94895], [-97.47322, 18.9496], [-97.47234, 18.95059], [-97.47194, 18.94981]]]}}, {"id": "1652991", "type": "Feature", "properties": {"id": "1652991", "CVEGEO": "2104500210095041", "POBTOT": 0.0, "score_nse": 0.0, "NSE": null, "VIVTOT": 0.0, "GRAPROES": 0.0, "_ent": "21", "_mun": "045", "_loc": "0021"}, "geometry": {"type": "Polygon", "coordinates": [[[-97.47105, 18.94836], [-97.47041, 18.94804], [-97.47132, 18.94646], [-97.47208, 18.94769], [-97.47105, 18.94836]]]}}, {"id": "1652992", "type": "Feature", "properties": {"id": "1652992", "CVEGEO": "2104500210095040", "POBTOT": 0.0, "score_nse": 0.0, "NSE": null, "VIVTOT": 0.0, "GRAPROES": 0.0, "_ent": "21", "_mun": "045", "_loc": "0021"}, "geometry": {"type": "Polygon", "coordinates": [[[-97.47484, 18.9568], [-97.47603, 18.95604], [-97.4771, 18.95649], [-97.47542, 18.95742], [-97.47484, 18.9568]]]}}, {"id": "1652993", "type": "Feature", "properties": {"id": "1652993", "CVEGEO": "2104500210095039", "POBTOT": 0.0, "score_nse": 0.0, "NSE": null, "VIVTOT": 0.0, "GRAPROES": 0.0, "_ent": "21", "_mun": "045", "_loc": "0021"}, "geometry": {"type": "Polygon", "coordinates": [[[-97.47687, 18.95632], [-97.47632, 18.95615], [-97.47653, 18.95589], [-97.47644, 18.95567], [-97.47625, 18.9561], [-97.47538, 18.95534], [-97.47658, 18.95438], [-97.47742, 18.95509], [-97.47715, 18.95546], [-97.47859, 18.95746], [-97.47687, 18.95632]]]}}, {"id": "1652994", "type": "Feature", "properties": {"id": "1652994", "CVEGEO": "2104500210095038", "POBTOT": 0.0, "score_nse": 0.0, "NSE": null, "VIVTOT": 0.0, "GRAPROES": 0.0, "_ent": "21", "_mun": "045", "_loc": "0021"}, "geometry": {"type": "Polygon", "coordinates": [[[-97.47532, 18.95529], [-97.4742, 18.95426], [-97.47434, 18.95412], [-97.4747, 18.95396], [-97.47514, 18.95405], [-97.47569, 18.95353], [-97.47652, 18.95432], [-97.47532, 18.95529]]]}}, {"id": "1652995", "type": "Feature", "properties": {"id": "1652995", "CVEGEO": "2104500210095028", "POBTOT": 0.0, "score_nse": 0.0, "NSE": null, "VIVTOT": 0.0, "GRAPROES": 0.0, "_ent": "21", "_mun": "045", "_loc": "0021"}, "geometry": {"type": "Polygon", "coordinates": [[[-97.47166, 18.95834], [-97.47203, 18.95805], [-97.47218, 18.95823], [-97.47214, 18.95937], [-97.47166, 18.95834]]]}}, {"id": "1652996", "type": "Feature", "properties": {"id": "1652996", "CVEGEO": "2104500210095007", "POBTOT": 0.0, "score_nse": 0.0, "NSE": null, "VIVTOT": 0.0, "GRAPROES": 0.0, "_ent": "21", "_mun": "045", "_loc": "0021"}, "geometry": {"type": "Polygon", "coordinates": [[[-97.46848, 18.95802], [-97.46847, 18.95672], [-97.46899, 18.95639], [-97.46993, 18.95671], [-97.46971, 18.95746], [-97.46938, 18.95792], [-97.46848, 18.95802]]]}}, {"id": "1653056", "type": "Feature", "properties": {"id": "1653056", "CVEGEO": "2104500210095024", "POBTOT": 0.0, "score_nse": 0.0, "NSE": null, "VIVTOT": 0.0, "GRAPROES": 0.0, "_ent": "21", "_mun": "045", "_loc": "0021"}, "geometry": {"type": "Polygon", "coordinates": [[[-97.47423, 18.95616], [-97.47296, 18.95489], [-97.47318, 18.95463], [-97.47368, 18.95455], [-97.47409, 18.95427], [-97.47526, 18.95533], [-97.47423, 18.95616]]]}}, {"id": "1653057", "type": "Feature", "properties": {"id": "1653057", "CVEGEO": "2104500210095023", "POBTOT": 0.0, "score_nse": 0.0, "NSE": null, "VIVTOT": 0.0, "GRAPROES": 0.0, "_ent": "21", "_mun": "045", "_loc": "0021"}, "geometry": {"type": "Polygon", "coordinates": [[[-97.4705, 18.95315], [-97.47133, 18.95186], [-97.47217, 18.95256], [-97.47119, 18.95365], [-97.4705, 18.95315]]]}}, {"id": "1653058", "type": "Feature", "properties": {"id": "1653058", "CVEGEO": "2104500210095022", "POBTOT": 0.0, "score_nse": 0.0, "NSE": null, "VIVTOT": 0.0, "GRAPROES": 0.0, "_ent": "21", "_mun": "045", "_loc": "0021"}, "geometry": {"type": "Polygon", "coordinates": [[[-97.46903, 18.95203], [-97.46971, 18.95103], [-97.46998, 18.95006], [-97.47129, 18.95181], [-97.47046, 18.9531], [-97.46903, 18.95203]]]}}, {"id": "1653059", "type": "Feature", "properties": {"id": "1653059", "CVEGEO": "2104500210095021", "POBTOT": 0.0, "score_nse": 0.0, "NSE": null, "VIVTOT": 0.0, "GRAPROES": 0.0, "_ent": "21", "_mun": "045", "_loc": "0021"}, "geometry": {"type": "Polygon", "coordinates": [[[-97.47011, 18.94885], [-97.46974, 18.95075], [-97.46912, 18.95178], [-97.46749, 18.95022], [-97.4673, 18.94928], [-97.4674, 18.94871], [-97.46718, 18.94801], [-97.46835, 18.94687], [-97.46913, 18.94672], [-97.46943, 18.9468], [-97.46999, 18.94657], [-97.47064, 18.94656], [-97.47065, 18.94643], [-97.47123, 18.94645], [-97.47029, 18.94808], [-97.47096, 18.94839], [-97.47011, 18.94885]]]}}, {"id": "1653127", "type": "Feature", "properties": {"id": "1653127", "CVEGEO": "2104500210095051", "POBTOT": 0.0, "score_nse": 0.0, "NSE": null, "VIVTOT": 0.0, "GRAPROES": 0.0, "_ent": "21", "_mun": "045", "_loc": "0021"}, "geometry": {"type": "Polygon", "coordinates": [[[-97.47214, 18.94765], [-97.47137, 18.94637], [-97.47194, 18.94633], [-97.47224, 18.94759], [-97.47214, 18.94765]]]}}, {"id": "1653128", "type": "Feature", "properties": {"id": "1653128", "CVEGEO": "2104500210095049", "POBTOT": 0.0, "score_nse": 0.0, "NSE": null, "VIVTOT": 0.0, "GRAPROES": 0.0, "_ent": "21", "_mun": "045", "_loc": "0021"}, "geometry": {"type": "Polygon", "coordinates": [[[-97.46431, 18.95954], [-97.4632, 18.95969], [-97.46214, 18.96018], [-97.46252, 18.95946], [-97.46417, 18.95769], [-97.46545, 18.95817], [-97.46428, 18.9594], [-97.46534, 18.95839], [-97.46589, 18.95925], [-97.46468, 18.95988], [-97.46431, 18.95954]]]}}, {"id": "1653129", "type": "Feature", "properties": {"id": "1653129", "CVEGEO": "2104500210095048", "POBTOT": 0.0, "score_nse": 0.0, "NSE": null, "VIVTOT": 0.0, "GRAPROES": 0.0, "_ent": "21", "_mun": "045", "_loc": "0021"}, "geometry": {"type": "Polygon", "coordinates": [[[-97.46538, 18.96037], [-97.46474, 18.95993], [-97.46593, 18.95931], [-97.46634, 18.95991], [-97.4659, 18.96107], [-97.46561, 18.96134], [-97.46527, 18.96248], [-97.46543, 18.96164], [-97.46538, 18.96037]]]}}, {"id": "1653130", "type": "Feature", "properties": {"id": "1653130", "CVEGEO": "2104500210095047", "POBTOT": 0.0, "score_nse": 0.0, "NSE": null, "VIVTOT": 0.0, "GRAPROES": 0.0, "_ent": "21", "_mun": "045", "_loc": "0021"}, "geometry": {"type": "Polygon", "coordinates": [[[-97.46523, 18.96258], [-97.46567, 18.96165], [-97.46565, 18.96136], [-97.46596, 18.96109], [-97.4664, 18.95997], [-97.46782, 18.95871], [-97.46851, 18.95945], [-97.46833, 18.95978], [-97.46723, 18.96038], [-97.46708, 18.96069], [-97.46599, 18.96149], [-97.46546, 18.96247], [-97.46523, 18.96258]]]}}, {"id": "1653132", "type": "Feature", "properties": {"id": "1653132", "CVEGEO": "2104500210095036", "POBTOT": 0.0, "score_nse": 0.0, "NSE": null, "VIVTOT": 0.0, "GRAPROES": 0.0, "_ent": "21", "_mun": "045", "_loc": "0021"}, "geometry": {"type": "Polygon", "coordinates": [[[-97.47138, 18.95179], [-97.47263, 18.95044], [-97.4738, 18.95175], [-97.47261, 18.95283], [-97.47138, 18.95179]]]}}, {"id": "1653133", "type": "Feature", "properties": {"id": "1653133", "CVEGEO": "2104500210095035", "POBTOT": 0.0, "score_nse": 0.0, "NSE": null, "VIVTOT": 0.0, "GRAPROES": 0.0, "_ent": "21", "_mun": "045", "_loc": "0021"}, "geometry": {"type": "Polygon", "coordinates": [[[-97.47014, 18.94981], [-97.47145, 18.94997], [-97.47187, 18.94986], [-97.47227, 18.95067], [-97.47132, 18.95174], [-97.47, 18.94996], [-97.47014, 18.94981]]]}}, {"id": "1653134", "type": "Feature", "properties": {"id": "1653134", "CVEGEO": "2104500210095033", "POBTOT": 0.0, "score_nse": 0.0, "NSE": null, "VIVTOT": 0.0, "GRAPROES": 0.0, "_ent": "21", "_mun": "045", "_loc": "0021"}, "geometry": {"type": "Polygon", "coordinates": [[[-97.46424, 18.95764], [-97.46537, 18.9565], [-97.46629, 18.95728], [-97.4655, 18.95811], [-97.46424, 18.95764]]]}}, {"id": "1653135", "type": "Feature", "properties": {"id": "1653135", "CVEGEO": "2104500210095032", "POBTOT": 0.0, "score_nse": 0.0, "NSE": null, "VIVTOT": 0.0, "GRAPROES": 0.0, "_ent": "21", "_mun": "045", "_loc": "0021"}, "geometry": {"type": "Polygon", "coordinates": [[[-97.46539, 18.95833], [-97.46635, 18.95732], [-97.4672, 18.95825], [-97.46676, 18.95864], [-97.46726, 18.9583], [-97.46777, 18.95867], [-97.46638, 18.95984], [-97.46539, 18.95833]]]}}, {"id": "1653136", "type": "Feature", "properties": {"id": "1653136", "CVEGEO": "2104500210095031", "POBTOT": 0.0, "score_nse": 0.0, "NSE": null, "VIVTOT": 0.0, "GRAPROES": 0.0, "_ent": "21", "_mun": "045", "_loc": "0021"}, "geometry": {"type": "Polygon", "coordinates": [[[-97.46896, 18.9594], [-97.46947, 18.95916], [-97.46958, 18.96012], [-97.46901, 18.96033], [-97.46896, 18.95986], [-97.46917, 18.95974], [-97.46896, 18.9594]]]}}, {"id": "1653137", "type": "Feature", "properties": {"id": "1653137", "CVEGEO": "2104500210095030", "POBTOT": 0.0, "score_nse": 0.0, "NSE": null, "VIVTOT": 0.0, "GRAPROES": 0.0, "_ent": "21", "_mun": "045", "_loc": "0021"}, "geometry": {"type": "Polygon", "coordinates": [[[-97.47007, 18.95959], [-97.47052, 18.95924], [-97.4707, 18.95955], [-97.47052, 18.96026], [-97.47007, 18.95959]]]}}, {"id": "1653138", "type": "Feature", "properties": {"id": "1653138", "CVEGEO": "2104500210095019", "POBTOT": 0.0, "score_nse": 0.0, "NSE": null, "VIVTOT": 0.0, "GRAPROES": 0.0, "_ent": "21", "_mun": "045", "_loc": "0021"}, "geometry": {"type": "Polygon", "coordinates": [[[-97.46228, 18.95967], [-97.46206, 18.95909], [-97.46359, 18.95748], [-97.46386, 18.95648], [-97.46419, 18.95595], [-97.46514, 18.95552], [-97.46492, 18.9553], [-97.46517, 18.95467], [-97.46507, 18.95411], [-97.46533, 18.95408], [-97.46555, 18.9529], [-97.46732, 18.95376], [-97.46534, 18.95641], [-97.46464, 18.95653], [-97.46517, 18.95657], [-97.46228, 18.95967]]]}}, {"id": "1653139", "type": "Feature", "properties": {"id": "1653139", "CVEGEO": "2104500210095018", "POBTOT": 0.0, "score_nse": 0.0, "NSE": null, "VIVTOT": 0.0, "GRAPROES": 0.0, "_ent": "21", "_mun": "045", "_loc": "0021"}, "geometry": {"type": "Polygon", "coordinates": [[[-97.46798, 18.9587], [-97.46833, 18.95816], [-97.46925, 18.95802], [-97.46956, 18.9585], [-97.46962, 18.9589], [-97.46864, 18.95937], [-97.46798, 18.9587]]]}}, {"id": "1653140", "type": "Feature", "properties": {"id": "1653140", "CVEGEO": "2104500210095017", "POBTOT": 0.0, "score_nse": 0.0, "NSE": null, "VIVTOT": 0.0, "GRAPROES": 0.0, "_ent": "21", "_mun": "045", "_loc": "0021"}, "geometry": {"type": "Polygon", "coordinates": [[[-97.46966, 18.95905], [-97.4696, 18.95841], [-97.46941, 18.95815], [-97.46964, 18.95774], [-97.47049, 18.95918], [-97.47004, 18.95955], [-97.46966, 18.95905]]]}}, {"id": "1653141", "type": "Feature", "properties": {"id": "1653141", "CVEGEO": "2104500210095016", "POBTOT": 0.0, "score_nse": 0.0, "NSE": null, "VIVTOT": 0.0, "GRAPROES": 0.0, "_ent": "21", "_mun": "045", "_loc": "0021"}, "geometry": {"type": "Polygon", "coordinates": [[[-97.47084, 18.95891], [-97.47088, 18.95833], [-97.47106, 18.95819], [-97.47117, 18.95768], [-97.47156, 18.95833], [-97.47084, 18.95891]]]}}, {"id": "1653142", "type": "Feature", "properties": {"id": "1653142", "CVEGEO": "2104500210095015", "POBTOT": 0.0, "score_nse": 0.0, "NSE": null, "VIVTOT": 0.0, "GRAPROES": 0.0, "_ent": "21", "_mun": "045", "_loc": "0021"}, "geometry": {"type": "Polygon", "coordinates": [[[-97.47163, 18.95828], [-97.47111, 18.95714], [-97.47146, 18.95677], [-97.47104, 18.95591], [-97.47148, 18.95556], [-97.47261, 18.95746], [-97.47163, 18.95828]]]}}, {"id": "1653143", "type": "Feature", "properties": {"id": "1653143", "CVEGEO": "2104500210095004", "POBTOT": 0.0, "score_nse": 0.0, "NSE": null, "VIVTOT": 0.0, "GRAPROES": 0.0, "_ent": "21", "_mun": "045", "_loc": "0021"}, "geometry": {"type": "Polygon", "coordinates": [[[-97.47142, 18.95522], [-97.47076, 18.95431], [-97.47223, 18.95261], [-97.47389, 18.95424], [-97.47283, 18.95484], [-97.47196, 18.95464], [-97.47142, 18.95522]]]}}, {"id": "1653144", "type": "Feature", "properties": {"id": "1653144", "CVEGEO": "2104500210095003", "POBTOT": 0.0, "score_nse": 0.0, "NSE": null, "VIVTOT": 0.0, "GRAPROES": 0.0, "_ent": "21", "_mun": "045", "_loc": "0021"}, "geometry": {"type": "Polygon", "coordinates": [[[-97.46963, 18.95423], [-97.47009, 18.95382], [-97.47073, 18.9544], [-97.46981, 18.9544], [-97.46963, 18.95423]]]}}, {"id": "1653145", "type": "Feature", "properties": {"id": "1653145", "CVEGEO": "2104500210095002", "POBTOT": 0.0, "score_nse": 0.0, "NSE": null, "VIVTOT": 0.0, "GRAPROES": 0.0, "_ent": "21", "_mun": "045", "_loc": "0021"}, "geometry": {"type": "Polygon", "coordinates": [[[-97.46804, 18.95569], [-97.46855, 18.9552], [-97.46932, 18.95618], [-97.4686, 18.95655], [-97.46804, 18.95569]]]}}, {"id": "1653146", "type": "Feature", "properties": {"id": "1653146", "CVEGEO": "2104500210095001", "POBTOT": 0.0, "score_nse": 0.0, "NSE": null, "VIVTOT": 0.0, "GRAPROES": 0.0, "_ent": "21", "_mun": "045", "_loc": "0021"}, "geometry": {"type": "Polygon", "coordinates": [[[-97.46918, 18.95635], [-97.46943, 18.9562], [-97.46861, 18.95515], [-97.46957, 18.95429], [-97.46979, 18.95448], [-97.4708, 18.95448], [-97.47138, 18.95529], [-97.47125, 18.95553], [-97.47038, 18.95585], [-97.47029, 18.95593], [-97.47044, 18.95608], [-97.46999, 18.95664], [-97.46918, 18.95635]]]}}, {"id": "1653191", "type": "Feature", "properties": {"id": "1653191", "CVEGEO": "2104500210095027", "POBTOT": 0.0, "score_nse": 0.0, "NSE": null, "VIVTOT": 0.0, "GRAPROES": 0.0, "_ent": "21", "_mun": "045", "_loc": "0021"}, "geometry": {"type": "Polygon", "coordinates": [[[-97.47228, 18.95898], [-97.4722, 18.95855], [-97.47241, 18.95833], [-97.47219, 18.95792], [-97.47264, 18.95751], [-97.47318, 18.95853], [-97.47228, 18.95898]]]}}, {"id": "1653322", "type": "Feature", "properties": {"id": "1653322", "CVEGEO": "2104500210095009", "POBTOT": 0.0, "score_nse": 0.0, "NSE": null, "VIVTOT": 0.0, "GRAPROES": 0.0, "_ent": "21", "_mun": "045", "_loc": "0021"}, "geometry": {"type": "Polygon", "coordinates": [[[-97.46543, 18.95643], [-97.46722, 18.95396], [-97.46858, 18.95508], [-97.46635, 18.95721], [-97.46543, 18.95643]]]}}, {"id": "1653323", "type": "Feature", "properties": {"id": "1653323", "CVEGEO": "2104500210095008", "POBTOT": 0.0, "score_nse": 0.0, "NSE": null, "VIVTOT": 0.0, "GRAPROES": 0.0, "_ent": "21", "_mun": "045", "_loc": "0021"}, "geometry": {"type": "Polygon", "coordinates": [[[-97.4676, 18.95847], [-97.4678, 18.95801], [-97.46754, 18.95842], [-97.46641, 18.95726], [-97.46798, 18.95574], [-97.46854, 18.9566], [-97.4681, 18.95684], [-97.46841, 18.95676], [-97.46844, 18.95784], [-97.46787, 18.95866], [-97.4676, 18.95847]]]}}, {"id": "1653344", "type": "Feature", "properties": {"id": "1653344", "CVEGEO": "2104500210095005", "POBTOT": 0.0, "score_nse": 0.0, "NSE": null, "VIVTOT": 0.0, "GRAPROES": 0.0, "_ent": "21", "_mun": "045", "_loc": "0021"}, "geometry": {"type": "Polygon", "coordinates": [[[-97.47093, 18.95706], [-97.47043, 18.95624], [-97.47086, 18.95586], [-97.47133, 18.95673], [-97.47093, 18.95706]]]}}, {"id": "1653391", "type": "Feature", "properties": {"id": "1653391", "CVEGEO": "2104500210095012", "POBTOT": 0.0, "score_nse": 0.0, "NSE": null, "VIVTOT": 0.0, "GRAPROES": 0.0, "_ent": "21", "_mun": "045", "_loc": "0021"}, "geometry": {"type": "Polygon", "coordinates": [[[-97.47016, 18.95376], [-97.47047, 18.95322], [-97.47114, 18.9537], [-97.4707, 18.95425], [-97.47016, 18.95376]]]}}, {"id": "1653392", "type": "Feature", "properties": {"id": "1653392", "CVEGEO": "2104500210095011", "POBTOT": 0.0, "score_nse": 0.0, "NSE": null, "VIVTOT": 0.0, "GRAPROES": 0.0, "_ent": "21", "_mun": "045", "_loc": "0021"}, "geometry": {"type": "Polygon", "coordinates": [[[-97.46815, 18.95294], [-97.46898, 18.95208], [-97.47042, 18.95315], [-97.47025, 18.95352], [-97.46956, 18.95418], [-97.46815, 18.95294]]]}}, {"id": "1653393", "type": "Feature", "properties": {"id": "1653393", "CVEGEO": "2104500210095010", "POBTOT": 0.0, "score_nse": 0.0, "NSE": null, "VIVTOT": 0.0, "GRAPROES": 0.0, "_ent": "21", "_mun": "045", "_loc": "0021"}, "geometry": {"type": "Polygon", "coordinates": [[[-97.46728, 18.95392], [-97.46809, 18.95299], [-97.4695, 18.95423], [-97.46863, 18.95504], [-97.46728, 18.95392]]]}}, {"id": "1653610", "type": "Feature", "properties": {"id": "1653610", "CVEGEO": "2104500210095029", "POBTOT": 0.0, "score_nse": 0.0, "NSE": null, "VIVTOT": 0.0, "GRAPROES": 0.0, "_ent": "21", "_mun": "045", "_loc": "0021"}, "geometry": {"type": "Polygon", "coordinates": [[[-97.47076, 18.95908], [-97.47076, 18.95941], [-97.47074, 18.95951], [-97.47056, 18.9592], [-97.47076, 18.95908]]]}}, {"id": "1653627", "type": "Feature", "properties": {"id": "1653627", "CVEGEO": "2104500210095046", "POBTOT": 0.0, "score_nse": 0.0, "NSE": null, "VIVTOT": 0.0, "GRAPROES": 0.0, "_ent": "21", "_mun": "045", "_loc": "0021"}, "geometry": {"type": "Polygon", "coordinates": [[[-97.47856, 18.95725], [-97.47724, 18.95544], [-97.47747, 18.95513], [-97.47817, 18.95567], [-97.47665, 18.95432], [-97.47764, 18.95352], [-97.47941, 18.95522], [-97.47866, 18.95588], [-97.47898, 18.95627], [-97.47909, 18.95677], [-97.47856, 18.95725]]]}}, {"id": "1653628", "type": "Feature", "properties": {"id": "1653628", "CVEGEO": "2104500210095045", "POBTOT": 0.0, "score_nse": 0.0, "NSE": null, "VIVTOT": 0.0, "GRAPROES": 0.0, "_ent": "21", "_mun": "045", "_loc": "0021"}, "geometry": {"type": "Polygon", "coordinates": [[[-97.47373, 18.94914], [-97.47422, 18.94859], [-97.47565, 18.94979], [-97.47517, 18.95031], [-97.47373, 18.94914]]]}}, {"id": "1653629", "type": "Feature", "properties": {"id": "1653629", "CVEGEO": "2104500210095044", "POBTOT": 0.0, "score_nse": 0.0, "NSE": null, "VIVTOT": 0.0, "GRAPROES": 0.0, "_ent": "21", "_mun": "045", "_loc": "0021"}, "geometry": {"type": "Polygon", "coordinates": [[[-97.47576, 18.95348], [-97.47626, 18.95311], [-97.47627, 18.95271], [-97.47648, 18.95242], [-97.47758, 18.95346], [-97.47659, 18.95426], [-97.47576, 18.95348]]]}}, {"id": "1653630", "type": "Feature", "properties": {"id": "1653630", "CVEGEO": "2104500210095043", "POBTOT": 0.0, "score_nse": 0.0, "NSE": null, "VIVTOT": 0.0, "GRAPROES": 0.0, "_ent": "21", "_mun": "045", "_loc": "0021"}, "geometry": {"type": "Polygon", "coordinates": [[[-97.47269, 18.95039], [-97.47369, 18.94922], [-97.47511, 18.9504], [-97.47388, 18.95168], [-97.47269, 18.95039]]]}}, {"id": "1653631", "type": "Feature", "properties": {"id": "1653631", "CVEGEO": "2104500210095014", "POBTOT": 0.0, "score_nse": 0.0, "NSE": null, "VIVTOT": 0.0, "GRAPROES": 0.0, "_ent": "21", "_mun": "045", "_loc": "0021"}, "geometry": {"type": "Polygon", "coordinates": [[[-97.47267, 18.9574], [-97.47209, 18.95637], [-97.47185, 18.95595], [-97.47306, 18.95711], [-97.47267, 18.9574]]]}}, {"id": "1653632", "type": "Feature", "properties": {"id": "1653632", "CVEGEO": "2104500210095006", "POBTOT": 0.0, "score_nse": 0.0, "NSE": null, "VIVTOT": 0.0, "GRAPROES": 0.0, "_ent": "21", "_mun": "045", "_loc": "0021"}, "geometry": {"type": "Polygon", "coordinates": [[[-97.4697, 18.95769], [-97.46998, 18.95742], [-97.46998, 18.95684], [-97.47039, 18.9564], [-97.47084, 18.95706], [-97.47082, 18.9577], [-97.471, 18.95792], [-97.47099, 18.95816], [-97.47073, 18.95825], [-97.47072, 18.95902], [-97.47053, 18.95913], [-97.4697, 18.95769]]]}}, {"id": "1653739", "type": "Feature", "properties": {"id": "1653739", "CVEGEO": "2104500210095026", "POBTOT": 0.0, "score_nse": 0.0, "NSE": null, "VIVTOT": 0.0, "GRAPROES": 0.0, "_ent": "21", "_mun": "045", "_loc": "0021"}, "geometry": {"type": "Polygon", "coordinates": [[[-97.47272, 18.95745], [-97.4742, 18.95626], [-97.47471, 18.95676], [-97.47365, 18.95734], [-97.47476, 18.95683], [-97.47534, 18.95747], [-97.47327, 18.95848], [-97.47272, 18.95745]]]}}, {"id": "1653740", "type": "Feature", "properties": {"id": "1653740", "CVEGEO": "2104500210095025", "POBTOT": 0.0, "score_nse": 0.0, "NSE": null, "VIVTOT": 0.0, "GRAPROES": 0.0, "_ent": "21", "_mun": "045", "_loc": "0021"}, "geometry": {"type": "Polygon", "coordinates": [[[-97.47427, 18.9562], [-97.47531, 18.95539], [-97.47597, 18.95598], [-97.47476, 18.95673], [-97.47427, 18.9562]]]}}, {"id": "1653748", "type": "Feature", "properties": {"id": "1653748", "CVEGEO": "2104500210095037", "POBTOT": 0.0, "score_nse": 0.0, "NSE": null, "VIVTOT": 0.0, "GRAPROES": 0.0, "_ent": "21", "_mun": "045", "_loc": "0021"}, "geometry": {"type": "Polygon", "coordinates": [[[-97.47399, 18.9542], [-97.47267, 18.95288], [-97.47384, 18.9518], [-97.47565, 18.95348], [-97.47524, 18.95385], [-97.47449, 18.95386], [-97.47399, 18.9542]]]}}, {"id": "1653810", "type": "Feature", "properties": {"id": "1653810", "CVEGEO": "2104500210095020", "POBTOT": 0.0, "score_nse": 0.0, "NSE": null, "VIVTOT": 0.0, "GRAPROES": 0.0, "_ent": "21", "_mun": "045", "_loc": "0021"}, "geometry": {"type": "Polygon", "coordinates": [[[-97.46554, 18.9528], [-97.46589, 18.95261], [-97.4672, 18.95116], [-97.46746, 18.95038], [-97.46909, 18.95188], [-97.46737, 18.95369], [-97.46554, 18.9528]]]}}, {"id": "1653941", "type": "Feature", "properties": {"id": "1653941", "CVEGEO": "2104500210095013", "POBTOT": 0.0, "score_nse": 0.0, "NSE": null, "VIVTOT": 0.0, "GRAPROES": 0.0, "_ent": "21", "_mun": "045", "_loc": "0021"}, "geometry": {"type": "Polygon", "coordinates": [[[-97.47384, 18.95587], [-97.47344, 18.9562], [-97.47386, 18.9559], [-97.47416, 18.9562], [-97.4731, 18.95707], [-97.47178, 18.95579], [-97.47149, 18.95532], [-97.47183, 18.95479], [-97.47216, 18.95472], [-97.47292, 18.95494], [-97.47354, 18.95558], [-97.47336, 18.95572], [-97.47357, 18.9556], [-97.47384, 18.95587]]]}}, {"id": "1653942", "type": "Feature", "properties": {"id": "1653942", "CVEGEO": "2104500210095052", "POBTOT": 0.0, "score_nse": 0.0, "NSE": null, "VIVTOT": 0.0, "GRAPROES": 0.0, "_ent": "21", "_mun": "045", "_loc": "0021"}, "geometry": {"type": "Polygon", "coordinates": [[[-97.47238, 18.94789], [-97.47282, 18.94882], [-97.47189, 18.94968], [-97.47125, 18.94859], [-97.47238, 18.94789]]]}}, {"id": "1653943", "type": "Feature", "properties": {"id": "1653943", "CVEGEO": "2104500210095050", "POBTOT": 0.0, "score_nse": 0.0, "NSE": null, "VIVTOT": 0.0, "GRAPROES": 0.0, "_ent": "21", "_mun": "045", "_loc": "0021"}, "geometry": {"type": "Polygon", "coordinates": [[[-97.47182, 18.94974], [-97.47146, 18.94985], [-97.47035, 18.94967], [-97.46999, 18.94975], [-97.47019, 18.94888], [-97.47107, 18.94845], [-97.47182, 18.94974]]]}}, {"id": "1653944", "type": "Feature", "properties": {"id": "1653944", "CVEGEO": "2104500210095053", "POBTOT": 0.0, "score_nse": 0.0, "NSE": null, "VIVTOT": 0.0, "GRAPROES": 0.0, "_ent": "21", "_mun": "045", "_loc": "0021"}, "geometry": {"type": "Polygon", "coordinates": [[[-97.47234, 18.94781], [-97.47121, 18.94855], [-97.47108, 18.94837], [-97.47225, 18.94764], [-97.47234, 18.94781]]]}}, {"id": "1653945", "type": "Feature", "properties": {"id": "1653945", "CVEGEO": "2104500210095054", "POBTOT": 0.0, "score_nse": 0.0, "NSE": null, "VIVTOT": 0.0, "GRAPROES": 0.0, "_ent": "21", "_mun": "045", "_loc": "0021"}, "geometry": {"type": "Polygon", "coordinates": [[[-97.47157, 18.9584], [-97.47194, 18.95913], [-97.47091, 18.95965], [-97.47083, 18.95902], [-97.47157, 18.9584]]]}}]}