{"type": "FeatureCollection", "features": [{"id": "2325446", "type": "Feature", "properties": {"id": "2325446", "CVEGEO": "3010902860017008", "POBTOT": 0.0, "score_nse": 0.0, "NSE": null, "VIVTOT": 0.0, "GRAPROES": 0.0, "_ent": "30", "_mun": "109", "_loc": "0286"}, "geometry": {"type": "Polygon", "coordinates": [[[-96.92644, 20.11498], [-96.92656, 20.11482], [-96.92746, 20.11615], [-96.92716, 20.1163], [-96.92644, 20.11498]]]}}, {"id": "2325447", "type": "Feature", "properties": {"id": "2325447", "CVEGEO": "3010902860017007", "POBTOT": 0.0, "score_nse": 0.0, "NSE": null, "VIVTOT": 0.0, "GRAPROES": 0.0, "_ent": "30", "_mun": "109", "_loc": "0286"}, "geometry": {"type": "Polygon", "coordinates": [[[-96.92616, 20.11538], [-96.9264, 20.11502], [-96.92711, 20.11633], [-96.92677, 20.11647], [-96.92616, 20.11538]]]}}, {"id": "2325448", "type": "Feature", "properties": {"id": "2325448", "CVEGEO": "3010902860017006", "POBTOT": 0.0, "score_nse": 0.0, "NSE": null, "VIVTOT": 0.0, "GRAPROES": 0.0, "_ent": "30", "_mun": "109", "_loc": "0286"}, "geometry": {"type": "Polygon", "coordinates": [[[-96.92634, 20.11671], [-96.92673, 20.11656], [-96.92717, 20.1174], [-96.9269, 20.11776], [-96.92634, 20.11671]]]}}, {"id": "2325450", "type": "Feature", "properties": {"id": "2325450", "CVEGEO": "3010902860017005", "POBTOT": 0.0, "score_nse": 0.0, "NSE": null, "VIVTOT": 0.0, "GRAPROES": 0.0, "_ent": "30", "_mun": "109", "_loc": "0286"}, "geometry": {"type": "Polygon", "coordinates": [[[-96.92587, 20.11581], [-96.92624, 20.11564], [-96.92671, 20.11651], [-96.92633, 20.11667], [-96.92587, 20.11581]]]}}, {"id": "2325451", "type": "Feature", "properties": {"id": "2325451", "CVEGEO": "3010902860017004", "POBTOT": 0.0, "score_nse": 0.0, "NSE": null, "VIVTOT": 0.0, "GRAPROES": 0.0, "_ent": "30", "_mun": "109", "_loc": "0286"}, "geometry": {"type": "Polygon", "coordinates": [[[-96.92548, 20.11599], [-96.92582, 20.11583], [-96.92628, 20.11668], [-96.92591, 20.11681], [-96.92548, 20.11599]]]}}, {"id": "2325452", "type": "Feature", "properties": {"id": "2325452", "CVEGEO": "3010902860017003", "POBTOT": 0.0, "score_nse": 0.0, "NSE": null, "VIVTOT": 0.0, "GRAPROES": 0.0, "_ent": "30", "_mun": "109", "_loc": "0286"}, "geometry": {"type": "Polygon", "coordinates": [[[-96.925, 20.11609], [-96.92537, 20.11589], [-96.92585, 20.11682], [-96.92547, 20.11698], [-96.925, 20.11609]]]}}, {"id": "2325453", "type": "Feature", "properties": {"id": "2325453", "CVEGEO": "3010902860017002", "POBTOT": 0.0, "score_nse": 0.0, "NSE": null, "VIVTOT": 0.0, "GRAPROES": 0.0, "_ent": "30", "_mun": "109", "_loc": "0286"}, "geometry": {"type": "Polygon", "coordinates": [[[-96.92549, 20.11703], [-96.92587, 20.11688], [-96.92655, 20.11819], [-96.92625, 20.11848], [-96.92549, 20.11703]]]}}, {"id": "2325454", "type": "Feature", "properties": {"id": "2325454", "CVEGEO": "3010902860017001", "POBTOT": 0.0, "score_nse": 0.0, "NSE": null, "VIVTOT": 0.0, "GRAPROES": 0.0, "_ent": "30", "_mun": "109", "_loc": "0286"}, "geometry": {"type": "Polygon", "coordinates": [[[-96.92592, 20.11686], [-96.92629, 20.11673], [-96.92687, 20.11782], [-96.9266, 20.11814], [-96.92592, 20.11686]]]}}]}