{"type": "FeatureCollection", "features": [{"id": "850839", "type": "Feature", "properties": {"id": "850839", "CVEGEO": "1304500190014002", "POBTOT": 0.0, "score_nse": 0.0, "NSE": null, "VIVTOT": 0.0, "GRAPROES": 0.0, "_ent": "13", "_mun": "045", "_loc": "0019"}, "geometry": {"type": "Polygon", "coordinates": [[[-98.64, 20.1495], [-98.63999, 20.1498], [-98.63963, 20.15001], [-98.6399, 20.14969], [-98.64, 20.1495]]]}}, {"id": "850840", "type": "Feature", "properties": {"id": "850840", "CVEGEO": "1304500190014001", "POBTOT": 0.0, "score_nse": 0.0, "NSE": null, "VIVTOT": 0.0, "GRAPROES": 0.0, "_ent": "13", "_mun": "045", "_loc": "0019"}, "geometry": {"type": "Polygon", "coordinates": [[[-98.63934, 20.15063], [-98.63942, 20.15121], [-98.63874, 20.1513], [-98.63851, 20.15113], [-98.63934, 20.15063]]]}}, {"id": "850882", "type": "Feature", "properties": {"id": "850882", "CVEGEO": "1304500190014010", "POBTOT": 0.0, "score_nse": 0.0, "NSE": null, "VIVTOT": 0.0, "GRAPROES": 0.0, "_ent": "13", "_mun": "045", "_loc": "0019"}, "geometry": {"type": "Polygon", "coordinates": [[[-98.63935, 20.15014], [-98.63997, 20.14986], [-98.64062, 20.15074], [-98.64079, 20.15127], [-98.64001, 20.15123], [-98.63939, 20.1506], [-98.63935, 20.15014]]]}}, {"id": "850885", "type": "Feature", "properties": {"id": "850885", "CVEGEO": "1304500190014013", "POBTOT": 0.0, "score_nse": 0.0, "NSE": null, "VIVTOT": 0.0, "GRAPROES": 0.0, "_ent": "13", "_mun": "045", "_loc": "0019"}, "geometry": {"type": "Polygon", "coordinates": [[[-98.64256, 20.15306], [-98.6423, 20.15336], [-98.64223, 20.15298], [-98.64177, 20.15226], [-98.64121, 20.1519], [-98.64124, 20.15117], [-98.64101, 20.15093], [-98.64184, 20.15127], [-98.64309, 20.15146], [-98.64367, 20.15197], [-98.64339, 20.15199], [-98.64328, 20.15229], [-98.64361, 20.15272], [-98.64335, 20.15291], [-98.64365, 20.15291], [-98.64337, 20.15336], [-98.6426, 20.15386], [-98.64232, 20.15341], [-98.64256, 20.15306]]]}}, {"id": "850886", "type": "Feature", "properties": {"id": "850886", "CVEGEO": "1304500190014009", "POBTOT": 0.0, "score_nse": 0.0, "NSE": null, "VIVTOT": 0.0, "GRAPROES": 0.0, "_ent": "13", "_mun": "045", "_loc": "0019"}, "geometry": {"type": "Polygon", "coordinates": [[[-98.63978, 20.1466], [-98.6406, 20.14893], [-98.64002, 20.14967], [-98.64004, 20.14816], [-98.63978, 20.1466]]]}}, {"id": "850887", "type": "Feature", "properties": {"id": "850887", "CVEGEO": "1304500190014003", "POBTOT": 0.0, "score_nse": 0.0, "NSE": null, "VIVTOT": 0.0, "GRAPROES": 0.0, "_ent": "13", "_mun": "045", "_loc": "0019"}, "geometry": {"type": "Polygon", "coordinates": [[[-98.64188, 20.15125], [-98.64077, 20.1508], [-98.64002, 20.14999], [-98.64002, 20.14975], [-98.64061, 20.14903], [-98.64054, 20.14859], [-98.64119, 20.14867], [-98.6428, 20.1501], [-98.64285, 20.15021], [-98.64268, 20.15027], [-98.64182, 20.15023], [-98.64199, 20.15083], [-98.64188, 20.15125]]]}}, {"id": "850895", "type": "Feature", "properties": {"id": "850895", "CVEGEO": "1304500190014012", "POBTOT": 0.0, "score_nse": 0.0, "NSE": null, "VIVTOT": 0.0, "GRAPROES": 0.0, "_ent": "13", "_mun": "045", "_loc": "0019"}, "geometry": {"type": "Polygon", "coordinates": [[[-98.64198, 20.15126], [-98.64195, 20.15028], [-98.64297, 20.15032], [-98.64384, 20.15201], [-98.64306, 20.15139], [-98.64198, 20.15126]]]}}, {"id": "850909", "type": "Feature", "properties": {"id": "850909", "CVEGEO": "1304500190014005", "POBTOT": 0.0, "score_nse": 0.0, "NSE": null, "VIVTOT": 0.0, "GRAPROES": 0.0, "_ent": "13", "_mun": "045", "_loc": "0019"}, "geometry": {"type": "Polygon", "coordinates": [[[-98.63593, 20.15085], [-98.63461, 20.15027], [-98.63406, 20.14747], [-98.63472, 20.14802], [-98.63407, 20.14741], [-98.63428, 20.14698], [-98.63562, 20.14832], [-98.63649, 20.14895], [-98.63716, 20.15003], [-98.63768, 20.15044], [-98.63701, 20.15038], [-98.63686, 20.1501], [-98.63697, 20.15039], [-98.63637, 20.1508], [-98.63593, 20.15085]]]}}, {"id": "850910", "type": "Feature", "properties": {"id": "850910", "CVEGEO": "1304500190014008", "POBTOT": 0.0, "score_nse": 0.0, "NSE": null, "VIVTOT": 0.0, "GRAPROES": 0.0, "_ent": "13", "_mun": "045", "_loc": "0019"}, "geometry": {"type": "Polygon", "coordinates": [[[-98.63442, 20.14696], [-98.63511, 20.14663], [-98.63595, 20.14669], [-98.63597, 20.14724], [-98.63659, 20.14857], [-98.6366, 20.14901], [-98.63569, 20.14832], [-98.63442, 20.14696]]]}}, {"id": "850911", "type": "Feature", "properties": {"id": "850911", "CVEGEO": "1304500190014007", "POBTOT": 0.0, "score_nse": 0.0, "NSE": null, "VIVTOT": 0.0, "GRAPROES": 0.0, "_ent": "13", "_mun": "045", "_loc": "0019"}, "geometry": {"type": "Polygon", "coordinates": [[[-98.63663, 20.14855], [-98.63626, 20.14768], [-98.63636, 20.1478], [-98.63662, 20.14797], [-98.63741, 20.14838], [-98.63741, 20.14833], [-98.63622, 20.14762], [-98.63692, 20.14757], [-98.6378, 20.14795], [-98.63868, 20.14757], [-98.63907, 20.14803], [-98.63978, 20.14785], [-98.63932, 20.1484], [-98.63991, 20.14791], [-98.64005, 20.14925], [-98.63986, 20.14973], [-98.63946, 20.1501], [-98.63844, 20.1502], [-98.63781, 20.15049], [-98.63679, 20.14945], [-98.63663, 20.14855]]]}}, {"id": "850912", "type": "Feature", "properties": {"id": "850912", "CVEGEO": "1304500190014004", "POBTOT": 0.0, "score_nse": 0.0, "NSE": null, "VIVTOT": 0.0, "GRAPROES": 0.0, "_ent": "13", "_mun": "045", "_loc": "0019"}, "geometry": {"type": "Polygon", "coordinates": [[[-98.64129, 20.15382], [-98.64072, 20.15365], [-98.64044, 20.15257], [-98.63967, 20.15215], [-98.63876, 20.15132], [-98.63909, 20.1512], [-98.63952, 20.15129], [-98.63947, 20.15078], [-98.63989, 20.15124], [-98.64024, 20.15132], [-98.64047, 20.15195], [-98.6403, 20.15132], [-98.64087, 20.1513], [-98.64066, 20.15076], [-98.64111, 20.15107], [-98.64117, 20.15193], [-98.64169, 20.15226], [-98.64196, 20.15287], [-98.64187, 20.15337], [-98.64129, 20.15382]]]}}]}