{"type": "FeatureCollection", "features": [{"id": "1541839", "type": "Feature", "properties": {"id": "1541839", "CVEGEO": "201850008002A007", "POBTOT": 0.0, "score_nse": 0.0, "NSE": null, "VIVTOT": 0.0, "GRAPROES": 0.0, "_ent": "20", "_mun": "185", "_loc": "0008"}, "geometry": {"type": "Polygon", "coordinates": [[[-98.18847, 16.55691], [-98.18941, 16.55541], [-98.18984, 16.55519], [-98.19042, 16.55525], [-98.19087, 16.55572], [-98.19061, 16.55627], [-98.18999, 16.55658], [-98.18974, 16.5562], [-98.18993, 16.55662], [-98.18826, 16.55778], [-98.18847, 16.55691]]]}}, {"id": "1541841", "type": "Feature", "properties": {"id": "1541841", "CVEGEO": "201850008002A006", "POBTOT": 0.0, "score_nse": 0.0, "NSE": null, "VIVTOT": 0.0, "GRAPROES": 0.0, "_ent": "20", "_mun": "185", "_loc": "0008"}, "geometry": {"type": "Polygon", "coordinates": [[[-98.19175, 16.55371], [-98.19234, 16.55361], [-98.1925, 16.55396], [-98.19186, 16.55444], [-98.19175, 16.55371]]]}}, {"id": "1541842", "type": "Feature", "properties": {"id": "1541842", "CVEGEO": "201850008002A003", "POBTOT": 0.0, "score_nse": 0.0, "NSE": null, "VIVTOT": 0.0, "GRAPROES": 0.0, "_ent": "20", "_mun": "185", "_loc": "0008"}, "geometry": {"type": "Polygon", "coordinates": [[[-98.19233, 16.55359], [-98.19121, 16.55375], [-98.19087, 16.55302], [-98.19172, 16.55278], [-98.19209, 16.55309], [-98.19233, 16.55359]]]}}, {"id": "1541844", "type": "Feature", "properties": {"id": "1541844", "CVEGEO": "201850008002A002", "POBTOT": 0.0, "score_nse": 0.0, "NSE": null, "VIVTOT": 0.0, "GRAPROES": 0.0, "_ent": "20", "_mun": "185", "_loc": "0008"}, "geometry": {"type": "Polygon", "coordinates": [[[-98.19095, 16.55392], [-98.19169, 16.55372], [-98.1918, 16.55428], [-98.19116, 16.55505], [-98.19095, 16.55392]]]}}, {"id": "1541845", "type": "Feature", "properties": {"id": "1541845", "CVEGEO": "201850008002A001", "POBTOT": 0.0, "score_nse": 0.0, "NSE": null, "VIVTOT": 0.0, "GRAPROES": 0.0, "_ent": "20", "_mun": "185", "_loc": "0008"}, "geometry": {"type": "Polygon", "coordinates": [[[-98.19116, 16.55376], [-98.19037, 16.5538], [-98.19012, 16.55401], [-98.18992, 16.55375], [-98.18979, 16.55277], [-98.19038, 16.5519], [-98.19096, 16.55214], [-98.19078, 16.55293], [-98.19116, 16.55376]]]}}, {"id": "1541857", "type": "Feature", "properties": {"id": "1541857", "CVEGEO": "201850008002A005", "POBTOT": 0.0, "score_nse": 0.0, "NSE": null, "VIVTOT": 0.0, "GRAPROES": 0.0, "_ent": "20", "_mun": "185", "_loc": "0008"}, "geometry": {"type": "Polygon", "coordinates": [[[-98.18943, 16.55535], [-98.18948, 16.55502], [-98.18996, 16.55452], [-98.19013, 16.55404], [-98.19038, 16.55383], [-98.19091, 16.55384], [-98.19104, 16.55483], [-98.19037, 16.55495], [-98.19044, 16.55522], [-98.18983, 16.55516], [-98.18943, 16.55535]]]}}, {"id": "1541870", "type": "Feature", "properties": {"id": "1541870", "CVEGEO": "201850008002A004", "POBTOT": 0.0, "score_nse": 0.0, "NSE": null, "VIVTOT": 0.0, "GRAPROES": 0.0, "_ent": "20", "_mun": "185", "_loc": "0008"}, "geometry": {"type": "Polygon", "coordinates": [[[-98.19044, 16.55523], [-98.19038, 16.55496], [-98.19105, 16.55485], [-98.19111, 16.55521], [-98.19089, 16.5557], [-98.19044, 16.55523]]]}}]}