{"type": "FeatureCollection", "features": [{"id": "2132594", "type": "Feature", "properties": {"id": "2132594", "CVEGEO": "2801102540046011", "POBTOT": 0.0, "score_nse": 0.0, "NSE": null, "VIVTOT": 0.0, "GRAPROES": 0.0, "_ent": "28", "_mun": "011", "_loc": "0254"}, "geometry": {"type": "Polygon", "coordinates": [[[-98.99795, 22.94719], [-98.99766, 22.94666], [-98.99795, 22.94657], [-98.9985, 22.94773], [-98.99795, 22.94719]]]}}, {"id": "2132595", "type": "Feature", "properties": {"id": "2132595", "CVEGEO": "2801102540046010", "POBTOT": 0.0, "score_nse": 0.0, "NSE": null, "VIVTOT": 0.0, "GRAPROES": 0.0, "_ent": "28", "_mun": "011", "_loc": "0254"}, "geometry": {"type": "Polygon", "coordinates": [[[-98.99804, 22.94753], [-98.99952, 22.94849], [-98.99966, 22.94862], [-98.99846, 22.94869], [-98.99804, 22.94753]]]}}, {"id": "2132596", "type": "Feature", "properties": {"id": "2132596", "CVEGEO": "2801102540046009", "POBTOT": 0.0, "score_nse": 0.0, "NSE": null, "VIVTOT": 0.0, "GRAPROES": 0.0, "_ent": "28", "_mun": "011", "_loc": "0254"}, "geometry": {"type": "Polygon", "coordinates": [[[-99.00002, 22.94955], [-98.99944, 22.94968], [-98.99906, 22.94954], [-98.9985, 22.94874], [-98.99968, 22.94867], [-99.00002, 22.94955]]]}}, {"id": "2132733", "type": "Feature", "properties": {"id": "2132733", "CVEGEO": "2801102540046008", "POBTOT": 0.0, "score_nse": 0.0, "NSE": null, "VIVTOT": 0.0, "GRAPROES": 0.0, "_ent": "28", "_mun": "011", "_loc": "0254"}, "geometry": {"type": "Polygon", "coordinates": [[[-99.00021, 22.9495], [-98.99981, 22.94848], [-99.00069, 22.94841], [-99.00088, 22.94937], [-99.00021, 22.9495]]]}}, {"id": "2132734", "type": "Feature", "properties": {"id": "2132734", "CVEGEO": "2801102540046007", "POBTOT": 0.0, "score_nse": 0.0, "NSE": null, "VIVTOT": 0.0, "GRAPROES": 0.0, "_ent": "28", "_mun": "011", "_loc": "0254"}, "geometry": {"type": "Polygon", "coordinates": [[[-99.00144, 22.94873], [-99.00083, 22.9488], [-99.00076, 22.94841], [-99.00196, 22.94843], [-99.00192, 22.94913], [-99.00093, 22.94936], [-99.00084, 22.94886], [-99.00144, 22.94873]]]}}, {"id": "2132790", "type": "Feature", "properties": {"id": "2132790", "CVEGEO": "2801102540046006", "POBTOT": 0.0, "score_nse": 0.0, "NSE": null, "VIVTOT": 0.0, "GRAPROES": 0.0, "_ent": "28", "_mun": "011", "_loc": "0254"}, "geometry": {"type": "Polygon", "coordinates": [[[-99.00286, 22.94854], [-99.00195, 22.94912], [-99.002, 22.94843], [-99.0028, 22.94844], [-99.00286, 22.94854]]]}}, {"id": "2132791", "type": "Feature", "properties": {"id": "2132791", "CVEGEO": "2801102540046005", "POBTOT": 0.0, "score_nse": 0.0, "NSE": null, "VIVTOT": 0.0, "GRAPROES": 0.0, "_ent": "28", "_mun": "011", "_loc": "0254"}, "geometry": {"type": "Polygon", "coordinates": [[[-98.9991, 22.94984], [-99.00005, 22.94972], [-99.00026, 22.95032], [-99.00003, 22.95042], [-98.99944, 22.95019], [-98.9991, 22.94984]]]}}, {"id": "2132792", "type": "Feature", "properties": {"id": "2132792", "CVEGEO": "2801102540046004", "POBTOT": 0.0, "score_nse": 0.0, "NSE": null, "VIVTOT": 0.0, "GRAPROES": 0.0, "_ent": "28", "_mun": "011", "_loc": "0254"}, "geometry": {"type": "Polygon", "coordinates": [[[-99.00113, 22.94949], [-99.00132, 22.95053], [-99.00059, 22.95053], [-99.00026, 22.94966], [-99.00113, 22.94949]]]}}, {"id": "2132793", "type": "Feature", "properties": {"id": "2132793", "CVEGEO": "2801102540046003", "POBTOT": 0.0, "score_nse": 0.0, "NSE": null, "VIVTOT": 0.0, "GRAPROES": 0.0, "_ent": "28", "_mun": "011", "_loc": "0254"}, "geometry": {"type": "Polygon", "coordinates": [[[-99.00127, 22.94962], [-99.00237, 22.94949], [-99.00243, 22.95057], [-99.0014, 22.95055], [-99.00127, 22.94962]]]}}, {"id": "2132794", "type": "Feature", "properties": {"id": "2132794", "CVEGEO": "2801102540046002", "POBTOT": 0.0, "score_nse": 0.0, "NSE": null, "VIVTOT": 0.0, "GRAPROES": 0.0, "_ent": "28", "_mun": "011", "_loc": "0254"}, "geometry": {"type": "Polygon", "coordinates": [[[-99.00051, 22.95059], [-99.00134, 22.95288], [-99.00086, 22.95287], [-99.00084, 22.95268], [-99.00062, 22.95269], [-99.00045, 22.95179], [-98.99977, 22.95194], [-98.99999, 22.95254], [-98.99962, 22.95268], [-98.99933, 22.95036], [-98.99955, 22.95032], [-99.00027, 22.95076], [-99.00051, 22.95059]]]}}, {"id": "2132795", "type": "Feature", "properties": {"id": "2132795", "CVEGEO": "2801102540046001", "POBTOT": 0.0, "score_nse": 0.0, "NSE": null, "VIVTOT": 0.0, "GRAPROES": 0.0, "_ent": "28", "_mun": "011", "_loc": "0254"}, "geometry": {"type": "Polygon", "coordinates": [[[-99.0015, 22.95192], [-99.0011, 22.95191], [-99.00098, 22.95127], [-99.00064, 22.95063], [-99.00133, 22.95064], [-99.0015, 22.95192]]]}}]}