{"type": "FeatureCollection", "features": [{"id": "1066760", "type": "Feature", "properties": {"id": "1066760", "CVEGEO": "1502501482549004", "POBTOT": 703.0, "score_nse": 0.0, "NSE": "ND", "VIVTOT": 434.0, "GRAPROES": 10.71, "_ent": "15", "_mun": "025", "_loc": "0148"}, "geometry": {"type": "Polygon", "coordinates": [[[-98.8352, 19.26673], [-98.83597, 19.26673], [-98.83512, 19.26668], [-98.8351, 19.2664], [-98.83598, 19.26629], [-98.83512, 19.2663], [-98.83512, 19.26599], [-98.83597, 19.26598], [-98.83513, 19.26589], [-98.83511, 19.26564], [-98.83598, 19.26561], [-98.83513, 19.26551], [-98.83512, 19.26537], [-98.83706, 19.26536], [-98.83706, 19.26551], [-98.83624, 19.26551], [-98.83708, 19.26561], [-98.83708, 19.26588], [-98.83624, 19.26599], [-98.83708, 19.26598], [-98.83706, 19.26626], [-98.83624, 19.26632], [-98.83709, 19.26639], [-98.83708, 19.26665], [-98.83624, 19.26676], [-98.83708, 19.26676], [-98.83708, 19.26704], [-98.83511, 19.26705], [-98.8352, 19.26673]]]}}, {"id": "1066764", "type": "Feature", "properties": {"id": "1066764", "CVEGEO": "1502501482549001", "POBTOT": 6.0, "score_nse": 0.0, "NSE": "ND", "VIVTOT": 2.0, "GRAPROES": 0.0, "_ent": "15", "_mun": "025", "_loc": "0148"}, "geometry": {"type": "Polygon", "coordinates": [[[-98.83513, 19.26825], [-98.83513, 19.26715], [-98.83642, 19.26715], [-98.83645, 19.26827], [-98.83513, 19.26825]]]}}, {"id": "1066766", "type": "Feature", "properties": {"id": "1066766", "CVEGEO": "1502501482549008", "POBTOT": 0.0, "score_nse": 10.0, "NSE": "E", "VIVTOT": 1.0, "GRAPROES": 0.0, "_ent": "15", "_mun": "025", "_loc": "0148"}, "geometry": {"type": "Polygon", "coordinates": [[[-98.83642, 19.26983], [-98.83511, 19.26984], [-98.83515, 19.26836], [-98.83643, 19.26834], [-98.83642, 19.26983]]]}}, {"id": "1066783", "type": "Feature", "properties": {"id": "1066783", "CVEGEO": "1502501482549011", "POBTOT": 652.0, "score_nse": 50.9392, "NSE": "C-", "VIVTOT": 332.0, "GRAPROES": 10.89, "_ent": "15", "_mun": "025", "_loc": "0148"}, "geometry": {"type": "Polygon", "coordinates": [[[-98.83511, 19.26521], [-98.83511, 19.26429], [-98.83585, 19.26414], [-98.83726, 19.26417], [-98.83731, 19.26525], [-98.83715, 19.26525], [-98.83712, 19.26436], [-98.83704, 19.26523], [-98.83676, 19.26523], [-98.83667, 19.26422], [-98.83663, 19.26523], [-98.83633, 19.26524], [-98.83627, 19.26423], [-98.83621, 19.26523], [-98.83596, 19.26523], [-98.83593, 19.26419], [-98.83582, 19.2642], [-98.83584, 19.26524], [-98.83555, 19.26523], [-98.83557, 19.26435], [-98.83542, 19.26436], [-98.83544, 19.26523], [-98.83511, 19.26521]]]}}, {"id": "1066784", "type": "Feature", "properties": {"id": "1066784", "CVEGEO": "1502501482549007", "POBTOT": 369.0, "score_nse": 52.4364, "NSE": "C-", "VIVTOT": 210.0, "GRAPROES": 11.12, "_ent": "15", "_mun": "025", "_loc": "0148"}, "geometry": {"type": "Polygon", "coordinates": [[[-98.83652, 19.26912], [-98.8373, 19.26908], [-98.8365, 19.26904], [-98.83649, 19.26873], [-98.8373, 19.2687], [-98.83651, 19.26867], [-98.83652, 19.26836], [-98.83812, 19.26835], [-98.83819, 19.26863], [-98.83761, 19.26865], [-98.83821, 19.26868], [-98.83825, 19.26899], [-98.83756, 19.26895], [-98.83825, 19.26906], [-98.83813, 19.26977], [-98.83652, 19.26984], [-98.83652, 19.26912]]]}}, {"id": "1066809", "type": "Feature", "properties": {"id": "1066809", "CVEGEO": "1502501482549014", "POBTOT": 0.0, "score_nse": 0.0, "NSE": "ND", "VIVTOT": 0.0, "GRAPROES": 0.0, "_ent": "15", "_mun": "025", "_loc": "0148"}, "geometry": {"type": "Polygon", "coordinates": [[[-98.83297, 19.26706], [-98.83105, 19.26707], [-98.83298, 19.26557], [-98.83297, 19.26706]]]}}, {"id": "1066897", "type": "Feature", "properties": {"id": "1066897", "CVEGEO": "1502501482549013", "POBTOT": 416.0, "score_nse": 49.3072, "NSE": "C-", "VIVTOT": 265.0, "GRAPROES": 11.19, "_ent": "15", "_mun": "025", "_loc": "0148"}, "geometry": {"type": "Polygon", "coordinates": [[[-98.83298, 19.26957], [-98.83187, 19.26956], [-98.83184, 19.26894], [-98.83276, 19.26884], [-98.83187, 19.26884], [-98.83184, 19.26856], [-98.83244, 19.26849], [-98.83186, 19.26847], [-98.83183, 19.26821], [-98.83286, 19.26806], [-98.83185, 19.26809], [-98.83183, 19.26782], [-98.83285, 19.26769], [-98.83183, 19.26769], [-98.83183, 19.26752], [-98.83183, 19.26742], [-98.83285, 19.2673], [-98.83182, 19.26731], [-98.83187, 19.26717], [-98.83299, 19.26717], [-98.833, 19.26831], [-98.83256, 19.26835], [-98.83254, 19.26874], [-98.833, 19.26876], [-98.83298, 19.26957]]]}}, {"id": "1066910", "type": "Feature", "properties": {"id": "1066910", "CVEGEO": "1502501482549002", "POBTOT": 482.0, "score_nse": 48.4432, "NSE": "C-", "VIVTOT": 302.0, "GRAPROES": 10.66, "_ent": "15", "_mun": "025", "_loc": "0148"}, "geometry": {"type": "Polygon", "coordinates": [[[-98.83502, 19.26823], [-98.83309, 19.26824], [-98.83308, 19.26795], [-98.83391, 19.26789], [-98.8331, 19.26786], [-98.83309, 19.26756], [-98.83391, 19.2675], [-98.83311, 19.26748], [-98.83309, 19.26715], [-98.83502, 19.26715], [-98.83503, 19.26746], [-98.83421, 19.26746], [-98.83502, 19.26754], [-98.83501, 19.26783], [-98.83421, 19.26791], [-98.83503, 19.26793], [-98.83502, 19.26823]]]}}, {"id": "1066911", "type": "Feature", "properties": {"id": "1066911", "CVEGEO": "1502501482549010", "POBTOT": 184.0, "score_nse": 0.0, "NSE": "ND", "VIVTOT": 100.0, "GRAPROES": 11.07, "_ent": "15", "_mun": "025", "_loc": "0148"}, "geometry": {"type": "Polygon", "coordinates": [[[-98.8347, 19.26453], [-98.83459, 19.26453], [-98.83462, 19.26526], [-98.83432, 19.26526], [-98.83426, 19.26482], [-98.83421, 19.26526], [-98.83328, 19.26534], [-98.8343, 19.26464], [-98.83502, 19.2643], [-98.83504, 19.26525], [-98.83471, 19.26527], [-98.8347, 19.26453]]]}}, {"id": "1066912", "type": "Feature", "properties": {"id": "1066912", "CVEGEO": "1502501482549015", "POBTOT": 443.0, "score_nse": 44.0609, "NSE": "C-", "VIVTOT": 269.0, "GRAPROES": 10.23, "_ent": "15", "_mun": "025", "_loc": "0148"}, "geometry": {"type": "Polygon", "coordinates": [[[-98.83023, 19.26978], [-98.83065, 19.26834], [-98.83054, 19.26785], [-98.8307, 19.26743], [-98.8311, 19.26713], [-98.83171, 19.26715], [-98.83172, 19.26733], [-98.83092, 19.26739], [-98.83171, 19.26745], [-98.83173, 19.2677], [-98.83072, 19.26775], [-98.83169, 19.26779], [-98.83171, 19.26807], [-98.83072, 19.26808], [-98.83173, 19.26818], [-98.83173, 19.26846], [-98.83072, 19.26849], [-98.83173, 19.26859], [-98.83174, 19.26884], [-98.83062, 19.2689], [-98.83171, 19.26895], [-98.83163, 19.26963], [-98.83023, 19.26978]]]}}, {"id": "1066915", "type": "Feature", "properties": {"id": "1066915", "CVEGEO": "1502501482549009", "POBTOT": 438.0, "score_nse": 51.2838, "NSE": "C-", "VIVTOT": 244.0, "GRAPROES": 10.92, "_ent": "15", "_mun": "025", "_loc": "0148"}, "geometry": {"type": "Polygon", "coordinates": [[[-98.83501, 19.26981], [-98.83315, 19.2696], [-98.83311, 19.26913], [-98.83391, 19.26904], [-98.83311, 19.26904], [-98.83309, 19.26874], [-98.8339, 19.26865], [-98.8331, 19.26864], [-98.8331, 19.26833], [-98.83505, 19.26833], [-98.83506, 19.26863], [-98.8342, 19.2687], [-98.83506, 19.26874], [-98.83506, 19.269], [-98.83422, 19.26906], [-98.83505, 19.26911], [-98.83501, 19.26981]]]}}, {"id": "1066916", "type": "Feature", "properties": {"id": "1066916", "CVEGEO": "1502501482549003", "POBTOT": 765.0, "score_nse": 50.3014, "NSE": "C-", "VIVTOT": 423.0, "GRAPROES": 10.84, "_ent": "15", "_mun": "025", "_loc": "0148"}, "geometry": {"type": "Polygon", "coordinates": [[[-98.83492, 19.26707], [-98.83309, 19.26707], [-98.83308, 19.26679], [-98.83392, 19.26674], [-98.83308, 19.26668], [-98.83308, 19.2664], [-98.8339, 19.26637], [-98.8331, 19.26629], [-98.8331, 19.26601], [-98.8339, 19.26599], [-98.83307, 19.26591], [-98.83312, 19.26561], [-98.83394, 19.26558], [-98.83317, 19.26549], [-98.83502, 19.26535], [-98.83502, 19.26552], [-98.83418, 19.26556], [-98.83502, 19.26562], [-98.835, 19.26589], [-98.8342, 19.26591], [-98.83502, 19.266], [-98.83504, 19.26628], [-98.83418, 19.26634], [-98.83502, 19.26637], [-98.83503, 19.26667], [-98.83419, 19.26671], [-98.83503, 19.26677], [-98.83492, 19.26707]]]}}, {"id": "1067029", "type": "Feature", "properties": {"id": "1067029", "CVEGEO": "1502501482549005", "POBTOT": 0.0, "score_nse": 0.0, "NSE": "ND", "VIVTOT": 0.0, "GRAPROES": 0.0, "_ent": "15", "_mun": "025", "_loc": "0148"}, "geometry": {"type": "Polygon", "coordinates": [[[-98.83718, 19.26536], [-98.83733, 19.26561], [-98.83779, 19.26706], [-98.83714, 19.26707], [-98.83718, 19.26536]]]}}, {"id": "1067066", "type": "Feature", "properties": {"id": "1067066", "CVEGEO": "1502501482549012", "POBTOT": 930.0, "score_nse": 45.3995, "NSE": "C-", "VIVTOT": 661.0, "GRAPROES": 10.9, "_ent": "15", "_mun": "025", "_loc": "0148"}, "geometry": {"type": "Polygon", "coordinates": [[[-98.83737, 19.26417], [-98.83828, 19.26423], [-98.83945, 19.26877], [-98.83881, 19.26978], [-98.83833, 19.26982], [-98.83831, 19.26925], [-98.83899, 19.2692], [-98.83834, 19.26919], [-98.83832, 19.26889], [-98.83921, 19.26878], [-98.83832, 19.2688], [-98.83825, 19.26849], [-98.83925, 19.26844], [-98.83826, 19.26842], [-98.83812, 19.26807], [-98.83812, 19.26779], [-98.83904, 19.26768], [-98.8381, 19.26771], [-98.83798, 19.26742], [-98.83893, 19.26736], [-98.83801, 19.26734], [-98.83788, 19.26721], [-98.83781, 19.26693], [-98.83881, 19.26692], [-98.8378, 19.26685], [-98.83773, 19.26672], [-98.83772, 19.26657], [-98.83873, 19.26653], [-98.83768, 19.26651], [-98.8376, 19.26616], [-98.83868, 19.26603], [-98.83757, 19.26606], [-98.83748, 19.26584], [-98.83861, 19.26576], [-98.83748, 19.26573], [-98.83735, 19.26533], [-98.83762, 19.26539], [-98.83845, 19.26535], [-98.8374, 19.26524], [-98.83736, 19.26496], [-98.83842, 19.26495], [-98.83736, 19.26488], [-98.83735, 19.26467], [-98.83833, 19.26468], [-98.83736, 19.26457], [-98.83737, 19.26417]]]}}, {"id": "1067079", "type": "Feature", "properties": {"id": "1067079", "CVEGEO": "1502501482549006", "POBTOT": 326.0, "score_nse": 49.4553, "NSE": "C-", "VIVTOT": 208.0, "GRAPROES": 11.09, "_ent": "15", "_mun": "025", "_loc": "0148"}, "geometry": {"type": "Polygon", "coordinates": [[[-98.83731, 19.26795], [-98.8365, 19.26792], [-98.83648, 19.26756], [-98.83731, 19.26756], [-98.8365, 19.26747], [-98.83653, 19.26719], [-98.83776, 19.26715], [-98.8379, 19.2675], [-98.83757, 19.26756], [-98.83794, 19.26756], [-98.83804, 19.26783], [-98.83753, 19.26792], [-98.83803, 19.2679], [-98.83811, 19.26824], [-98.83648, 19.26826], [-98.83649, 19.26796], [-98.83731, 19.26795]]]}}]}