{"type": "FeatureCollection", "features": [{"id": "299570", "type": "Feature", "properties": {"id": "299570", "CVEGEO": "070780066001A001", "POBTOT": 0.0, "score_nse": 0.0, "NSE": null, "VIVTOT": 0.0, "GRAPROES": 0.0, "_ent": "07", "_mun": "078", "_loc": "0066"}, "geometry": {"type": "Polygon", "coordinates": [[[-92.58684, 16.74788], [-92.5875, 16.74759], [-92.58684, 16.74915], [-92.58638, 16.74885], [-92.58684, 16.74788]]]}}, {"id": "299571", "type": "Feature", "properties": {"id": "299571", "CVEGEO": "070780066001A002", "POBTOT": 0.0, "score_nse": 0.0, "NSE": null, "VIVTOT": 0.0, "GRAPROES": 0.0, "_ent": "07", "_mun": "078", "_loc": "0066"}, "geometry": {"type": "Polygon", "coordinates": [[[-92.58648, 16.74582], [-92.58546, 16.74498], [-92.58488, 16.74502], [-92.5852, 16.74481], [-92.58596, 16.74473], [-92.5867, 16.7449], [-92.58788, 16.74558], [-92.58793, 16.74639], [-92.58648, 16.74582]]]}}]}