{"type": "FeatureCollection", "features": [{"id": "301169", "type": "Feature", "properties": {"id": "301169", "CVEGEO": "0707801170113004", "POBTOT": 0.0, "score_nse": 0.0, "NSE": null, "VIVTOT": 0.0, "GRAPROES": 0.0, "_ent": "07", "_mun": "078", "_loc": "0117"}, "geometry": {"type": "Polygon", "coordinates": [[[-92.53798, 16.72905], [-92.53786, 16.72924], [-92.53684, 16.72948], [-92.5365, 16.7299], [-92.53631, 16.73062], [-92.53568, 16.73082], [-92.53478, 16.73073], [-92.53486, 16.7297], [-92.53506, 16.72968], [-92.53539, 16.72856], [-92.53745, 16.72868], [-92.53755, 16.72906], [-92.53798, 16.72905]]]}}, {"id": "301962", "type": "Feature", "properties": {"id": "301962", "CVEGEO": "0707801170113001", "POBTOT": 0.0, "score_nse": 0.0, "NSE": null, "VIVTOT": 0.0, "GRAPROES": 0.0, "_ent": "07", "_mun": "078", "_loc": "0117"}, "geometry": {"type": "Polygon", "coordinates": [[[-92.53416, 16.73394], [-92.53474, 16.73251], [-92.53654, 16.73227], [-92.53647, 16.73172], [-92.5357, 16.73086], [-92.53638, 16.73062], [-92.53655, 16.72989], [-92.53692, 16.72947], [-92.53777, 16.72933], [-92.53773, 16.73062], [-92.53877, 16.73218], [-92.53891, 16.73269], [-92.53864, 16.7364], [-92.53752, 16.73634], [-92.5367, 16.73598], [-92.53589, 16.73621], [-92.53574, 16.73587], [-92.53611, 16.73528], [-92.53478, 16.73461], [-92.53416, 16.73394]]]}}, {"id": "301963", "type": "Feature", "properties": {"id": "301963", "CVEGEO": "0707801170113002", "POBTOT": 0.0, "score_nse": 0.0, "NSE": null, "VIVTOT": 0.0, "GRAPROES": 0.0, "_ent": "07", "_mun": "078", "_loc": "0117"}, "geometry": {"type": "Polygon", "coordinates": [[[-92.53616, 16.72712], [-92.53719, 16.72717], [-92.53813, 16.72759], [-92.5389, 16.72726], [-92.54036, 16.72728], [-92.54095, 16.72629], [-92.54113, 16.72621], [-92.54134, 16.72683], [-92.54094, 16.7275], [-92.54093, 16.728], [-92.54058, 16.72749], [-92.53865, 16.72744], [-92.53811, 16.72769], [-92.53717, 16.72723], [-92.53656, 16.72728], [-92.53616, 16.72712]]]}}, {"id": "301964", "type": "Feature", "properties": {"id": "301964", "CVEGEO": "0707801170113003", "POBTOT": 0.0, "score_nse": 0.0, "NSE": null, "VIVTOT": 0.0, "GRAPROES": 0.0, "_ent": "07", "_mun": "078", "_loc": "0117"}, "geometry": {"type": "Polygon", "coordinates": [[[-92.54054, 16.72755], [-92.54062, 16.72836], [-92.54018, 16.72782], [-92.53918, 16.72754], [-92.54054, 16.72755]]]}}, {"id": "301965", "type": "Feature", "properties": {"id": "301965", "CVEGEO": "0707801170113005", "POBTOT": 0.0, "score_nse": 0.0, "NSE": null, "VIVTOT": 0.0, "GRAPROES": 0.0, "_ent": "07", "_mun": "078", "_loc": "0117"}, "geometry": {"type": "Polygon", "coordinates": [[[-92.53863, 16.7275], [-92.53806, 16.72814], [-92.53799, 16.72898], [-92.53762, 16.72906], [-92.53743, 16.72864], [-92.53409, 16.72839], [-92.53457, 16.72684], [-92.53482, 16.72672], [-92.53573, 16.72692], [-92.53627, 16.72728], [-92.53717, 16.72727], [-92.5381, 16.72774], [-92.53863, 16.7275]]]}}]}