{"type": "FeatureCollection", "features": [{"id": "867663", "type": "Feature", "properties": {"id": "867663", "CVEGEO": "1305400120013001", "POBTOT": 0.0, "score_nse": 0.0, "NSE": null, "VIVTOT": 0.0, "GRAPROES": 0.0, "_ent": "13", "_mun": "054", "_loc": "0012"}, "geometry": {"type": "Polygon", "coordinates": [[[-99.008, 20.31441], [-99.00976, 20.31569], [-99.00976, 20.31604], [-99.00911, 20.31702], [-99.0084, 20.3164], [-99.00685, 20.31575], [-99.00756, 20.31512], [-99.0074, 20.31473], [-99.008, 20.31441]]]}}, {"id": "867986", "type": "Feature", "properties": {"id": "867986", "CVEGEO": "1305400120013004", "POBTOT": 0.0, "score_nse": 0.0, "NSE": null, "VIVTOT": 0.0, "GRAPROES": 0.0, "_ent": "13", "_mun": "054", "_loc": "0012"}, "geometry": {"type": "Polygon", "coordinates": [[[-99.00985, 20.31549], [-99.00788, 20.31395], [-99.00804, 20.3137], [-99.00916, 20.31268], [-99.01023, 20.31364], [-99.00959, 20.31385], [-99.01025, 20.31366], [-99.01144, 20.31484], [-99.01089, 20.31514], [-99.01071, 20.31489], [-99.01085, 20.31516], [-99.0102, 20.31552], [-99.00985, 20.31549]]]}}, {"id": "868052", "type": "Feature", "properties": {"id": "868052", "CVEGEO": "1305400120013005", "POBTOT": 0.0, "score_nse": 0.0, "NSE": null, "VIVTOT": 0.0, "GRAPROES": 0.0, "_ent": "13", "_mun": "054", "_loc": "0012"}, "geometry": {"type": "Polygon", "coordinates": [[[-99.01148, 20.31493], [-99.01303, 20.31646], [-99.01272, 20.31664], [-99.01197, 20.31672], [-99.01143, 20.3166], [-99.01029, 20.31585], [-99.01027, 20.31558], [-99.01148, 20.31493]]]}}, {"id": "868053", "type": "Feature", "properties": {"id": "868053", "CVEGEO": "1305400120013003", "POBTOT": 0.0, "score_nse": 0.0, "NSE": null, "VIVTOT": 0.0, "GRAPROES": 0.0, "_ent": "13", "_mun": "054", "_loc": "0012"}, "geometry": {"type": "Polygon", "coordinates": [[[-99.0065, 20.31529], [-99.00736, 20.31387], [-99.00792, 20.3143], [-99.00715, 20.31471], [-99.00674, 20.31526], [-99.00674, 20.31535], [-99.00717, 20.31474], [-99.00732, 20.31475], [-99.00752, 20.3151], [-99.00681, 20.31572], [-99.00648, 20.31562], [-99.0065, 20.31529]]]}}, {"id": "868054", "type": "Feature", "properties": {"id": "868054", "CVEGEO": "1305400120013002", "POBTOT": 0.0, "score_nse": 0.0, "NSE": null, "VIVTOT": 0.0, "GRAPROES": 0.0, "_ent": "13", "_mun": "054", "_loc": "0012"}, "geometry": {"type": "Polygon", "coordinates": [[[-99.0066, 20.31584], [-99.00825, 20.31658], [-99.00888, 20.31711], [-99.0072, 20.31711], [-99.00666, 20.31692], [-99.0066, 20.31584]]]}}]}