{"type": "FeatureCollection", "features": [{"id": "867680", "type": "Feature", "properties": {"id": "867680", "CVEGEO": "1305400310013015", "POBTOT": 0.0, "score_nse": 0.0, "NSE": null, "VIVTOT": 0.0, "GRAPROES": 0.0, "_ent": "13", "_mun": "054", "_loc": "0031"}, "geometry": {"type": "Polygon", "coordinates": [[[-99.02044, 20.29874], [-99.02005, 20.29879], [-99.01778, 20.29677], [-99.0191, 20.29661], [-99.02095, 20.29576], [-99.02215, 20.2978], [-99.02044, 20.29874]]]}}, {"id": "867681", "type": "Feature", "properties": {"id": "867681", "CVEGEO": "1305400310013012", "POBTOT": 0.0, "score_nse": 0.0, "NSE": null, "VIVTOT": 0.0, "GRAPROES": 0.0, "_ent": "13", "_mun": "054", "_loc": "0031"}, "geometry": {"type": "Polygon", "coordinates": [[[-99.01616, 20.28876], [-99.01644, 20.28874], [-99.01686, 20.28938], [-99.01645, 20.28959], [-99.01616, 20.28876]]]}}, {"id": "867756", "type": "Feature", "properties": {"id": "867756", "CVEGEO": "1305400310013011", "POBTOT": 0.0, "score_nse": 0.0, "NSE": null, "VIVTOT": 0.0, "GRAPROES": 0.0, "_ent": "13", "_mun": "054", "_loc": "0031"}, "geometry": {"type": "Polygon", "coordinates": [[[-99.01432, 20.29055], [-99.01407, 20.28925], [-99.01456, 20.28885], [-99.01606, 20.28875], [-99.01647, 20.29014], [-99.01581, 20.29051], [-99.01541, 20.29055], [-99.01475, 20.29041], [-99.01432, 20.29055]]]}}, {"id": "867759", "type": "Feature", "properties": {"id": "867759", "CVEGEO": "1305400310013005", "POBTOT": 0.0, "score_nse": 0.0, "NSE": null, "VIVTOT": 0.0, "GRAPROES": 0.0, "_ent": "13", "_mun": "054", "_loc": "0031"}, "geometry": {"type": "Polygon", "coordinates": [[[-99.01904, 20.29261], [-99.0182, 20.29342], [-99.01742, 20.29322], [-99.01648, 20.28968], [-99.01691, 20.28946], [-99.0187, 20.29204], [-99.01904, 20.29261]]]}}, {"id": "868000", "type": "Feature", "properties": {"id": "868000", "CVEGEO": "1305400310013007", "POBTOT": 0.0, "score_nse": 0.0, "NSE": null, "VIVTOT": 0.0, "GRAPROES": 0.0, "_ent": "13", "_mun": "054", "_loc": "0031"}, "geometry": {"type": "Polygon", "coordinates": [[[-99.02047, 20.29458], [-99.01885, 20.29197], [-99.01885, 20.29048], [-99.02033, 20.29063], [-99.02339, 20.2905], [-99.02507, 20.291], [-99.0252, 20.29251], [-99.02304, 20.2937], [-99.02284, 20.29263], [-99.02273, 20.29266], [-99.02292, 20.29374], [-99.02239, 20.29392], [-99.02209, 20.29272], [-99.02198, 20.29274], [-99.02227, 20.29397], [-99.02047, 20.29458]]]}}, {"id": "868001", "type": "Feature", "properties": {"id": "868001", "CVEGEO": "1305400310013006", "POBTOT": 0.0, "score_nse": 0.0, "NSE": null, "VIVTOT": 0.0, "GRAPROES": 0.0, "_ent": "13", "_mun": "054", "_loc": "0031"}, "geometry": {"type": "Polygon", "coordinates": [[[-99.01744, 20.29007], [-99.01874, 20.29045], [-99.01874, 20.29182], [-99.01744, 20.29007]]]}}, {"id": "868117", "type": "Feature", "properties": {"id": "868117", "CVEGEO": "1305400310013002", "POBTOT": 0.0, "score_nse": 0.0, "NSE": null, "VIVTOT": 0.0, "GRAPROES": 0.0, "_ent": "13", "_mun": "054", "_loc": "0031"}, "geometry": {"type": "Polygon", "coordinates": [[[-99.02036, 20.29475], [-99.02083, 20.29565], [-99.01911, 20.29651], [-99.01774, 20.29669], [-99.01749, 20.29574], [-99.02036, 20.29475]]]}}, {"id": "868126", "type": "Feature", "properties": {"id": "868126", "CVEGEO": "1305400310013010", "POBTOT": 0.0, "score_nse": 0.0, "NSE": null, "VIVTOT": 0.0, "GRAPROES": 0.0, "_ent": "13", "_mun": "054", "_loc": "0031"}, "geometry": {"type": "Polygon", "coordinates": [[[-99.0177, 20.29671], [-99.01639, 20.29634], [-99.01566, 20.29649], [-99.01513, 20.29641], [-99.01443, 20.29593], [-99.01442, 20.29563], [-99.01469, 20.29536], [-99.01501, 20.29534], [-99.01703, 20.29617], [-99.01677, 20.29601], [-99.01745, 20.29577], [-99.01771, 20.29638], [-99.0177, 20.29671]]]}}, {"id": "868127", "type": "Feature", "properties": {"id": "868127", "CVEGEO": "1305400310013003", "POBTOT": 0.0, "score_nse": 0.0, "NSE": null, "VIVTOT": 0.0, "GRAPROES": 0.0, "_ent": "13", "_mun": "054", "_loc": "0031"}, "geometry": {"type": "Polygon", "coordinates": [[[-99.01533, 20.29535], [-99.01687, 20.29368], [-99.01772, 20.29554], [-99.01665, 20.29591], [-99.01533, 20.29535]]]}}, {"id": "868129", "type": "Feature", "properties": {"id": "868129", "CVEGEO": "1305400310013001", "POBTOT": 0.0, "score_nse": 0.0, "NSE": null, "VIVTOT": 0.0, "GRAPROES": 0.0, "_ent": "13", "_mun": "054", "_loc": "0031"}, "geometry": {"type": "Polygon", "coordinates": [[[-99.01695, 20.29362], [-99.01743, 20.29332], [-99.01831, 20.29349], [-99.0191, 20.29269], [-99.02033, 20.29467], [-99.0178, 20.29551], [-99.01695, 20.29362]]]}}]}