{"type": "FeatureCollection", "features": [{"id": "675221", "type": "Feature", "properties": {"id": "675221", "CVEGEO": "1102602670039002", "POBTOT": 0.0, "score_nse": 0.0, "NSE": null, "VIVTOT": 0.0, "GRAPROES": 0.0, "_ent": "11", "_mun": "026", "_loc": "0267"}, "geometry": {"type": "Polygon", "coordinates": [[[-101.53275, 20.90136], [-101.53154, 20.90141], [-101.53152, 20.90106], [-101.53274, 20.901], [-101.53275, 20.90136]]]}}, {"id": "675222", "type": "Feature", "properties": {"id": "675222", "CVEGEO": "1102602670039001", "POBTOT": 0.0, "score_nse": 0.0, "NSE": null, "VIVTOT": 0.0, "GRAPROES": 0.0, "_ent": "11", "_mun": "026", "_loc": "0267"}, "geometry": {"type": "Polygon", "coordinates": [[[-101.5336, 20.90134], [-101.5328, 20.90136], [-101.53277, 20.90061], [-101.53355, 20.90057], [-101.5336, 20.90134]]]}}, {"id": "675223", "type": "Feature", "properties": {"id": "675223", "CVEGEO": "1102602670039008", "POBTOT": 0.0, "score_nse": 0.0, "NSE": null, "VIVTOT": 0.0, "GRAPROES": 0.0, "_ent": "11", "_mun": "026", "_loc": "0267"}, "geometry": {"type": "Polygon", "coordinates": [[[-101.53403, 20.90133], [-101.53364, 20.90134], [-101.53359, 20.90056], [-101.53398, 20.90054], [-101.53403, 20.90133]]]}}, {"id": "675224", "type": "Feature", "properties": {"id": "675224", "CVEGEO": "1102602670039009", "POBTOT": 0.0, "score_nse": 0.0, "NSE": null, "VIVTOT": 0.0, "GRAPROES": 0.0, "_ent": "11", "_mun": "026", "_loc": "0267"}, "geometry": {"type": "Polygon", "coordinates": [[[-101.53445, 20.90131], [-101.53407, 20.90133], [-101.53402, 20.90054], [-101.53441, 20.90052], [-101.53445, 20.90131]]]}}, {"id": "675322", "type": "Feature", "properties": {"id": "675322", "CVEGEO": "1102602670039007", "POBTOT": 0.0, "score_nse": 0.0, "NSE": null, "VIVTOT": 0.0, "GRAPROES": 0.0, "_ent": "11", "_mun": "026", "_loc": "0267"}, "geometry": {"type": "Polygon", "coordinates": [[[-101.53064, 20.90143], [-101.53028, 20.90144], [-101.53024, 20.90069], [-101.5306, 20.90068], [-101.53064, 20.90143]]]}}, {"id": "675692", "type": "Feature", "properties": {"id": "675692", "CVEGEO": "1102602670039006", "POBTOT": 0.0, "score_nse": 0.0, "NSE": null, "VIVTOT": 0.0, "GRAPROES": 0.0, "_ent": "11", "_mun": "026", "_loc": "0267"}, "geometry": {"type": "Polygon", "coordinates": [[[-101.53108, 20.90141], [-101.53068, 20.90143], [-101.53064, 20.90068], [-101.53104, 20.90067], [-101.53108, 20.90141]]]}}, {"id": "675693", "type": "Feature", "properties": {"id": "675693", "CVEGEO": "1102602670039005", "POBTOT": 0.0, "score_nse": 0.0, "NSE": null, "VIVTOT": 0.0, "GRAPROES": 0.0, "_ent": "11", "_mun": "026", "_loc": "0267"}, "geometry": {"type": "Polygon", "coordinates": [[[-101.53149, 20.90141], [-101.53112, 20.90142], [-101.53108, 20.90066], [-101.53144, 20.90065], [-101.53149, 20.90141]]]}}, {"id": "675724", "type": "Feature", "properties": {"id": "675724", "CVEGEO": "1102602670039010", "POBTOT": 0.0, "score_nse": 0.0, "NSE": null, "VIVTOT": 0.0, "GRAPROES": 0.0, "_ent": "11", "_mun": "026", "_loc": "0267"}, "geometry": {"type": "Polygon", "coordinates": [[[-101.53487, 20.90129], [-101.5345, 20.90131], [-101.53446, 20.90052], [-101.53483, 20.9005], [-101.53487, 20.90129]]]}}, {"id": "675843", "type": "Feature", "properties": {"id": "675843", "CVEGEO": "1102602670039013", "POBTOT": 0.0, "score_nse": 0.0, "NSE": null, "VIVTOT": 0.0, "GRAPROES": 0.0, "_ent": "11", "_mun": "026", "_loc": "0267"}, "geometry": {"type": "Polygon", "coordinates": [[[-101.53002, 20.90154], [-101.53, 20.90048], [-101.53017, 20.90048], [-101.5302, 20.90144], [-101.53002, 20.90154]]]}}, {"id": "675844", "type": "Feature", "properties": {"id": "675844", "CVEGEO": "1102602670039012", "POBTOT": 0.0, "score_nse": 0.0, "NSE": null, "VIVTOT": 0.0, "GRAPROES": 0.0, "_ent": "11", "_mun": "026", "_loc": "0267"}, "geometry": {"type": "Polygon", "coordinates": [[[-101.53485, 20.90045], [-101.53024, 20.90063], [-101.53024, 20.90046], [-101.53484, 20.90028], [-101.53485, 20.90045]]]}}, {"id": "675845", "type": "Feature", "properties": {"id": "675845", "CVEGEO": "1102602670039011", "POBTOT": 0.0, "score_nse": 0.0, "NSE": null, "VIVTOT": 0.0, "GRAPROES": 0.0, "_ent": "11", "_mun": "026", "_loc": "0267"}, "geometry": {"type": "Polygon", "coordinates": [[[-101.53474, 20.90155], [-101.53029, 20.90172], [-101.53027, 20.90151], [-101.53473, 20.90135], [-101.53474, 20.90155]]]}}, {"id": "676052", "type": "Feature", "properties": {"id": "676052", "CVEGEO": "1102602670039014", "POBTOT": 0.0, "score_nse": 0.0, "NSE": null, "VIVTOT": 0.0, "GRAPROES": 0.0, "_ent": "11", "_mun": "026", "_loc": "0267"}, "geometry": {"type": "Polygon", "coordinates": [[[-101.53511, 20.90134], [-101.53492, 20.90135], [-101.53489, 20.90051], [-101.53507, 20.90051], [-101.53511, 20.90134]]]}}, {"id": "676363", "type": "Feature", "properties": {"id": "676363", "CVEGEO": "1102602670039003", "POBTOT": 0.0, "score_nse": 0.0, "NSE": null, "VIVTOT": 0.0, "GRAPROES": 0.0, "_ent": "11", "_mun": "026", "_loc": "0267"}, "geometry": {"type": "Polygon", "coordinates": [[[-101.53273, 20.90096], [-101.53152, 20.90103], [-101.5315, 20.90065], [-101.53272, 20.90061], [-101.53273, 20.90096]]]}}]}