{"type": "FeatureCollection", "features": [{"id": "1153118", "type": "Feature", "properties": {"id": "1153118", "CVEGEO": "1508500450165005", "POBTOT": 0.0, "score_nse": 0.0, "NSE": null, "VIVTOT": 0.0, "GRAPROES": 0.0, "_ent": "15", "_mun": "085", "_loc": "0045"}, "geometry": {"type": "Polygon", "coordinates": [[[-99.96349, 19.85299], [-99.96411, 19.85303], [-99.96425, 19.8532], [-99.96334, 19.85322], [-99.96349, 19.85299]]]}}, {"id": "1153173", "type": "Feature", "properties": {"id": "1153173", "CVEGEO": "1508500450165001", "POBTOT": 0.0, "score_nse": 0.0, "NSE": null, "VIVTOT": 0.0, "GRAPROES": 0.0, "_ent": "15", "_mun": "085", "_loc": "0045"}, "geometry": {"type": "Polygon", "coordinates": [[[-99.95771, 19.85191], [-99.9578, 19.85158], [-99.95952, 19.85203], [-99.96034, 19.85241], [-99.96031, 19.85278], [-99.95802, 19.85234], [-99.95782, 19.85225], [-99.95788, 19.85201], [-99.95771, 19.85191]]]}}, {"id": "1153185", "type": "Feature", "properties": {"id": "1153185", "CVEGEO": "1508500450165004", "POBTOT": 0.0, "score_nse": 0.0, "NSE": null, "VIVTOT": 0.0, "GRAPROES": 0.0, "_ent": "15", "_mun": "085", "_loc": "0045"}, "geometry": {"type": "Polygon", "coordinates": [[[-99.96163, 19.85275], [-99.96172, 19.85302], [-99.96121, 19.85293], [-99.96128, 19.85268], [-99.96163, 19.85275]]]}}, {"id": "1153208", "type": "Feature", "properties": {"id": "1153208", "CVEGEO": "1508500450165002", "POBTOT": 0.0, "score_nse": 0.0, "NSE": null, "VIVTOT": 0.0, "GRAPROES": 0.0, "_ent": "15", "_mun": "085", "_loc": "0045"}, "geometry": {"type": "Polygon", "coordinates": [[[-99.9604, 19.8525], [-99.96122, 19.85267], [-99.96115, 19.85292], [-99.96037, 19.85279], [-99.9604, 19.8525]]]}}, {"id": "1153414", "type": "Feature", "properties": {"id": "1153414", "CVEGEO": "1508500450165007", "POBTOT": 0.0, "score_nse": 0.0, "NSE": null, "VIVTOT": 0.0, "GRAPROES": 0.0, "_ent": "15", "_mun": "085", "_loc": "0045"}, "geometry": {"type": "Polygon", "coordinates": [[[-99.95383, 19.85076], [-99.95498, 19.85111], [-99.95495, 19.85127], [-99.9542, 19.85143], [-99.95387, 19.85117], [-99.95383, 19.85076]]]}}, {"id": "1153415", "type": "Feature", "properties": {"id": "1153415", "CVEGEO": "1508500450165006", "POBTOT": 0.0, "score_nse": 0.0, "NSE": null, "VIVTOT": 0.0, "GRAPROES": 0.0, "_ent": "15", "_mun": "085", "_loc": "0045"}, "geometry": {"type": "Polygon", "coordinates": [[[-99.95193, 19.85046], [-99.95116, 19.85039], [-99.95124, 19.85013], [-99.95096, 19.85009], [-99.95097, 19.84995], [-99.95176, 19.85001], [-99.95193, 19.85046]]]}}, {"id": "1153416", "type": "Feature", "properties": {"id": "1153416", "CVEGEO": "1508500450165003", "POBTOT": 0.0, "score_nse": 0.0, "NSE": null, "VIVTOT": 0.0, "GRAPROES": 0.0, "_ent": "15", "_mun": "085", "_loc": "0045"}, "geometry": {"type": "Polygon", "coordinates": [[[-99.95196, 19.85045], [-99.95188, 19.85002], [-99.95234, 19.85004], [-99.95187, 19.84998], [-99.9519, 19.84977], [-99.95325, 19.84978], [-99.95468, 19.85027], [-99.95516, 19.85054], [-99.9552, 19.85075], [-99.95506, 19.85106], [-99.95392, 19.85072], [-99.95396, 19.85052], [-99.95375, 19.85074], [-99.95341, 19.85077], [-99.95338, 19.85061], [-99.95337, 19.85078], [-99.95231, 19.85052], [-99.95233, 19.85036], [-99.95226, 19.85051], [-99.95196, 19.85045]]]}}, {"id": "1153417", "type": "Feature", "properties": {"id": "1153417", "CVEGEO": "1508500450165008", "POBTOT": 0.0, "score_nse": 0.0, "NSE": null, "VIVTOT": 0.0, "GRAPROES": 0.0, "_ent": "15", "_mun": "085", "_loc": "0045"}, "geometry": {"type": "Polygon", "coordinates": [[[-99.95602, 19.85139], [-99.9551, 19.85111], [-99.9552, 19.85079], [-99.95565, 19.85071], [-99.95638, 19.8509], [-99.9561, 19.85109], [-99.95602, 19.85139]]]}}]}