{"type": "FeatureCollection", "features": [{"id": "332533", "type": "Feature", "properties": {"id": "332533", "CVEGEO": "0710604490139002", "POBTOT": 0.0, "score_nse": 0.0, "NSE": null, "VIVTOT": 0.0, "GRAPROES": 0.0, "_ent": "07", "_mun": "106", "_loc": "0449"}, "geometry": {"type": "Polygon", "coordinates": [[[-92.45909, 16.32986], [-92.45958, 16.32994], [-92.45995, 16.33107], [-92.45955, 16.33132], [-92.45909, 16.32986]]]}}, {"id": "332534", "type": "Feature", "properties": {"id": "332534", "CVEGEO": "0710604490139001", "POBTOT": 0.0, "score_nse": 0.0, "NSE": null, "VIVTOT": 0.0, "GRAPROES": 0.0, "_ent": "07", "_mun": "106", "_loc": "0449"}, "geometry": {"type": "Polygon", "coordinates": [[[-92.45963, 16.32994], [-92.45997, 16.32999], [-92.46064, 16.3307], [-92.46, 16.33105], [-92.45963, 16.32994]]]}}, {"id": "332535", "type": "Feature", "properties": {"id": "332535", "CVEGEO": "0710604490139003", "POBTOT": 0.0, "score_nse": 0.0, "NSE": null, "VIVTOT": 0.0, "GRAPROES": 0.0, "_ent": "07", "_mun": "106", "_loc": "0449"}, "geometry": {"type": "Polygon", "coordinates": [[[-92.46019, 16.33016], [-92.46057, 16.32992], [-92.46112, 16.33046], [-92.46068, 16.33068], [-92.46019, 16.33016]]]}}]}