{"type": "FeatureCollection", "features": [{"id": "2295947", "type": "Feature", "properties": {"id": "2295947", "CVEGEO": "3007700050187003", "POBTOT": 0.0, "score_nse": 0.0, "NSE": null, "VIVTOT": 0.0, "GRAPROES": 0.0, "_ent": "30", "_mun": "077", "_loc": "0005"}, "geometry": {"type": "Polygon", "coordinates": [[[-95.44519, 18.21656], [-95.44468, 18.21704], [-95.44428, 18.21671], [-95.4448, 18.21625], [-95.44519, 18.21656]]]}}, {"id": "2295948", "type": "Feature", "properties": {"id": "2295948", "CVEGEO": "3007700050187002", "POBTOT": 0.0, "score_nse": 0.0, "NSE": null, "VIVTOT": 0.0, "GRAPROES": 0.0, "_ent": "30", "_mun": "077", "_loc": "0005"}, "geometry": {"type": "Polygon", "coordinates": [[[-95.44561, 18.21687], [-95.44505, 18.21736], [-95.44472, 18.21708], [-95.44525, 18.21659], [-95.44561, 18.21687]]]}}, {"id": "2295949", "type": "Feature", "properties": {"id": "2295949", "CVEGEO": "3007700050187001", "POBTOT": 0.0, "score_nse": 0.0, "NSE": null, "VIVTOT": 0.0, "GRAPROES": 0.0, "_ent": "30", "_mun": "077", "_loc": "0005"}, "geometry": {"type": "Polygon", "coordinates": [[[-95.446, 18.21715], [-95.44585, 18.21756], [-95.44586, 18.21762], [-95.44603, 18.21717], [-95.44682, 18.21767], [-95.44574, 18.21832], [-95.44512, 18.21738], [-95.44566, 18.2169], [-95.446, 18.21715]]]}}]}