{"type": "FeatureCollection", "features": [{"id": "2295878", "type": "Feature", "properties": {"id": "2295878", "CVEGEO": "3007700630098006", "POBTOT": 0.0, "score_nse": 0.0, "NSE": null, "VIVTOT": 0.0, "GRAPROES": 0.0, "_ent": "30", "_mun": "077", "_loc": "0063"}, "geometry": {"type": "Polygon", "coordinates": [[[-95.71175, 17.93042], [-95.71117, 17.93047], [-95.71132, 17.92939], [-95.71178, 17.92948], [-95.71175, 17.93042]]]}}, {"id": "2295912", "type": "Feature", "properties": {"id": "2295912", "CVEGEO": "3007700630098005", "POBTOT": 0.0, "score_nse": 0.0, "NSE": null, "VIVTOT": 0.0, "GRAPROES": 0.0, "_ent": "30", "_mun": "077", "_loc": "0063"}, "geometry": {"type": "Polygon", "coordinates": [[[-95.71117, 17.92982], [-95.7111, 17.93048], [-95.70973, 17.93014], [-95.70984, 17.92954], [-95.71117, 17.92982]]]}}, {"id": "2296370", "type": "Feature", "properties": {"id": "2296370", "CVEGEO": "3007700630098003", "POBTOT": 0.0, "score_nse": 0.0, "NSE": null, "VIVTOT": 0.0, "GRAPROES": 0.0, "_ent": "30", "_mun": "077", "_loc": "0063"}, "geometry": {"type": "Polygon", "coordinates": [[[-95.71119, 17.92976], [-95.70977, 17.92946], [-95.70967, 17.93013], [-95.70877, 17.92978], [-95.70893, 17.92906], [-95.71125, 17.92937], [-95.71119, 17.92976]]]}}, {"id": "2296371", "type": "Feature", "properties": {"id": "2296371", "CVEGEO": "3007700630098007", "POBTOT": 0.0, "score_nse": 0.0, "NSE": null, "VIVTOT": 0.0, "GRAPROES": 0.0, "_ent": "30", "_mun": "077", "_loc": "0063"}, "geometry": {"type": "Polygon", "coordinates": [[[-95.7072, 17.93005], [-95.70607, 17.93007], [-95.7062, 17.92955], [-95.70724, 17.92965], [-95.7072, 17.93005]]]}}, {"id": "2296372", "type": "Feature", "properties": {"id": "2296372", "CVEGEO": "3007700630098008", "POBTOT": 0.0, "score_nse": 0.0, "NSE": null, "VIVTOT": 0.0, "GRAPROES": 0.0, "_ent": "30", "_mun": "077", "_loc": "0063"}, "geometry": {"type": "Polygon", "coordinates": [[[-95.71232, 17.92958], [-95.71229, 17.93041], [-95.71181, 17.93041], [-95.71184, 17.92948], [-95.71232, 17.92958]]]}}, {"id": "2296388", "type": "Feature", "properties": {"id": "2296388", "CVEGEO": "3007700630098001", "POBTOT": 0.0, "score_nse": 0.0, "NSE": null, "VIVTOT": 0.0, "GRAPROES": 0.0, "_ent": "30", "_mun": "077", "_loc": "0063"}, "geometry": {"type": "Polygon", "coordinates": [[[-95.70597, 17.93006], [-95.70445, 17.93003], [-95.70471, 17.9292], [-95.7061, 17.92952], [-95.70597, 17.93006]]]}}]}