{"type": "FeatureCollection", "features": [{"id": "313495", "type": "Feature", "properties": {"id": "313495", "CVEGEO": "0709400450032011", "POBTOT": 0.0, "score_nse": 0.0, "NSE": null, "VIVTOT": 0.0, "GRAPROES": 0.0, "_ent": "07", "_mun": "094", "_loc": "0045"}, "geometry": {"type": "Polygon", "coordinates": [[[-92.51605, 16.59204], [-92.51624, 16.5913], [-92.51682, 16.5915], [-92.51625, 16.59213], [-92.51605, 16.59204]]]}}, {"id": "313496", "type": "Feature", "properties": {"id": "313496", "CVEGEO": "0709400450032010", "POBTOT": 0.0, "score_nse": 0.0, "NSE": null, "VIVTOT": 0.0, "GRAPROES": 0.0, "_ent": "07", "_mun": "094", "_loc": "0045"}, "geometry": {"type": "Polygon", "coordinates": [[[-92.51769, 16.59016], [-92.51828, 16.59042], [-92.51723, 16.59156], [-92.51662, 16.59136], [-92.51769, 16.59016]]]}}, {"id": "313544", "type": "Feature", "properties": {"id": "313544", "CVEGEO": "0709400450032009", "POBTOT": 0.0, "score_nse": 0.0, "NSE": null, "VIVTOT": 0.0, "GRAPROES": 0.0, "_ent": "07", "_mun": "094", "_loc": "0045"}, "geometry": {"type": "Polygon", "coordinates": [[[-92.51687, 16.59152], [-92.51718, 16.59161], [-92.51657, 16.59226], [-92.5163, 16.59215], [-92.51687, 16.59152]]]}}, {"id": "313545", "type": "Feature", "properties": {"id": "313545", "CVEGEO": "0709400450032008", "POBTOT": 0.0, "score_nse": 0.0, "NSE": null, "VIVTOT": 0.0, "GRAPROES": 0.0, "_ent": "07", "_mun": "094", "_loc": "0045"}, "geometry": {"type": "Polygon", "coordinates": [[[-92.51726, 16.59163], [-92.51803, 16.59207], [-92.5175, 16.59266], [-92.51664, 16.5923], [-92.51726, 16.59163]]]}}, {"id": "313570", "type": "Feature", "properties": {"id": "313570", "CVEGEO": "0709400450032005", "POBTOT": 0.0, "score_nse": 0.0, "NSE": null, "VIVTOT": 0.0, "GRAPROES": 0.0, "_ent": "07", "_mun": "094", "_loc": "0045"}, "geometry": {"type": "Polygon", "coordinates": [[[-92.51982, 16.59217], [-92.52048, 16.59283], [-92.52016, 16.59312], [-92.52003, 16.593], [-92.52009, 16.59318], [-92.51972, 16.59351], [-92.51934, 16.59311], [-92.51954, 16.5929], [-92.5193, 16.59306], [-92.51914, 16.59288], [-92.51982, 16.59217]]]}}, {"id": "313606", "type": "Feature", "properties": {"id": "313606", "CVEGEO": "0709400450032006", "POBTOT": 0.0, "score_nse": 0.0, "NSE": null, "VIVTOT": 0.0, "GRAPROES": 0.0, "_ent": "07", "_mun": "094", "_loc": "0045"}, "geometry": {"type": "Polygon", "coordinates": [[[-92.51882, 16.59322], [-92.51909, 16.59293], [-92.51967, 16.59356], [-92.51961, 16.59361], [-92.51882, 16.59322]]]}}, {"id": "313607", "type": "Feature", "properties": {"id": "313607", "CVEGEO": "0709400450032004", "POBTOT": 0.0, "score_nse": 0.0, "NSE": null, "VIVTOT": 0.0, "GRAPROES": 0.0, "_ent": "07", "_mun": "094", "_loc": "0045"}, "geometry": {"type": "Polygon", "coordinates": [[[-92.51907, 16.59103], [-92.52052, 16.5894], [-92.52146, 16.59013], [-92.51976, 16.59201], [-92.51907, 16.59103]]]}}, {"id": "313608", "type": "Feature", "properties": {"id": "313608", "CVEGEO": "0709400450032003", "POBTOT": 0.0, "score_nse": 0.0, "NSE": null, "VIVTOT": 0.0, "GRAPROES": 0.0, "_ent": "07", "_mun": "094", "_loc": "0045"}, "geometry": {"type": "Polygon", "coordinates": [[[-92.51969, 16.58903], [-92.52043, 16.58937], [-92.51901, 16.59097], [-92.51839, 16.59043], [-92.51969, 16.58903]]]}}, {"id": "313635", "type": "Feature", "properties": {"id": "313635", "CVEGEO": "0709400450032012", "POBTOT": 0.0, "score_nse": 0.0, "NSE": null, "VIVTOT": 0.0, "GRAPROES": 0.0, "_ent": "07", "_mun": "094", "_loc": "0045"}, "geometry": {"type": "Polygon", "coordinates": [[[-92.51899, 16.58873], [-92.51961, 16.589], [-92.51831, 16.59039], [-92.51773, 16.59012], [-92.51899, 16.58873]]]}}, {"id": "313901", "type": "Feature", "properties": {"id": "313901", "CVEGEO": "0709400450032007", "POBTOT": 0.0, "score_nse": 0.0, "NSE": null, "VIVTOT": 0.0, "GRAPROES": 0.0, "_ent": "07", "_mun": "094", "_loc": "0045"}, "geometry": {"type": "Polygon", "coordinates": [[[-92.51812, 16.59208], [-92.51863, 16.59219], [-92.51901, 16.59285], [-92.51872, 16.59318], [-92.51758, 16.5927], [-92.51812, 16.59208]]]}}, {"id": "313918", "type": "Feature", "properties": {"id": "313918", "CVEGEO": "0709400450032002", "POBTOT": 0.0, "score_nse": 0.0, "NSE": null, "VIVTOT": 0.0, "GRAPROES": 0.0, "_ent": "07", "_mun": "094", "_loc": "0045"}, "geometry": {"type": "Polygon", "coordinates": [[[-92.51835, 16.59046], [-92.51897, 16.59101], [-92.51808, 16.59201], [-92.51762, 16.59186], [-92.51731, 16.59158], [-92.51835, 16.59046]]]}}, {"id": "313919", "type": "Feature", "properties": {"id": "313919", "CVEGEO": "0709400450032001", "POBTOT": 0.0, "score_nse": 0.0, "NSE": null, "VIVTOT": 0.0, "GRAPROES": 0.0, "_ent": "07", "_mun": "094", "_loc": "0045"}, "geometry": {"type": "Polygon", "coordinates": [[[-92.51904, 16.59107], [-92.51973, 16.59205], [-92.51905, 16.5928], [-92.51867, 16.59213], [-92.51817, 16.59203], [-92.51904, 16.59107]]]}}]}