{"type": "FeatureCollection", "features": [{"id": "2407177", "type": "Feature", "properties": {"id": "2407177", "CVEGEO": "3020201060045002", "POBTOT": 0.0, "score_nse": 0.0, "NSE": null, "VIVTOT": 0.0, "GRAPROES": 0.0, "_ent": "30", "_mun": "202", "_loc": "0106"}, "geometry": {"type": "Polygon", "coordinates": [[[-98.28438, 20.69204], [-98.28491, 20.69259], [-98.28621, 20.69321], [-98.28663, 20.6946], [-98.28648, 20.69517], [-98.2859, 20.69443], [-98.2856, 20.69442], [-98.28514, 20.69407], [-98.28522, 20.69343], [-98.28479, 20.69365], [-98.28442, 20.69358], [-98.28389, 20.69287], [-98.28314, 20.69237], [-98.28343, 20.6919], [-98.28438, 20.69204]]]}}, {"id": "2407179", "type": "Feature", "properties": {"id": "2407179", "CVEGEO": "3020201060045001", "POBTOT": 0.0, "score_nse": 0.0, "NSE": null, "VIVTOT": 0.0, "GRAPROES": 0.0, "_ent": "30", "_mun": "202", "_loc": "0106"}, "geometry": {"type": "Polygon", "coordinates": [[[-98.28449, 20.69204], [-98.28583, 20.69193], [-98.28665, 20.69154], [-98.28776, 20.69346], [-98.2871, 20.69392], [-98.28675, 20.69443], [-98.28645, 20.69403], [-98.28624, 20.69316], [-98.28494, 20.69251], [-98.28449, 20.69204]]]}}]}