{"type": "FeatureCollection", "features": [{"id": "939928", "type": "Feature", "properties": {"id": "939928", "CVEGEO": "1404100070058004", "POBTOT": 0.0, "score_nse": 0.0, "NSE": null, "VIVTOT": 0.0, "GRAPROES": 0.0, "_ent": "14", "_mun": "041", "_loc": "0007"}, "geometry": {"type": "Polygon", "coordinates": [[[-103.16062, 22.29537], [-103.16053, 22.29575], [-103.1601, 22.29594], [-103.1598, 22.29586], [-103.16023, 22.29532], [-103.16062, 22.29537]]]}}, {"id": "939959", "type": "Feature", "properties": {"id": "939959", "CVEGEO": "1404100070058016", "POBTOT": 0.0, "score_nse": 0.0, "NSE": null, "VIVTOT": 0.0, "GRAPROES": 0.0, "_ent": "14", "_mun": "041", "_loc": "0007"}, "geometry": {"type": "Polygon", "coordinates": [[[-103.15584, 22.29275], [-103.15515, 22.2924], [-103.15644, 22.2908], [-103.15665, 22.29094], [-103.15584, 22.29275]]]}}, {"id": "939960", "type": "Feature", "properties": {"id": "939960", "CVEGEO": "1404100070058015", "POBTOT": 0.0, "score_nse": 0.0, "NSE": null, "VIVTOT": 0.0, "GRAPROES": 0.0, "_ent": "14", "_mun": "041", "_loc": "0007"}, "geometry": {"type": "Polygon", "coordinates": [[[-103.16062, 22.29395], [-103.16119, 22.29417], [-103.16156, 22.29463], [-103.16054, 22.29428], [-103.16062, 22.29395]]]}}, {"id": "940033", "type": "Feature", "properties": {"id": "940033", "CVEGEO": "1404100070058014", "POBTOT": 0.0, "score_nse": 0.0, "NSE": null, "VIVTOT": 0.0, "GRAPROES": 0.0, "_ent": "14", "_mun": "041", "_loc": "0007"}, "geometry": {"type": "Polygon", "coordinates": [[[-103.16306, 22.29566], [-103.16214, 22.29525], [-103.16182, 22.29465], [-103.1611, 22.29404], [-103.16075, 22.29393], [-103.16065, 22.29333], [-103.1609, 22.29266], [-103.16187, 22.29255], [-103.16252, 22.29278], [-103.16214, 22.29333], [-103.16226, 22.29478], [-103.16298, 22.29478], [-103.16306, 22.29566]]]}}, {"id": "940034", "type": "Feature", "properties": {"id": "940034", "CVEGEO": "1404100070058013", "POBTOT": 0.0, "score_nse": 0.0, "NSE": null, "VIVTOT": 0.0, "GRAPROES": 0.0, "_ent": "14", "_mun": "041", "_loc": "0007"}, "geometry": {"type": "Polygon", "coordinates": [[[-103.1602, 22.29355], [-103.15999, 22.29381], [-103.1599, 22.29362], [-103.16049, 22.29261], [-103.16085, 22.29263], [-103.16061, 22.29322], [-103.1606, 22.29373], [-103.1602, 22.29355]]]}}, {"id": "940035", "type": "Feature", "properties": {"id": "940035", "CVEGEO": "1404100070058011", "POBTOT": 0.0, "score_nse": 0.0, "NSE": null, "VIVTOT": 0.0, "GRAPROES": 0.0, "_ent": "14", "_mun": "041", "_loc": "0007"}, "geometry": {"type": "Polygon", "coordinates": [[[-103.16055, 22.29434], [-103.161, 22.2946], [-103.16179, 22.29477], [-103.16206, 22.29527], [-103.16065, 22.29523], [-103.16055, 22.29434]]]}}, {"id": "940047", "type": "Feature", "properties": {"id": "940047", "CVEGEO": "1404100070058007", "POBTOT": 0.0, "score_nse": 0.0, "NSE": null, "VIVTOT": 0.0, "GRAPROES": 0.0, "_ent": "14", "_mun": "041", "_loc": "0007"}, "geometry": {"type": "Polygon", "coordinates": [[[-103.15597, 22.29468], [-103.15827, 22.29525], [-103.15842, 22.29514], [-103.15952, 22.29567], [-103.15894, 22.29605], [-103.15733, 22.2957], [-103.15713, 22.29563], [-103.15704, 22.29535], [-103.15587, 22.29501], [-103.15597, 22.29468]]]}}, {"id": "940110", "type": "Feature", "properties": {"id": "940110", "CVEGEO": "1404100070058005", "POBTOT": 0.0, "score_nse": 0.0, "NSE": null, "VIVTOT": 0.0, "GRAPROES": 0.0, "_ent": "14", "_mun": "041", "_loc": "0007"}, "geometry": {"type": "Polygon", "coordinates": [[[-103.16211, 22.29533], [-103.16203, 22.29583], [-103.16133, 22.29558], [-103.16068, 22.29567], [-103.16066, 22.2953], [-103.16211, 22.29533]]]}}, {"id": "940135", "type": "Feature", "properties": {"id": "940135", "CVEGEO": "1404100070058008", "POBTOT": 0.0, "score_nse": 0.0, "NSE": null, "VIVTOT": 0.0, "GRAPROES": 0.0, "_ent": "14", "_mun": "041", "_loc": "0007"}, "geometry": {"type": "Polygon", "coordinates": [[[-103.15835, 22.29511], [-103.156, 22.29461], [-103.1562, 22.29384], [-103.15859, 22.29449], [-103.15835, 22.29511]]]}}, {"id": "940136", "type": "Feature", "properties": {"id": "940136", "CVEGEO": "1404100070058010", "POBTOT": 0.0, "score_nse": 0.0, "NSE": null, "VIVTOT": 0.0, "GRAPROES": 0.0, "_ent": "14", "_mun": "041", "_loc": "0007"}, "geometry": {"type": "Polygon", "coordinates": [[[-103.16047, 22.29419], [-103.16056, 22.29522], [-103.16022, 22.29523], [-103.16, 22.29389], [-103.16023, 22.29364], [-103.16058, 22.2938], [-103.16047, 22.29419]]]}}, {"id": "940185", "type": "Feature", "properties": {"id": "940185", "CVEGEO": "1404100070058003", "POBTOT": 0.0, "score_nse": 0.0, "NSE": null, "VIVTOT": 0.0, "GRAPROES": 0.0, "_ent": "14", "_mun": "041", "_loc": "0007"}, "geometry": {"type": "Polygon", "coordinates": [[[-103.15939, 22.29609], [-103.15973, 22.29592], [-103.1598, 22.29597], [-103.15973, 22.29626], [-103.15939, 22.29609]]]}}, {"id": "940186", "type": "Feature", "properties": {"id": "940186", "CVEGEO": "1404100070058006", "POBTOT": 0.0, "score_nse": 0.0, "NSE": null, "VIVTOT": 0.0, "GRAPROES": 0.0, "_ent": "14", "_mun": "041", "_loc": "0007"}, "geometry": {"type": "Polygon", "coordinates": [[[-103.16472, 22.29708], [-103.16406, 22.29718], [-103.16336, 22.29698], [-103.16312, 22.29672], [-103.16191, 22.29643], [-103.16217, 22.29533], [-103.16287, 22.29573], [-103.16486, 22.29614], [-103.16472, 22.29708]]]}}, {"id": "940221", "type": "Feature", "properties": {"id": "940221", "CVEGEO": "1404100070058012", "POBTOT": 0.0, "score_nse": 0.0, "NSE": null, "VIVTOT": 0.0, "GRAPROES": 0.0, "_ent": "14", "_mun": "041", "_loc": "0007"}, "geometry": {"type": "Polygon", "coordinates": [[[-103.15969, 22.29382], [-103.15869, 22.29446], [-103.1562, 22.29378], [-103.15582, 22.29296], [-103.15606, 22.29249], [-103.15658, 22.29246], [-103.15609, 22.29243], [-103.15671, 22.29108], [-103.15787, 22.29179], [-103.15755, 22.29234], [-103.15783, 22.29248], [-103.157, 22.293], [-103.15832, 22.29293], [-103.15874, 22.29388], [-103.15913, 22.29393], [-103.15964, 22.29368], [-103.15969, 22.29382]]]}}, {"id": "940222", "type": "Feature", "properties": {"id": "940222", "CVEGEO": "1404100070058009", "POBTOT": 0.0, "score_nse": 0.0, "NSE": null, "VIVTOT": 0.0, "GRAPROES": 0.0, "_ent": "14", "_mun": "041", "_loc": "0007"}, "geometry": {"type": "Polygon", "coordinates": [[[-103.15867, 22.29454], [-103.15971, 22.29389], [-103.15999, 22.29471], [-103.15995, 22.29538], [-103.15958, 22.29564], [-103.15844, 22.2951], [-103.15854, 22.29484], [-103.15891, 22.29496], [-103.15856, 22.29479], [-103.15867, 22.29454]]]}}, {"id": "940223", "type": "Feature", "properties": {"id": "940223", "CVEGEO": "1404100070058001", "POBTOT": 0.0, "score_nse": 0.0, "NSE": null, "VIVTOT": 0.0, "GRAPROES": 0.0, "_ent": "14", "_mun": "041", "_loc": "0007"}, "geometry": {"type": "Polygon", "coordinates": [[[-103.16178, 22.2961], [-103.16182, 22.29642], [-103.16066, 22.29616], [-103.16068, 22.29578], [-103.1613, 22.29563], [-103.16129, 22.29585], [-103.16139, 22.29566], [-103.16202, 22.29587], [-103.1619, 22.29614], [-103.16178, 22.2961]]]}}, {"id": "940253", "type": "Feature", "properties": {"id": "940253", "CVEGEO": "1404100070058002", "POBTOT": 0.0, "score_nse": 0.0, "NSE": null, "VIVTOT": 0.0, "GRAPROES": 0.0, "_ent": "14", "_mun": "041", "_loc": "0007"}, "geometry": {"type": "Polygon", "coordinates": [[[-103.1606, 22.29579], [-103.16058, 22.29614], [-103.16023, 22.29606], [-103.16046, 22.29592], [-103.1606, 22.29579]]]}}]}