{"type": "FeatureCollection", "features": [{"id": "1601099", "type": "Feature", "properties": {"id": "1601099", "CVEGEO": "2007900290116005", "POBTOT": 0.0, "score_nse": 0.0, "NSE": null, "VIVTOT": 0.0, "GRAPROES": 0.0, "_ent": "20", "_mun": "079", "_loc": "0029"}, "geometry": {"type": "Polygon", "coordinates": [[[-95.22128, 16.22342], [-95.22082, 16.22336], [-95.22093, 16.22284], [-95.22145, 16.22287], [-95.22128, 16.22342]]]}}, {"id": "1601100", "type": "Feature", "properties": {"id": "1601100", "CVEGEO": "2007900290116003", "POBTOT": 0.0, "score_nse": 0.0, "NSE": null, "VIVTOT": 0.0, "GRAPROES": 0.0, "_ent": "20", "_mun": "079", "_loc": "0029"}, "geometry": {"type": "Polygon", "coordinates": [[[-95.22098, 16.22463], [-95.22133, 16.22349], [-95.22178, 16.22357], [-95.2214, 16.22483], [-95.22098, 16.22463]]]}}, {"id": "1601101", "type": "Feature", "properties": {"id": "1601101", "CVEGEO": "2007900290116004", "POBTOT": 0.0, "score_nse": 0.0, "NSE": null, "VIVTOT": 0.0, "GRAPROES": 0.0, "_ent": "20", "_mun": "079", "_loc": "0029"}, "geometry": {"type": "Polygon", "coordinates": [[[-95.21937, 16.22386], [-95.21927, 16.22333], [-95.21964, 16.22331], [-95.21966, 16.22386], [-95.21937, 16.22386]]]}}, {"id": "1601153", "type": "Feature", "properties": {"id": "1601153", "CVEGEO": "2007900290116001", "POBTOT": 0.0, "score_nse": 0.0, "NSE": null, "VIVTOT": 0.0, "GRAPROES": 0.0, "_ent": "20", "_mun": "079", "_loc": "0029"}, "geometry": {"type": "Polygon", "coordinates": [[[-95.22032, 16.22338], [-95.22126, 16.22349], [-95.22093, 16.22459], [-95.2203, 16.2241], [-95.22032, 16.22338]]]}}, {"id": "1601565", "type": "Feature", "properties": {"id": "1601565", "CVEGEO": "2007900290116002", "POBTOT": 0.0, "score_nse": 0.0, "NSE": null, "VIVTOT": 0.0, "GRAPROES": 0.0, "_ent": "20", "_mun": "079", "_loc": "0029"}, "geometry": {"type": "Polygon", "coordinates": [[[-95.22077, 16.22339], [-95.22029, 16.22334], [-95.22026, 16.22409], [-95.21976, 16.22389], [-95.2197, 16.2234], [-95.21992, 16.22302], [-95.22081, 16.22286], [-95.22077, 16.22339]]]}}, {"id": "1601566", "type": "Feature", "properties": {"id": "1601566", "CVEGEO": "2007900290116006", "POBTOT": 0.0, "score_nse": 0.0, "NSE": null, "VIVTOT": 0.0, "GRAPROES": 0.0, "_ent": "20", "_mun": "079", "_loc": "0029"}, "geometry": {"type": "Polygon", "coordinates": [[[-95.22189, 16.22494], [-95.22152, 16.22488], [-95.22186, 16.22357], [-95.22221, 16.22378], [-95.22189, 16.22494]]]}}, {"id": "1601567", "type": "Feature", "properties": {"id": "1601567", "CVEGEO": "2007900290116007", "POBTOT": 0.0, "score_nse": 0.0, "NSE": null, "VIVTOT": 0.0, "GRAPROES": 0.0, "_ent": "20", "_mun": "079", "_loc": "0029"}, "geometry": {"type": "Polygon", "coordinates": [[[-95.22265, 16.22512], [-95.22237, 16.22501], [-95.22252, 16.22431], [-95.22233, 16.225], [-95.22196, 16.22494], [-95.22227, 16.22379], [-95.2221, 16.22355], [-95.22285, 16.22361], [-95.22265, 16.22512]]]}}]}