{"type": "FeatureCollection", "features": [{"id": "2379478", "type": "Feature", "properties": {"id": "2379478", "CVEGEO": "3017300270111001", "POBTOT": 0.0, "score_nse": 0.0, "NSE": null, "VIVTOT": 0.0, "GRAPROES": 0.0, "_ent": "30", "_mun": "173", "_loc": "0027"}, "geometry": {"type": "Polygon", "coordinates": [[[-96.73641, 18.4457], [-96.73577, 18.44602], [-96.7354, 18.44534], [-96.73604, 18.44502], [-96.73641, 18.4457]]]}}, {"id": "2379479", "type": "Feature", "properties": {"id": "2379479", "CVEGEO": "3017300270111002", "POBTOT": 0.0, "score_nse": 0.0, "NSE": null, "VIVTOT": 0.0, "GRAPROES": 0.0, "_ent": "30", "_mun": "173", "_loc": "0027"}, "geometry": {"type": "Polygon", "coordinates": [[[-96.73566, 18.44607], [-96.73491, 18.44644], [-96.73483, 18.44564], [-96.73531, 18.44541], [-96.73566, 18.44607]]]}}, {"id": "2379480", "type": "Feature", "properties": {"id": "2379480", "CVEGEO": "3017300270111003", "POBTOT": 0.0, "score_nse": 0.0, "NSE": null, "VIVTOT": 0.0, "GRAPROES": 0.0, "_ent": "30", "_mun": "173", "_loc": "0027"}, "geometry": {"type": "Polygon", "coordinates": [[[-96.73522, 18.44529], [-96.73481, 18.4455], [-96.73467, 18.44465], [-96.73484, 18.44458], [-96.73522, 18.44529]]]}}, {"id": "2379481", "type": "Feature", "properties": {"id": "2379481", "CVEGEO": "3017300270111004", "POBTOT": 0.0, "score_nse": 0.0, "NSE": null, "VIVTOT": 0.0, "GRAPROES": 0.0, "_ent": "30", "_mun": "173", "_loc": "0027"}, "geometry": {"type": "Polygon", "coordinates": [[[-96.73597, 18.4449], [-96.73533, 18.44522], [-96.73496, 18.44455], [-96.73559, 18.44421], [-96.73597, 18.4449]]]}}, {"id": "2379482", "type": "Feature", "properties": {"id": "2379482", "CVEGEO": "3017300270111005", "POBTOT": 0.0, "score_nse": 0.0, "NSE": null, "VIVTOT": 0.0, "GRAPROES": 0.0, "_ent": "30", "_mun": "173", "_loc": "0027"}, "geometry": {"type": "Polygon", "coordinates": [[[-96.73673, 18.4445], [-96.73608, 18.44484], [-96.7357, 18.44417], [-96.73635, 18.44383], [-96.73673, 18.4445]]]}}, {"id": "2379483", "type": "Feature", "properties": {"id": "2379483", "CVEGEO": "3017300270111008", "POBTOT": 0.0, "score_nse": 0.0, "NSE": null, "VIVTOT": 0.0, "GRAPROES": 0.0, "_ent": "30", "_mun": "173", "_loc": "0027"}, "geometry": {"type": "Polygon", "coordinates": [[[-96.73682, 18.44651], [-96.73617, 18.44682], [-96.73582, 18.44614], [-96.73647, 18.44582], [-96.73682, 18.44651]]]}}, {"id": "2379484", "type": "Feature", "properties": {"id": "2379484", "CVEGEO": "3017300270111006", "POBTOT": 0.0, "score_nse": 0.0, "NSE": null, "VIVTOT": 0.0, "GRAPROES": 0.0, "_ent": "30", "_mun": "173", "_loc": "0027"}, "geometry": {"type": "Polygon", "coordinates": [[[-96.73719, 18.44531], [-96.73651, 18.44565], [-96.73614, 18.44496], [-96.7368, 18.44462], [-96.73719, 18.44531]]]}}, {"id": "2379485", "type": "Feature", "properties": {"id": "2379485", "CVEGEO": "3017300270111011", "POBTOT": 0.0, "score_nse": 0.0, "NSE": null, "VIVTOT": 0.0, "GRAPROES": 0.0, "_ent": "30", "_mun": "173", "_loc": "0027"}, "geometry": {"type": "Polygon", "coordinates": [[[-96.73628, 18.44371], [-96.73563, 18.44404], [-96.73524, 18.44334], [-96.73588, 18.44301], [-96.73628, 18.44371]]]}}, {"id": "2379486", "type": "Feature", "properties": {"id": "2379486", "CVEGEO": "3017300270111012", "POBTOT": 0.0, "score_nse": 0.0, "NSE": null, "VIVTOT": 0.0, "GRAPROES": 0.0, "_ent": "30", "_mun": "173", "_loc": "0027"}, "geometry": {"type": "Polygon", "coordinates": [[[-96.73749, 18.44412], [-96.73683, 18.44445], [-96.73646, 18.44377], [-96.73711, 18.44344], [-96.73749, 18.44412]]]}}, {"id": "2379487", "type": "Feature", "properties": {"id": "2379487", "CVEGEO": "3017300270111007", "POBTOT": 0.0, "score_nse": 0.0, "NSE": null, "VIVTOT": 0.0, "GRAPROES": 0.0, "_ent": "30", "_mun": "173", "_loc": "0027"}, "geometry": {"type": "Polygon", "coordinates": [[[-96.73762, 18.44612], [-96.73695, 18.44647], [-96.73658, 18.44575], [-96.73723, 18.44541], [-96.73762, 18.44612]]]}}, {"id": "2379488", "type": "Feature", "properties": {"id": "2379488", "CVEGEO": "3017300270111009", "POBTOT": 0.0, "score_nse": 0.0, "NSE": null, "VIVTOT": 0.0, "GRAPROES": 0.0, "_ent": "30", "_mun": "173", "_loc": "0027"}, "geometry": {"type": "Polygon", "coordinates": [[[-96.73523, 18.44642], [-96.73559, 18.44712], [-96.73498, 18.44741], [-96.73492, 18.44657], [-96.73523, 18.44642]]]}}, {"id": "2379489", "type": "Feature", "properties": {"id": "2379489", "CVEGEO": "3017300270111010", "POBTOT": 0.0, "score_nse": 0.0, "NSE": null, "VIVTOT": 0.0, "GRAPROES": 0.0, "_ent": "30", "_mun": "173", "_loc": "0027"}, "geometry": {"type": "Polygon", "coordinates": [[[-96.73551, 18.44412], [-96.73468, 18.44455], [-96.73459, 18.44363], [-96.73492, 18.44291], [-96.73551, 18.44412]]]}}, {"id": "2379490", "type": "Feature", "properties": {"id": "2379490", "CVEGEO": "3017300270111013", "POBTOT": 0.0, "score_nse": 0.0, "NSE": null, "VIVTOT": 0.0, "GRAPROES": 0.0, "_ent": "30", "_mun": "173", "_loc": "0027"}, "geometry": {"type": "Polygon", "coordinates": [[[-96.73729, 18.44524], [-96.73691, 18.44457], [-96.73755, 18.44424], [-96.73775, 18.44463], [-96.73761, 18.44499], [-96.73729, 18.44524]]]}}]}