{"type": "FeatureCollection", "features": [{"id": "1881135", "type": "Feature", "properties": {"id": "1881135", "CVEGEO": "2404301040018001", "POBTOT": 0.0, "score_nse": 0.0, "NSE": null, "VIVTOT": 0.0, "GRAPROES": 0.0, "_ent": "24", "_mun": "043", "_loc": "0104"}, "geometry": {"type": "Polygon", "coordinates": [[[-100.61235, 21.70679], [-100.61171, 21.70548], [-100.61165, 21.70476], [-100.61236, 21.70459], [-100.61247, 21.70678], [-100.61235, 21.70679]]]}}, {"id": "1881136", "type": "Feature", "properties": {"id": "1881136", "CVEGEO": "2404301040018002", "POBTOT": 0.0, "score_nse": 0.0, "NSE": null, "VIVTOT": 0.0, "GRAPROES": 0.0, "_ent": "24", "_mun": "043", "_loc": "0104"}, "geometry": {"type": "Polygon", "coordinates": [[[-100.61034, 21.70318], [-100.61181, 21.70168], [-100.61292, 21.70204], [-100.61254, 21.70394], [-100.61034, 21.70318]]]}}, {"id": "1881137", "type": "Feature", "properties": {"id": "1881137", "CVEGEO": "2404301040018004", "POBTOT": 0.0, "score_nse": 0.0, "NSE": null, "VIVTOT": 0.0, "GRAPROES": 0.0, "_ent": "24", "_mun": "043", "_loc": "0104"}, "geometry": {"type": "Polygon", "coordinates": [[[-100.61297, 21.70198], [-100.61192, 21.70162], [-100.61303, 21.70036], [-100.61356, 21.6989], [-100.61362, 21.69824], [-100.61382, 21.69826], [-100.61422, 21.69853], [-100.61403, 21.69904], [-100.61449, 21.70072], [-100.61297, 21.70198]]]}}, {"id": "1881138", "type": "Feature", "properties": {"id": "1881138", "CVEGEO": "2404301040018005", "POBTOT": 0.0, "score_nse": 0.0, "NSE": null, "VIVTOT": 0.0, "GRAPROES": 0.0, "_ent": "24", "_mun": "043", "_loc": "0104"}, "geometry": {"type": "Polygon", "coordinates": [[[-100.61455, 21.69801], [-100.6141, 21.69753], [-100.61454, 21.69705], [-100.61522, 21.69743], [-100.61455, 21.69801]]]}}, {"id": "1881183", "type": "Feature", "properties": {"id": "1881183", "CVEGEO": "2404301040018006", "POBTOT": 0.0, "score_nse": 0.0, "NSE": null, "VIVTOT": 0.0, "GRAPROES": 0.0, "_ent": "24", "_mun": "043", "_loc": "0104"}, "geometry": {"type": "Polygon", "coordinates": [[[-100.61337, 21.69383], [-100.61253, 21.69423], [-100.61231, 21.695], [-100.61175, 21.69499], [-100.61158, 21.69429], [-100.61134, 21.69419], [-100.61144, 21.6937], [-100.6113, 21.69352], [-100.61178, 21.69295], [-100.61316, 21.69241], [-100.61337, 21.69383]]]}}, {"id": "1881184", "type": "Feature", "properties": {"id": "1881184", "CVEGEO": "2404301040018003", "POBTOT": 0.0, "score_nse": 0.0, "NSE": null, "VIVTOT": 0.0, "GRAPROES": 0.0, "_ent": "24", "_mun": "043", "_loc": "0104"}, "geometry": {"type": "Polygon", "coordinates": [[[-100.61506, 21.70246], [-100.61323, 21.70198], [-100.6146, 21.70075], [-100.61429, 21.69952], [-100.61528, 21.69955], [-100.61557, 21.70027], [-100.61544, 21.70086], [-100.61479, 21.70183], [-100.61523, 21.70234], [-100.61506, 21.70246]]]}}, {"id": "1881213", "type": "Feature", "properties": {"id": "1881213", "CVEGEO": "2404301040018008", "POBTOT": 0.0, "score_nse": 0.0, "NSE": null, "VIVTOT": 0.0, "GRAPROES": 0.0, "_ent": "24", "_mun": "043", "_loc": "0104"}, "geometry": {"type": "Polygon", "coordinates": [[[-100.61428, 21.69946], [-100.61414, 21.69905], [-100.61524, 21.6991], [-100.61526, 21.69949], [-100.61428, 21.69946]]]}}]}