{"type": "FeatureCollection", "features": [{"id": "1225583", "type": "Feature", "properties": {"id": "1225583", "CVEGEO": "1601900390018002", "POBTOT": 0.0, "score_nse": 0.0, "NSE": null, "VIVTOT": 0.0, "GRAPROES": 0.0, "_ent": "16", "_mun": "019", "_loc": "0039"}, "geometry": {"type": "Polygon", "coordinates": [[[-102.65249, 19.8202], [-102.6517, 19.81981], [-102.65201, 19.81914], [-102.65251, 19.81951], [-102.6529, 19.81949], [-102.65267, 19.82009], [-102.65249, 19.8202]]]}}, {"id": "1225657", "type": "Feature", "properties": {"id": "1225657", "CVEGEO": "1601900390018005", "POBTOT": 0.0, "score_nse": 0.0, "NSE": null, "VIVTOT": 0.0, "GRAPROES": 0.0, "_ent": "16", "_mun": "019", "_loc": "0039"}, "geometry": {"type": "Polygon", "coordinates": [[[-102.65212, 19.81912], [-102.65224, 19.81874], [-102.65302, 19.81907], [-102.65292, 19.81943], [-102.65266, 19.81935], [-102.65261, 19.81948], [-102.65212, 19.81912]]]}}, {"id": "1225658", "type": "Feature", "properties": {"id": "1225658", "CVEGEO": "1601900390018003", "POBTOT": 0.0, "score_nse": 0.0, "NSE": null, "VIVTOT": 0.0, "GRAPROES": 0.0, "_ent": "16", "_mun": "019", "_loc": "0039"}, "geometry": {"type": "Polygon", "coordinates": [[[-102.65131, 19.82007], [-102.65054, 19.81856], [-102.6514, 19.81827], [-102.65218, 19.81868], [-102.65151, 19.82017], [-102.65131, 19.82007]]]}}, {"id": "1225922", "type": "Feature", "properties": {"id": "1225922", "CVEGEO": "1601900390018001", "POBTOT": 0.0, "score_nse": 0.0, "NSE": null, "VIVTOT": 0.0, "GRAPROES": 0.0, "_ent": "16", "_mun": "019", "_loc": "0039"}, "geometry": {"type": "Polygon", "coordinates": [[[-102.65726, 19.82031], [-102.65718, 19.8213], [-102.65626, 19.82105], [-102.65598, 19.82074], [-102.65478, 19.82034], [-102.65465, 19.82139], [-102.65405, 19.8217], [-102.65356, 19.8217], [-102.65364, 19.82148], [-102.65264, 19.821], [-102.65248, 19.8204], [-102.65255, 19.82029], [-102.65287, 19.82043], [-102.65316, 19.82073], [-102.65298, 19.82044], [-102.65263, 19.82027], [-102.65295, 19.81958], [-102.65313, 19.81974], [-102.65338, 19.81972], [-102.65296, 19.81952], [-102.65309, 19.81908], [-102.65437, 19.81921], [-102.65442, 19.81936], [-102.65458, 19.8195], [-102.65439, 19.81965], [-102.65426, 19.82006], [-102.65462, 19.81952], [-102.65442, 19.8192], [-102.65545, 19.81927], [-102.65515, 19.81969], [-102.65491, 19.81968], [-102.65506, 19.81973], [-102.65502, 19.81996], [-102.65469, 19.8202], [-102.65502, 19.82006], [-102.6551, 19.81974], [-102.65525, 19.81973], [-102.6555, 19.81928], [-102.65599, 19.81957], [-102.65579, 19.82008], [-102.65597, 19.82004], [-102.65602, 19.81965], [-102.6566, 19.81992], [-102.65625, 19.82042], [-102.65664, 19.82], [-102.65726, 19.82031]]]}}, {"id": "1226137", "type": "Feature", "properties": {"id": "1226137", "CVEGEO": "1601900390018006", "POBTOT": 0.0, "score_nse": 0.0, "NSE": null, "VIVTOT": 0.0, "GRAPROES": 0.0, "_ent": "16", "_mun": "019", "_loc": "0039"}, "geometry": {"type": "Polygon", "coordinates": [[[-102.65288, 19.82118], [-102.65286, 19.82156], [-102.65235, 19.82139], [-102.65175, 19.82054], [-102.65181, 19.82037], [-102.65156, 19.82019], [-102.65167, 19.81986], [-102.65247, 19.82025], [-102.65258, 19.82107], [-102.65288, 19.82118]]]}}]}