{"type": "FeatureCollection", "features": [{"id": "2352191", "type": "Feature", "properties": {"id": "2352191", "CVEGEO": "3013500210197001", "POBTOT": 0.0, "score_nse": 0.0, "NSE": null, "VIVTOT": 0.0, "GRAPROES": 0.0, "_ent": "30", "_mun": "135", "_loc": "0021"}, "geometry": {"type": "Polygon", "coordinates": [[[-97.09563, 18.83342], [-97.09546, 18.83343], [-97.09519, 18.83305], [-97.09511, 18.83137], [-97.09529, 18.83137], [-97.09538, 18.83212], [-97.09555, 18.83229], [-97.09563, 18.83342]]]}}, {"id": "2352192", "type": "Feature", "properties": {"id": "2352192", "CVEGEO": "3013500210197002", "POBTOT": 0.0, "score_nse": 0.0, "NSE": null, "VIVTOT": 0.0, "GRAPROES": 0.0, "_ent": "30", "_mun": "135", "_loc": "0021"}, "geometry": {"type": "Polygon", "coordinates": [[[-97.09651, 18.83323], [-97.09599, 18.83337], [-97.09594, 18.83251], [-97.09623, 18.8327], [-97.0963, 18.833], [-97.09628, 18.83268], [-97.09545, 18.83212], [-97.09617, 18.8324], [-97.09543, 18.83201], [-97.09543, 18.83153], [-97.09633, 18.8321], [-97.09651, 18.83323]]]}}, {"id": "2352193", "type": "Feature", "properties": {"id": "2352193", "CVEGEO": "3013500210197003", "POBTOT": 0.0, "score_nse": 0.0, "NSE": null, "VIVTOT": 0.0, "GRAPROES": 0.0, "_ent": "30", "_mun": "135", "_loc": "0021"}, "geometry": {"type": "Polygon", "coordinates": [[[-97.09593, 18.83337], [-97.09566, 18.83341], [-97.09561, 18.83232], [-97.09589, 18.83245], [-97.09593, 18.83337]]]}}, {"id": "2352194", "type": "Feature", "properties": {"id": "2352194", "CVEGEO": "3013500210197004", "POBTOT": 0.0, "score_nse": 0.0, "NSE": null, "VIVTOT": 0.0, "GRAPROES": 0.0, "_ent": "30", "_mun": "135", "_loc": "0021"}, "geometry": {"type": "Polygon", "coordinates": [[[-97.09511, 18.83216], [-97.09483, 18.83217], [-97.09476, 18.8314], [-97.09508, 18.83141], [-97.09511, 18.83216]]]}}, {"id": "2352195", "type": "Feature", "properties": {"id": "2352195", "CVEGEO": "3013500210197005", "POBTOT": 0.0, "score_nse": 0.0, "NSE": null, "VIVTOT": 0.0, "GRAPROES": 0.0, "_ent": "30", "_mun": "135", "_loc": "0021"}, "geometry": {"type": "Polygon", "coordinates": [[[-97.09472, 18.8314], [-97.09478, 18.83202], [-97.0948, 18.83214], [-97.09451, 18.83181], [-97.09448, 18.83144], [-97.09472, 18.8314]]]}}, {"id": "2352196", "type": "Feature", "properties": {"id": "2352196", "CVEGEO": "3013500210197006", "POBTOT": 0.0, "score_nse": 0.0, "NSE": null, "VIVTOT": 0.0, "GRAPROES": 0.0, "_ent": "30", "_mun": "135", "_loc": "0021"}, "geometry": {"type": "Polygon", "coordinates": [[[-97.09445, 18.83181], [-97.09421, 18.83181], [-97.09419, 18.83154], [-97.09442, 18.8315], [-97.09445, 18.83181]]]}}, {"id": "2352197", "type": "Feature", "properties": {"id": "2352197", "CVEGEO": "3013500210197007", "POBTOT": 0.0, "score_nse": 0.0, "NSE": null, "VIVTOT": 0.0, "GRAPROES": 0.0, "_ent": "30", "_mun": "135", "_loc": "0021"}, "geometry": {"type": "Polygon", "coordinates": [[[-97.09516, 18.83302], [-97.09475, 18.83267], [-97.09424, 18.83186], [-97.09448, 18.83183], [-97.09481, 18.83221], [-97.09511, 18.83222], [-97.09516, 18.83302]]]}}]}