{"type": "FeatureCollection", "features": [{"id": "1325262", "type": "Feature", "properties": {"id": "1325262", "CVEGEO": "1611200270099006", "POBTOT": 0.0, "score_nse": 0.0, "NSE": null, "VIVTOT": 0.0, "GRAPROES": 0.0, "_ent": "16", "_mun": "112", "_loc": "0027"}, "geometry": {"type": "Polygon", "coordinates": [[[-100.33769, 19.36114], [-100.33925, 19.36076], [-100.33935, 19.36148], [-100.33843, 19.36177], [-100.33757, 19.36165], [-100.33769, 19.36114]]]}}, {"id": "1325998", "type": "Feature", "properties": {"id": "1325998", "CVEGEO": "1611200270099002", "POBTOT": 0.0, "score_nse": 0.0, "NSE": null, "VIVTOT": 0.0, "GRAPROES": 0.0, "_ent": "16", "_mun": "112", "_loc": "0027"}, "geometry": {"type": "Polygon", "coordinates": [[[-100.3384, 19.36183], [-100.33938, 19.36152], [-100.33951, 19.36249], [-100.33825, 19.36258], [-100.3384, 19.36183]]]}}]}