{"type": "FeatureCollection", "features": [{"id": "1324194", "type": "Feature", "properties": {"id": "1324194", "CVEGEO": "1611200440012004", "POBTOT": 0.0, "score_nse": 0.0, "NSE": null, "VIVTOT": 0.0, "GRAPROES": 0.0, "_ent": "16", "_mun": "112", "_loc": "0044"}, "geometry": {"type": "Polygon", "coordinates": [[[-100.402, 19.50615], [-100.40165, 19.50449], [-100.40401, 19.5042], [-100.40632, 19.50857], [-100.40542, 19.50848], [-100.40495, 19.50972], [-100.4036, 19.50951], [-100.40398, 19.50674], [-100.40266, 19.50665], [-100.402, 19.50615]]]}}, {"id": "1324612", "type": "Feature", "properties": {"id": "1324612", "CVEGEO": "1611200440012016", "POBTOT": 0.0, "score_nse": 0.0, "NSE": null, "VIVTOT": 0.0, "GRAPROES": 0.0, "_ent": "16", "_mun": "112", "_loc": "0044"}, "geometry": {"type": "Polygon", "coordinates": [[[-100.3992, 19.50414], [-100.39901, 19.50323], [-100.39854, 19.50269], [-100.39848, 19.50181], [-100.39998, 19.50141], [-100.40077, 19.50072], [-100.40245, 19.50237], [-100.40394, 19.50413], [-100.40156, 19.50443], [-100.40162, 19.50496], [-100.40048, 19.50522], [-100.40026, 19.50517], [-100.3992, 19.50414]]]}}, {"id": "1324613", "type": "Feature", "properties": {"id": "1324613", "CVEGEO": "1611200440012015", "POBTOT": 0.0, "score_nse": 0.0, "NSE": null, "VIVTOT": 0.0, "GRAPROES": 0.0, "_ent": "16", "_mun": "112", "_loc": "0044"}, "geometry": {"type": "Polygon", "coordinates": [[[-100.40551, 19.50572], [-100.40574, 19.50562], [-100.40616, 19.50619], [-100.40584, 19.50635], [-100.40551, 19.50572]]]}}, {"id": "1325917", "type": "Feature", "properties": {"id": "1325917", "CVEGEO": "1611200440012008", "POBTOT": 0.0, "score_nse": 0.0, "NSE": null, "VIVTOT": 0.0, "GRAPROES": 0.0, "_ent": "16", "_mun": "112", "_loc": "0044"}, "geometry": {"type": "Polygon", "coordinates": [[[-100.40853, 19.51312], [-100.40833, 19.51222], [-100.4083, 19.51195], [-100.40883, 19.51306], [-100.40853, 19.51312]]]}}, {"id": "1325918", "type": "Feature", "properties": {"id": "1325918", "CVEGEO": "1611200440012009", "POBTOT": 0.0, "score_nse": 0.0, "NSE": null, "VIVTOT": 0.0, "GRAPROES": 0.0, "_ent": "16", "_mun": "112", "_loc": "0044"}, "geometry": {"type": "Polygon", "coordinates": [[[-100.40649, 19.51273], [-100.40642, 19.51209], [-100.40664, 19.51164], [-100.40773, 19.51094], [-100.40819, 19.51175], [-100.40846, 19.51342], [-100.40774, 19.51327], [-100.40726, 19.51364], [-100.40649, 19.51273]]]}}, {"id": "1325919", "type": "Feature", "properties": {"id": "1325919", "CVEGEO": "1611200440012017", "POBTOT": 0.0, "score_nse": 0.0, "NSE": null, "VIVTOT": 0.0, "GRAPROES": 0.0, "_ent": "16", "_mun": "112", "_loc": "0044"}, "geometry": {"type": "Polygon", "coordinates": [[[-100.41017, 19.51413], [-100.41037, 19.51475], [-100.40967, 19.5148], [-100.4094, 19.51413], [-100.41017, 19.51413]]]}}, {"id": "1325920", "type": "Feature", "properties": {"id": "1325920", "CVEGEO": "1611200440012007", "POBTOT": 0.0, "score_nse": 0.0, "NSE": null, "VIVTOT": 0.0, "GRAPROES": 0.0, "_ent": "16", "_mun": "112", "_loc": "0044"}, "geometry": {"type": "Polygon", "coordinates": [[[-100.40827, 19.51166], [-100.40781, 19.5109], [-100.40812, 19.51069], [-100.40863, 19.51152], [-100.40827, 19.51166]]]}}, {"id": "1325921", "type": "Feature", "properties": {"id": "1325921", "CVEGEO": "1611200440012012", "POBTOT": 0.0, "score_nse": 0.0, "NSE": null, "VIVTOT": 0.0, "GRAPROES": 0.0, "_ent": "16", "_mun": "112", "_loc": "0044"}, "geometry": {"type": "Polygon", "coordinates": [[[-100.4069, 19.50961], [-100.40768, 19.51087], [-100.40682, 19.51137], [-100.40716, 19.51069], [-100.407, 19.5103], [-100.40687, 19.5104], [-100.40661, 19.51], [-100.4069, 19.50961]]]}}, {"id": "1325922", "type": "Feature", "properties": {"id": "1325922", "CVEGEO": "1611200440012011", "POBTOT": 0.0, "score_nse": 0.0, "NSE": null, "VIVTOT": 0.0, "GRAPROES": 0.0, "_ent": "16", "_mun": "112", "_loc": "0044"}, "geometry": {"type": "Polygon", "coordinates": [[[-100.40666, 19.50899], [-100.4075, 19.50892], [-100.40792, 19.51007], [-100.40751, 19.5102], [-100.40782, 19.51077], [-100.40773, 19.51083], [-100.40666, 19.50899]]]}}, {"id": "1325923", "type": "Feature", "properties": {"id": "1325923", "CVEGEO": "1611200440012013", "POBTOT": 0.0, "score_nse": 0.0, "NSE": null, "VIVTOT": 0.0, "GRAPROES": 0.0, "_ent": "16", "_mun": "112", "_loc": "0044"}, "geometry": {"type": "Polygon", "coordinates": [[[-100.406, 19.50856], [-100.40635, 19.50863], [-100.40655, 19.50898], [-100.40597, 19.50977], [-100.40556, 19.51005], [-100.40534, 19.50992], [-100.406, 19.50856]]]}}, {"id": "1325924", "type": "Feature", "properties": {"id": "1325924", "CVEGEO": "1611200440012014", "POBTOT": 0.0, "score_nse": 0.0, "NSE": null, "VIVTOT": 0.0, "GRAPROES": 0.0, "_ent": "16", "_mun": "112", "_loc": "0044"}, "geometry": {"type": "Polygon", "coordinates": [[[-100.40627, 19.50833], [-100.40719, 19.5084], [-100.40716, 19.50883], [-100.40662, 19.50893], [-100.40627, 19.50833]]]}}, {"id": "1325925", "type": "Feature", "properties": {"id": "1325925", "CVEGEO": "1611200440012018", "POBTOT": 0.0, "score_nse": 0.0, "NSE": null, "VIVTOT": 0.0, "GRAPROES": 0.0, "_ent": "16", "_mun": "112", "_loc": "0044"}, "geometry": {"type": "Polygon", "coordinates": [[[-100.40653, 19.50787], [-100.40622, 19.50821], [-100.40597, 19.50778], [-100.40633, 19.50769], [-100.40653, 19.50787]]]}}, {"id": "1325926", "type": "Feature", "properties": {"id": "1325926", "CVEGEO": "1611200440012003", "POBTOT": 0.0, "score_nse": 0.0, "NSE": null, "VIVTOT": 0.0, "GRAPROES": 0.0, "_ent": "16", "_mun": "112", "_loc": "0044"}, "geometry": {"type": "Polygon", "coordinates": [[[-100.40594, 19.50771], [-100.40503, 19.50594], [-100.40544, 19.50575], [-100.40602, 19.50686], [-100.40587, 19.5064], [-100.40625, 19.50622], [-100.40612, 19.50596], [-100.40668, 19.50621], [-100.40611, 19.50646], [-100.40628, 19.50681], [-100.40609, 19.50767], [-100.40594, 19.50771]]]}}, {"id": "1325929", "type": "Feature", "properties": {"id": "1325929", "CVEGEO": "1611200440012001", "POBTOT": 0.0, "score_nse": 0.0, "NSE": null, "VIVTOT": 0.0, "GRAPROES": 0.0, "_ent": "16", "_mun": "112", "_loc": "0044"}, "geometry": {"type": "Polygon", "coordinates": [[[-100.40388, 19.50377], [-100.40475, 19.50471], [-100.4057, 19.50556], [-100.40499, 19.50588], [-100.4041, 19.50419], [-100.40373, 19.50379], [-100.40388, 19.50377]]]}}, {"id": "1325930", "type": "Feature", "properties": {"id": "1325930", "CVEGEO": "1611200440012021", "POBTOT": 0.0, "score_nse": 0.0, "NSE": null, "VIVTOT": 0.0, "GRAPROES": 0.0, "_ent": "16", "_mun": "112", "_loc": "0044"}, "geometry": {"type": "Polygon", "coordinates": [[[-100.39835, 19.49637], [-100.39759, 19.49654], [-100.39744, 19.49608], [-100.39824, 19.49594], [-100.39835, 19.49637]]]}}, {"id": "1325931", "type": "Feature", "properties": {"id": "1325931", "CVEGEO": "1611200440012020", "POBTOT": 0.0, "score_nse": 0.0, "NSE": null, "VIVTOT": 0.0, "GRAPROES": 0.0, "_ent": "16", "_mun": "112", "_loc": "0044"}, "geometry": {"type": "Polygon", "coordinates": [[[-100.39928, 19.49895], [-100.39848, 19.49791], [-100.40008, 19.49833], [-100.39928, 19.49895]]]}}, {"id": "1326008", "type": "Feature", "properties": {"id": "1326008", "CVEGEO": "1611200440012019", "POBTOT": 0.0, "score_nse": 0.0, "NSE": null, "VIVTOT": 0.0, "GRAPROES": 0.0, "_ent": "16", "_mun": "112", "_loc": "0044"}, "geometry": {"type": "Polygon", "coordinates": [[[-100.40251, 19.50232], [-100.39895, 19.49896], [-100.39916, 19.49894], [-100.40103, 19.50065], [-100.4016, 19.50088], [-100.40184, 19.50155], [-100.40385, 19.50373], [-100.40368, 19.50376], [-100.40251, 19.50232]]]}}, {"id": "1326009", "type": "Feature", "properties": {"id": "1326009", "CVEGEO": "1611200440012006", "POBTOT": 0.0, "score_nse": 0.0, "NSE": null, "VIVTOT": 0.0, "GRAPROES": 0.0, "_ent": "16", "_mun": "112", "_loc": "0044"}, "geometry": {"type": "Polygon", "coordinates": [[[-100.39844, 19.49845], [-100.39601, 19.49574], [-100.39639, 19.49575], [-100.39732, 19.49642], [-100.39744, 19.49682], [-100.39902, 19.49885], [-100.39893, 19.49892], [-100.39844, 19.49845]]]}}]}