{"type": "FeatureCollection", "features": [{"id": "1324030", "type": "Feature", "properties": {"id": "1324030", "CVEGEO": "161120124007A009", "POBTOT": 0.0, "score_nse": 0.0, "NSE": null, "VIVTOT": 0.0, "GRAPROES": 0.0, "_ent": "16", "_mun": "112", "_loc": "0124"}, "geometry": {"type": "Polygon", "coordinates": [[[-100.35656, 19.40153], [-100.3585, 19.40125], [-100.35862, 19.40194], [-100.35667, 19.4022], [-100.35656, 19.40153]]]}}, {"id": "1324031", "type": "Feature", "properties": {"id": "1324031", "CVEGEO": "161120124007A007", "POBTOT": 0.0, "score_nse": 0.0, "NSE": null, "VIVTOT": 0.0, "GRAPROES": 0.0, "_ent": "16", "_mun": "112", "_loc": "0124"}, "geometry": {"type": "Polygon", "coordinates": [[[-100.35505, 19.40306], [-100.35497, 19.40247], [-100.3566, 19.40225], [-100.35673, 19.40312], [-100.35542, 19.40328], [-100.35505, 19.40306]]]}}, {"id": "1324032", "type": "Feature", "properties": {"id": "1324032", "CVEGEO": "161120124007A008", "POBTOT": 0.0, "score_nse": 0.0, "NSE": null, "VIVTOT": 0.0, "GRAPROES": 0.0, "_ent": "16", "_mun": "112", "_loc": "0124"}, "geometry": {"type": "Polygon", "coordinates": [[[-100.35856, 19.40125], [-100.36239, 19.40074], [-100.36265, 19.4013], [-100.35867, 19.40192], [-100.35856, 19.40125]]]}}, {"id": "1324040", "type": "Feature", "properties": {"id": "1324040", "CVEGEO": "161120124007A005", "POBTOT": 0.0, "score_nse": 0.0, "NSE": null, "VIVTOT": 0.0, "GRAPROES": 0.0, "_ent": "16", "_mun": "112", "_loc": "0124"}, "geometry": {"type": "Polygon", "coordinates": [[[-100.35868, 19.40197], [-100.36264, 19.40134], [-100.36286, 19.40183], [-100.36281, 19.40235], [-100.3588, 19.40284], [-100.35868, 19.40197]]]}}, {"id": "1324041", "type": "Feature", "properties": {"id": "1324041", "CVEGEO": "161120124007A006", "POBTOT": 0.0, "score_nse": 0.0, "NSE": null, "VIVTOT": 0.0, "GRAPROES": 0.0, "_ent": "16", "_mun": "112", "_loc": "0124"}, "geometry": {"type": "Polygon", "coordinates": [[[-100.35667, 19.40223], [-100.35862, 19.40199], [-100.35874, 19.40286], [-100.35681, 19.40312], [-100.35667, 19.40223]]]}}, {"id": "1324115", "type": "Feature", "properties": {"id": "1324115", "CVEGEO": "161120124007A011", "POBTOT": 0.0, "score_nse": 0.0, "NSE": null, "VIVTOT": 0.0, "GRAPROES": 0.0, "_ent": "16", "_mun": "112", "_loc": "0124"}, "geometry": {"type": "Polygon", "coordinates": [[[-100.35486, 19.40101], [-100.3564, 19.40081], [-100.35651, 19.40148], [-100.3549, 19.4017], [-100.35486, 19.40101]]]}}, {"id": "1324300", "type": "Feature", "properties": {"id": "1324300", "CVEGEO": "161120124007A001", "POBTOT": 0.0, "score_nse": 0.0, "NSE": null, "VIVTOT": 0.0, "GRAPROES": 0.0, "_ent": "16", "_mun": "112", "_loc": "0124"}, "geometry": {"type": "Polygon", "coordinates": [[[-100.36246, 19.40349], [-100.36059, 19.40263], [-100.36283, 19.4024], [-100.36246, 19.40349]]]}}, {"id": "1324831", "type": "Feature", "properties": {"id": "1324831", "CVEGEO": "161120124007A013", "POBTOT": 0.0, "score_nse": 0.0, "NSE": null, "VIVTOT": 0.0, "GRAPROES": 0.0, "_ent": "16", "_mun": "112", "_loc": "0124"}, "geometry": {"type": "Polygon", "coordinates": [[[-100.35846, 19.4006], [-100.36035, 19.40016], [-100.36198, 19.39936], [-100.36231, 19.39983], [-100.36252, 19.40068], [-100.35854, 19.4012], [-100.35846, 19.4006]]]}}, {"id": "1325154", "type": "Feature", "properties": {"id": "1325154", "CVEGEO": "161120124007A004", "POBTOT": 0.0, "score_nse": 0.0, "NSE": null, "VIVTOT": 0.0, "GRAPROES": 0.0, "_ent": "16", "_mun": "112", "_loc": "0124"}, "geometry": {"type": "Polygon", "coordinates": [[[-100.35545, 19.40428], [-100.35539, 19.40334], [-100.35673, 19.40318], [-100.35687, 19.40405], [-100.35545, 19.40428]]]}}, {"id": "1325155", "type": "Feature", "properties": {"id": "1325155", "CVEGEO": "161120124007A003", "POBTOT": 0.0, "score_nse": 0.0, "NSE": null, "VIVTOT": 0.0, "GRAPROES": 0.0, "_ent": "16", "_mun": "112", "_loc": "0124"}, "geometry": {"type": "Polygon", "coordinates": [[[-100.3568, 19.40318], [-100.35874, 19.4029], [-100.35887, 19.40374], [-100.35692, 19.40404], [-100.3568, 19.40318]]]}}, {"id": "1325156", "type": "Feature", "properties": {"id": "1325156", "CVEGEO": "161120124007A002", "POBTOT": 0.0, "score_nse": 0.0, "NSE": null, "VIVTOT": 0.0, "GRAPROES": 0.0, "_ent": "16", "_mun": "112", "_loc": "0124"}, "geometry": {"type": "Polygon", "coordinates": [[[-100.35881, 19.40289], [-100.3605, 19.40262], [-100.36077, 19.40293], [-100.36056, 19.40341], [-100.35895, 19.40372], [-100.35881, 19.40289]]]}}, {"id": "1325274", "type": "Feature", "properties": {"id": "1325274", "CVEGEO": "161120124007A010", "POBTOT": 0.0, "score_nse": 0.0, "NSE": null, "VIVTOT": 0.0, "GRAPROES": 0.0, "_ent": "16", "_mun": "112", "_loc": "0124"}, "geometry": {"type": "Polygon", "coordinates": [[[-100.35489, 19.40174], [-100.3565, 19.40153], [-100.3566, 19.40219], [-100.35496, 19.40241], [-100.35489, 19.40174]]]}}, {"id": "1325275", "type": "Feature", "properties": {"id": "1325275", "CVEGEO": "161120124007A012", "POBTOT": 0.0, "score_nse": 0.0, "NSE": null, "VIVTOT": 0.0, "GRAPROES": 0.0, "_ent": "16", "_mun": "112", "_loc": "0124"}, "geometry": {"type": "Polygon", "coordinates": [[[-100.35646, 19.40081], [-100.35841, 19.40059], [-100.35849, 19.4012], [-100.35657, 19.40148], [-100.35646, 19.40081]]]}}, {"id": "1326087", "type": "Feature", "properties": {"id": "1326087", "CVEGEO": "161120124007A014", "POBTOT": 0.0, "score_nse": 0.0, "NSE": null, "VIVTOT": 0.0, "GRAPROES": 0.0, "_ent": "16", "_mun": "112", "_loc": "0124"}, "geometry": {"type": "Polygon", "coordinates": [[[-100.35638, 19.405], [-100.35562, 19.40521], [-100.35546, 19.40432], [-100.35626, 19.40419], [-100.35638, 19.405]]]}}, {"id": "1326088", "type": "Feature", "properties": {"id": "1326088", "CVEGEO": "161120124007A015", "POBTOT": 0.0, "score_nse": 0.0, "NSE": null, "VIVTOT": 0.0, "GRAPROES": 0.0, "_ent": "16", "_mun": "112", "_loc": "0124"}, "geometry": {"type": "Polygon", "coordinates": [[[-100.35729, 19.405], [-100.35644, 19.40499], [-100.35633, 19.40418], [-100.35685, 19.4041], [-100.35729, 19.405]]]}}]}