{"type": "FeatureCollection", "features": [{"id": "1581952", "type": "Feature", "properties": {"id": "1581952", "CVEGEO": "2045000050020002", "POBTOT": 0.0, "score_nse": 0.0, "NSE": null, "VIVTOT": 0.0, "GRAPROES": 0.0, "_ent": "20", "_mun": "450", "_loc": "0005"}, "geometry": {"type": "Polygon", "coordinates": [[[-97.54078, 16.64413], [-97.54041, 16.64431], [-97.54018, 16.64398], [-97.54051, 16.64376], [-97.54048, 16.6433], [-97.54078, 16.64413]]]}}, {"id": "1581964", "type": "Feature", "properties": {"id": "1581964", "CVEGEO": "2045000050020004", "POBTOT": 0.0, "score_nse": 0.0, "NSE": null, "VIVTOT": 0.0, "GRAPROES": 0.0, "_ent": "20", "_mun": "450", "_loc": "0005"}, "geometry": {"type": "Polygon", "coordinates": [[[-97.53942, 16.64313], [-97.53976, 16.64318], [-97.54017, 16.64302], [-97.54001, 16.64347], [-97.54017, 16.64383], [-97.53967, 16.64467], [-97.53932, 16.64394], [-97.53942, 16.64313]]]}}, {"id": "1581965", "type": "Feature", "properties": {"id": "1581965", "CVEGEO": "2045000050020003", "POBTOT": 0.0, "score_nse": 0.0, "NSE": null, "VIVTOT": 0.0, "GRAPROES": 0.0, "_ent": "20", "_mun": "450", "_loc": "0005"}, "geometry": {"type": "Polygon", "coordinates": [[[-97.53934, 16.64341], [-97.53927, 16.64395], [-97.53963, 16.6447], [-97.5389, 16.6449], [-97.5384, 16.64481], [-97.53855, 16.64453], [-97.53852, 16.6441], [-97.53915, 16.64381], [-97.53934, 16.64341]]]}}, {"id": "1581966", "type": "Feature", "properties": {"id": "1581966", "CVEGEO": "2045000050020007", "POBTOT": 0.0, "score_nse": 0.0, "NSE": null, "VIVTOT": 0.0, "GRAPROES": 0.0, "_ent": "20", "_mun": "450", "_loc": "0005"}, "geometry": {"type": "Polygon", "coordinates": [[[-97.54023, 16.64296], [-97.54062, 16.64182], [-97.54195, 16.64197], [-97.54229, 16.64167], [-97.54285, 16.64156], [-97.54293, 16.64166], [-97.54265, 16.64181], [-97.54278, 16.64273], [-97.54265, 16.6433], [-97.54271, 16.64391], [-97.54217, 16.64421], [-97.54181, 16.64481], [-97.54143, 16.64471], [-97.54092, 16.64428], [-97.54061, 16.64348], [-97.54086, 16.64381], [-97.54112, 16.64398], [-97.54023, 16.64296]]]}}, {"id": "1582029", "type": "Feature", "properties": {"id": "1582029", "CVEGEO": "2045000050020008", "POBTOT": 0.0, "score_nse": 0.0, "NSE": null, "VIVTOT": 0.0, "GRAPROES": 0.0, "_ent": "20", "_mun": "450", "_loc": "0005"}, "geometry": {"type": "Polygon", "coordinates": [[[-97.53795, 16.64133], [-97.53838, 16.64095], [-97.53864, 16.64042], [-97.53933, 16.64044], [-97.53876, 16.64], [-97.53858, 16.63956], [-97.53822, 16.63955], [-97.53878, 16.63915], [-97.53931, 16.63975], [-97.53941, 16.6403], [-97.53971, 16.64066], [-97.54006, 16.64166], [-97.54049, 16.64168], [-97.54058, 16.64184], [-97.5402, 16.64294], [-97.53974, 16.64314], [-97.53948, 16.64299], [-97.53893, 16.64237], [-97.53875, 16.64147], [-97.538, 16.64162], [-97.53795, 16.64133]]]}}, {"id": "1582030", "type": "Feature", "properties": {"id": "1582030", "CVEGEO": "2045000050020005", "POBTOT": 0.0, "score_nse": 0.0, "NSE": null, "VIVTOT": 0.0, "GRAPROES": 0.0, "_ent": "20", "_mun": "450", "_loc": "0005"}, "geometry": {"type": "Polygon", "coordinates": [[[-97.54163, 16.64596], [-97.54019, 16.64517], [-97.54044, 16.64434], [-97.54079, 16.64418], [-97.54171, 16.64486], [-97.54203, 16.6447], [-97.54231, 16.64416], [-97.5421, 16.64533], [-97.54215, 16.64577], [-97.54233, 16.64596], [-97.54195, 16.64637], [-97.54163, 16.64596]]]}}, {"id": "1582031", "type": "Feature", "properties": {"id": "1582031", "CVEGEO": "2045000050020006", "POBTOT": 0.0, "score_nse": 0.0, "NSE": null, "VIVTOT": 0.0, "GRAPROES": 0.0, "_ent": "20", "_mun": "450", "_loc": "0005"}, "geometry": {"type": "Polygon", "coordinates": [[[-97.53809, 16.64166], [-97.53876, 16.64154], [-97.5389, 16.64239], [-97.53916, 16.64253], [-97.53942, 16.64301], [-97.53911, 16.64378], [-97.53857, 16.64403], [-97.53788, 16.64405], [-97.53597, 16.64385], [-97.5361, 16.64372], [-97.5381, 16.64347], [-97.53828, 16.64305], [-97.53784, 16.64248], [-97.53808, 16.64215], [-97.53809, 16.64166]]]}}, {"id": "1582033", "type": "Feature", "properties": {"id": "1582033", "CVEGEO": "2045000050020010", "POBTOT": 0.0, "score_nse": 0.0, "NSE": null, "VIVTOT": 0.0, "GRAPROES": 0.0, "_ent": "20", "_mun": "450", "_loc": "0005"}, "geometry": {"type": "Polygon", "coordinates": [[[-97.54175, 16.64647], [-97.54134, 16.64599], [-97.54088, 16.64611], [-97.54044, 16.64602], [-97.53974, 16.64549], [-97.53978, 16.64467], [-97.54007, 16.64399], [-97.54038, 16.64433], [-97.54014, 16.64519], [-97.54152, 16.64591], [-97.54191, 16.64638], [-97.54175, 16.64647]]]}}, {"id": "1582034", "type": "Feature", "properties": {"id": "1582034", "CVEGEO": "2045000050020001", "POBTOT": 0.0, "score_nse": 0.0, "NSE": null, "VIVTOT": 0.0, "GRAPROES": 0.0, "_ent": "20", "_mun": "450", "_loc": "0005"}, "geometry": {"type": "Polygon", "coordinates": [[[-97.54022, 16.64379], [-97.54005, 16.64348], [-97.54021, 16.64304], [-97.54041, 16.64323], [-97.5405, 16.64366], [-97.54022, 16.64379]]]}}, {"id": "1582035", "type": "Feature", "properties": {"id": "1582035", "CVEGEO": "2045000050020009", "POBTOT": 0.0, "score_nse": 0.0, "NSE": null, "VIVTOT": 0.0, "GRAPROES": 0.0, "_ent": "20", "_mun": "450", "_loc": "0005"}, "geometry": {"type": "Polygon", "coordinates": [[[-97.54418, 16.63991], [-97.54384, 16.64048], [-97.54384, 16.64122], [-97.54425, 16.6428], [-97.54381, 16.64364], [-97.54369, 16.64459], [-97.54312, 16.64476], [-97.54288, 16.64522], [-97.54245, 16.64552], [-97.54236, 16.64592], [-97.54215, 16.64533], [-97.54237, 16.64413], [-97.54278, 16.64384], [-97.5427, 16.64186], [-97.54301, 16.64172], [-97.54311, 16.64058], [-97.54346, 16.63929], [-97.54399, 16.63905], [-97.54421, 16.63923], [-97.54418, 16.63991]]]}}]}