{"type": "FeatureCollection", "features": [{"id": "1565191", "type": "Feature", "properties": {"id": "1565191", "CVEGEO": "2040600140041001", "POBTOT": 0.0, "score_nse": 0.0, "NSE": null, "VIVTOT": 0.0, "GRAPROES": 0.0, "_ent": "20", "_mun": "406", "_loc": "0014"}, "geometry": {"type": "Polygon", "coordinates": [[[-96.83883, 18.20293], [-96.83819, 18.20282], [-96.83961, 18.20165], [-96.83991, 18.20082], [-96.84073, 18.20023], [-96.84009, 18.20119], [-96.83998, 18.20185], [-96.83946, 18.2026], [-96.83914, 18.20361], [-96.83891, 18.20344], [-96.839, 18.20313], [-96.83883, 18.20293]]]}}]}