{"type": "FeatureCollection", "features": [{"id": "897086", "type": "Feature", "properties": {"id": "897086", "CVEGEO": "1308300370072021", "POBTOT": 0.0, "score_nse": 0.0, "NSE": null, "VIVTOT": 0.0, "GRAPROES": 0.0, "_ent": "13", "_mun": "083", "_loc": "0037"}, "geometry": {"type": "Polygon", "coordinates": [[[-98.70463, 19.96], [-98.70377, 19.96015], [-98.70459, 19.96007], [-98.70364, 19.9618], [-98.70297, 19.95846], [-98.70481, 19.95973], [-98.70463, 19.96]]]}}, {"id": "897096", "type": "Feature", "properties": {"id": "897096", "CVEGEO": "1308300370072019", "POBTOT": 0.0, "score_nse": 0.0, "NSE": null, "VIVTOT": 0.0, "GRAPROES": 0.0, "_ent": "13", "_mun": "083", "_loc": "0037"}, "geometry": {"type": "Polygon", "coordinates": [[[-98.70597, 19.96044], [-98.70634, 19.96064], [-98.70579, 19.96124], [-98.70596, 19.96062], [-98.70597, 19.96044]]]}}, {"id": "897097", "type": "Feature", "properties": {"id": "897097", "CVEGEO": "1308300370072004", "POBTOT": 0.0, "score_nse": 0.0, "NSE": null, "VIVTOT": 0.0, "GRAPROES": 0.0, "_ent": "13", "_mun": "083", "_loc": "0037"}, "geometry": {"type": "Polygon", "coordinates": [[[-98.70635, 19.95829], [-98.70658, 19.95866], [-98.70618, 19.9595], [-98.70547, 19.95919], [-98.70603, 19.95835], [-98.70635, 19.95829]]]}}, {"id": "897098", "type": "Feature", "properties": {"id": "897098", "CVEGEO": "1308300370072011", "POBTOT": 0.0, "score_nse": 0.0, "NSE": null, "VIVTOT": 0.0, "GRAPROES": 0.0, "_ent": "13", "_mun": "083", "_loc": "0037"}, "geometry": {"type": "Polygon", "coordinates": [[[-98.71039, 19.95712], [-98.71101, 19.95743], [-98.71071, 19.95816], [-98.70944, 19.958], [-98.71039, 19.95712]]]}}, {"id": "897099", "type": "Feature", "properties": {"id": "897099", "CVEGEO": "1308300370072017", "POBTOT": 0.0, "score_nse": 0.0, "NSE": null, "VIVTOT": 0.0, "GRAPROES": 0.0, "_ent": "13", "_mun": "083", "_loc": "0037"}, "geometry": {"type": "Polygon", "coordinates": [[[-98.71187, 19.95702], [-98.7119, 19.95735], [-98.71139, 19.95754], [-98.71134, 19.95818], [-98.71078, 19.95814], [-98.711, 19.95755], [-98.71187, 19.95702]]]}}, {"id": "897100", "type": "Feature", "properties": {"id": "897100", "CVEGEO": "1308300370072022", "POBTOT": 0.0, "score_nse": 0.0, "NSE": null, "VIVTOT": 0.0, "GRAPROES": 0.0, "_ent": "13", "_mun": "083", "_loc": "0037"}, "geometry": {"type": "Polygon", "coordinates": [[[-98.71195, 19.95744], [-98.71235, 19.9582], [-98.71142, 19.95818], [-98.71147, 19.95754], [-98.71195, 19.95744]]]}}, {"id": "897101", "type": "Feature", "properties": {"id": "897101", "CVEGEO": "1308300370072016", "POBTOT": 0.0, "score_nse": 0.0, "NSE": null, "VIVTOT": 0.0, "GRAPROES": 0.0, "_ent": "13", "_mun": "083", "_loc": "0037"}, "geometry": {"type": "Polygon", "coordinates": [[[-98.7113, 19.9566], [-98.7117, 19.95701], [-98.71104, 19.95741], [-98.71043, 19.95708], [-98.71077, 19.95676], [-98.7113, 19.9566]]]}}, {"id": "897102", "type": "Feature", "properties": {"id": "897102", "CVEGEO": "1308300370072026", "POBTOT": 0.0, "score_nse": 0.0, "NSE": null, "VIVTOT": 0.0, "GRAPROES": 0.0, "_ent": "13", "_mun": "083", "_loc": "0037"}, "geometry": {"type": "Polygon", "coordinates": [[[-98.71193, 19.95697], [-98.71294, 19.95667], [-98.71304, 19.95721], [-98.7132, 19.95733], [-98.71243, 19.95693], [-98.71201, 19.95738], [-98.71193, 19.95697]]]}}, {"id": "897103", "type": "Feature", "properties": {"id": "897103", "CVEGEO": "1308300370072029", "POBTOT": 0.0, "score_nse": 0.0, "NSE": null, "VIVTOT": 0.0, "GRAPROES": 0.0, "_ent": "13", "_mun": "083", "_loc": "0037"}, "geometry": {"type": "Polygon", "coordinates": [[[-98.7137, 19.95661], [-98.71326, 19.95726], [-98.71314, 19.95719], [-98.713, 19.95665], [-98.7137, 19.95661]]]}}, {"id": "897216", "type": "Feature", "properties": {"id": "897216", "CVEGEO": "1308300370072012", "POBTOT": 0.0, "score_nse": 0.0, "NSE": null, "VIVTOT": 0.0, "GRAPROES": 0.0, "_ent": "13", "_mun": "083", "_loc": "0037"}, "geometry": {"type": "Polygon", "coordinates": [[[-98.70958, 19.95812], [-98.71084, 19.95827], [-98.71081, 19.95911], [-98.70985, 19.95932], [-98.70958, 19.95812]]]}}, {"id": "897297", "type": "Feature", "properties": {"id": "897297", "CVEGEO": "1308300370072014", "POBTOT": 0.0, "score_nse": 0.0, "NSE": null, "VIVTOT": 0.0, "GRAPROES": 0.0, "_ent": "13", "_mun": "083", "_loc": "0037"}, "geometry": {"type": "Polygon", "coordinates": [[[-98.70543, 19.95924], [-98.70623, 19.95958], [-98.70596, 19.96031], [-98.70511, 19.95972], [-98.70543, 19.95924]]]}}, {"id": "897399", "type": "Feature", "properties": {"id": "897399", "CVEGEO": "1308300370072018", "POBTOT": 0.0, "score_nse": 0.0, "NSE": null, "VIVTOT": 0.0, "GRAPROES": 0.0, "_ent": "13", "_mun": "083", "_loc": "0037"}, "geometry": {"type": "Polygon", "coordinates": [[[-98.7109, 19.95826], [-98.71137, 19.95828], [-98.71134, 19.95895], [-98.71087, 19.95908], [-98.7109, 19.95826]]]}}, {"id": "897400", "type": "Feature", "properties": {"id": "897400", "CVEGEO": "1308300370072023", "POBTOT": 0.0, "score_nse": 0.0, "NSE": null, "VIVTOT": 0.0, "GRAPROES": 0.0, "_ent": "13", "_mun": "083", "_loc": "0037"}, "geometry": {"type": "Polygon", "coordinates": [[[-98.71142, 19.95828], [-98.71246, 19.9583], [-98.7126, 19.95852], [-98.71143, 19.9589], [-98.71142, 19.95828]]]}}, {"id": "897401", "type": "Feature", "properties": {"id": "897401", "CVEGEO": "1308300370072002", "POBTOT": 0.0, "score_nse": 0.0, "NSE": null, "VIVTOT": 0.0, "GRAPROES": 0.0, "_ent": "13", "_mun": "083", "_loc": "0037"}, "geometry": {"type": "Polygon", "coordinates": [[[-98.70652, 19.95828], [-98.70701, 19.95874], [-98.70677, 19.95907], [-98.70653, 19.95891], [-98.70665, 19.95859], [-98.70652, 19.95828]]]}}, {"id": "897609", "type": "Feature", "properties": {"id": "897609", "CVEGEO": "1308300370072005", "POBTOT": 0.0, "score_nse": 0.0, "NSE": null, "VIVTOT": 0.0, "GRAPROES": 0.0, "_ent": "13", "_mun": "083", "_loc": "0037"}, "geometry": {"type": "Polygon", "coordinates": [[[-98.70578, 19.95725], [-98.70616, 19.95777], [-98.70538, 19.95913], [-98.70347, 19.95831], [-98.70578, 19.95725]]]}}, {"id": "897610", "type": "Feature", "properties": {"id": "897610", "CVEGEO": "1308300370072007", "POBTOT": 0.0, "score_nse": 0.0, "NSE": null, "VIVTOT": 0.0, "GRAPROES": 0.0, "_ent": "13", "_mun": "083", "_loc": "0037"}, "geometry": {"type": "Polygon", "coordinates": [[[-98.70289, 19.95762], [-98.70281, 19.95721], [-98.70524, 19.9563], [-98.70534, 19.95651], [-98.70289, 19.95762]]]}}, {"id": "897611", "type": "Feature", "properties": {"id": "897611", "CVEGEO": "1308300370072008", "POBTOT": 0.0, "score_nse": 0.0, "NSE": null, "VIVTOT": 0.0, "GRAPROES": 0.0, "_ent": "13", "_mun": "083", "_loc": "0037"}, "geometry": {"type": "Polygon", "coordinates": [[[-98.70281, 19.9571], [-98.70267, 19.95652], [-98.70501, 19.9557], [-98.70521, 19.95621], [-98.70281, 19.9571]]]}}, {"id": "897857", "type": "Feature", "properties": {"id": "897857", "CVEGEO": "1308300370072013", "POBTOT": 0.0, "score_nse": 0.0, "NSE": null, "VIVTOT": 0.0, "GRAPROES": 0.0, "_ent": "13", "_mun": "083", "_loc": "0037"}, "geometry": {"type": "Polygon", "coordinates": [[[-98.70696, 19.9599], [-98.70677, 19.96014], [-98.70642, 19.95998], [-98.70674, 19.96018], [-98.70641, 19.96058], [-98.70606, 19.96038], [-98.70634, 19.9596], [-98.70696, 19.9599]]]}}, {"id": "897859", "type": "Feature", "properties": {"id": "897859", "CVEGEO": "1308300370072031", "POBTOT": 0.0, "score_nse": 0.0, "NSE": null, "VIVTOT": 0.0, "GRAPROES": 0.0, "_ent": "13", "_mun": "083", "_loc": "0037"}, "geometry": {"type": "Polygon", "coordinates": [[[-98.71541, 19.95665], [-98.71566, 19.95715], [-98.71481, 19.95755], [-98.71459, 19.95702], [-98.71541, 19.95665]]]}}, {"id": "897860", "type": "Feature", "properties": {"id": "897860", "CVEGEO": "1308300370072032", "POBTOT": 0.0, "score_nse": 0.0, "NSE": null, "VIVTOT": 0.0, "GRAPROES": 0.0, "_ent": "13", "_mun": "083", "_loc": "0037"}, "geometry": {"type": "Polygon", "coordinates": [[[-98.71624, 19.95619], [-98.71656, 19.95673], [-98.71573, 19.95713], [-98.71548, 19.9566], [-98.71624, 19.95619]]]}}, {"id": "897861", "type": "Feature", "properties": {"id": "897861", "CVEGEO": "1308300370072015", "POBTOT": 0.0, "score_nse": 0.0, "NSE": null, "VIVTOT": 0.0, "GRAPROES": 0.0, "_ent": "13", "_mun": "083", "_loc": "0037"}, "geometry": {"type": "Polygon", "coordinates": [[[-98.7034, 19.95834], [-98.70534, 19.95918], [-98.70512, 19.95951], [-98.70482, 19.95955], [-98.70312, 19.95845], [-98.7034, 19.95834]]]}}, {"id": "897862", "type": "Feature", "properties": {"id": "897862", "CVEGEO": "1308300370072006", "POBTOT": 0.0, "score_nse": 0.0, "NSE": null, "VIVTOT": 0.0, "GRAPROES": 0.0, "_ent": "13", "_mun": "083", "_loc": "0037"}, "geometry": {"type": "Polygon", "coordinates": [[[-98.70291, 19.95769], [-98.70538, 19.95659], [-98.70572, 19.95717], [-98.70303, 19.95839], [-98.70291, 19.95769]]]}}, {"id": "897863", "type": "Feature", "properties": {"id": "897863", "CVEGEO": "1308300370072009", "POBTOT": 0.0, "score_nse": 0.0, "NSE": null, "VIVTOT": 0.0, "GRAPROES": 0.0, "_ent": "13", "_mun": "083", "_loc": "0037"}, "geometry": {"type": "Polygon", "coordinates": [[[-98.70411, 19.95593], [-98.70267, 19.95644], [-98.70266, 19.95603], [-98.70408, 19.95529], [-98.70411, 19.95593]]]}}, {"id": "897954", "type": "Feature", "properties": {"id": "897954", "CVEGEO": "1308300370072020", "POBTOT": 0.0, "score_nse": 0.0, "NSE": null, "VIVTOT": 0.0, "GRAPROES": 0.0, "_ent": "13", "_mun": "083", "_loc": "0037"}, "geometry": {"type": "Polygon", "coordinates": [[[-98.70488, 19.95977], [-98.70592, 19.9604], [-98.70568, 19.96127], [-98.70381, 19.96167], [-98.70488, 19.95977]]]}}, {"id": "898293", "type": "Feature", "properties": {"id": "898293", "CVEGEO": "1308300370072033", "POBTOT": 0.0, "score_nse": 0.0, "NSE": null, "VIVTOT": 0.0, "GRAPROES": 0.0, "_ent": "13", "_mun": "083", "_loc": "0037"}, "geometry": {"type": "Polygon", "coordinates": [[[-98.70414, 19.95526], [-98.70474, 19.95505], [-98.70497, 19.95563], [-98.70416, 19.95591], [-98.70414, 19.95526]]]}}, {"id": "898294", "type": "Feature", "properties": {"id": "898294", "CVEGEO": "1308300370072003", "POBTOT": 0.0, "score_nse": 0.0, "NSE": null, "VIVTOT": 0.0, "GRAPROES": 0.0, "_ent": "13", "_mun": "083", "_loc": "0037"}, "geometry": {"type": "Polygon", "coordinates": [[[-98.70674, 19.9591], [-98.70633, 19.95953], [-98.70652, 19.95895], [-98.70674, 19.9591]]]}}, {"id": "898635", "type": "Feature", "properties": {"id": "898635", "CVEGEO": "1308300370072024", "POBTOT": 0.0, "score_nse": 0.0, "NSE": null, "VIVTOT": 0.0, "GRAPROES": 0.0, "_ent": "13", "_mun": "083", "_loc": "0037"}, "geometry": {"type": "Polygon", "coordinates": [[[-98.71168, 19.95946], [-98.71177, 19.95891], [-98.71264, 19.95859], [-98.71257, 19.95961], [-98.71168, 19.95946]]]}}, {"id": "898649", "type": "Feature", "properties": {"id": "898649", "CVEGEO": "1308300370072030", "POBTOT": 0.0, "score_nse": 0.0, "NSE": null, "VIVTOT": 0.0, "GRAPROES": 0.0, "_ent": "13", "_mun": "083", "_loc": "0037"}, "geometry": {"type": "Polygon", "coordinates": [[[-98.7136, 19.95778], [-98.71335, 19.95739], [-98.7138, 19.95661], [-98.71441, 19.95677], [-98.71449, 19.95689], [-98.7136, 19.95778]]]}}, {"id": "898844", "type": "Feature", "properties": {"id": "898844", "CVEGEO": "1308300370072039", "POBTOT": 0.0, "score_nse": 0.0, "NSE": null, "VIVTOT": 0.0, "GRAPROES": 0.0, "_ent": "13", "_mun": "083", "_loc": "0037"}, "geometry": {"type": "Polygon", "coordinates": [[[-98.70692, 19.95628], [-98.70737, 19.95617], [-98.70747, 19.95633], [-98.70688, 19.95648], [-98.70692, 19.95628]]]}}, {"id": "898850", "type": "Feature", "properties": {"id": "898850", "CVEGEO": "1308300370072010", "POBTOT": 0.0, "score_nse": 0.0, "NSE": null, "VIVTOT": 0.0, "GRAPROES": 0.0, "_ent": "13", "_mun": "083", "_loc": "0037"}, "geometry": {"type": "Polygon", "coordinates": [[[-98.70751, 19.95635], [-98.70777, 19.95684], [-98.70671, 19.95745], [-98.70623, 19.9579], [-98.70675, 19.95688], [-98.70731, 19.95676], [-98.70676, 19.95682], [-98.70686, 19.95652], [-98.70751, 19.95635]]]}}, {"id": "898852", "type": "Feature", "properties": {"id": "898852", "CVEGEO": "1308300370072041", "POBTOT": 0.0, "score_nse": 0.0, "NSE": null, "VIVTOT": 0.0, "GRAPROES": 0.0, "_ent": "13", "_mun": "083", "_loc": "0037"}, "geometry": {"type": "Polygon", "coordinates": [[[-98.71452, 19.95695], [-98.71476, 19.95759], [-98.71359, 19.95812], [-98.71363, 19.95783], [-98.71452, 19.95695]]]}}, {"id": "898853", "type": "Feature", "properties": {"id": "898853", "CVEGEO": "1308300370072034", "POBTOT": 0.0, "score_nse": 0.0, "NSE": null, "VIVTOT": 0.0, "GRAPROES": 0.0, "_ent": "13", "_mun": "083", "_loc": "0037"}, "geometry": {"type": "Polygon", "coordinates": [[[-98.70441, 19.95433], [-98.70469, 19.95499], [-98.70361, 19.95543], [-98.70337, 19.95475], [-98.70441, 19.95433]]]}}, {"id": "898854", "type": "Feature", "properties": {"id": "898854", "CVEGEO": "1308300370072035", "POBTOT": 0.0, "score_nse": 0.0, "NSE": null, "VIVTOT": 0.0, "GRAPROES": 0.0, "_ent": "13", "_mun": "083", "_loc": "0037"}, "geometry": {"type": "Polygon", "coordinates": [[[-98.70329, 19.95479], [-98.70358, 19.95547], [-98.70256, 19.95588], [-98.70238, 19.95517], [-98.70329, 19.95479]]]}}, {"id": "898855", "type": "Feature", "properties": {"id": "898855", "CVEGEO": "1308300370072036", "POBTOT": 0.0, "score_nse": 0.0, "NSE": null, "VIVTOT": 0.0, "GRAPROES": 0.0, "_ent": "13", "_mun": "083", "_loc": "0037"}, "geometry": {"type": "Polygon", "coordinates": [[[-98.70521, 19.95579], [-98.70693, 19.95522], [-98.70687, 19.95572], [-98.70544, 19.95622], [-98.70521, 19.95579]]]}}, {"id": "898856", "type": "Feature", "properties": {"id": "898856", "CVEGEO": "1308300370072037", "POBTOT": 0.0, "score_nse": 0.0, "NSE": null, "VIVTOT": 0.0, "GRAPROES": 0.0, "_ent": "13", "_mun": "083", "_loc": "0037"}, "geometry": {"type": "Polygon", "coordinates": [[[-98.7055, 19.95631], [-98.70687, 19.95583], [-98.70672, 19.95676], [-98.70624, 19.95775], [-98.7055, 19.95631]]]}}, {"id": "898857", "type": "Feature", "properties": {"id": "898857", "CVEGEO": "1308300370072038", "POBTOT": 0.0, "score_nse": 0.0, "NSE": null, "VIVTOT": 0.0, "GRAPROES": 0.0, "_ent": "13", "_mun": "083", "_loc": "0037"}, "geometry": {"type": "Polygon", "coordinates": [[[-98.70593, 19.95292], [-98.70734, 19.95308], [-98.70702, 19.95495], [-98.70633, 19.95357], [-98.70593, 19.95292]]]}}, {"id": "898858", "type": "Feature", "properties": {"id": "898858", "CVEGEO": "1308300370072001", "POBTOT": 0.0, "score_nse": 0.0, "NSE": null, "VIVTOT": 0.0, "GRAPROES": 0.0, "_ent": "13", "_mun": "083", "_loc": "0037"}, "geometry": {"type": "Polygon", "coordinates": [[[-98.7082, 19.95786], [-98.70843, 19.9585], [-98.70834, 19.95789], [-98.70881, 19.95798], [-98.70872, 19.9584], [-98.70884, 19.95799], [-98.70951, 19.95812], [-98.70965, 19.95885], [-98.70825, 19.95895], [-98.70785, 19.95794], [-98.7082, 19.95786]]]}}, {"id": "898859", "type": "Feature", "properties": {"id": "898859", "CVEGEO": "1308300370072040", "POBTOT": 0.0, "score_nse": 0.0, "NSE": null, "VIVTOT": 0.0, "GRAPROES": 0.0, "_ent": "13", "_mun": "083", "_loc": "0037"}, "geometry": {"type": "Polygon", "coordinates": [[[-98.70819, 19.95895], [-98.7071, 19.9587], [-98.70666, 19.95825], [-98.70727, 19.9581], [-98.70738, 19.95839], [-98.70733, 19.95807], [-98.70781, 19.95794], [-98.70819, 19.95895]]]}}, {"id": "898863", "type": "Feature", "properties": {"id": "898863", "CVEGEO": "1308300370072042", "POBTOT": 0.0, "score_nse": 0.0, "NSE": null, "VIVTOT": 0.0, "GRAPROES": 0.0, "_ent": "13", "_mun": "083", "_loc": "0037"}, "geometry": {"type": "Polygon", "coordinates": [[[-98.714, 19.95878], [-98.71365, 19.95819], [-98.71417, 19.95794], [-98.7145, 19.95856], [-98.714, 19.95878]]]}}, {"id": "898865", "type": "Feature", "properties": {"id": "898865", "CVEGEO": "1308300370072028", "POBTOT": 0.0, "score_nse": 0.0, "NSE": null, "VIVTOT": 0.0, "GRAPROES": 0.0, "_ent": "13", "_mun": "083", "_loc": "0037"}, "geometry": {"type": "Polygon", "coordinates": [[[-98.71357, 19.95821], [-98.71439, 19.9596], [-98.71265, 19.95963], [-98.71271, 19.95856], [-98.71357, 19.95821]]]}}, {"id": "899281", "type": "Feature", "properties": {"id": "899281", "CVEGEO": "1308300370072025", "POBTOT": 0.0, "score_nse": 0.0, "NSE": null, "VIVTOT": 0.0, "GRAPROES": 0.0, "_ent": "13", "_mun": "083", "_loc": "0037"}, "geometry": {"type": "Polygon", "coordinates": [[[-98.714, 19.95577], [-98.71369, 19.95652], [-98.71284, 19.9566], [-98.71273, 19.95622], [-98.71279, 19.95661], [-98.71224, 19.95682], [-98.71216, 19.95656], [-98.71219, 19.95683], [-98.71176, 19.95695], [-98.71139, 19.95665], [-98.71225, 19.95638], [-98.71269, 19.95575], [-98.71354, 19.95603], [-98.714, 19.95577]]]}}]}