{"type": "FeatureCollection", "features": [{"id": "1645673", "type": "Feature", "properties": {"id": "1645673", "CVEGEO": "2102000010058043", "POBTOT": 0.0, "score_nse": 10.0, "NSE": "E", "VIVTOT": 1.0, "GRAPROES": 0.0, "_ent": "21", "_mun": "020", "_loc": "0001"}, "geometry": {"type": "Polygon", "coordinates": [[[-97.91305, 18.81683], [-97.91342, 18.81689], [-97.91311, 18.81746], [-97.91305, 18.81683]]]}}, {"id": "1645674", "type": "Feature", "properties": {"id": "1645674", "CVEGEO": "2102000010039032", "POBTOT": 35.0, "score_nse": 0.0, "NSE": "ND", "VIVTOT": 10.0, "GRAPROES": 11.89, "_ent": "21", "_mun": "020", "_loc": "0001"}, "geometry": {"type": "Polygon", "coordinates": [[[-97.91328, 18.82391], [-97.91258, 18.82363], [-97.9129, 18.82284], [-97.91346, 18.82305], [-97.91328, 18.82391]]]}}, {"id": "1645675", "type": "Feature", "properties": {"id": "1645675", "CVEGEO": "2102000010039031", "POBTOT": 11.0, "score_nse": 29.872, "NSE": "D", "VIVTOT": 3.0, "GRAPROES": 5.67, "_ent": "21", "_mun": "020", "_loc": "0001"}, "geometry": {"type": "Polygon", "coordinates": [[[-97.91576, 18.82909], [-97.9166, 18.82741], [-97.92082, 18.82904], [-97.92082, 18.83185], [-97.92045, 18.83257], [-97.91633, 18.83111], [-97.91619, 18.82964], [-97.91576, 18.82909]]]}}, {"id": "1645676", "type": "Feature", "properties": {"id": "1645676", "CVEGEO": "2102000010043024", "POBTOT": 0.0, "score_nse": 0.0, "NSE": "ND", "VIVTOT": 0.0, "GRAPROES": 0.0, "_ent": "21", "_mun": "020", "_loc": "0001"}, "geometry": {"type": "Polygon", "coordinates": [[[-97.91344, 18.82146], [-97.91341, 18.82092], [-97.91366, 18.82102], [-97.91344, 18.82146]]]}}, {"id": "1645677", "type": "Feature", "properties": {"id": "1645677", "CVEGEO": "2102000010058037", "POBTOT": 0.0, "score_nse": 10.0, "NSE": "E", "VIVTOT": 1.0, "GRAPROES": 0.0, "_ent": "21", "_mun": "020", "_loc": "0001"}, "geometry": {"type": "Polygon", "coordinates": [[[-97.91265, 18.81258], [-97.91246, 18.81067], [-97.91347, 18.81099], [-97.91282, 18.81261], [-97.91265, 18.81258]]]}}, {"id": "1645678", "type": "Feature", "properties": {"id": "1645678", "CVEGEO": "2102000010058022", "POBTOT": 165.0, "score_nse": 43.4641, "NSE": "C-", "VIVTOT": 47.0, "GRAPROES": 7.89, "_ent": "21", "_mun": "020", "_loc": "0001"}, "geometry": {"type": "Polygon", "coordinates": [[[-97.91751, 18.82256], [-97.91658, 18.82215], [-97.9184, 18.81804], [-97.91916, 18.81828], [-97.91751, 18.82256]]]}}, {"id": "1645679", "type": "Feature", "properties": {"id": "1645679", "CVEGEO": "2102000010058008", "POBTOT": 61.0, "score_nse": 0.0, "NSE": "ND", "VIVTOT": 28.0, "GRAPROES": 7.37, "_ent": "21", "_mun": "020", "_loc": "0001"}, "geometry": {"type": "Polygon", "coordinates": [[[-97.91328, 18.82079], [-97.91207, 18.82031], [-97.91308, 18.81802], [-97.91328, 18.82079]]]}}, {"id": "1645680", "type": "Feature", "properties": {"id": "1645680", "CVEGEO": "2102000010058046", "POBTOT": 77.0, "score_nse": 0.0, "NSE": "ND", "VIVTOT": 20.0, "GRAPROES": 7.08, "_ent": "21", "_mun": "020", "_loc": "0001"}, "geometry": {"type": "Polygon", "coordinates": [[[-97.91292, 18.81264], [-97.91358, 18.81101], [-97.91404, 18.81119], [-97.91446, 18.81239], [-97.91393, 18.81236], [-97.91447, 18.81244], [-97.91458, 18.81297], [-97.91292, 18.81264]]]}}, {"id": "1645681", "type": "Feature", "properties": {"id": "1645681", "CVEGEO": "2102000010058045", "POBTOT": 143.0, "score_nse": 0.0, "NSE": "ND", "VIVTOT": 29.0, "GRAPROES": 7.77, "_ent": "21", "_mun": "020", "_loc": "0001"}, "geometry": {"type": "Polygon", "coordinates": [[[-97.91645, 18.81938], [-97.91564, 18.81915], [-97.91643, 18.81732], [-97.91731, 18.81765], [-97.91645, 18.81938]]]}}, {"id": "1645682", "type": "Feature", "properties": {"id": "1645682", "CVEGEO": "2102000010058044", "POBTOT": 55.0, "score_nse": 0.0, "NSE": "ND", "VIVTOT": 15.0, "GRAPROES": 8.37, "_ent": "21", "_mun": "020", "_loc": "0001"}, "geometry": {"type": "Polygon", "coordinates": [[[-97.91672, 18.81386], [-97.91613, 18.81379], [-97.91626, 18.81278], [-97.91703, 18.81281], [-97.91704, 18.81426], [-97.91672, 18.81386]]]}}, {"id": "1645683", "type": "Feature", "properties": {"id": "1645683", "CVEGEO": "2102000010039033", "POBTOT": 8.0, "score_nse": 0.0, "NSE": "ND", "VIVTOT": 2.0, "GRAPROES": 0.0, "_ent": "21", "_mun": "020", "_loc": "0001"}, "geometry": {"type": "Polygon", "coordinates": [[[-97.91367, 18.82302], [-97.91354, 18.82298], [-97.91366, 18.8225], [-97.91389, 18.82259], [-97.91367, 18.82302]]]}}, {"id": "1645684", "type": "Feature", "properties": {"id": "1645684", "CVEGEO": "2102000010039037", "POBTOT": 0.0, "score_nse": 0.0, "NSE": "ND", "VIVTOT": 0.0, "GRAPROES": 0.0, "_ent": "21", "_mun": "020", "_loc": "0001"}, "geometry": {"type": "Polygon", "coordinates": [[[-97.91293, 18.82278], [-97.91314, 18.82229], [-97.9136, 18.82247], [-97.91347, 18.82295], [-97.91293, 18.82278]]]}}, {"id": "1645685", "type": "Feature", "properties": {"id": "1645685", "CVEGEO": "2102000010039019", "POBTOT": 23.0, "score_nse": 0.0, "NSE": "ND", "VIVTOT": 8.0, "GRAPROES": 7.79, "_ent": "21", "_mun": "020", "_loc": "0001"}, "geometry": {"type": "Polygon", "coordinates": [[[-97.91267, 18.82679], [-97.91143, 18.82639], [-97.91178, 18.82557], [-97.91252, 18.82587], [-97.91267, 18.82679]]]}}, {"id": "1645686", "type": "Feature", "properties": {"id": "1645686", "CVEGEO": "2102000010058029", "POBTOT": 44.0, "score_nse": 0.0, "NSE": "ND", "VIVTOT": 13.0, "GRAPROES": 6.38, "_ent": "21", "_mun": "020", "_loc": "0001"}, "geometry": {"type": "Polygon", "coordinates": [[[-97.91864, 18.823], [-97.91756, 18.82258], [-97.91923, 18.8183], [-97.92035, 18.81872], [-97.91905, 18.82151], [-97.91864, 18.823]]]}}, {"id": "1645687", "type": "Feature", "properties": {"id": "1645687", "CVEGEO": "2102000010058028", "POBTOT": 89.0, "score_nse": 0.0, "NSE": "ND", "VIVTOT": 28.0, "GRAPROES": 6.93, "_ent": "21", "_mun": "020", "_loc": "0001"}, "geometry": {"type": "Polygon", "coordinates": [[[-97.91711, 18.81287], [-97.91839, 18.81278], [-97.91713, 18.81427], [-97.91715, 18.81367], [-97.91711, 18.81287]]]}}, {"id": "1645688", "type": "Feature", "properties": {"id": "1645688", "CVEGEO": "2102000010058027", "POBTOT": 130.0, "score_nse": 0.0, "NSE": "ND", "VIVTOT": 35.0, "GRAPROES": 7.84, "_ent": "21", "_mun": "020", "_loc": "0001"}, "geometry": {"type": "Polygon", "coordinates": [[[-97.91264, 18.81266], [-97.91458, 18.81302], [-97.91477, 18.81371], [-97.91443, 18.81445], [-97.91277, 18.81395], [-97.91264, 18.81266]]]}}, {"id": "1645689", "type": "Feature", "properties": {"id": "1645689", "CVEGEO": "2102000010058026", "POBTOT": 135.0, "score_nse": 0.0, "NSE": "ND", "VIVTOT": 42.0, "GRAPROES": 7.87, "_ent": "21", "_mun": "020", "_loc": "0001"}, "geometry": {"type": "Polygon", "coordinates": [[[-97.91296, 18.81605], [-97.9129, 18.81537], [-97.91326, 18.81537], [-97.91289, 18.8153], [-97.91277, 18.81401], [-97.91443, 18.81452], [-97.91418, 18.81513], [-97.91374, 18.81498], [-97.91415, 18.81518], [-97.91367, 18.81628], [-97.91296, 18.81605]]]}}, {"id": "1645690", "type": "Feature", "properties": {"id": "1645690", "CVEGEO": "2102000010043023", "POBTOT": 45.0, "score_nse": 0.0, "NSE": "ND", "VIVTOT": 12.0, "GRAPROES": 9.0, "_ent": "21", "_mun": "020", "_loc": "0001"}, "geometry": {"type": "Polygon", "coordinates": [[[-97.90742, 18.81988], [-97.90789, 18.81871], [-97.90883, 18.81908], [-97.90835, 18.82025], [-97.90742, 18.81988]]]}}, {"id": "1645691", "type": "Feature", "properties": {"id": "1645691", "CVEGEO": "2102000010043006", "POBTOT": 68.0, "score_nse": 0.0, "NSE": "ND", "VIVTOT": 19.0, "GRAPROES": 8.55, "_ent": "21", "_mun": "020", "_loc": "0001"}, "geometry": {"type": "Polygon", "coordinates": [[[-97.91096, 18.82516], [-97.91011, 18.82484], [-97.9109, 18.82303], [-97.91171, 18.82335], [-97.91096, 18.82516]]]}}, {"id": "1645692", "type": "Feature", "properties": {"id": "1645692", "CVEGEO": "2102000010043005", "POBTOT": 107.0, "score_nse": 54.4862, "NSE": "C-", "VIVTOT": 26.0, "GRAPROES": 9.0, "_ent": "21", "_mun": "020", "_loc": "0001"}, "geometry": {"type": "Polygon", "coordinates": [[[-97.91174, 18.82327], [-97.91092, 18.82296], [-97.91152, 18.82164], [-97.9123, 18.82195], [-97.91174, 18.82327]]]}}, {"id": "1645693", "type": "Feature", "properties": {"id": "1645693", "CVEGEO": "2102000010043004", "POBTOT": 27.0, "score_nse": 0.0, "NSE": "ND", "VIVTOT": 14.0, "GRAPROES": 8.22, "_ent": "21", "_mun": "020", "_loc": "0001"}, "geometry": {"type": "Polygon", "coordinates": [[[-97.91085, 18.82293], [-97.90998, 18.82254], [-97.91054, 18.82123], [-97.91142, 18.8216], [-97.91085, 18.82293]]]}}, {"id": "1645694", "type": "Feature", "properties": {"id": "1645694", "CVEGEO": "2102000010039014", "POBTOT": 40.0, "score_nse": 0.0, "NSE": "ND", "VIVTOT": 15.0, "GRAPROES": 8.77, "_ent": "21", "_mun": "020", "_loc": "0001"}, "geometry": {"type": "Polygon", "coordinates": [[[-97.91813, 18.82465], [-97.91695, 18.82428], [-97.91711, 18.82387], [-97.91825, 18.82436], [-97.91813, 18.82465]]]}}, {"id": "1645695", "type": "Feature", "properties": {"id": "1645695", "CVEGEO": "2102000010039013", "POBTOT": 51.0, "score_nse": 0.0, "NSE": "ND", "VIVTOT": 15.0, "GRAPROES": 8.45, "_ent": "21", "_mun": "020", "_loc": "0001"}, "geometry": {"type": "Polygon", "coordinates": [[[-97.91689, 18.82426], [-97.91584, 18.82385], [-97.91601, 18.82344], [-97.91705, 18.82385], [-97.91689, 18.82426]]]}}, {"id": "1645696", "type": "Feature", "properties": {"id": "1645696", "CVEGEO": "2102000010039003", "POBTOT": 49.0, "score_nse": 0.0, "NSE": "ND", "VIVTOT": 11.0, "GRAPROES": 8.71, "_ent": "21", "_mun": "020", "_loc": "0001"}, "geometry": {"type": "Polygon", "coordinates": [[[-97.91545, 18.82477], [-97.91581, 18.82392], [-97.91622, 18.82408], [-97.91591, 18.82497], [-97.91545, 18.82477]]]}}, {"id": "1645697", "type": "Feature", "properties": {"id": "1645697", "CVEGEO": "2102000010043020", "POBTOT": 56.0, "score_nse": 45.9076, "NSE": "C-", "VIVTOT": 18.0, "GRAPROES": 8.61, "_ent": "21", "_mun": "020", "_loc": "0001"}, "geometry": {"type": "Polygon", "coordinates": [[[-97.9042, 18.82457], [-97.90458, 18.82355], [-97.90375, 18.82192], [-97.90373, 18.82029], [-97.90525, 18.8207], [-97.90667, 18.82131], [-97.90583, 18.82329], [-97.90696, 18.82376], [-97.90629, 18.82548], [-97.9042, 18.82457]]]}}, {"id": "1645698", "type": "Feature", "properties": {"id": "1645698", "CVEGEO": "2102000010058040", "POBTOT": 0.0, "score_nse": 10.0, "NSE": "E", "VIVTOT": 1.0, "GRAPROES": 0.0, "_ent": "21", "_mun": "020", "_loc": "0001"}, "geometry": {"type": "Polygon", "coordinates": [[[-97.91236, 18.81068], [-97.91254, 18.81253], [-97.9114, 18.81186], [-97.91082, 18.81298], [-97.91019, 18.81507], [-97.90762, 18.81414], [-97.91236, 18.81068]]]}}, {"id": "1645701", "type": "Feature", "properties": {"id": "1645701", "CVEGEO": "2102000010062010", "POBTOT": 24.0, "score_nse": 0.0, "NSE": "ND", "VIVTOT": 9.0, "GRAPROES": 6.23, "_ent": "21", "_mun": "020", "_loc": "0001"}, "geometry": {"type": "Polygon", "coordinates": [[[-97.92127, 18.81097], [-97.92076, 18.81147], [-97.9205, 18.81207], [-97.9187, 18.81364], [-97.91816, 18.8135], [-97.91951, 18.81257], [-97.92032, 18.81127], [-97.92055, 18.81138], [-97.92035, 18.81122], [-97.92121, 18.80909], [-97.92127, 18.81097]]]}}, {"id": "1645702", "type": "Feature", "properties": {"id": "1645702", "CVEGEO": "2102000010062008", "POBTOT": 6.0, "score_nse": 0.0, "NSE": "ND", "VIVTOT": 3.0, "GRAPROES": 0.0, "_ent": "21", "_mun": "020", "_loc": "0001"}, "geometry": {"type": "Polygon", "coordinates": [[[-97.91864, 18.81309], [-97.91814, 18.81346], [-97.91797, 18.81345], [-97.91838, 18.81292], [-97.91864, 18.81309]]]}}, {"id": "1645703", "type": "Feature", "properties": {"id": "1645703", "CVEGEO": "2102000010062002", "POBTOT": 33.0, "score_nse": 0.0, "NSE": "ND", "VIVTOT": 11.0, "GRAPROES": 7.73, "_ent": "21", "_mun": "020", "_loc": "0001"}, "geometry": {"type": "Polygon", "coordinates": [[[-97.91785, 18.81475], [-97.91846, 18.8139], [-97.91989, 18.81332], [-97.92042, 18.81316], [-97.92127, 18.81324], [-97.92077, 18.81447], [-97.91999, 18.81427], [-97.91963, 18.81387], [-97.91991, 18.81426], [-97.91936, 18.81429], [-97.9185, 18.81488], [-97.91785, 18.81475]]]}}, {"id": "1645704", "type": "Feature", "properties": {"id": "1645704", "CVEGEO": "2102000010058036", "POBTOT": 134.0, "score_nse": 0.0, "NSE": "ND", "VIVTOT": 34.0, "GRAPROES": 6.68, "_ent": "21", "_mun": "020", "_loc": "0001"}, "geometry": {"type": "Polygon", "coordinates": [[[-97.91172, 18.8156], [-97.91025, 18.81509], [-97.91102, 18.81267], [-97.91142, 18.81197], [-97.91255, 18.81261], [-97.91257, 18.81289], [-97.91222, 18.81303], [-97.91212, 18.81505], [-97.91172, 18.8156]]]}}, {"id": "1645705", "type": "Feature", "properties": {"id": "1645705", "CVEGEO": "2102000010058035", "POBTOT": 80.0, "score_nse": 0.0, "NSE": "ND", "VIVTOT": 25.0, "GRAPROES": 7.44, "_ent": "21", "_mun": "020", "_loc": "0001"}, "geometry": {"type": "Polygon", "coordinates": [[[-97.90935, 18.818], [-97.91023, 18.81514], [-97.91169, 18.81566], [-97.91057, 18.81826], [-97.90935, 18.818]]]}}, {"id": "1645706", "type": "Feature", "properties": {"id": "1645706", "CVEGEO": "2102000010058034", "POBTOT": 15.0, "score_nse": 0.0, "NSE": "ND", "VIVTOT": 6.0, "GRAPROES": 9.8, "_ent": "21", "_mun": "020", "_loc": "0001"}, "geometry": {"type": "Polygon", "coordinates": [[[-97.90893, 18.81905], [-97.90928, 18.81828], [-97.90977, 18.81937], [-97.90925, 18.81906], [-97.90893, 18.81905]]]}}, {"id": "1645707", "type": "Feature", "properties": {"id": "1645707", "CVEGEO": "2102000010058032", "POBTOT": 13.0, "score_nse": 0.0, "NSE": "ND", "VIVTOT": 3.0, "GRAPROES": 10.0, "_ent": "21", "_mun": "020", "_loc": "0001"}, "geometry": {"type": "Polygon", "coordinates": [[[-97.91501, 18.81289], [-97.91608, 18.81052], [-97.91686, 18.80947], [-97.91705, 18.81084], [-97.91703, 18.81276], [-97.91582, 18.81274], [-97.91501, 18.81289]]]}}, {"id": "1645708", "type": "Feature", "properties": {"id": "1645708", "CVEGEO": "2102000010058007", "POBTOT": 135.0, "score_nse": 50.011, "NSE": "C-", "VIVTOT": 32.0, "GRAPROES": 9.5, "_ent": "21", "_mun": "020", "_loc": "0001"}, "geometry": {"type": "Polygon", "coordinates": [[[-97.91453, 18.82131], [-97.91376, 18.82099], [-97.91461, 18.81891], [-97.91546, 18.81922], [-97.91453, 18.82131]]]}}, {"id": "1645709", "type": "Feature", "properties": {"id": "1645709", "CVEGEO": "2102000010058006", "POBTOT": 183.0, "score_nse": 0.0, "NSE": "ND", "VIVTOT": 42.0, "GRAPROES": 7.73, "_ent": "21", "_mun": "020", "_loc": "0001"}, "geometry": {"type": "Polygon", "coordinates": [[[-97.91545, 18.8217], [-97.91464, 18.82136], [-97.91561, 18.81921], [-97.91642, 18.81943], [-97.91545, 18.8217]]]}}, {"id": "1645710", "type": "Feature", "properties": {"id": "1645710", "CVEGEO": "2102000010058004", "POBTOT": 134.0, "score_nse": 0.0, "NSE": "ND", "VIVTOT": 39.0, "GRAPROES": 7.54, "_ent": "21", "_mun": "020", "_loc": "0001"}, "geometry": {"type": "Polygon", "coordinates": [[[-97.91636, 18.81724], [-97.91546, 18.81691], [-97.91632, 18.81491], [-97.91704, 18.81462], [-97.91698, 18.81581], [-97.91636, 18.81687], [-97.91636, 18.81724]]]}}, {"id": "1645711", "type": "Feature", "properties": {"id": "1645711", "CVEGEO": "2102000010058003", "POBTOT": 22.0, "score_nse": 0.0, "NSE": "ND", "VIVTOT": 12.0, "GRAPROES": 5.71, "_ent": "21", "_mun": "020", "_loc": "0001"}, "geometry": {"type": "Polygon", "coordinates": [[[-97.91585, 18.81566], [-97.91538, 18.81689], [-97.91495, 18.81676], [-97.91585, 18.81566]]]}}, {"id": "1645712", "type": "Feature", "properties": {"id": "1645712", "CVEGEO": "2102000010058002", "POBTOT": 137.0, "score_nse": 46.2558, "NSE": "C-", "VIVTOT": 49.0, "GRAPROES": 9.29, "_ent": "21", "_mun": "020", "_loc": "0001"}, "geometry": {"type": "Polygon", "coordinates": [[[-97.91355, 18.8209], [-97.91339, 18.82026], [-97.91407, 18.81828], [-97.91489, 18.81681], [-97.91536, 18.81696], [-97.91368, 18.82095], [-97.91355, 18.8209]]]}}, {"id": "1645713", "type": "Feature", "properties": {"id": "1645713", "CVEGEO": "2102000010043018", "POBTOT": 0.0, "score_nse": 0.0, "NSE": "ND", "VIVTOT": 0.0, "GRAPROES": 0.0, "_ent": "21", "_mun": "020", "_loc": "0001"}, "geometry": {"type": "Polygon", "coordinates": [[[-97.90692, 18.82812], [-97.90642, 18.82567], [-97.91093, 18.82728], [-97.90974, 18.82899], [-97.90692, 18.82812]]]}}, {"id": "1645714", "type": "Feature", "properties": {"id": "1645714", "CVEGEO": "2102000010043017", "POBTOT": 57.0, "score_nse": 47.9495, "NSE": "C-", "VIVTOT": 21.0, "GRAPROES": 9.33, "_ent": "21", "_mun": "020", "_loc": "0001"}, "geometry": {"type": "Polygon", "coordinates": [[[-97.91111, 18.82522], [-97.91179, 18.82338], [-97.91246, 18.82367], [-97.9117, 18.82545], [-97.91111, 18.82522]]]}}, {"id": "1645715", "type": "Feature", "properties": {"id": "1645715", "CVEGEO": "2102000010039001", "POBTOT": 81.0, "score_nse": 0.0, "NSE": "ND", "VIVTOT": 19.0, "GRAPROES": 7.47, "_ent": "21", "_mun": "020", "_loc": "0001"}, "geometry": {"type": "Polygon", "coordinates": [[[-97.9154, 18.82686], [-97.91595, 18.82507], [-97.91646, 18.82529], [-97.91581, 18.82701], [-97.9154, 18.82686]]]}}, {"id": "1645716", "type": "Feature", "properties": {"id": "1645716", "CVEGEO": "2102000010058024", "POBTOT": 81.0, "score_nse": 46.4452, "NSE": "C-", "VIVTOT": 27.0, "GRAPROES": 6.94, "_ent": "21", "_mun": "020", "_loc": "0001"}, "geometry": {"type": "Polygon", "coordinates": [[[-97.91172, 18.81859], [-97.91109, 18.81842], [-97.91139, 18.81742], [-97.91187, 18.8169], [-97.91204, 18.81701], [-97.91191, 18.81688], [-97.91214, 18.81674], [-97.91274, 18.81674], [-97.91172, 18.81859]]]}}, {"id": "1645717", "type": "Feature", "properties": {"id": "1645717", "CVEGEO": "2102000010043016", "POBTOT": 41.0, "score_nse": 0.0, "NSE": "ND", "VIVTOT": 11.0, "GRAPROES": 9.55, "_ent": "21", "_mun": "020", "_loc": "0001"}, "geometry": {"type": "Polygon", "coordinates": [[[-97.91182, 18.8233], [-97.91236, 18.82197], [-97.91304, 18.82225], [-97.91249, 18.82359], [-97.91182, 18.8233]]]}}, {"id": "1645718", "type": "Feature", "properties": {"id": "1645718", "CVEGEO": "2102000010043015", "POBTOT": 26.0, "score_nse": 57.2333, "NSE": "C", "VIVTOT": 12.0, "GRAPROES": 11.85, "_ent": "21", "_mun": "020", "_loc": "0001"}, "geometry": {"type": "Polygon", "coordinates": [[[-97.91302, 18.82217], [-97.91238, 18.82191], [-97.91287, 18.8207], [-97.91331, 18.82089], [-97.91333, 18.82162], [-97.91302, 18.82217]]]}}, {"id": "1645719", "type": "Feature", "properties": {"id": "1645719", "CVEGEO": "2102000010043014", "POBTOT": 87.0, "score_nse": 44.588, "NSE": "C-", "VIVTOT": 25.0, "GRAPROES": 8.05, "_ent": "21", "_mun": "020", "_loc": "0001"}, "geometry": {"type": "Polygon", "coordinates": [[[-97.91233, 18.82188], [-97.91154, 18.82155], [-97.91205, 18.82037], [-97.91283, 18.82068], [-97.91233, 18.82188]]]}}, {"id": "1645720", "type": "Feature", "properties": {"id": "1645720", "CVEGEO": "2102000010043001", "POBTOT": 114.0, "score_nse": 0.0, "NSE": "ND", "VIVTOT": 31.0, "GRAPROES": 7.47, "_ent": "21", "_mun": "020", "_loc": "0001"}, "geometry": {"type": "Polygon", "coordinates": [[[-97.9091, 18.82447], [-97.90995, 18.82261], [-97.91081, 18.823], [-97.91002, 18.82481], [-97.9091, 18.82447]]]}}, {"id": "1645721", "type": "Feature", "properties": {"id": "1645721", "CVEGEO": "2102000010039042", "POBTOT": 0.0, "score_nse": 0.0, "NSE": "ND", "VIVTOT": 0.0, "GRAPROES": 0.0, "_ent": "21", "_mun": "020", "_loc": "0001"}, "geometry": {"type": "Polygon", "coordinates": [[[-97.91107, 18.82721], [-97.91141, 18.82645], [-97.91268, 18.82684], [-97.913, 18.82799], [-97.91107, 18.82721]]]}}, {"id": "1645722", "type": "Feature", "properties": {"id": "1645722", "CVEGEO": "2102000010039041", "POBTOT": 0.0, "score_nse": 10.0, "NSE": "E", "VIVTOT": 1.0, "GRAPROES": 0.0, "_ent": "21", "_mun": "020", "_loc": "0001"}, "geometry": {"type": "Polygon", "coordinates": [[[-97.91293, 18.82751], [-97.91276, 18.82677], [-97.91262, 18.8259], [-97.91353, 18.82623], [-97.91293, 18.82751]]]}}, {"id": "1645723", "type": "Feature", "properties": {"id": "1645723", "CVEGEO": "2102000010039040", "POBTOT": 13.0, "score_nse": 0.0, "NSE": "ND", "VIVTOT": 4.0, "GRAPROES": 8.33, "_ent": "21", "_mun": "020", "_loc": "0001"}, "geometry": {"type": "Polygon", "coordinates": [[[-97.91181, 18.8255], [-97.91255, 18.82371], [-97.91335, 18.82402], [-97.91252, 18.82578], [-97.91181, 18.8255]]]}}, {"id": "1645724", "type": "Feature", "properties": {"id": "1645724", "CVEGEO": "2102000010039038", "POBTOT": 48.0, "score_nse": 0.0, "NSE": "ND", "VIVTOT": 8.0, "GRAPROES": 5.57, "_ent": "21", "_mun": "020", "_loc": "0001"}, "geometry": {"type": "Polygon", "coordinates": [[[-97.91719, 18.8255], [-97.91752, 18.82456], [-97.91801, 18.82476], [-97.91743, 18.82559], [-97.91719, 18.8255]]]}}, {"id": "1645725", "type": "Feature", "properties": {"id": "1645725", "CVEGEO": "2102000010039027", "POBTOT": 18.0, "score_nse": 0.0, "NSE": "ND", "VIVTOT": 8.0, "GRAPROES": 9.23, "_ent": "21", "_mun": "020", "_loc": "0001"}, "geometry": {"type": "Polygon", "coordinates": [[[-97.91875, 18.82312], [-97.92034, 18.8237], [-97.92009, 18.82464], [-97.91959, 18.82482], [-97.91839, 18.82431], [-97.91875, 18.82312]]]}}, {"id": "1645726", "type": "Feature", "properties": {"id": "1645726", "CVEGEO": "2102000010039026", "POBTOT": 33.0, "score_nse": 0.0, "NSE": "ND", "VIVTOT": 8.0, "GRAPROES": 8.84, "_ent": "21", "_mun": "020", "_loc": "0001"}, "geometry": {"type": "Polygon", "coordinates": [[[-97.91829, 18.82427], [-97.91713, 18.82381], [-97.91754, 18.82265], [-97.91864, 18.82308], [-97.91829, 18.82427]]]}}, {"id": "1645727", "type": "Feature", "properties": {"id": "1645727", "CVEGEO": "2102000010039025", "POBTOT": 56.0, "score_nse": 0.0, "NSE": "ND", "VIVTOT": 13.0, "GRAPROES": 7.37, "_ent": "21", "_mun": "020", "_loc": "0001"}, "geometry": {"type": "Polygon", "coordinates": [[[-97.91604, 18.82338], [-97.91655, 18.82223], [-97.91748, 18.82262], [-97.91707, 18.82379], [-97.91604, 18.82338]]]}}, {"id": "1645728", "type": "Feature", "properties": {"id": "1645728", "CVEGEO": "2102000010039024", "POBTOT": 67.0, "score_nse": 0.0, "NSE": "ND", "VIVTOT": 21.0, "GRAPROES": 8.9, "_ent": "21", "_mun": "020", "_loc": "0001"}, "geometry": {"type": "Polygon", "coordinates": [[[-97.91539, 18.82311], [-97.91551, 18.82278], [-97.91531, 18.82308], [-97.91501, 18.82296], [-97.9155, 18.82179], [-97.91645, 18.82219], [-97.91594, 18.82334], [-97.91539, 18.82311]]]}}, {"id": "1645729", "type": "Feature", "properties": {"id": "1645729", "CVEGEO": "2102000010039023", "POBTOT": 60.0, "score_nse": 0.0, "NSE": "ND", "VIVTOT": 13.0, "GRAPROES": 8.05, "_ent": "21", "_mun": "020", "_loc": "0001"}, "geometry": {"type": "Polygon", "coordinates": [[[-97.91494, 18.82293], [-97.91404, 18.82258], [-97.91459, 18.82142], [-97.91542, 18.82177], [-97.91494, 18.82293]]]}}, {"id": "1645730", "type": "Feature", "properties": {"id": "1645730", "CVEGEO": "2102000010039010", "POBTOT": 109.0, "score_nse": 0.0, "NSE": "ND", "VIVTOT": 31.0, "GRAPROES": 7.11, "_ent": "21", "_mun": "020", "_loc": "0001"}, "geometry": {"type": "Polygon", "coordinates": [[[-97.91456, 18.82655], [-97.91364, 18.82619], [-97.91438, 18.82442], [-97.91532, 18.82481], [-97.91456, 18.82655]]]}}, {"id": "1645731", "type": "Feature", "properties": {"id": "1645731", "CVEGEO": "2102000010039009", "POBTOT": 6.0, "score_nse": 0.0, "NSE": "ND", "VIVTOT": 3.0, "GRAPROES": 0.0, "_ent": "21", "_mun": "020", "_loc": "0001"}, "geometry": {"type": "Polygon", "coordinates": [[[-97.91381, 18.82831], [-97.91313, 18.82804], [-97.91305, 18.82765], [-97.9136, 18.82626], [-97.91453, 18.82662], [-97.91381, 18.82831]]]}}, {"id": "1645732", "type": "Feature", "properties": {"id": "1645732", "CVEGEO": "2102000010039008", "POBTOT": 92.0, "score_nse": 0.0, "NSE": "ND", "VIVTOT": 22.0, "GRAPROES": 7.5, "_ent": "21", "_mun": "020", "_loc": "0001"}, "geometry": {"type": "Polygon", "coordinates": [[[-97.91567, 18.82904], [-97.91391, 18.82835], [-97.914, 18.82813], [-97.91425, 18.82822], [-97.91401, 18.82811], [-97.91428, 18.82747], [-97.9149, 18.82764], [-97.91429, 18.82744], [-97.91463, 18.82666], [-97.91525, 18.82689], [-97.91515, 18.82722], [-97.91528, 18.8269], [-97.91559, 18.82701], [-97.9155, 18.82728], [-97.91561, 18.82702], [-97.91649, 18.82736], [-97.91586, 18.82864], [-97.91534, 18.82851], [-97.91583, 18.8287], [-97.91567, 18.82904]]]}}, {"id": "1645733", "type": "Feature", "properties": {"id": "1645733", "CVEGEO": "2102000010039006", "POBTOT": 95.0, "score_nse": 0.0, "NSE": "ND", "VIVTOT": 20.0, "GRAPROES": 7.31, "_ent": "21", "_mun": "020", "_loc": "0001"}, "geometry": {"type": "Polygon", "coordinates": [[[-97.91708, 18.82545], [-97.91655, 18.82523], [-97.91692, 18.82435], [-97.91748, 18.82454], [-97.91708, 18.82545]]]}}, {"id": "1645734", "type": "Feature", "properties": {"id": "1645734", "CVEGEO": "2102000010039004", "POBTOT": 15.0, "score_nse": 0.0, "NSE": "ND", "VIVTOT": 5.0, "GRAPROES": 8.83, "_ent": "21", "_mun": "020", "_loc": "0001"}, "geometry": {"type": "Polygon", "coordinates": [[[-97.91649, 18.82521], [-97.91597, 18.82499], [-97.91628, 18.8241], [-97.91686, 18.82432], [-97.91649, 18.82521]]]}}, {"id": "1645735", "type": "Feature", "properties": {"id": "1645735", "CVEGEO": "2102000010058001", "POBTOT": 25.0, "score_nse": 0.0, "NSE": "ND", "VIVTOT": 14.0, "GRAPROES": 9.91, "_ent": "21", "_mun": "020", "_loc": "0001"}, "geometry": {"type": "Polygon", "coordinates": [[[-97.91549, 18.81915], [-97.91464, 18.81883], [-97.91544, 18.81699], [-97.91631, 18.8173], [-97.91549, 18.81915]]]}}, {"id": "1645736", "type": "Feature", "properties": {"id": "1645736", "CVEGEO": "2102000010043027", "POBTOT": 15.0, "score_nse": 0.0, "NSE": "ND", "VIVTOT": 6.0, "GRAPROES": 7.08, "_ent": "21", "_mun": "020", "_loc": "0001"}, "geometry": {"type": "Polygon", "coordinates": [[[-97.91063, 18.82704], [-97.9094, 18.82654], [-97.91008, 18.82493], [-97.91167, 18.82552], [-97.91104, 18.82701], [-97.91063, 18.82704]]]}}, {"id": "1645737", "type": "Feature", "properties": {"id": "1645737", "CVEGEO": "2102000010039017", "POBTOT": 0.0, "score_nse": 0.0, "NSE": "ND", "VIVTOT": 0.0, "GRAPROES": 0.0, "_ent": "21", "_mun": "020", "_loc": "0001"}, "geometry": {"type": "Polygon", "coordinates": [[[-97.9157, 18.82919], [-97.91612, 18.8299], [-97.9162, 18.83106], [-97.91375, 18.83023], [-97.91358, 18.82917], [-97.91392, 18.82847], [-97.9157, 18.82919]]]}}, {"id": "1645738", "type": "Feature", "properties": {"id": "1645738", "CVEGEO": "2102000010039016", "POBTOT": 33.0, "score_nse": 0.0, "NSE": "ND", "VIVTOT": 10.0, "GRAPROES": 6.75, "_ent": "21", "_mun": "020", "_loc": "0001"}, "geometry": {"type": "Polygon", "coordinates": [[[-97.91664, 18.82734], [-97.91743, 18.82568], [-97.91755, 18.82573], [-97.91694, 18.82745], [-97.91664, 18.82734]]]}}, {"id": "1645739", "type": "Feature", "properties": {"id": "1645739", "CVEGEO": "2102000010058021", "POBTOT": 126.0, "score_nse": 0.0, "NSE": "ND", "VIVTOT": 44.0, "GRAPROES": 6.96, "_ent": "21", "_mun": "020", "_loc": "0001"}, "geometry": {"type": "Polygon", "coordinates": [[[-97.91895, 18.81783], [-97.91882, 18.81809], [-97.91844, 18.81797], [-97.91998, 18.81433], [-97.92074, 18.81451], [-97.91919, 18.81822], [-97.91887, 18.81811], [-97.91895, 18.81783]]]}}, {"id": "1645740", "type": "Feature", "properties": {"id": "1645740", "CVEGEO": "2102000010058019", "POBTOT": 123.0, "score_nse": 0.0, "NSE": "ND", "VIVTOT": 31.0, "GRAPROES": 7.94, "_ent": "21", "_mun": "020", "_loc": "0001"}, "geometry": {"type": "Polygon", "coordinates": [[[-97.91373, 18.8163], [-97.91479, 18.81384], [-97.91535, 18.81527], [-97.9139, 18.81636], [-97.91373, 18.8163]]]}}, {"id": "1645741", "type": "Feature", "properties": {"id": "1645741", "CVEGEO": "2102000010058018", "POBTOT": 2.0, "score_nse": 0.0, "NSE": "ND", "VIVTOT": 1.0, "GRAPROES": 0.0, "_ent": "21", "_mun": "020", "_loc": "0001"}, "geometry": {"type": "Polygon", "coordinates": [[[-97.91356, 18.81666], [-97.91369, 18.81637], [-97.91384, 18.81642], [-97.91356, 18.81666]]]}}, {"id": "1645742", "type": "Feature", "properties": {"id": "1645742", "CVEGEO": "2102000010058017", "POBTOT": 55.0, "score_nse": 0.0, "NSE": "ND", "VIVTOT": 16.0, "GRAPROES": 9.58, "_ent": "21", "_mun": "020", "_loc": "0001"}, "geometry": {"type": "Polygon", "coordinates": [[[-97.91304, 18.81674], [-97.91297, 18.81612], [-97.91363, 18.81635], [-97.91344, 18.81684], [-97.91304, 18.81674]]]}}, {"id": "1645743", "type": "Feature", "properties": {"id": "1645743", "CVEGEO": "2102000010043013", "POBTOT": 80.0, "score_nse": 37.8386, "NSE": "D+", "VIVTOT": 34.0, "GRAPROES": 7.6, "_ent": "21", "_mun": "020", "_loc": "0001"}, "geometry": {"type": "Polygon", "coordinates": [[[-97.91144, 18.82152], [-97.91057, 18.82117], [-97.91109, 18.81996], [-97.91196, 18.82034], [-97.91177, 18.82076], [-97.91151, 18.82072], [-97.91171, 18.8209], [-97.91145, 18.82086], [-97.91169, 18.82095], [-97.91144, 18.82152]]]}}, {"id": "1645744", "type": "Feature", "properties": {"id": "1645744", "CVEGEO": "2102000010077001", "POBTOT": 31.0, "score_nse": 52.048, "NSE": "C-", "VIVTOT": 10.0, "GRAPROES": 8.71, "_ent": "21", "_mun": "020", "_loc": "0001"}, "geometry": {"type": "Polygon", "coordinates": [[[-97.90789, 18.81864], [-97.90829, 18.81767], [-97.90924, 18.81811], [-97.90886, 18.81902], [-97.90789, 18.81864]]]}}, {"id": "1645745", "type": "Feature", "properties": {"id": "1645745", "CVEGEO": "2102000010058010", "POBTOT": 164.0, "score_nse": 0.0, "NSE": "ND", "VIVTOT": 45.0, "GRAPROES": 7.81, "_ent": "21", "_mun": "020", "_loc": "0001"}, "geometry": {"type": "Polygon", "coordinates": [[[-97.91486, 18.81672], [-97.91399, 18.81638], [-97.91517, 18.81546], [-97.91624, 18.8149], [-97.91486, 18.81672]]]}}, {"id": "1645746", "type": "Feature", "properties": {"id": "1645746", "CVEGEO": "2102000010058009", "POBTOT": 182.0, "score_nse": 42.523, "NSE": "C-", "VIVTOT": 59.0, "GRAPROES": 8.92, "_ent": "21", "_mun": "020", "_loc": "0001"}, "geometry": {"type": "Polygon", "coordinates": [[[-97.91338, 18.82004], [-97.9132, 18.81751], [-97.91345, 18.81758], [-97.91324, 18.81745], [-97.91349, 18.81689], [-97.91392, 18.81644], [-97.91482, 18.81679], [-97.91387, 18.81858], [-97.91338, 18.82004]]]}}, {"id": "1645747", "type": "Feature", "properties": {"id": "1645747", "CVEGEO": "2102000010039034", "POBTOT": 43.0, "score_nse": 72.9662, "NSE": "C+", "VIVTOT": 11.0, "GRAPROES": 13.03, "_ent": "21", "_mun": "020", "_loc": "0001"}, "geometry": {"type": "Polygon", "coordinates": [[[-97.91387, 18.82251], [-97.91316, 18.82223], [-97.91373, 18.82105], [-97.91446, 18.82137], [-97.91387, 18.82251]]]}}, {"id": "1645748", "type": "Feature", "properties": {"id": "1645748", "CVEGEO": "2102000010039015", "POBTOT": 0.0, "score_nse": 10.0, "NSE": "E", "VIVTOT": 1.0, "GRAPROES": 0.0, "_ent": "21", "_mun": "020", "_loc": "0001"}, "geometry": {"type": "Polygon", "coordinates": [[[-97.91951, 18.82519], [-97.9184, 18.82479], [-97.91816, 18.82477], [-97.91836, 18.82438], [-97.91956, 18.82488], [-97.91951, 18.82519]]]}}, {"id": "1645749", "type": "Feature", "properties": {"id": "1645749", "CVEGEO": "2102000010058041", "POBTOT": 12.0, "score_nse": 0.0, "NSE": "ND", "VIVTOT": 6.0, "GRAPROES": 12.44, "_ent": "21", "_mun": "020", "_loc": "0001"}, "geometry": {"type": "Polygon", "coordinates": [[[-97.91187, 18.81555], [-97.91212, 18.8152], [-97.91282, 18.81535], [-97.91289, 18.81601], [-97.91187, 18.81555]]]}}, {"id": "1645750", "type": "Feature", "properties": {"id": "1645750", "CVEGEO": "2102000010058039", "POBTOT": 3.0, "score_nse": 0.0, "NSE": "ND", "VIVTOT": 1.0, "GRAPROES": 0.0, "_ent": "21", "_mun": "020", "_loc": "0001"}, "geometry": {"type": "Polygon", "coordinates": [[[-97.90928, 18.81798], [-97.90859, 18.81664], [-97.90762, 18.8142], [-97.91018, 18.81512], [-97.90928, 18.81798]]]}}, {"id": "1645751", "type": "Feature", "properties": {"id": "1645751", "CVEGEO": "2102000010058025", "POBTOT": 174.0, "score_nse": 0.0, "NSE": "ND", "VIVTOT": 42.0, "GRAPROES": 6.5, "_ent": "21", "_mun": "020", "_loc": "0001"}, "geometry": {"type": "Polygon", "coordinates": [[[-97.91071, 18.8183], [-97.91182, 18.8157], [-97.91289, 18.81609], [-97.91295, 18.81672], [-97.91223, 18.81664], [-97.91162, 18.81699], [-97.91132, 18.8174], [-97.91101, 18.81839], [-97.91071, 18.8183]]]}}, {"id": "1645752", "type": "Feature", "properties": {"id": "1645752", "CVEGEO": "2102000010058023", "POBTOT": 78.0, "score_nse": 0.0, "NSE": "ND", "VIVTOT": 26.0, "GRAPROES": 9.19, "_ent": "21", "_mun": "020", "_loc": "0001"}, "geometry": {"type": "Polygon", "coordinates": [[[-97.90947, 18.81807], [-97.91172, 18.81866], [-97.91106, 18.81987], [-97.90988, 18.8194], [-97.90932, 18.81819], [-97.90947, 18.81807]]]}}, {"id": "1645753", "type": "Feature", "properties": {"id": "1645753", "CVEGEO": "2102000010058016", "POBTOT": 84.0, "score_nse": 48.3631, "NSE": "C-", "VIVTOT": 26.0, "GRAPROES": 9.2, "_ent": "21", "_mun": "020", "_loc": "0001"}, "geometry": {"type": "Polygon", "coordinates": [[[-97.91258, 18.81886], [-97.91183, 18.81863], [-97.91278, 18.81684], [-97.91297, 18.81681], [-97.91305, 18.81772], [-97.91258, 18.81886]]]}}, {"id": "1645754", "type": "Feature", "properties": {"id": "1645754", "CVEGEO": "2102000010058015", "POBTOT": 90.0, "score_nse": 40.364, "NSE": "D+", "VIVTOT": 25.0, "GRAPROES": 7.54, "_ent": "21", "_mun": "020", "_loc": "0001"}, "geometry": {"type": "Polygon", "coordinates": [[[-97.91198, 18.82026], [-97.91112, 18.8199], [-97.91181, 18.8187], [-97.91255, 18.81893], [-97.91198, 18.82026]]]}}, {"id": "1645755", "type": "Feature", "properties": {"id": "1645755", "CVEGEO": "2102000010043012", "POBTOT": 71.0, "score_nse": 44.1861, "NSE": "C-", "VIVTOT": 21.0, "GRAPROES": 7.81, "_ent": "21", "_mun": "020", "_loc": "0001"}, "geometry": {"type": "Polygon", "coordinates": [[[-97.91051, 18.82115], [-97.90935, 18.82068], [-97.90981, 18.81945], [-97.91103, 18.81994], [-97.91051, 18.82115]]]}}, {"id": "1645756", "type": "Feature", "properties": {"id": "1645756", "CVEGEO": "2102000010039018", "POBTOT": 0.0, "score_nse": 0.0, "NSE": "ND", "VIVTOT": 0.0, "GRAPROES": 0.0, "_ent": "21", "_mun": "020", "_loc": "0001"}, "geometry": {"type": "Polygon", "coordinates": [[[-97.90982, 18.82902], [-97.91101, 18.82732], [-97.91387, 18.82846], [-97.91353, 18.82917], [-97.9137, 18.83021], [-97.90982, 18.82902]]]}}, {"id": "1645757", "type": "Feature", "properties": {"id": "1645757", "CVEGEO": "2102000010039002", "POBTOT": 82.0, "score_nse": 0.0, "NSE": "ND", "VIVTOT": 24.0, "GRAPROES": 7.68, "_ent": "21", "_mun": "020", "_loc": "0001"}, "geometry": {"type": "Polygon", "coordinates": [[[-97.91534, 18.82683], [-97.91466, 18.82658], [-97.91541, 18.82485], [-97.91589, 18.82505], [-97.91534, 18.82683]]]}}, {"id": "1645758", "type": "Feature", "properties": {"id": "1645758", "CVEGEO": "2102000010039011", "POBTOT": 81.0, "score_nse": 0.0, "NSE": "ND", "VIVTOT": 19.0, "GRAPROES": 8.86, "_ent": "21", "_mun": "020", "_loc": "0001"}, "geometry": {"type": "Polygon", "coordinates": [[[-97.91532, 18.82472], [-97.91441, 18.82435], [-97.91479, 18.82352], [-97.91571, 18.82388], [-97.91532, 18.82472]]]}}, {"id": "1645759", "type": "Feature", "properties": {"id": "1645759", "CVEGEO": "2102000010058013", "POBTOT": 57.0, "score_nse": 43.9655, "NSE": "C-", "VIVTOT": 21.0, "GRAPROES": 7.79, "_ent": "21", "_mun": "020", "_loc": "0001"}, "geometry": {"type": "Polygon", "coordinates": [[[-97.91764, 18.81964], [-97.91716, 18.81814], [-97.91739, 18.81768], [-97.91833, 18.81801], [-97.91764, 18.81964]]]}}, {"id": "1645760", "type": "Feature", "properties": {"id": "1645760", "CVEGEO": "2102000010039022", "POBTOT": 10.0, "score_nse": 0.0, "NSE": "ND", "VIVTOT": 5.0, "GRAPROES": 9.75, "_ent": "21", "_mun": "020", "_loc": "0001"}, "geometry": {"type": "Polygon", "coordinates": [[[-97.91381, 18.82307], [-97.91401, 18.82264], [-97.91491, 18.82299], [-97.91473, 18.82342], [-97.91381, 18.82307]]]}}, {"id": "1645761", "type": "Feature", "properties": {"id": "1645761", "CVEGEO": "2102000010043003", "POBTOT": 107.0, "score_nse": 44.412, "NSE": "C-", "VIVTOT": 30.0, "GRAPROES": 6.82, "_ent": "21", "_mun": "020", "_loc": "0001"}, "geometry": {"type": "Polygon", "coordinates": [[[-97.90992, 18.82251], [-97.90879, 18.82206], [-97.90915, 18.82117], [-97.9097, 18.8213], [-97.90917, 18.82112], [-97.90932, 18.82075], [-97.91048, 18.82121], [-97.90992, 18.82251]]]}}, {"id": "1645762", "type": "Feature", "properties": {"id": "1645762", "CVEGEO": "2102000010039020", "POBTOT": 143.0, "score_nse": 0.0, "NSE": "ND", "VIVTOT": 46.0, "GRAPROES": 7.35, "_ent": "21", "_mun": "020", "_loc": "0001"}, "geometry": {"type": "Polygon", "coordinates": [[[-97.91262, 18.82582], [-97.91281, 18.82528], [-97.91314, 18.82536], [-97.91283, 18.82525], [-97.91322, 18.82448], [-97.91335, 18.82454], [-97.91323, 18.82447], [-97.91344, 18.82405], [-97.9143, 18.82439], [-97.9138, 18.82557], [-97.91356, 18.82551], [-97.91378, 18.82561], [-97.91356, 18.82616], [-97.91262, 18.82582]]]}}, {"id": "1645763", "type": "Feature", "properties": {"id": "1645763", "CVEGEO": "2102000010039012", "POBTOT": 24.0, "score_nse": 0.0, "NSE": "ND", "VIVTOT": 7.0, "GRAPROES": 8.63, "_ent": "21", "_mun": "020", "_loc": "0001"}, "geometry": {"type": "Polygon", "coordinates": [[[-97.91481, 18.82345], [-97.91498, 18.82302], [-97.91591, 18.8234], [-97.91574, 18.82382], [-97.91481, 18.82345]]]}}, {"id": "1645764", "type": "Feature", "properties": {"id": "1645764", "CVEGEO": "2102000010039039", "POBTOT": 9.0, "score_nse": 0.0, "NSE": "ND", "VIVTOT": 2.0, "GRAPROES": 0.0, "_ent": "21", "_mun": "020", "_loc": "0001"}, "geometry": {"type": "Polygon", "coordinates": [[[-97.91341, 18.8238], [-97.91345, 18.82357], [-97.91355, 18.82307], [-97.91371, 18.82312], [-97.91341, 18.8238]]]}}, {"id": "1645765", "type": "Feature", "properties": {"id": "1645765", "CVEGEO": "2102000010058048", "POBTOT": 25.0, "score_nse": 0.0, "NSE": "ND", "VIVTOT": 4.0, "GRAPROES": 6.0, "_ent": "21", "_mun": "020", "_loc": "0001"}, "geometry": {"type": "Polygon", "coordinates": [[[-97.91859, 18.81491], [-97.91938, 18.81434], [-97.91992, 18.81432], [-97.91948, 18.81538], [-97.9185, 18.81515], [-97.91859, 18.81491]]]}}, {"id": "1645766", "type": "Feature", "properties": {"id": "1645766", "CVEGEO": "2102000010058012", "POBTOT": 40.0, "score_nse": 0.0, "NSE": "ND", "VIVTOT": 12.0, "GRAPROES": 7.23, "_ent": "21", "_mun": "020", "_loc": "0001"}, "geometry": {"type": "Polygon", "coordinates": [[[-97.91946, 18.81544], [-97.91838, 18.81795], [-97.91741, 18.81761], [-97.91822, 18.81606], [-97.91848, 18.81522], [-97.91946, 18.81544]]]}}, {"id": "1645767", "type": "Feature", "properties": {"id": "1645767", "CVEGEO": "2102000010043026", "POBTOT": 43.0, "score_nse": 0.0, "NSE": "ND", "VIVTOT": 14.0, "GRAPROES": 9.13, "_ent": "21", "_mun": "020", "_loc": "0001"}, "geometry": {"type": "Polygon", "coordinates": [[[-97.9061, 18.81885], [-97.90641, 18.81813], [-97.90781, 18.81868], [-97.90767, 18.819], [-97.90654, 18.81862], [-97.90765, 18.81903], [-97.90751, 18.81938], [-97.9061, 18.81885]]]}}, {"id": "1645768", "type": "Feature", "properties": {"id": "1645768", "CVEGEO": "2102000010062011", "POBTOT": 35.0, "score_nse": 0.0, "NSE": "ND", "VIVTOT": 9.0, "GRAPROES": 7.67, "_ent": "21", "_mun": "020", "_loc": "0001"}, "geometry": {"type": "Polygon", "coordinates": [[[-97.91861, 18.813], [-97.91844, 18.81284], [-97.91894, 18.81209], [-97.91955, 18.81245], [-97.91861, 18.813]]]}}, {"id": "1645769", "type": "Feature", "properties": {"id": "1645769", "CVEGEO": "2102000010062001", "POBTOT": 102.0, "score_nse": 0.0, "NSE": "ND", "VIVTOT": 26.0, "GRAPROES": 7.11, "_ent": "21", "_mun": "020", "_loc": "0001"}, "geometry": {"type": "Polygon", "coordinates": [[[-97.92035, 18.81864], [-97.92064, 18.81794], [-97.92029, 18.81863], [-97.91925, 18.81825], [-97.91958, 18.81744], [-97.92033, 18.81764], [-97.91961, 18.81739], [-97.92135, 18.81328], [-97.92139, 18.81745], [-97.92203, 18.81758], [-97.92193, 18.81825], [-97.92322, 18.81868], [-97.92335, 18.81838], [-97.92406, 18.81876], [-97.92384, 18.81934], [-97.92324, 18.81964], [-97.92035, 18.81864]]]}}, {"id": "1645770", "type": "Feature", "properties": {"id": "1645770", "CVEGEO": "2102000010039030", "POBTOT": 168.0, "score_nse": 39.8661, "NSE": "D+", "VIVTOT": 38.0, "GRAPROES": 7.25, "_ent": "21", "_mun": "020", "_loc": "0001"}, "geometry": {"type": "Polygon", "coordinates": [[[-97.917, 18.82746], [-97.91725, 18.82675], [-97.91784, 18.8269], [-97.91727, 18.82671], [-97.91739, 18.82642], [-97.91791, 18.82656], [-97.9174, 18.82637], [-97.91761, 18.82573], [-97.91896, 18.82632], [-97.9188, 18.82682], [-97.91901, 18.82633], [-97.91955, 18.82657], [-97.91931, 18.82722], [-97.91856, 18.82693], [-97.9182, 18.82793], [-97.917, 18.82746]]]}}, {"id": "1645771", "type": "Feature", "properties": {"id": "1645771", "CVEGEO": "2102000010043019", "POBTOT": 12.0, "score_nse": 0.0, "NSE": "ND", "VIVTOT": 3.0, "GRAPROES": 13.11, "_ent": "21", "_mun": "020", "_loc": "0001"}, "geometry": {"type": "Polygon", "coordinates": [[[-97.90531, 18.82758], [-97.90511, 18.8253], [-97.90472, 18.82517], [-97.90475, 18.82497], [-97.90623, 18.8256], [-97.90664, 18.82741], [-97.90531, 18.82758]]]}}, {"id": "1645772", "type": "Feature", "properties": {"id": "1645772", "CVEGEO": "2102000010062004", "POBTOT": 33.0, "score_nse": 0.0, "NSE": "ND", "VIVTOT": 14.0, "GRAPROES": 4.9, "_ent": "21", "_mun": "020", "_loc": "0001"}, "geometry": {"type": "Polygon", "coordinates": [[[-97.92286, 18.82434], [-97.91877, 18.82306], [-97.91895, 18.82235], [-97.92029, 18.8216], [-97.92059, 18.82199], [-97.92132, 18.82231], [-97.92062, 18.82196], [-97.92032, 18.82157], [-97.92067, 18.82141], [-97.92088, 18.82167], [-97.92148, 18.82175], [-97.9209, 18.82164], [-97.9207, 18.82139], [-97.92323, 18.81972], [-97.92577, 18.82062], [-97.92511, 18.82249], [-97.92517, 18.82294], [-97.92402, 18.82435], [-97.92286, 18.82434]]]}}, {"id": "1645773", "type": "Feature", "properties": {"id": "1645773", "CVEGEO": "2102000010062005", "POBTOT": 7.0, "score_nse": 0.0, "NSE": "ND", "VIVTOT": 1.0, "GRAPROES": 0.0, "_ent": "21", "_mun": "020", "_loc": "0001"}, "geometry": {"type": "Polygon", "coordinates": [[[-97.92407, 18.81887], [-97.92536, 18.81919], [-97.92609, 18.81976], [-97.92579, 18.82057], [-97.92329, 18.81968], [-97.92391, 18.81936], [-97.92407, 18.81887]]]}}, {"id": "1645774", "type": "Feature", "properties": {"id": "1645774", "CVEGEO": "2102000010058033", "POBTOT": 78.0, "score_nse": 0.0, "NSE": "ND", "VIVTOT": 20.0, "GRAPROES": 6.68, "_ent": "21", "_mun": "020", "_loc": "0001"}, "geometry": {"type": "Polygon", "coordinates": [[[-97.91894, 18.82226], [-97.92044, 18.81875], [-97.92105, 18.81895], [-97.9211, 18.81937], [-97.92109, 18.81896], [-97.92173, 18.81918], [-97.92148, 18.81962], [-97.92177, 18.81919], [-97.92317, 18.81969], [-97.92158, 18.82086], [-97.92047, 18.82144], [-97.92051, 18.82113], [-97.92035, 18.82066], [-97.92043, 18.82146], [-97.91894, 18.82226]]]}}, {"id": "1645775", "type": "Feature", "properties": {"id": "1645775", "CVEGEO": "2102000010043002", "POBTOT": 158.0, "score_nse": 40.2191, "NSE": "D+", "VIVTOT": 49.0, "GRAPROES": 7.45, "_ent": "21", "_mun": "020", "_loc": "0001"}, "geometry": {"type": "Polygon", "coordinates": [[[-97.90715, 18.82373], [-97.90774, 18.8223], [-97.90861, 18.82261], [-97.90776, 18.82226], [-97.90795, 18.82181], [-97.9086, 18.82206], [-97.9085, 18.82242], [-97.90865, 18.82209], [-97.90989, 18.82259], [-97.90967, 18.82307], [-97.90894, 18.82279], [-97.90965, 18.82311], [-97.90904, 18.82445], [-97.90715, 18.82373]]]}}, {"id": "1645776", "type": "Feature", "properties": {"id": "1645776", "CVEGEO": "2102000010043021", "POBTOT": 65.0, "score_nse": 0.0, "NSE": "ND", "VIVTOT": 19.0, "GRAPROES": 7.62, "_ent": "21", "_mun": "020", "_loc": "0001"}, "geometry": {"type": "Polygon", "coordinates": [[[-97.9061, 18.8228], [-97.90644, 18.82291], [-97.90611, 18.82277], [-97.90673, 18.82133], [-97.90779, 18.82175], [-97.90698, 18.82369], [-97.90591, 18.82324], [-97.9061, 18.8228]]]}}, {"id": "1645777", "type": "Feature", "properties": {"id": "1645777", "CVEGEO": "2102000010062009", "POBTOT": 13.0, "score_nse": 0.0, "NSE": "ND", "VIVTOT": 5.0, "GRAPROES": 6.3, "_ent": "21", "_mun": "020", "_loc": "0001"}, "geometry": {"type": "Polygon", "coordinates": [[[-97.92105, 18.80878], [-97.92116, 18.80917], [-97.92093, 18.80987], [-97.92059, 18.8103], [-97.91995, 18.81188], [-97.91952, 18.81239], [-97.91896, 18.81206], [-97.91999, 18.81027], [-97.92013, 18.80954], [-97.92065, 18.80892], [-97.92105, 18.80878]]]}}, {"id": "1645778", "type": "Feature", "properties": {"id": "1645778", "CVEGEO": "2102000010058020", "POBTOT": 234.0, "score_nse": 0.0, "NSE": "ND", "VIVTOT": 59.0, "GRAPROES": 7.29, "_ent": "21", "_mun": "020", "_loc": "0001"}, "geometry": {"type": "Polygon", "coordinates": [[[-97.91498, 18.81417], [-97.91539, 18.81366], [-97.91497, 18.81412], [-97.91465, 18.81301], [-97.91566, 18.81282], [-97.91544, 18.81334], [-97.91573, 18.81281], [-97.91621, 18.81278], [-97.91606, 18.8138], [-97.91669, 18.8139], [-97.91703, 18.81449], [-97.9154, 18.81521], [-97.91498, 18.81417]]]}}, {"id": "1645779", "type": "Feature", "properties": {"id": "1645779", "CVEGEO": "2102000010058011", "POBTOT": 112.0, "score_nse": 0.0, "NSE": "ND", "VIVTOT": 27.0, "GRAPROES": 7.54, "_ent": "21", "_mun": "020", "_loc": "0001"}, "geometry": {"type": "Polygon", "coordinates": [[[-97.91703, 18.81747], [-97.91705, 18.81586], [-97.91738, 18.81516], [-97.91841, 18.8152], [-97.91816, 18.81602], [-97.91734, 18.81759], [-97.91703, 18.81747]]]}}, {"id": "1645780", "type": "Feature", "properties": {"id": "1645780", "CVEGEO": "2102000010058050", "POBTOT": 11.0, "score_nse": 0.0, "NSE": "ND", "VIVTOT": 3.0, "GRAPROES": 9.63, "_ent": "21", "_mun": "020", "_loc": "0001"}, "geometry": {"type": "Polygon", "coordinates": [[[-97.91713, 18.8155], [-97.91713, 18.81466], [-97.9177, 18.81477], [-97.91732, 18.81518], [-97.91713, 18.8155]]]}}, {"id": "1645781", "type": "Feature", "properties": {"id": "1645781", "CVEGEO": "2102000010058051", "POBTOT": 0.0, "score_nse": 0.0, "NSE": "ND", "VIVTOT": 0.0, "GRAPROES": 0.0, "_ent": "21", "_mun": "020", "_loc": "0001"}, "geometry": {"type": "Polygon", "coordinates": [[[-97.9175, 18.81506], [-97.91777, 18.81478], [-97.91848, 18.81492], [-97.91837, 18.81517], [-97.9175, 18.81506]]]}}, {"id": "1645782", "type": "Feature", "properties": {"id": "1645782", "CVEGEO": "2102000010039007", "POBTOT": 33.0, "score_nse": 0.0, "NSE": "ND", "VIVTOT": 10.0, "GRAPROES": 8.13, "_ent": "21", "_mun": "020", "_loc": "0001"}, "geometry": {"type": "Polygon", "coordinates": [[[-97.91587, 18.82703], [-97.91652, 18.82531], [-97.91687, 18.82546], [-97.91676, 18.82599], [-97.91693, 18.82547], [-97.91734, 18.82565], [-97.91652, 18.82729], [-97.91587, 18.82703]]]}}, {"id": "1645783", "type": "Feature", "properties": {"id": "1645783", "CVEGEO": "2102000010058014", "POBTOT": 261.0, "score_nse": 42.1894, "NSE": "C-", "VIVTOT": 76.0, "GRAPROES": 7.55, "_ent": "21", "_mun": "020", "_loc": "0001"}, "geometry": {"type": "Polygon", "coordinates": [[[-97.91649, 18.82212], [-97.91553, 18.82173], [-97.91712, 18.81824], [-97.91758, 18.81973], [-97.91747, 18.81998], [-97.91692, 18.81975], [-97.91744, 18.82003], [-97.91701, 18.82092], [-97.91637, 18.82067], [-97.917, 18.82094], [-97.91649, 18.82212]]]}}, {"id": "1645784", "type": "Feature", "properties": {"id": "1645784", "CVEGEO": "2102000010039029", "POBTOT": 51.0, "score_nse": 0.0, "NSE": "ND", "VIVTOT": 13.0, "GRAPROES": 7.38, "_ent": "21", "_mun": "020", "_loc": "0001"}, "geometry": {"type": "Polygon", "coordinates": [[[-97.91802, 18.82489], [-97.91838, 18.82486], [-97.91958, 18.8253], [-97.91913, 18.82631], [-97.91753, 18.82565], [-97.91771, 18.82528], [-97.91821, 18.82536], [-97.91773, 18.82523], [-97.91802, 18.82489]]]}}, {"id": "1645785", "type": "Feature", "properties": {"id": "1645785", "CVEGEO": "2102000010039021", "POBTOT": 62.0, "score_nse": 0.0, "NSE": "ND", "VIVTOT": 18.0, "GRAPROES": 9.23, "_ent": "21", "_mun": "020", "_loc": "0001"}, "geometry": {"type": "Polygon", "coordinates": [[[-97.91346, 18.82396], [-97.91378, 18.82314], [-97.91407, 18.82325], [-97.91396, 18.82354], [-97.91412, 18.82327], [-97.9147, 18.82349], [-97.91434, 18.82432], [-97.91346, 18.82396]]]}}, {"id": "1645786", "type": "Feature", "properties": {"id": "1645786", "CVEGEO": "2102000010043010", "POBTOT": 19.0, "score_nse": 0.0, "NSE": "ND", "VIVTOT": 8.0, "GRAPROES": 6.27, "_ent": "21", "_mun": "020", "_loc": "0001"}, "geometry": {"type": "Polygon", "coordinates": [[[-97.90928, 18.82065], [-97.90844, 18.82029], [-97.90891, 18.81911], [-97.90976, 18.81944], [-97.90928, 18.82065]]]}}, {"id": "1645787", "type": "Feature", "properties": {"id": "1645787", "CVEGEO": "2102000010043022", "POBTOT": 40.0, "score_nse": 55.3662, "NSE": "C", "VIVTOT": 9.0, "GRAPROES": 10.46, "_ent": "21", "_mun": "020", "_loc": "0001"}, "geometry": {"type": "Polygon", "coordinates": [[[-97.90681, 18.82128], [-97.90741, 18.81994], [-97.90836, 18.82033], [-97.90776, 18.82165], [-97.90681, 18.82128]]]}}, {"id": "1645788", "type": "Feature", "properties": {"id": "1645788", "CVEGEO": "2102000010043008", "POBTOT": 70.0, "score_nse": 0.0, "NSE": "ND", "VIVTOT": 22.0, "GRAPROES": 6.38, "_ent": "21", "_mun": "020", "_loc": "0001"}, "geometry": {"type": "Polygon", "coordinates": [[[-97.90855, 18.82042], [-97.90926, 18.82072], [-97.90873, 18.82203], [-97.90794, 18.82171], [-97.90855, 18.82042]]]}}, {"id": "1645789", "type": "Feature", "properties": {"id": "1645789", "CVEGEO": "2102000010043007", "POBTOT": 27.0, "score_nse": 0.0, "NSE": "ND", "VIVTOT": 11.0, "GRAPROES": 8.53, "_ent": "21", "_mun": "020", "_loc": "0001"}, "geometry": {"type": "Polygon", "coordinates": [[[-97.90827, 18.82544], [-97.90854, 18.82557], [-97.90832, 18.82617], [-97.90644, 18.82555], [-97.90711, 18.82382], [-97.90923, 18.82461], [-97.90885, 18.82541], [-97.90827, 18.82544]]]}}, {"id": "1645790", "type": "Feature", "properties": {"id": "1645790", "CVEGEO": "2102000010058031", "POBTOT": 35.0, "score_nse": 0.0, "NSE": "ND", "VIVTOT": 12.0, "GRAPROES": 7.43, "_ent": "21", "_mun": "020", "_loc": "0001"}, "geometry": {"type": "Polygon", "coordinates": [[[-97.91219, 18.81509], [-97.91228, 18.81416], [-97.91271, 18.8142], [-97.91282, 18.81529], [-97.91219, 18.81509]]]}}, {"id": "1645791", "type": "Feature", "properties": {"id": "1645791", "CVEGEO": "2102000010043028", "POBTOT": 12.0, "score_nse": 0.0, "NSE": "ND", "VIVTOT": 4.0, "GRAPROES": 4.56, "_ent": "21", "_mun": "020", "_loc": "0001"}, "geometry": {"type": "Polygon", "coordinates": [[[-97.90929, 18.82463], [-97.90998, 18.8249], [-97.90929, 18.8265], [-97.9084, 18.8262], [-97.90863, 18.82557], [-97.9089, 18.82544], [-97.90929, 18.82463]]]}}, {"id": "1645792", "type": "Feature", "properties": {"id": "1645792", "CVEGEO": "2102000010058052", "POBTOT": 53.0, "score_nse": 0.0, "NSE": "ND", "VIVTOT": 15.0, "GRAPROES": 8.49, "_ent": "21", "_mun": "020", "_loc": "0001"}, "geometry": {"type": "Polygon", "coordinates": [[[-97.91228, 18.81411], [-97.91237, 18.81307], [-97.91261, 18.81305], [-97.9127, 18.81414], [-97.91228, 18.81411]]]}}, {"id": "1645795", "type": "Feature", "properties": {"id": "1645795", "CVEGEO": "2102000010039005", "POBTOT": 0.0, "score_nse": 0.0, "NSE": null, "VIVTOT": 0.0, "GRAPROES": 0.0, "_ent": "21", "_mun": "020", "_loc": "0001"}, "geometry": {"type": "Polygon", "coordinates": [[[-97.92183, 18.82412], [-97.92245, 18.82432], [-97.92269, 18.82439], [-97.9221, 18.82467], [-97.92199, 18.82493], [-97.92163, 18.82485], [-97.92183, 18.82412]]]}}, {"id": "1645796", "type": "Feature", "properties": {"id": "1645796", "CVEGEO": "2102000010039028", "POBTOT": 21.0, "score_nse": 0.0, "NSE": "ND", "VIVTOT": 4.0, "GRAPROES": 6.8, "_ent": "21", "_mun": "020", "_loc": "0001"}, "geometry": {"type": "Polygon", "coordinates": [[[-97.91967, 18.82486], [-97.92025, 18.8247], [-97.92056, 18.82376], [-97.92175, 18.8241], [-97.92154, 18.82483], [-97.9213, 18.82477], [-97.92129, 18.82585], [-97.91963, 18.82523], [-97.91967, 18.82486]]]}}, {"id": "1645797", "type": "Feature", "properties": {"id": "1645797", "CVEGEO": "2102000010062003", "POBTOT": 29.0, "score_nse": 0.0, "NSE": "ND", "VIVTOT": 9.0, "GRAPROES": 8.47, "_ent": "21", "_mun": "020", "_loc": "0001"}, "geometry": {"type": "Polygon", "coordinates": [[[-97.91875, 18.81365], [-97.92058, 18.81209], [-97.92081, 18.8115], [-97.92127, 18.81104], [-97.92134, 18.81316], [-97.92081, 18.81307], [-97.92092, 18.81238], [-97.92072, 18.81307], [-97.91875, 18.81365]]]}}, {"id": "1645798", "type": "Feature", "properties": {"id": "1645798", "CVEGEO": "2102000010062012", "POBTOT": 0.0, "score_nse": 0.0, "NSE": null, "VIVTOT": 0.0, "GRAPROES": 0.0, "_ent": "21", "_mun": "020", "_loc": "0001"}, "geometry": {"type": "Polygon", "coordinates": [[[-97.91769, 18.81474], [-97.91712, 18.81462], [-97.91712, 18.81436], [-97.91791, 18.81351], [-97.91875, 18.81371], [-97.9183, 18.81394], [-97.91769, 18.81474]]]}}, {"id": "1645799", "type": "Feature", "properties": {"id": "1645799", "CVEGEO": "2102000010058005", "POBTOT": 24.0, "score_nse": 0.0, "NSE": "ND", "VIVTOT": 9.0, "GRAPROES": 8.89, "_ent": "21", "_mun": "020", "_loc": "0001"}, "geometry": {"type": "Polygon", "coordinates": [[[-97.91644, 18.81727], [-97.91642, 18.81697], [-97.91652, 18.8167], [-97.91696, 18.81709], [-97.91696, 18.81745], [-97.91644, 18.81727]]]}}, {"id": "1645800", "type": "Feature", "properties": {"id": "1645800", "CVEGEO": "2102000010058053", "POBTOT": 0.0, "score_nse": 0.0, "NSE": null, "VIVTOT": 0.0, "GRAPROES": 0.0, "_ent": "21", "_mun": "020", "_loc": "0001"}, "geometry": {"type": "Polygon", "coordinates": [[[-97.91654, 18.81667], [-97.91688, 18.81622], [-97.91694, 18.81622], [-97.91696, 18.81703], [-97.91654, 18.81667]]]}}]}