{"type": "FeatureCollection", "features": [{"id": "2254823", "type": "Feature", "properties": {"id": "2254823", "CVEGEO": "300320019001A008", "POBTOT": 0.0, "score_nse": 0.0, "NSE": null, "VIVTOT": 0.0, "GRAPROES": 0.0, "_ent": "30", "_mun": "032", "_loc": "0019"}, "geometry": {"type": "Polygon", "coordinates": [[[-94.99277, 18.48943], [-94.99282, 18.49011], [-94.99186, 18.4901], [-94.99182, 18.48944], [-94.99277, 18.48943]]]}}, {"id": "2254824", "type": "Feature", "properties": {"id": "2254824", "CVEGEO": "300320019001A007", "POBTOT": 0.0, "score_nse": 0.0, "NSE": null, "VIVTOT": 0.0, "GRAPROES": 0.0, "_ent": "30", "_mun": "032", "_loc": "0019"}, "geometry": {"type": "Polygon", "coordinates": [[[-94.99382, 18.48943], [-94.99385, 18.49011], [-94.99291, 18.4901], [-94.99286, 18.48943], [-94.99382, 18.48943]]]}}, {"id": "2254825", "type": "Feature", "properties": {"id": "2254825", "CVEGEO": "300320019001A006", "POBTOT": 0.0, "score_nse": 0.0, "NSE": null, "VIVTOT": 0.0, "GRAPROES": 0.0, "_ent": "30", "_mun": "032", "_loc": "0019"}, "geometry": {"type": "Polygon", "coordinates": [[[-94.99376, 18.48844], [-94.99381, 18.48934], [-94.99285, 18.48933], [-94.99281, 18.48844], [-94.99376, 18.48844]]]}}, {"id": "2254826", "type": "Feature", "properties": {"id": "2254826", "CVEGEO": "300320019001A001", "POBTOT": 0.0, "score_nse": 0.0, "NSE": null, "VIVTOT": 0.0, "GRAPROES": 0.0, "_ent": "30", "_mun": "032", "_loc": "0019"}, "geometry": {"type": "Polygon", "coordinates": [[[-94.99177, 18.48845], [-94.99273, 18.48844], [-94.99276, 18.48934], [-94.99182, 18.48934], [-94.99177, 18.48845]]]}}, {"id": "2254906", "type": "Feature", "properties": {"id": "2254906", "CVEGEO": "300320019001A010", "POBTOT": 0.0, "score_nse": 0.0, "NSE": null, "VIVTOT": 0.0, "GRAPROES": 0.0, "_ent": "30", "_mun": "032", "_loc": "0019"}, "geometry": {"type": "Polygon", "coordinates": [[[-94.99073, 18.4871], [-94.99156, 18.48619], [-94.99162, 18.48666], [-94.99116, 18.48668], [-94.99162, 18.48667], [-94.99164, 18.48735], [-94.9907, 18.48736], [-94.99073, 18.4871]]]}}, {"id": "2254959", "type": "Feature", "properties": {"id": "2254959", "CVEGEO": "300320019001A018", "POBTOT": 0.0, "score_nse": 0.0, "NSE": null, "VIVTOT": 0.0, "GRAPROES": 0.0, "_ent": "30", "_mun": "032", "_loc": "0019"}, "geometry": {"type": "Polygon", "coordinates": [[[-94.99064, 18.48734], [-94.99067, 18.48835], [-94.9904, 18.48835], [-94.99064, 18.48734]]]}}, {"id": "2255115", "type": "Feature", "properties": {"id": "2255115", "CVEGEO": "300320019001A017", "POBTOT": 0.0, "score_nse": 0.0, "NSE": null, "VIVTOT": 0.0, "GRAPROES": 0.0, "_ent": "30", "_mun": "032", "_loc": "0019"}, "geometry": {"type": "Polygon", "coordinates": [[[-94.99385, 18.49014], [-94.99387, 18.49052], [-94.99292, 18.49038], [-94.99291, 18.49014], [-94.99385, 18.49014]]]}}, {"id": "2255145", "type": "Feature", "properties": {"id": "2255145", "CVEGEO": "300320019001A011", "POBTOT": 0.0, "score_nse": 0.0, "NSE": null, "VIVTOT": 0.0, "GRAPROES": 0.0, "_ent": "30", "_mun": "032", "_loc": "0019"}, "geometry": {"type": "Polygon", "coordinates": [[[-94.99168, 18.4862], [-94.99263, 18.48634], [-94.99267, 18.48736], [-94.99174, 18.48735], [-94.99168, 18.4862]]]}}, {"id": "2255559", "type": "Feature", "properties": {"id": "2255559", "CVEGEO": "300320019001A009", "POBTOT": 0.0, "score_nse": 0.0, "NSE": null, "VIVTOT": 0.0, "GRAPROES": 0.0, "_ent": "30", "_mun": "032", "_loc": "0019"}, "geometry": {"type": "Polygon", "coordinates": [[[-94.99173, 18.48944], [-94.99177, 18.49009], [-94.99082, 18.49004], [-94.99079, 18.48944], [-94.99173, 18.48944]]]}}, {"id": "2255647", "type": "Feature", "properties": {"id": "2255647", "CVEGEO": "300320019001A016", "POBTOT": 0.0, "score_nse": 0.0, "NSE": null, "VIVTOT": 0.0, "GRAPROES": 0.0, "_ent": "30", "_mun": "032", "_loc": "0019"}, "geometry": {"type": "Polygon", "coordinates": [[[-94.99416, 18.48941], [-94.99408, 18.48988], [-94.99397, 18.49053], [-94.9939, 18.48943], [-94.99416, 18.48941]]]}}, {"id": "2255648", "type": "Feature", "properties": {"id": "2255648", "CVEGEO": "300320019001A015", "POBTOT": 0.0, "score_nse": 0.0, "NSE": null, "VIVTOT": 0.0, "GRAPROES": 0.0, "_ent": "30", "_mun": "032", "_loc": "0019"}, "geometry": {"type": "Polygon", "coordinates": [[[-94.99432, 18.48843], [-94.99417, 18.48934], [-94.9939, 18.48934], [-94.99385, 18.48844], [-94.99432, 18.48843]]]}}, {"id": "2255649", "type": "Feature", "properties": {"id": "2255649", "CVEGEO": "300320019001A014", "POBTOT": 0.0, "score_nse": 0.0, "NSE": null, "VIVTOT": 0.0, "GRAPROES": 0.0, "_ent": "30", "_mun": "032", "_loc": "0019"}, "geometry": {"type": "Polygon", "coordinates": [[[-94.99445, 18.48745], [-94.99431, 18.48834], [-94.99384, 18.48834], [-94.99378, 18.48744], [-94.99445, 18.48745]]]}}, {"id": "2255650", "type": "Feature", "properties": {"id": "2255650", "CVEGEO": "300320019001A013", "POBTOT": 0.0, "score_nse": 0.0, "NSE": null, "VIVTOT": 0.0, "GRAPROES": 0.0, "_ent": "30", "_mun": "032", "_loc": "0019"}, "geometry": {"type": "Polygon", "coordinates": [[[-94.99372, 18.48646], [-94.99456, 18.48653], [-94.99444, 18.48736], [-94.99378, 18.48736], [-94.99372, 18.48646]]]}}, {"id": "2255651", "type": "Feature", "properties": {"id": "2255651", "CVEGEO": "300320019001A012", "POBTOT": 0.0, "score_nse": 0.0, "NSE": null, "VIVTOT": 0.0, "GRAPROES": 0.0, "_ent": "30", "_mun": "032", "_loc": "0019"}, "geometry": {"type": "Polygon", "coordinates": [[[-94.99273, 18.48634], [-94.99363, 18.48645], [-94.99369, 18.48736], [-94.99276, 18.48735], [-94.99273, 18.48634]]]}}, {"id": "2255652", "type": "Feature", "properties": {"id": "2255652", "CVEGEO": "300320019001A005", "POBTOT": 0.0, "score_nse": 0.0, "NSE": null, "VIVTOT": 0.0, "GRAPROES": 0.0, "_ent": "30", "_mun": "032", "_loc": "0019"}, "geometry": {"type": "Polygon", "coordinates": [[[-94.99369, 18.48744], [-94.99375, 18.48834], [-94.99282, 18.48835], [-94.99278, 18.48744], [-94.99369, 18.48744]]]}}, {"id": "2255653", "type": "Feature", "properties": {"id": "2255653", "CVEGEO": "300320019001A004", "POBTOT": 0.0, "score_nse": 0.0, "NSE": null, "VIVTOT": 0.0, "GRAPROES": 0.0, "_ent": "30", "_mun": "032", "_loc": "0019"}, "geometry": {"type": "Polygon", "coordinates": [[[-94.99268, 18.48744], [-94.99272, 18.48835], [-94.99177, 18.48834], [-94.99175, 18.48744], [-94.99268, 18.48744]]]}}, {"id": "2255654", "type": "Feature", "properties": {"id": "2255654", "CVEGEO": "300320019001A003", "POBTOT": 0.0, "score_nse": 0.0, "NSE": null, "VIVTOT": 0.0, "GRAPROES": 0.0, "_ent": "30", "_mun": "032", "_loc": "0019"}, "geometry": {"type": "Polygon", "coordinates": [[[-94.99164, 18.48744], [-94.99169, 18.48835], [-94.99074, 18.48835], [-94.99071, 18.48744], [-94.99164, 18.48744]]]}}, {"id": "2255655", "type": "Feature", "properties": {"id": "2255655", "CVEGEO": "300320019001A002", "POBTOT": 0.0, "score_nse": 0.0, "NSE": null, "VIVTOT": 0.0, "GRAPROES": 0.0, "_ent": "30", "_mun": "032", "_loc": "0019"}, "geometry": {"type": "Polygon", "coordinates": [[[-94.99169, 18.48844], [-94.99172, 18.48934], [-94.99079, 18.48934], [-94.99077, 18.48845], [-94.99169, 18.48844]]]}}, {"id": "2256387", "type": "Feature", "properties": {"id": "2256387", "CVEGEO": "300320019001A019", "POBTOT": 0.0, "score_nse": 0.0, "NSE": null, "VIVTOT": 0.0, "GRAPROES": 0.0, "_ent": "30", "_mun": "032", "_loc": "0019"}, "geometry": {"type": "Polygon", "coordinates": [[[-94.99284, 18.49038], [-94.99167, 18.49025], [-94.99168, 18.49012], [-94.99282, 18.49014], [-94.99284, 18.49038]]]}}]}