{"type": "FeatureCollection", "features": [{"id": "2011633", "type": "Feature", "properties": {"id": "2011633", "CVEGEO": "2601713351994037", "POBTOT": 0.0, "score_nse": 0.0, "NSE": null, "VIVTOT": 0.0, "GRAPROES": 0.0, "_ent": "26", "_mun": "017", "_loc": "1335"}, "geometry": {"type": "Polygon", "coordinates": [[[-112.25438, 30.69702], [-112.2531, 30.69723], [-112.25303, 30.69647], [-112.25428, 30.69623], [-112.25438, 30.69702]]]}}, {"id": "2011634", "type": "Feature", "properties": {"id": "2011634", "CVEGEO": "2601713351994036", "POBTOT": 0.0, "score_nse": 0.0, "NSE": null, "VIVTOT": 0.0, "GRAPROES": 0.0, "_ent": "26", "_mun": "017", "_loc": "1335"}, "geometry": {"type": "Polygon", "coordinates": [[[-112.24314, 30.71219], [-112.23433, 30.70935], [-112.24029, 30.70829], [-112.24035, 30.70956], [-112.24082, 30.70971], [-112.24091, 30.7096], [-112.24053, 30.70941], [-112.24047, 30.70833], [-112.2411, 30.70829], [-112.24108, 30.70851], [-112.24128, 30.70852], [-112.24131, 30.70827], [-112.24187, 30.70823], [-112.24195, 30.71016], [-112.24358, 30.71075], [-112.24314, 30.71219]]]}}, {"id": "2011635", "type": "Feature", "properties": {"id": "2011635", "CVEGEO": "2601713351994035", "POBTOT": 0.0, "score_nse": 0.0, "NSE": null, "VIVTOT": 0.0, "GRAPROES": 0.0, "_ent": "26", "_mun": "017", "_loc": "1335"}, "geometry": {"type": "Polygon", "coordinates": [[[-112.25299, 30.70005], [-112.25066, 30.70056], [-112.25046, 30.6988], [-112.253, 30.69832], [-112.25299, 30.70005]]]}}, {"id": "2011636", "type": "Feature", "properties": {"id": "2011636", "CVEGEO": "2601713351994034", "POBTOT": 0.0, "score_nse": 0.0, "NSE": null, "VIVTOT": 0.0, "GRAPROES": 0.0, "_ent": "26", "_mun": "017", "_loc": "1335"}, "geometry": {"type": "Polygon", "coordinates": [[[-112.2504, 30.69874], [-112.25033, 30.69783], [-112.25298, 30.69733], [-112.25302, 30.69822], [-112.2504, 30.69874]]]}}, {"id": "2011637", "type": "Feature", "properties": {"id": "2011637", "CVEGEO": "2601713351994033", "POBTOT": 0.0, "score_nse": 0.0, "NSE": null, "VIVTOT": 0.0, "GRAPROES": 0.0, "_ent": "26", "_mun": "017", "_loc": "1335"}, "geometry": {"type": "Polygon", "coordinates": [[[-112.25033, 30.69775], [-112.25026, 30.69695], [-112.25287, 30.69652], [-112.25297, 30.69726], [-112.25033, 30.69775]]]}}, {"id": "2011638", "type": "Feature", "properties": {"id": "2011638", "CVEGEO": "2601713351994032", "POBTOT": 0.0, "score_nse": 0.0, "NSE": null, "VIVTOT": 0.0, "GRAPROES": 0.0, "_ent": "26", "_mun": "017", "_loc": "1335"}, "geometry": {"type": "Polygon", "coordinates": [[[-112.25557, 30.69586], [-112.25131, 30.69666], [-112.25112, 30.69572], [-112.25542, 30.69494], [-112.25557, 30.69586]]]}}, {"id": "2011639", "type": "Feature", "properties": {"id": "2011639", "CVEGEO": "2601713351994031", "POBTOT": 0.0, "score_nse": 0.0, "NSE": null, "VIVTOT": 0.0, "GRAPROES": 0.0, "_ent": "26", "_mun": "017", "_loc": "1335"}, "geometry": {"type": "Polygon", "coordinates": [[[-112.24199, 30.70812], [-112.24047, 30.7082], [-112.24044, 30.70644], [-112.24194, 30.70644], [-112.24196, 30.70727], [-112.24144, 30.70728], [-112.2415, 30.70752], [-112.24202, 30.70754], [-112.24199, 30.70812]]]}}, {"id": "2011640", "type": "Feature", "properties": {"id": "2011640", "CVEGEO": "2601713351994030", "POBTOT": 0.0, "score_nse": 0.0, "NSE": null, "VIVTOT": 0.0, "GRAPROES": 0.0, "_ent": "26", "_mun": "017", "_loc": "1335"}, "geometry": {"type": "Polygon", "coordinates": [[[-112.25045, 30.69965], [-112.24794, 30.70009], [-112.24777, 30.69926], [-112.25034, 30.69881], [-112.25045, 30.69965]]]}}, {"id": "2011641", "type": "Feature", "properties": {"id": "2011641", "CVEGEO": "2601713351994029", "POBTOT": 0.0, "score_nse": 0.0, "NSE": null, "VIVTOT": 0.0, "GRAPROES": 0.0, "_ent": "26", "_mun": "017", "_loc": "1335"}, "geometry": {"type": "Polygon", "coordinates": [[[-112.24782, 30.69918], [-112.24764, 30.69832], [-112.25025, 30.69785], [-112.25034, 30.69873], [-112.24782, 30.69918]]]}}, {"id": "2011642", "type": "Feature", "properties": {"id": "2011642", "CVEGEO": "2601713351994028", "POBTOT": 0.0, "score_nse": 0.0, "NSE": null, "VIVTOT": 0.0, "GRAPROES": 0.0, "_ent": "26", "_mun": "017", "_loc": "1335"}, "geometry": {"type": "Polygon", "coordinates": [[[-112.25028, 30.69779], [-112.2476, 30.69826], [-112.24746, 30.69747], [-112.25018, 30.697], [-112.25028, 30.69779]]]}}, {"id": "2011643", "type": "Feature", "properties": {"id": "2011643", "CVEGEO": "2601713351994027", "POBTOT": 0.0, "score_nse": 0.0, "NSE": null, "VIVTOT": 0.0, "GRAPROES": 0.0, "_ent": "26", "_mun": "017", "_loc": "1335"}, "geometry": {"type": "Polygon", "coordinates": [[[-112.24743, 30.69735], [-112.24722, 30.69644], [-112.251, 30.6957], [-112.25119, 30.69668], [-112.24743, 30.69735]]]}}, {"id": "2011644", "type": "Feature", "properties": {"id": "2011644", "CVEGEO": "2601713351994026", "POBTOT": 0.0, "score_nse": 0.0, "NSE": null, "VIVTOT": 0.0, "GRAPROES": 0.0, "_ent": "26", "_mun": "017", "_loc": "1335"}, "geometry": {"type": "Polygon", "coordinates": [[[-112.24521, 30.69677], [-112.24714, 30.69644], [-112.24736, 30.69736], [-112.24526, 30.69766], [-112.24521, 30.69677]]]}}, {"id": "2011645", "type": "Feature", "properties": {"id": "2011645", "CVEGEO": "2601713351994025", "POBTOT": 0.0, "score_nse": 0.0, "NSE": null, "VIVTOT": 0.0, "GRAPROES": 0.0, "_ent": "26", "_mun": "017", "_loc": "1335"}, "geometry": {"type": "Polygon", "coordinates": [[[-112.24024, 30.70813], [-112.23634, 30.70891], [-112.23558, 30.70546], [-112.24014, 30.70466], [-112.24024, 30.70813]]]}}, {"id": "2011646", "type": "Feature", "properties": {"id": "2011646", "CVEGEO": "2601713351994024", "POBTOT": 0.0, "score_nse": 0.0, "NSE": null, "VIVTOT": 0.0, "GRAPROES": 0.0, "_ent": "26", "_mun": "017", "_loc": "1335"}, "geometry": {"type": "Polygon", "coordinates": [[[-112.241, 30.70627], [-112.24043, 30.70627], [-112.24037, 30.7055], [-112.24101, 30.70546], [-112.241, 30.70627]]]}}, {"id": "2011647", "type": "Feature", "properties": {"id": "2011647", "CVEGEO": "2601713351994023", "POBTOT": 0.0, "score_nse": 0.0, "NSE": null, "VIVTOT": 0.0, "GRAPROES": 0.0, "_ent": "26", "_mun": "017", "_loc": "1335"}, "geometry": {"type": "Polygon", "coordinates": [[[-112.24189, 30.70626], [-112.24108, 30.7063], [-112.2411, 30.70544], [-112.24187, 30.70548], [-112.24189, 30.70626]]]}}, {"id": "2011648", "type": "Feature", "properties": {"id": "2011648", "CVEGEO": "2601713351994022", "POBTOT": 0.0, "score_nse": 0.0, "NSE": null, "VIVTOT": 0.0, "GRAPROES": 0.0, "_ent": "26", "_mun": "017", "_loc": "1335"}, "geometry": {"type": "Polygon", "coordinates": [[[-112.24794, 30.70055], [-112.2483, 30.70262], [-112.24587, 30.70302], [-112.24559, 30.70097], [-112.24794, 30.70055]]]}}, {"id": "2011649", "type": "Feature", "properties": {"id": "2011649", "CVEGEO": "2601713351994021", "POBTOT": 0.0, "score_nse": 0.0, "NSE": null, "VIVTOT": 0.0, "GRAPROES": 0.0, "_ent": "26", "_mun": "017", "_loc": "1335"}, "geometry": {"type": "Polygon", "coordinates": [[[-112.24789, 30.70054], [-112.24562, 30.70087], [-112.24558, 30.70046], [-112.24783, 30.70016], [-112.24789, 30.70054]]]}}, {"id": "2011650", "type": "Feature", "properties": {"id": "2011650", "CVEGEO": "2601713351994020", "POBTOT": 0.0, "score_nse": 0.0, "NSE": null, "VIVTOT": 0.0, "GRAPROES": 0.0, "_ent": "26", "_mun": "017", "_loc": "1335"}, "geometry": {"type": "Polygon", "coordinates": [[[-112.2478, 30.70007], [-112.24558, 30.70033], [-112.24545, 30.69934], [-112.24765, 30.69908], [-112.2478, 30.70007]]]}}, {"id": "2011651", "type": "Feature", "properties": {"id": "2011651", "CVEGEO": "2601713351994019", "POBTOT": 0.0, "score_nse": 0.0, "NSE": null, "VIVTOT": 0.0, "GRAPROES": 0.0, "_ent": "26", "_mun": "017", "_loc": "1335"}, "geometry": {"type": "Polygon", "coordinates": [[[-112.24738, 30.69749], [-112.24759, 30.69896], [-112.24543, 30.69917], [-112.24527, 30.69779], [-112.24738, 30.69749]]]}}, {"id": "2011652", "type": "Feature", "properties": {"id": "2011652", "CVEGEO": "2601713351994018", "POBTOT": 0.0, "score_nse": 0.0, "NSE": null, "VIVTOT": 0.0, "GRAPROES": 0.0, "_ent": "26", "_mun": "017", "_loc": "1335"}, "geometry": {"type": "Polygon", "coordinates": [[[-112.24528, 30.69937], [-112.24319, 30.69977], [-112.2431, 30.69828], [-112.24298, 30.69829], [-112.24301, 30.69918], [-112.24241, 30.69928], [-112.2424, 30.69885], [-112.24264, 30.69876], [-112.24239, 30.69878], [-112.24236, 30.69835], [-112.24228, 30.69879], [-112.24166, 30.69886], [-112.24159, 30.6974], [-112.24506, 30.69678], [-112.24528, 30.69937]]]}}, {"id": "2011653", "type": "Feature", "properties": {"id": "2011653", "CVEGEO": "2601713351994017", "POBTOT": 0.0, "score_nse": 0.0, "NSE": null, "VIVTOT": 0.0, "GRAPROES": 0.0, "_ent": "26", "_mun": "017", "_loc": "1335"}, "geometry": {"type": "Polygon", "coordinates": [[[-112.2423, 30.69933], [-112.24167, 30.69941], [-112.24165, 30.69893], [-112.24228, 30.69885], [-112.2423, 30.69933]]]}}, {"id": "2011654", "type": "Feature", "properties": {"id": "2011654", "CVEGEO": "2601713351994016", "POBTOT": 0.0, "score_nse": 0.0, "NSE": null, "VIVTOT": 0.0, "GRAPROES": 0.0, "_ent": "26", "_mun": "017", "_loc": "1335"}, "geometry": {"type": "Polygon", "coordinates": [[[-112.24261, 30.70536], [-112.24206, 30.70538], [-112.24199, 30.70458], [-112.24257, 30.70458], [-112.24261, 30.70536]]]}}, {"id": "2011655", "type": "Feature", "properties": {"id": "2011655", "CVEGEO": "2601713351994015", "POBTOT": 0.0, "score_nse": 0.0, "NSE": null, "VIVTOT": 0.0, "GRAPROES": 0.0, "_ent": "26", "_mun": "017", "_loc": "1335"}, "geometry": {"type": "Polygon", "coordinates": [[[-112.24653, 30.71005], [-112.2437, 30.71058], [-112.2436, 30.70956], [-112.24346, 30.70957], [-112.24358, 30.71044], [-112.24212, 30.70994], [-112.2421, 30.70547], [-112.24268, 30.70545], [-112.24265, 30.70456], [-112.24333, 30.7045], [-112.24339, 30.70557], [-112.24597, 30.70523], [-112.24615, 30.70646], [-112.24346, 30.70674], [-112.24351, 30.70693], [-112.24613, 30.70664], [-112.24623, 30.70767], [-112.24362, 30.70813], [-112.24364, 30.70825], [-112.24625, 30.70779], [-112.24653, 30.71005]]]}}, {"id": "2011656", "type": "Feature", "properties": {"id": "2011656", "CVEGEO": "2601713351994014", "POBTOT": 0.0, "score_nse": 0.0, "NSE": null, "VIVTOT": 0.0, "GRAPROES": 0.0, "_ent": "26", "_mun": "017", "_loc": "1335"}, "geometry": {"type": "Polygon", "coordinates": [[[-112.24587, 30.70508], [-112.24356, 30.70536], [-112.24338, 30.7042], [-112.24579, 30.70387], [-112.24587, 30.70508]]]}}, {"id": "2011657", "type": "Feature", "properties": {"id": "2011657", "CVEGEO": "2601713351994013", "POBTOT": 0.0, "score_nse": 0.0, "NSE": null, "VIVTOT": 0.0, "GRAPROES": 0.0, "_ent": "26", "_mun": "017", "_loc": "1335"}, "geometry": {"type": "Polygon", "coordinates": [[[-112.24305, 30.70022], [-112.24243, 30.7003], [-112.24237, 30.69937], [-112.24301, 30.69931], [-112.24305, 30.70022]]]}}, {"id": "2011658", "type": "Feature", "properties": {"id": "2011658", "CVEGEO": "2601713351994012", "POBTOT": 0.0, "score_nse": 0.0, "NSE": null, "VIVTOT": 0.0, "GRAPROES": 0.0, "_ent": "26", "_mun": "017", "_loc": "1335"}, "geometry": {"type": "Polygon", "coordinates": [[[-112.24232, 30.70032], [-112.24174, 30.7004], [-112.24168, 30.69952], [-112.24231, 30.69941], [-112.24232, 30.70032]]]}}, {"id": "2011659", "type": "Feature", "properties": {"id": "2011659", "CVEGEO": "2601713351994011", "POBTOT": 0.0, "score_nse": 0.0, "NSE": null, "VIVTOT": 0.0, "GRAPROES": 0.0, "_ent": "26", "_mun": "017", "_loc": "1335"}, "geometry": {"type": "Polygon", "coordinates": [[[-112.24195, 30.70445], [-112.24192, 30.70361], [-112.24258, 30.7036], [-112.24258, 30.70444], [-112.24195, 30.70445]]]}}, {"id": "2011660", "type": "Feature", "properties": {"id": "2011660", "CVEGEO": "2601713351994010", "POBTOT": 0.0, "score_nse": 0.0, "NSE": null, "VIVTOT": 0.0, "GRAPROES": 0.0, "_ent": "26", "_mun": "017", "_loc": "1335"}, "geometry": {"type": "Polygon", "coordinates": [[[-112.2433, 30.70442], [-112.24266, 30.70445], [-112.24263, 30.70363], [-112.24325, 30.70359], [-112.2433, 30.70442]]]}}, {"id": "2011661", "type": "Feature", "properties": {"id": "2011661", "CVEGEO": "2601713351994009", "POBTOT": 0.0, "score_nse": 0.0, "NSE": null, "VIVTOT": 0.0, "GRAPROES": 0.0, "_ent": "26", "_mun": "017", "_loc": "1335"}, "geometry": {"type": "Polygon", "coordinates": [[[-112.24339, 30.70408], [-112.24327, 30.7029], [-112.24565, 30.70254], [-112.24578, 30.70375], [-112.24339, 30.70408]]]}}, {"id": "2011662", "type": "Feature", "properties": {"id": "2011662", "CVEGEO": "2601713351994008", "POBTOT": 0.0, "score_nse": 0.0, "NSE": null, "VIVTOT": 0.0, "GRAPROES": 0.0, "_ent": "26", "_mun": "017", "_loc": "1335"}, "geometry": {"type": "Polygon", "coordinates": [[[-112.24316, 30.70137], [-112.2455, 30.70099], [-112.24567, 30.7024], [-112.2433, 30.7028], [-112.24316, 30.70137]]]}}, {"id": "2011663", "type": "Feature", "properties": {"id": "2011663", "CVEGEO": "2601713351994007", "POBTOT": 0.0, "score_nse": 0.0, "NSE": null, "VIVTOT": 0.0, "GRAPROES": 0.0, "_ent": "26", "_mun": "017", "_loc": "1335"}, "geometry": {"type": "Polygon", "coordinates": [[[-112.2455, 30.70085], [-112.24321, 30.70123], [-112.24318, 30.69987], [-112.2453, 30.69943], [-112.2455, 30.70085]]]}}, {"id": "2011664", "type": "Feature", "properties": {"id": "2011664", "CVEGEO": "2601713351994006", "POBTOT": 0.0, "score_nse": 0.0, "NSE": null, "VIVTOT": 0.0, "GRAPROES": 0.0, "_ent": "26", "_mun": "017", "_loc": "1335"}, "geometry": {"type": "Polygon", "coordinates": [[[-112.24308, 30.70124], [-112.24252, 30.70132], [-112.24244, 30.7004], [-112.24304, 30.70028], [-112.24308, 30.70124]]]}}, {"id": "2011665", "type": "Feature", "properties": {"id": "2011665", "CVEGEO": "2601713351994005", "POBTOT": 0.0, "score_nse": 0.0, "NSE": null, "VIVTOT": 0.0, "GRAPROES": 0.0, "_ent": "26", "_mun": "017", "_loc": "1335"}, "geometry": {"type": "Polygon", "coordinates": [[[-112.24181, 30.70146], [-112.24174, 30.70048], [-112.24236, 30.70043], [-112.24245, 30.70135], [-112.24181, 30.70146]]]}}, {"id": "2011666", "type": "Feature", "properties": {"id": "2011666", "CVEGEO": "2601713351994004", "POBTOT": 0.0, "score_nse": 0.0, "NSE": null, "VIVTOT": 0.0, "GRAPROES": 0.0, "_ent": "26", "_mun": "017", "_loc": "1335"}, "geometry": {"type": "Polygon", "coordinates": [[[-112.24008, 30.69765], [-112.2415, 30.69745], [-112.24187, 30.70537], [-112.24105, 30.70542], [-112.24102, 30.7049], [-112.24099, 30.70542], [-112.2403, 30.70546], [-112.24008, 30.69765]]]}}, {"id": "2011667", "type": "Feature", "properties": {"id": "2011667", "CVEGEO": "2601713351994003", "POBTOT": 0.0, "score_nse": 0.0, "NSE": null, "VIVTOT": 0.0, "GRAPROES": 0.0, "_ent": "26", "_mun": "017", "_loc": "1335"}, "geometry": {"type": "Polygon", "coordinates": [[[-112.24254, 30.70354], [-112.24194, 30.70354], [-112.24188, 30.70314], [-112.24253, 30.70312], [-112.24254, 30.70354]]]}}, {"id": "2011668", "type": "Feature", "properties": {"id": "2011668", "CVEGEO": "2601713351994002", "POBTOT": 0.0, "score_nse": 0.0, "NSE": null, "VIVTOT": 0.0, "GRAPROES": 0.0, "_ent": "26", "_mun": "017", "_loc": "1335"}, "geometry": {"type": "Polygon", "coordinates": [[[-112.24322, 30.70352], [-112.24261, 30.70355], [-112.2426, 30.70311], [-112.24321, 30.7031], [-112.24322, 30.70352]]]}}, {"id": "2011669", "type": "Feature", "properties": {"id": "2011669", "CVEGEO": "2601713351994001", "POBTOT": 0.0, "score_nse": 0.0, "NSE": null, "VIVTOT": 0.0, "GRAPROES": 0.0, "_ent": "26", "_mun": "017", "_loc": "1335"}, "geometry": {"type": "Polygon", "coordinates": [[[-112.24323, 30.70304], [-112.2419, 30.70307], [-112.24191, 30.70154], [-112.24308, 30.70138], [-112.24323, 30.70304]]]}}]}