{"type": "FeatureCollection", "features": [{"id": "824937", "type": "Feature", "properties": {"id": "824937", "CVEGEO": "1300900310018005", "POBTOT": 0.0, "score_nse": 0.0, "NSE": null, "VIVTOT": 0.0, "GRAPROES": 0.0, "_ent": "13", "_mun": "009", "_loc": "0031"}, "geometry": {"type": "Polygon", "coordinates": [[[-98.84935, 20.1586], [-98.84858, 20.15881], [-98.84808, 20.15861], [-98.84883, 20.15788], [-98.84935, 20.1586]]]}}, {"id": "824938", "type": "Feature", "properties": {"id": "824938", "CVEGEO": "1300900310018001", "POBTOT": 0.0, "score_nse": 0.0, "NSE": null, "VIVTOT": 0.0, "GRAPROES": 0.0, "_ent": "13", "_mun": "009", "_loc": "0031"}, "geometry": {"type": "Polygon", "coordinates": [[[-98.85006, 20.15917], [-98.84933, 20.15987], [-98.84889, 20.15951], [-98.84944, 20.15871], [-98.85006, 20.15917]]]}}, {"id": "824939", "type": "Feature", "properties": {"id": "824939", "CVEGEO": "1300900310018002", "POBTOT": 0.0, "score_nse": 0.0, "NSE": null, "VIVTOT": 0.0, "GRAPROES": 0.0, "_ent": "13", "_mun": "009", "_loc": "0031"}, "geometry": {"type": "Polygon", "coordinates": [[[-98.84937, 20.15989], [-98.85008, 20.15919], [-98.85034, 20.15942], [-98.84969, 20.16014], [-98.84937, 20.15989]]]}}, {"id": "824940", "type": "Feature", "properties": {"id": "824940", "CVEGEO": "1300900310018004", "POBTOT": 0.0, "score_nse": 0.0, "NSE": null, "VIVTOT": 0.0, "GRAPROES": 0.0, "_ent": "13", "_mun": "009", "_loc": "0031"}, "geometry": {"type": "Polygon", "coordinates": [[[-98.85044, 20.16083], [-98.84988, 20.16113], [-98.8494, 20.16153], [-98.84977, 20.16029], [-98.85044, 20.16083]]]}}, {"id": "824941", "type": "Feature", "properties": {"id": "824941", "CVEGEO": "1300900310018003", "POBTOT": 0.0, "score_nse": 0.0, "NSE": null, "VIVTOT": 0.0, "GRAPROES": 0.0, "_ent": "13", "_mun": "009", "_loc": "0031"}, "geometry": {"type": "Polygon", "coordinates": [[[-98.85062, 20.16076], [-98.84976, 20.16018], [-98.85037, 20.15947], [-98.85127, 20.16043], [-98.85062, 20.16076]]]}}, {"id": "824947", "type": "Feature", "properties": {"id": "824947", "CVEGEO": "1300900310018007", "POBTOT": 0.0, "score_nse": 0.0, "NSE": null, "VIVTOT": 0.0, "GRAPROES": 0.0, "_ent": "13", "_mun": "009", "_loc": "0031"}, "geometry": {"type": "Polygon", "coordinates": [[[-98.84886, 20.15785], [-98.84907, 20.15767], [-98.84932, 20.15778], [-98.84913, 20.15761], [-98.84943, 20.15731], [-98.84983, 20.15749], [-98.84947, 20.15725], [-98.85003, 20.15676], [-98.85117, 20.1571], [-98.85127, 20.15749], [-98.8494, 20.15859], [-98.84886, 20.15785]]]}}, {"id": "825054", "type": "Feature", "properties": {"id": "825054", "CVEGEO": "1300900310018006", "POBTOT": 0.0, "score_nse": 0.0, "NSE": null, "VIVTOT": 0.0, "GRAPROES": 0.0, "_ent": "13", "_mun": "009", "_loc": "0031"}, "geometry": {"type": "Polygon", "coordinates": [[[-98.8496, 20.15663], [-98.84994, 20.15675], [-98.84803, 20.15849], [-98.84796, 20.15813], [-98.8496, 20.15663]]]}}, {"id": "825055", "type": "Feature", "properties": {"id": "825055", "CVEGEO": "1300900310018008", "POBTOT": 0.0, "score_nse": 0.0, "NSE": null, "VIVTOT": 0.0, "GRAPROES": 0.0, "_ent": "13", "_mun": "009", "_loc": "0031"}, "geometry": {"type": "Polygon", "coordinates": [[[-98.84804, 20.15716], [-98.84849, 20.15623], [-98.84956, 20.15661], [-98.84795, 20.15807], [-98.84804, 20.15716]]]}}]}