{"type": "FeatureCollection", "features": [{"id": "947947", "type": "Feature", "properties": {"id": "947947", "CVEGEO": "1405306770383003", "POBTOT": 0.0, "score_nse": 0.0, "NSE": null, "VIVTOT": 0.0, "GRAPROES": 0.0, "_ent": "14", "_mun": "053", "_loc": "0677"}, "geometry": {"type": "Polygon", "coordinates": [[[-101.97015, 21.328], [-101.96997, 21.32706], [-101.97394, 21.32621], [-101.97416, 21.32713], [-101.97015, 21.328]]]}}, {"id": "948197", "type": "Feature", "properties": {"id": "948197", "CVEGEO": "1405306770383007", "POBTOT": 0.0, "score_nse": 0.0, "NSE": null, "VIVTOT": 0.0, "GRAPROES": 0.0, "_ent": "14", "_mun": "053", "_loc": "0677"}, "geometry": {"type": "Polygon", "coordinates": [[[-101.97448, 21.32913], [-101.97438, 21.32814], [-101.97476, 21.32807], [-101.975, 21.329], [-101.97448, 21.32913]]]}}, {"id": "948249", "type": "Feature", "properties": {"id": "948249", "CVEGEO": "1405306770383005", "POBTOT": 0.0, "score_nse": 0.0, "NSE": null, "VIVTOT": 0.0, "GRAPROES": 0.0, "_ent": "14", "_mun": "053", "_loc": "0677"}, "geometry": {"type": "Polygon", "coordinates": [[[-101.97484, 21.328], [-101.97451, 21.32715], [-101.97793, 21.32637], [-101.97807, 21.3273], [-101.97484, 21.328]]]}}, {"id": "948250", "type": "Feature", "properties": {"id": "948250", "CVEGEO": "1405306770383004", "POBTOT": 0.0, "score_nse": 0.0, "NSE": null, "VIVTOT": 0.0, "GRAPROES": 0.0, "_ent": "14", "_mun": "053", "_loc": "0677"}, "geometry": {"type": "Polygon", "coordinates": [[[-101.97451, 21.32708], [-101.97411, 21.32659], [-101.974, 21.32619], [-101.97762, 21.32538], [-101.97788, 21.32631], [-101.97451, 21.32708]]]}}, {"id": "948345", "type": "Feature", "properties": {"id": "948345", "CVEGEO": "1405306770383009", "POBTOT": 0.0, "score_nse": 0.0, "NSE": null, "VIVTOT": 0.0, "GRAPROES": 0.0, "_ent": "14", "_mun": "053", "_loc": "0677"}, "geometry": {"type": "Polygon", "coordinates": [[[-101.97399, 21.32609], [-101.97383, 21.32463], [-101.97751, 21.32386], [-101.97738, 21.32485], [-101.97759, 21.32531], [-101.97399, 21.32609]]]}}, {"id": "948967", "type": "Feature", "properties": {"id": "948967", "CVEGEO": "1405306770383001", "POBTOT": 0.0, "score_nse": 0.0, "NSE": null, "VIVTOT": 0.0, "GRAPROES": 0.0, "_ent": "14", "_mun": "053", "_loc": "0677"}, "geometry": {"type": "Polygon", "coordinates": [[[-101.97438, 21.32804], [-101.97427, 21.3272], [-101.97445, 21.32717], [-101.97477, 21.32799], [-101.97438, 21.32804]]]}}, {"id": "949549", "type": "Feature", "properties": {"id": "949549", "CVEGEO": "1405306770383013", "POBTOT": 0.0, "score_nse": 0.0, "NSE": null, "VIVTOT": 0.0, "GRAPROES": 0.0, "_ent": "14", "_mun": "053", "_loc": "0677"}, "geometry": {"type": "Polygon", "coordinates": [[[-101.97511, 21.33113], [-101.97475, 21.33023], [-101.97516, 21.33011], [-101.97528, 21.33107], [-101.97511, 21.33113]]]}}, {"id": "949860", "type": "Feature", "properties": {"id": "949860", "CVEGEO": "1405306770383006", "POBTOT": 0.0, "score_nse": 0.0, "NSE": null, "VIVTOT": 0.0, "GRAPROES": 0.0, "_ent": "14", "_mun": "053", "_loc": "0677"}, "geometry": {"type": "Polygon", "coordinates": [[[-101.97485, 21.32809], [-101.97807, 21.32736], [-101.97821, 21.32831], [-101.97509, 21.32902], [-101.97485, 21.32809]]]}}, {"id": "949888", "type": "Feature", "properties": {"id": "949888", "CVEGEO": "1405306770383012", "POBTOT": 0.0, "score_nse": 0.0, "NSE": null, "VIVTOT": 0.0, "GRAPROES": 0.0, "_ent": "14", "_mun": "053", "_loc": "0677"}, "geometry": {"type": "Polygon", "coordinates": [[[-101.96973, 21.32601], [-101.97375, 21.32507], [-101.9738, 21.32556], [-101.96979, 21.32646], [-101.96973, 21.32601]]]}}, {"id": "949889", "type": "Feature", "properties": {"id": "949889", "CVEGEO": "1405306770383011", "POBTOT": 0.0, "score_nse": 0.0, "NSE": null, "VIVTOT": 0.0, "GRAPROES": 0.0, "_ent": "14", "_mun": "053", "_loc": "0677"}, "geometry": {"type": "Polygon", "coordinates": [[[-101.9745, 21.3292], [-101.97501, 21.32908], [-101.97515, 21.33006], [-101.97474, 21.33017], [-101.9745, 21.3292]]]}}, {"id": "949890", "type": "Feature", "properties": {"id": "949890", "CVEGEO": "1405306770383010", "POBTOT": 0.0, "score_nse": 0.0, "NSE": null, "VIVTOT": 0.0, "GRAPROES": 0.0, "_ent": "14", "_mun": "053", "_loc": "0677"}, "geometry": {"type": "Polygon", "coordinates": [[[-101.97867, 21.33157], [-101.97551, 21.33214], [-101.9754, 21.33113], [-101.97611, 21.33088], [-101.97534, 21.33104], [-101.97521, 21.33011], [-101.97672, 21.32969], [-101.97523, 21.33004], [-101.97509, 21.32908], [-101.97821, 21.32839], [-101.97867, 21.33157]]]}}, {"id": "949968", "type": "Feature", "properties": {"id": "949968", "CVEGEO": "1405306770383008", "POBTOT": 0.0, "score_nse": 0.0, "NSE": null, "VIVTOT": 0.0, "GRAPROES": 0.0, "_ent": "14", "_mun": "053", "_loc": "0677"}, "geometry": {"type": "Polygon", "coordinates": [[[-101.96984, 21.32653], [-101.9738, 21.32564], [-101.9739, 21.32611], [-101.96994, 21.32702], [-101.96984, 21.32653]]]}}, {"id": "950355", "type": "Feature", "properties": {"id": "950355", "CVEGEO": "1405306770383014", "POBTOT": 0.0, "score_nse": 0.0, "NSE": null, "VIVTOT": 0.0, "GRAPROES": 0.0, "_ent": "14", "_mun": "053", "_loc": "0677"}, "geometry": {"type": "Polygon", "coordinates": [[[-101.96903, 21.32947], [-101.96795, 21.32937], [-101.96796, 21.32923], [-101.96767, 21.32919], [-101.96782, 21.32799], [-101.9692, 21.32804], [-101.96872, 21.32855], [-101.96871, 21.32882], [-101.96922, 21.32812], [-101.97001, 21.32814], [-101.97035, 21.33006], [-101.969, 21.33001], [-101.96903, 21.32947]]]}}, {"id": "950519", "type": "Feature", "properties": {"id": "950519", "CVEGEO": "1405306770383002", "POBTOT": 0.0, "score_nse": 0.0, "NSE": null, "VIVTOT": 0.0, "GRAPROES": 0.0, "_ent": "14", "_mun": "053", "_loc": "0677"}, "geometry": {"type": "Polygon", "coordinates": [[[-101.97179, 21.32865], [-101.9726, 21.32862], [-101.97431, 21.3282], [-101.97441, 21.32918], [-101.97217, 21.3297], [-101.97441, 21.32925], [-101.97466, 21.33019], [-101.97252, 21.33066], [-101.97255, 21.331], [-101.9727, 21.33071], [-101.97467, 21.33027], [-101.97502, 21.33112], [-101.97314, 21.33162], [-101.97506, 21.33119], [-101.97532, 21.33163], [-101.97538, 21.33219], [-101.97106, 21.33318], [-101.97012, 21.32808], [-101.97075, 21.32794], [-101.97089, 21.32846], [-101.9708, 21.32793], [-101.97419, 21.32721], [-101.97431, 21.32815], [-101.97179, 21.32865]]]}}]}