{"type": "FeatureCollection", "features": [{"id": "1091635", "type": "Feature", "properties": {"id": "1091635", "CVEGEO": "1503500280271083", "POBTOT": 0.0, "score_nse": 0.0, "NSE": "ND", "VIVTOT": 0.0, "GRAPROES": 0.0, "_ent": "15", "_mun": "035", "_loc": "0028"}, "geometry": {"type": "Polygon", "coordinates": [[[-99.29033, 19.8262], [-99.28979, 19.82652], [-99.28915, 19.82664], [-99.289, 19.82648], [-99.28897, 19.82593], [-99.29003, 19.82498], [-99.29046, 19.82485], [-99.29113, 19.82535], [-99.29033, 19.8262]]]}}, {"id": "1091636", "type": "Feature", "properties": {"id": "1091636", "CVEGEO": "1503500280271053", "POBTOT": 33.0, "score_nse": 56.216, "NSE": "C", "VIVTOT": 12.0, "GRAPROES": 11.05, "_ent": "15", "_mun": "035", "_loc": "0028"}, "geometry": {"type": "Polygon", "coordinates": [[[-99.29001, 19.82284], [-99.2898, 19.82299], [-99.28968, 19.82281], [-99.28989, 19.82268], [-99.28985, 19.8228], [-99.29001, 19.82284]]]}}, {"id": "1091637", "type": "Feature", "properties": {"id": "1091637", "CVEGEO": "1503500280271012", "POBTOT": 0.0, "score_nse": 10.0, "NSE": "E", "VIVTOT": 1.0, "GRAPROES": 0.0, "_ent": "15", "_mun": "035", "_loc": "0028"}, "geometry": {"type": "Polygon", "coordinates": [[[-99.28608, 19.81335], [-99.28652, 19.81319], [-99.28703, 19.81242], [-99.2868, 19.81143], [-99.28603, 19.81093], [-99.28649, 19.8101], [-99.28629, 19.80927], [-99.28677, 19.80852], [-99.28704, 19.80847], [-99.2872, 19.80988], [-99.28811, 19.81245], [-99.28761, 19.81406], [-99.28771, 19.81526], [-99.28668, 19.8151], [-99.28638, 19.8149], [-99.28608, 19.81335]]]}}, {"id": "1091662", "type": "Feature", "properties": {"id": "1091662", "CVEGEO": "1503500280271087", "POBTOT": 0.0, "score_nse": 0.0, "NSE": "ND", "VIVTOT": 0.0, "GRAPROES": 0.0, "_ent": "15", "_mun": "035", "_loc": "0028"}, "geometry": {"type": "Polygon", "coordinates": [[[-99.28623, 19.82577], [-99.28437, 19.82716], [-99.28364, 19.82682], [-99.28366, 19.82596], [-99.28423, 19.82513], [-99.28512, 19.82507], [-99.28623, 19.82577]]]}}, {"id": "1091663", "type": "Feature", "properties": {"id": "1091663", "CVEGEO": "1503500280271089", "POBTOT": 0.0, "score_nse": 0.0, "NSE": "ND", "VIVTOT": 0.0, "GRAPROES": 0.0, "_ent": "15", "_mun": "035", "_loc": "0028"}, "geometry": {"type": "Polygon", "coordinates": [[[-99.28384, 19.82765], [-99.28301, 19.82767], [-99.28247, 19.82742], [-99.2818, 19.82679], [-99.28208, 19.82656], [-99.28376, 19.827], [-99.28423, 19.82731], [-99.28384, 19.82765]]]}}, {"id": "1091664", "type": "Feature", "properties": {"id": "1091664", "CVEGEO": "1503500280271024", "POBTOT": 0.0, "score_nse": 0.0, "NSE": "ND", "VIVTOT": 0.0, "GRAPROES": 0.0, "_ent": "15", "_mun": "035", "_loc": "0028"}, "geometry": {"type": "Polygon", "coordinates": [[[-99.28488, 19.80655], [-99.28441, 19.80658], [-99.28439, 19.80612], [-99.28535, 19.80595], [-99.28658, 19.80649], [-99.28709, 19.80724], [-99.287, 19.80835], [-99.28677, 19.80842], [-99.28596, 19.80794], [-99.28576, 19.80706], [-99.28488, 19.80655]]]}}, {"id": "1091667", "type": "Feature", "properties": {"id": "1091667", "CVEGEO": "1503500280271076", "POBTOT": 21.0, "score_nse": 59.1467, "NSE": "C", "VIVTOT": 12.0, "GRAPROES": 14.08, "_ent": "15", "_mun": "035", "_loc": "0028"}, "geometry": {"type": "Polygon", "coordinates": [[[-99.2845, 19.82554], [-99.28429, 19.82568], [-99.28417, 19.8255], [-99.28438, 19.82537], [-99.28434, 19.82549], [-99.2845, 19.82554]]]}}, {"id": "1091668", "type": "Feature", "properties": {"id": "1091668", "CVEGEO": "1503500280271069", "POBTOT": 13.0, "score_nse": 53.268, "NSE": "C-", "VIVTOT": 12.0, "GRAPROES": 15.13, "_ent": "15", "_mun": "035", "_loc": "0028"}, "geometry": {"type": "Polygon", "coordinates": [[[-99.28497, 19.82578], [-99.28475, 19.82593], [-99.28463, 19.82575], [-99.28484, 19.82561], [-99.2848, 19.82574], [-99.28497, 19.82578]]]}}, {"id": "1091669", "type": "Feature", "properties": {"id": "1091669", "CVEGEO": "1503500280271062", "POBTOT": 0.0, "score_nse": 10.0, "NSE": "E", "VIVTOT": 1.0, "GRAPROES": 0.0, "_ent": "15", "_mun": "035", "_loc": "0028"}, "geometry": {"type": "Polygon", "coordinates": [[[-99.2921, 19.82461], [-99.29189, 19.82475], [-99.29177, 19.82457], [-99.29198, 19.82444], [-99.29194, 19.82457], [-99.2921, 19.82461]]]}}, {"id": "1091670", "type": "Feature", "properties": {"id": "1091670", "CVEGEO": "1503500280271031", "POBTOT": 15.0, "score_nse": 0.0, "NSE": "ND", "VIVTOT": 12.0, "GRAPROES": 11.08, "_ent": "15", "_mun": "035", "_loc": "0028"}, "geometry": {"type": "Polygon", "coordinates": [[[-99.28837, 19.82418], [-99.28816, 19.82432], [-99.28804, 19.82414], [-99.28825, 19.82401], [-99.28821, 19.82414], [-99.28837, 19.82418]]]}}, {"id": "1091671", "type": "Feature", "properties": {"id": "1091671", "CVEGEO": "1503500280271023", "POBTOT": 0.0, "score_nse": 0.0, "NSE": "ND", "VIVTOT": 0.0, "GRAPROES": 0.0, "_ent": "15", "_mun": "035", "_loc": "0028"}, "geometry": {"type": "Polygon", "coordinates": [[[-99.28343, 19.80757], [-99.28393, 19.80683], [-99.28484, 19.80663], [-99.28565, 19.80711], [-99.28585, 19.80798], [-99.28535, 19.80874], [-99.28442, 19.80894], [-99.28363, 19.80847], [-99.28343, 19.80757]]]}}, {"id": "1091672", "type": "Feature", "properties": {"id": "1091672", "CVEGEO": "1503500280271022", "POBTOT": 0.0, "score_nse": 0.0, "NSE": "ND", "VIVTOT": 0.0, "GRAPROES": 0.0, "_ent": "15", "_mun": "035", "_loc": "0028"}, "geometry": {"type": "Polygon", "coordinates": [[[-99.28286, 19.80709], [-99.28338, 19.80659], [-99.28417, 19.8062], [-99.28425, 19.80664], [-99.28379, 19.80683], [-99.28331, 19.80761], [-99.28351, 19.80848], [-99.28304, 19.80923], [-99.28278, 19.80927], [-99.28244, 19.80911], [-99.28224, 19.80866], [-99.28234, 19.80792], [-99.28286, 19.80709]]]}}, {"id": "1091673", "type": "Feature", "properties": {"id": "1091673", "CVEGEO": "1503500280271014", "POBTOT": 29.0, "score_nse": 0.0, "NSE": "ND", "VIVTOT": 12.0, "GRAPROES": 10.31, "_ent": "15", "_mun": "035", "_loc": "0028"}, "geometry": {"type": "Polygon", "coordinates": [[[-99.28913, 19.82441], [-99.28892, 19.82455], [-99.2888, 19.82437], [-99.28901, 19.82424], [-99.28897, 19.82436], [-99.28913, 19.82441]]]}}, {"id": "1091674", "type": "Feature", "properties": {"id": "1091674", "CVEGEO": "1503500280271007", "POBTOT": 0.0, "score_nse": 0.0, "NSE": "ND", "VIVTOT": 0.0, "GRAPROES": 0.0, "_ent": "15", "_mun": "035", "_loc": "0028"}, "geometry": {"type": "Polygon", "coordinates": [[[-99.28743, 19.82307], [-99.28776, 19.82332], [-99.2875, 19.82303], [-99.28805, 19.82259], [-99.28841, 19.82293], [-99.28811, 19.82256], [-99.28837, 19.82235], [-99.28852, 19.82253], [-99.28842, 19.82261], [-99.28879, 19.82282], [-99.28943, 19.8223], [-99.28908, 19.82179], [-99.28973, 19.82176], [-99.28955, 19.82249], [-99.28643, 19.825], [-99.28629, 19.82554], [-99.2853, 19.82486], [-99.28628, 19.82399], [-99.28661, 19.82432], [-99.28633, 19.82396], [-99.28685, 19.82353], [-99.28709, 19.8238], [-99.28692, 19.8235], [-99.28743, 19.82307]]]}}, {"id": "1091690", "type": "Feature", "properties": {"id": "1091690", "CVEGEO": "1503500280271015", "POBTOT": 0.0, "score_nse": 0.0, "NSE": "ND", "VIVTOT": 0.0, "GRAPROES": 0.0, "_ent": "15", "_mun": "035", "_loc": "0028"}, "geometry": {"type": "Polygon", "coordinates": [[[-99.28396, 19.80974], [-99.28443, 19.80902], [-99.2854, 19.80883], [-99.28615, 19.80925], [-99.28638, 19.81011], [-99.28591, 19.81092], [-99.285, 19.81111], [-99.2842, 19.81063], [-99.28396, 19.80974]]]}}, {"id": "1091701", "type": "Feature", "properties": {"id": "1091701", "CVEGEO": "1503500280271061", "POBTOT": 27.0, "score_nse": 52.8327, "NSE": "C-", "VIVTOT": 12.0, "GRAPROES": 10.73, "_ent": "15", "_mun": "035", "_loc": "0028"}, "geometry": {"type": "Polygon", "coordinates": [[[-99.2918, 19.82439], [-99.29159, 19.82454], [-99.29146, 19.82436], [-99.29167, 19.82422], [-99.29164, 19.82435], [-99.2918, 19.82439]]]}}, {"id": "1091803", "type": "Feature", "properties": {"id": "1091803", "CVEGEO": "1503500280271082", "POBTOT": 0.0, "score_nse": 0.0, "NSE": "ND", "VIVTOT": 0.0, "GRAPROES": 0.0, "_ent": "15", "_mun": "035", "_loc": "0028"}, "geometry": {"type": "Polygon", "coordinates": [[[-99.29243, 19.82495], [-99.29115, 19.82518], [-99.29034, 19.82471], [-99.29022, 19.82428], [-99.29137, 19.82368], [-99.29243, 19.82495]]]}}, {"id": "1091804", "type": "Feature", "properties": {"id": "1091804", "CVEGEO": "1503500280271075", "POBTOT": 27.0, "score_nse": 67.648, "NSE": "C", "VIVTOT": 12.0, "GRAPROES": 13.0, "_ent": "15", "_mun": "035", "_loc": "0028"}, "geometry": {"type": "Polygon", "coordinates": [[[-99.28417, 19.82582], [-99.28396, 19.82596], [-99.28384, 19.82578], [-99.28405, 19.82565], [-99.28401, 19.82578], [-99.28417, 19.82582]]]}}, {"id": "1091805", "type": "Feature", "properties": {"id": "1091805", "CVEGEO": "1503500280271074", "POBTOT": 8.0, "score_nse": 0.0, "NSE": "ND", "VIVTOT": 12.0, "GRAPROES": 0.0, "_ent": "15", "_mun": "035", "_loc": "0028"}, "geometry": {"type": "Polygon", "coordinates": [[[-99.28408, 19.82647], [-99.28387, 19.82662], [-99.28375, 19.82644], [-99.28396, 19.8263], [-99.28392, 19.82643], [-99.28408, 19.82647]]]}}, {"id": "1091806", "type": "Feature", "properties": {"id": "1091806", "CVEGEO": "1503500280271068", "POBTOT": 2.0, "score_nse": 0.0, "NSE": "ND", "VIVTOT": 12.0, "GRAPROES": 0.0, "_ent": "15", "_mun": "035", "_loc": "0028"}, "geometry": {"type": "Polygon", "coordinates": [[[-99.28513, 19.82644], [-99.28492, 19.82658], [-99.2848, 19.82641], [-99.28501, 19.82627], [-99.28497, 19.8264], [-99.28513, 19.82644]]]}}, {"id": "1091807", "type": "Feature", "properties": {"id": "1091807", "CVEGEO": "1503500280271045", "POBTOT": 28.0, "score_nse": 59.07, "NSE": "C", "VIVTOT": 12.0, "GRAPROES": 10.11, "_ent": "15", "_mun": "035", "_loc": "0028"}, "geometry": {"type": "Polygon", "coordinates": [[[-99.29081, 19.82434], [-99.2906, 19.82448], [-99.29048, 19.8243], [-99.29069, 19.82417], [-99.29065, 19.8243], [-99.29081, 19.82434]]]}}, {"id": "1091808", "type": "Feature", "properties": {"id": "1091808", "CVEGEO": "1503500280271044", "POBTOT": 19.0, "score_nse": 0.0, "NSE": "ND", "VIVTOT": 12.0, "GRAPROES": 10.2, "_ent": "15", "_mun": "035", "_loc": "0028"}, "geometry": {"type": "Polygon", "coordinates": [[[-99.29063, 19.82381], [-99.29042, 19.82395], [-99.29029, 19.82378], [-99.2905, 19.82364], [-99.29047, 19.82377], [-99.29063, 19.82381]]]}}, {"id": "1091809", "type": "Feature", "properties": {"id": "1091809", "CVEGEO": "1503500280271038", "POBTOT": 42.0, "score_nse": 0.0, "NSE": "ND", "VIVTOT": 12.0, "GRAPROES": 10.41, "_ent": "15", "_mun": "035", "_loc": "0028"}, "geometry": {"type": "Polygon", "coordinates": [[[-99.28937, 19.82604], [-99.28916, 19.82618], [-99.28903, 19.82601], [-99.28924, 19.82587], [-99.28921, 19.826], [-99.28937, 19.82604]]]}}, {"id": "1091810", "type": "Feature", "properties": {"id": "1091810", "CVEGEO": "1503500280271037", "POBTOT": 25.0, "score_nse": 56.5834, "NSE": "C", "VIVTOT": 13.0, "GRAPROES": 10.61, "_ent": "15", "_mun": "035", "_loc": "0028"}, "geometry": {"type": "Polygon", "coordinates": [[[-99.28962, 19.82584], [-99.2894, 19.82598], [-99.28928, 19.8258], [-99.28949, 19.82567], [-99.28945, 19.8258], [-99.28962, 19.82584]]]}}, {"id": "1091811", "type": "Feature", "properties": {"id": "1091811", "CVEGEO": "1503500280271030", "POBTOT": 42.0, "score_nse": 56.3953, "NSE": "C", "VIVTOT": 12.0, "GRAPROES": 10.84, "_ent": "15", "_mun": "035", "_loc": "0028"}, "geometry": {"type": "Polygon", "coordinates": [[[-99.2881, 19.82436], [-99.28788, 19.82451], [-99.28776, 19.82433], [-99.28797, 19.82419], [-99.28793, 19.82432], [-99.2881, 19.82436]]]}}, {"id": "1091812", "type": "Feature", "properties": {"id": "1091812", "CVEGEO": "1503500280271021", "POBTOT": 24.0, "score_nse": 59.4547, "NSE": "C", "VIVTOT": 12.0, "GRAPROES": 11.33, "_ent": "15", "_mun": "035", "_loc": "0028"}, "geometry": {"type": "Polygon", "coordinates": [[[-99.29096, 19.82551], [-99.29075, 19.82565], [-99.29063, 19.82547], [-99.29083, 19.82534], [-99.2908, 19.82547], [-99.29096, 19.82551]]]}}, {"id": "1091813", "type": "Feature", "properties": {"id": "1091813", "CVEGEO": "1503500280271020", "POBTOT": 0.0, "score_nse": 10.0, "NSE": "E", "VIVTOT": 1.0, "GRAPROES": 0.0, "_ent": "15", "_mun": "035", "_loc": "0028"}, "geometry": {"type": "Polygon", "coordinates": [[[-99.29195, 19.82496], [-99.29174, 19.8251], [-99.29161, 19.82492], [-99.29182, 19.82479], [-99.29179, 19.82492], [-99.29195, 19.82496]]]}}, {"id": "1091814", "type": "Feature", "properties": {"id": "1091814", "CVEGEO": "1503500280271006", "POBTOT": 0.0, "score_nse": 0.0, "NSE": "ND", "VIVTOT": 0.0, "GRAPROES": 0.0, "_ent": "15", "_mun": "035", "_loc": "0028"}, "geometry": {"type": "Polygon", "coordinates": [[[-99.28619, 19.81529], [-99.28772, 19.8156], [-99.28786, 19.81752], [-99.28769, 19.81798], [-99.28689, 19.81878], [-99.28643, 19.81913], [-99.28582, 19.81928], [-99.28571, 19.81894], [-99.28619, 19.81529]]]}}, {"id": "1091815", "type": "Feature", "properties": {"id": "1091815", "CVEGEO": "1503500280271005", "POBTOT": 0.0, "score_nse": 0.0, "NSE": "ND", "VIVTOT": 0.0, "GRAPROES": 0.0, "_ent": "15", "_mun": "035", "_loc": "0028"}, "geometry": {"type": "Polygon", "coordinates": [[[-99.28393, 19.81965], [-99.28442, 19.81493], [-99.28612, 19.81518], [-99.28564, 19.81923], [-99.28454, 19.8194], [-99.28393, 19.81965]]]}}, {"id": "1091918", "type": "Feature", "properties": {"id": "1091918", "CVEGEO": "1503500280271054", "POBTOT": 22.0, "score_nse": 0.0, "NSE": "ND", "VIVTOT": 12.0, "GRAPROES": 9.92, "_ent": "15", "_mun": "035", "_loc": "0028"}, "geometry": {"type": "Polygon", "coordinates": [[[-99.29057, 19.82319], [-99.29036, 19.82334], [-99.29024, 19.82316], [-99.29045, 19.82303], [-99.29041, 19.82315], [-99.29057, 19.82319]]]}}, {"id": "1091919", "type": "Feature", "properties": {"id": "1091919", "CVEGEO": "1503500280271047", "POBTOT": 23.0, "score_nse": 0.0, "NSE": "ND", "VIVTOT": 12.0, "GRAPROES": 11.33, "_ent": "15", "_mun": "035", "_loc": "0028"}, "geometry": {"type": "Polygon", "coordinates": [[[-99.29059, 19.82512], [-99.29038, 19.82526], [-99.29025, 19.82509], [-99.29046, 19.82495], [-99.29043, 19.82508], [-99.29059, 19.82512]]]}}, {"id": "1091920", "type": "Feature", "properties": {"id": "1091920", "CVEGEO": "1503500280271046", "POBTOT": 30.0, "score_nse": 0.0, "NSE": "ND", "VIVTOT": 12.0, "GRAPROES": 11.0, "_ent": "15", "_mun": "035", "_loc": "0028"}, "geometry": {"type": "Polygon", "coordinates": [[[-99.29119, 19.82483], [-99.29098, 19.82498], [-99.29085, 19.8248], [-99.29106, 19.82466], [-99.29103, 19.82479], [-99.29119, 19.82483]]]}}, {"id": "1091921", "type": "Feature", "properties": {"id": "1091921", "CVEGEO": "1503500280271039", "POBTOT": 22.0, "score_nse": 49.16, "NSE": "C-", "VIVTOT": 14.0, "GRAPROES": 11.21, "_ent": "15", "_mun": "035", "_loc": "0028"}, "geometry": {"type": "Polygon", "coordinates": [[[-99.28861, 19.82586], [-99.28839, 19.82601], [-99.28827, 19.82583], [-99.28848, 19.82569], [-99.28844, 19.82582], [-99.28861, 19.82586]]]}}, {"id": "1091936", "type": "Feature", "properties": {"id": "1091936", "CVEGEO": "1503500280271032", "POBTOT": 22.0, "score_nse": 56.4487, "NSE": "C", "VIVTOT": 12.0, "GRAPROES": 11.75, "_ent": "15", "_mun": "035", "_loc": "0028"}, "geometry": {"type": "Polygon", "coordinates": [[[-99.2887, 19.82392], [-99.28849, 19.82407], [-99.28837, 19.82389], [-99.28858, 19.82375], [-99.28854, 19.82388], [-99.2887, 19.82392]]]}}, {"id": "1092133", "type": "Feature", "properties": {"id": "1092133", "CVEGEO": "1503500280271055", "POBTOT": 33.0, "score_nse": 57.628, "NSE": "C", "VIVTOT": 12.0, "GRAPROES": 10.89, "_ent": "15", "_mun": "035", "_loc": "0028"}, "geometry": {"type": "Polygon", "coordinates": [[[-99.2913, 19.82401], [-99.29109, 19.82416], [-99.29097, 19.82398], [-99.29118, 19.82385], [-99.29114, 19.82397], [-99.2913, 19.82401]]]}}, {"id": "1092147", "type": "Feature", "properties": {"id": "1092147", "CVEGEO": "1503500280271091", "POBTOT": 0.0, "score_nse": 0.0, "NSE": "ND", "VIVTOT": 0.0, "GRAPROES": 0.0, "_ent": "15", "_mun": "035", "_loc": "0028"}, "geometry": {"type": "Polygon", "coordinates": [[[-99.28199, 19.80805], [-99.28195, 19.80892], [-99.28072, 19.80871], [-99.28199, 19.80805]]]}}, {"id": "1092148", "type": "Feature", "properties": {"id": "1092148", "CVEGEO": "1503500280271086", "POBTOT": 0.0, "score_nse": 0.0, "NSE": "ND", "VIVTOT": 0.0, "GRAPROES": 0.0, "_ent": "15", "_mun": "035", "_loc": "0028"}, "geometry": {"type": "Polygon", "coordinates": [[[-99.29114, 19.82351], [-99.29073, 19.82392], [-99.28941, 19.82436], [-99.28883, 19.8234], [-99.2898, 19.82258], [-99.29, 19.82186], [-99.29114, 19.82351]]]}}, {"id": "1092149", "type": "Feature", "properties": {"id": "1092149", "CVEGEO": "1503500280271088", "POBTOT": 0.0, "score_nse": 0.0, "NSE": "ND", "VIVTOT": 0.0, "GRAPROES": 0.0, "_ent": "15", "_mun": "035", "_loc": "0028"}, "geometry": {"type": "Polygon", "coordinates": [[[-99.28359, 19.82592], [-99.28204, 19.826], [-99.28154, 19.82576], [-99.28252, 19.82515], [-99.28406, 19.82511], [-99.28359, 19.82592]]]}}, {"id": "1092150", "type": "Feature", "properties": {"id": "1092150", "CVEGEO": "1503500280271085", "POBTOT": 0.0, "score_nse": 0.0, "NSE": "ND", "VIVTOT": 0.0, "GRAPROES": 0.0, "_ent": "15", "_mun": "035", "_loc": "0028"}, "geometry": {"type": "Polygon", "coordinates": [[[-99.28825, 19.82531], [-99.28655, 19.82555], [-99.28671, 19.82507], [-99.2887, 19.82357], [-99.28931, 19.8245], [-99.28825, 19.82531]]]}}, {"id": "1092151", "type": "Feature", "properties": {"id": "1092151", "CVEGEO": "1503500280271090", "POBTOT": 0.0, "score_nse": 0.0, "NSE": "ND", "VIVTOT": 0.0, "GRAPROES": 0.0, "_ent": "15", "_mun": "035", "_loc": "0028"}, "geometry": {"type": "Polygon", "coordinates": [[[-99.28197, 19.82637], [-99.28161, 19.82672], [-99.2813, 19.82633], [-99.28136, 19.82589], [-99.28186, 19.82603], [-99.28197, 19.82637]]]}}, {"id": "1092152", "type": "Feature", "properties": {"id": "1092152", "CVEGEO": "1503500280271084", "POBTOT": 0.0, "score_nse": 0.0, "NSE": "ND", "VIVTOT": 0.0, "GRAPROES": 0.0, "_ent": "15", "_mun": "035", "_loc": "0028"}, "geometry": {"type": "Polygon", "coordinates": [[[-99.28885, 19.82665], [-99.28823, 19.82682], [-99.28768, 19.82671], [-99.28684, 19.82626], [-99.28664, 19.8257], [-99.28793, 19.82546], [-99.2887, 19.8256], [-99.28888, 19.82579], [-99.28885, 19.82665]]]}}, {"id": "1092153", "type": "Feature", "properties": {"id": "1092153", "CVEGEO": "1503500280271081", "POBTOT": 0.0, "score_nse": 0.0, "NSE": "ND", "VIVTOT": 0.0, "GRAPROES": 0.0, "_ent": "15", "_mun": "035", "_loc": "0028"}, "geometry": {"type": "Polygon", "coordinates": [[[-99.28215, 19.82582], [-99.28194, 19.82596], [-99.28181, 19.82578], [-99.28202, 19.82565], [-99.28199, 19.82577], [-99.28215, 19.82582]]]}}, {"id": "1092154", "type": "Feature", "properties": {"id": "1092154", "CVEGEO": "1503500280271080", "POBTOT": 15.0, "score_nse": 0.0, "NSE": "ND", "VIVTOT": 12.0, "GRAPROES": 12.2, "_ent": "15", "_mun": "035", "_loc": "0028"}, "geometry": {"type": "Polygon", "coordinates": [[[-99.28244, 19.82563], [-99.28223, 19.82577], [-99.28211, 19.82559], [-99.28231, 19.82546], [-99.28228, 19.82558], [-99.28244, 19.82563]]]}}, {"id": "1092155", "type": "Feature", "properties": {"id": "1092155", "CVEGEO": "1503500280271079", "POBTOT": 21.0, "score_nse": 59.8167, "NSE": "C", "VIVTOT": 12.0, "GRAPROES": 13.15, "_ent": "15", "_mun": "035", "_loc": "0028"}, "geometry": {"type": "Polygon", "coordinates": [[[-99.2827, 19.82543], [-99.28249, 19.82557], [-99.28237, 19.82539], [-99.28258, 19.82526], [-99.28254, 19.82538], [-99.2827, 19.82543]]]}}, {"id": "1092156", "type": "Feature", "properties": {"id": "1092156", "CVEGEO": "1503500280271078", "POBTOT": 18.0, "score_nse": 57.3167, "NSE": "C", "VIVTOT": 12.0, "GRAPROES": 12.42, "_ent": "15", "_mun": "035", "_loc": "0028"}, "geometry": {"type": "Polygon", "coordinates": [[[-99.28344, 19.8258], [-99.28323, 19.82594], [-99.28311, 19.82576], [-99.28332, 19.82563], [-99.28328, 19.82576], [-99.28344, 19.8258]]]}}, {"id": "1092157", "type": "Feature", "properties": {"id": "1092157", "CVEGEO": "1503500280271077", "POBTOT": 23.0, "score_nse": 0.0, "NSE": "ND", "VIVTOT": 12.0, "GRAPROES": 11.62, "_ent": "15", "_mun": "035", "_loc": "0028"}, "geometry": {"type": "Polygon", "coordinates": [[[-99.2837, 19.82554], [-99.28349, 19.82568], [-99.28337, 19.8255], [-99.28358, 19.82537], [-99.28354, 19.8255], [-99.2837, 19.82554]]]}}, {"id": "1092158", "type": "Feature", "properties": {"id": "1092158", "CVEGEO": "1503500280271073", "POBTOT": 20.0, "score_nse": 60.98, "NSE": "C", "VIVTOT": 12.0, "GRAPROES": 13.79, "_ent": "15", "_mun": "035", "_loc": "0028"}, "geometry": {"type": "Polygon", "coordinates": [[[-99.2845, 19.82693], [-99.28429, 19.82707], [-99.28417, 19.8269], [-99.28438, 19.82676], [-99.28434, 19.82689], [-99.2845, 19.82693]]]}}, {"id": "1092159", "type": "Feature", "properties": {"id": "1092159", "CVEGEO": "1503500280271072", "POBTOT": 13.0, "score_nse": 0.0, "NSE": "ND", "VIVTOT": 12.0, "GRAPROES": 13.67, "_ent": "15", "_mun": "035", "_loc": "0028"}, "geometry": {"type": "Polygon", "coordinates": [[[-99.28467, 19.82599], [-99.28445, 19.82613], [-99.28433, 19.82595], [-99.28454, 19.82582], [-99.2845, 19.82595], [-99.28467, 19.82599]]]}}, {"id": "1092160", "type": "Feature", "properties": {"id": "1092160", "CVEGEO": "1503500280271071", "POBTOT": 23.0, "score_nse": 64.6573, "NSE": "C", "VIVTOT": 12.0, "GRAPROES": 11.57, "_ent": "15", "_mun": "035", "_loc": "0028"}, "geometry": {"type": "Polygon", "coordinates": [[[-99.28439, 19.82621], [-99.28418, 19.82636], [-99.28406, 19.82618], [-99.28427, 19.82604], [-99.28423, 19.82617], [-99.28439, 19.82621]]]}}, {"id": "1092161", "type": "Feature", "properties": {"id": "1092161", "CVEGEO": "1503500280271070", "POBTOT": 25.0, "score_nse": 53.1167, "NSE": "C-", "VIVTOT": 12.0, "GRAPROES": 10.6, "_ent": "15", "_mun": "035", "_loc": "0028"}, "geometry": {"type": "Polygon", "coordinates": [[[-99.28481, 19.82671], [-99.2846, 19.82685], [-99.28448, 19.82667], [-99.28469, 19.82654], [-99.28465, 19.82667], [-99.28481, 19.82671]]]}}, {"id": "1092162", "type": "Feature", "properties": {"id": "1092162", "CVEGEO": "1503500280271067", "POBTOT": 7.0, "score_nse": 0.0, "NSE": "ND", "VIVTOT": 12.0, "GRAPROES": 0.0, "_ent": "15", "_mun": "035", "_loc": "0028"}, "geometry": {"type": "Polygon", "coordinates": [[[-99.28527, 19.82552], [-99.28506, 19.82567], [-99.28493, 19.82549], [-99.28514, 19.82535], [-99.28511, 19.82548], [-99.28527, 19.82552]]]}}, {"id": "1092163", "type": "Feature", "properties": {"id": "1092163", "CVEGEO": "1503500280271066", "POBTOT": 17.0, "score_nse": 57.42, "NSE": "C", "VIVTOT": 12.0, "GRAPROES": 14.56, "_ent": "15", "_mun": "035", "_loc": "0028"}, "geometry": {"type": "Polygon", "coordinates": [[[-99.28542, 19.82622], [-99.2852, 19.82636], [-99.28508, 19.82618], [-99.28529, 19.82605], [-99.28525, 19.82617], [-99.28542, 19.82622]]]}}, {"id": "1092164", "type": "Feature", "properties": {"id": "1092164", "CVEGEO": "1503500280271065", "POBTOT": 27.0, "score_nse": 58.1247, "NSE": "C", "VIVTOT": 12.0, "GRAPROES": 10.78, "_ent": "15", "_mun": "035", "_loc": "0028"}, "geometry": {"type": "Polygon", "coordinates": [[[-99.28723, 19.82506], [-99.28702, 19.82521], [-99.28689, 19.82503], [-99.2871, 19.82489], [-99.28707, 19.82502], [-99.28723, 19.82506]]]}}, {"id": "1092165", "type": "Feature", "properties": {"id": "1092165", "CVEGEO": "1503500280271064", "POBTOT": 22.0, "score_nse": 0.0, "NSE": "ND", "VIVTOT": 12.0, "GRAPROES": 12.54, "_ent": "15", "_mun": "035", "_loc": "0028"}, "geometry": {"type": "Polygon", "coordinates": [[[-99.28733, 19.82603], [-99.28712, 19.82618], [-99.287, 19.826], [-99.28721, 19.82586], [-99.28717, 19.82599], [-99.28733, 19.82603]]]}}, {"id": "1092166", "type": "Feature", "properties": {"id": "1092166", "CVEGEO": "1503500280271063", "POBTOT": 27.0, "score_nse": 64.076, "NSE": "C", "VIVTOT": 12.0, "GRAPROES": 12.56, "_ent": "15", "_mun": "035", "_loc": "0028"}, "geometry": {"type": "Polygon", "coordinates": [[[-99.28771, 19.82648], [-99.28749, 19.82662], [-99.28737, 19.82644], [-99.28758, 19.82631], [-99.28755, 19.82644], [-99.28771, 19.82648]]]}}, {"id": "1092167", "type": "Feature", "properties": {"id": "1092167", "CVEGEO": "1503500280271060", "POBTOT": 26.0, "score_nse": 52.72, "NSE": "C-", "VIVTOT": 12.0, "GRAPROES": 10.76, "_ent": "15", "_mun": "035", "_loc": "0028"}, "geometry": {"type": "Polygon", "coordinates": [[[-99.2875, 19.82485], [-99.28729, 19.825], [-99.28717, 19.82482], [-99.28738, 19.82468], [-99.28734, 19.82481], [-99.2875, 19.82485]]]}}, {"id": "1092168", "type": "Feature", "properties": {"id": "1092168", "CVEGEO": "1503500280271059", "POBTOT": 17.0, "score_nse": 0.0, "NSE": "ND", "VIVTOT": 12.0, "GRAPROES": 9.4, "_ent": "15", "_mun": "035", "_loc": "0028"}, "geometry": {"type": "Polygon", "coordinates": [[[-99.28768, 19.82577], [-99.28746, 19.82592], [-99.28734, 19.82574], [-99.28755, 19.8256], [-99.28751, 19.82573], [-99.28768, 19.82577]]]}}, {"id": "1092169", "type": "Feature", "properties": {"id": "1092169", "CVEGEO": "1503500280271058", "POBTOT": 26.0, "score_nse": 0.0, "NSE": "ND", "VIVTOT": 12.0, "GRAPROES": 12.15, "_ent": "15", "_mun": "035", "_loc": "0028"}, "geometry": {"type": "Polygon", "coordinates": [[[-99.288, 19.82627], [-99.28779, 19.82641], [-99.28767, 19.82624], [-99.28788, 19.8261], [-99.28784, 19.82623], [-99.288, 19.82627]]]}}, {"id": "1092170", "type": "Feature", "properties": {"id": "1092170", "CVEGEO": "1503500280271057", "POBTOT": 23.0, "score_nse": 52.4413, "NSE": "C-", "VIVTOT": 12.0, "GRAPROES": 11.57, "_ent": "15", "_mun": "035", "_loc": "0028"}, "geometry": {"type": "Polygon", "coordinates": [[[-99.29149, 19.82504], [-99.29127, 19.82518], [-99.29115, 19.825], [-99.29136, 19.82487], [-99.29132, 19.825], [-99.29149, 19.82504]]]}}, {"id": "1092171", "type": "Feature", "properties": {"id": "1092171", "CVEGEO": "1503500280271056", "POBTOT": 22.0, "score_nse": 50.8653, "NSE": "C-", "VIVTOT": 12.0, "GRAPROES": 10.75, "_ent": "15", "_mun": "035", "_loc": "0028"}, "geometry": {"type": "Polygon", "coordinates": [[[-99.2915, 19.82462], [-99.29129, 19.82476], [-99.29117, 19.82459], [-99.29138, 19.82445], [-99.29134, 19.82458], [-99.2915, 19.82462]]]}}, {"id": "1092172", "type": "Feature", "properties": {"id": "1092172", "CVEGEO": "1503500280271052", "POBTOT": 40.0, "score_nse": 69.5133, "NSE": "C", "VIVTOT": 12.0, "GRAPROES": 12.14, "_ent": "15", "_mun": "035", "_loc": "0028"}, "geometry": {"type": "Polygon", "coordinates": [[[-99.2883, 19.82608], [-99.28809, 19.82623], [-99.28797, 19.82605], [-99.28817, 19.82591], [-99.28814, 19.82604], [-99.2883, 19.82608]]]}}, {"id": "1092173", "type": "Feature", "properties": {"id": "1092173", "CVEGEO": "1503500280271051", "POBTOT": 25.0, "score_nse": 51.8253, "NSE": "C-", "VIVTOT": 12.0, "GRAPROES": 12.08, "_ent": "15", "_mun": "035", "_loc": "0028"}, "geometry": {"type": "Polygon", "coordinates": [[[-99.28847, 19.82665], [-99.28826, 19.82679], [-99.28813, 19.82662], [-99.28834, 19.82648], [-99.28831, 19.82661], [-99.28847, 19.82665]]]}}, {"id": "1092174", "type": "Feature", "properties": {"id": "1092174", "CVEGEO": "1503500280271050", "POBTOT": 33.0, "score_nse": 59.728, "NSE": "C", "VIVTOT": 12.0, "GRAPROES": 11.44, "_ent": "15", "_mun": "035", "_loc": "0028"}, "geometry": {"type": "Polygon", "coordinates": [[[-99.29006, 19.82631], [-99.28984, 19.82646], [-99.28972, 19.82628], [-99.28993, 19.82614], [-99.2899, 19.82627], [-99.29006, 19.82631]]]}}, {"id": "1092175", "type": "Feature", "properties": {"id": "1092175", "CVEGEO": "1503500280271049", "POBTOT": 27.0, "score_nse": 0.0, "NSE": "ND", "VIVTOT": 12.0, "GRAPROES": 10.63, "_ent": "15", "_mun": "035", "_loc": "0028"}, "geometry": {"type": "Polygon", "coordinates": [[[-99.29038, 19.82604], [-99.29017, 19.82618], [-99.29005, 19.82601], [-99.29026, 19.82587], [-99.29022, 19.826], [-99.29038, 19.82604]]]}}, {"id": "1092176", "type": "Feature", "properties": {"id": "1092176", "CVEGEO": "1503500280271048", "POBTOT": 29.0, "score_nse": 59.0213, "NSE": "C", "VIVTOT": 12.0, "GRAPROES": 11.82, "_ent": "15", "_mun": "035", "_loc": "0028"}, "geometry": {"type": "Polygon", "coordinates": [[[-99.2907, 19.82578], [-99.29048, 19.82593], [-99.29036, 19.82575], [-99.29057, 19.82561], [-99.29054, 19.82574], [-99.2907, 19.82578]]]}}, {"id": "1092177", "type": "Feature", "properties": {"id": "1092177", "CVEGEO": "1503500280271043", "POBTOT": 25.0, "score_nse": 0.0, "NSE": "ND", "VIVTOT": 12.0, "GRAPROES": 9.0, "_ent": "15", "_mun": "035", "_loc": "0028"}, "geometry": {"type": "Polygon", "coordinates": [[[-99.29025, 19.82342], [-99.29004, 19.82356], [-99.28992, 19.82338], [-99.29012, 19.82325], [-99.29009, 19.82338], [-99.29025, 19.82342]]]}}, {"id": "1092179", "type": "Feature", "properties": {"id": "1092179", "CVEGEO": "1503500280271042", "POBTOT": 28.0, "score_nse": 55.65, "NSE": "C", "VIVTOT": 12.0, "GRAPROES": 10.75, "_ent": "15", "_mun": "035", "_loc": "0028"}, "geometry": {"type": "Polygon", "coordinates": [[[-99.28973, 19.82304], [-99.28952, 19.82318], [-99.2894, 19.823], [-99.28961, 19.82287], [-99.28957, 19.823], [-99.28973, 19.82304]]]}}, {"id": "1092180", "type": "Feature", "properties": {"id": "1092180", "CVEGEO": "1503500280271041", "POBTOT": 27.0, "score_nse": 0.0, "NSE": "ND", "VIVTOT": 12.0, "GRAPROES": 10.8, "_ent": "15", "_mun": "035", "_loc": "0028"}, "geometry": {"type": "Polygon", "coordinates": [[[-99.28775, 19.8246], [-99.28754, 19.82475], [-99.28742, 19.82457], [-99.28763, 19.82443], [-99.28759, 19.82456], [-99.28775, 19.8246]]]}}, {"id": "1092181", "type": "Feature", "properties": {"id": "1092181", "CVEGEO": "1503500280271040", "POBTOT": 19.0, "score_nse": 0.0, "NSE": "ND", "VIVTOT": 12.0, "GRAPROES": 9.92, "_ent": "15", "_mun": "035", "_loc": "0028"}, "geometry": {"type": "Polygon", "coordinates": [[[-99.28822, 19.82514], [-99.28801, 19.82528], [-99.28788, 19.8251], [-99.28809, 19.82497], [-99.28806, 19.8251], [-99.28822, 19.82514]]]}}, {"id": "1092182", "type": "Feature", "properties": {"id": "1092182", "CVEGEO": "1503500280271036", "POBTOT": 25.0, "score_nse": 54.882, "NSE": "C-", "VIVTOT": 12.0, "GRAPROES": 11.15, "_ent": "15", "_mun": "035", "_loc": "0028"}, "geometry": {"type": "Polygon", "coordinates": [[[-99.28994, 19.82559], [-99.28973, 19.82573], [-99.28961, 19.82555], [-99.28982, 19.82542], [-99.28978, 19.82555], [-99.28994, 19.82559]]]}}, {"id": "1092183", "type": "Feature", "properties": {"id": "1092183", "CVEGEO": "1503500280271035", "POBTOT": 31.0, "score_nse": 0.0, "NSE": "ND", "VIVTOT": 12.0, "GRAPROES": 10.71, "_ent": "15", "_mun": "035", "_loc": "0028"}, "geometry": {"type": "Polygon", "coordinates": [[[-99.29026, 19.82535], [-99.29004, 19.82549], [-99.28992, 19.82532], [-99.29013, 19.82518], [-99.29009, 19.82531], [-99.29026, 19.82535]]]}}, {"id": "1092184", "type": "Feature", "properties": {"id": "1092184", "CVEGEO": "1503500280271034", "POBTOT": 33.0, "score_nse": 61.568, "NSE": "C", "VIVTOT": 12.0, "GRAPROES": 11.11, "_ent": "15", "_mun": "035", "_loc": "0028"}, "geometry": {"type": "Polygon", "coordinates": [[[-99.28994, 19.82364], [-99.28973, 19.82378], [-99.2896, 19.8236], [-99.28981, 19.82347], [-99.28978, 19.8236], [-99.28994, 19.82364]]]}}, {"id": "1092185", "type": "Feature", "properties": {"id": "1092185", "CVEGEO": "1503500280271033", "POBTOT": 19.0, "score_nse": 0.0, "NSE": "ND", "VIVTOT": 10.0, "GRAPROES": 9.09, "_ent": "15", "_mun": "035", "_loc": "0028"}, "geometry": {"type": "Polygon", "coordinates": [[[-99.28939, 19.8233], [-99.28918, 19.82344], [-99.28906, 19.82326], [-99.28927, 19.82313], [-99.28923, 19.82326], [-99.28939, 19.8233]]]}}, {"id": "1092186", "type": "Feature", "properties": {"id": "1092186", "CVEGEO": "1503500280271029", "POBTOT": 23.0, "score_nse": 0.0, "NSE": "ND", "VIVTOT": 12.0, "GRAPROES": 10.13, "_ent": "15", "_mun": "035", "_loc": "0028"}, "geometry": {"type": "Polygon", "coordinates": [[[-99.28851, 19.82488], [-99.2883, 19.82502], [-99.28818, 19.82484], [-99.28838, 19.82471], [-99.28835, 19.82484], [-99.28851, 19.82488]]]}}, {"id": "1092187", "type": "Feature", "properties": {"id": "1092187", "CVEGEO": "1503500280271028", "POBTOT": 19.0, "score_nse": 0.0, "NSE": "ND", "VIVTOT": 12.0, "GRAPROES": 8.82, "_ent": "15", "_mun": "035", "_loc": "0028"}, "geometry": {"type": "Polygon", "coordinates": [[[-99.28962, 19.82383], [-99.2894, 19.82397], [-99.28928, 19.82379], [-99.28949, 19.82366], [-99.28945, 19.82379], [-99.28962, 19.82383]]]}}, {"id": "1092188", "type": "Feature", "properties": {"id": "1092188", "CVEGEO": "1503500280271027", "POBTOT": 25.0, "score_nse": 0.0, "NSE": "ND", "VIVTOT": 12.0, "GRAPROES": 10.87, "_ent": "15", "_mun": "035", "_loc": "0028"}, "geometry": {"type": "Polygon", "coordinates": [[[-99.28879, 19.82464], [-99.28858, 19.82478], [-99.28846, 19.82461], [-99.28866, 19.82447], [-99.28863, 19.8246], [-99.28879, 19.82464]]]}}, {"id": "1092189", "type": "Feature", "properties": {"id": "1092189", "CVEGEO": "1503500280271026", "POBTOT": 32.0, "score_nse": 60.672, "NSE": "C", "VIVTOT": 12.0, "GRAPROES": 11.0, "_ent": "15", "_mun": "035", "_loc": "0028"}, "geometry": {"type": "Polygon", "coordinates": [[[-99.28396, 19.82528], [-99.28375, 19.82542], [-99.28362, 19.82524], [-99.28383, 19.82511], [-99.2838, 19.82524], [-99.28396, 19.82528]]]}}, {"id": "1092190", "type": "Feature", "properties": {"id": "1092190", "CVEGEO": "1503500280271025", "POBTOT": 0.0, "score_nse": 0.0, "NSE": "ND", "VIVTOT": 0.0, "GRAPROES": 0.0, "_ent": "15", "_mun": "035", "_loc": "0028"}, "geometry": {"type": "Polygon", "coordinates": [[[-99.2834, 19.82688], [-99.28231, 19.82661], [-99.28209, 19.82618], [-99.28247, 19.82604], [-99.28352, 19.82611], [-99.28364, 19.82665], [-99.2834, 19.82688]]]}}, {"id": "1092191", "type": "Feature", "properties": {"id": "1092191", "CVEGEO": "1503500280271019", "POBTOT": 0.0, "score_nse": 0.0, "NSE": "ND", "VIVTOT": 0.0, "GRAPROES": 0.0, "_ent": "15", "_mun": "035", "_loc": "0028"}, "geometry": {"type": "Polygon", "coordinates": [[[-99.28596, 19.80807], [-99.28665, 19.80847], [-99.2862, 19.80918], [-99.28549, 19.80875], [-99.28596, 19.80807]]]}}, {"id": "1092192", "type": "Feature", "properties": {"id": "1092192", "CVEGEO": "1503500280271018", "POBTOT": 0.0, "score_nse": 0.0, "NSE": "ND", "VIVTOT": 0.0, "GRAPROES": 0.0, "_ent": "15", "_mun": "035", "_loc": "0028"}, "geometry": {"type": "Polygon", "coordinates": [[[-99.28361, 19.8086], [-99.28432, 19.809], [-99.28389, 19.80968], [-99.28317, 19.80925], [-99.28361, 19.8086]]]}}, {"id": "1092193", "type": "Feature", "properties": {"id": "1092193", "CVEGEO": "1503500280271017", "POBTOT": 24.0, "score_nse": 57.1233, "NSE": "C", "VIVTOT": 12.0, "GRAPROES": 12.07, "_ent": "15", "_mun": "035", "_loc": "0028"}, "geometry": {"type": "Polygon", "coordinates": [[[-99.28891, 19.82639], [-99.2887, 19.82653], [-99.28858, 19.82636], [-99.28878, 19.82622], [-99.28875, 19.82635], [-99.28891, 19.82639]]]}}, {"id": "1092194", "type": "Feature", "properties": {"id": "1092194", "CVEGEO": "1503500280271016", "POBTOT": 0.0, "score_nse": 0.0, "NSE": "ND", "VIVTOT": 0.0, "GRAPROES": 0.0, "_ent": "15", "_mun": "035", "_loc": "0028"}, "geometry": {"type": "Polygon", "coordinates": [[[-99.28986, 19.82428], [-99.29011, 19.82442], [-99.29013, 19.82479], [-99.28915, 19.82556], [-99.28852, 19.82542], [-99.28854, 19.82527], [-99.28986, 19.82428]]]}}, {"id": "1092195", "type": "Feature", "properties": {"id": "1092195", "CVEGEO": "1503500280271013", "POBTOT": 35.0, "score_nse": 0.0, "NSE": "ND", "VIVTOT": 12.0, "GRAPROES": 11.2, "_ent": "15", "_mun": "035", "_loc": "0028"}, "geometry": {"type": "Polygon", "coordinates": [[[-99.29093, 19.82364], [-99.29072, 19.82378], [-99.2906, 19.8236], [-99.2908, 19.82347], [-99.29077, 19.8236], [-99.29093, 19.82364]]]}}, {"id": "1092196", "type": "Feature", "properties": {"id": "1092196", "CVEGEO": "1503500280271011", "POBTOT": 0.0, "score_nse": 0.0, "NSE": "ND", "VIVTOT": 0.0, "GRAPROES": 0.0, "_ent": "15", "_mun": "035", "_loc": "0028"}, "geometry": {"type": "Polygon", "coordinates": [[[-99.28498, 19.81124], [-99.28584, 19.81103], [-99.28672, 19.81151], [-99.28693, 19.81239], [-99.28644, 19.81313], [-99.28552, 19.81333], [-99.28472, 19.81285], [-99.2845, 19.81196], [-99.28498, 19.81124]]]}}, {"id": "1092197", "type": "Feature", "properties": {"id": "1092197", "CVEGEO": "1503500280271010", "POBTOT": 0.0, "score_nse": 10.0, "NSE": "E", "VIVTOT": 1.0, "GRAPROES": 0.0, "_ent": "15", "_mun": "035", "_loc": "0028"}, "geometry": {"type": "Polygon", "coordinates": [[[-99.28433, 19.8146], [-99.28239, 19.80925], [-99.28309, 19.80936], [-99.28384, 19.8098], [-99.28407, 19.81068], [-99.28484, 19.8112], [-99.28441, 19.81196], [-99.28464, 19.8129], [-99.28549, 19.81342], [-99.28596, 19.81338], [-99.28626, 19.81488], [-99.28433, 19.8146]]]}}, {"id": "1092198", "type": "Feature", "properties": {"id": "1092198", "CVEGEO": "1503500280271009", "POBTOT": 20.0, "score_nse": 57.888, "NSE": "C", "VIVTOT": 12.0, "GRAPROES": 11.86, "_ent": "15", "_mun": "035", "_loc": "0028"}, "geometry": {"type": "Polygon", "coordinates": [[[-99.28574, 19.826], [-99.28552, 19.82614], [-99.2854, 19.82597], [-99.28561, 19.82583], [-99.28557, 19.82596], [-99.28574, 19.826]]]}}, {"id": "1092200", "type": "Feature", "properties": {"id": "1092200", "CVEGEO": "1503500280271004", "POBTOT": 0.0, "score_nse": 0.0, "NSE": "ND", "VIVTOT": 0.0, "GRAPROES": 0.0, "_ent": "15", "_mun": "035", "_loc": "0028"}, "geometry": {"type": "Polygon", "coordinates": [[[-99.2877, 19.82177], [-99.2888, 19.82188], [-99.28684, 19.8234], [-99.2869, 19.82236], [-99.2877, 19.82177]]]}}, {"id": "1092201", "type": "Feature", "properties": {"id": "1092201", "CVEGEO": "1503500280271003", "POBTOT": 0.0, "score_nse": 10.0, "NSE": "E", "VIVTOT": 1.0, "GRAPROES": 0.0, "_ent": "15", "_mun": "035", "_loc": "0028"}, "geometry": {"type": "Polygon", "coordinates": [[[-99.28565, 19.81964], [-99.28648, 19.81938], [-99.28727, 19.81883], [-99.28735, 19.81926], [-99.28795, 19.82015], [-99.28768, 19.82039], [-99.28799, 19.82019], [-99.28849, 19.82078], [-99.28963, 19.82164], [-99.28888, 19.82177], [-99.28763, 19.82169], [-99.28769, 19.82098], [-99.28717, 19.82037], [-99.28622, 19.82026], [-99.28595, 19.82045], [-99.28567, 19.82015], [-99.28565, 19.81964]]]}}, {"id": "1092202", "type": "Feature", "properties": {"id": "1092202", "CVEGEO": "1503500280271002", "POBTOT": 0.0, "score_nse": 10.0, "NSE": "E", "VIVTOT": 1.0, "GRAPROES": 0.0, "_ent": "15", "_mun": "035", "_loc": "0028"}, "geometry": {"type": "Polygon", "coordinates": [[[-99.28517, 19.82255], [-99.28409, 19.82125], [-99.2838, 19.82013], [-99.28463, 19.82019], [-99.28471, 19.82097], [-99.28463, 19.82005], [-99.28388, 19.82003], [-99.28471, 19.81963], [-99.28552, 19.81958], [-99.28556, 19.82017], [-99.28583, 19.82051], [-99.28558, 19.82075], [-99.28554, 19.82167], [-99.28606, 19.82226], [-99.28682, 19.8223], [-99.28672, 19.82354], [-99.28524, 19.82469], [-99.28517, 19.82255]]]}}, {"id": "1092203", "type": "Feature", "properties": {"id": "1092203", "CVEGEO": "1503500280271001", "POBTOT": 0.0, "score_nse": 0.0, "NSE": "ND", "VIVTOT": 0.0, "GRAPROES": 0.0, "_ent": "15", "_mun": "035", "_loc": "0028"}, "geometry": {"type": "Polygon", "coordinates": [[[-99.28569, 19.82084], [-99.2863, 19.82037], [-99.28705, 19.82043], [-99.28756, 19.82099], [-99.2875, 19.82171], [-99.28692, 19.8222], [-99.28614, 19.82215], [-99.28562, 19.82158], [-99.28569, 19.82084]]]}}, {"id": "1092210", "type": "Feature", "properties": {"id": "1092210", "CVEGEO": "1503500280271008", "POBTOT": 0.0, "score_nse": 0.0, "NSE": "ND", "VIVTOT": 0.0, "GRAPROES": 0.0, "_ent": "15", "_mun": "035", "_loc": "0028"}, "geometry": {"type": "Polygon", "coordinates": [[[-99.28912, 19.82207], [-99.28902, 19.82215], [-99.28929, 19.82228], [-99.28878, 19.82268], [-99.28869, 19.82241], [-99.28859, 19.82248], [-99.28844, 19.82231], [-99.28896, 19.82189], [-99.28912, 19.82207]]]}}]}