{"type": "FeatureCollection", "features": [{"id": "462387", "type": "Feature", "properties": {"id": "462387", "CVEGEO": "0801914464444003", "POBTOT": 0.0, "score_nse": 0.0, "NSE": null, "VIVTOT": 0.0, "GRAPROES": 0.0, "_ent": "08", "_mun": "019", "_loc": "1446"}, "geometry": {"type": "Polygon", "coordinates": [[[-106.16717, 28.81315], [-106.16677, 28.81336], [-106.16636, 28.81278], [-106.16677, 28.81256], [-106.16717, 28.81315]]]}}, {"id": "463957", "type": "Feature", "properties": {"id": "463957", "CVEGEO": "0801914464444001", "POBTOT": 0.0, "score_nse": 0.0, "NSE": null, "VIVTOT": 0.0, "GRAPROES": 0.0, "_ent": "08", "_mun": "019", "_loc": "1446"}, "geometry": {"type": "Polygon", "coordinates": [[[-106.17148, 28.81405], [-106.17112, 28.81425], [-106.17063, 28.81355], [-106.171, 28.81335], [-106.17148, 28.81405]]]}}, {"id": "463958", "type": "Feature", "properties": {"id": "463958", "CVEGEO": "0801914464444002", "POBTOT": 0.0, "score_nse": 0.0, "NSE": null, "VIVTOT": 0.0, "GRAPROES": 0.0, "_ent": "08", "_mun": "019", "_loc": "1446"}, "geometry": {"type": "Polygon", "coordinates": [[[-106.16909, 28.81329], [-106.16961, 28.81402], [-106.16834, 28.81468], [-106.16769, 28.81376], [-106.16909, 28.81329]]]}}, {"id": "463959", "type": "Feature", "properties": {"id": "463959", "CVEGEO": "0801914464444004", "POBTOT": 0.0, "score_nse": 0.0, "NSE": null, "VIVTOT": 0.0, "GRAPROES": 0.0, "_ent": "08", "_mun": "019", "_loc": "1446"}, "geometry": {"type": "Polygon", "coordinates": [[[-106.16717, 28.81396], [-106.16755, 28.81377], [-106.16821, 28.81473], [-106.16782, 28.81494], [-106.16717, 28.81396]]]}}, {"id": "463960", "type": "Feature", "properties": {"id": "463960", "CVEGEO": "0801914464444005", "POBTOT": 0.0, "score_nse": 0.0, "NSE": null, "VIVTOT": 0.0, "GRAPROES": 0.0, "_ent": "08", "_mun": "019", "_loc": "1446"}, "geometry": {"type": "Polygon", "coordinates": [[[-106.17096, 28.81326], [-106.16966, 28.81396], [-106.16915, 28.81321], [-106.17046, 28.81255], [-106.17096, 28.81326]]]}}, {"id": "463961", "type": "Feature", "properties": {"id": "463961", "CVEGEO": "0801914464444006", "POBTOT": 0.0, "score_nse": 0.0, "NSE": null, "VIVTOT": 0.0, "GRAPROES": 0.0, "_ent": "08", "_mun": "019", "_loc": "1446"}, "geometry": {"type": "Polygon", "coordinates": [[[-106.17181, 28.81176], [-106.17049, 28.81245], [-106.16995, 28.8117], [-106.1713, 28.81102], [-106.17181, 28.81176]]]}}, {"id": "463962", "type": "Feature", "properties": {"id": "463962", "CVEGEO": "0801914464444007", "POBTOT": 0.0, "score_nse": 0.0, "NSE": null, "VIVTOT": 0.0, "GRAPROES": 0.0, "_ent": "08", "_mun": "019", "_loc": "1446"}, "geometry": {"type": "Polygon", "coordinates": [[[-106.1748, 28.80981], [-106.17444, 28.81002], [-106.17407, 28.8095], [-106.17441, 28.80933], [-106.1748, 28.80981]]]}}, {"id": "463963", "type": "Feature", "properties": {"id": "463963", "CVEGEO": "0801914464444008", "POBTOT": 0.0, "score_nse": 0.0, "NSE": null, "VIVTOT": 0.0, "GRAPROES": 0.0, "_ent": "08", "_mun": "019", "_loc": "1446"}, "geometry": {"type": "Polygon", "coordinates": [[[-106.17346, 28.81053], [-106.17306, 28.81075], [-106.17273, 28.81027], [-106.17314, 28.81006], [-106.17346, 28.81053]]]}}, {"id": "463964", "type": "Feature", "properties": {"id": "463964", "CVEGEO": "0801914464444009", "POBTOT": 0.0, "score_nse": 0.0, "NSE": null, "VIVTOT": 0.0, "GRAPROES": 0.0, "_ent": "08", "_mun": "019", "_loc": "1446"}, "geometry": {"type": "Polygon", "coordinates": [[[-106.17308, 28.81001], [-106.17269, 28.81021], [-106.17229, 28.80963], [-106.17268, 28.80943], [-106.17308, 28.81001]]]}}, {"id": "463965", "type": "Feature", "properties": {"id": "463965", "CVEGEO": "0801914464444011", "POBTOT": 0.0, "score_nse": 0.0, "NSE": null, "VIVTOT": 0.0, "GRAPROES": 0.0, "_ent": "08", "_mun": "019", "_loc": "1446"}, "geometry": {"type": "Polygon", "coordinates": [[[-106.17416, 28.81157], [-106.17379, 28.81177], [-106.17326, 28.81104], [-106.17366, 28.81084], [-106.17416, 28.81157]]]}}, {"id": "463966", "type": "Feature", "properties": {"id": "463966", "CVEGEO": "0801914464444012", "POBTOT": 0.0, "score_nse": 0.0, "NSE": null, "VIVTOT": 0.0, "GRAPROES": 0.0, "_ent": "08", "_mun": "019", "_loc": "1446"}, "geometry": {"type": "Polygon", "coordinates": [[[-106.17325, 28.81206], [-106.17287, 28.81227], [-106.17237, 28.81154], [-106.17276, 28.81134], [-106.17325, 28.81206]]]}}, {"id": "463967", "type": "Feature", "properties": {"id": "463967", "CVEGEO": "0801914464444013", "POBTOT": 0.0, "score_nse": 0.0, "NSE": null, "VIVTOT": 0.0, "GRAPROES": 0.0, "_ent": "08", "_mun": "019", "_loc": "1446"}, "geometry": {"type": "Polygon", "coordinates": [[[-106.17189, 28.81179], [-106.17227, 28.81157], [-106.17279, 28.81231], [-106.17241, 28.81252], [-106.17189, 28.81179]]]}}, {"id": "463968", "type": "Feature", "properties": {"id": "463968", "CVEGEO": "0801914464444014", "POBTOT": 0.0, "score_nse": 0.0, "NSE": null, "VIVTOT": 0.0, "GRAPROES": 0.0, "_ent": "08", "_mun": "019", "_loc": "1446"}, "geometry": {"type": "Polygon", "coordinates": [[[-106.17218, 28.81048], [-106.17176, 28.8107], [-106.17136, 28.81011], [-106.17173, 28.8099], [-106.17218, 28.81048]]]}}, {"id": "463969", "type": "Feature", "properties": {"id": "463969", "CVEGEO": "0801914464444015", "POBTOT": 0.0, "score_nse": 0.0, "NSE": null, "VIVTOT": 0.0, "GRAPROES": 0.0, "_ent": "08", "_mun": "019", "_loc": "1446"}, "geometry": {"type": "Polygon", "coordinates": [[[-106.17092, 28.81034], [-106.17131, 28.81014], [-106.17171, 28.81072], [-106.17131, 28.81092], [-106.17092, 28.81034]]]}}, {"id": "463970", "type": "Feature", "properties": {"id": "463970", "CVEGEO": "0801914464444017", "POBTOT": 0.0, "score_nse": 0.0, "NSE": null, "VIVTOT": 0.0, "GRAPROES": 0.0, "_ent": "08", "_mun": "019", "_loc": "1446"}, "geometry": {"type": "Polygon", "coordinates": [[[-106.17593, 28.80963], [-106.17485, 28.81009], [-106.17484, 28.80976], [-106.17455, 28.80927], [-106.17575, 28.80872], [-106.17593, 28.80963]]]}}, {"id": "463971", "type": "Feature", "properties": {"id": "463971", "CVEGEO": "0801914464444019", "POBTOT": 0.0, "score_nse": 0.0, "NSE": null, "VIVTOT": 0.0, "GRAPROES": 0.0, "_ent": "08", "_mun": "019", "_loc": "1446"}, "geometry": {"type": "Polygon", "coordinates": [[[-106.17573, 28.80864], [-106.1745, 28.80923], [-106.17407, 28.80865], [-106.17494, 28.80818], [-106.17497, 28.80796], [-106.17557, 28.80772], [-106.17573, 28.80864]]]}}, {"id": "463972", "type": "Feature", "properties": {"id": "463972", "CVEGEO": "0801914464444020", "POBTOT": 0.0, "score_nse": 0.0, "NSE": null, "VIVTOT": 0.0, "GRAPROES": 0.0, "_ent": "08", "_mun": "019", "_loc": "1446"}, "geometry": {"type": "Polygon", "coordinates": [[[-106.17442, 28.80926], [-106.17404, 28.80944], [-106.17366, 28.80887], [-106.17402, 28.80869], [-106.17442, 28.80926]]]}}, {"id": "463973", "type": "Feature", "properties": {"id": "463973", "CVEGEO": "0801914464444021", "POBTOT": 0.0, "score_nse": 0.0, "NSE": null, "VIVTOT": 0.0, "GRAPROES": 0.0, "_ent": "08", "_mun": "019", "_loc": "1446"}, "geometry": {"type": "Polygon", "coordinates": [[[-106.17361, 28.80973], [-106.17399, 28.80954], [-106.17433, 28.81008], [-106.17394, 28.81027], [-106.17361, 28.80973]]]}}, {"id": "463974", "type": "Feature", "properties": {"id": "463974", "CVEGEO": "0801914464444022", "POBTOT": 0.0, "score_nse": 0.0, "NSE": null, "VIVTOT": 0.0, "GRAPROES": 0.0, "_ent": "08", "_mun": "019", "_loc": "1446"}, "geometry": {"type": "Polygon", "coordinates": [[[-106.17321, 28.80915], [-106.1736, 28.80893], [-106.17397, 28.80949], [-106.17358, 28.80969], [-106.17321, 28.80915]]]}}, {"id": "463975", "type": "Feature", "properties": {"id": "463975", "CVEGEO": "0801914464444023", "POBTOT": 0.0, "score_nse": 0.0, "NSE": null, "VIVTOT": 0.0, "GRAPROES": 0.0, "_ent": "08", "_mun": "019", "_loc": "1446"}, "geometry": {"type": "Polygon", "coordinates": [[[-106.1739, 28.8103], [-106.17352, 28.8105], [-106.1732, 28.81002], [-106.17357, 28.80982], [-106.1739, 28.8103]]]}}, {"id": "463976", "type": "Feature", "properties": {"id": "463976", "CVEGEO": "0801914464444024", "POBTOT": 0.0, "score_nse": 0.0, "NSE": null, "VIVTOT": 0.0, "GRAPROES": 0.0, "_ent": "08", "_mun": "019", "_loc": "1446"}, "geometry": {"type": "Polygon", "coordinates": [[[-106.17478, 28.81131], [-106.17467, 28.81236], [-106.17336, 28.81301], [-106.1729, 28.81233], [-106.1733, 28.81212], [-106.17353, 28.8123], [-106.17337, 28.81207], [-106.17478, 28.81131]]]}}, {"id": "463977", "type": "Feature", "properties": {"id": "463977", "CVEGEO": "0801914464444025", "POBTOT": 0.0, "score_nse": 0.0, "NSE": null, "VIVTOT": 0.0, "GRAPROES": 0.0, "_ent": "08", "_mun": "019", "_loc": "1446"}, "geometry": {"type": "Polygon", "coordinates": [[[-106.17297, 28.81439], [-106.17258, 28.81457], [-106.17205, 28.81383], [-106.17248, 28.81363], [-106.17297, 28.81439]]]}}, {"id": "463978", "type": "Feature", "properties": {"id": "463978", "CVEGEO": "0801914464444026", "POBTOT": 0.0, "score_nse": 0.0, "NSE": null, "VIVTOT": 0.0, "GRAPROES": 0.0, "_ent": "08", "_mun": "019", "_loc": "1446"}, "geometry": {"type": "Polygon", "coordinates": [[[-106.17229, 28.81051], [-106.17268, 28.81031], [-106.17299, 28.81077], [-106.17261, 28.81098], [-106.17229, 28.81051]]]}}, {"id": "463979", "type": "Feature", "properties": {"id": "463979", "CVEGEO": "0801914464444027", "POBTOT": 0.0, "score_nse": 0.0, "NSE": null, "VIVTOT": 0.0, "GRAPROES": 0.0, "_ent": "08", "_mun": "019", "_loc": "1446"}, "geometry": {"type": "Polygon", "coordinates": [[[-106.17186, 28.80987], [-106.17223, 28.80967], [-106.17263, 28.81025], [-106.17227, 28.81044], [-106.17186, 28.80987]]]}}, {"id": "463980", "type": "Feature", "properties": {"id": "463980", "CVEGEO": "0801914464444028", "POBTOT": 0.0, "score_nse": 0.0, "NSE": null, "VIVTOT": 0.0, "GRAPROES": 0.0, "_ent": "08", "_mun": "019", "_loc": "1446"}, "geometry": {"type": "Polygon", "coordinates": [[[-106.1722, 28.81127], [-106.17257, 28.81109], [-106.1727, 28.81127], [-106.17232, 28.81146], [-106.1722, 28.81127]]]}}, {"id": "463981", "type": "Feature", "properties": {"id": "463981", "CVEGEO": "0801914464444029", "POBTOT": 0.0, "score_nse": 0.0, "NSE": null, "VIVTOT": 0.0, "GRAPROES": 0.0, "_ent": "08", "_mun": "019", "_loc": "1446"}, "geometry": {"type": "Polygon", "coordinates": [[[-106.17182, 28.81073], [-106.17222, 28.81054], [-106.17254, 28.81104], [-106.17217, 28.81123], [-106.17182, 28.81073]]]}}, {"id": "463982", "type": "Feature", "properties": {"id": "463982", "CVEGEO": "0801914464444030", "POBTOT": 0.0, "score_nse": 0.0, "NSE": null, "VIVTOT": 0.0, "GRAPROES": 0.0, "_ent": "08", "_mun": "019", "_loc": "1446"}, "geometry": {"type": "Polygon", "coordinates": [[[-106.17251, 28.81462], [-106.17214, 28.81483], [-106.1716, 28.81408], [-106.17199, 28.81387], [-106.17251, 28.81462]]]}}, {"id": "463983", "type": "Feature", "properties": {"id": "463983", "CVEGEO": "0801914464444031", "POBTOT": 0.0, "score_nse": 0.0, "NSE": null, "VIVTOT": 0.0, "GRAPROES": 0.0, "_ent": "08", "_mun": "019", "_loc": "1446"}, "geometry": {"type": "Polygon", "coordinates": [[[-106.1724, 28.81357], [-106.17201, 28.81377], [-106.17153, 28.81306], [-106.17193, 28.81285], [-106.1724, 28.81357]]]}}, {"id": "463984", "type": "Feature", "properties": {"id": "463984", "CVEGEO": "0801914464444032", "POBTOT": 0.0, "score_nse": 0.0, "NSE": null, "VIVTOT": 0.0, "GRAPROES": 0.0, "_ent": "08", "_mun": "019", "_loc": "1446"}, "geometry": {"type": "Polygon", "coordinates": [[[-106.17389, 28.81392], [-106.17351, 28.81411], [-106.17298, 28.81333], [-106.17336, 28.81313], [-106.17389, 28.81392]]]}}, {"id": "463985", "type": "Feature", "properties": {"id": "463985", "CVEGEO": "0801914464444033", "POBTOT": 0.0, "score_nse": 0.0, "NSE": null, "VIVTOT": 0.0, "GRAPROES": 0.0, "_ent": "08", "_mun": "019", "_loc": "1446"}, "geometry": {"type": "Polygon", "coordinates": [[[-106.17236, 28.81532], [-106.17154, 28.81574], [-106.17067, 28.81456], [-106.17154, 28.81411], [-106.17236, 28.81532]]]}}, {"id": "463986", "type": "Feature", "properties": {"id": "463986", "CVEGEO": "0801914464444034", "POBTOT": 0.0, "score_nse": 0.0, "NSE": null, "VIVTOT": 0.0, "GRAPROES": 0.0, "_ent": "08", "_mun": "019", "_loc": "1446"}, "geometry": {"type": "Polygon", "coordinates": [[[-106.17345, 28.81413], [-106.17302, 28.81436], [-106.17251, 28.81359], [-106.17294, 28.81337], [-106.17345, 28.81413]]]}}, {"id": "463987", "type": "Feature", "properties": {"id": "463987", "CVEGEO": "0801914464444035", "POBTOT": 0.0, "score_nse": 0.0, "NSE": null, "VIVTOT": 0.0, "GRAPROES": 0.0, "_ent": "08", "_mun": "019", "_loc": "1446"}, "geometry": {"type": "Polygon", "coordinates": [[[-106.17245, 28.81258], [-106.17285, 28.81236], [-106.1733, 28.81309], [-106.17293, 28.81326], [-106.17245, 28.81258]]]}}, {"id": "463988", "type": "Feature", "properties": {"id": "463988", "CVEGEO": "0801914464444036", "POBTOT": 0.0, "score_nse": 0.0, "NSE": null, "VIVTOT": 0.0, "GRAPROES": 0.0, "_ent": "08", "_mun": "019", "_loc": "1446"}, "geometry": {"type": "Polygon", "coordinates": [[[-106.17248, 28.81351], [-106.17202, 28.81285], [-106.1724, 28.81261], [-106.17286, 28.81331], [-106.17248, 28.81351]]]}}, {"id": "463989", "type": "Feature", "properties": {"id": "463989", "CVEGEO": "0801914464444037", "POBTOT": 0.0, "score_nse": 0.0, "NSE": null, "VIVTOT": 0.0, "GRAPROES": 0.0, "_ent": "08", "_mun": "019", "_loc": "1446"}, "geometry": {"type": "Polygon", "coordinates": [[[-106.17106, 28.81331], [-106.17145, 28.81309], [-106.17196, 28.8138], [-106.17155, 28.81401], [-106.17106, 28.81331]]]}}, {"id": "463990", "type": "Feature", "properties": {"id": "463990", "CVEGEO": "0801914464444040", "POBTOT": 0.0, "score_nse": 0.0, "NSE": null, "VIVTOT": 0.0, "GRAPROES": 0.0, "_ent": "08", "_mun": "019", "_loc": "1446"}, "geometry": {"type": "Polygon", "coordinates": [[[-106.17233, 28.81255], [-106.17195, 28.81275], [-106.17145, 28.81202], [-106.17182, 28.81182], [-106.17233, 28.81255]]]}}, {"id": "463991", "type": "Feature", "properties": {"id": "463991", "CVEGEO": "0801914464444041", "POBTOT": 0.0, "score_nse": 0.0, "NSE": null, "VIVTOT": 0.0, "GRAPROES": 0.0, "_ent": "08", "_mun": "019", "_loc": "1446"}, "geometry": {"type": "Polygon", "coordinates": [[[-106.17099, 28.81225], [-106.17136, 28.81205], [-106.17187, 28.8128], [-106.1715, 28.81299], [-106.17099, 28.81225]]]}}, {"id": "463992", "type": "Feature", "properties": {"id": "463992", "CVEGEO": "0801914464444042", "POBTOT": 0.0, "score_nse": 0.0, "NSE": null, "VIVTOT": 0.0, "GRAPROES": 0.0, "_ent": "08", "_mun": "019", "_loc": "1446"}, "geometry": {"type": "Polygon", "coordinates": [[[-106.17051, 28.8125], [-106.1709, 28.8123], [-106.17139, 28.81301], [-106.17102, 28.81323], [-106.17051, 28.8125]]]}}, {"id": "463993", "type": "Feature", "properties": {"id": "463993", "CVEGEO": "0801914464444043", "POBTOT": 0.0, "score_nse": 0.0, "NSE": null, "VIVTOT": 0.0, "GRAPROES": 0.0, "_ent": "08", "_mun": "019", "_loc": "1446"}, "geometry": {"type": "Polygon", "coordinates": [[[-106.17046, 28.81056], [-106.17085, 28.81036], [-106.17125, 28.81096], [-106.17086, 28.81117], [-106.17046, 28.81056]]]}}, {"id": "463994", "type": "Feature", "properties": {"id": "463994", "CVEGEO": "0801914464444044", "POBTOT": 0.0, "score_nse": 0.0, "NSE": null, "VIVTOT": 0.0, "GRAPROES": 0.0, "_ent": "08", "_mun": "019", "_loc": "1446"}, "geometry": {"type": "Polygon", "coordinates": [[[-106.17079, 28.8112], [-106.17041, 28.81141], [-106.16999, 28.81082], [-106.17041, 28.8106], [-106.17079, 28.8112]]]}}, {"id": "463995", "type": "Feature", "properties": {"id": "463995", "CVEGEO": "0801914464444045", "POBTOT": 0.0, "score_nse": 0.0, "NSE": null, "VIVTOT": 0.0, "GRAPROES": 0.0, "_ent": "08", "_mun": "019", "_loc": "1446"}, "geometry": {"type": "Polygon", "coordinates": [[[-106.17171, 28.81152], [-106.17213, 28.81131], [-106.17225, 28.8115], [-106.17183, 28.81171], [-106.17171, 28.81152]]]}}, {"id": "463996", "type": "Feature", "properties": {"id": "463996", "CVEGEO": "0801914464444046", "POBTOT": 0.0, "score_nse": 0.0, "NSE": null, "VIVTOT": 0.0, "GRAPROES": 0.0, "_ent": "08", "_mun": "019", "_loc": "1446"}, "geometry": {"type": "Polygon", "coordinates": [[[-106.17135, 28.81097], [-106.17176, 28.81077], [-106.17208, 28.81127], [-106.17169, 28.81148], [-106.17135, 28.81097]]]}}, {"id": "463997", "type": "Feature", "properties": {"id": "463997", "CVEGEO": "0801914464444049", "POBTOT": 0.0, "score_nse": 0.0, "NSE": null, "VIVTOT": 0.0, "GRAPROES": 0.0, "_ent": "08", "_mun": "019", "_loc": "1446"}, "geometry": {"type": "Polygon", "coordinates": [[[-106.17044, 28.81249], [-106.16913, 28.81316], [-106.16861, 28.81244], [-106.1699, 28.81173], [-106.17044, 28.81249]]]}}, {"id": "463998", "type": "Feature", "properties": {"id": "463998", "CVEGEO": "0801914464444051", "POBTOT": 0.0, "score_nse": 0.0, "NSE": null, "VIVTOT": 0.0, "GRAPROES": 0.0, "_ent": "08", "_mun": "019", "_loc": "1446"}, "geometry": {"type": "Polygon", "coordinates": [[[-106.17013, 28.81478], [-106.16975, 28.81497], [-106.16926, 28.81427], [-106.16964, 28.81406], [-106.17013, 28.81478]]]}}, {"id": "463999", "type": "Feature", "properties": {"id": "463999", "CVEGEO": "0801914464444052", "POBTOT": 0.0, "score_nse": 0.0, "NSE": null, "VIVTOT": 0.0, "GRAPROES": 0.0, "_ent": "08", "_mun": "019", "_loc": "1446"}, "geometry": {"type": "Polygon", "coordinates": [[[-106.16966, 28.81503], [-106.16885, 28.81546], [-106.16834, 28.81475], [-106.16918, 28.81432], [-106.16966, 28.81503]]]}}, {"id": "464000", "type": "Feature", "properties": {"id": "464000", "CVEGEO": "0801914464444053", "POBTOT": 0.0, "score_nse": 0.0, "NSE": null, "VIVTOT": 0.0, "GRAPROES": 0.0, "_ent": "08", "_mun": "019", "_loc": "1446"}, "geometry": {"type": "Polygon", "coordinates": [[[-106.1689, 28.81553], [-106.16928, 28.81534], [-106.17006, 28.81653], [-106.17, 28.81664], [-106.1696, 28.81658], [-106.1689, 28.81553]]]}}, {"id": "464001", "type": "Feature", "properties": {"id": "464001", "CVEGEO": "0801914464444054", "POBTOT": 0.0, "score_nse": 0.0, "NSE": null, "VIVTOT": 0.0, "GRAPROES": 0.0, "_ent": "08", "_mun": "019", "_loc": "1446"}, "geometry": {"type": "Polygon", "coordinates": [[[-106.16955, 28.81669], [-106.16899, 28.81669], [-106.16841, 28.8158], [-106.16881, 28.81561], [-106.16955, 28.81669]]]}}, {"id": "464002", "type": "Feature", "properties": {"id": "464002", "CVEGEO": "0801914464444055", "POBTOT": 0.0, "score_nse": 0.0, "NSE": null, "VIVTOT": 0.0, "GRAPROES": 0.0, "_ent": "08", "_mun": "019", "_loc": "1446"}, "geometry": {"type": "Polygon", "coordinates": [[[-106.16792, 28.81501], [-106.16829, 28.81481], [-106.16874, 28.81552], [-106.1684, 28.81569], [-106.16792, 28.81501]]]}}, {"id": "464003", "type": "Feature", "properties": {"id": "464003", "CVEGEO": "0801914464444057", "POBTOT": 0.0, "score_nse": 0.0, "NSE": null, "VIVTOT": 0.0, "GRAPROES": 0.0, "_ent": "08", "_mun": "019", "_loc": "1446"}, "geometry": {"type": "Polygon", "coordinates": [[[-106.16849, 28.81241], [-106.16815, 28.8126], [-106.16771, 28.81205], [-106.16815, 28.8118], [-106.16849, 28.81241]]]}}, {"id": "464004", "type": "Feature", "properties": {"id": "464004", "CVEGEO": "0801914464444058", "POBTOT": 0.0, "score_nse": 0.0, "NSE": null, "VIVTOT": 0.0, "GRAPROES": 0.0, "_ent": "08", "_mun": "019", "_loc": "1446"}, "geometry": {"type": "Polygon", "coordinates": [[[-106.1668, 28.81343], [-106.16718, 28.81323], [-106.16751, 28.81371], [-106.16712, 28.8139], [-106.1668, 28.81343]]]}}, {"id": "464269", "type": "Feature", "properties": {"id": "464269", "CVEGEO": "0801914464444018", "POBTOT": 0.0, "score_nse": 0.0, "NSE": null, "VIVTOT": 0.0, "GRAPROES": 0.0, "_ent": "08", "_mun": "019", "_loc": "1446"}, "geometry": {"type": "Polygon", "coordinates": [[[-106.17419, 28.81434], [-106.17244, 28.81526], [-106.17217, 28.81487], [-106.17257, 28.81466], [-106.17277, 28.81488], [-106.17261, 28.81464], [-106.1735, 28.81417], [-106.17366, 28.81442], [-106.17355, 28.81415], [-106.17389, 28.81399], [-106.17419, 28.81434]]]}}, {"id": "464284", "type": "Feature", "properties": {"id": "464284", "CVEGEO": "0801914464444039", "POBTOT": 0.0, "score_nse": 0.0, "NSE": null, "VIVTOT": 0.0, "GRAPROES": 0.0, "_ent": "08", "_mun": "019", "_loc": "1446"}, "geometry": {"type": "Polygon", "coordinates": [[[-106.16802, 28.81353], [-106.16762, 28.81367], [-106.16728, 28.81316], [-106.16765, 28.81296], [-106.16802, 28.81353]]]}}, {"id": "464472", "type": "Feature", "properties": {"id": "464472", "CVEGEO": "0801914464444060", "POBTOT": 0.0, "score_nse": 0.0, "NSE": null, "VIVTOT": 0.0, "GRAPROES": 0.0, "_ent": "08", "_mun": "019", "_loc": "1446"}, "geometry": {"type": "Polygon", "coordinates": [[[-106.1707, 28.81563], [-106.16988, 28.81607], [-106.16934, 28.81529], [-106.17016, 28.81484], [-106.1707, 28.81563]]]}}, {"id": "464916", "type": "Feature", "properties": {"id": "464916", "CVEGEO": "0801914464444038", "POBTOT": 0.0, "score_nse": 0.0, "NSE": null, "VIVTOT": 0.0, "GRAPROES": 0.0, "_ent": "08", "_mun": "019", "_loc": "1446"}, "geometry": {"type": "Polygon", "coordinates": [[[-106.16842, 28.81324], [-106.16804, 28.81342], [-106.16773, 28.81292], [-106.16808, 28.81273], [-106.16842, 28.81324]]]}}, {"id": "464917", "type": "Feature", "properties": {"id": "464917", "CVEGEO": "0801914464444047", "POBTOT": 0.0, "score_nse": 0.0, "NSE": null, "VIVTOT": 0.0, "GRAPROES": 0.0, "_ent": "08", "_mun": "019", "_loc": "1446"}, "geometry": {"type": "Polygon", "coordinates": [[[-106.17103, 28.81427], [-106.17066, 28.81448], [-106.17017, 28.81378], [-106.17055, 28.81358], [-106.17103, 28.81427]]]}}, {"id": "464918", "type": "Feature", "properties": {"id": "464918", "CVEGEO": "0801914464444048", "POBTOT": 0.0, "score_nse": 0.0, "NSE": null, "VIVTOT": 0.0, "GRAPROES": 0.0, "_ent": "08", "_mun": "019", "_loc": "1446"}, "geometry": {"type": "Polygon", "coordinates": [[[-106.16988, 28.81167], [-106.16948, 28.81191], [-106.16909, 28.81131], [-106.1695, 28.81111], [-106.16988, 28.81167]]]}}, {"id": "464919", "type": "Feature", "properties": {"id": "464919", "CVEGEO": "0801914464444050", "POBTOT": 0.0, "score_nse": 0.0, "NSE": null, "VIVTOT": 0.0, "GRAPROES": 0.0, "_ent": "08", "_mun": "019", "_loc": "1446"}, "geometry": {"type": "Polygon", "coordinates": [[[-106.17024, 28.81481], [-106.17062, 28.81458], [-106.17116, 28.81535], [-106.17077, 28.81557], [-106.17024, 28.81481]]]}}, {"id": "464920", "type": "Feature", "properties": {"id": "464920", "CVEGEO": "0801914464444056", "POBTOT": 0.0, "score_nse": 0.0, "NSE": null, "VIVTOT": 0.0, "GRAPROES": 0.0, "_ent": "08", "_mun": "019", "_loc": "1446"}, "geometry": {"type": "Polygon", "coordinates": [[[-106.16802, 28.81267], [-106.16765, 28.81286], [-106.16726, 28.8123], [-106.16763, 28.81211], [-106.16802, 28.81267]]]}}, {"id": "464921", "type": "Feature", "properties": {"id": "464921", "CVEGEO": "0801914464444059", "POBTOT": 0.0, "score_nse": 0.0, "NSE": null, "VIVTOT": 0.0, "GRAPROES": 0.0, "_ent": "08", "_mun": "019", "_loc": "1446"}, "geometry": {"type": "Polygon", "coordinates": [[[-106.16902, 28.81324], [-106.16866, 28.81344], [-106.16852, 28.81324], [-106.16888, 28.81305], [-106.16902, 28.81324]]]}}, {"id": "464922", "type": "Feature", "properties": {"id": "464922", "CVEGEO": "0801914464444061", "POBTOT": 0.0, "score_nse": 0.0, "NSE": null, "VIVTOT": 0.0, "GRAPROES": 0.0, "_ent": "08", "_mun": "019", "_loc": "1446"}, "geometry": {"type": "Polygon", "coordinates": [[[-106.16895, 28.81221], [-106.16862, 28.8124], [-106.1682, 28.81177], [-106.16856, 28.81158], [-106.16895, 28.81221]]]}}, {"id": "464923", "type": "Feature", "properties": {"id": "464923", "CVEGEO": "0801914464444062", "POBTOT": 0.0, "score_nse": 0.0, "NSE": null, "VIVTOT": 0.0, "GRAPROES": 0.0, "_ent": "08", "_mun": "019", "_loc": "1446"}, "geometry": {"type": "Polygon", "coordinates": [[[-106.16939, 28.81196], [-106.16901, 28.81216], [-106.16862, 28.81155], [-106.16901, 28.81135], [-106.16939, 28.81196]]]}}, {"id": "464924", "type": "Feature", "properties": {"id": "464924", "CVEGEO": "0801914464444063", "POBTOT": 0.0, "score_nse": 0.0, "NSE": null, "VIVTOT": 0.0, "GRAPROES": 0.0, "_ent": "08", "_mun": "019", "_loc": "1446"}, "geometry": {"type": "Polygon", "coordinates": [[[-106.16758, 28.81292], [-106.16724, 28.8131], [-106.16683, 28.81252], [-106.16719, 28.81232], [-106.16758, 28.81292]]]}}, {"id": "464925", "type": "Feature", "properties": {"id": "464925", "CVEGEO": "0801914464444064", "POBTOT": 0.0, "score_nse": 0.0, "NSE": null, "VIVTOT": 0.0, "GRAPROES": 0.0, "_ent": "08", "_mun": "019", "_loc": "1446"}, "geometry": {"type": "Polygon", "coordinates": [[[-106.16886, 28.81301], [-106.16851, 28.81319], [-106.16817, 28.81269], [-106.16852, 28.81251], [-106.16886, 28.81301]]]}}, {"id": "464926", "type": "Feature", "properties": {"id": "464926", "CVEGEO": "0801914464444065", "POBTOT": 0.0, "score_nse": 0.0, "NSE": null, "VIVTOT": 0.0, "GRAPROES": 0.0, "_ent": "08", "_mun": "019", "_loc": "1446"}, "geometry": {"type": "Polygon", "coordinates": [[[-106.1686, 28.81346], [-106.16814, 28.81358], [-106.16808, 28.81347], [-106.16846, 28.81327], [-106.1686, 28.81346]]]}}, {"id": "464927", "type": "Feature", "properties": {"id": "464927", "CVEGEO": "0801914464444066", "POBTOT": 0.0, "score_nse": 0.0, "NSE": null, "VIVTOT": 0.0, "GRAPROES": 0.0, "_ent": "08", "_mun": "019", "_loc": "1446"}, "geometry": {"type": "Polygon", "coordinates": [[[-106.17057, 28.81453], [-106.17022, 28.81473], [-106.16974, 28.81402], [-106.17007, 28.81384], [-106.17057, 28.81453]]]}}, {"id": "464928", "type": "Feature", "properties": {"id": "464928", "CVEGEO": "0801914464444067", "POBTOT": 0.0, "score_nse": 0.0, "NSE": null, "VIVTOT": 0.0, "GRAPROES": 0.0, "_ent": "08", "_mun": "019", "_loc": "1446"}, "geometry": {"type": "Polygon", "coordinates": [[[-106.17082, 28.81563], [-106.17121, 28.81541], [-106.17147, 28.81578], [-106.17107, 28.81599], [-106.17082, 28.81563]]]}}, {"id": "464952", "type": "Feature", "properties": {"id": "464952", "CVEGEO": "0801914464444010", "POBTOT": 0.0, "score_nse": 0.0, "NSE": null, "VIVTOT": 0.0, "GRAPROES": 0.0, "_ent": "08", "_mun": "019", "_loc": "1446"}, "geometry": {"type": "Polygon", "coordinates": [[[-106.17458, 28.81133], [-106.17423, 28.81152], [-106.17374, 28.81079], [-106.1741, 28.8106], [-106.17458, 28.81133]]]}}, {"id": "464953", "type": "Feature", "properties": {"id": "464953", "CVEGEO": "0801914464444016", "POBTOT": 0.0, "score_nse": 0.0, "NSE": null, "VIVTOT": 0.0, "GRAPROES": 0.0, "_ent": "08", "_mun": "019", "_loc": "1446"}, "geometry": {"type": "Polygon", "coordinates": [[[-106.17613, 28.81065], [-106.17513, 28.81107], [-106.17462, 28.81028], [-106.17594, 28.8097], [-106.17613, 28.81065]]]}}, {"id": "464954", "type": "Feature", "properties": {"id": "464954", "CVEGEO": "0801914464444068", "POBTOT": 0.0, "score_nse": 0.0, "NSE": null, "VIVTOT": 0.0, "GRAPROES": 0.0, "_ent": "08", "_mun": "019", "_loc": "1446"}, "geometry": {"type": "Polygon", "coordinates": [[[-106.17503, 28.81111], [-106.17463, 28.8113], [-106.17413, 28.81056], [-106.17456, 28.81033], [-106.17503, 28.81111]]]}}]}