{"type": "FeatureCollection", "features": [{"id": "2075808", "type": "Feature", "properties": {"id": "2075808", "CVEGEO": "260550042129A081", "POBTOT": 0.0, "score_nse": 0.0, "NSE": null, "VIVTOT": 0.0, "GRAPROES": 0.0, "_ent": "26", "_mun": "055", "_loc": "0042"}, "geometry": {"type": "Polygon", "coordinates": [[[-114.66001, 32.43537], [-114.6611, 32.4357], [-114.66073, 32.43659], [-114.65964, 32.43627], [-114.66001, 32.43537]]]}}, {"id": "2075809", "type": "Feature", "properties": {"id": "2075809", "CVEGEO": "260550042129A080", "POBTOT": 0.0, "score_nse": 0.0, "NSE": null, "VIVTOT": 0.0, "GRAPROES": 0.0, "_ent": "26", "_mun": "055", "_loc": "0042"}, "geometry": {"type": "Polygon", "coordinates": [[[-114.65986, 32.44248], [-114.66086, 32.44278], [-114.6605, 32.44365], [-114.65952, 32.44335], [-114.65986, 32.44248]]]}}, {"id": "2075810", "type": "Feature", "properties": {"id": "2075810", "CVEGEO": "260550042129A079", "POBTOT": 0.0, "score_nse": 0.0, "NSE": null, "VIVTOT": 0.0, "GRAPROES": 0.0, "_ent": "26", "_mun": "055", "_loc": "0042"}, "geometry": {"type": "Polygon", "coordinates": [[[-114.66099, 32.44282], [-114.66204, 32.44314], [-114.66168, 32.44401], [-114.66063, 32.44369], [-114.66099, 32.44282]]]}}, {"id": "2075811", "type": "Feature", "properties": {"id": "2075811", "CVEGEO": "260550042129A066", "POBTOT": 0.0, "score_nse": 0.0, "NSE": null, "VIVTOT": 0.0, "GRAPROES": 0.0, "_ent": "26", "_mun": "055", "_loc": "0042"}, "geometry": {"type": "Polygon", "coordinates": [[[-114.66157, 32.43832], [-114.66259, 32.43862], [-114.66249, 32.43887], [-114.66146, 32.43856], [-114.66157, 32.43832]]]}}, {"id": "2075812", "type": "Feature", "properties": {"id": "2075812", "CVEGEO": "260550042129A025", "POBTOT": 0.0, "score_nse": 0.0, "NSE": null, "VIVTOT": 0.0, "GRAPROES": 0.0, "_ent": "26", "_mun": "055", "_loc": "0042"}, "geometry": {"type": "Polygon", "coordinates": [[[-114.6617, 32.43466], [-114.66273, 32.43497], [-114.66235, 32.43588], [-114.66132, 32.43557], [-114.6617, 32.43466]]]}}, {"id": "2075813", "type": "Feature", "properties": {"id": "2075813", "CVEGEO": "260550042129A018", "POBTOT": 0.0, "score_nse": 0.0, "NSE": null, "VIVTOT": 0.0, "GRAPROES": 0.0, "_ent": "26", "_mun": "055", "_loc": "0042"}, "geometry": {"type": "Polygon", "coordinates": [[[-114.66742, 32.43382], [-114.6678, 32.4329], [-114.66952, 32.43344], [-114.66934, 32.43443], [-114.66742, 32.43382]]]}}, {"id": "2075814", "type": "Feature", "properties": {"id": "2075814", "CVEGEO": "260550042129A009", "POBTOT": 0.0, "score_nse": 0.0, "NSE": null, "VIVTOT": 0.0, "GRAPROES": 0.0, "_ent": "26", "_mun": "055", "_loc": "0042"}, "geometry": {"type": "Polygon", "coordinates": [[[-114.66332, 32.43395], [-114.6644, 32.43428], [-114.66403, 32.43517], [-114.66295, 32.43485], [-114.66332, 32.43395]]]}}, {"id": "2076049", "type": "Feature", "properties": {"id": "2076049", "CVEGEO": "260550042129A133", "POBTOT": 0.0, "score_nse": 0.0, "NSE": null, "VIVTOT": 0.0, "GRAPROES": 0.0, "_ent": "26", "_mun": "055", "_loc": "0042"}, "geometry": {"type": "Polygon", "coordinates": [[[-114.66221, 32.44319], [-114.66327, 32.44351], [-114.66291, 32.44438], [-114.66185, 32.44406], [-114.66221, 32.44319]]]}}, {"id": "2076050", "type": "Feature", "properties": {"id": "2076050", "CVEGEO": "260550042129A087", "POBTOT": 0.0, "score_nse": 0.0, "NSE": null, "VIVTOT": 0.0, "GRAPROES": 0.0, "_ent": "26", "_mun": "055", "_loc": "0042"}, "geometry": {"type": "Polygon", "coordinates": [[[-114.65751, 32.43441], [-114.65788, 32.43352], [-114.65897, 32.43385], [-114.65859, 32.43474], [-114.65751, 32.43441]]]}}, {"id": "2076051", "type": "Feature", "properties": {"id": "2076051", "CVEGEO": "260550042129A076", "POBTOT": 0.0, "score_nse": 0.0, "NSE": null, "VIVTOT": 0.0, "GRAPROES": 0.0, "_ent": "26", "_mun": "055", "_loc": "0042"}, "geometry": {"type": "Polygon", "coordinates": [[[-114.66071, 32.44036], [-114.66174, 32.44067], [-114.66138, 32.44154], [-114.66035, 32.44123], [-114.66071, 32.44036]]]}}, {"id": "2076052", "type": "Feature", "properties": {"id": "2076052", "CVEGEO": "260550042129A075", "POBTOT": 0.0, "score_nse": 0.0, "NSE": null, "VIVTOT": 0.0, "GRAPROES": 0.0, "_ent": "26", "_mun": "055", "_loc": "0042"}, "geometry": {"type": "Polygon", "coordinates": [[[-114.66189, 32.44072], [-114.66296, 32.44104], [-114.66261, 32.44191], [-114.66153, 32.44158], [-114.66189, 32.44072]]]}}, {"id": "2076053", "type": "Feature", "properties": {"id": "2076053", "CVEGEO": "260550042129A074", "POBTOT": 0.0, "score_nse": 0.0, "NSE": null, "VIVTOT": 0.0, "GRAPROES": 0.0, "_ent": "26", "_mun": "055", "_loc": "0042"}, "geometry": {"type": "Polygon", "coordinates": [[[-114.66079, 32.44018], [-114.66114, 32.43933], [-114.66217, 32.43962], [-114.66181, 32.4405], [-114.66079, 32.44018]]]}}, {"id": "2076054", "type": "Feature", "properties": {"id": "2076054", "CVEGEO": "260550042129A073", "POBTOT": 0.0, "score_nse": 0.0, "NSE": null, "VIVTOT": 0.0, "GRAPROES": 0.0, "_ent": "26", "_mun": "055", "_loc": "0042"}, "geometry": {"type": "Polygon", "coordinates": [[[-114.66196, 32.44055], [-114.66232, 32.43967], [-114.66338, 32.43999], [-114.66301, 32.44087], [-114.66196, 32.44055]]]}}, {"id": "2076055", "type": "Feature", "properties": {"id": "2076055", "CVEGEO": "260550042129A065", "POBTOT": 0.0, "score_nse": 0.0, "NSE": null, "VIVTOT": 0.0, "GRAPROES": 0.0, "_ent": "26", "_mun": "055", "_loc": "0042"}, "geometry": {"type": "Polygon", "coordinates": [[[-114.66275, 32.43867], [-114.6638, 32.43898], [-114.66369, 32.43924], [-114.66264, 32.43892], [-114.66275, 32.43867]]]}}, {"id": "2076056", "type": "Feature", "properties": {"id": "2076056", "CVEGEO": "260550042129A064", "POBTOT": 0.0, "score_nse": 0.0, "NSE": null, "VIVTOT": 0.0, "GRAPROES": 0.0, "_ent": "26", "_mun": "055", "_loc": "0042"}, "geometry": {"type": "Polygon", "coordinates": [[[-114.66846, 32.42822], [-114.6695, 32.42848], [-114.66906, 32.42948], [-114.66805, 32.42918], [-114.66846, 32.42822]]]}}, {"id": "2076057", "type": "Feature", "properties": {"id": "2076057", "CVEGEO": "260550042129A062", "POBTOT": 0.0, "score_nse": 0.0, "NSE": null, "VIVTOT": 0.0, "GRAPROES": 0.0, "_ent": "26", "_mun": "055", "_loc": "0042"}, "geometry": {"type": "Polygon", "coordinates": [[[-114.66015, 32.42809], [-114.66055, 32.4271], [-114.66165, 32.42743], [-114.66125, 32.42841], [-114.66015, 32.42809]]]}}, {"id": "2076058", "type": "Feature", "properties": {"id": "2076058", "CVEGEO": "260550042129A058", "POBTOT": 0.0, "score_nse": 0.0, "NSE": null, "VIVTOT": 0.0, "GRAPROES": 0.0, "_ent": "26", "_mun": "055", "_loc": "0042"}, "geometry": {"type": "Polygon", "coordinates": [[[-114.66202, 32.43714], [-114.66308, 32.43744], [-114.66266, 32.43845], [-114.66165, 32.43816], [-114.66202, 32.43714]]]}}, {"id": "2076059", "type": "Feature", "properties": {"id": "2076059", "CVEGEO": "260550042129A057", "POBTOT": 0.0, "score_nse": 0.0, "NSE": null, "VIVTOT": 0.0, "GRAPROES": 0.0, "_ent": "26", "_mun": "055", "_loc": "0042"}, "geometry": {"type": "Polygon", "coordinates": [[[-114.66323, 32.43749], [-114.66429, 32.43781], [-114.66387, 32.43881], [-114.66281, 32.43849], [-114.66323, 32.43749]]]}}, {"id": "2076060", "type": "Feature", "properties": {"id": "2076060", "CVEGEO": "260550042129A056", "POBTOT": 0.0, "score_nse": 0.0, "NSE": null, "VIVTOT": 0.0, "GRAPROES": 0.0, "_ent": "26", "_mun": "055", "_loc": "0042"}, "geometry": {"type": "Polygon", "coordinates": [[[-114.66402, 32.43886], [-114.66444, 32.43785], [-114.66544, 32.43816], [-114.66502, 32.43916], [-114.66402, 32.43886]]]}}, {"id": "2076061", "type": "Feature", "properties": {"id": "2076061", "CVEGEO": "260550042129A055", "POBTOT": 0.0, "score_nse": 0.0, "NSE": null, "VIVTOT": 0.0, "GRAPROES": 0.0, "_ent": "26", "_mun": "055", "_loc": "0042"}, "geometry": {"type": "Polygon", "coordinates": [[[-114.66994, 32.43], [-114.66983, 32.43099], [-114.66874, 32.43066], [-114.6691, 32.42974], [-114.66994, 32.43]]]}}, {"id": "2076062", "type": "Feature", "properties": {"id": "2076062", "CVEGEO": "260550042129A054", "POBTOT": 0.0, "score_nse": 0.0, "NSE": null, "VIVTOT": 0.0, "GRAPROES": 0.0, "_ent": "26", "_mun": "055", "_loc": "0042"}, "geometry": {"type": "Polygon", "coordinates": [[[-114.66758, 32.43031], [-114.66796, 32.4294], [-114.66896, 32.4297], [-114.66859, 32.43061], [-114.66758, 32.43031]]]}}, {"id": "2076063", "type": "Feature", "properties": {"id": "2076063", "CVEGEO": "260550042129A053", "POBTOT": 0.0, "score_nse": 0.0, "NSE": null, "VIVTOT": 0.0, "GRAPROES": 0.0, "_ent": "26", "_mun": "055", "_loc": "0042"}, "geometry": {"type": "Polygon", "coordinates": [[[-114.66675, 32.42904], [-114.6678, 32.42935], [-114.66743, 32.43026], [-114.66638, 32.42994], [-114.66675, 32.42904]]]}}, {"id": "2076064", "type": "Feature", "properties": {"id": "2076064", "CVEGEO": "260550042129A051", "POBTOT": 0.0, "score_nse": 0.0, "NSE": null, "VIVTOT": 0.0, "GRAPROES": 0.0, "_ent": "26", "_mun": "055", "_loc": "0042"}, "geometry": {"type": "Polygon", "coordinates": [[[-114.66438, 32.42825], [-114.6654, 32.42855], [-114.665, 32.42954], [-114.66397, 32.42923], [-114.66438, 32.42825]]]}}, {"id": "2076065", "type": "Feature", "properties": {"id": "2076065", "CVEGEO": "260550042129A040", "POBTOT": 0.0, "score_nse": 0.0, "NSE": null, "VIVTOT": 0.0, "GRAPROES": 0.0, "_ent": "26", "_mun": "055", "_loc": "0042"}, "geometry": {"type": "Polygon", "coordinates": [[[-114.66243, 32.4361], [-114.66351, 32.43642], [-114.66315, 32.43728], [-114.66207, 32.43695], [-114.66243, 32.4361]]]}}, {"id": "2076066", "type": "Feature", "properties": {"id": "2076066", "CVEGEO": "260550042129A039", "POBTOT": 0.0, "score_nse": 0.0, "NSE": null, "VIVTOT": 0.0, "GRAPROES": 0.0, "_ent": "26", "_mun": "055", "_loc": "0042"}, "geometry": {"type": "Polygon", "coordinates": [[[-114.66366, 32.43647], [-114.66471, 32.43679], [-114.66436, 32.43764], [-114.6633, 32.43732], [-114.66366, 32.43647]]]}}, {"id": "2076067", "type": "Feature", "properties": {"id": "2076067", "CVEGEO": "260550042129A038", "POBTOT": 0.0, "score_nse": 0.0, "NSE": null, "VIVTOT": 0.0, "GRAPROES": 0.0, "_ent": "26", "_mun": "055", "_loc": "0042"}, "geometry": {"type": "Polygon", "coordinates": [[[-114.66486, 32.43683], [-114.66587, 32.43714], [-114.66551, 32.43799], [-114.66451, 32.43768], [-114.66486, 32.43683]]]}}, {"id": "2076068", "type": "Feature", "properties": {"id": "2076068", "CVEGEO": "260550042129A035", "POBTOT": 0.0, "score_nse": 0.0, "NSE": null, "VIVTOT": 0.0, "GRAPROES": 0.0, "_ent": "26", "_mun": "055", "_loc": "0042"}, "geometry": {"type": "Polygon", "coordinates": [[[-114.6675, 32.43047], [-114.66852, 32.43078], [-114.66815, 32.43166], [-114.66714, 32.43136], [-114.6675, 32.43047]]]}}, {"id": "2076069", "type": "Feature", "properties": {"id": "2076069", "CVEGEO": "260550042129A034", "POBTOT": 0.0, "score_nse": 0.0, "NSE": null, "VIVTOT": 0.0, "GRAPROES": 0.0, "_ent": "26", "_mun": "055", "_loc": "0042"}, "geometry": {"type": "Polygon", "coordinates": [[[-114.6663, 32.43011], [-114.66735, 32.43043], [-114.667, 32.43131], [-114.66594, 32.43099], [-114.6663, 32.43011]]]}}, {"id": "2076070", "type": "Feature", "properties": {"id": "2076070", "CVEGEO": "260550042129A033", "POBTOT": 0.0, "score_nse": 0.0, "NSE": null, "VIVTOT": 0.0, "GRAPROES": 0.0, "_ent": "26", "_mun": "055", "_loc": "0042"}, "geometry": {"type": "Polygon", "coordinates": [[[-114.66569, 32.4299], [-114.66575, 32.42976], [-114.66515, 32.42959], [-114.66553, 32.42866], [-114.66645, 32.42895], [-114.66655, 32.42911], [-114.66579, 32.43095], [-114.66471, 32.43062], [-114.66508, 32.42973], [-114.66569, 32.4299]]]}}, {"id": "2076071", "type": "Feature", "properties": {"id": "2076071", "CVEGEO": "260550042129A032", "POBTOT": 0.0, "score_nse": 0.0, "NSE": null, "VIVTOT": 0.0, "GRAPROES": 0.0, "_ent": "26", "_mun": "055", "_loc": "0042"}, "geometry": {"type": "Polygon", "coordinates": [[[-114.6639, 32.42938], [-114.66493, 32.42969], [-114.66456, 32.43058], [-114.66353, 32.43026], [-114.6639, 32.42938]]]}}, {"id": "2076072", "type": "Feature", "properties": {"id": "2076072", "CVEGEO": "260550042129A031", "POBTOT": 0.0, "score_nse": 0.0, "NSE": null, "VIVTOT": 0.0, "GRAPROES": 0.0, "_ent": "26", "_mun": "055", "_loc": "0042"}, "geometry": {"type": "Polygon", "coordinates": [[[-114.66261, 32.429], [-114.66375, 32.42934], [-114.66338, 32.43022], [-114.66224, 32.42987], [-114.66261, 32.429]]]}}, {"id": "2076073", "type": "Feature", "properties": {"id": "2076073", "CVEGEO": "260550042129A030", "POBTOT": 0.0, "score_nse": 0.0, "NSE": null, "VIVTOT": 0.0, "GRAPROES": 0.0, "_ent": "26", "_mun": "055", "_loc": "0042"}, "geometry": {"type": "Polygon", "coordinates": [[[-114.66217, 32.43004], [-114.66331, 32.43039], [-114.66296, 32.43124], [-114.66182, 32.43089], [-114.66217, 32.43004]]]}}, {"id": "2076074", "type": "Feature", "properties": {"id": "2076074", "CVEGEO": "260550042129A024", "POBTOT": 0.0, "score_nse": 0.0, "NSE": null, "VIVTOT": 0.0, "GRAPROES": 0.0, "_ent": "26", "_mun": "055", "_loc": "0042"}, "geometry": {"type": "Polygon", "coordinates": [[[-114.66288, 32.43502], [-114.66396, 32.43534], [-114.66358, 32.43626], [-114.6625, 32.43593], [-114.66288, 32.43502]]]}}, {"id": "2076075", "type": "Feature", "properties": {"id": "2076075", "CVEGEO": "260550042129A023", "POBTOT": 0.0, "score_nse": 0.0, "NSE": null, "VIVTOT": 0.0, "GRAPROES": 0.0, "_ent": "26", "_mun": "055", "_loc": "0042"}, "geometry": {"type": "Polygon", "coordinates": [[[-114.66411, 32.43539], [-114.66515, 32.4357], [-114.66478, 32.43662], [-114.66373, 32.4363], [-114.66411, 32.43539]]]}}, {"id": "2076076", "type": "Feature", "properties": {"id": "2076076", "CVEGEO": "260550042129A022", "POBTOT": 0.0, "score_nse": 0.0, "NSE": null, "VIVTOT": 0.0, "GRAPROES": 0.0, "_ent": "26", "_mun": "055", "_loc": "0042"}, "geometry": {"type": "Polygon", "coordinates": [[[-114.66531, 32.43575], [-114.66632, 32.43606], [-114.66594, 32.43697], [-114.66493, 32.43667], [-114.66531, 32.43575]]]}}, {"id": "2076077", "type": "Feature", "properties": {"id": "2076077", "CVEGEO": "260550042129A021", "POBTOT": 0.0, "score_nse": 0.0, "NSE": null, "VIVTOT": 0.0, "GRAPROES": 0.0, "_ent": "26", "_mun": "055", "_loc": "0042"}, "geometry": {"type": "Polygon", "coordinates": [[[-114.66609, 32.43701], [-114.66647, 32.4361], [-114.66772, 32.43648], [-114.66732, 32.43739], [-114.66609, 32.43701]]]}}, {"id": "2076078", "type": "Feature", "properties": {"id": "2076078", "CVEGEO": "260550042129A017", "POBTOT": 0.0, "score_nse": 0.0, "NSE": null, "VIVTOT": 0.0, "GRAPROES": 0.0, "_ent": "26", "_mun": "055", "_loc": "0042"}, "geometry": {"type": "Polygon", "coordinates": [[[-114.66823, 32.43188], [-114.6698, 32.43235], [-114.6696, 32.43325], [-114.66787, 32.43273], [-114.66823, 32.43188]]]}}, {"id": "2076079", "type": "Feature", "properties": {"id": "2076079", "CVEGEO": "260550042129A016", "POBTOT": 0.0, "score_nse": 0.0, "NSE": null, "VIVTOT": 0.0, "GRAPROES": 0.0, "_ent": "26", "_mun": "055", "_loc": "0042"}, "geometry": {"type": "Polygon", "coordinates": [[[-114.66707, 32.43153], [-114.66808, 32.43183], [-114.66772, 32.43268], [-114.66672, 32.43238], [-114.66707, 32.43153]]]}}, {"id": "2076080", "type": "Feature", "properties": {"id": "2076080", "CVEGEO": "260550042129A015", "POBTOT": 0.0, "score_nse": 0.0, "NSE": null, "VIVTOT": 0.0, "GRAPROES": 0.0, "_ent": "26", "_mun": "055", "_loc": "0042"}, "geometry": {"type": "Polygon", "coordinates": [[[-114.66587, 32.43116], [-114.66692, 32.43148], [-114.66657, 32.43233], [-114.66551, 32.43201], [-114.66587, 32.43116]]]}}, {"id": "2076081", "type": "Feature", "properties": {"id": "2076081", "CVEGEO": "260550042129A014", "POBTOT": 0.0, "score_nse": 0.0, "NSE": null, "VIVTOT": 0.0, "GRAPROES": 0.0, "_ent": "26", "_mun": "055", "_loc": "0042"}, "geometry": {"type": "Polygon", "coordinates": [[[-114.66464, 32.43079], [-114.66572, 32.43112], [-114.66536, 32.43197], [-114.66429, 32.43164], [-114.66464, 32.43079]]]}}, {"id": "2076082", "type": "Feature", "properties": {"id": "2076082", "CVEGEO": "260550042129A012", "POBTOT": 0.0, "score_nse": 0.0, "NSE": null, "VIVTOT": 0.0, "GRAPROES": 0.0, "_ent": "26", "_mun": "055", "_loc": "0042"}, "geometry": {"type": "Polygon", "coordinates": [[[-114.66303, 32.43145], [-114.66407, 32.43176], [-114.66368, 32.43269], [-114.66265, 32.43237], [-114.66303, 32.43145]]]}}, {"id": "2076083", "type": "Feature", "properties": {"id": "2076083", "CVEGEO": "260550042129A008", "POBTOT": 0.0, "score_nse": 0.0, "NSE": null, "VIVTOT": 0.0, "GRAPROES": 0.0, "_ent": "26", "_mun": "055", "_loc": "0042"}, "geometry": {"type": "Polygon", "coordinates": [[[-114.66455, 32.43432], [-114.66561, 32.43464], [-114.66523, 32.43554], [-114.66418, 32.43522], [-114.66455, 32.43432]]]}}, {"id": "2076084", "type": "Feature", "properties": {"id": "2076084", "CVEGEO": "260550042129A007", "POBTOT": 0.0, "score_nse": 0.0, "NSE": null, "VIVTOT": 0.0, "GRAPROES": 0.0, "_ent": "26", "_mun": "055", "_loc": "0042"}, "geometry": {"type": "Polygon", "coordinates": [[[-114.66538, 32.43559], [-114.66576, 32.43469], [-114.66676, 32.43499], [-114.66639, 32.43589], [-114.66538, 32.43559]]]}}, {"id": "2076085", "type": "Feature", "properties": {"id": "2076085", "CVEGEO": "260550042129A006", "POBTOT": 0.0, "score_nse": 0.0, "NSE": null, "VIVTOT": 0.0, "GRAPROES": 0.0, "_ent": "26", "_mun": "055", "_loc": "0042"}, "geometry": {"type": "Polygon", "coordinates": [[[-114.66618, 32.43363], [-114.6672, 32.43394], [-114.66683, 32.43482], [-114.66583, 32.43452], [-114.66618, 32.43363]]]}}, {"id": "2076086", "type": "Feature", "properties": {"id": "2076086", "CVEGEO": "260550042129A005", "POBTOT": 0.0, "score_nse": 0.0, "NSE": null, "VIVTOT": 0.0, "GRAPROES": 0.0, "_ent": "26", "_mun": "055", "_loc": "0042"}, "geometry": {"type": "Polygon", "coordinates": [[[-114.66665, 32.43255], [-114.66765, 32.43285], [-114.66727, 32.43377], [-114.66626, 32.43347], [-114.66665, 32.43255]]]}}, {"id": "2076087", "type": "Feature", "properties": {"id": "2076087", "CVEGEO": "260550042129A004", "POBTOT": 0.0, "score_nse": 0.0, "NSE": null, "VIVTOT": 0.0, "GRAPROES": 0.0, "_ent": "26", "_mun": "055", "_loc": "0042"}, "geometry": {"type": "Polygon", "coordinates": [[[-114.66544, 32.43218], [-114.6665, 32.4325], [-114.66612, 32.43342], [-114.66506, 32.4331], [-114.66544, 32.43218]]]}}, {"id": "2076088", "type": "Feature", "properties": {"id": "2076088", "CVEGEO": "260550042129A003", "POBTOT": 0.0, "score_nse": 0.0, "NSE": null, "VIVTOT": 0.0, "GRAPROES": 0.0, "_ent": "26", "_mun": "055", "_loc": "0042"}, "geometry": {"type": "Polygon", "coordinates": [[[-114.66422, 32.43181], [-114.66529, 32.43214], [-114.66491, 32.43306], [-114.66383, 32.43273], [-114.66422, 32.43181]]]}}, {"id": "2076089", "type": "Feature", "properties": {"id": "2076089", "CVEGEO": "260550042129A002", "POBTOT": 0.0, "score_nse": 0.0, "NSE": null, "VIVTOT": 0.0, "GRAPROES": 0.0, "_ent": "26", "_mun": "055", "_loc": "0042"}, "geometry": {"type": "Polygon", "coordinates": [[[-114.66376, 32.4329], [-114.66484, 32.43323], [-114.66447, 32.43411], [-114.66339, 32.43378], [-114.66376, 32.4329]]]}}, {"id": "2076090", "type": "Feature", "properties": {"id": "2076090", "CVEGEO": "260550042129A001", "POBTOT": 0.0, "score_nse": 0.0, "NSE": null, "VIVTOT": 0.0, "GRAPROES": 0.0, "_ent": "26", "_mun": "055", "_loc": "0042"}, "geometry": {"type": "Polygon", "coordinates": [[[-114.66499, 32.43327], [-114.66603, 32.43359], [-114.66568, 32.43447], [-114.66462, 32.43415], [-114.66499, 32.43327]]]}}, {"id": "2077131", "type": "Feature", "properties": {"id": "2077131", "CVEGEO": "260550042129A037", "POBTOT": 0.0, "score_nse": 0.0, "NSE": null, "VIVTOT": 0.0, "GRAPROES": 0.0, "_ent": "26", "_mun": "055", "_loc": "0042"}, "geometry": {"type": "Polygon", "coordinates": [[[-114.66602, 32.43718], [-114.66725, 32.43756], [-114.66688, 32.4384], [-114.66566, 32.43804], [-114.66602, 32.43718]]]}}, {"id": "2077274", "type": "Feature", "properties": {"id": "2077274", "CVEGEO": "260550042129A078", "POBTOT": 0.0, "score_nse": 0.0, "NSE": null, "VIVTOT": 0.0, "GRAPROES": 0.0, "_ent": "26", "_mun": "055", "_loc": "0042"}, "geometry": {"type": "Polygon", "coordinates": [[[-114.66029, 32.4414], [-114.66131, 32.4417], [-114.66093, 32.44261], [-114.65991, 32.44233], [-114.66029, 32.4414]]]}}, {"id": "2077275", "type": "Feature", "properties": {"id": "2077275", "CVEGEO": "260550042129A077", "POBTOT": 0.0, "score_nse": 0.0, "NSE": null, "VIVTOT": 0.0, "GRAPROES": 0.0, "_ent": "26", "_mun": "055", "_loc": "0042"}, "geometry": {"type": "Polygon", "coordinates": [[[-114.66144, 32.44175], [-114.6625, 32.44207], [-114.66212, 32.44297], [-114.66106, 32.44265], [-114.66144, 32.44175]]]}}, {"id": "2077276", "type": "Feature", "properties": {"id": "2077276", "CVEGEO": "260550042129A041", "POBTOT": 0.0, "score_nse": 0.0, "NSE": null, "VIVTOT": 0.0, "GRAPROES": 0.0, "_ent": "26", "_mun": "055", "_loc": "0042"}, "geometry": {"type": "Polygon", "coordinates": [[[-114.66125, 32.43574], [-114.66228, 32.43605], [-114.66192, 32.43695], [-114.66088, 32.43663], [-114.66125, 32.43574]]]}}, {"id": "2077293", "type": "Feature", "properties": {"id": "2077293", "CVEGEO": "260550042129A047", "POBTOT": 0.0, "score_nse": 0.0, "NSE": null, "VIVTOT": 0.0, "GRAPROES": 0.0, "_ent": "26", "_mun": "055", "_loc": "0042"}, "geometry": {"type": "Polygon", "coordinates": [[[-114.66059, 32.43052], [-114.66094, 32.42967], [-114.66202, 32.43], [-114.66167, 32.43085], [-114.66059, 32.43052]]]}}, {"id": "2077308", "type": "Feature", "properties": {"id": "2077308", "CVEGEO": "260550042129A071", "POBTOT": 0.0, "score_nse": 0.0, "NSE": null, "VIVTOT": 0.0, "GRAPROES": 0.0, "_ent": "26", "_mun": "055", "_loc": "0042"}, "geometry": {"type": "Polygon", "coordinates": [[[-114.66138, 32.43874], [-114.66242, 32.43904], [-114.66224, 32.43946], [-114.66122, 32.43914], [-114.66138, 32.43874]]]}}, {"id": "2080887", "type": "Feature", "properties": {"id": "2080887", "CVEGEO": "260550042129A028", "POBTOT": 0.0, "score_nse": 0.0, "NSE": null, "VIVTOT": 0.0, "GRAPROES": 0.0, "_ent": "26", "_mun": "055", "_loc": "0042"}, "geometry": {"type": "Polygon", "coordinates": [[[-114.66093, 32.43303], [-114.66129, 32.43215], [-114.66243, 32.4325], [-114.66207, 32.43338], [-114.66093, 32.43303]]]}}, {"id": "2081264", "type": "Feature", "properties": {"id": "2081264", "CVEGEO": "260550042129A092", "POBTOT": 0.0, "score_nse": 0.0, "NSE": null, "VIVTOT": 0.0, "GRAPROES": 0.0, "_ent": "26", "_mun": "055", "_loc": "0042"}, "geometry": {"type": "Polygon", "coordinates": [[[-114.6608, 32.42945], [-114.65842, 32.42874], [-114.65878, 32.42785], [-114.66117, 32.42857], [-114.6608, 32.42945]]]}}, {"id": "2081389", "type": "Feature", "properties": {"id": "2081389", "CVEGEO": "260550042129A070", "POBTOT": 0.0, "score_nse": 0.0, "NSE": null, "VIVTOT": 0.0, "GRAPROES": 0.0, "_ent": "26", "_mun": "055", "_loc": "0042"}, "geometry": {"type": "Polygon", "coordinates": [[[-114.66239, 32.4395], [-114.66257, 32.43909], [-114.66362, 32.4394], [-114.66345, 32.43982], [-114.66239, 32.4395]]]}}, {"id": "2081414", "type": "Feature", "properties": {"id": "2081414", "CVEGEO": "260550042129A029", "POBTOT": 0.0, "score_nse": 0.0, "NSE": null, "VIVTOT": 0.0, "GRAPROES": 0.0, "_ent": "26", "_mun": "055", "_loc": "0042"}, "geometry": {"type": "Polygon", "coordinates": [[[-114.66175, 32.43106], [-114.66289, 32.43141], [-114.6625, 32.43233], [-114.66136, 32.43198], [-114.66175, 32.43106]]]}}, {"id": "2083684", "type": "Feature", "properties": {"id": "2083684", "CVEGEO": "260550042129A063", "POBTOT": 0.0, "score_nse": 0.0, "NSE": null, "VIVTOT": 0.0, "GRAPROES": 0.0, "_ent": "26", "_mun": "055", "_loc": "0042"}, "geometry": {"type": "Polygon", "coordinates": [[[-114.6679, 32.42911], [-114.66695, 32.42885], [-114.66732, 32.42791], [-114.6683, 32.42817], [-114.6679, 32.42911]]]}}, {"id": "2083685", "type": "Feature", "properties": {"id": "2083685", "CVEGEO": "260550042129A068", "POBTOT": 0.0, "score_nse": 0.0, "NSE": null, "VIVTOT": 0.0, "GRAPROES": 0.0, "_ent": "26", "_mun": "055", "_loc": "0042"}, "geometry": {"type": "Polygon", "coordinates": [[[-114.66815, 32.42568], [-114.66922, 32.42597], [-114.66837, 32.42801], [-114.66731, 32.42771], [-114.66815, 32.42568]]]}}, {"id": "2083686", "type": "Feature", "properties": {"id": "2083686", "CVEGEO": "260550042129A130", "POBTOT": 0.0, "score_nse": 0.0, "NSE": null, "VIVTOT": 0.0, "GRAPROES": 0.0, "_ent": "26", "_mun": "055", "_loc": "0042"}, "geometry": {"type": "Polygon", "coordinates": [[[-114.65603, 32.42575], [-114.65692, 32.42601], [-114.65648, 32.42698], [-114.65563, 32.42672], [-114.65603, 32.42575]]]}}, {"id": "2083687", "type": "Feature", "properties": {"id": "2083687", "CVEGEO": "260550042129A084", "POBTOT": 0.0, "score_nse": 0.0, "NSE": null, "VIVTOT": 0.0, "GRAPROES": 0.0, "_ent": "26", "_mun": "055", "_loc": "0042"}, "geometry": {"type": "Polygon", "coordinates": [[[-114.65711, 32.42607], [-114.65812, 32.42636], [-114.65723, 32.42841], [-114.65625, 32.42809], [-114.65711, 32.42607]]]}}, {"id": "2083688", "type": "Feature", "properties": {"id": "2083688", "CVEGEO": "260550042129A132", "POBTOT": 0.0, "score_nse": 0.0, "NSE": null, "VIVTOT": 0.0, "GRAPROES": 0.0, "_ent": "26", "_mun": "055", "_loc": "0042"}, "geometry": {"type": "Polygon", "coordinates": [[[-114.65264, 32.427], [-114.65356, 32.42497], [-114.65457, 32.4253], [-114.65364, 32.42729], [-114.65264, 32.427]]]}}, {"id": "2084073", "type": "Feature", "properties": {"id": "2084073", "CVEGEO": "260550042129A059", "POBTOT": 0.0, "score_nse": 0.0, "NSE": null, "VIVTOT": 0.0, "GRAPROES": 0.0, "_ent": "26", "_mun": "055", "_loc": "0042"}, "geometry": {"type": "Polygon", "coordinates": [[[-114.66193, 32.43705], [-114.66152, 32.43808], [-114.66046, 32.43775], [-114.66086, 32.43672], [-114.66193, 32.43705]]]}}, {"id": "2084074", "type": "Feature", "properties": {"id": "2084074", "CVEGEO": "260550042129A135", "POBTOT": 0.0, "score_nse": 0.0, "NSE": null, "VIVTOT": 0.0, "GRAPROES": 0.0, "_ent": "26", "_mun": "055", "_loc": "0042"}, "geometry": {"type": "Polygon", "coordinates": [[[-114.6607, 32.4367], [-114.66029, 32.4377], [-114.65917, 32.43738], [-114.65959, 32.43635], [-114.6607, 32.4367]]]}}, {"id": "2084075", "type": "Feature", "properties": {"id": "2084075", "CVEGEO": "260550042129A136", "POBTOT": 0.0, "score_nse": 0.0, "NSE": null, "VIVTOT": 0.0, "GRAPROES": 0.0, "_ent": "26", "_mun": "055", "_loc": "0042"}, "geometry": {"type": "Polygon", "coordinates": [[[-114.66501, 32.43932], [-114.66467, 32.44018], [-114.66361, 32.43987], [-114.66398, 32.43901], [-114.66501, 32.43932]]]}}, {"id": "2084076", "type": "Feature", "properties": {"id": "2084076", "CVEGEO": "260550042129A137", "POBTOT": 0.0, "score_nse": 0.0, "NSE": null, "VIVTOT": 0.0, "GRAPROES": 0.0, "_ent": "26", "_mun": "055", "_loc": "0042"}, "geometry": {"type": "Polygon", "coordinates": [[[-114.66157, 32.43445], [-114.66055, 32.43412], [-114.6609, 32.43324], [-114.66193, 32.43355], [-114.66157, 32.43445]]]}}]}