{"type": "FeatureCollection", "features": [{"id": "2075791", "type": "Feature", "properties": {"id": "2075791", "CVEGEO": "260550065143A060", "POBTOT": 0.0, "score_nse": 0.0, "NSE": null, "VIVTOT": 0.0, "GRAPROES": 0.0, "_ent": "26", "_mun": "055", "_loc": "0065"}, "geometry": {"type": "Polygon", "coordinates": [[[-114.91973, 32.13241], [-114.91904, 32.13305], [-114.91824, 32.13238], [-114.91898, 32.13176], [-114.91973, 32.13241]]]}}, {"id": "2075792", "type": "Feature", "properties": {"id": "2075792", "CVEGEO": "260550065143A059", "POBTOT": 0.0, "score_nse": 0.0, "NSE": null, "VIVTOT": 0.0, "GRAPROES": 0.0, "_ent": "26", "_mun": "055", "_loc": "0065"}, "geometry": {"type": "Polygon", "coordinates": [[[-114.92631, 32.13108], [-114.92541, 32.13196], [-114.92481, 32.13152], [-114.92571, 32.13064], [-114.92631, 32.13108]]]}}, {"id": "2075793", "type": "Feature", "properties": {"id": "2075793", "CVEGEO": "260550065143A058", "POBTOT": 0.0, "score_nse": 0.0, "NSE": null, "VIVTOT": 0.0, "GRAPROES": 0.0, "_ent": "26", "_mun": "055", "_loc": "0065"}, "geometry": {"type": "Polygon", "coordinates": [[[-114.91851, 32.13284], [-114.91935, 32.13351], [-114.91895, 32.13386], [-114.91812, 32.13317], [-114.91851, 32.13284]]]}}, {"id": "2075794", "type": "Feature", "properties": {"id": "2075794", "CVEGEO": "260550065143A048", "POBTOT": 0.0, "score_nse": 0.0, "NSE": null, "VIVTOT": 0.0, "GRAPROES": 0.0, "_ent": "26", "_mun": "055", "_loc": "0065"}, "geometry": {"type": "Polygon", "coordinates": [[[-114.9222, 32.13583], [-114.92306, 32.13653], [-114.92266, 32.13688], [-114.9218, 32.13618], [-114.9222, 32.13583]]]}}, {"id": "2075795", "type": "Feature", "properties": {"id": "2075795", "CVEGEO": "260550065143A047", "POBTOT": 0.0, "score_nse": 0.0, "NSE": null, "VIVTOT": 0.0, "GRAPROES": 0.0, "_ent": "26", "_mun": "055", "_loc": "0065"}, "geometry": {"type": "Polygon", "coordinates": [[[-114.92314, 32.13659], [-114.92398, 32.13728], [-114.92358, 32.13762], [-114.92274, 32.13694], [-114.92314, 32.13659]]]}}, {"id": "2075796", "type": "Feature", "properties": {"id": "2075796", "CVEGEO": "260550065143A040", "POBTOT": 0.0, "score_nse": 0.0, "NSE": null, "VIVTOT": 0.0, "GRAPROES": 0.0, "_ent": "26", "_mun": "055", "_loc": "0065"}, "geometry": {"type": "Polygon", "coordinates": [[[-114.92253, 32.13088], [-114.92336, 32.13156], [-114.92301, 32.13187], [-114.92217, 32.13119], [-114.92253, 32.13088]]]}}, {"id": "2075797", "type": "Feature", "properties": {"id": "2075797", "CVEGEO": "260550065143A030", "POBTOT": 0.0, "score_nse": 0.0, "NSE": null, "VIVTOT": 0.0, "GRAPROES": 0.0, "_ent": "26", "_mun": "055", "_loc": "0065"}, "geometry": {"type": "Polygon", "coordinates": [[[-114.9236, 32.13619], [-114.92444, 32.13688], [-114.92405, 32.13721], [-114.92321, 32.13653], [-114.9236, 32.13619]]]}}, {"id": "2075798", "type": "Feature", "properties": {"id": "2075798", "CVEGEO": "260550065143A029", "POBTOT": 0.0, "score_nse": 0.0, "NSE": null, "VIVTOT": 0.0, "GRAPROES": 0.0, "_ent": "26", "_mun": "055", "_loc": "0065"}, "geometry": {"type": "Polygon", "coordinates": [[[-114.92452, 32.13694], [-114.92533, 32.13759], [-114.92496, 32.13795], [-114.92413, 32.13728], [-114.92452, 32.13694]]]}}, {"id": "2075799", "type": "Feature", "properties": {"id": "2075799", "CVEGEO": "260550065143A028", "POBTOT": 0.0, "score_nse": 0.0, "NSE": null, "VIVTOT": 0.0, "GRAPROES": 0.0, "_ent": "26", "_mun": "055", "_loc": "0065"}, "geometry": {"type": "Polygon", "coordinates": [[[-114.92809, 32.136], [-114.92768, 32.13567], [-114.92804, 32.13536], [-114.92844, 32.13569], [-114.92809, 32.136]]]}}, {"id": "2075800", "type": "Feature", "properties": {"id": "2075800", "CVEGEO": "260550065143A017", "POBTOT": 0.0, "score_nse": 0.0, "NSE": null, "VIVTOT": 0.0, "GRAPROES": 0.0, "_ent": "26", "_mun": "055", "_loc": "0065"}, "geometry": {"type": "Polygon", "coordinates": [[[-114.92404, 32.13581], [-114.92488, 32.13649], [-114.92452, 32.13681], [-114.92367, 32.13613], [-114.92404, 32.13581]]]}}, {"id": "2075801", "type": "Feature", "properties": {"id": "2075801", "CVEGEO": "260550065143A016", "POBTOT": 0.0, "score_nse": 0.0, "NSE": null, "VIVTOT": 0.0, "GRAPROES": 0.0, "_ent": "26", "_mun": "055", "_loc": "0065"}, "geometry": {"type": "Polygon", "coordinates": [[[-114.92496, 32.13656], [-114.92576, 32.13721], [-114.9254, 32.13753], [-114.92459, 32.13687], [-114.92496, 32.13656]]]}}, {"id": "2075802", "type": "Feature", "properties": {"id": "2075802", "CVEGEO": "260550065143A015", "POBTOT": 0.0, "score_nse": 0.0, "NSE": null, "VIVTOT": 0.0, "GRAPROES": 0.0, "_ent": "26", "_mun": "055", "_loc": "0065"}, "geometry": {"type": "Polygon", "coordinates": [[[-114.92539, 32.13618], [-114.9262, 32.13683], [-114.92584, 32.13715], [-114.92504, 32.1365], [-114.92539, 32.13618]]]}}, {"id": "2075803", "type": "Feature", "properties": {"id": "2075803", "CVEGEO": "260550065143A014", "POBTOT": 0.0, "score_nse": 0.0, "NSE": null, "VIVTOT": 0.0, "GRAPROES": 0.0, "_ent": "26", "_mun": "055", "_loc": "0065"}, "geometry": {"type": "Polygon", "coordinates": [[[-114.92583, 32.1358], [-114.92664, 32.13645], [-114.92627, 32.13677], [-114.92547, 32.13611], [-114.92583, 32.1358]]]}}, {"id": "2075804", "type": "Feature", "properties": {"id": "2075804", "CVEGEO": "260550065143A006", "POBTOT": 0.0, "score_nse": 0.0, "NSE": null, "VIVTOT": 0.0, "GRAPROES": 0.0, "_ent": "26", "_mun": "055", "_loc": "0065"}, "geometry": {"type": "Polygon", "coordinates": [[[-114.92353, 32.13467], [-114.9244, 32.13537], [-114.92404, 32.13568], [-114.92317, 32.13498], [-114.92353, 32.13467]]]}}, {"id": "2075805", "type": "Feature", "properties": {"id": "2075805", "CVEGEO": "260550065143A005", "POBTOT": 0.0, "score_nse": 0.0, "NSE": null, "VIVTOT": 0.0, "GRAPROES": 0.0, "_ent": "26", "_mun": "055", "_loc": "0065"}, "geometry": {"type": "Polygon", "coordinates": [[[-114.92448, 32.13543], [-114.92532, 32.13612], [-114.92496, 32.13643], [-114.92411, 32.13575], [-114.92448, 32.13543]]]}}, {"id": "2075806", "type": "Feature", "properties": {"id": "2075806", "CVEGEO": "260550065143A004", "POBTOT": 0.0, "score_nse": 0.0, "NSE": null, "VIVTOT": 0.0, "GRAPROES": 0.0, "_ent": "26", "_mun": "055", "_loc": "0065"}, "geometry": {"type": "Polygon", "coordinates": [[[-114.92491, 32.13505], [-114.92576, 32.13574], [-114.92539, 32.13605], [-114.92455, 32.13537], [-114.92491, 32.13505]]]}}, {"id": "2075807", "type": "Feature", "properties": {"id": "2075807", "CVEGEO": "260550065143A003", "POBTOT": 0.0, "score_nse": 0.0, "NSE": null, "VIVTOT": 0.0, "GRAPROES": 0.0, "_ent": "26", "_mun": "055", "_loc": "0065"}, "geometry": {"type": "Polygon", "coordinates": [[[-114.92536, 32.13466], [-114.92621, 32.13534], [-114.92583, 32.13567], [-114.92499, 32.13499], [-114.92536, 32.13466]]]}}, {"id": "2076019", "type": "Feature", "properties": {"id": "2076019", "CVEGEO": "260550065143A055", "POBTOT": 0.0, "score_nse": 0.0, "NSE": null, "VIVTOT": 0.0, "GRAPROES": 0.0, "_ent": "26", "_mun": "055", "_loc": "0065"}, "geometry": {"type": "Polygon", "coordinates": [[[-114.92151, 32.13006], [-114.92245, 32.13082], [-114.92165, 32.13152], [-114.92071, 32.13075], [-114.92151, 32.13006]]]}}, {"id": "2076020", "type": "Feature", "properties": {"id": "2076020", "CVEGEO": "260550065143A054", "POBTOT": 0.0, "score_nse": 0.0, "NSE": null, "VIVTOT": 0.0, "GRAPROES": 0.0, "_ent": "26", "_mun": "055", "_loc": "0065"}, "geometry": {"type": "Polygon", "coordinates": [[[-114.92632, 32.13754], [-114.92592, 32.13721], [-114.92628, 32.13689], [-114.92668, 32.13723], [-114.92632, 32.13754]]]}}, {"id": "2076021", "type": "Feature", "properties": {"id": "2076021", "CVEGEO": "260550065143A053", "POBTOT": 0.0, "score_nse": 0.0, "NSE": null, "VIVTOT": 0.0, "GRAPROES": 0.0, "_ent": "26", "_mun": "055", "_loc": "0065"}, "geometry": {"type": "Polygon", "coordinates": [[[-114.92769, 32.13644], [-114.92724, 32.13606], [-114.92758, 32.13575], [-114.92806, 32.13616], [-114.92769, 32.13644]]]}}, {"id": "2076022", "type": "Feature", "properties": {"id": "2076022", "CVEGEO": "260550065143A052", "POBTOT": 0.0, "score_nse": 0.0, "NSE": null, "VIVTOT": 0.0, "GRAPROES": 0.0, "_ent": "26", "_mun": "055", "_loc": "0065"}, "geometry": {"type": "Polygon", "coordinates": [[[-114.92852, 32.13563], [-114.92811, 32.1353], [-114.9285, 32.13496], [-114.92891, 32.13529], [-114.92852, 32.13563]]]}}, {"id": "2076023", "type": "Feature", "properties": {"id": "2076023", "CVEGEO": "260550065143A046", "POBTOT": 0.0, "score_nse": 0.0, "NSE": null, "VIVTOT": 0.0, "GRAPROES": 0.0, "_ent": "26", "_mun": "055", "_loc": "0065"}, "geometry": {"type": "Polygon", "coordinates": [[[-114.92406, 32.13734], [-114.92486, 32.138], [-114.92446, 32.13834], [-114.92366, 32.13769], [-114.92406, 32.13734]]]}}, {"id": "2076024", "type": "Feature", "properties": {"id": "2076024", "CVEGEO": "260550065143A045", "POBTOT": 0.0, "score_nse": 0.0, "NSE": null, "VIVTOT": 0.0, "GRAPROES": 0.0, "_ent": "26", "_mun": "055", "_loc": "0065"}, "geometry": {"type": "Polygon", "coordinates": [[[-114.92494, 32.13806], [-114.92535, 32.13839], [-114.92495, 32.13873], [-114.92454, 32.1384], [-114.92494, 32.13806]]]}}, {"id": "2076025", "type": "Feature", "properties": {"id": "2076025", "CVEGEO": "260550065143A044", "POBTOT": 0.0, "score_nse": 0.0, "NSE": null, "VIVTOT": 0.0, "GRAPROES": 0.0, "_ent": "26", "_mun": "055", "_loc": "0065"}, "geometry": {"type": "Polygon", "coordinates": [[[-114.92723, 32.13458], [-114.92762, 32.13424], [-114.92843, 32.1349], [-114.92803, 32.13524], [-114.92723, 32.13458]]]}}, {"id": "2076026", "type": "Feature", "properties": {"id": "2076026", "CVEGEO": "260550065143A043", "POBTOT": 0.0, "score_nse": 0.0, "NSE": null, "VIVTOT": 0.0, "GRAPROES": 0.0, "_ent": "26", "_mun": "055", "_loc": "0065"}, "geometry": {"type": "Polygon", "coordinates": [[[-114.92631, 32.13384], [-114.9267, 32.1335], [-114.92754, 32.13418], [-114.92715, 32.13452], [-114.92631, 32.13384]]]}}, {"id": "2076027", "type": "Feature", "properties": {"id": "2076027", "CVEGEO": "260550065143A042", "POBTOT": 0.0, "score_nse": 0.0, "NSE": null, "VIVTOT": 0.0, "GRAPROES": 0.0, "_ent": "26", "_mun": "055", "_loc": "0065"}, "geometry": {"type": "Polygon", "coordinates": [[[-114.92537, 32.13307], [-114.92576, 32.13273], [-114.92663, 32.13343], [-114.92623, 32.13377], [-114.92537, 32.13307]]]}}, {"id": "2076028", "type": "Feature", "properties": {"id": "2076028", "CVEGEO": "260550065143A041", "POBTOT": 0.0, "score_nse": 0.0, "NSE": null, "VIVTOT": 0.0, "GRAPROES": 0.0, "_ent": "26", "_mun": "055", "_loc": "0065"}, "geometry": {"type": "Polygon", "coordinates": [[[-114.92487, 32.13266], [-114.92526, 32.13232], [-114.92569, 32.13267], [-114.92529, 32.13301], [-114.92487, 32.13266]]]}}, {"id": "2076029", "type": "Feature", "properties": {"id": "2076029", "CVEGEO": "260550065143A039", "POBTOT": 0.0, "score_nse": 0.0, "NSE": null, "VIVTOT": 0.0, "GRAPROES": 0.0, "_ent": "26", "_mun": "055", "_loc": "0065"}, "geometry": {"type": "Polygon", "coordinates": [[[-114.9221, 32.13125], [-114.92293, 32.13193], [-114.92256, 32.13226], [-114.92173, 32.13158], [-114.9221, 32.13125]]]}}, {"id": "2076030", "type": "Feature", "properties": {"id": "2076030", "CVEGEO": "260550065143A038", "POBTOT": 0.0, "score_nse": 0.0, "NSE": null, "VIVTOT": 0.0, "GRAPROES": 0.0, "_ent": "26", "_mun": "055", "_loc": "0065"}, "geometry": {"type": "Polygon", "coordinates": [[[-114.92165, 32.13164], [-114.92249, 32.13232], [-114.92211, 32.13265], [-114.92127, 32.13197], [-114.92165, 32.13164]]]}}, {"id": "2076031", "type": "Feature", "properties": {"id": "2076031", "CVEGEO": "260550065143A037", "POBTOT": 0.0, "score_nse": 0.0, "NSE": null, "VIVTOT": 0.0, "GRAPROES": 0.0, "_ent": "26", "_mun": "055", "_loc": "0065"}, "geometry": {"type": "Polygon", "coordinates": [[[-114.9212, 32.13203], [-114.92204, 32.13271], [-114.92167, 32.13303], [-114.92083, 32.13235], [-114.9212, 32.13203]]]}}, {"id": "2076032", "type": "Feature", "properties": {"id": "2076032", "CVEGEO": "260550065143A036", "POBTOT": 0.0, "score_nse": 0.0, "NSE": null, "VIVTOT": 0.0, "GRAPROES": 0.0, "_ent": "26", "_mun": "055", "_loc": "0065"}, "geometry": {"type": "Polygon", "coordinates": [[[-114.92076, 32.13242], [-114.9216, 32.13309], [-114.92124, 32.13341], [-114.9204, 32.13273], [-114.92076, 32.13242]]]}}, {"id": "2076033", "type": "Feature", "properties": {"id": "2076033", "CVEGEO": "260550065143A034", "POBTOT": 0.0, "score_nse": 0.0, "NSE": null, "VIVTOT": 0.0, "GRAPROES": 0.0, "_ent": "26", "_mun": "055", "_loc": "0065"}, "geometry": {"type": "Polygon", "coordinates": [[[-114.91989, 32.13318], [-114.92072, 32.13385], [-114.92033, 32.13419], [-114.9195, 32.13351], [-114.91989, 32.13318]]]}}, {"id": "2076034", "type": "Feature", "properties": {"id": "2076034", "CVEGEO": "260550065143A033", "POBTOT": 0.0, "score_nse": 0.0, "NSE": null, "VIVTOT": 0.0, "GRAPROES": 0.0, "_ent": "26", "_mun": "055", "_loc": "0065"}, "geometry": {"type": "Polygon", "coordinates": [[[-114.9208, 32.13392], [-114.92165, 32.13461], [-114.92126, 32.13495], [-114.92041, 32.13425], [-114.9208, 32.13392]]]}}, {"id": "2076035", "type": "Feature", "properties": {"id": "2076035", "CVEGEO": "260550065143A032", "POBTOT": 0.0, "score_nse": 0.0, "NSE": null, "VIVTOT": 0.0, "GRAPROES": 0.0, "_ent": "26", "_mun": "055", "_loc": "0065"}, "geometry": {"type": "Polygon", "coordinates": [[[-114.92173, 32.13467], [-114.92258, 32.13537], [-114.92219, 32.1357], [-114.92134, 32.13501], [-114.92173, 32.13467]]]}}, {"id": "2076036", "type": "Feature", "properties": {"id": "2076036", "CVEGEO": "260550065143A027", "POBTOT": 0.0, "score_nse": 0.0, "NSE": null, "VIVTOT": 0.0, "GRAPROES": 0.0, "_ent": "26", "_mun": "055", "_loc": "0065"}, "geometry": {"type": "Polygon", "coordinates": [[[-114.92715, 32.13465], [-114.92796, 32.1353], [-114.92761, 32.13561], [-114.9268, 32.13495], [-114.92715, 32.13465]]]}}, {"id": "2076037", "type": "Feature", "properties": {"id": "2076037", "CVEGEO": "260550065143A026", "POBTOT": 0.0, "score_nse": 0.0, "NSE": null, "VIVTOT": 0.0, "GRAPROES": 0.0, "_ent": "26", "_mun": "055", "_loc": "0065"}, "geometry": {"type": "Polygon", "coordinates": [[[-114.92624, 32.1339], [-114.92708, 32.13458], [-114.92673, 32.13489], [-114.92588, 32.13421], [-114.92624, 32.1339]]]}}, {"id": "2076038", "type": "Feature", "properties": {"id": "2076038", "CVEGEO": "260550065143A025", "POBTOT": 0.0, "score_nse": 0.0, "NSE": null, "VIVTOT": 0.0, "GRAPROES": 0.0, "_ent": "26", "_mun": "055", "_loc": "0065"}, "geometry": {"type": "Polygon", "coordinates": [[[-114.9253, 32.13313], [-114.92616, 32.13384], [-114.92581, 32.13415], [-114.92494, 32.13344], [-114.9253, 32.13313]]]}}, {"id": "2076039", "type": "Feature", "properties": {"id": "2076039", "CVEGEO": "260550065143A024", "POBTOT": 0.0, "score_nse": 0.0, "NSE": null, "VIVTOT": 0.0, "GRAPROES": 0.0, "_ent": "26", "_mun": "055", "_loc": "0065"}, "geometry": {"type": "Polygon", "coordinates": [[[-114.92344, 32.13162], [-114.92429, 32.13232], [-114.92394, 32.13262], [-114.92308, 32.13193], [-114.92344, 32.13162]]]}}, {"id": "2076040", "type": "Feature", "properties": {"id": "2076040", "CVEGEO": "260550065143A023", "POBTOT": 0.0, "score_nse": 0.0, "NSE": null, "VIVTOT": 0.0, "GRAPROES": 0.0, "_ent": "26", "_mun": "055", "_loc": "0065"}, "geometry": {"type": "Polygon", "coordinates": [[[-114.92301, 32.13199], [-114.92386, 32.13269], [-114.92349, 32.13301], [-114.92264, 32.13232], [-114.92301, 32.13199]]]}}, {"id": "2076041", "type": "Feature", "properties": {"id": "2076041", "CVEGEO": "260550065143A022", "POBTOT": 0.0, "score_nse": 0.0, "NSE": null, "VIVTOT": 0.0, "GRAPROES": 0.0, "_ent": "26", "_mun": "055", "_loc": "0065"}, "geometry": {"type": "Polygon", "coordinates": [[[-114.92256, 32.13238], [-114.92342, 32.13308], [-114.92304, 32.13341], [-114.92219, 32.13271], [-114.92256, 32.13238]]]}}, {"id": "2076042", "type": "Feature", "properties": {"id": "2076042", "CVEGEO": "260550065143A013", "POBTOT": 0.0, "score_nse": 0.0, "NSE": null, "VIVTOT": 0.0, "GRAPROES": 0.0, "_ent": "26", "_mun": "055", "_loc": "0065"}, "geometry": {"type": "Polygon", "coordinates": [[[-114.92628, 32.1354], [-114.92709, 32.13606], [-114.92671, 32.13639], [-114.92589, 32.13574], [-114.92628, 32.1354]]]}}, {"id": "2076043", "type": "Feature", "properties": {"id": "2076043", "CVEGEO": "260550065143A012", "POBTOT": 0.0, "score_nse": 0.0, "NSE": null, "VIVTOT": 0.0, "GRAPROES": 0.0, "_ent": "26", "_mun": "055", "_loc": "0065"}, "geometry": {"type": "Polygon", "coordinates": [[[-114.92673, 32.13502], [-114.92754, 32.13567], [-114.92716, 32.136], [-114.92636, 32.13534], [-114.92673, 32.13502]]]}}, {"id": "2076044", "type": "Feature", "properties": {"id": "2076044", "CVEGEO": "260550065143A011", "POBTOT": 0.0, "score_nse": 0.0, "NSE": null, "VIVTOT": 0.0, "GRAPROES": 0.0, "_ent": "26", "_mun": "055", "_loc": "0065"}, "geometry": {"type": "Polygon", "coordinates": [[[-114.92581, 32.13427], [-114.92665, 32.13495], [-114.92628, 32.13528], [-114.92544, 32.13459], [-114.92581, 32.13427]]]}}, {"id": "2076045", "type": "Feature", "properties": {"id": "2076045", "CVEGEO": "260550065143A010", "POBTOT": 0.0, "score_nse": 0.0, "NSE": null, "VIVTOT": 0.0, "GRAPROES": 0.0, "_ent": "26", "_mun": "055", "_loc": "0065"}, "geometry": {"type": "Polygon", "coordinates": [[[-114.92487, 32.13351], [-114.92574, 32.13421], [-114.92536, 32.13453], [-114.9245, 32.13383], [-114.92487, 32.13351]]]}}, {"id": "2076046", "type": "Feature", "properties": {"id": "2076046", "CVEGEO": "260550065143A009", "POBTOT": 0.0, "score_nse": 0.0, "NSE": null, "VIVTOT": 0.0, "GRAPROES": 0.0, "_ent": "26", "_mun": "055", "_loc": "0065"}, "geometry": {"type": "Polygon", "coordinates": [[[-114.92437, 32.13238], [-114.92522, 32.13307], [-114.92442, 32.13377], [-114.92357, 32.13307], [-114.92437, 32.13238]]]}}, {"id": "2076047", "type": "Feature", "properties": {"id": "2076047", "CVEGEO": "260550065143A002", "POBTOT": 0.0, "score_nse": 0.0, "NSE": null, "VIVTOT": 0.0, "GRAPROES": 0.0, "_ent": "26", "_mun": "055", "_loc": "0065"}, "geometry": {"type": "Polygon", "coordinates": [[[-114.92442, 32.13389], [-114.92529, 32.1346], [-114.92491, 32.13493], [-114.92405, 32.13422], [-114.92442, 32.13389]]]}}, {"id": "2076048", "type": "Feature", "properties": {"id": "2076048", "CVEGEO": "260550065143A001", "POBTOT": 0.0, "score_nse": 0.0, "NSE": null, "VIVTOT": 0.0, "GRAPROES": 0.0, "_ent": "26", "_mun": "055", "_loc": "0065"}, "geometry": {"type": "Polygon", "coordinates": [[[-114.92397, 32.13429], [-114.92484, 32.13499], [-114.92447, 32.13531], [-114.92361, 32.1346], [-114.92397, 32.13429]]]}}, {"id": "2077061", "type": "Feature", "properties": {"id": "2077061", "CVEGEO": "260550065143A008", "POBTOT": 0.0, "score_nse": 0.0, "NSE": null, "VIVTOT": 0.0, "GRAPROES": 0.0, "_ent": "26", "_mun": "055", "_loc": "0065"}, "geometry": {"type": "Polygon", "coordinates": [[[-114.92349, 32.13314], [-114.92435, 32.13383], [-114.92353, 32.13454], [-114.92268, 32.13385], [-114.92349, 32.13314]]]}}, {"id": "2077062", "type": "Feature", "properties": {"id": "2077062", "CVEGEO": "260550065143A007", "POBTOT": 0.0, "score_nse": 0.0, "NSE": null, "VIVTOT": 0.0, "GRAPROES": 0.0, "_ent": "26", "_mun": "055", "_loc": "0065"}, "geometry": {"type": "Polygon", "coordinates": [[[-114.9226, 32.13391], [-114.92346, 32.13461], [-114.92266, 32.1353], [-114.9218, 32.13461], [-114.9226, 32.13391]]]}}, {"id": "2077299", "type": "Feature", "properties": {"id": "2077299", "CVEGEO": "260550065143A051", "POBTOT": 0.0, "score_nse": 0.0, "NSE": null, "VIVTOT": 0.0, "GRAPROES": 0.0, "_ent": "26", "_mun": "055", "_loc": "0065"}, "geometry": {"type": "Polygon", "coordinates": [[[-114.91943, 32.13358], [-114.92026, 32.13426], [-114.91986, 32.1346], [-114.91903, 32.13392], [-114.91943, 32.13358]]]}}, {"id": "2077300", "type": "Feature", "properties": {"id": "2077300", "CVEGEO": "260550065143A050", "POBTOT": 0.0, "score_nse": 0.0, "NSE": null, "VIVTOT": 0.0, "GRAPROES": 0.0, "_ent": "26", "_mun": "055", "_loc": "0065"}, "geometry": {"type": "Polygon", "coordinates": [[[-114.92034, 32.13432], [-114.92119, 32.13501], [-114.92079, 32.13536], [-114.91994, 32.13466], [-114.92034, 32.13432]]]}}, {"id": "2077301", "type": "Feature", "properties": {"id": "2077301", "CVEGEO": "260550065143A049", "POBTOT": 0.0, "score_nse": 0.0, "NSE": null, "VIVTOT": 0.0, "GRAPROES": 0.0, "_ent": "26", "_mun": "055", "_loc": "0065"}, "geometry": {"type": "Polygon", "coordinates": [[[-114.92127, 32.13507], [-114.92212, 32.13577], [-114.92172, 32.13611], [-114.92087, 32.13542], [-114.92127, 32.13507]]]}}, {"id": "2077303", "type": "Feature", "properties": {"id": "2077303", "CVEGEO": "260550065143A031", "POBTOT": 0.0, "score_nse": 0.0, "NSE": null, "VIVTOT": 0.0, "GRAPROES": 0.0, "_ent": "26", "_mun": "055", "_loc": "0065"}, "geometry": {"type": "Polygon", "coordinates": [[[-114.92266, 32.13543], [-114.92353, 32.13613], [-114.92314, 32.13647], [-114.92227, 32.13577], [-114.92266, 32.13543]]]}}, {"id": "2077306", "type": "Feature", "properties": {"id": "2077306", "CVEGEO": "260550065143A021", "POBTOT": 0.0, "score_nse": 0.0, "NSE": null, "VIVTOT": 0.0, "GRAPROES": 0.0, "_ent": "26", "_mun": "055", "_loc": "0065"}, "geometry": {"type": "Polygon", "coordinates": [[[-114.92211, 32.13277], [-114.92297, 32.13347], [-114.9226, 32.13379], [-114.92175, 32.13309], [-114.92211, 32.13277]]]}}, {"id": "2081638", "type": "Feature", "properties": {"id": "2081638", "CVEGEO": "260550065143A018", "POBTOT": 0.0, "score_nse": 0.0, "NSE": null, "VIVTOT": 0.0, "GRAPROES": 0.0, "_ent": "26", "_mun": "055", "_loc": "0065"}, "geometry": {"type": "Polygon", "coordinates": [[[-114.9231, 32.13504], [-114.92397, 32.13575], [-114.9236, 32.13607], [-114.92273, 32.13536], [-114.9231, 32.13504]]]}}, {"id": "2081639", "type": "Feature", "properties": {"id": "2081639", "CVEGEO": "260550065143A019", "POBTOT": 0.0, "score_nse": 0.0, "NSE": null, "VIVTOT": 0.0, "GRAPROES": 0.0, "_ent": "26", "_mun": "055", "_loc": "0065"}, "geometry": {"type": "Polygon", "coordinates": [[[-114.92124, 32.13353], [-114.92209, 32.13423], [-114.92173, 32.13455], [-114.92087, 32.13385], [-114.92124, 32.13353]]]}}, {"id": "2081640", "type": "Feature", "properties": {"id": "2081640", "CVEGEO": "260550065143A020", "POBTOT": 0.0, "score_nse": 0.0, "NSE": null, "VIVTOT": 0.0, "GRAPROES": 0.0, "_ent": "26", "_mun": "055", "_loc": "0065"}, "geometry": {"type": "Polygon", "coordinates": [[[-114.92167, 32.13316], [-114.92253, 32.13385], [-114.92217, 32.13416], [-114.92131, 32.13347], [-114.92167, 32.13316]]]}}, {"id": "2083689", "type": "Feature", "properties": {"id": "2083689", "CVEGEO": "260550065143A067", "POBTOT": 0.0, "score_nse": 0.0, "NSE": null, "VIVTOT": 0.0, "GRAPROES": 0.0, "_ent": "26", "_mun": "055", "_loc": "0065"}, "geometry": {"type": "Polygon", "coordinates": [[[-114.92766, 32.13721], [-114.92784, 32.13705], [-114.92807, 32.13724], [-114.92789, 32.13741], [-114.92766, 32.13721]]]}}, {"id": "2083690", "type": "Feature", "properties": {"id": "2083690", "CVEGEO": "260550065143A068", "POBTOT": 0.0, "score_nse": 0.0, "NSE": null, "VIVTOT": 0.0, "GRAPROES": 0.0, "_ent": "26", "_mun": "055", "_loc": "0065"}, "geometry": {"type": "Polygon", "coordinates": [[[-114.92726, 32.13763], [-114.92762, 32.13732], [-114.9278, 32.13748], [-114.92743, 32.13778], [-114.92726, 32.13763]]]}}, {"id": "2083691", "type": "Feature", "properties": {"id": "2083691", "CVEGEO": "260550065143A071", "POBTOT": 0.0, "score_nse": 0.0, "NSE": null, "VIVTOT": 0.0, "GRAPROES": 0.0, "_ent": "26", "_mun": "055", "_loc": "0065"}, "geometry": {"type": "Polygon", "coordinates": [[[-114.92754, 32.13784], [-114.92819, 32.13725], [-114.92843, 32.13752], [-114.92778, 32.13809], [-114.92754, 32.13784]]]}}, {"id": "2083692", "type": "Feature", "properties": {"id": "2083692", "CVEGEO": "260550065143A069", "POBTOT": 0.0, "score_nse": 0.0, "NSE": null, "VIVTOT": 0.0, "GRAPROES": 0.0, "_ent": "26", "_mun": "055", "_loc": "0065"}, "geometry": {"type": "Polygon", "coordinates": [[[-114.9269, 32.13787], [-114.92717, 32.13764], [-114.92735, 32.13783], [-114.92708, 32.13803], [-114.9269, 32.13787]]]}}, {"id": "2083693", "type": "Feature", "properties": {"id": "2083693", "CVEGEO": "260550065143A070", "POBTOT": 0.0, "score_nse": 0.0, "NSE": null, "VIVTOT": 0.0, "GRAPROES": 0.0, "_ent": "26", "_mun": "055", "_loc": "0065"}, "geometry": {"type": "Polygon", "coordinates": [[[-114.92652, 32.13821], [-114.92681, 32.13796], [-114.92703, 32.13815], [-114.92674, 32.13839], [-114.92652, 32.13821]]]}}, {"id": "2083694", "type": "Feature", "properties": {"id": "2083694", "CVEGEO": "260550065143A075", "POBTOT": 0.0, "score_nse": 0.0, "NSE": null, "VIVTOT": 0.0, "GRAPROES": 0.0, "_ent": "26", "_mun": "055", "_loc": "0065"}, "geometry": {"type": "Polygon", "coordinates": [[[-114.9266, 32.13796], [-114.92628, 32.13826], [-114.92594, 32.138], [-114.92626, 32.13769], [-114.9266, 32.13796]]]}}, {"id": "2083695", "type": "Feature", "properties": {"id": "2083695", "CVEGEO": "260550065143A074", "POBTOT": 0.0, "score_nse": 0.0, "NSE": null, "VIVTOT": 0.0, "GRAPROES": 0.0, "_ent": "26", "_mun": "055", "_loc": "0065"}, "geometry": {"type": "Polygon", "coordinates": [[[-114.92685, 32.13957], [-114.92728, 32.13919], [-114.92767, 32.13959], [-114.92724, 32.13994], [-114.92685, 32.13957]]]}}, {"id": "2083696", "type": "Feature", "properties": {"id": "2083696", "CVEGEO": "260550065143A073", "POBTOT": 0.0, "score_nse": 0.0, "NSE": null, "VIVTOT": 0.0, "GRAPROES": 0.0, "_ent": "26", "_mun": "055", "_loc": "0065"}, "geometry": {"type": "Polygon", "coordinates": [[[-114.92691, 32.13892], [-114.92761, 32.1383], [-114.92786, 32.13851], [-114.92716, 32.13914], [-114.92691, 32.13892]]]}}, {"id": "2083697", "type": "Feature", "properties": {"id": "2083697", "CVEGEO": "260550065143A072", "POBTOT": 0.0, "score_nse": 0.0, "NSE": null, "VIVTOT": 0.0, "GRAPROES": 0.0, "_ent": "26", "_mun": "055", "_loc": "0065"}, "geometry": {"type": "Polygon", "coordinates": [[[-114.92662, 32.13864], [-114.9273, 32.13806], [-114.92756, 32.13828], [-114.92687, 32.13887], [-114.92662, 32.13864]]]}}, {"id": "2083698", "type": "Feature", "properties": {"id": "2083698", "CVEGEO": "260550065143A057", "POBTOT": 0.0, "score_nse": 0.0, "NSE": null, "VIVTOT": 0.0, "GRAPROES": 0.0, "_ent": "26", "_mun": "055", "_loc": "0065"}, "geometry": {"type": "Polygon", "coordinates": [[[-114.92794, 32.13686], [-114.92761, 32.13714], [-114.92681, 32.13646], [-114.92715, 32.13613], [-114.92794, 32.13686]]]}}, {"id": "2083699", "type": "Feature", "properties": {"id": "2083699", "CVEGEO": "260550065143A076", "POBTOT": 0.0, "score_nse": 0.0, "NSE": null, "VIVTOT": 0.0, "GRAPROES": 0.0, "_ent": "26", "_mun": "055", "_loc": "0065"}, "geometry": {"type": "Polygon", "coordinates": [[[-114.9271, 32.1337], [-114.92677, 32.13343], [-114.92707, 32.13316], [-114.92739, 32.13345], [-114.9271, 32.1337]]]}}, {"id": "2083700", "type": "Feature", "properties": {"id": "2083700", "CVEGEO": "260550065143A035", "POBTOT": 0.0, "score_nse": 0.0, "NSE": null, "VIVTOT": 0.0, "GRAPROES": 0.0, "_ent": "26", "_mun": "055", "_loc": "0065"}, "geometry": {"type": "Polygon", "coordinates": [[[-114.92028, 32.13281], [-114.92116, 32.13347], [-114.9208, 32.13379], [-114.91992, 32.13309], [-114.92028, 32.13281]]]}}, {"id": "2083701", "type": "Feature", "properties": {"id": "2083701", "CVEGEO": "260550065143A061", "POBTOT": 0.0, "score_nse": 0.0, "NSE": null, "VIVTOT": 0.0, "GRAPROES": 0.0, "_ent": "26", "_mun": "055", "_loc": "0065"}, "geometry": {"type": "Polygon", "coordinates": [[[-114.92025, 32.13214], [-114.92057, 32.13237], [-114.92024, 32.13268], [-114.91992, 32.13243], [-114.92025, 32.13214]]]}}, {"id": "2083702", "type": "Feature", "properties": {"id": "2083702", "CVEGEO": "260550065143A062", "POBTOT": 0.0, "score_nse": 0.0, "NSE": null, "VIVTOT": 0.0, "GRAPROES": 0.0, "_ent": "26", "_mun": "055", "_loc": "0065"}, "geometry": {"type": "Polygon", "coordinates": [[[-114.92073, 32.13166], [-114.92107, 32.13194], [-114.92073, 32.13226], [-114.92039, 32.132], [-114.92073, 32.13166]]]}}, {"id": "2084003", "type": "Feature", "properties": {"id": "2084003", "CVEGEO": "260550065143A078", "POBTOT": 0.0, "score_nse": 0.0, "NSE": null, "VIVTOT": 0.0, "GRAPROES": 0.0, "_ent": "26", "_mun": "055", "_loc": "0065"}, "geometry": {"type": "Polygon", "coordinates": [[[-114.92154, 32.13155], [-114.92116, 32.1319], [-114.92079, 32.13162], [-114.92114, 32.13128], [-114.92154, 32.13155]]]}}]}