{"type": "FeatureCollection", "features": [{"id": "1216590", "type": "Feature", "properties": {"id": "1216590", "CVEGEO": "1600600030109001", "POBTOT": 0.0, "score_nse": 0.0, "NSE": null, "VIVTOT": 0.0, "GRAPROES": 0.0, "_ent": "16", "_mun": "006", "_loc": "0003"}, "geometry": {"type": "Polygon", "coordinates": [[[-102.5018, 18.85059], [-102.50119, 18.85071], [-102.50085, 18.85015], [-102.50178, 18.85007], [-102.5018, 18.85059]]]}}, {"id": "1216591", "type": "Feature", "properties": {"id": "1216591", "CVEGEO": "1600600030109002", "POBTOT": 0.0, "score_nse": 0.0, "NSE": null, "VIVTOT": 0.0, "GRAPROES": 0.0, "_ent": "16", "_mun": "006", "_loc": "0003"}, "geometry": {"type": "Polygon", "coordinates": [[[-102.5019, 18.85003], [-102.5013, 18.85002], [-102.50099, 18.8497], [-102.50122, 18.8492], [-102.50212, 18.84968], [-102.5019, 18.85003]]]}}, {"id": "1216592", "type": "Feature", "properties": {"id": "1216592", "CVEGEO": "1600600030109003", "POBTOT": 0.0, "score_nse": 0.0, "NSE": null, "VIVTOT": 0.0, "GRAPROES": 0.0, "_ent": "16", "_mun": "006", "_loc": "0003"}, "geometry": {"type": "Polygon", "coordinates": [[[-102.50096, 18.84968], [-102.50022, 18.84941], [-102.5001, 18.8492], [-102.50028, 18.84881], [-102.50117, 18.84917], [-102.50096, 18.84968]]]}}, {"id": "1216593", "type": "Feature", "properties": {"id": "1216593", "CVEGEO": "1600600030109004", "POBTOT": 0.0, "score_nse": 0.0, "NSE": null, "VIVTOT": 0.0, "GRAPROES": 0.0, "_ent": "16", "_mun": "006", "_loc": "0003"}, "geometry": {"type": "Polygon", "coordinates": [[[-102.50263, 18.84941], [-102.50195, 18.84949], [-102.50155, 18.84923], [-102.50261, 18.8491], [-102.50263, 18.84941]]]}}, {"id": "1216594", "type": "Feature", "properties": {"id": "1216594", "CVEGEO": "1600600030109005", "POBTOT": 0.0, "score_nse": 0.0, "NSE": null, "VIVTOT": 0.0, "GRAPROES": 0.0, "_ent": "16", "_mun": "006", "_loc": "0003"}, "geometry": {"type": "Polygon", "coordinates": [[[-102.50407, 18.84885], [-102.50273, 18.849], [-102.50272, 18.8486], [-102.50405, 18.84847], [-102.50407, 18.84885]]]}}, {"id": "1216595", "type": "Feature", "properties": {"id": "1216595", "CVEGEO": "1600600030109006", "POBTOT": 0.0, "score_nse": 0.0, "NSE": null, "VIVTOT": 0.0, "GRAPROES": 0.0, "_ent": "16", "_mun": "006", "_loc": "0003"}, "geometry": {"type": "Polygon", "coordinates": [[[-102.50407, 18.84929], [-102.50268, 18.84941], [-102.50268, 18.84909], [-102.50406, 18.84893], [-102.50407, 18.84929]]]}}, {"id": "1216875", "type": "Feature", "properties": {"id": "1216875", "CVEGEO": "1600600030109012", "POBTOT": 0.0, "score_nse": 0.0, "NSE": null, "VIVTOT": 0.0, "GRAPROES": 0.0, "_ent": "16", "_mun": "006", "_loc": "0003"}, "geometry": {"type": "Polygon", "coordinates": [[[-102.50344, 18.84845], [-102.5027, 18.84852], [-102.50268, 18.84814], [-102.50347, 18.84806], [-102.50344, 18.84845]]]}}, {"id": "1216876", "type": "Feature", "properties": {"id": "1216876", "CVEGEO": "1600600030109007", "POBTOT": 0.0, "score_nse": 0.0, "NSE": null, "VIVTOT": 0.0, "GRAPROES": 0.0, "_ent": "16", "_mun": "006", "_loc": "0003"}, "geometry": {"type": "Polygon", "coordinates": [[[-102.50101, 18.8498], [-102.50082, 18.85003], [-102.50072, 18.85018], [-102.50059, 18.85], [-102.5007, 18.84965], [-102.50101, 18.8498]]]}}, {"id": "1216877", "type": "Feature", "properties": {"id": "1216877", "CVEGEO": "1600600030109011", "POBTOT": 0.0, "score_nse": 0.0, "NSE": null, "VIVTOT": 0.0, "GRAPROES": 0.0, "_ent": "16", "_mun": "006", "_loc": "0003"}, "geometry": {"type": "Polygon", "coordinates": [[[-102.50256, 18.84854], [-102.50209, 18.84857], [-102.50127, 18.84856], [-102.50186, 18.8482], [-102.50253, 18.84817], [-102.50256, 18.84854]]]}}, {"id": "1216878", "type": "Feature", "properties": {"id": "1216878", "CVEGEO": "1600600030109010", "POBTOT": 0.0, "score_nse": 0.0, "NSE": null, "VIVTOT": 0.0, "GRAPROES": 0.0, "_ent": "16", "_mun": "006", "_loc": "0003"}, "geometry": {"type": "Polygon", "coordinates": [[[-102.50206, 18.84867], [-102.50203, 18.84908], [-102.50118, 18.84909], [-102.50077, 18.84893], [-102.50122, 18.84863], [-102.50206, 18.84867]]]}}, {"id": "1216879", "type": "Feature", "properties": {"id": "1216879", "CVEGEO": "1600600030109009", "POBTOT": 0.0, "score_nse": 0.0, "NSE": null, "VIVTOT": 0.0, "GRAPROES": 0.0, "_ent": "16", "_mun": "006", "_loc": "0003"}, "geometry": {"type": "Polygon", "coordinates": [[[-102.50261, 18.84902], [-102.50216, 18.84907], [-102.50218, 18.84865], [-102.50258, 18.84862], [-102.50261, 18.84902]]]}}, {"id": "1216880", "type": "Feature", "properties": {"id": "1216880", "CVEGEO": "1600600030109014", "POBTOT": 0.0, "score_nse": 0.0, "NSE": null, "VIVTOT": 0.0, "GRAPROES": 0.0, "_ent": "16", "_mun": "006", "_loc": "0003"}, "geometry": {"type": "Polygon", "coordinates": [[[-102.50021, 18.84877], [-102.50005, 18.84913], [-102.49978, 18.84914], [-102.4998, 18.84897], [-102.50021, 18.84877]]]}}, {"id": "1216881", "type": "Feature", "properties": {"id": "1216881", "CVEGEO": "1600600030109013", "POBTOT": 0.0, "score_nse": 0.0, "NSE": null, "VIVTOT": 0.0, "GRAPROES": 0.0, "_ent": "16", "_mun": "006", "_loc": "0003"}, "geometry": {"type": "Polygon", "coordinates": [[[-102.50004, 18.84919], [-102.49999, 18.84944], [-102.49948, 18.84942], [-102.49961, 18.84922], [-102.50004, 18.84919]]]}}, {"id": "1216882", "type": "Feature", "properties": {"id": "1216882", "CVEGEO": "1600600030109015", "POBTOT": 0.0, "score_nse": 0.0, "NSE": null, "VIVTOT": 0.0, "GRAPROES": 0.0, "_ent": "16", "_mun": "006", "_loc": "0003"}, "geometry": {"type": "Polygon", "coordinates": [[[-102.49942, 18.84953], [-102.49919, 18.84987], [-102.49864, 18.84994], [-102.49835, 18.84985], [-102.49828, 18.84951], [-102.49843, 18.84937], [-102.49892, 18.84936], [-102.49942, 18.84953]]]}}, {"id": "1216883", "type": "Feature", "properties": {"id": "1216883", "CVEGEO": "1600600030109016", "POBTOT": 0.0, "score_nse": 0.0, "NSE": null, "VIVTOT": 0.0, "GRAPROES": 0.0, "_ent": "16", "_mun": "006", "_loc": "0003"}, "geometry": {"type": "Polygon", "coordinates": [[[-102.5001, 18.85019], [-102.50039, 18.85082], [-102.50012, 18.85064], [-102.49954, 18.85061], [-102.4987, 18.85009], [-102.49931, 18.84997], [-102.4995, 18.84962], [-102.5, 18.84953], [-102.5001, 18.85019]]]}}, {"id": "1216884", "type": "Feature", "properties": {"id": "1216884", "CVEGEO": "1600600030109017", "POBTOT": 0.0, "score_nse": 0.0, "NSE": null, "VIVTOT": 0.0, "GRAPROES": 0.0, "_ent": "16", "_mun": "006", "_loc": "0003"}, "geometry": {"type": "Polygon", "coordinates": [[[-102.50093, 18.8528], [-102.49975, 18.85146], [-102.50001, 18.85107], [-102.49956, 18.8507], [-102.50043, 18.85094], [-102.50015, 18.85114], [-102.50015, 18.85137], [-102.50048, 18.85098], [-102.50068, 18.85165], [-102.50095, 18.85198], [-102.50093, 18.8528]]]}}, {"id": "1216885", "type": "Feature", "properties": {"id": "1216885", "CVEGEO": "1600600030109018", "POBTOT": 0.0, "score_nse": 0.0, "NSE": null, "VIVTOT": 0.0, "GRAPROES": 0.0, "_ent": "16", "_mun": "006", "_loc": "0003"}, "geometry": {"type": "Polygon", "coordinates": [[[-102.4999, 18.85111], [-102.49971, 18.8514], [-102.49952, 18.85089], [-102.4999, 18.85111]]]}}, {"id": "1216889", "type": "Feature", "properties": {"id": "1216889", "CVEGEO": "1600600030109008", "POBTOT": 0.0, "score_nse": 0.0, "NSE": null, "VIVTOT": 0.0, "GRAPROES": 0.0, "_ent": "16", "_mun": "006", "_loc": "0003"}, "geometry": {"type": "Polygon", "coordinates": [[[-102.50068, 18.85028], [-102.50057, 18.85088], [-102.5002, 18.85012], [-102.50013, 18.84949], [-102.50062, 18.84963], [-102.50053, 18.85], [-102.50068, 18.85028]]]}}]}