{"type": "FeatureCollection", "features": [{"id": "1611972", "type": "Feature", "properties": {"id": "1611972", "CVEGEO": "2033400670093006", "POBTOT": 0.0, "score_nse": 0.0, "NSE": null, "VIVTOT": 0.0, "GRAPROES": 0.0, "_ent": "20", "_mun": "334", "_loc": "0067"}, "geometry": {"type": "Polygon", "coordinates": [[[-97.70218, 16.09474], [-97.70245, 16.09421], [-97.7032, 16.09455], [-97.70296, 16.0951], [-97.70218, 16.09474]]]}}, {"id": "1612072", "type": "Feature", "properties": {"id": "1612072", "CVEGEO": "2033400670093003", "POBTOT": 0.0, "score_nse": 0.0, "NSE": null, "VIVTOT": 0.0, "GRAPROES": 0.0, "_ent": "20", "_mun": "334", "_loc": "0067"}, "geometry": {"type": "Polygon", "coordinates": [[[-97.70272, 16.09359], [-97.70214, 16.09335], [-97.70255, 16.09277], [-97.70306, 16.09303], [-97.70272, 16.09359]]]}}, {"id": "1612073", "type": "Feature", "properties": {"id": "1612073", "CVEGEO": "2033400670093004", "POBTOT": 0.0, "score_nse": 0.0, "NSE": null, "VIVTOT": 0.0, "GRAPROES": 0.0, "_ent": "20", "_mun": "334", "_loc": "0067"}, "geometry": {"type": "Polygon", "coordinates": [[[-97.70276, 16.09361], [-97.70311, 16.09305], [-97.70391, 16.09346], [-97.70361, 16.09394], [-97.70276, 16.09361]]]}}, {"id": "1612074", "type": "Feature", "properties": {"id": "1612074", "CVEGEO": "2033400670093013", "POBTOT": 0.0, "score_nse": 0.0, "NSE": null, "VIVTOT": 0.0, "GRAPROES": 0.0, "_ent": "20", "_mun": "334", "_loc": "0067"}, "geometry": {"type": "Polygon", "coordinates": [[[-97.70413, 16.09277], [-97.70433, 16.09223], [-97.70478, 16.09222], [-97.70435, 16.09285], [-97.70413, 16.09277]]]}}, {"id": "1612075", "type": "Feature", "properties": {"id": "1612075", "CVEGEO": "2033400670093011", "POBTOT": 0.0, "score_nse": 0.0, "NSE": null, "VIVTOT": 0.0, "GRAPROES": 0.0, "_ent": "20", "_mun": "334", "_loc": "0067"}, "geometry": {"type": "Polygon", "coordinates": [[[-97.70295, 16.09224], [-97.70333, 16.09177], [-97.7037, 16.09199], [-97.70342, 16.09245], [-97.70295, 16.09224]]]}}, {"id": "1612076", "type": "Feature", "properties": {"id": "1612076", "CVEGEO": "2033400670093012", "POBTOT": 0.0, "score_nse": 0.0, "NSE": null, "VIVTOT": 0.0, "GRAPROES": 0.0, "_ent": "20", "_mun": "334", "_loc": "0067"}, "geometry": {"type": "Polygon", "coordinates": [[[-97.70346, 16.09246], [-97.70375, 16.092], [-97.70426, 16.09224], [-97.70405, 16.09273], [-97.70346, 16.09246]]]}}, {"id": "1612077", "type": "Feature", "properties": {"id": "1612077", "CVEGEO": "2033400670093008", "POBTOT": 0.0, "score_nse": 0.0, "NSE": null, "VIVTOT": 0.0, "GRAPROES": 0.0, "_ent": "20", "_mun": "334", "_loc": "0067"}, "geometry": {"type": "Polygon", "coordinates": [[[-97.70257, 16.09271], [-97.70293, 16.09228], [-97.70339, 16.09249], [-97.70308, 16.09297], [-97.70257, 16.09271]]]}}, {"id": "1612078", "type": "Feature", "properties": {"id": "1612078", "CVEGEO": "2033400670093001", "POBTOT": 0.0, "score_nse": 0.0, "NSE": null, "VIVTOT": 0.0, "GRAPROES": 0.0, "_ent": "20", "_mun": "334", "_loc": "0067"}, "geometry": {"type": "Polygon", "coordinates": [[[-97.70246, 16.09416], [-97.70272, 16.09366], [-97.70359, 16.09398], [-97.70324, 16.0945], [-97.70246, 16.09416]]]}}, {"id": "1612079", "type": "Feature", "properties": {"id": "1612079", "CVEGEO": "2033400670093007", "POBTOT": 0.0, "score_nse": 0.0, "NSE": null, "VIVTOT": 0.0, "GRAPROES": 0.0, "_ent": "20", "_mun": "334", "_loc": "0067"}, "geometry": {"type": "Polygon", "coordinates": [[[-97.70123, 16.09512], [-97.7016, 16.09429], [-97.70239, 16.09422], [-97.70169, 16.09531], [-97.70123, 16.09512]]]}}, {"id": "1612080", "type": "Feature", "properties": {"id": "1612080", "CVEGEO": "2033400670093005", "POBTOT": 0.0, "score_nse": 0.0, "NSE": null, "VIVTOT": 0.0, "GRAPROES": 0.0, "_ent": "20", "_mun": "334", "_loc": "0067"}, "geometry": {"type": "Polygon", "coordinates": [[[-97.70337, 16.09175], [-97.7036, 16.09154], [-97.70423, 16.09188], [-97.70366, 16.09152], [-97.70426, 16.0909], [-97.70672, 16.09294], [-97.70572, 16.09358], [-97.70513, 16.09463], [-97.70365, 16.09397], [-97.70406, 16.09334], [-97.70501, 16.09391], [-97.70409, 16.09331], [-97.70436, 16.09292], [-97.70535, 16.09327], [-97.70439, 16.09287], [-97.70497, 16.09188], [-97.70466, 16.09216], [-97.7043, 16.09221], [-97.70426, 16.09204], [-97.70417, 16.09214], [-97.70337, 16.09175]]]}}, {"id": "1612153", "type": "Feature", "properties": {"id": "1612153", "CVEGEO": "2033400670093002", "POBTOT": 0.0, "score_nse": 0.0, "NSE": null, "VIVTOT": 0.0, "GRAPROES": 0.0, "_ent": "20", "_mun": "334", "_loc": "0067"}, "geometry": {"type": "Polygon", "coordinates": [[[-97.7024, 16.09418], [-97.70162, 16.09424], [-97.70211, 16.0934], [-97.70268, 16.09364], [-97.7024, 16.09418]]]}}, {"id": "1612154", "type": "Feature", "properties": {"id": "1612154", "CVEGEO": "2033400670093009", "POBTOT": 0.0, "score_nse": 0.0, "NSE": null, "VIVTOT": 0.0, "GRAPROES": 0.0, "_ent": "20", "_mun": "334", "_loc": "0067"}, "geometry": {"type": "Polygon", "coordinates": [[[-97.70345, 16.09252], [-97.70429, 16.09291], [-97.70395, 16.09341], [-97.70314, 16.093], [-97.70345, 16.09252]]]}}, {"id": "1612155", "type": "Feature", "properties": {"id": "1612155", "CVEGEO": "2033400670093010", "POBTOT": 0.0, "score_nse": 0.0, "NSE": null, "VIVTOT": 0.0, "GRAPROES": 0.0, "_ent": "20", "_mun": "334", "_loc": "0067"}, "geometry": {"type": "Polygon", "coordinates": [[[-97.70174, 16.09535], [-97.70209, 16.09475], [-97.70291, 16.09516], [-97.7026, 16.09572], [-97.70174, 16.09535]]]}}, {"id": "1612408", "type": "Feature", "properties": {"id": "1612408", "CVEGEO": "2033400670093014", "POBTOT": 0.0, "score_nse": 0.0, "NSE": null, "VIVTOT": 0.0, "GRAPROES": 0.0, "_ent": "20", "_mun": "334", "_loc": "0067"}, "geometry": {"type": "Polygon", "coordinates": [[[-97.70509, 16.0947], [-97.70473, 16.09565], [-97.7035, 16.09531], [-97.70353, 16.09509], [-97.70345, 16.09529], [-97.70301, 16.09515], [-97.70325, 16.09457], [-97.70396, 16.09486], [-97.70329, 16.09452], [-97.70363, 16.09401], [-97.70509, 16.0947]]]}}]}