{"type": "FeatureCollection", "features": [{"id": "295677", "type": "Feature", "properties": {"id": "295677", "CVEGEO": "0707300010047056", "POBTOT": 2.0, "score_nse": 0.0, "NSE": "ND", "VIVTOT": 1.0, "GRAPROES": 0.0, "_ent": "07", "_mun": "073", "_loc": "0001"}, "geometry": {"type": "Polygon", "coordinates": [[[-93.00933, 17.19549], [-93.00918, 17.19532], [-93.00914, 17.19522], [-93.00935, 17.19526], [-93.00933, 17.19549]]]}}, {"id": "295678", "type": "Feature", "properties": {"id": "295678", "CVEGEO": "0707300010047054", "POBTOT": 23.0, "score_nse": 0.0, "NSE": "ND", "VIVTOT": 4.0, "GRAPROES": 6.57, "_ent": "07", "_mun": "073", "_loc": "0001"}, "geometry": {"type": "Polygon", "coordinates": [[[-93.00959, 17.20406], [-93.00957, 17.20361], [-93.00989, 17.2037], [-93.0098, 17.2041], [-93.00959, 17.20406]]]}}, {"id": "295679", "type": "Feature", "properties": {"id": "295679", "CVEGEO": "0707300010047053", "POBTOT": 38.0, "score_nse": 0.0, "NSE": "ND", "VIVTOT": 8.0, "GRAPROES": 6.67, "_ent": "07", "_mun": "073", "_loc": "0001"}, "geometry": {"type": "Polygon", "coordinates": [[[-93.00928, 17.20408], [-93.00952, 17.20413], [-93.0094, 17.20455], [-93.00916, 17.20449], [-93.00928, 17.20408]]]}}, {"id": "295680", "type": "Feature", "properties": {"id": "295680", "CVEGEO": "0707300010047052", "POBTOT": 0.0, "score_nse": 10.0, "NSE": "E", "VIVTOT": 7.0, "GRAPROES": 0.0, "_ent": "07", "_mun": "073", "_loc": "0001"}, "geometry": {"type": "Polygon", "coordinates": [[[-93.01197, 17.20409], [-93.01191, 17.20377], [-93.01228, 17.2038], [-93.01228, 17.2042], [-93.01197, 17.20409]]]}}, {"id": "295681", "type": "Feature", "properties": {"id": "295681", "CVEGEO": "0707300010047010", "POBTOT": 111.0, "score_nse": 0.0, "NSE": "ND", "VIVTOT": 41.0, "GRAPROES": 5.82, "_ent": "07", "_mun": "073", "_loc": "0001"}, "geometry": {"type": "Polygon", "coordinates": [[[-93.00928, 17.20173], [-93.00914, 17.20244], [-93.00868, 17.20233], [-93.00883, 17.20164], [-93.00928, 17.20173]]]}}, {"id": "295682", "type": "Feature", "properties": {"id": "295682", "CVEGEO": "0707300010047009", "POBTOT": 154.0, "score_nse": 0.0, "NSE": "ND", "VIVTOT": 41.0, "GRAPROES": 7.7, "_ent": "07", "_mun": "073", "_loc": "0001"}, "geometry": {"type": "Polygon", "coordinates": [[[-93.01061, 17.20283], [-93.00921, 17.20246], [-93.00916, 17.20216], [-93.00937, 17.20175], [-93.01057, 17.20206], [-93.01061, 17.20283]]]}}, {"id": "295683", "type": "Feature", "properties": {"id": "295683", "CVEGEO": "0707300010032021", "POBTOT": 60.0, "score_nse": 0.0, "NSE": "ND", "VIVTOT": 16.0, "GRAPROES": 8.78, "_ent": "07", "_mun": "073", "_loc": "0001"}, "geometry": {"type": "Polygon", "coordinates": [[[-93.01037, 17.19335], [-93.00954, 17.19325], [-93.00904, 17.19345], [-93.00861, 17.19397], [-93.00823, 17.19356], [-93.00826, 17.19298], [-93.008, 17.19254], [-93.00819, 17.19248], [-93.0087, 17.19271], [-93.00911, 17.19243], [-93.0095, 17.19245], [-93.00977, 17.19271], [-93.0104, 17.19285], [-93.01064, 17.19311], [-93.01037, 17.19335]]]}}, {"id": "295692", "type": "Feature", "properties": {"id": "295692", "CVEGEO": "0707300010085015", "POBTOT": 0.0, "score_nse": 0.0, "NSE": "ND", "VIVTOT": 0.0, "GRAPROES": 0.0, "_ent": "07", "_mun": "073", "_loc": "0001"}, "geometry": {"type": "Polygon", "coordinates": [[[-93.0081, 17.20744], [-93.00795, 17.20774], [-93.00754, 17.20766], [-93.00769, 17.20734], [-93.0081, 17.20744]]]}}, {"id": "295693", "type": "Feature", "properties": {"id": "295693", "CVEGEO": "0707300010085014", "POBTOT": 4.0, "score_nse": 0.0, "NSE": "ND", "VIVTOT": 1.0, "GRAPROES": 0.0, "_ent": "07", "_mun": "073", "_loc": "0001"}, "geometry": {"type": "Polygon", "coordinates": [[[-93.00793, 17.20781], [-93.00782, 17.20816], [-93.00738, 17.20805], [-93.00752, 17.20771], [-93.00793, 17.20781]]]}}, {"id": "295694", "type": "Feature", "properties": {"id": "295694", "CVEGEO": "0707300010085013", "POBTOT": 7.0, "score_nse": 0.0, "NSE": "ND", "VIVTOT": 2.0, "GRAPROES": 0.0, "_ent": "07", "_mun": "073", "_loc": "0001"}, "geometry": {"type": "Polygon", "coordinates": [[[-93.00863, 17.20753], [-93.00849, 17.20788], [-93.00801, 17.20777], [-93.00816, 17.20743], [-93.00863, 17.20753]]]}}, {"id": "295695", "type": "Feature", "properties": {"id": "295695", "CVEGEO": "0707300010085012", "POBTOT": 9.0, "score_nse": 0.0, "NSE": "ND", "VIVTOT": 2.0, "GRAPROES": 0.0, "_ent": "07", "_mun": "073", "_loc": "0001"}, "geometry": {"type": "Polygon", "coordinates": [[[-93.0087, 17.208], [-93.00833, 17.20827], [-93.00786, 17.20817], [-93.00799, 17.20782], [-93.0087, 17.208]]]}}, {"id": "295696", "type": "Feature", "properties": {"id": "295696", "CVEGEO": "0707300010085011", "POBTOT": 7.0, "score_nse": 0.0, "NSE": "ND", "VIVTOT": 1.0, "GRAPROES": 0.0, "_ent": "07", "_mun": "073", "_loc": "0001"}, "geometry": {"type": "Polygon", "coordinates": [[[-93.00903, 17.20765], [-93.00879, 17.20794], [-93.00854, 17.20786], [-93.00868, 17.20754], [-93.00903, 17.20765]]]}}, {"id": "295697", "type": "Feature", "properties": {"id": "295697", "CVEGEO": "0707300010066001", "POBTOT": 10.0, "score_nse": 0.0, "NSE": "ND", "VIVTOT": 5.0, "GRAPROES": 8.5, "_ent": "07", "_mun": "073", "_loc": "0001"}, "geometry": {"type": "Polygon", "coordinates": [[[-93.01419, 17.20596], [-93.01336, 17.20584], [-93.01341, 17.20543], [-93.01426, 17.20558], [-93.01419, 17.20596]]]}}, {"id": "295698", "type": "Feature", "properties": {"id": "295698", "CVEGEO": "0707300010051046", "POBTOT": 0.0, "score_nse": 0.0, "NSE": "ND", "VIVTOT": 0.0, "GRAPROES": 0.0, "_ent": "07", "_mun": "073", "_loc": "0001"}, "geometry": {"type": "Polygon", "coordinates": [[[-93.01566, 17.20165], [-93.01679, 17.20115], [-93.01861, 17.20146], [-93.0191, 17.20202], [-93.01911, 17.20272], [-93.01947, 17.20364], [-93.01804, 17.20277], [-93.01759, 17.20324], [-93.0162, 17.20278], [-93.01599, 17.20278], [-93.01559, 17.20314], [-93.01548, 17.20237], [-93.01566, 17.20165]]]}}, {"id": "295699", "type": "Feature", "properties": {"id": "295699", "CVEGEO": "0707300010051045", "POBTOT": 71.0, "score_nse": 31.7545, "NSE": "D+", "VIVTOT": 21.0, "GRAPROES": 7.67, "_ent": "07", "_mun": "073", "_loc": "0001"}, "geometry": {"type": "Polygon", "coordinates": [[[-93.01238, 17.19687], [-93.01244, 17.19607], [-93.01256, 17.19598], [-93.01161, 17.19586], [-93.01153, 17.1956], [-93.01182, 17.1948], [-93.0129, 17.19526], [-93.01342, 17.19588], [-93.01384, 17.19579], [-93.01356, 17.19656], [-93.01296, 17.19691], [-93.01238, 17.19687]]]}}, {"id": "295700", "type": "Feature", "properties": {"id": "295700", "CVEGEO": "0707300010051044", "POBTOT": 16.0, "score_nse": 0.0, "NSE": "ND", "VIVTOT": 3.0, "GRAPROES": 6.67, "_ent": "07", "_mun": "073", "_loc": "0001"}, "geometry": {"type": "Polygon", "coordinates": [[[-93.01406, 17.20406], [-93.01503, 17.20405], [-93.01494, 17.20486], [-93.014, 17.20458], [-93.01406, 17.20406]]]}}, {"id": "295701", "type": "Feature", "properties": {"id": "295701", "CVEGEO": "0707300010051043", "POBTOT": 0.0, "score_nse": 0.0, "NSE": "ND", "VIVTOT": 0.0, "GRAPROES": 0.0, "_ent": "07", "_mun": "073", "_loc": "0001"}, "geometry": {"type": "Polygon", "coordinates": [[[-93.0145, 17.19704], [-93.01347, 17.19699], [-93.01307, 17.19694], [-93.01368, 17.19654], [-93.01391, 17.19579], [-93.01453, 17.19637], [-93.0145, 17.19704]]]}}, {"id": "295702", "type": "Feature", "properties": {"id": "295702", "CVEGEO": "0707300010051042", "POBTOT": 49.0, "score_nse": 0.0, "NSE": "ND", "VIVTOT": 10.0, "GRAPROES": 7.26, "_ent": "07", "_mun": "073", "_loc": "0001"}, "geometry": {"type": "Polygon", "coordinates": [[[-93.01234, 17.1961], [-93.0123, 17.19686], [-93.01155, 17.19685], [-93.0116, 17.19592], [-93.01234, 17.1961]]]}}, {"id": "295703", "type": "Feature", "properties": {"id": "295703", "CVEGEO": "0707300010051029", "POBTOT": 0.0, "score_nse": 0.0, "NSE": "ND", "VIVTOT": 0.0, "GRAPROES": 0.0, "_ent": "07", "_mun": "073", "_loc": "0001"}, "geometry": {"type": "Polygon", "coordinates": [[[-93.01612, 17.19878], [-93.01434, 17.1987], [-93.01457, 17.19743], [-93.01541, 17.19707], [-93.01598, 17.19711], [-93.01571, 17.19788], [-93.01583, 17.19814], [-93.01622, 17.19821], [-93.01612, 17.19878]]]}}, {"id": "295704", "type": "Feature", "properties": {"id": "295704", "CVEGEO": "0707300010051028", "POBTOT": 7.0, "score_nse": 0.0, "NSE": "ND", "VIVTOT": 1.0, "GRAPROES": 0.0, "_ent": "07", "_mun": "073", "_loc": "0001"}, "geometry": {"type": "Polygon", "coordinates": [[[-93.0134, 17.19865], [-93.0135, 17.19763], [-93.01449, 17.19745], [-93.01425, 17.19869], [-93.0134, 17.19865]]]}}, {"id": "295705", "type": "Feature", "properties": {"id": "295705", "CVEGEO": "0707300010051027", "POBTOT": 56.0, "score_nse": 0.0, "NSE": "ND", "VIVTOT": 17.0, "GRAPROES": 7.86, "_ent": "07", "_mun": "073", "_loc": "0001"}, "geometry": {"type": "Polygon", "coordinates": [[[-93.01239, 17.19856], [-93.01241, 17.19775], [-93.01298, 17.19756], [-93.01341, 17.19762], [-93.01331, 17.19865], [-93.01239, 17.19856]]]}}, {"id": "295706", "type": "Feature", "properties": {"id": "295706", "CVEGEO": "0707300010051026", "POBTOT": 11.0, "score_nse": 0.0, "NSE": "ND", "VIVTOT": 8.0, "GRAPROES": 5.5, "_ent": "07", "_mun": "073", "_loc": "0001"}, "geometry": {"type": "Polygon", "coordinates": [[[-93.01163, 17.19813], [-93.01232, 17.19777], [-93.01232, 17.19857], [-93.01152, 17.19846], [-93.01163, 17.19813]]]}}, {"id": "295707", "type": "Feature", "properties": {"id": "295707", "CVEGEO": "0707300010051025", "POBTOT": 79.0, "score_nse": 0.0, "NSE": "ND", "VIVTOT": 31.0, "GRAPROES": 8.33, "_ent": "07", "_mun": "073", "_loc": "0001"}, "geometry": {"type": "Polygon", "coordinates": [[[-93.01153, 17.19852], [-93.01232, 17.19866], [-93.01234, 17.19943], [-93.01218, 17.19941], [-93.01206, 17.19883], [-93.01153, 17.19852]]]}}, {"id": "295708", "type": "Feature", "properties": {"id": "295708", "CVEGEO": "0707300010051024", "POBTOT": 7.0, "score_nse": 0.0, "NSE": "ND", "VIVTOT": 6.0, "GRAPROES": 0.0, "_ent": "07", "_mun": "073", "_loc": "0001"}, "geometry": {"type": "Polygon", "coordinates": [[[-93.01211, 17.1994], [-93.01155, 17.19935], [-93.01153, 17.19867], [-93.01208, 17.19902], [-93.01211, 17.1994]]]}}, {"id": "295709", "type": "Feature", "properties": {"id": "295709", "CVEGEO": "0707300010051013", "POBTOT": 45.0, "score_nse": 47.246, "NSE": "C-", "VIVTOT": 24.0, "GRAPROES": 11.19, "_ent": "07", "_mun": "073", "_loc": "0001"}, "geometry": {"type": "Polygon", "coordinates": [[[-93.01204, 17.19982], [-93.01194, 17.2003], [-93.01154, 17.20019], [-93.01154, 17.19943], [-93.01235, 17.1995], [-93.01233, 17.20042], [-93.01202, 17.20032], [-93.01204, 17.19982]]]}}, {"id": "295710", "type": "Feature", "properties": {"id": "295710", "CVEGEO": "0707300010051011", "POBTOT": 43.0, "score_nse": 0.0, "NSE": "ND", "VIVTOT": 15.0, "GRAPROES": 10.22, "_ent": "07", "_mun": "073", "_loc": "0001"}, "geometry": {"type": "Polygon", "coordinates": [[[-93.01221, 17.20149], [-93.01155, 17.20137], [-93.01158, 17.2005], [-93.01221, 17.2007], [-93.01221, 17.20149]]]}}, {"id": "295711", "type": "Feature", "properties": {"id": "295711", "CVEGEO": "0707300010051010", "POBTOT": 43.0, "score_nse": 0.0, "NSE": "ND", "VIVTOT": 16.0, "GRAPROES": 9.39, "_ent": "07", "_mun": "073", "_loc": "0001"}, "geometry": {"type": "Polygon", "coordinates": [[[-93.01243, 17.20166], [-93.01321, 17.20185], [-93.01314, 17.20265], [-93.01243, 17.20244], [-93.01243, 17.20166]]]}}, {"id": "295712", "type": "Feature", "properties": {"id": "295712", "CVEGEO": "0707300010051009", "POBTOT": 46.0, "score_nse": 0.0, "NSE": "ND", "VIVTOT": 14.0, "GRAPROES": 7.83, "_ent": "07", "_mun": "073", "_loc": "0001"}, "geometry": {"type": "Polygon", "coordinates": [[[-93.01323, 17.20267], [-93.01329, 17.20188], [-93.0141, 17.20208], [-93.01407, 17.20287], [-93.01323, 17.20267]]]}}, {"id": "295713", "type": "Feature", "properties": {"id": "295713", "CVEGEO": "0707300010051008", "POBTOT": 25.0, "score_nse": 0.0, "NSE": "ND", "VIVTOT": 10.0, "GRAPROES": 10.93, "_ent": "07", "_mun": "073", "_loc": "0001"}, "geometry": {"type": "Polygon", "coordinates": [[[-93.01415, 17.20288], [-93.01418, 17.20209], [-93.01477, 17.20229], [-93.01449, 17.20297], [-93.01415, 17.20288]]]}}, {"id": "295714", "type": "Feature", "properties": {"id": "295714", "CVEGEO": "0707300010047047", "POBTOT": 89.0, "score_nse": 0.0, "NSE": "ND", "VIVTOT": 19.0, "GRAPROES": 8.12, "_ent": "07", "_mun": "073", "_loc": "0001"}, "geometry": {"type": "Polygon", "coordinates": [[[-93.00905, 17.20516], [-93.00875, 17.20548], [-93.00805, 17.20534], [-93.00816, 17.20489], [-93.00905, 17.20516]]]}}, {"id": "295715", "type": "Feature", "properties": {"id": "295715", "CVEGEO": "0707300010047046", "POBTOT": 84.0, "score_nse": 0.0, "NSE": "ND", "VIVTOT": 22.0, "GRAPROES": 6.69, "_ent": "07", "_mun": "073", "_loc": "0001"}, "geometry": {"type": "Polygon", "coordinates": [[[-93.01019, 17.20543], [-93.01009, 17.20579], [-93.00883, 17.20549], [-93.00917, 17.20514], [-93.01019, 17.20543]]]}}, {"id": "295716", "type": "Feature", "properties": {"id": "295716", "CVEGEO": "0707300010047045", "POBTOT": 52.0, "score_nse": 0.0, "NSE": "ND", "VIVTOT": 11.0, "GRAPROES": 7.06, "_ent": "07", "_mun": "073", "_loc": "0001"}, "geometry": {"type": "Polygon", "coordinates": [[[-93.01016, 17.19563], [-93.01036, 17.19569], [-93.0104, 17.19638], [-93.01005, 17.19611], [-93.01016, 17.19563]]]}}, {"id": "295717", "type": "Feature", "properties": {"id": "295717", "CVEGEO": "0707300010047044", "POBTOT": 44.0, "score_nse": 0.0, "NSE": "ND", "VIVTOT": 13.0, "GRAPROES": 6.86, "_ent": "07", "_mun": "073", "_loc": "0001"}, "geometry": {"type": "Polygon", "coordinates": [[[-93.01009, 17.19557], [-93.00999, 17.19604], [-93.00947, 17.19564], [-93.00944, 17.19529], [-93.01009, 17.19557]]]}}, {"id": "295718", "type": "Feature", "properties": {"id": "295718", "CVEGEO": "0707300010047043", "POBTOT": 138.0, "score_nse": 0.0, "NSE": "ND", "VIVTOT": 32.0, "GRAPROES": 8.3, "_ent": "07", "_mun": "073", "_loc": "0001"}, "geometry": {"type": "Polygon", "coordinates": [[[-93.00935, 17.20462], [-93.00919, 17.20504], [-93.00818, 17.20482], [-93.00828, 17.20437], [-93.00935, 17.20462]]]}}, {"id": "295719", "type": "Feature", "properties": {"id": "295719", "CVEGEO": "0707300010047042", "POBTOT": 108.0, "score_nse": 0.0, "NSE": "ND", "VIVTOT": 30.0, "GRAPROES": 9.01, "_ent": "07", "_mun": "073", "_loc": "0001"}, "geometry": {"type": "Polygon", "coordinates": [[[-93.01022, 17.2053], [-93.00928, 17.20505], [-93.00942, 17.20465], [-93.0096, 17.20483], [-93.00964, 17.2047], [-93.01033, 17.20487], [-93.01022, 17.2053]]]}}, {"id": "295720", "type": "Feature", "properties": {"id": "295720", "CVEGEO": "0707300010047023", "POBTOT": 48.0, "score_nse": 0.0, "NSE": "ND", "VIVTOT": 24.0, "GRAPROES": 7.41, "_ent": "07", "_mun": "073", "_loc": "0001"}, "geometry": {"type": "Polygon", "coordinates": [[[-93.01063, 17.20372], [-93.00983, 17.20359], [-93.00989, 17.20275], [-93.0106, 17.20294], [-93.01063, 17.20372]]]}}, {"id": "295721", "type": "Feature", "properties": {"id": "295721", "CVEGEO": "0707300010047022", "POBTOT": 114.0, "score_nse": 0.0, "NSE": "ND", "VIVTOT": 29.0, "GRAPROES": 6.89, "_ent": "07", "_mun": "073", "_loc": "0001"}, "geometry": {"type": "Polygon", "coordinates": [[[-93.01069, 17.20294], [-93.01147, 17.20316], [-93.01142, 17.20399], [-93.01089, 17.20385], [-93.01098, 17.20351], [-93.01071, 17.20336], [-93.01069, 17.20294]]]}}, {"id": "295722", "type": "Feature", "properties": {"id": "295722", "CVEGEO": "0707300010047021", "POBTOT": 103.0, "score_nse": 0.0, "NSE": "ND", "VIVTOT": 30.0, "GRAPROES": 8.08, "_ent": "07", "_mun": "073", "_loc": "0001"}, "geometry": {"type": "Polygon", "coordinates": [[[-93.01155, 17.20318], [-93.01185, 17.20325], [-93.01186, 17.20406], [-93.01151, 17.20398], [-93.01155, 17.20318]]]}}, {"id": "295723", "type": "Feature", "properties": {"id": "295723", "CVEGEO": "0707300010047020", "POBTOT": 50.0, "score_nse": 0.0, "NSE": "ND", "VIVTOT": 16.0, "GRAPROES": 7.71, "_ent": "07", "_mun": "073", "_loc": "0001"}, "geometry": {"type": "Polygon", "coordinates": [[[-93.01153, 17.20231], [-93.01198, 17.20242], [-93.01189, 17.20319], [-93.01153, 17.2031], [-93.01153, 17.20231]]]}}, {"id": "295724", "type": "Feature", "properties": {"id": "295724", "CVEGEO": "0707300010047019", "POBTOT": 17.0, "score_nse": 0.0, "NSE": "ND", "VIVTOT": 3.0, "GRAPROES": 11.23, "_ent": "07", "_mun": "073", "_loc": "0001"}, "geometry": {"type": "Polygon", "coordinates": [[[-93.01196, 17.2032], [-93.01204, 17.20243], [-93.01231, 17.20248], [-93.01229, 17.20329], [-93.01196, 17.2032]]]}}, {"id": "295725", "type": "Feature", "properties": {"id": "295725", "CVEGEO": "0707300010047017", "POBTOT": 17.0, "score_nse": 73.7966, "NSE": "C+", "VIVTOT": 7.0, "GRAPROES": 13.25, "_ent": "07", "_mun": "073", "_loc": "0001"}, "geometry": {"type": "Polygon", "coordinates": [[[-93.0123, 17.20239], [-93.01152, 17.20222], [-93.01156, 17.20146], [-93.01232, 17.20159], [-93.0123, 17.20239]]]}}, {"id": "295726", "type": "Feature", "properties": {"id": "295726", "CVEGEO": "0707300010047002", "POBTOT": 90.0, "score_nse": 0.0, "NSE": "ND", "VIVTOT": 24.0, "GRAPROES": 6.98, "_ent": "07", "_mun": "073", "_loc": "0001"}, "geometry": {"type": "Polygon", "coordinates": [[[-93.00906, 17.20079], [-93.00923, 17.20083], [-93.00929, 17.20165], [-93.00885, 17.20156], [-93.00906, 17.20079]]]}}, {"id": "295727", "type": "Feature", "properties": {"id": "295727", "CVEGEO": "0707300010047001", "POBTOT": 105.0, "score_nse": 0.0, "NSE": "ND", "VIVTOT": 28.0, "GRAPROES": 9.16, "_ent": "07", "_mun": "073", "_loc": "0001"}, "geometry": {"type": "Polygon", "coordinates": [[[-93.01057, 17.20117], [-93.01054, 17.20197], [-93.00938, 17.20167], [-93.00935, 17.20142], [-93.00966, 17.2013], [-93.00989, 17.201], [-93.01057, 17.20117]]]}}, {"id": "295728", "type": "Feature", "properties": {"id": "295728", "CVEGEO": "0707300010032016", "POBTOT": 0.0, "score_nse": 10.0, "NSE": "E", "VIVTOT": 2.0, "GRAPROES": 0.0, "_ent": "07", "_mun": "073", "_loc": "0001"}, "geometry": {"type": "Polygon", "coordinates": [[[-93.01049, 17.19686], [-93.01049, 17.19645], [-93.01072, 17.19654], [-93.01088, 17.19685], [-93.01049, 17.19686]]]}}, {"id": "295729", "type": "Feature", "properties": {"id": "295729", "CVEGEO": "0707300010032011", "POBTOT": 64.0, "score_nse": 0.0, "NSE": "ND", "VIVTOT": 20.0, "GRAPROES": 5.74, "_ent": "07", "_mun": "073", "_loc": "0001"}, "geometry": {"type": "Polygon", "coordinates": [[[-93.01479, 17.20559], [-93.0139, 17.20542], [-93.014, 17.20466], [-93.01491, 17.20494], [-93.01479, 17.20559]]]}}, {"id": "295730", "type": "Feature", "properties": {"id": "295730", "CVEGEO": "0707300010032010", "POBTOT": 12.0, "score_nse": 0.0, "NSE": "ND", "VIVTOT": 5.0, "GRAPROES": 8.63, "_ent": "07", "_mun": "073", "_loc": "0001"}, "geometry": {"type": "Polygon", "coordinates": [[[-93.01254, 17.20441], [-93.01393, 17.20465], [-93.01383, 17.2054], [-93.01222, 17.20515], [-93.01259, 17.20476], [-93.01254, 17.20441]]]}}, {"id": "295731", "type": "Feature", "properties": {"id": "295731", "CVEGEO": "0707300010032009", "POBTOT": 35.0, "score_nse": 0.0, "NSE": "ND", "VIVTOT": 14.0, "GRAPROES": 7.57, "_ent": "07", "_mun": "073", "_loc": "0001"}, "geometry": {"type": "Polygon", "coordinates": [[[-93.01147, 17.2044], [-93.0117, 17.20447], [-93.01149, 17.20435], [-93.01161, 17.20413], [-93.012, 17.20424], [-93.0122, 17.20454], [-93.01153, 17.20485], [-93.01096, 17.2057], [-93.01097, 17.20591], [-93.01135, 17.20622], [-93.0112, 17.20691], [-93.01088, 17.20684], [-93.01107, 17.20625], [-93.01068, 17.20616], [-93.01147, 17.2044]]]}}, {"id": "295735", "type": "Feature", "properties": {"id": "295735", "CVEGEO": "0707300010051031", "POBTOT": 0.0, "score_nse": 0.0, "NSE": "ND", "VIVTOT": 0.0, "GRAPROES": 0.0, "_ent": "07", "_mun": "073", "_loc": "0001"}, "geometry": {"type": "Polygon", "coordinates": [[[-93.0138, 17.20371], [-93.01405, 17.20352], [-93.01405, 17.20377], [-93.0138, 17.20371]]]}}, {"id": "295736", "type": "Feature", "properties": {"id": "295736", "CVEGEO": "0707300010051007", "POBTOT": 100.0, "score_nse": 0.0, "NSE": "ND", "VIVTOT": 27.0, "GRAPROES": 5.58, "_ent": "07", "_mun": "073", "_loc": "0001"}, "geometry": {"type": "Polygon", "coordinates": [[[-93.01514, 17.20176], [-93.01481, 17.20219], [-93.01418, 17.202], [-93.01422, 17.20105], [-93.01561, 17.20133], [-93.01557, 17.20157], [-93.01514, 17.20176]]]}}, {"id": "295737", "type": "Feature", "properties": {"id": "295737", "CVEGEO": "0707300010051006", "POBTOT": 92.0, "score_nse": 0.0, "NSE": "ND", "VIVTOT": 26.0, "GRAPROES": 6.3, "_ent": "07", "_mun": "073", "_loc": "0001"}, "geometry": {"type": "Polygon", "coordinates": [[[-93.0142, 17.20097], [-93.01428, 17.19975], [-93.01594, 17.19994], [-93.01564, 17.20128], [-93.0142, 17.20097]]]}}, {"id": "295738", "type": "Feature", "properties": {"id": "295738", "CVEGEO": "0707300010051005", "POBTOT": 89.0, "score_nse": 0.0, "NSE": "ND", "VIVTOT": 29.0, "GRAPROES": 7.75, "_ent": "07", "_mun": "073", "_loc": "0001"}, "geometry": {"type": "Polygon", "coordinates": [[[-93.01333, 17.20078], [-93.01336, 17.19964], [-93.0142, 17.19973], [-93.01412, 17.20095], [-93.01333, 17.20078]]]}}, {"id": "295739", "type": "Feature", "properties": {"id": "295739", "CVEGEO": "0707300010047041", "POBTOT": 76.0, "score_nse": 0.0, "NSE": "ND", "VIVTOT": 21.0, "GRAPROES": 6.9, "_ent": "07", "_mun": "073", "_loc": "0001"}, "geometry": {"type": "Polygon", "coordinates": [[[-93.00989, 17.19688], [-93.01003, 17.19619], [-93.0101, 17.1962], [-93.01041, 17.19646], [-93.0104, 17.19688], [-93.00989, 17.19688]]]}}, {"id": "295740", "type": "Feature", "properties": {"id": "295740", "CVEGEO": "0707300010047039", "POBTOT": 164.0, "score_nse": 44.609, "NSE": "C-", "VIVTOT": 47.0, "GRAPROES": 9.36, "_ent": "07", "_mun": "073", "_loc": "0001"}, "geometry": {"type": "Polygon", "coordinates": [[[-93.00913, 17.20448], [-93.00831, 17.20429], [-93.0084, 17.20386], [-93.00924, 17.20406], [-93.00913, 17.20448]]]}}, {"id": "295741", "type": "Feature", "properties": {"id": "295741", "CVEGEO": "0707300010047016", "POBTOT": 115.0, "score_nse": 44.8405, "NSE": "C-", "VIVTOT": 34.0, "GRAPROES": 9.05, "_ent": "07", "_mun": "073", "_loc": "0001"}, "geometry": {"type": "Polygon", "coordinates": [[[-93.01145, 17.20018], [-93.01059, 17.19998], [-93.01059, 17.19931], [-93.01145, 17.19941], [-93.01145, 17.20018]]]}}, {"id": "295742", "type": "Feature", "properties": {"id": "295742", "CVEGEO": "0707300010032028", "POBTOT": 59.0, "score_nse": 0.0, "NSE": "ND", "VIVTOT": 15.0, "GRAPROES": 10.56, "_ent": "07", "_mun": "073", "_loc": "0001"}, "geometry": {"type": "Polygon", "coordinates": [[[-93.0115, 17.2041], [-93.01084, 17.20535], [-93.01041, 17.20674], [-93.01012, 17.20668], [-93.01089, 17.20394], [-93.0115, 17.2041]]]}}, {"id": "295743", "type": "Feature", "properties": {"id": "295743", "CVEGEO": "0707300010032027", "POBTOT": 36.0, "score_nse": 0.0, "NSE": "ND", "VIVTOT": 19.0, "GRAPROES": 9.48, "_ent": "07", "_mun": "073", "_loc": "0001"}, "geometry": {"type": "Polygon", "coordinates": [[[-93.01096, 17.19686], [-93.01049, 17.19628], [-93.01146, 17.19635], [-93.01144, 17.19684], [-93.01096, 17.19686]]]}}, {"id": "295744", "type": "Feature", "properties": {"id": "295744", "CVEGEO": "0707300010070005", "POBTOT": 5.0, "score_nse": 0.0, "NSE": "ND", "VIVTOT": 1.0, "GRAPROES": 0.0, "_ent": "07", "_mun": "073", "_loc": "0001"}, "geometry": {"type": "Polygon", "coordinates": [[[-93.00926, 17.20726], [-93.00905, 17.20758], [-93.00871, 17.20749], [-93.00886, 17.20717], [-93.00926, 17.20726]]]}}, {"id": "295745", "type": "Feature", "properties": {"id": "295745", "CVEGEO": "0707300010051015", "POBTOT": 40.0, "score_nse": 0.0, "NSE": "ND", "VIVTOT": 11.0, "GRAPROES": 6.03, "_ent": "07", "_mun": "073", "_loc": "0001"}, "geometry": {"type": "Polygon", "coordinates": [[[-93.01327, 17.19955], [-93.01241, 17.19944], [-93.0124, 17.19867], [-93.01331, 17.19876], [-93.01327, 17.19955]]]}}, {"id": "295753", "type": "Feature", "properties": {"id": "295753", "CVEGEO": "0707300010051037", "POBTOT": 0.0, "score_nse": 10.0, "NSE": "E", "VIVTOT": 2.0, "GRAPROES": 0.0, "_ent": "07", "_mun": "073", "_loc": "0001"}, "geometry": {"type": "Polygon", "coordinates": [[[-93.01448, 17.19736], [-93.01351, 17.19753], [-93.01356, 17.19709], [-93.01451, 17.19711], [-93.01448, 17.19736]]]}}, {"id": "295754", "type": "Feature", "properties": {"id": "295754", "CVEGEO": "0707300010051036", "POBTOT": 9.0, "score_nse": 0.0, "NSE": "ND", "VIVTOT": 1.0, "GRAPROES": 0.0, "_ent": "07", "_mun": "073", "_loc": "0001"}, "geometry": {"type": "Polygon", "coordinates": [[[-93.01343, 17.19753], [-93.01275, 17.19757], [-93.01276, 17.19731], [-93.01303, 17.19703], [-93.01345, 17.19708], [-93.01343, 17.19753]]]}}, {"id": "295755", "type": "Feature", "properties": {"id": "295755", "CVEGEO": "0707300010051035", "POBTOT": 58.0, "score_nse": 0.0, "NSE": "ND", "VIVTOT": 17.0, "GRAPROES": 8.16, "_ent": "07", "_mun": "073", "_loc": "0001"}, "geometry": {"type": "Polygon", "coordinates": [[[-93.01289, 17.197], [-93.0126, 17.1976], [-93.0124, 17.19765], [-93.01239, 17.19695], [-93.01289, 17.197]]]}}, {"id": "295756", "type": "Feature", "properties": {"id": "295756", "CVEGEO": "0707300010051034", "POBTOT": 79.0, "score_nse": 0.0, "NSE": "ND", "VIVTOT": 21.0, "GRAPROES": 6.98, "_ent": "07", "_mun": "073", "_loc": "0001"}, "geometry": {"type": "Polygon", "coordinates": [[[-93.01231, 17.19691], [-93.0123, 17.19768], [-93.01153, 17.19808], [-93.01153, 17.19691], [-93.01231, 17.19691]]]}}, {"id": "295757", "type": "Feature", "properties": {"id": "295757", "CVEGEO": "0707300010051033", "POBTOT": 64.0, "score_nse": 0.0, "NSE": "ND", "VIVTOT": 17.0, "GRAPROES": 8.76, "_ent": "07", "_mun": "073", "_loc": "0001"}, "geometry": {"type": "Polygon", "coordinates": [[[-93.01241, 17.20342], [-93.01309, 17.20362], [-93.01308, 17.20394], [-93.01269, 17.2039], [-93.01307, 17.20401], [-93.01305, 17.20439], [-93.01246, 17.20428], [-93.01241, 17.20342]]]}}, {"id": "295758", "type": "Feature", "properties": {"id": "295758", "CVEGEO": "0707300010051017", "POBTOT": 92.0, "score_nse": 0.0, "NSE": "ND", "VIVTOT": 24.0, "GRAPROES": 6.19, "_ent": "07", "_mun": "073", "_loc": "0001"}, "geometry": {"type": "Polygon", "coordinates": [[[-93.01597, 17.19986], [-93.01429, 17.19965], [-93.01433, 17.1988], [-93.01611, 17.19886], [-93.01597, 17.19986]]]}}, {"id": "295759", "type": "Feature", "properties": {"id": "295759", "CVEGEO": "0707300010051016", "POBTOT": 82.0, "score_nse": 0.0, "NSE": "ND", "VIVTOT": 23.0, "GRAPROES": 7.17, "_ent": "07", "_mun": "073", "_loc": "0001"}, "geometry": {"type": "Polygon", "coordinates": [[[-93.01336, 17.19956], [-93.01339, 17.19876], [-93.01425, 17.19881], [-93.01422, 17.19965], [-93.01336, 17.19956]]]}}, {"id": "295760", "type": "Feature", "properties": {"id": "295760", "CVEGEO": "0707300010047031", "POBTOT": 82.0, "score_nse": 0.0, "NSE": "ND", "VIVTOT": 20.0, "GRAPROES": 7.86, "_ent": "07", "_mun": "073", "_loc": "0001"}, "geometry": {"type": "Polygon", "coordinates": [[[-93.00984, 17.20412], [-93.00994, 17.20373], [-93.01059, 17.2039], [-93.01049, 17.20429], [-93.00984, 17.20412]]]}}, {"id": "295761", "type": "Feature", "properties": {"id": "295761", "CVEGEO": "0707300010047026", "POBTOT": 111.0, "score_nse": 0.0, "NSE": "ND", "VIVTOT": 31.0, "GRAPROES": 7.77, "_ent": "07", "_mun": "073", "_loc": "0001"}, "geometry": {"type": "Polygon", "coordinates": [[[-93.01138, 17.19851], [-93.01145, 17.19933], [-93.01059, 17.19922], [-93.01055, 17.19855], [-93.01086, 17.19881], [-93.01054, 17.19842], [-93.01138, 17.19851]]]}}, {"id": "295762", "type": "Feature", "properties": {"id": "295762", "CVEGEO": "0707300010047024", "POBTOT": 101.0, "score_nse": 0.0, "NSE": "ND", "VIVTOT": 26.0, "GRAPROES": 7.64, "_ent": "07", "_mun": "073", "_loc": "0001"}, "geometry": {"type": "Polygon", "coordinates": [[[-93.00868, 17.20241], [-93.00914, 17.2025], [-93.00912, 17.20289], [-93.00945, 17.2035], [-93.009, 17.20339], [-93.00904, 17.20312], [-93.00893, 17.20338], [-93.00855, 17.20329], [-93.00868, 17.20241]]]}}, {"id": "295763", "type": "Feature", "properties": {"id": "295763", "CVEGEO": "0707300010047014", "POBTOT": 77.0, "score_nse": 45.4563, "NSE": "C-", "VIVTOT": 27.0, "GRAPROES": 9.28, "_ent": "07", "_mun": "073", "_loc": "0001"}, "geometry": {"type": "Polygon", "coordinates": [[[-93.01049, 17.20002], [-93.00929, 17.19976], [-93.00942, 17.19915], [-93.01049, 17.19929], [-93.01049, 17.20002]]]}}, {"id": "295764", "type": "Feature", "properties": {"id": "295764", "CVEGEO": "0707300010047013", "POBTOT": 69.0, "score_nse": 0.0, "NSE": "ND", "VIVTOT": 27.0, "GRAPROES": 9.29, "_ent": "07", "_mun": "073", "_loc": "0001"}, "geometry": {"type": "Polygon", "coordinates": [[[-93.00895, 17.19979], [-93.00914, 17.19983], [-93.00895, 17.20066], [-93.00849, 17.20055], [-93.00865, 17.1997], [-93.00883, 17.19974], [-93.00878, 17.20005], [-93.00895, 17.19979]]]}}, {"id": "295765", "type": "Feature", "properties": {"id": "295765", "CVEGEO": "0707300010047012", "POBTOT": 61.0, "score_nse": 0.0, "NSE": "ND", "VIVTOT": 27.0, "GRAPROES": 8.04, "_ent": "07", "_mun": "073", "_loc": "0001"}, "geometry": {"type": "Polygon", "coordinates": [[[-93.00828, 17.20142], [-93.00848, 17.20064], [-93.00895, 17.20077], [-93.00879, 17.20155], [-93.00828, 17.20142]]]}}, {"id": "295766", "type": "Feature", "properties": {"id": "295766", "CVEGEO": "0707300010032017", "POBTOT": 16.0, "score_nse": 0.0, "NSE": "ND", "VIVTOT": 2.0, "GRAPROES": 0.0, "_ent": "07", "_mun": "073", "_loc": "0001"}, "geometry": {"type": "Polygon", "coordinates": [[[-93.01242, 17.20445], [-93.01247, 17.20473], [-93.0117, 17.20562], [-93.01174, 17.20685], [-93.01162, 17.207], [-93.0114, 17.20695], [-93.01158, 17.20615], [-93.01115, 17.20572], [-93.01178, 17.20485], [-93.01231, 17.20468], [-93.0122, 17.20429], [-93.01242, 17.20445]]]}}, {"id": "295767", "type": "Feature", "properties": {"id": "295767", "CVEGEO": "0707300010032026", "POBTOT": 110.0, "score_nse": 0.0, "NSE": "ND", "VIVTOT": 34.0, "GRAPROES": 8.44, "_ent": "07", "_mun": "073", "_loc": "0001"}, "geometry": {"type": "Polygon", "coordinates": [[[-93.00849, 17.1967], [-93.00817, 17.19666], [-93.00846, 17.19534], [-93.00836, 17.19532], [-93.00824, 17.19587], [-93.00792, 17.19578], [-93.00798, 17.19553], [-93.00783, 17.19575], [-93.00752, 17.19562], [-93.00812, 17.1949], [-93.00888, 17.19513], [-93.00849, 17.1967]]]}}, {"id": "295768", "type": "Feature", "properties": {"id": "295768", "CVEGEO": "0707300010032006", "POBTOT": 211.0, "score_nse": 0.0, "NSE": "ND", "VIVTOT": 70.0, "GRAPROES": 8.77, "_ent": "07", "_mun": "073", "_loc": "0001"}, "geometry": {"type": "Polygon", "coordinates": [[[-93.0089, 17.19968], [-93.00891, 17.19951], [-93.00884, 17.19937], [-93.00885, 17.19966], [-93.0086, 17.19961], [-93.0084, 17.20053], [-93.00726, 17.20026], [-93.00721, 17.19968], [-93.00687, 17.19903], [-93.00768, 17.19822], [-93.00794, 17.19744], [-93.00902, 17.19729], [-93.00946, 17.19774], [-93.00947, 17.19811], [-93.00851, 17.19791], [-93.00946, 17.19819], [-93.00928, 17.19902], [-93.0089, 17.19894], [-93.00926, 17.1991], [-93.00914, 17.19972], [-93.0089, 17.19968]]]}}, {"id": "295770", "type": "Feature", "properties": {"id": "295770", "CVEGEO": "0707300010032012", "POBTOT": 14.0, "score_nse": 0.0, "NSE": "ND", "VIVTOT": 2.0, "GRAPROES": 0.0, "_ent": "07", "_mun": "073", "_loc": "0001"}, "geometry": {"type": "Polygon", "coordinates": [[[-93.00871, 17.19408], [-93.00945, 17.1934], [-93.01006, 17.19338], [-93.0104, 17.19352], [-93.01079, 17.19403], [-93.01054, 17.19411], [-93.01006, 17.1939], [-93.00991, 17.19406], [-93.00991, 17.19458], [-93.00952, 17.19463], [-93.00922, 17.19487], [-93.00871, 17.19408]]]}}, {"id": "295771", "type": "Feature", "properties": {"id": "295771", "CVEGEO": "0707300010085016", "POBTOT": 0.0, "score_nse": 0.0, "NSE": "ND", "VIVTOT": 0.0, "GRAPROES": 0.0, "_ent": "07", "_mun": "073", "_loc": "0001"}, "geometry": {"type": "Polygon", "coordinates": [[[-93.0083, 17.20703], [-93.00812, 17.2074], [-93.00771, 17.20731], [-93.00786, 17.20694], [-93.0083, 17.20703]]]}}, {"id": "295772", "type": "Feature", "properties": {"id": "295772", "CVEGEO": "0707300010070001", "POBTOT": 0.0, "score_nse": 0.0, "NSE": "ND", "VIVTOT": 0.0, "GRAPROES": 0.0, "_ent": "07", "_mun": "073", "_loc": "0001"}, "geometry": {"type": "Polygon", "coordinates": [[[-93.00899, 17.20678], [-93.00881, 17.20712], [-93.00836, 17.20701], [-93.00854, 17.20667], [-93.00899, 17.20678]]]}}, {"id": "295773", "type": "Feature", "properties": {"id": "295773", "CVEGEO": "0707300010051030", "POBTOT": 6.0, "score_nse": 0.0, "NSE": "ND", "VIVTOT": 1.0, "GRAPROES": 0.0, "_ent": "07", "_mun": "073", "_loc": "0001"}, "geometry": {"type": "Polygon", "coordinates": [[[-93.01424, 17.20346], [-93.01458, 17.20309], [-93.01514, 17.20319], [-93.01506, 17.20384], [-93.01413, 17.20397], [-93.01424, 17.20346]]]}}, {"id": "295775", "type": "Feature", "properties": {"id": "295775", "CVEGEO": "0707300010070006", "POBTOT": 0.0, "score_nse": 0.0, "NSE": "ND", "VIVTOT": 0.0, "GRAPROES": 0.0, "_ent": "07", "_mun": "073", "_loc": "0001"}, "geometry": {"type": "Polygon", "coordinates": [[[-93.00879, 17.20717], [-93.00865, 17.20749], [-93.00818, 17.20739], [-93.00834, 17.20708], [-93.00879, 17.20717]]]}}, {"id": "295776", "type": "Feature", "properties": {"id": "295776", "CVEGEO": "0707300010070004", "POBTOT": 15.0, "score_nse": 0.0, "NSE": "ND", "VIVTOT": 4.0, "GRAPROES": 11.0, "_ent": "07", "_mun": "073", "_loc": "0001"}, "geometry": {"type": "Polygon", "coordinates": [[[-93.00963, 17.20693], [-93.0094, 17.20721], [-93.00889, 17.20712], [-93.00905, 17.20679], [-93.00963, 17.20693]]]}}, {"id": "295777", "type": "Feature", "properties": {"id": "295777", "CVEGEO": "0707300010070003", "POBTOT": 16.0, "score_nse": 0.0, "NSE": "ND", "VIVTOT": 13.0, "GRAPROES": 11.63, "_ent": "07", "_mun": "073", "_loc": "0001"}, "geometry": {"type": "Polygon", "coordinates": [[[-93.00994, 17.20658], [-93.00966, 17.20686], [-93.00907, 17.20674], [-93.00922, 17.20641], [-93.00994, 17.20658]]]}}, {"id": "295778", "type": "Feature", "properties": {"id": "295778", "CVEGEO": "0707300010070002", "POBTOT": 4.0, "score_nse": 0.0, "NSE": "ND", "VIVTOT": 1.0, "GRAPROES": 0.0, "_ent": "07", "_mun": "073", "_loc": "0001"}, "geometry": {"type": "Polygon", "coordinates": [[[-93.00917, 17.2064], [-93.00903, 17.20673], [-93.00857, 17.20661], [-93.00876, 17.20631], [-93.00917, 17.2064]]]}}, {"id": "295783", "type": "Feature", "properties": {"id": "295783", "CVEGEO": "0707300010051040", "POBTOT": 63.0, "score_nse": 0.0, "NSE": "ND", "VIVTOT": 15.0, "GRAPROES": 6.14, "_ent": "07", "_mun": "073", "_loc": "0001"}, "geometry": {"type": "Polygon", "coordinates": [[[-93.01315, 17.20399], [-93.01372, 17.20392], [-93.01401, 17.20405], [-93.01394, 17.20458], [-93.01312, 17.20442], [-93.01315, 17.20399]]]}}, {"id": "295784", "type": "Feature", "properties": {"id": "295784", "CVEGEO": "0707300010051039", "POBTOT": 16.0, "score_nse": 0.0, "NSE": "ND", "VIVTOT": 5.0, "GRAPROES": 11.46, "_ent": "07", "_mun": "073", "_loc": "0001"}, "geometry": {"type": "Polygon", "coordinates": [[[-93.01404, 17.20387], [-93.01392, 17.20401], [-93.01374, 17.20389], [-93.01375, 17.2038], [-93.01404, 17.20387]]]}}, {"id": "295785", "type": "Feature", "properties": {"id": "295785", "CVEGEO": "0707300010051038", "POBTOT": 1.0, "score_nse": 0.0, "NSE": "ND", "VIVTOT": 1.0, "GRAPROES": 0.0, "_ent": "07", "_mun": "073", "_loc": "0001"}, "geometry": {"type": "Polygon", "coordinates": [[[-93.01593, 17.19703], [-93.01523, 17.19704], [-93.01458, 17.19734], [-93.01466, 17.19638], [-93.01525, 17.19639], [-93.01557, 17.19691], [-93.01593, 17.19703]]]}}, {"id": "295786", "type": "Feature", "properties": {"id": "295786", "CVEGEO": "0707300010051004", "POBTOT": 114.0, "score_nse": 0.0, "NSE": "ND", "VIVTOT": 49.0, "GRAPROES": 9.47, "_ent": "07", "_mun": "073", "_loc": "0001"}, "geometry": {"type": "Polygon", "coordinates": [[[-93.01325, 17.20074], [-93.01246, 17.20058], [-93.01242, 17.19952], [-93.01327, 17.19963], [-93.01325, 17.20074]]]}}, {"id": "295787", "type": "Feature", "properties": {"id": "295787", "CVEGEO": "0707300010051002", "POBTOT": 71.0, "score_nse": 46.944, "NSE": "C-", "VIVTOT": 25.0, "GRAPROES": 9.76, "_ent": "07", "_mun": "073", "_loc": "0001"}, "geometry": {"type": "Polygon", "coordinates": [[[-93.01322, 17.20179], [-93.01246, 17.20158], [-93.01263, 17.2007], [-93.01325, 17.20083], [-93.01322, 17.20179]]]}}, {"id": "295788", "type": "Feature", "properties": {"id": "295788", "CVEGEO": "0707300010051001", "POBTOT": 84.0, "score_nse": 0.0, "NSE": "ND", "VIVTOT": 24.0, "GRAPROES": 8.9, "_ent": "07", "_mun": "073", "_loc": "0001"}, "geometry": {"type": "Polygon", "coordinates": [[[-93.01329, 17.20179], [-93.01332, 17.20085], [-93.01413, 17.20103], [-93.0141, 17.20199], [-93.01329, 17.20179]]]}}, {"id": "295789", "type": "Feature", "properties": {"id": "295789", "CVEGEO": "0707300010047058", "POBTOT": 34.0, "score_nse": 0.0, "NSE": "ND", "VIVTOT": 6.0, "GRAPROES": 7.83, "_ent": "07", "_mun": "073", "_loc": "0001"}, "geometry": {"type": "Polygon", "coordinates": [[[-93.00978, 17.20419], [-93.00965, 17.20462], [-93.00945, 17.20457], [-93.00957, 17.20415], [-93.00978, 17.20419]]]}}, {"id": "295790", "type": "Feature", "properties": {"id": "295790", "CVEGEO": "0707300010032022", "POBTOT": 115.0, "score_nse": 0.0, "NSE": "ND", "VIVTOT": 51.0, "GRAPROES": 7.59, "_ent": "07", "_mun": "073", "_loc": "0001"}, "geometry": {"type": "Polygon", "coordinates": [[[-93.00772, 17.19582], [-93.0077, 17.19628], [-93.00788, 17.19588], [-93.00822, 17.19597], [-93.00807, 17.19674], [-93.00976, 17.19697], [-93.00959, 17.19778], [-93.00926, 17.1973], [-93.00896, 17.19716], [-93.00786, 17.19727], [-93.00749, 17.19574], [-93.00772, 17.19582]]]}}, {"id": "295791", "type": "Feature", "properties": {"id": "295791", "CVEGEO": "0707300010032020", "POBTOT": 24.0, "score_nse": 0.0, "NSE": "ND", "VIVTOT": 5.0, "GRAPROES": 8.2, "_ent": "07", "_mun": "073", "_loc": "0001"}, "geometry": {"type": "Polygon", "coordinates": [[[-93.00912, 17.1951], [-93.00817, 17.19481], [-93.00865, 17.19416], [-93.00912, 17.1951]]]}}, {"id": "295792", "type": "Feature", "properties": {"id": "295792", "CVEGEO": "0707300010032031", "POBTOT": 24.0, "score_nse": 0.0, "NSE": "ND", "VIVTOT": 14.0, "GRAPROES": 9.56, "_ent": "07", "_mun": "073", "_loc": "0001"}, "geometry": {"type": "Polygon", "coordinates": [[[-93.011, 17.20629], [-93.01083, 17.20683], [-93.01049, 17.20676], [-93.01067, 17.20621], [-93.011, 17.20629]]]}}, {"id": "295793", "type": "Feature", "properties": {"id": "295793", "CVEGEO": "0707300010032018", "POBTOT": 25.0, "score_nse": 0.0, "NSE": "ND", "VIVTOT": 5.0, "GRAPROES": 5.65, "_ent": "07", "_mun": "073", "_loc": "0001"}, "geometry": {"type": "Polygon", "coordinates": [[[-93.0108, 17.20392], [-93.01011, 17.20649], [-93.00878, 17.20627], [-93.00903, 17.2056], [-93.01008, 17.20587], [-93.01007, 17.20627], [-93.01069, 17.2039], [-93.0108, 17.20392]]]}}, {"id": "295794", "type": "Feature", "properties": {"id": "295794", "CVEGEO": "0707300010032013", "POBTOT": 54.0, "score_nse": 0.0, "NSE": "ND", "VIVTOT": 18.0, "GRAPROES": 8.03, "_ent": "07", "_mun": "073", "_loc": "0001"}, "geometry": {"type": "Polygon", "coordinates": [[[-93.00761, 17.19529], [-93.00735, 17.19567], [-93.0075, 17.19667], [-93.00599, 17.19545], [-93.00426, 17.19316], [-93.00434, 17.19214], [-93.00451, 17.19183], [-93.00469, 17.1927], [-93.00638, 17.19268], [-93.00657, 17.19205], [-93.00698, 17.19214], [-93.0074, 17.19269], [-93.00789, 17.19259], [-93.00817, 17.19306], [-93.00817, 17.1937], [-93.00855, 17.19405], [-93.00772, 17.19516], [-93.00747, 17.19493], [-93.00738, 17.19501], [-93.00761, 17.19529]]]}}, {"id": "295801", "type": "Feature", "properties": {"id": "295801", "CVEGEO": "0707300010051032", "POBTOT": 26.0, "score_nse": 0.0, "NSE": "ND", "VIVTOT": 6.0, "GRAPROES": 7.44, "_ent": "07", "_mun": "073", "_loc": "0001"}, "geometry": {"type": "Polygon", "coordinates": [[[-93.0137, 17.20378], [-93.0135, 17.20396], [-93.01315, 17.20394], [-93.01316, 17.20364], [-93.0137, 17.20378]]]}}, {"id": "295802", "type": "Feature", "properties": {"id": "295802", "CVEGEO": "0707300010051023", "POBTOT": 46.0, "score_nse": 57.9902, "NSE": "C", "VIVTOT": 13.0, "GRAPROES": 11.28, "_ent": "07", "_mun": "073", "_loc": "0001"}, "geometry": {"type": "Polygon", "coordinates": [[[-93.01308, 17.20354], [-93.01241, 17.20333], [-93.01243, 17.20253], [-93.01315, 17.20273], [-93.01308, 17.20354]]]}}, {"id": "295803", "type": "Feature", "properties": {"id": "295803", "CVEGEO": "0707300010051022", "POBTOT": 85.0, "score_nse": 0.0, "NSE": "ND", "VIVTOT": 21.0, "GRAPROES": 7.32, "_ent": "07", "_mun": "073", "_loc": "0001"}, "geometry": {"type": "Polygon", "coordinates": [[[-93.01406, 17.20345], [-93.01373, 17.20369], [-93.01316, 17.20356], [-93.01322, 17.20275], [-93.01407, 17.20295], [-93.01406, 17.20345]]]}}, {"id": "295804", "type": "Feature", "properties": {"id": "295804", "CVEGEO": "0707300010051021", "POBTOT": 0.0, "score_nse": 0.0, "NSE": "ND", "VIVTOT": 0.0, "GRAPROES": 0.0, "_ent": "07", "_mun": "073", "_loc": "0001"}, "geometry": {"type": "Polygon", "coordinates": [[[-93.01446, 17.20304], [-93.01436, 17.20328], [-93.01414, 17.20342], [-93.01415, 17.20297], [-93.01446, 17.20304]]]}}, {"id": "295805", "type": "Feature", "properties": {"id": "295805", "CVEGEO": "0707300010051020", "POBTOT": 4.0, "score_nse": 0.0, "NSE": "ND", "VIVTOT": 1.0, "GRAPROES": 0.0, "_ent": "07", "_mun": "073", "_loc": "0001"}, "geometry": {"type": "Polygon", "coordinates": [[[-93.01484, 17.20231], [-93.01537, 17.20244], [-93.01516, 17.2031], [-93.01459, 17.20301], [-93.01484, 17.20231]]]}}, {"id": "295806", "type": "Feature", "properties": {"id": "295806", "CVEGEO": "0707300010051019", "POBTOT": 0.0, "score_nse": 0.0, "NSE": "ND", "VIVTOT": 0.0, "GRAPROES": 0.0, "_ent": "07", "_mun": "073", "_loc": "0001"}, "geometry": {"type": "Polygon", "coordinates": [[[-93.01488, 17.20222], [-93.01518, 17.20184], [-93.01556, 17.20167], [-93.0154, 17.20233], [-93.01488, 17.20222]]]}}, {"id": "295807", "type": "Feature", "properties": {"id": "295807", "CVEGEO": "0707300010051018", "POBTOT": 0.0, "score_nse": 0.0, "NSE": "ND", "VIVTOT": 0.0, "GRAPROES": 0.0, "_ent": "07", "_mun": "073", "_loc": "0001"}, "geometry": {"type": "Polygon", "coordinates": [[[-93.01861, 17.20137], [-93.01678, 17.2011], [-93.01568, 17.20156], [-93.01634, 17.19818], [-93.01694, 17.19799], [-93.01796, 17.19936], [-93.01811, 17.20022], [-93.01847, 17.20081], [-93.01861, 17.20137]]]}}, {"id": "295808", "type": "Feature", "properties": {"id": "295808", "CVEGEO": "0707300010047051", "POBTOT": 35.0, "score_nse": 0.0, "NSE": "ND", "VIVTOT": 9.0, "GRAPROES": 7.19, "_ent": "07", "_mun": "073", "_loc": "0001"}, "geometry": {"type": "Polygon", "coordinates": [[[-93.00953, 17.2035], [-93.00926, 17.20309], [-93.0092, 17.20253], [-93.00983, 17.20274], [-93.00977, 17.20356], [-93.00953, 17.2035]]]}}, {"id": "295809", "type": "Feature", "properties": {"id": "295809", "CVEGEO": "0707300010047049", "POBTOT": 13.0, "score_nse": 0.0, "NSE": "ND", "VIVTOT": 3.0, "GRAPROES": 7.25, "_ent": "07", "_mun": "073", "_loc": "0001"}, "geometry": {"type": "Polygon", "coordinates": [[[-93.01084, 17.20384], [-93.01071, 17.20342], [-93.01091, 17.20348], [-93.01084, 17.20384]]]}}, {"id": "295810", "type": "Feature", "properties": {"id": "295810", "CVEGEO": "0707300010047038", "POBTOT": 61.0, "score_nse": 0.0, "NSE": "ND", "VIVTOT": 18.0, "GRAPROES": 9.71, "_ent": "07", "_mun": "073", "_loc": "0001"}, "geometry": {"type": "Polygon", "coordinates": [[[-93.01027, 17.20477], [-93.00969, 17.20463], [-93.00982, 17.2042], [-93.01047, 17.20438], [-93.01027, 17.20477]]]}}, {"id": "295811", "type": "Feature", "properties": {"id": "295811", "CVEGEO": "0707300010047037", "POBTOT": 15.0, "score_nse": 0.0, "NSE": "ND", "VIVTOT": 5.0, "GRAPROES": 7.0, "_ent": "07", "_mun": "073", "_loc": "0001"}, "geometry": {"type": "Polygon", "coordinates": [[[-93.01134, 17.198], [-93.01124, 17.19779], [-93.01098, 17.19692], [-93.01144, 17.19693], [-93.01134, 17.198]]]}}, {"id": "295812", "type": "Feature", "properties": {"id": "295812", "CVEGEO": "0707300010047036", "POBTOT": 117.0, "score_nse": 41.1023, "NSE": "D+", "VIVTOT": 28.0, "GRAPROES": 8.42, "_ent": "07", "_mun": "073", "_loc": "0001"}, "geometry": {"type": "Polygon", "coordinates": [[[-93.01144, 17.19814], [-93.01143, 17.19844], [-93.01052, 17.19832], [-93.01049, 17.19695], [-93.0109, 17.19693], [-93.01119, 17.19784], [-93.01144, 17.19814]]]}}, {"id": "295813", "type": "Feature", "properties": {"id": "295813", "CVEGEO": "0707300010047034", "POBTOT": 74.0, "score_nse": 35.3615, "NSE": "D+", "VIVTOT": 26.0, "GRAPROES": 8.32, "_ent": "07", "_mun": "073", "_loc": "0001"}, "geometry": {"type": "Polygon", "coordinates": [[[-93.01049, 17.1992], [-93.00944, 17.19907], [-93.00962, 17.19824], [-93.00981, 17.19828], [-93.00981, 17.19848], [-93.00987, 17.19829], [-93.01044, 17.1984], [-93.01049, 17.1992]]]}}, {"id": "295814", "type": "Feature", "properties": {"id": "295814", "CVEGEO": "0707300010047008", "POBTOT": 93.0, "score_nse": 0.0, "NSE": "ND", "VIVTOT": 43.0, "GRAPROES": 9.95, "_ent": "07", "_mun": "073", "_loc": "0001"}, "geometry": {"type": "Polygon", "coordinates": [[[-93.01146, 17.20308], [-93.01068, 17.20286], [-93.01066, 17.20208], [-93.01146, 17.20229], [-93.01146, 17.20308]]]}}, {"id": "295815", "type": "Feature", "properties": {"id": "295815", "CVEGEO": "0707300010047007", "POBTOT": 39.0, "score_nse": 0.0, "NSE": "ND", "VIVTOT": 16.0, "GRAPROES": 8.75, "_ent": "07", "_mun": "073", "_loc": "0001"}, "geometry": {"type": "Polygon", "coordinates": [[[-93.01063, 17.20199], [-93.01062, 17.20118], [-93.01149, 17.20143], [-93.01145, 17.20221], [-93.01063, 17.20199]]]}}, {"id": "295816", "type": "Feature", "properties": {"id": "295816", "CVEGEO": "0707300010047003", "POBTOT": 24.0, "score_nse": 0.0, "NSE": "ND", "VIVTOT": 8.0, "GRAPROES": 8.94, "_ent": "07", "_mun": "073", "_loc": "0001"}, "geometry": {"type": "Polygon", "coordinates": [[[-93.0094, 17.20087], [-93.00983, 17.20096], [-93.00948, 17.20133], [-93.0093, 17.2012], [-93.0094, 17.20087]]]}}, {"id": "295817", "type": "Feature", "properties": {"id": "295817", "CVEGEO": "0707300010032024", "POBTOT": 144.0, "score_nse": 0.0, "NSE": "ND", "VIVTOT": 4.0, "GRAPROES": 11.34, "_ent": "07", "_mun": "073", "_loc": "0001"}, "geometry": {"type": "Polygon", "coordinates": [[[-93.0112, 17.19407], [-93.01094, 17.19406], [-93.01045, 17.19341], [-93.01067, 17.19319], [-93.0112, 17.19407]]]}}, {"id": "295818", "type": "Feature", "properties": {"id": "295818", "CVEGEO": "0707300010032023", "POBTOT": 58.0, "score_nse": 0.0, "NSE": "ND", "VIVTOT": 20.0, "GRAPROES": 5.95, "_ent": "07", "_mun": "073", "_loc": "0001"}, "geometry": {"type": "Polygon", "coordinates": [[[-93.00937, 17.19567], [-93.00995, 17.19613], [-93.00981, 17.19688], [-93.00918, 17.19679], [-93.00937, 17.19567]]]}}, {"id": "295819", "type": "Feature", "properties": {"id": "295819", "CVEGEO": "0707300010032005", "POBTOT": 158.0, "score_nse": 0.0, "NSE": "ND", "VIVTOT": 47.0, "GRAPROES": 7.51, "_ent": "07", "_mun": "073", "_loc": "0001"}, "geometry": {"type": "Polygon", "coordinates": [[[-93.01049, 17.19619], [-93.01046, 17.19568], [-93.01084, 17.1956], [-93.01046, 17.1956], [-93.00931, 17.19514], [-93.00943, 17.19482], [-93.00998, 17.19465], [-93.00999, 17.1941], [-93.01014, 17.19397], [-93.0105, 17.19418], [-93.01103, 17.19422], [-93.01102, 17.19448], [-93.0111, 17.19423], [-93.01134, 17.19425], [-93.01152, 17.19449], [-93.01128, 17.19478], [-93.01135, 17.19494], [-93.01156, 17.19453], [-93.01174, 17.19474], [-93.01143, 17.19548], [-93.01147, 17.19628], [-93.01049, 17.19619]]]}}, {"id": "295820", "type": "Feature", "properties": {"id": "295820", "CVEGEO": "0707300010032004", "POBTOT": 137.0, "score_nse": 0.0, "NSE": "ND", "VIVTOT": 37.0, "GRAPROES": 8.05, "_ent": "07", "_mun": "073", "_loc": "0001"}, "geometry": {"type": "Polygon", "coordinates": [[[-93.00898, 17.19523], [-93.0093, 17.19559], [-93.00909, 17.19677], [-93.00862, 17.19671], [-93.00898, 17.19523]]]}}, {"id": "295821", "type": "Feature", "properties": {"id": "295821", "CVEGEO": "0707300010032003", "POBTOT": 0.0, "score_nse": 0.0, "NSE": "ND", "VIVTOT": 0.0, "GRAPROES": 0.0, "_ent": "07", "_mun": "073", "_loc": "0001"}, "geometry": {"type": "Polygon", "coordinates": [[[-93.0076, 17.19684], [-93.00774, 17.19731], [-93.00743, 17.1976], [-93.00722, 17.1982], [-93.0068, 17.19821], [-93.00669, 17.19797], [-93.00688, 17.19758], [-93.0076, 17.19684]]]}}, {"id": "295822", "type": "Feature", "properties": {"id": "295822", "CVEGEO": "0707300010032001", "POBTOT": 0.0, "score_nse": 10.0, "NSE": "E", "VIVTOT": 2.0, "GRAPROES": 0.0, "_ent": "07", "_mun": "073", "_loc": "0001"}, "geometry": {"type": "Polygon", "coordinates": [[[-93.0041, 17.19242], [-93.00403, 17.19315], [-93.00444, 17.19385], [-93.00595, 17.19556], [-93.00746, 17.19675], [-93.00656, 17.19783], [-93.00656, 17.19808], [-93.00678, 17.19836], [-93.00731, 17.19827], [-93.00759, 17.19758], [-93.00774, 17.19754], [-93.00736, 17.19836], [-93.00665, 17.19892], [-93.0058, 17.19872], [-93.00526, 17.19815], [-93.00523, 17.1971], [-93.00485, 17.19598], [-93.00434, 17.1951], [-93.00304, 17.19371], [-93.00225, 17.19158], [-93.00224, 17.19076], [-93.00245, 17.19135], [-93.00336, 17.19262], [-93.00372, 17.1926], [-93.00436, 17.19182], [-93.0041, 17.19242]]]}}, {"id": "295823", "type": "Feature", "properties": {"id": "295823", "CVEGEO": "0707300010047032", "POBTOT": 156.0, "score_nse": 0.0, "NSE": "ND", "VIVTOT": 38.0, "GRAPROES": 9.34, "_ent": "07", "_mun": "073", "_loc": "0001"}, "geometry": {"type": "Polygon", "coordinates": [[[-93.00852, 17.20335], [-93.00951, 17.20358], [-93.00953, 17.20405], [-93.00938, 17.20401], [-93.00942, 17.2038], [-93.00932, 17.20399], [-93.00842, 17.20378], [-93.00852, 17.20335]]]}}, {"id": "295824", "type": "Feature", "properties": {"id": "295824", "CVEGEO": "0707300010047006", "POBTOT": 0.0, "score_nse": 0.0, "NSE": "ND", "VIVTOT": 0.0, "GRAPROES": 0.0, "_ent": "07", "_mun": "073", "_loc": "0001"}, "geometry": {"type": "Polygon", "coordinates": [[[-93.01082, 17.20116], [-93.01097, 17.20036], [-93.01143, 17.20047], [-93.01144, 17.20133], [-93.01082, 17.20116]]]}}, {"id": "295829", "type": "Feature", "properties": {"id": "295829", "CVEGEO": "0707300010047028", "POBTOT": 0.0, "score_nse": 0.0, "NSE": "ND", "VIVTOT": 0.0, "GRAPROES": 0.0, "_ent": "07", "_mun": "073", "_loc": "0001"}, "geometry": {"type": "Polygon", "coordinates": [[[-93.0123, 17.20372], [-93.01188, 17.2037], [-93.01193, 17.20329], [-93.01231, 17.2034], [-93.0123, 17.20372]]]}}, {"id": "295830", "type": "Feature", "properties": {"id": "295830", "CVEGEO": "0707300010032002", "POBTOT": 98.0, "score_nse": 0.0, "NSE": "ND", "VIVTOT": 30.0, "GRAPROES": 7.58, "_ent": "07", "_mun": "073", "_loc": "0001"}, "geometry": {"type": "Polygon", "coordinates": [[[-93.00738, 17.20199], [-93.00716, 17.20042], [-93.00724, 17.20033], [-93.00839, 17.2006], [-93.00819, 17.2014], [-93.00781, 17.2013], [-93.00817, 17.20146], [-93.00801, 17.20212], [-93.00738, 17.20199]]]}}, {"id": "295831", "type": "Feature", "properties": {"id": "295831", "CVEGEO": "0707300010032007", "POBTOT": 5.0, "score_nse": 0.0, "NSE": "ND", "VIVTOT": 1.0, "GRAPROES": 0.0, "_ent": "07", "_mun": "073", "_loc": "0001"}, "geometry": {"type": "Polygon", "coordinates": [[[-93.00793, 17.20248], [-93.00755, 17.20276], [-93.00694, 17.20265], [-93.00741, 17.20205], [-93.008, 17.20218], [-93.00793, 17.20248]]]}}, {"id": "295832", "type": "Feature", "properties": {"id": "295832", "CVEGEO": "0707300010032025", "POBTOT": 58.0, "score_nse": 0.0, "NSE": "ND", "VIVTOT": 19.0, "GRAPROES": 7.76, "_ent": "07", "_mun": "073", "_loc": "0001"}, "geometry": {"type": "Polygon", "coordinates": [[[-93.00803, 17.20294], [-93.00787, 17.20269], [-93.00807, 17.20218], [-93.00854, 17.20231], [-93.00841, 17.20324], [-93.00828, 17.20299], [-93.00803, 17.20294]]]}}, {"id": "295833", "type": "Feature", "properties": {"id": "295833", "CVEGEO": "0707300010032032", "POBTOT": 22.0, "score_nse": 43.292, "NSE": "C-", "VIVTOT": 6.0, "GRAPROES": 9.38, "_ent": "07", "_mun": "073", "_loc": "0001"}, "geometry": {"type": "Polygon", "coordinates": [[[-93.00825, 17.20304], [-93.00825, 17.20323], [-93.00807, 17.203], [-93.00825, 17.20304]]]}}, {"id": "295834", "type": "Feature", "properties": {"id": "295834", "CVEGEO": "0707300010047011", "POBTOT": 28.0, "score_nse": 0.0, "NSE": "ND", "VIVTOT": 8.0, "GRAPROES": 10.85, "_ent": "07", "_mun": "073", "_loc": "0001"}, "geometry": {"type": "Polygon", "coordinates": [[[-93.00808, 17.20212], [-93.00826, 17.20149], [-93.0087, 17.20159], [-93.00857, 17.20223], [-93.00808, 17.20212]]]}}, {"id": "295837", "type": "Feature", "properties": {"id": "295837", "CVEGEO": "0707300010085004", "POBTOT": 13.0, "score_nse": 0.0, "NSE": "ND", "VIVTOT": 3.0, "GRAPROES": 0.0, "_ent": "07", "_mun": "073", "_loc": "0001"}, "geometry": {"type": "Polygon", "coordinates": [[[-93.01107, 17.20695], [-93.01048, 17.20722], [-93.01037, 17.2075], [-93.01046, 17.20792], [-93.01016, 17.20778], [-93.01048, 17.20683], [-93.01107, 17.20695]]]}}, {"id": "295838", "type": "Feature", "properties": {"id": "295838", "CVEGEO": "0707300010085005", "POBTOT": 0.0, "score_nse": 10.0, "NSE": "E", "VIVTOT": 1.0, "GRAPROES": 0.0, "_ent": "07", "_mun": "073", "_loc": "0001"}, "geometry": {"type": "Polygon", "coordinates": [[[-93.01077, 17.20815], [-93.01047, 17.20895], [-93.0102, 17.20885], [-93.01051, 17.20802], [-93.01077, 17.20815]]]}}, {"id": "295839", "type": "Feature", "properties": {"id": "295839", "CVEGEO": "0707300010085008", "POBTOT": 8.0, "score_nse": 0.0, "NSE": "ND", "VIVTOT": 5.0, "GRAPROES": 5.5, "_ent": "07", "_mun": "073", "_loc": "0001"}, "geometry": {"type": "Polygon", "coordinates": [[[-93.0108, 17.20824], [-93.01094, 17.20829], [-93.01069, 17.20908], [-93.01047, 17.20926], [-93.01005, 17.20909], [-93.01018, 17.20891], [-93.0105, 17.20901], [-93.0108, 17.20824]]]}}, {"id": "295840", "type": "Feature", "properties": {"id": "295840", "CVEGEO": "0707300010085001", "POBTOT": 23.0, "score_nse": 0.0, "NSE": "ND", "VIVTOT": 8.0, "GRAPROES": 6.25, "_ent": "07", "_mun": "073", "_loc": "0001"}, "geometry": {"type": "Polygon", "coordinates": [[[-93.01046, 17.20801], [-93.01015, 17.20883], [-93.0098, 17.20867], [-93.01013, 17.20782], [-93.01046, 17.20801]]]}}, {"id": "295841", "type": "Feature", "properties": {"id": "295841", "CVEGEO": "0707300010085006", "POBTOT": 9.0, "score_nse": 0.0, "NSE": "ND", "VIVTOT": 4.0, "GRAPROES": 0.0, "_ent": "07", "_mun": "073", "_loc": "0001"}, "geometry": {"type": "Polygon", "coordinates": [[[-93.01013, 17.20889], [-93.00957, 17.20962], [-93.00925, 17.20944], [-93.00977, 17.20871], [-93.01013, 17.20889]]]}}, {"id": "295842", "type": "Feature", "properties": {"id": "295842", "CVEGEO": "0707300010085009", "POBTOT": 7.0, "score_nse": 0.0, "NSE": "ND", "VIVTOT": 2.0, "GRAPROES": 0.0, "_ent": "07", "_mun": "073", "_loc": "0001"}, "geometry": {"type": "Polygon", "coordinates": [[[-93.00955, 17.20967], [-93.00949, 17.20976], [-93.00915, 17.2096], [-93.00922, 17.20949], [-93.00955, 17.20967]]]}}, {"id": "295843", "type": "Feature", "properties": {"id": "295843", "CVEGEO": "0707300010085003", "POBTOT": 0.0, "score_nse": 0.0, "NSE": "ND", "VIVTOT": 0.0, "GRAPROES": 0.0, "_ent": "07", "_mun": "073", "_loc": "0001"}, "geometry": {"type": "Polygon", "coordinates": [[[-93.01041, 17.20681], [-93.01009, 17.20772], [-93.00956, 17.20744], [-93.01009, 17.20673], [-93.01041, 17.20681]]]}}, {"id": "295844", "type": "Feature", "properties": {"id": "295844", "CVEGEO": "0707300010085002", "POBTOT": 24.0, "score_nse": 0.0, "NSE": "ND", "VIVTOT": 8.0, "GRAPROES": 7.18, "_ent": "07", "_mun": "073", "_loc": "0001"}, "geometry": {"type": "Polygon", "coordinates": [[[-93.01007, 17.20777], [-93.00975, 17.20862], [-93.00939, 17.20845], [-93.00974, 17.20761], [-93.01007, 17.20777]]]}}, {"id": "295845", "type": "Feature", "properties": {"id": "295845", "CVEGEO": "0707300010085017", "POBTOT": 0.0, "score_nse": 0.0, "NSE": "ND", "VIVTOT": 0.0, "GRAPROES": 0.0, "_ent": "07", "_mun": "073", "_loc": "0001"}, "geometry": {"type": "Polygon", "coordinates": [[[-93.00968, 17.20757], [-93.0092, 17.20863], [-93.00891, 17.2085], [-93.00941, 17.20758], [-93.00952, 17.20747], [-93.00968, 17.20757]]]}}, {"id": "295846", "type": "Feature", "properties": {"id": "295846", "CVEGEO": "0707300010085007", "POBTOT": 11.0, "score_nse": 0.0, "NSE": "ND", "VIVTOT": 3.0, "GRAPROES": 0.0, "_ent": "07", "_mun": "073", "_loc": "0001"}, "geometry": {"type": "Polygon", "coordinates": [[[-93.00972, 17.20868], [-93.0092, 17.20941], [-93.00888, 17.20923], [-93.00936, 17.20849], [-93.00972, 17.20868]]]}}, {"id": "295847", "type": "Feature", "properties": {"id": "295847", "CVEGEO": "0707300010085010", "POBTOT": 5.0, "score_nse": 0.0, "NSE": "ND", "VIVTOT": 1.0, "GRAPROES": 0.0, "_ent": "07", "_mun": "073", "_loc": "0001"}, "geometry": {"type": "Polygon", "coordinates": [[[-93.00917, 17.20947], [-93.00904, 17.20964], [-93.00874, 17.20949], [-93.00885, 17.20929], [-93.00917, 17.20947]]]}}, {"id": "295848", "type": "Feature", "properties": {"id": "295848", "CVEGEO": "0707300010047035", "POBTOT": 176.0, "score_nse": 32.084, "NSE": "D+", "VIVTOT": 50.0, "GRAPROES": 6.72, "_ent": "07", "_mun": "073", "_loc": "0001"}, "geometry": {"type": "Polygon", "coordinates": [[[-93.01041, 17.19696], [-93.01042, 17.19791], [-93.01019, 17.19792], [-93.01042, 17.198], [-93.01043, 17.19831], [-93.00965, 17.19817], [-93.00978, 17.19748], [-93.01006, 17.1975], [-93.00979, 17.1974], [-93.00984, 17.19697], [-93.01041, 17.19696]]]}}, {"id": "295849", "type": "Feature", "properties": {"id": "295849", "CVEGEO": "0707300010047004", "POBTOT": 67.0, "score_nse": 36.7261, "NSE": "D+", "VIVTOT": 51.0, "GRAPROES": 9.96, "_ent": "07", "_mun": "073", "_loc": "0001"}, "geometry": {"type": "Polygon", "coordinates": [[[-93.00904, 17.20068], [-93.00924, 17.19988], [-93.0109, 17.20026], [-93.01074, 17.20113], [-93.00904, 17.20068]]]}}, {"id": "295850", "type": "Feature", "properties": {"id": "295850", "CVEGEO": "0707300010032008", "POBTOT": 115.0, "score_nse": 0.0, "NSE": "ND", "VIVTOT": 40.0, "GRAPROES": 8.68, "_ent": "07", "_mun": "073", "_loc": "0001"}, "geometry": {"type": "Polygon", "coordinates": [[[-93.00872, 17.20556], [-93.0078, 17.2061], [-93.00556, 17.2058], [-93.00604, 17.20424], [-93.00644, 17.20431], [-93.00607, 17.20418], [-93.00624, 17.20392], [-93.00667, 17.20407], [-93.00628, 17.20387], [-93.00646, 17.20367], [-93.0068, 17.20378], [-93.00651, 17.20363], [-93.00689, 17.20331], [-93.00701, 17.2027], [-93.00738, 17.20284], [-93.00782, 17.20272], [-93.00815, 17.20325], [-93.00837, 17.20331], [-93.00789, 17.20532], [-93.0077, 17.20539], [-93.00872, 17.20556]]]}}, {"id": "295851", "type": "Feature", "properties": {"id": "295851", "CVEGEO": "0707300010032029", "POBTOT": 108.0, "score_nse": 0.0, "NSE": "ND", "VIVTOT": 3.0, "GRAPROES": 0.0, "_ent": "07", "_mun": "073", "_loc": "0001"}, "geometry": {"type": "Polygon", "coordinates": [[[-93.00897, 17.20562], [-93.0085, 17.2066], [-93.00809, 17.20652], [-93.00846, 17.20669], [-93.00831, 17.20699], [-93.00787, 17.20689], [-93.00815, 17.20595], [-93.00897, 17.20562]]]}}]}