{"type": "FeatureCollection", "features": [{"id": "811505", "type": "Feature", "properties": {"id": "811505", "CVEGEO": "1207100090221002", "POBTOT": 0.0, "score_nse": 0.0, "NSE": null, "VIVTOT": 0.0, "GRAPROES": 0.0, "_ent": "12", "_mun": "071", "_loc": "0009"}, "geometry": {"type": "Polygon", "coordinates": [[[-98.16595, 16.91974], [-98.16606, 16.91961], [-98.16627, 16.91979], [-98.16612, 16.91957], [-98.16652, 16.91939], [-98.16675, 16.91999], [-98.16618, 16.9205], [-98.16595, 16.91974]]]}}, {"id": "811557", "type": "Feature", "properties": {"id": "811557", "CVEGEO": "1207100090221010", "POBTOT": 0.0, "score_nse": 0.0, "NSE": null, "VIVTOT": 0.0, "GRAPROES": 0.0, "_ent": "12", "_mun": "071", "_loc": "0009"}, "geometry": {"type": "Polygon", "coordinates": [[[-98.16756, 16.91895], [-98.16686, 16.91916], [-98.16665, 16.91882], [-98.16735, 16.91859], [-98.16747, 16.91834], [-98.16787, 16.91864], [-98.16756, 16.91895]]]}}, {"id": "811558", "type": "Feature", "properties": {"id": "811558", "CVEGEO": "1207100090221009", "POBTOT": 0.0, "score_nse": 0.0, "NSE": null, "VIVTOT": 0.0, "GRAPROES": 0.0, "_ent": "12", "_mun": "071", "_loc": "0009"}, "geometry": {"type": "Polygon", "coordinates": [[[-98.16649, 16.91849], [-98.16669, 16.91827], [-98.16699, 16.91825], [-98.16717, 16.91861], [-98.16662, 16.91878], [-98.16649, 16.91849]]]}}, {"id": "811817", "type": "Feature", "properties": {"id": "811817", "CVEGEO": "1207100090221012", "POBTOT": 0.0, "score_nse": 0.0, "NSE": null, "VIVTOT": 0.0, "GRAPROES": 0.0, "_ent": "12", "_mun": "071", "_loc": "0009"}, "geometry": {"type": "Polygon", "coordinates": [[[-98.16621, 16.92117], [-98.16589, 16.92095], [-98.16641, 16.92082], [-98.16636, 16.92095], [-98.16621, 16.92117]]]}}, {"id": "811956", "type": "Feature", "properties": {"id": "811956", "CVEGEO": "1207100090221007", "POBTOT": 0.0, "score_nse": 0.0, "NSE": null, "VIVTOT": 0.0, "GRAPROES": 0.0, "_ent": "12", "_mun": "071", "_loc": "0009"}, "geometry": {"type": "Polygon", "coordinates": [[[-98.16708, 16.91965], [-98.16743, 16.92024], [-98.1673, 16.92037], [-98.1668, 16.91994], [-98.16708, 16.91965]]]}}, {"id": "811957", "type": "Feature", "properties": {"id": "811957", "CVEGEO": "1207100090221006", "POBTOT": 0.0, "score_nse": 0.0, "NSE": null, "VIVTOT": 0.0, "GRAPROES": 0.0, "_ent": "12", "_mun": "071", "_loc": "0009"}, "geometry": {"type": "Polygon", "coordinates": [[[-98.16723, 16.9195], [-98.16754, 16.91965], [-98.16753, 16.91998], [-98.16712, 16.91959], [-98.16723, 16.9195]]]}}, {"id": "811958", "type": "Feature", "properties": {"id": "811958", "CVEGEO": "1207100090221005", "POBTOT": 0.0, "score_nse": 0.0, "NSE": null, "VIVTOT": 0.0, "GRAPROES": 0.0, "_ent": "12", "_mun": "071", "_loc": "0009"}, "geometry": {"type": "Polygon", "coordinates": [[[-98.16709, 16.91954], [-98.16691, 16.91925], [-98.16727, 16.91914], [-98.16731, 16.91936], [-98.16709, 16.91954]]]}}, {"id": "811959", "type": "Feature", "properties": {"id": "811959", "CVEGEO": "1207100090221004", "POBTOT": 0.0, "score_nse": 0.0, "NSE": null, "VIVTOT": 0.0, "GRAPROES": 0.0, "_ent": "12", "_mun": "071", "_loc": "0009"}, "geometry": {"type": "Polygon", "coordinates": [[[-98.16654, 16.91933], [-98.16644, 16.919], [-98.16658, 16.91888], [-98.16681, 16.91921], [-98.16654, 16.91933]]]}}, {"id": "811960", "type": "Feature", "properties": {"id": "811960", "CVEGEO": "1207100090221003", "POBTOT": 0.0, "score_nse": 0.0, "NSE": null, "VIVTOT": 0.0, "GRAPROES": 0.0, "_ent": "12", "_mun": "071", "_loc": "0009"}, "geometry": {"type": "Polygon", "coordinates": [[[-98.16606, 16.91955], [-98.16591, 16.91944], [-98.1659, 16.91975], [-98.16536, 16.91981], [-98.16509, 16.91954], [-98.16506, 16.91918], [-98.16563, 16.91892], [-98.16638, 16.91894], [-98.16648, 16.91935], [-98.16606, 16.91955]]]}}, {"id": "812009", "type": "Feature", "properties": {"id": "812009", "CVEGEO": "1207100090221001", "POBTOT": 0.0, "score_nse": 0.0, "NSE": null, "VIVTOT": 0.0, "GRAPROES": 0.0, "_ent": "12", "_mun": "071", "_loc": "0009"}, "geometry": {"type": "Polygon", "coordinates": [[[-98.16679, 16.91981], [-98.16656, 16.91938], [-98.16682, 16.91927], [-98.16704, 16.91957], [-98.16679, 16.91981]]]}}]}