{"type": "FeatureCollection", "features": [{"id": "818954", "type": "Feature", "properties": {"id": "818954", "CVEGEO": "1300200150017012", "POBTOT": 0.0, "score_nse": 0.0, "NSE": null, "VIVTOT": 0.0, "GRAPROES": 0.0, "_ent": "13", "_mun": "002", "_loc": "0015"}, "geometry": {"type": "Polygon", "coordinates": [[[-98.21873, 20.17156], [-98.21711, 20.17147], [-98.21766, 20.17105], [-98.21777, 20.17037], [-98.21931, 20.1689], [-98.2201, 20.17026], [-98.21873, 20.17156]]]}}, {"id": "819172", "type": "Feature", "properties": {"id": "819172", "CVEGEO": "1300200150017001", "POBTOT": 0.0, "score_nse": 0.0, "NSE": null, "VIVTOT": 0.0, "GRAPROES": 0.0, "_ent": "13", "_mun": "002", "_loc": "0015"}, "geometry": {"type": "Polygon", "coordinates": [[[-98.21852, 20.16699], [-98.21942, 20.16733], [-98.22017, 20.1678], [-98.21926, 20.16815], [-98.21884, 20.16863], [-98.21842, 20.16794], [-98.21852, 20.16699]]]}}, {"id": "819349", "type": "Feature", "properties": {"id": "819349", "CVEGEO": "1300200150017003", "POBTOT": 0.0, "score_nse": 0.0, "NSE": null, "VIVTOT": 0.0, "GRAPROES": 0.0, "_ent": "13", "_mun": "002", "_loc": "0015"}, "geometry": {"type": "Polygon", "coordinates": [[[-98.22011, 20.17015], [-98.21937, 20.16886], [-98.2189, 20.16869], [-98.21928, 20.16821], [-98.22024, 20.16784], [-98.22169, 20.16846], [-98.2224, 20.16894], [-98.22011, 20.17015]]]}}, {"id": "819375", "type": "Feature", "properties": {"id": "819375", "CVEGEO": "1300200150017010", "POBTOT": 0.0, "score_nse": 0.0, "NSE": null, "VIVTOT": 0.0, "GRAPROES": 0.0, "_ent": "13", "_mun": "002", "_loc": "0015"}, "geometry": {"type": "Polygon", "coordinates": [[[-98.2206, 20.17123], [-98.22102, 20.17141], [-98.22009, 20.17203], [-98.21893, 20.17213], [-98.21883, 20.17159], [-98.22013, 20.17032], [-98.2206, 20.17123]]]}}, {"id": "819401", "type": "Feature", "properties": {"id": "819401", "CVEGEO": "1300200150017006", "POBTOT": 0.0, "score_nse": 0.0, "NSE": null, "VIVTOT": 0.0, "GRAPROES": 0.0, "_ent": "13", "_mun": "002", "_loc": "0015"}, "geometry": {"type": "Polygon", "coordinates": [[[-98.21652, 20.16018], [-98.21732, 20.16012], [-98.21812, 20.15969], [-98.22084, 20.16048], [-98.22129, 20.1618], [-98.22045, 20.16241], [-98.21969, 20.1625], [-98.21789, 20.16329], [-98.21687, 20.16347], [-98.21642, 20.16252], [-98.21613, 20.16222], [-98.21722, 20.16169], [-98.21652, 20.16018]]]}}, {"id": "819799", "type": "Feature", "properties": {"id": "819799", "CVEGEO": "1300200150017013", "POBTOT": 0.0, "score_nse": 0.0, "NSE": null, "VIVTOT": 0.0, "GRAPROES": 0.0, "_ent": "13", "_mun": "002", "_loc": "0015"}, "geometry": {"type": "Polygon", "coordinates": [[[-98.21977, 20.16253], [-98.22038, 20.1625], [-98.22133, 20.16185], [-98.22164, 20.16208], [-98.22184, 20.16343], [-98.22244, 20.16457], [-98.22213, 20.16456], [-98.22167, 20.16425], [-98.22062, 20.16416], [-98.21979, 20.16377], [-98.21977, 20.16253]]]}}, {"id": "819800", "type": "Feature", "properties": {"id": "819800", "CVEGEO": "1300200150017002", "POBTOT": 0.0, "score_nse": 0.0, "NSE": null, "VIVTOT": 0.0, "GRAPROES": 0.0, "_ent": "13", "_mun": "002", "_loc": "0015"}, "geometry": {"type": "Polygon", "coordinates": [[[-98.22167, 20.16835], [-98.21855, 20.16691], [-98.21924, 20.1651], [-98.21851, 20.16689], [-98.21506, 20.16474], [-98.21668, 20.16363], [-98.21834, 20.16325], [-98.21971, 20.16255], [-98.21973, 20.16382], [-98.22059, 20.16421], [-98.22169, 20.16433], [-98.22206, 20.16462], [-98.22248, 20.16465], [-98.22278, 20.16522], [-98.22252, 20.16643], [-98.22167, 20.16835]]]}}, {"id": "819950", "type": "Feature", "properties": {"id": "819950", "CVEGEO": "1300200150017015", "POBTOT": 0.0, "score_nse": 0.0, "NSE": null, "VIVTOT": 0.0, "GRAPROES": 0.0, "_ent": "13", "_mun": "002", "_loc": "0015"}, "geometry": {"type": "Polygon", "coordinates": [[[-98.2157, 20.15899], [-98.21706, 20.15934], [-98.21797, 20.15964], [-98.21727, 20.16007], [-98.21646, 20.1601], [-98.2157, 20.15899]]]}}, {"id": "819952", "type": "Feature", "properties": {"id": "819952", "CVEGEO": "1300200150017016", "POBTOT": 0.0, "score_nse": 0.0, "NSE": null, "VIVTOT": 0.0, "GRAPROES": 0.0, "_ent": "13", "_mun": "002", "_loc": "0015"}, "geometry": {"type": "Polygon", "coordinates": [[[-98.21479, 20.16542], [-98.21471, 20.16572], [-98.21431, 20.16577], [-98.21479, 20.16542]]]}}, {"id": "819953", "type": "Feature", "properties": {"id": "819953", "CVEGEO": "1300200150017005", "POBTOT": 0.0, "score_nse": 0.0, "NSE": null, "VIVTOT": 0.0, "GRAPROES": 0.0, "_ent": "13", "_mun": "002", "_loc": "0015"}, "geometry": {"type": "Polygon", "coordinates": [[[-98.20936, 20.15796], [-98.21381, 20.15871], [-98.21365, 20.15918], [-98.21348, 20.15919], [-98.21344, 20.15969], [-98.21391, 20.15874], [-98.21563, 20.15898], [-98.21672, 20.16053], [-98.21711, 20.16142], [-98.21701, 20.16171], [-98.21605, 20.16207], [-98.21682, 20.1635], [-98.21619, 20.16392], [-98.21508, 20.16249], [-98.21613, 20.16396], [-98.21504, 20.16468], [-98.21451, 20.1641], [-98.21429, 20.16358], [-98.2149, 20.16326], [-98.21484, 20.16317], [-98.21426, 20.1635], [-98.21372, 20.16213], [-98.2132, 20.16162], [-98.2138, 20.16111], [-98.21311, 20.16156], [-98.21246, 20.1604], [-98.21031, 20.15919], [-98.20964, 20.15863], [-98.20936, 20.15796]]]}}, {"id": "819954", "type": "Feature", "properties": {"id": "819954", "CVEGEO": "1300200150017014", "POBTOT": 0.0, "score_nse": 0.0, "NSE": null, "VIVTOT": 0.0, "GRAPROES": 0.0, "_ent": "13", "_mun": "002", "_loc": "0015"}, "geometry": {"type": "Polygon", "coordinates": [[[-98.21499, 20.16476], [-98.21482, 20.16492], [-98.21479, 20.16536], [-98.2135, 20.16621], [-98.21216, 20.16655], [-98.21067, 20.16665], [-98.21052, 20.16655], [-98.21065, 20.16447], [-98.21276, 20.16375], [-98.21302, 20.16426], [-98.21451, 20.16421], [-98.21499, 20.16476]]]}}]}