{"type": "FeatureCollection", "features": [{"id": "2117636", "type": "Feature", "properties": {"id": "2117636", "CVEGEO": "2800201630598022", "POBTOT": 0.0, "score_nse": 0.0, "NSE": null, "VIVTOT": 0.0, "GRAPROES": 0.0, "_ent": "28", "_mun": "002", "_loc": "0163"}, "geometry": {"type": "Polygon", "coordinates": [[[-98.0809, 22.95274], [-98.08094, 22.95297], [-98.08101, 22.95346], [-98.08023, 22.95283], [-98.0809, 22.95274]]]}}, {"id": "2117637", "type": "Feature", "properties": {"id": "2117637", "CVEGEO": "2800201630598021", "POBTOT": 0.0, "score_nse": 0.0, "NSE": null, "VIVTOT": 0.0, "GRAPROES": 0.0, "_ent": "28", "_mun": "002", "_loc": "0163"}, "geometry": {"type": "Polygon", "coordinates": [[[-98.0818, 22.95272], [-98.08183, 22.9538], [-98.08144, 22.95381], [-98.08114, 22.95357], [-98.08103, 22.95274], [-98.0818, 22.95272]]]}}, {"id": "2117638", "type": "Feature", "properties": {"id": "2117638", "CVEGEO": "2800201630598020", "POBTOT": 0.0, "score_nse": 0.0, "NSE": null, "VIVTOT": 0.0, "GRAPROES": 0.0, "_ent": "28", "_mun": "002", "_loc": "0163"}, "geometry": {"type": "Polygon", "coordinates": [[[-98.08251, 22.95271], [-98.08253, 22.9538], [-98.08195, 22.9538], [-98.08191, 22.95272], [-98.08251, 22.95271]]]}}, {"id": "2117639", "type": "Feature", "properties": {"id": "2117639", "CVEGEO": "2800201630598019", "POBTOT": 0.0, "score_nse": 0.0, "NSE": null, "VIVTOT": 0.0, "GRAPROES": 0.0, "_ent": "28", "_mun": "002", "_loc": "0163"}, "geometry": {"type": "Polygon", "coordinates": [[[-98.08321, 22.95266], [-98.08324, 22.95378], [-98.08265, 22.95379], [-98.08262, 22.95271], [-98.08321, 22.95266]]]}}, {"id": "2117640", "type": "Feature", "properties": {"id": "2117640", "CVEGEO": "2800201630598018", "POBTOT": 0.0, "score_nse": 0.0, "NSE": null, "VIVTOT": 0.0, "GRAPROES": 0.0, "_ent": "28", "_mun": "002", "_loc": "0163"}, "geometry": {"type": "Polygon", "coordinates": [[[-98.08453, 22.95374], [-98.08411, 22.95375], [-98.0841, 22.95332], [-98.08403, 22.95378], [-98.08335, 22.95377], [-98.08334, 22.95265], [-98.0845, 22.95265], [-98.08453, 22.95374]]]}}, {"id": "2117641", "type": "Feature", "properties": {"id": "2117641", "CVEGEO": "2800201630598017", "POBTOT": 0.0, "score_nse": 0.0, "NSE": null, "VIVTOT": 0.0, "GRAPROES": 0.0, "_ent": "28", "_mun": "002", "_loc": "0163"}, "geometry": {"type": "Polygon", "coordinates": [[[-98.08546, 22.95251], [-98.08542, 22.95376], [-98.08463, 22.95375], [-98.08459, 22.95262], [-98.08546, 22.95251]]]}}, {"id": "2117642", "type": "Feature", "properties": {"id": "2117642", "CVEGEO": "2800201630598015", "POBTOT": 0.0, "score_nse": 0.0, "NSE": null, "VIVTOT": 0.0, "GRAPROES": 0.0, "_ent": "28", "_mun": "002", "_loc": "0163"}, "geometry": {"type": "Polygon", "coordinates": [[[-98.08324, 22.95389], [-98.08325, 22.9546], [-98.08266, 22.95461], [-98.08265, 22.95391], [-98.08324, 22.95389]]]}}, {"id": "2117643", "type": "Feature", "properties": {"id": "2117643", "CVEGEO": "2800201630598005", "POBTOT": 0.0, "score_nse": 0.0, "NSE": null, "VIVTOT": 0.0, "GRAPROES": 0.0, "_ent": "28", "_mun": "002", "_loc": "0163"}, "geometry": {"type": "Polygon", "coordinates": [[[-98.08457, 22.95569], [-98.08459, 22.95642], [-98.08405, 22.95599], [-98.08404, 22.9557], [-98.08457, 22.95569]]]}}, {"id": "2117644", "type": "Feature", "properties": {"id": "2117644", "CVEGEO": "2800201630598003", "POBTOT": 0.0, "score_nse": 0.0, "NSE": null, "VIVTOT": 0.0, "GRAPROES": 0.0, "_ent": "28", "_mun": "002", "_loc": "0163"}, "geometry": {"type": "Polygon", "coordinates": [[[-98.08467, 22.95569], [-98.08578, 22.95565], [-98.08664, 22.95729], [-98.08755, 22.95786], [-98.08715, 22.95864], [-98.08469, 22.95649], [-98.08467, 22.95569]]]}}, {"id": "2117645", "type": "Feature", "properties": {"id": "2117645", "CVEGEO": "2800201630598002", "POBTOT": 0.0, "score_nse": 0.0, "NSE": null, "VIVTOT": 0.0, "GRAPROES": 0.0, "_ent": "28", "_mun": "002", "_loc": "0163"}, "geometry": {"type": "Polygon", "coordinates": [[[-98.08775, 22.95683], [-98.08854, 22.95765], [-98.08939, 22.95779], [-98.08882, 22.95846], [-98.08681, 22.95726], [-98.08775, 22.95683]]]}}, {"id": "2117646", "type": "Feature", "properties": {"id": "2117646", "CVEGEO": "2800201630598001", "POBTOT": 0.0, "score_nse": 0.0, "NSE": null, "VIVTOT": 0.0, "GRAPROES": 0.0, "_ent": "28", "_mun": "002", "_loc": "0163"}, "geometry": {"type": "Polygon", "coordinates": [[[-98.08719, 22.95868], [-98.08759, 22.95789], [-98.08864, 22.95855], [-98.08826, 22.95956], [-98.08719, 22.95868]]]}}, {"id": "2118195", "type": "Feature", "properties": {"id": "2118195", "CVEGEO": "2800201630598026", "POBTOT": 0.0, "score_nse": 0.0, "NSE": null, "VIVTOT": 0.0, "GRAPROES": 0.0, "_ent": "28", "_mun": "002", "_loc": "0163"}, "geometry": {"type": "Polygon", "coordinates": [[[-98.08553, 22.95378], [-98.08554, 22.95338], [-98.0863, 22.9532], [-98.08641, 22.95298], [-98.08693, 22.95302], [-98.08679, 22.9536], [-98.08726, 22.95379], [-98.08553, 22.95378]]]}}, {"id": "2118196", "type": "Feature", "properties": {"id": "2118196", "CVEGEO": "2800201630598025", "POBTOT": 0.0, "score_nse": 0.0, "NSE": null, "VIVTOT": 0.0, "GRAPROES": 0.0, "_ent": "28", "_mun": "002", "_loc": "0163"}, "geometry": {"type": "Polygon", "coordinates": [[[-98.08002, 22.95194], [-98.08006, 22.9523], [-98.08009, 22.95266], [-98.07961, 22.9523], [-98.07976, 22.9523], [-98.07972, 22.95194], [-98.08002, 22.95194]]]}}, {"id": "2118197", "type": "Feature", "properties": {"id": "2118197", "CVEGEO": "2800201630598024", "POBTOT": 0.0, "score_nse": 0.0, "NSE": null, "VIVTOT": 0.0, "GRAPROES": 0.0, "_ent": "28", "_mun": "002", "_loc": "0163"}, "geometry": {"type": "Polygon", "coordinates": [[[-98.08081, 22.95192], [-98.0809, 22.95264], [-98.08021, 22.95266], [-98.08013, 22.95194], [-98.08081, 22.95192]]]}}, {"id": "2118198", "type": "Feature", "properties": {"id": "2118198", "CVEGEO": "2800201630598023", "POBTOT": 0.0, "score_nse": 0.0, "NSE": null, "VIVTOT": 0.0, "GRAPROES": 0.0, "_ent": "28", "_mun": "002", "_loc": "0163"}, "geometry": {"type": "Polygon", "coordinates": [[[-98.0818, 22.95266], [-98.08101, 22.95267], [-98.08092, 22.95192], [-98.08146, 22.95191], [-98.08148, 22.95238], [-98.08179, 22.95238], [-98.0818, 22.95266]]]}}, {"id": "2118199", "type": "Feature", "properties": {"id": "2118199", "CVEGEO": "2800201630598014", "POBTOT": 0.0, "score_nse": 0.0, "NSE": null, "VIVTOT": 0.0, "GRAPROES": 0.0, "_ent": "28", "_mun": "002", "_loc": "0163"}, "geometry": {"type": "Polygon", "coordinates": [[[-98.08453, 22.95385], [-98.08455, 22.95463], [-98.08337, 22.9546], [-98.08336, 22.95388], [-98.08453, 22.95385]]]}}, {"id": "2118200", "type": "Feature", "properties": {"id": "2118200", "CVEGEO": "2800201630598013", "POBTOT": 0.0, "score_nse": 0.0, "NSE": null, "VIVTOT": 0.0, "GRAPROES": 0.0, "_ent": "28", "_mun": "002", "_loc": "0163"}, "geometry": {"type": "Polygon", "coordinates": [[[-98.08542, 22.95385], [-98.08539, 22.95468], [-98.08465, 22.95464], [-98.08463, 22.95385], [-98.08542, 22.95385]]]}}, {"id": "2118201", "type": "Feature", "properties": {"id": "2118201", "CVEGEO": "2800201630598012", "POBTOT": 0.0, "score_nse": 0.0, "NSE": null, "VIVTOT": 0.0, "GRAPROES": 0.0, "_ent": "28", "_mun": "002", "_loc": "0163"}, "geometry": {"type": "Polygon", "coordinates": [[[-98.08649, 22.9547], [-98.0855, 22.95468], [-98.08552, 22.95385], [-98.08743, 22.95385], [-98.08649, 22.9547]]]}}, {"id": "2118440", "type": "Feature", "properties": {"id": "2118440", "CVEGEO": "2800201630598011", "POBTOT": 0.0, "score_nse": 0.0, "NSE": null, "VIVTOT": 0.0, "GRAPROES": 0.0, "_ent": "28", "_mun": "002", "_loc": "0163"}, "geometry": {"type": "Polygon", "coordinates": [[[-98.08325, 22.95471], [-98.08326, 22.95533], [-98.08257, 22.95473], [-98.08325, 22.95471]]]}}, {"id": "2118487", "type": "Feature", "properties": {"id": "2118487", "CVEGEO": "2800201630598016", "POBTOT": 0.0, "score_nse": 0.0, "NSE": null, "VIVTOT": 0.0, "GRAPROES": 0.0, "_ent": "28", "_mun": "002", "_loc": "0163"}, "geometry": {"type": "Polygon", "coordinates": [[[-98.08254, 22.95391], [-98.08255, 22.95462], [-98.08161, 22.95393], [-98.08224, 22.95391], [-98.08254, 22.95391]]]}}, {"id": "2118871", "type": "Feature", "properties": {"id": "2118871", "CVEGEO": "2800201630598010", "POBTOT": 0.0, "score_nse": 0.0, "NSE": null, "VIVTOT": 0.0, "GRAPROES": 0.0, "_ent": "28", "_mun": "002", "_loc": "0163"}, "geometry": {"type": "Polygon", "coordinates": [[[-98.08391, 22.95469], [-98.08393, 22.9556], [-98.08359, 22.9556], [-98.08338, 22.95543], [-98.08337, 22.95471], [-98.08391, 22.95469]]]}}, {"id": "2118872", "type": "Feature", "properties": {"id": "2118872", "CVEGEO": "2800201630598009", "POBTOT": 0.0, "score_nse": 0.0, "NSE": null, "VIVTOT": 0.0, "GRAPROES": 0.0, "_ent": "28", "_mun": "002", "_loc": "0163"}, "geometry": {"type": "Polygon", "coordinates": [[[-98.08402, 22.9547], [-98.08455, 22.95472], [-98.08457, 22.95558], [-98.08404, 22.95559], [-98.08402, 22.9547]]]}}, {"id": "2118873", "type": "Feature", "properties": {"id": "2118873", "CVEGEO": "2800201630598008", "POBTOT": 0.0, "score_nse": 0.0, "NSE": null, "VIVTOT": 0.0, "GRAPROES": 0.0, "_ent": "28", "_mun": "002", "_loc": "0163"}, "geometry": {"type": "Polygon", "coordinates": [[[-98.08465, 22.95474], [-98.08539, 22.95477], [-98.08572, 22.95555], [-98.08467, 22.95558], [-98.08465, 22.95474]]]}}, {"id": "2118874", "type": "Feature", "properties": {"id": "2118874", "CVEGEO": "2800201630598007", "POBTOT": 0.0, "score_nse": 0.0, "NSE": null, "VIVTOT": 0.0, "GRAPROES": 0.0, "_ent": "28", "_mun": "002", "_loc": "0163"}, "geometry": {"type": "Polygon", "coordinates": [[[-98.08697, 22.95581], [-98.08614, 22.95617], [-98.0855, 22.95478], [-98.08659, 22.95488], [-98.08697, 22.95581]]]}}, {"id": "2118875", "type": "Feature", "properties": {"id": "2118875", "CVEGEO": "2800201630598004", "POBTOT": 0.0, "score_nse": 0.0, "NSE": null, "VIVTOT": 0.0, "GRAPROES": 0.0, "_ent": "28", "_mun": "002", "_loc": "0163"}, "geometry": {"type": "Polygon", "coordinates": [[[-98.08704, 22.95628], [-98.08717, 22.95625], [-98.0876, 22.95679], [-98.08674, 22.95721], [-98.08618, 22.95625], [-98.08701, 22.95586], [-98.08715, 22.95621], [-98.08704, 22.95628]]]}}]}