{"type": "FeatureCollection", "features": [{"id": "2117613", "type": "Feature", "properties": {"id": "2117613", "CVEGEO": "2800201810121027", "POBTOT": 0.0, "score_nse": 0.0, "NSE": null, "VIVTOT": 0.0, "GRAPROES": 0.0, "_ent": "28", "_mun": "002", "_loc": "0181"}, "geometry": {"type": "Polygon", "coordinates": [[[-97.79758, 23.19413], [-97.79631, 23.19366], [-97.7973, 23.19304], [-97.79773, 23.19398], [-97.79758, 23.19413]]]}}, {"id": "2117614", "type": "Feature", "properties": {"id": "2117614", "CVEGEO": "2800201810121026", "POBTOT": 0.0, "score_nse": 0.0, "NSE": null, "VIVTOT": 0.0, "GRAPROES": 0.0, "_ent": "28", "_mun": "002", "_loc": "0181"}, "geometry": {"type": "Polygon", "coordinates": [[[-97.79846, 23.19292], [-97.79769, 23.19378], [-97.79739, 23.19299], [-97.79846, 23.19292]]]}}, {"id": "2117615", "type": "Feature", "properties": {"id": "2117615", "CVEGEO": "2800201810121025", "POBTOT": 0.0, "score_nse": 0.0, "NSE": null, "VIVTOT": 0.0, "GRAPROES": 0.0, "_ent": "28", "_mun": "002", "_loc": "0181"}, "geometry": {"type": "Polygon", "coordinates": [[[-97.79567, 23.19352], [-97.79686, 23.19408], [-97.79646, 23.1943], [-97.79692, 23.195], [-97.79656, 23.19518], [-97.79569, 23.19399], [-97.79567, 23.19352]]]}}, {"id": "2117616", "type": "Feature", "properties": {"id": "2117616", "CVEGEO": "2800201810121024", "POBTOT": 0.0, "score_nse": 0.0, "NSE": null, "VIVTOT": 0.0, "GRAPROES": 0.0, "_ent": "28", "_mun": "002", "_loc": "0181"}, "geometry": {"type": "Polygon", "coordinates": [[[-97.7969, 23.19413], [-97.79734, 23.19478], [-97.79698, 23.19497], [-97.79656, 23.19433], [-97.7969, 23.19413]]]}}, {"id": "2117617", "type": "Feature", "properties": {"id": "2117617", "CVEGEO": "2800201810121023", "POBTOT": 0.0, "score_nse": 0.0, "NSE": null, "VIVTOT": 0.0, "GRAPROES": 0.0, "_ent": "28", "_mun": "002", "_loc": "0181"}, "geometry": {"type": "Polygon", "coordinates": [[[-97.79694, 23.19408], [-97.79753, 23.19421], [-97.7978, 23.19455], [-97.7974, 23.19476], [-97.79694, 23.19408]]]}}, {"id": "2117618", "type": "Feature", "properties": {"id": "2117618", "CVEGEO": "2800201810121022", "POBTOT": 0.0, "score_nse": 0.0, "NSE": null, "VIVTOT": 0.0, "GRAPROES": 0.0, "_ent": "28", "_mun": "002", "_loc": "0181"}, "geometry": {"type": "Polygon", "coordinates": [[[-97.79839, 23.19425], [-97.79794, 23.19448], [-97.79766, 23.19413], [-97.79798, 23.19392], [-97.79839, 23.19425]]]}}, {"id": "2117619", "type": "Feature", "properties": {"id": "2117619", "CVEGEO": "2800201810121019", "POBTOT": 0.0, "score_nse": 0.0, "NSE": null, "VIVTOT": 0.0, "GRAPROES": 0.0, "_ent": "28", "_mun": "002", "_loc": "0181"}, "geometry": {"type": "Polygon", "coordinates": [[[-97.79717, 23.19537], [-97.79681, 23.19555], [-97.7966, 23.19523], [-97.79696, 23.19505], [-97.79717, 23.19537]]]}}, {"id": "2117620", "type": "Feature", "properties": {"id": "2117620", "CVEGEO": "2800201810121008", "POBTOT": 0.0, "score_nse": 0.0, "NSE": null, "VIVTOT": 0.0, "GRAPROES": 0.0, "_ent": "28", "_mun": "002", "_loc": "0181"}, "geometry": {"type": "Polygon", "coordinates": [[[-97.79851, 23.1964], [-97.79792, 23.19676], [-97.7978, 23.19655], [-97.79831, 23.19614], [-97.79851, 23.1964]]]}}, {"id": "2117621", "type": "Feature", "properties": {"id": "2117621", "CVEGEO": "2800201810121007", "POBTOT": 0.0, "score_nse": 0.0, "NSE": null, "VIVTOT": 0.0, "GRAPROES": 0.0, "_ent": "28", "_mun": "002", "_loc": "0181"}, "geometry": {"type": "Polygon", "coordinates": [[[-97.79874, 23.19569], [-97.79907, 23.19606], [-97.79858, 23.19636], [-97.79831, 23.19602], [-97.79874, 23.19569]]]}}, {"id": "2117622", "type": "Feature", "properties": {"id": "2117622", "CVEGEO": "2800201810121006", "POBTOT": 0.0, "score_nse": 0.0, "NSE": null, "VIVTOT": 0.0, "GRAPROES": 0.0, "_ent": "28", "_mun": "002", "_loc": "0181"}, "geometry": {"type": "Polygon", "coordinates": [[[-97.79939, 23.19541], [-97.79959, 23.19575], [-97.79917, 23.196], [-97.79889, 23.19567], [-97.79939, 23.19541]]]}}, {"id": "2117623", "type": "Feature", "properties": {"id": "2117623", "CVEGEO": "2800201810121004", "POBTOT": 0.0, "score_nse": 0.0, "NSE": null, "VIVTOT": 0.0, "GRAPROES": 0.0, "_ent": "28", "_mun": "002", "_loc": "0181"}, "geometry": {"type": "Polygon", "coordinates": [[[-97.79963, 23.19671], [-97.79917, 23.19707], [-97.79888, 23.19674], [-97.79935, 23.19639], [-97.79963, 23.19671]]]}}, {"id": "2117624", "type": "Feature", "properties": {"id": "2117624", "CVEGEO": "2800201810121002", "POBTOT": 0.0, "score_nse": 0.0, "NSE": null, "VIVTOT": 0.0, "GRAPROES": 0.0, "_ent": "28", "_mun": "002", "_loc": "0181"}, "geometry": {"type": "Polygon", "coordinates": [[[-97.7992, 23.19711], [-97.79964, 23.19674], [-97.79992, 23.19704], [-97.7995, 23.19741], [-97.7992, 23.19711]]]}}, {"id": "2117625", "type": "Feature", "properties": {"id": "2117625", "CVEGEO": "2800201810121001", "POBTOT": 0.0, "score_nse": 0.0, "NSE": null, "VIVTOT": 0.0, "GRAPROES": 0.0, "_ent": "28", "_mun": "002", "_loc": "0181"}, "geometry": {"type": "Polygon", "coordinates": [[[-97.79971, 23.19665], [-97.79994, 23.19642], [-97.79968, 23.19661], [-97.79921, 23.19605], [-97.79966, 23.19577], [-97.79943, 23.19539], [-97.79977, 23.19521], [-97.80046, 23.19666], [-97.80158, 23.19743], [-97.80098, 23.19793], [-97.79971, 23.19665]]]}}, {"id": "2117707", "type": "Feature", "properties": {"id": "2117707", "CVEGEO": "2800201810121005", "POBTOT": 0.0, "score_nse": 0.0, "NSE": null, "VIVTOT": 0.0, "GRAPROES": 0.0, "_ent": "28", "_mun": "002", "_loc": "0181"}, "geometry": {"type": "Polygon", "coordinates": [[[-97.79931, 23.19634], [-97.79882, 23.19667], [-97.79862, 23.19641], [-97.79911, 23.19611], [-97.79931, 23.19634]]]}}, {"id": "2118046", "type": "Feature", "properties": {"id": "2118046", "CVEGEO": "2800201810121003", "POBTOT": 0.0, "score_nse": 0.0, "NSE": null, "VIVTOT": 0.0, "GRAPROES": 0.0, "_ent": "28", "_mun": "002", "_loc": "0181"}, "geometry": {"type": "Polygon", "coordinates": [[[-97.79924, 23.19769], [-97.79876, 23.19717], [-97.79841, 23.1973], [-97.79795, 23.1968], [-97.79855, 23.19644], [-97.79946, 23.19751], [-97.79995, 23.1971], [-97.80036, 23.19759], [-97.79976, 23.1979], [-97.79945, 23.19753], [-97.79924, 23.19769]]]}}, {"id": "2118184", "type": "Feature", "properties": {"id": "2118184", "CVEGEO": "2800201810121018", "POBTOT": 0.0, "score_nse": 0.0, "NSE": null, "VIVTOT": 0.0, "GRAPROES": 0.0, "_ent": "28", "_mun": "002", "_loc": "0181"}, "geometry": {"type": "Polygon", "coordinates": [[[-97.79759, 23.19515], [-97.79723, 23.19534], [-97.79701, 23.19502], [-97.79737, 23.19484], [-97.79759, 23.19515]]]}}, {"id": "2118185", "type": "Feature", "properties": {"id": "2118185", "CVEGEO": "2800201810121017", "POBTOT": 0.0, "score_nse": 0.0, "NSE": null, "VIVTOT": 0.0, "GRAPROES": 0.0, "_ent": "28", "_mun": "002", "_loc": "0181"}, "geometry": {"type": "Polygon", "coordinates": [[[-97.79808, 23.1949], [-97.79765, 23.19512], [-97.79743, 23.19481], [-97.79784, 23.1946], [-97.79808, 23.1949]]]}}, {"id": "2118186", "type": "Feature", "properties": {"id": "2118186", "CVEGEO": "2800201810121016", "POBTOT": 0.0, "score_nse": 0.0, "NSE": null, "VIVTOT": 0.0, "GRAPROES": 0.0, "_ent": "28", "_mun": "002", "_loc": "0181"}, "geometry": {"type": "Polygon", "coordinates": [[[-97.79878, 23.19453], [-97.79823, 23.19483], [-97.79799, 23.19455], [-97.7985, 23.19428], [-97.79878, 23.19453]]]}}, {"id": "2118187", "type": "Feature", "properties": {"id": "2118187", "CVEGEO": "2800201810121015", "POBTOT": 0.0, "score_nse": 0.0, "NSE": null, "VIVTOT": 0.0, "GRAPROES": 0.0, "_ent": "28", "_mun": "002", "_loc": "0181"}, "geometry": {"type": "Polygon", "coordinates": [[[-97.79763, 23.19521], [-97.79789, 23.19559], [-97.79754, 23.1958], [-97.79726, 23.1954], [-97.79763, 23.19521]]]}}, {"id": "2118188", "type": "Feature", "properties": {"id": "2118188", "CVEGEO": "2800201810121014", "POBTOT": 0.0, "score_nse": 0.0, "NSE": null, "VIVTOT": 0.0, "GRAPROES": 0.0, "_ent": "28", "_mun": "002", "_loc": "0181"}, "geometry": {"type": "Polygon", "coordinates": [[[-97.79839, 23.19527], [-97.79795, 23.19555], [-97.79769, 23.19518], [-97.79812, 23.19495], [-97.79839, 23.19527]]]}}, {"id": "2118189", "type": "Feature", "properties": {"id": "2118189", "CVEGEO": "2800201810121013", "POBTOT": 0.0, "score_nse": 0.0, "NSE": null, "VIVTOT": 0.0, "GRAPROES": 0.0, "_ent": "28", "_mun": "002", "_loc": "0181"}, "geometry": {"type": "Polygon", "coordinates": [[[-97.79911, 23.19492], [-97.79855, 23.19526], [-97.79825, 23.19488], [-97.79886, 23.19456], [-97.79911, 23.19492]]]}}, {"id": "2118358", "type": "Feature", "properties": {"id": "2118358", "CVEGEO": "2800201810121021", "POBTOT": 0.0, "score_nse": 0.0, "NSE": null, "VIVTOT": 0.0, "GRAPROES": 0.0, "_ent": "28", "_mun": "002", "_loc": "0181"}, "geometry": {"type": "Polygon", "coordinates": [[[-97.79818, 23.19335], [-97.79909, 23.19434], [-97.79906, 23.19447], [-97.79889, 23.19453], [-97.79788, 23.19378], [-97.79818, 23.19335]]]}}, {"id": "2118814", "type": "Feature", "properties": {"id": "2118814", "CVEGEO": "2800201810121012", "POBTOT": 0.0, "score_nse": 0.0, "NSE": null, "VIVTOT": 0.0, "GRAPROES": 0.0, "_ent": "28", "_mun": "002", "_loc": "0181"}, "geometry": {"type": "Polygon", "coordinates": [[[-97.7958, 23.19607], [-97.79722, 23.19543], [-97.79748, 23.19584], [-97.79793, 23.19566], [-97.79824, 23.19606], [-97.7977, 23.19651], [-97.79779, 23.19689], [-97.79584, 23.19625], [-97.7958, 23.19607]]]}}, {"id": "2118816", "type": "Feature", "properties": {"id": "2118816", "CVEGEO": "2800201810121011", "POBTOT": 0.0, "score_nse": 0.0, "NSE": null, "VIVTOT": 0.0, "GRAPROES": 0.0, "_ent": "28", "_mun": "002", "_loc": "0181"}, "geometry": {"type": "Polygon", "coordinates": [[[-97.79842, 23.19531], [-97.7987, 23.19564], [-97.79826, 23.19597], [-97.798, 23.19562], [-97.79842, 23.19531]]]}}, {"id": "2118817", "type": "Feature", "properties": {"id": "2118817", "CVEGEO": "2800201810121010", "POBTOT": 0.0, "score_nse": 0.0, "NSE": null, "VIVTOT": 0.0, "GRAPROES": 0.0, "_ent": "28", "_mun": "002", "_loc": "0181"}, "geometry": {"type": "Polygon", "coordinates": [[[-97.79936, 23.19536], [-97.79884, 23.19561], [-97.79859, 23.1953], [-97.79914, 23.19497], [-97.79936, 23.19536]]]}}, {"id": "2118818", "type": "Feature", "properties": {"id": "2118818", "CVEGEO": "2800201810121009", "POBTOT": 0.0, "score_nse": 0.0, "NSE": null, "VIVTOT": 0.0, "GRAPROES": 0.0, "_ent": "28", "_mun": "002", "_loc": "0181"}, "geometry": {"type": "Polygon", "coordinates": [[[-97.79926, 23.19457], [-97.79973, 23.19517], [-97.79942, 23.19534], [-97.79895, 23.19455], [-97.79926, 23.19457]]]}}, {"id": "2118952", "type": "Feature", "properties": {"id": "2118952", "CVEGEO": "2800201810121020", "POBTOT": 0.0, "score_nse": 0.0, "NSE": null, "VIVTOT": 0.0, "GRAPROES": 0.0, "_ent": "28", "_mun": "002", "_loc": "0181"}, "geometry": {"type": "Polygon", "coordinates": [[[-97.79675, 23.19558], [-97.79639, 23.19577], [-97.79617, 23.19545], [-97.79654, 23.19526], [-97.79675, 23.19558]]]}}]}