{"type": "FeatureCollection", "features": [{"id": "1299763", "type": "Feature", "properties": {"id": "1299763", "CVEGEO": "1608801380053005", "POBTOT": 0.0, "score_nse": 0.0, "NSE": null, "VIVTOT": 0.0, "GRAPROES": 0.0, "_ent": "16", "_mun": "088", "_loc": "0138"}, "geometry": {"type": "Polygon", "coordinates": [[[-101.19248, 19.76567], [-101.19145, 19.76544], [-101.19233, 19.76553], [-101.19248, 19.76567]]]}}, {"id": "1299860", "type": "Feature", "properties": {"id": "1299860", "CVEGEO": "1608801380053013", "POBTOT": 0.0, "score_nse": 0.0, "NSE": null, "VIVTOT": 0.0, "GRAPROES": 0.0, "_ent": "16", "_mun": "088", "_loc": "0138"}, "geometry": {"type": "Polygon", "coordinates": [[[-101.19156, 19.76408], [-101.19157, 19.76391], [-101.19225, 19.76397], [-101.19221, 19.76412], [-101.19156, 19.76408]]]}}, {"id": "1299861", "type": "Feature", "properties": {"id": "1299861", "CVEGEO": "1608801380053012", "POBTOT": 0.0, "score_nse": 0.0, "NSE": null, "VIVTOT": 0.0, "GRAPROES": 0.0, "_ent": "16", "_mun": "088", "_loc": "0138"}, "geometry": {"type": "Polygon", "coordinates": [[[-101.19336, 19.76673], [-101.19321, 19.7667], [-101.19332, 19.76639], [-101.19348, 19.76642], [-101.19336, 19.76673]]]}}, {"id": "1299862", "type": "Feature", "properties": {"id": "1299862", "CVEGEO": "1608801380053011", "POBTOT": 0.0, "score_nse": 0.0, "NSE": null, "VIVTOT": 0.0, "GRAPROES": 0.0, "_ent": "16", "_mun": "088", "_loc": "0138"}, "geometry": {"type": "Polygon", "coordinates": [[[-101.19366, 19.76594], [-101.19351, 19.76592], [-101.19359, 19.76554], [-101.19381, 19.76556], [-101.19366, 19.76594]]]}}, {"id": "1299863", "type": "Feature", "properties": {"id": "1299863", "CVEGEO": "1608801380053010", "POBTOT": 0.0, "score_nse": 0.0, "NSE": null, "VIVTOT": 0.0, "GRAPROES": 0.0, "_ent": "16", "_mun": "088", "_loc": "0138"}, "geometry": {"type": "Polygon", "coordinates": [[[-101.19175, 19.76527], [-101.19201, 19.7642], [-101.19218, 19.76421], [-101.19189, 19.76529], [-101.19175, 19.76527]]]}}, {"id": "1299864", "type": "Feature", "properties": {"id": "1299864", "CVEGEO": "1608801380053009", "POBTOT": 0.0, "score_nse": 0.0, "NSE": null, "VIVTOT": 0.0, "GRAPROES": 0.0, "_ent": "16", "_mun": "088", "_loc": "0138"}, "geometry": {"type": "Polygon", "coordinates": [[[-101.19138, 19.76634], [-101.19141, 19.76602], [-101.19157, 19.76605], [-101.19154, 19.76636], [-101.19138, 19.76634]]]}}, {"id": "1300093", "type": "Feature", "properties": {"id": "1300093", "CVEGEO": "1608801380053007", "POBTOT": 0.0, "score_nse": 0.0, "NSE": null, "VIVTOT": 0.0, "GRAPROES": 0.0, "_ent": "16", "_mun": "088", "_loc": "0138"}, "geometry": {"type": "Polygon", "coordinates": [[[-101.19245, 19.76679], [-101.19249, 19.76663], [-101.19331, 19.7668], [-101.19325, 19.76693], [-101.19245, 19.76679]]]}}, {"id": "1300094", "type": "Feature", "properties": {"id": "1300094", "CVEGEO": "1608801380053004", "POBTOT": 0.0, "score_nse": 0.0, "NSE": null, "VIVTOT": 0.0, "GRAPROES": 0.0, "_ent": "16", "_mun": "088", "_loc": "0138"}, "geometry": {"type": "Polygon", "coordinates": [[[-101.19164, 19.76639], [-101.19167, 19.76608], [-101.19235, 19.76621], [-101.19228, 19.76651], [-101.19164, 19.76639]]]}}, {"id": "1300095", "type": "Feature", "properties": {"id": "1300095", "CVEGEO": "1608801380053001", "POBTOT": 0.0, "score_nse": 0.0, "NSE": null, "VIVTOT": 0.0, "GRAPROES": 0.0, "_ent": "16", "_mun": "088", "_loc": "0138"}, "geometry": {"type": "Polygon", "coordinates": [[[-101.19244, 19.76581], [-101.19239, 19.76611], [-101.19141, 19.76594], [-101.19144, 19.76559], [-101.19244, 19.76581]]]}}, {"id": "1300197", "type": "Feature", "properties": {"id": "1300197", "CVEGEO": "1608801380053008", "POBTOT": 0.0, "score_nse": 0.0, "NSE": null, "VIVTOT": 0.0, "GRAPROES": 0.0, "_ent": "16", "_mun": "088", "_loc": "0138"}, "geometry": {"type": "Polygon", "coordinates": [[[-101.19224, 19.76675], [-101.19137, 19.7666], [-101.19138, 19.76642], [-101.19227, 19.76659], [-101.19224, 19.76675]]]}}, {"id": "1300198", "type": "Feature", "properties": {"id": "1300198", "CVEGEO": "1608801380053006", "POBTOT": 0.0, "score_nse": 0.0, "NSE": null, "VIVTOT": 0.0, "GRAPROES": 0.0, "_ent": "16", "_mun": "088", "_loc": "0138"}, "geometry": {"type": "Polygon", "coordinates": [[[-101.19341, 19.76589], [-101.19262, 19.76576], [-101.19252, 19.76547], [-101.19197, 19.76529], [-101.1935, 19.76553], [-101.19341, 19.76589]]]}}, {"id": "1300356", "type": "Feature", "properties": {"id": "1300356", "CVEGEO": "1608801380053002", "POBTOT": 0.0, "score_nse": 0.0, "NSE": null, "VIVTOT": 0.0, "GRAPROES": 0.0, "_ent": "16", "_mun": "088", "_loc": "0138"}, "geometry": {"type": "Polygon", "coordinates": [[[-101.19253, 19.76614], [-101.19261, 19.76584], [-101.19363, 19.76604], [-101.19352, 19.76632], [-101.19253, 19.76614]]]}}, {"id": "1300357", "type": "Feature", "properties": {"id": "1300357", "CVEGEO": "1608801380053003", "POBTOT": 0.0, "score_nse": 0.0, "NSE": null, "VIVTOT": 0.0, "GRAPROES": 0.0, "_ent": "16", "_mun": "088", "_loc": "0138"}, "geometry": {"type": "Polygon", "coordinates": [[[-101.19246, 19.76653], [-101.19252, 19.76624], [-101.19323, 19.76636], [-101.19313, 19.76667], [-101.19246, 19.76653]]]}}]}