{"type": "FeatureCollection", "features": [{"id": "1263797", "type": "Feature", "properties": {"id": "1263797", "CVEGEO": "1605301470081009", "POBTOT": 0.0, "score_nse": 0.0, "NSE": null, "VIVTOT": 0.0, "GRAPROES": 0.0, "_ent": "16", "_mun": "053", "_loc": "0147"}, "geometry": {"type": "Polygon", "coordinates": [[[-101.36135, 19.67039], [-101.36102, 19.67235], [-101.35955, 19.672], [-101.3596, 19.67131], [-101.3607, 19.6711], [-101.36019, 19.67114], [-101.36016, 19.67041], [-101.36135, 19.67039]]]}}, {"id": "1263798", "type": "Feature", "properties": {"id": "1263798", "CVEGEO": "1605301470081008", "POBTOT": 0.0, "score_nse": 0.0, "NSE": null, "VIVTOT": 0.0, "GRAPROES": 0.0, "_ent": "16", "_mun": "053", "_loc": "0147"}, "geometry": {"type": "Polygon", "coordinates": [[[-101.36016, 19.66975], [-101.36149, 19.66964], [-101.3614, 19.67033], [-101.36017, 19.67036], [-101.36016, 19.66975]]]}}, {"id": "1263800", "type": "Feature", "properties": {"id": "1263800", "CVEGEO": "1605301470081014", "POBTOT": 0.0, "score_nse": 0.0, "NSE": null, "VIVTOT": 0.0, "GRAPROES": 0.0, "_ent": "16", "_mun": "053", "_loc": "0147"}, "geometry": {"type": "Polygon", "coordinates": [[[-101.35714, 19.66905], [-101.35818, 19.66894], [-101.35786, 19.6699], [-101.3572, 19.66997], [-101.35714, 19.66905]]]}}, {"id": "1263828", "type": "Feature", "properties": {"id": "1263828", "CVEGEO": "1605301470081013", "POBTOT": 0.0, "score_nse": 0.0, "NSE": null, "VIVTOT": 0.0, "GRAPROES": 0.0, "_ent": "16", "_mun": "053", "_loc": "0147"}, "geometry": {"type": "Polygon", "coordinates": [[[-101.3572, 19.67004], [-101.35785, 19.66997], [-101.35791, 19.67059], [-101.3572, 19.67065], [-101.3572, 19.67004]]]}}, {"id": "1263829", "type": "Feature", "properties": {"id": "1263829", "CVEGEO": "1605301470081012", "POBTOT": 0.0, "score_nse": 0.0, "NSE": null, "VIVTOT": 0.0, "GRAPROES": 0.0, "_ent": "16", "_mun": "053", "_loc": "0147"}, "geometry": {"type": "Polygon", "coordinates": [[[-101.35795, 19.67139], [-101.35689, 19.67127], [-101.3572, 19.67072], [-101.35791, 19.67065], [-101.35795, 19.67139]]]}}, {"id": "1263830", "type": "Feature", "properties": {"id": "1263830", "CVEGEO": "1605301470081011", "POBTOT": 0.0, "score_nse": 0.0, "NSE": null, "VIVTOT": 0.0, "GRAPROES": 0.0, "_ent": "16", "_mun": "053", "_loc": "0147"}, "geometry": {"type": "Polygon", "coordinates": [[[-101.35795, 19.67148], [-101.35872, 19.6714], [-101.35877, 19.67196], [-101.35803, 19.6717], [-101.35795, 19.67148]]]}}, {"id": "1263928", "type": "Feature", "properties": {"id": "1263928", "CVEGEO": "1605301470081050", "POBTOT": 0.0, "score_nse": 0.0, "NSE": null, "VIVTOT": 0.0, "GRAPROES": 0.0, "_ent": "16", "_mun": "053", "_loc": "0147"}, "geometry": {"type": "Polygon", "coordinates": [[[-101.35143, 19.67789], [-101.35114, 19.67762], [-101.35147, 19.67704], [-101.35182, 19.67721], [-101.35143, 19.67789]]]}}, {"id": "1263929", "type": "Feature", "properties": {"id": "1263929", "CVEGEO": "1605301470081049", "POBTOT": 0.0, "score_nse": 0.0, "NSE": null, "VIVTOT": 0.0, "GRAPROES": 0.0, "_ent": "16", "_mun": "053", "_loc": "0147"}, "geometry": {"type": "Polygon", "coordinates": [[[-101.3517, 19.67842], [-101.35147, 19.67801], [-101.3519, 19.67724], [-101.35227, 19.67744], [-101.3517, 19.67842]]]}}, {"id": "1263932", "type": "Feature", "properties": {"id": "1263932", "CVEGEO": "1605301470081028", "POBTOT": 0.0, "score_nse": 0.0, "NSE": null, "VIVTOT": 0.0, "GRAPROES": 0.0, "_ent": "16", "_mun": "053", "_loc": "0147"}, "geometry": {"type": "Polygon", "coordinates": [[[-101.36316, 19.66582], [-101.36388, 19.66532], [-101.36431, 19.6655], [-101.36328, 19.66741], [-101.36294, 19.66886], [-101.36268, 19.66931], [-101.36191, 19.66905], [-101.36316, 19.66582]]]}}, {"id": "1263933", "type": "Feature", "properties": {"id": "1263933", "CVEGEO": "1605301470081027", "POBTOT": 0.0, "score_nse": 0.0, "NSE": null, "VIVTOT": 0.0, "GRAPROES": 0.0, "_ent": "16", "_mun": "053", "_loc": "0147"}, "geometry": {"type": "Polygon", "coordinates": [[[-101.36149, 19.66707], [-101.36306, 19.66592], [-101.36252, 19.66735], [-101.36149, 19.66707]]]}}, {"id": "1263934", "type": "Feature", "properties": {"id": "1263934", "CVEGEO": "1605301470081025", "POBTOT": 0.0, "score_nse": 0.0, "NSE": null, "VIVTOT": 0.0, "GRAPROES": 0.0, "_ent": "16", "_mun": "053", "_loc": "0147"}, "geometry": {"type": "Polygon", "coordinates": [[[-101.36032, 19.66622], [-101.36113, 19.66576], [-101.36058, 19.66683], [-101.36014, 19.66667], [-101.36032, 19.66622]]]}}, {"id": "1263935", "type": "Feature", "properties": {"id": "1263935", "CVEGEO": "1605301470081024", "POBTOT": 0.0, "score_nse": 0.0, "NSE": null, "VIVTOT": 0.0, "GRAPROES": 0.0, "_ent": "16", "_mun": "053", "_loc": "0147"}, "geometry": {"type": "Polygon", "coordinates": [[[-101.35631, 19.6711], [-101.35651, 19.6706], [-101.35659, 19.66907], [-101.35706, 19.66918], [-101.3571, 19.67077], [-101.35676, 19.67127], [-101.35631, 19.6711]]]}}, {"id": "1264077", "type": "Feature", "properties": {"id": "1264077", "CVEGEO": "1605301470081041", "POBTOT": 0.0, "score_nse": 0.0, "NSE": null, "VIVTOT": 0.0, "GRAPROES": 0.0, "_ent": "16", "_mun": "053", "_loc": "0147"}, "geometry": {"type": "Polygon", "coordinates": [[[-101.35239, 19.67741], [-101.35368, 19.67518], [-101.35403, 19.67532], [-101.35272, 19.67759], [-101.35239, 19.67741]]]}}, {"id": "1264247", "type": "Feature", "properties": {"id": "1264247", "CVEGEO": "1605301470081038", "POBTOT": 0.0, "score_nse": 0.0, "NSE": null, "VIVTOT": 0.0, "GRAPROES": 0.0, "_ent": "16", "_mun": "053", "_loc": "0147"}, "geometry": {"type": "Polygon", "coordinates": [[[-101.36244, 19.66946], [-101.36248, 19.66933], [-101.36267, 19.66938], [-101.36266, 19.66942], [-101.36244, 19.66946]]]}}, {"id": "1264248", "type": "Feature", "properties": {"id": "1264248", "CVEGEO": "1605301470081037", "POBTOT": 0.0, "score_nse": 0.0, "NSE": null, "VIVTOT": 0.0, "GRAPROES": 0.0, "_ent": "16", "_mun": "053", "_loc": "0147"}, "geometry": {"type": "Polygon", "coordinates": [[[-101.3587, 19.66989], [-101.35927, 19.66982], [-101.3593, 19.67008], [-101.35871, 19.67012], [-101.3587, 19.66989]]]}}, {"id": "1264249", "type": "Feature", "properties": {"id": "1264249", "CVEGEO": "1605301470081036", "POBTOT": 0.0, "score_nse": 0.0, "NSE": null, "VIVTOT": 0.0, "GRAPROES": 0.0, "_ent": "16", "_mun": "053", "_loc": "0147"}, "geometry": {"type": "Polygon", "coordinates": [[[-101.35881, 19.67139], [-101.35952, 19.67132], [-101.35949, 19.67159], [-101.35883, 19.67165], [-101.35881, 19.67139]]]}}, {"id": "1264250", "type": "Feature", "properties": {"id": "1264250", "CVEGEO": "1605301470081033", "POBTOT": 0.0, "score_nse": 0.0, "NSE": null, "VIVTOT": 0.0, "GRAPROES": 0.0, "_ent": "16", "_mun": "053", "_loc": "0147"}, "geometry": {"type": "Polygon", "coordinates": [[[-101.35208, 19.67899], [-101.3538, 19.67595], [-101.35556, 19.67321], [-101.35477, 19.67827], [-101.35208, 19.67899]]]}}, {"id": "1264251", "type": "Feature", "properties": {"id": "1264251", "CVEGEO": "1605301470081021", "POBTOT": 0.0, "score_nse": 0.0, "NSE": null, "VIVTOT": 0.0, "GRAPROES": 0.0, "_ent": "16", "_mun": "053", "_loc": "0147"}, "geometry": {"type": "Polygon", "coordinates": [[[-101.36156, 19.66963], [-101.36215, 19.66959], [-101.36214, 19.6699], [-101.36147, 19.67029], [-101.36156, 19.66963]]]}}, {"id": "1264252", "type": "Feature", "properties": {"id": "1264252", "CVEGEO": "1605301470081020", "POBTOT": 0.0, "score_nse": 0.0, "NSE": null, "VIVTOT": 0.0, "GRAPROES": 0.0, "_ent": "16", "_mun": "053", "_loc": "0147"}, "geometry": {"type": "Polygon", "coordinates": [[[-101.36161, 19.66957], [-101.36182, 19.66913], [-101.36237, 19.6693], [-101.36229, 19.6695], [-101.36161, 19.66957]]]}}, {"id": "1264253", "type": "Feature", "properties": {"id": "1264253", "CVEGEO": "1605301470081019", "POBTOT": 0.0, "score_nse": 0.0, "NSE": null, "VIVTOT": 0.0, "GRAPROES": 0.0, "_ent": "16", "_mun": "053", "_loc": "0147"}, "geometry": {"type": "Polygon", "coordinates": [[[-101.36066, 19.66878], [-101.36116, 19.66707], [-101.36249, 19.66739], [-101.36183, 19.66903], [-101.36066, 19.66878]]]}}, {"id": "1264254", "type": "Feature", "properties": {"id": "1264254", "CVEGEO": "1605301470081018", "POBTOT": 0.0, "score_nse": 0.0, "NSE": null, "VIVTOT": 0.0, "GRAPROES": 0.0, "_ent": "16", "_mun": "053", "_loc": "0147"}, "geometry": {"type": "Polygon", "coordinates": [[[-101.36015, 19.66878], [-101.3606, 19.66689], [-101.36111, 19.66707], [-101.3606, 19.66879], [-101.36015, 19.66878]]]}}, {"id": "1264255", "type": "Feature", "properties": {"id": "1264255", "CVEGEO": "1605301470081017", "POBTOT": 0.0, "score_nse": 0.0, "NSE": null, "VIVTOT": 0.0, "GRAPROES": 0.0, "_ent": "16", "_mun": "053", "_loc": "0147"}, "geometry": {"type": "Polygon", "coordinates": [[[-101.35924, 19.6688], [-101.36012, 19.66672], [-101.36056, 19.66687], [-101.36011, 19.6688], [-101.35924, 19.6688]]]}}, {"id": "1264256", "type": "Feature", "properties": {"id": "1264256", "CVEGEO": "1605301470081016", "POBTOT": 0.0, "score_nse": 0.0, "NSE": null, "VIVTOT": 0.0, "GRAPROES": 0.0, "_ent": "16", "_mun": "053", "_loc": "0147"}, "geometry": {"type": "Polygon", "coordinates": [[[-101.36007, 19.66641], [-101.36008, 19.66669], [-101.35911, 19.66881], [-101.35833, 19.66885], [-101.3585, 19.66778], [-101.35876, 19.66717], [-101.35916, 19.66705], [-101.35954, 19.66652], [-101.36007, 19.66641]]]}}, {"id": "1264257", "type": "Feature", "properties": {"id": "1264257", "CVEGEO": "1605301470081003", "POBTOT": 0.0, "score_nse": 0.0, "NSE": null, "VIVTOT": 0.0, "GRAPROES": 0.0, "_ent": "16", "_mun": "053", "_loc": "0147"}, "geometry": {"type": "Polygon", "coordinates": [[[-101.35791, 19.66996], [-101.35863, 19.66989], [-101.35863, 19.67052], [-101.35796, 19.67059], [-101.35791, 19.66996]]]}}, {"id": "1264258", "type": "Feature", "properties": {"id": "1264258", "CVEGEO": "1605301470081002", "POBTOT": 0.0, "score_nse": 0.0, "NSE": null, "VIVTOT": 0.0, "GRAPROES": 0.0, "_ent": "16", "_mun": "053", "_loc": "0147"}, "geometry": {"type": "Polygon", "coordinates": [[[-101.358, 19.67139], [-101.35798, 19.67065], [-101.35862, 19.67059], [-101.35874, 19.67131], [-101.358, 19.67139]]]}}, {"id": "1264259", "type": "Feature", "properties": {"id": "1264259", "CVEGEO": "1605301470081001", "POBTOT": 0.0, "score_nse": 0.0, "NSE": null, "VIVTOT": 0.0, "GRAPROES": 0.0, "_ent": "16", "_mun": "053", "_loc": "0147"}, "geometry": {"type": "Polygon", "coordinates": [[[-101.35883, 19.67131], [-101.3587, 19.67016], [-101.35934, 19.67011], [-101.35941, 19.67032], [-101.35934, 19.66981], [-101.36008, 19.66975], [-101.36014, 19.67115], [-101.35883, 19.67131]]]}}, {"id": "1264452", "type": "Feature", "properties": {"id": "1264452", "CVEGEO": "1605301470081051", "POBTOT": 0.0, "score_nse": 0.0, "NSE": null, "VIVTOT": 0.0, "GRAPROES": 0.0, "_ent": "16", "_mun": "053", "_loc": "0147"}, "geometry": {"type": "Polygon", "coordinates": [[[-101.35105, 19.67759], [-101.35058, 19.67777], [-101.35047, 19.67659], [-101.35139, 19.677], [-101.35105, 19.67759]]]}}, {"id": "1264453", "type": "Feature", "properties": {"id": "1264453", "CVEGEO": "1605301470081040", "POBTOT": 0.0, "score_nse": 0.0, "NSE": null, "VIVTOT": 0.0, "GRAPROES": 0.0, "_ent": "16", "_mun": "053", "_loc": "0147"}, "geometry": {"type": "Polygon", "coordinates": [[[-101.35178, 19.679], [-101.35166, 19.67866], [-101.35234, 19.67748], [-101.35267, 19.67766], [-101.35194, 19.67895], [-101.35178, 19.679]]]}}, {"id": "1264529", "type": "Feature", "properties": {"id": "1264529", "CVEGEO": "1605301470081048", "POBTOT": 0.0, "score_nse": 0.0, "NSE": null, "VIVTOT": 0.0, "GRAPROES": 0.0, "_ent": "16", "_mun": "053", "_loc": "0147"}, "geometry": {"type": "Polygon", "coordinates": [[[-101.35142, 19.67692], [-101.35108, 19.67676], [-101.35167, 19.67572], [-101.35202, 19.67588], [-101.35142, 19.67692]]]}}, {"id": "1264530", "type": "Feature", "properties": {"id": "1264530", "CVEGEO": "1605301470081047", "POBTOT": 0.0, "score_nse": 0.0, "NSE": null, "VIVTOT": 0.0, "GRAPROES": 0.0, "_ent": "16", "_mun": "053", "_loc": "0147"}, "geometry": {"type": "Polygon", "coordinates": [[[-101.35187, 19.67715], [-101.35151, 19.67696], [-101.35211, 19.67592], [-101.35247, 19.67611], [-101.35187, 19.67715]]]}}, {"id": "1264531", "type": "Feature", "properties": {"id": "1264531", "CVEGEO": "1605301470081046", "POBTOT": 0.0, "score_nse": 0.0, "NSE": null, "VIVTOT": 0.0, "GRAPROES": 0.0, "_ent": "16", "_mun": "053", "_loc": "0147"}, "geometry": {"type": "Polygon", "coordinates": [[[-101.3523, 19.67737], [-101.35196, 19.67718], [-101.35255, 19.67613], [-101.3529, 19.67633], [-101.3523, 19.67737]]]}}, {"id": "1264532", "type": "Feature", "properties": {"id": "1264532", "CVEGEO": "1605301470081045", "POBTOT": 0.0, "score_nse": 0.0, "NSE": null, "VIVTOT": 0.0, "GRAPROES": 0.0, "_ent": "16", "_mun": "053", "_loc": "0147"}, "geometry": {"type": "Polygon", "coordinates": [[[-101.35207, 19.67581], [-101.35173, 19.67564], [-101.35209, 19.67497], [-101.35249, 19.67511], [-101.35207, 19.67581]]]}}, {"id": "1264533", "type": "Feature", "properties": {"id": "1264533", "CVEGEO": "1605301470081044", "POBTOT": 0.0, "score_nse": 0.0, "NSE": null, "VIVTOT": 0.0, "GRAPROES": 0.0, "_ent": "16", "_mun": "053", "_loc": "0147"}, "geometry": {"type": "Polygon", "coordinates": [[[-101.35214, 19.67585], [-101.35258, 19.67513], [-101.35296, 19.67527], [-101.3525, 19.67603], [-101.35214, 19.67585]]]}}, {"id": "1264534", "type": "Feature", "properties": {"id": "1264534", "CVEGEO": "1605301470081043", "POBTOT": 0.0, "score_nse": 0.0, "NSE": null, "VIVTOT": 0.0, "GRAPROES": 0.0, "_ent": "16", "_mun": "053", "_loc": "0147"}, "geometry": {"type": "Polygon", "coordinates": [[[-101.35294, 19.67626], [-101.35259, 19.67609], [-101.35304, 19.6753], [-101.35342, 19.67546], [-101.35294, 19.67626]]]}}, {"id": "1264538", "type": "Feature", "properties": {"id": "1264538", "CVEGEO": "1605301470081042", "POBTOT": 0.0, "score_nse": 0.0, "NSE": null, "VIVTOT": 0.0, "GRAPROES": 0.0, "_ent": "16", "_mun": "053", "_loc": "0147"}, "geometry": {"type": "Polygon", "coordinates": [[[-101.35346, 19.67536], [-101.35213, 19.67486], [-101.35223, 19.67467], [-101.35359, 19.67515], [-101.35346, 19.67536]]]}}, {"id": "1264539", "type": "Feature", "properties": {"id": "1264539", "CVEGEO": "1605301470081007", "POBTOT": 0.0, "score_nse": 0.0, "NSE": null, "VIVTOT": 0.0, "GRAPROES": 0.0, "_ent": "16", "_mun": "053", "_loc": "0147"}, "geometry": {"type": "Polygon", "coordinates": [[[-101.36018, 19.66965], [-101.36017, 19.66885], [-101.36175, 19.6691], [-101.36154, 19.66957], [-101.36018, 19.66965]]]}}, {"id": "1264540", "type": "Feature", "properties": {"id": "1264540", "CVEGEO": "1605301470081006", "POBTOT": 0.0, "score_nse": 0.0, "NSE": null, "VIVTOT": 0.0, "GRAPROES": 0.0, "_ent": "16", "_mun": "053", "_loc": "0147"}, "geometry": {"type": "Polygon", "coordinates": [[[-101.35931, 19.66886], [-101.36011, 19.66886], [-101.36009, 19.66966], [-101.35934, 19.66972], [-101.35931, 19.66886]]]}}, {"id": "1264541", "type": "Feature", "properties": {"id": "1264541", "CVEGEO": "1605301470081005", "POBTOT": 0.0, "score_nse": 0.0, "NSE": null, "VIVTOT": 0.0, "GRAPROES": 0.0, "_ent": "16", "_mun": "053", "_loc": "0147"}, "geometry": {"type": "Polygon", "coordinates": [[[-101.35859, 19.66892], [-101.35925, 19.66887], [-101.35928, 19.66973], [-101.35867, 19.66981], [-101.35859, 19.66892]]]}}, {"id": "1264619", "type": "Feature", "properties": {"id": "1264619", "CVEGEO": "1605301470081022", "POBTOT": 0.0, "score_nse": 0.0, "NSE": null, "VIVTOT": 0.0, "GRAPROES": 0.0, "_ent": "16", "_mun": "053", "_loc": "0147"}, "geometry": {"type": "Polygon", "coordinates": [[[-101.36142, 19.67039], [-101.3621, 19.6701], [-101.36186, 19.67148], [-101.36125, 19.67139], [-101.36142, 19.67039]]]}}, {"id": "1264620", "type": "Feature", "properties": {"id": "1264620", "CVEGEO": "1605301470081004", "POBTOT": 0.0, "score_nse": 0.0, "NSE": null, "VIVTOT": 0.0, "GRAPROES": 0.0, "_ent": "16", "_mun": "053", "_loc": "0147"}, "geometry": {"type": "Polygon", "coordinates": [[[-101.35826, 19.66892], [-101.35856, 19.66892], [-101.35861, 19.66981], [-101.35793, 19.66989], [-101.35826, 19.66892]]]}}, {"id": "1264652", "type": "Feature", "properties": {"id": "1264652", "CVEGEO": "1605301470081032", "POBTOT": 0.0, "score_nse": 0.0, "NSE": null, "VIVTOT": 0.0, "GRAPROES": 0.0, "_ent": "16", "_mun": "053", "_loc": "0147"}, "geometry": {"type": "Polygon", "coordinates": [[[-101.36915, 19.67035], [-101.36776, 19.6699], [-101.36925, 19.66967], [-101.36915, 19.67035]]]}}, {"id": "1264653", "type": "Feature", "properties": {"id": "1264653", "CVEGEO": "1605301470081031", "POBTOT": 0.0, "score_nse": 0.0, "NSE": null, "VIVTOT": 0.0, "GRAPROES": 0.0, "_ent": "16", "_mun": "053", "_loc": "0147"}, "geometry": {"type": "Polygon", "coordinates": [[[-101.36402, 19.66526], [-101.36459, 19.66473], [-101.36509, 19.66497], [-101.36453, 19.66544], [-101.36402, 19.66526]]]}}, {"id": "1267237", "type": "Feature", "properties": {"id": "1267237", "CVEGEO": "1605301470081053", "POBTOT": 0.0, "score_nse": 0.0, "NSE": null, "VIVTOT": 0.0, "GRAPROES": 0.0, "_ent": "16", "_mun": "053", "_loc": "0147"}, "geometry": {"type": "Polygon", "coordinates": [[[-101.35669, 19.67135], [-101.35567, 19.67298], [-101.35498, 19.67389], [-101.35461, 19.67354], [-101.35503, 19.67295], [-101.35525, 19.67295], [-101.35543, 19.67175], [-101.35611, 19.67179], [-101.35631, 19.67126], [-101.35669, 19.67135]]]}}, {"id": "1267240", "type": "Feature", "properties": {"id": "1267240", "CVEGEO": "1605301470081055", "POBTOT": 0.0, "score_nse": 0.0, "NSE": null, "VIVTOT": 0.0, "GRAPROES": 0.0, "_ent": "16", "_mun": "053", "_loc": "0147"}, "geometry": {"type": "Polygon", "coordinates": [[[-101.36794, 19.67006], [-101.36779, 19.67036], [-101.36727, 19.67031], [-101.3673, 19.67015], [-101.36638, 19.67015], [-101.36639, 19.66989], [-101.36669, 19.66985], [-101.36794, 19.67006]]]}}, {"id": "1267243", "type": "Feature", "properties": {"id": "1267243", "CVEGEO": "1605301470081056", "POBTOT": 0.0, "score_nse": 0.0, "NSE": null, "VIVTOT": 0.0, "GRAPROES": 0.0, "_ent": "16", "_mun": "053", "_loc": "0147"}, "geometry": {"type": "Polygon", "coordinates": [[[-101.36882, 19.66971], [-101.36811, 19.66984], [-101.36642, 19.66977], [-101.36475, 19.66999], [-101.36277, 19.66936], [-101.36294, 19.66898], [-101.36345, 19.66916], [-101.36354, 19.66893], [-101.36426, 19.66928], [-101.36418, 19.66948], [-101.36482, 19.66966], [-101.3652, 19.66926], [-101.36557, 19.66929], [-101.36553, 19.66953], [-101.36625, 19.66962], [-101.36631, 19.66944], [-101.36668, 19.66951], [-101.36677, 19.66921], [-101.3675, 19.6693], [-101.36757, 19.66907], [-101.36887, 19.66912], [-101.36882, 19.66971]]]}}, {"id": "1271337", "type": "Feature", "properties": {"id": "1271337", "CVEGEO": "1605301470081057", "POBTOT": 0.0, "score_nse": 0.0, "NSE": null, "VIVTOT": 0.0, "GRAPROES": 0.0, "_ent": "16", "_mun": "053", "_loc": "0147"}, "geometry": {"type": "Polygon", "coordinates": [[[-101.35092, 19.67931], [-101.35053, 19.67941], [-101.35012, 19.6781], [-101.35053, 19.678], [-101.35092, 19.67931]]]}}, {"id": "1271338", "type": "Feature", "properties": {"id": "1271338", "CVEGEO": "1605301470081058", "POBTOT": 0.0, "score_nse": 0.0, "NSE": null, "VIVTOT": 0.0, "GRAPROES": 0.0, "_ent": "16", "_mun": "053", "_loc": "0147"}, "geometry": {"type": "Polygon", "coordinates": [[[-101.34904, 19.67981], [-101.34663, 19.68045], [-101.34615, 19.67886], [-101.34853, 19.67816], [-101.34904, 19.67981]]]}}, {"id": "1271504", "type": "Feature", "properties": {"id": "1271504", "CVEGEO": "1605301470081010", "POBTOT": 0.0, "score_nse": 0.0, "NSE": null, "VIVTOT": 0.0, "GRAPROES": 0.0, "_ent": "16", "_mun": "053", "_loc": "0147"}, "geometry": {"type": "Polygon", "coordinates": [[[-101.35949, 19.67164], [-101.35943, 19.67217], [-101.35884, 19.67198], [-101.35882, 19.67169], [-101.35949, 19.67164]]]}}, {"id": "1271505", "type": "Feature", "properties": {"id": "1271505", "CVEGEO": "1605301470081026", "POBTOT": 0.0, "score_nse": 0.0, "NSE": null, "VIVTOT": 0.0, "GRAPROES": 0.0, "_ent": "16", "_mun": "053", "_loc": "0147"}, "geometry": {"type": "Polygon", "coordinates": [[[-101.36329, 19.66464], [-101.36329, 19.66444], [-101.36469, 19.66419], [-101.36438, 19.66479], [-101.36142, 19.66707], [-101.36062, 19.66684], [-101.36105, 19.66599], [-101.36138, 19.66613], [-101.36108, 19.66593], [-101.36125, 19.6657], [-101.36294, 19.665], [-101.36329, 19.66464]]]}}, {"id": "1271506", "type": "Feature", "properties": {"id": "1271506", "CVEGEO": "1605301470081030", "POBTOT": 0.0, "score_nse": 0.0, "NSE": null, "VIVTOT": 0.0, "GRAPROES": 0.0, "_ent": "16", "_mun": "053", "_loc": "0147"}, "geometry": {"type": "Polygon", "coordinates": [[[-101.36635, 19.6699], [-101.36633, 19.67024], [-101.36522, 19.67036], [-101.36509, 19.67158], [-101.36373, 19.67143], [-101.36388, 19.67069], [-101.36279, 19.67016], [-101.36222, 19.67008], [-101.36225, 19.66959], [-101.36258, 19.66973], [-101.36277, 19.66957], [-101.3645, 19.67009], [-101.36635, 19.6699]]]}}, {"id": "1271507", "type": "Feature", "properties": {"id": "1271507", "CVEGEO": "1605301470081034", "POBTOT": 0.0, "score_nse": 0.0, "NSE": null, "VIVTOT": 0.0, "GRAPROES": 0.0, "_ent": "16", "_mun": "053", "_loc": "0147"}, "geometry": {"type": "Polygon", "coordinates": [[[-101.35674, 19.67146], [-101.35692, 19.67161], [-101.35695, 19.67263], [-101.35699, 19.67158], [-101.35815, 19.67209], [-101.35759, 19.67317], [-101.35703, 19.67301], [-101.35672, 19.67377], [-101.35568, 19.67349], [-101.35584, 19.67292], [-101.35674, 19.67146]]]}}, {"id": "1271508", "type": "Feature", "properties": {"id": "1271508", "CVEGEO": "1605301470081054", "POBTOT": 0.0, "score_nse": 0.0, "NSE": null, "VIVTOT": 0.0, "GRAPROES": 0.0, "_ent": "16", "_mun": "053", "_loc": "0147"}, "geometry": {"type": "Polygon", "coordinates": [[[-101.35864, 19.66715], [-101.35826, 19.66887], [-101.35729, 19.66899], [-101.35749, 19.66818], [-101.35792, 19.6683], [-101.35816, 19.66708], [-101.35864, 19.66715]]]}}, {"id": "1271509", "type": "Feature", "properties": {"id": "1271509", "CVEGEO": "1605301470081059", "POBTOT": 0.0, "score_nse": 0.0, "NSE": null, "VIVTOT": 0.0, "GRAPROES": 0.0, "_ent": "16", "_mun": "053", "_loc": "0147"}, "geometry": {"type": "Polygon", "coordinates": [[[-101.36582, 19.66435], [-101.36518, 19.66485], [-101.36461, 19.66466], [-101.36483, 19.66413], [-101.36538, 19.6641], [-101.36582, 19.66435]]]}}, {"id": "1271510", "type": "Feature", "properties": {"id": "1271510", "CVEGEO": "1605301470081060", "POBTOT": 0.0, "score_nse": 0.0, "NSE": null, "VIVTOT": 0.0, "GRAPROES": 0.0, "_ent": "16", "_mun": "053", "_loc": "0147"}, "geometry": {"type": "Polygon", "coordinates": [[[-101.36039, 19.66604], [-101.36008, 19.66576], [-101.36041, 19.66532], [-101.36116, 19.66558], [-101.36039, 19.66604]]]}}]}