{"type": "FeatureCollection", "features": [{"id": "2387589", "type": "Feature", "properties": {"id": "2387589", "CVEGEO": "3018300700014006", "POBTOT": 0.0, "score_nse": 0.0, "NSE": null, "VIVTOT": 0.0, "GRAPROES": 0.0, "_ent": "30", "_mun": "183", "_loc": "0070"}, "geometry": {"type": "Polygon", "coordinates": [[[-97.20236, 19.98099], [-97.20196, 19.98157], [-97.20172, 19.98142], [-97.20217, 19.98088], [-97.20236, 19.98099]]]}}, {"id": "2387590", "type": "Feature", "properties": {"id": "2387590", "CVEGEO": "3018300700014001", "POBTOT": 0.0, "score_nse": 0.0, "NSE": null, "VIVTOT": 0.0, "GRAPROES": 0.0, "_ent": "30", "_mun": "183", "_loc": "0070"}, "geometry": {"type": "Polygon", "coordinates": [[[-97.2024, 19.98092], [-97.20175, 19.98054], [-97.20312, 19.97848], [-97.20376, 19.97888], [-97.2024, 19.98092]]]}}, {"id": "2387591", "type": "Feature", "properties": {"id": "2387591", "CVEGEO": "3018300700014005", "POBTOT": 0.0, "score_nse": 0.0, "NSE": null, "VIVTOT": 0.0, "GRAPROES": 0.0, "_ent": "30", "_mun": "183", "_loc": "0070"}, "geometry": {"type": "Polygon", "coordinates": [[[-97.2022, 19.97901], [-97.20263, 19.97818], [-97.20309, 19.97845], [-97.20251, 19.97925], [-97.2022, 19.97901]]]}}, {"id": "2387592", "type": "Feature", "properties": {"id": "2387592", "CVEGEO": "3018300700014004", "POBTOT": 0.0, "score_nse": 0.0, "NSE": null, "VIVTOT": 0.0, "GRAPROES": 0.0, "_ent": "30", "_mun": "183", "_loc": "0070"}, "geometry": {"type": "Polygon", "coordinates": [[[-97.20146, 19.98038], [-97.20215, 19.97912], [-97.20248, 19.9793], [-97.20169, 19.98052], [-97.20146, 19.98038]]]}}, {"id": "2388163", "type": "Feature", "properties": {"id": "2388163", "CVEGEO": "3018300700014003", "POBTOT": 0.0, "score_nse": 0.0, "NSE": null, "VIVTOT": 0.0, "GRAPROES": 0.0, "_ent": "30", "_mun": "183", "_loc": "0070"}, "geometry": {"type": "Polygon", "coordinates": [[[-97.20165, 19.98058], [-97.20134, 19.98102], [-97.20088, 19.98209], [-97.20062, 19.98192], [-97.20142, 19.98045], [-97.20165, 19.98058]]]}}, {"id": "2388164", "type": "Feature", "properties": {"id": "2388164", "CVEGEO": "3018300700014002", "POBTOT": 0.0, "score_nse": 0.0, "NSE": null, "VIVTOT": 0.0, "GRAPROES": 0.0, "_ent": "30", "_mun": "183", "_loc": "0070"}, "geometry": {"type": "Polygon", "coordinates": [[[-97.20212, 19.98085], [-97.20189, 19.98115], [-97.20151, 19.98087], [-97.2017, 19.98061], [-97.20212, 19.98085]]]}}, {"id": "2388219", "type": "Feature", "properties": {"id": "2388219", "CVEGEO": "3018300700014007", "POBTOT": 0.0, "score_nse": 0.0, "NSE": null, "VIVTOT": 0.0, "GRAPROES": 0.0, "_ent": "30", "_mun": "183", "_loc": "0070"}, "geometry": {"type": "Polygon", "coordinates": [[[-97.20186, 19.98119], [-97.20164, 19.98138], [-97.20131, 19.98118], [-97.20148, 19.98091], [-97.20186, 19.98119]]]}}]}