{"type": "FeatureCollection", "features": [{"id": "953204", "type": "Feature", "properties": {"id": "953204", "CVEGEO": "1406100110332034", "POBTOT": 0.0, "score_nse": 0.0, "NSE": null, "VIVTOT": 0.0, "GRAPROES": 0.0, "_ent": "14", "_mun": "061", "_loc": "0011"}, "geometry": {"type": "Polygon", "coordinates": [[[-103.93107, 22.05515], [-103.93164, 22.05462], [-103.93181, 22.0542], [-103.93212, 22.05403], [-103.93223, 22.05336], [-103.93243, 22.05334], [-103.9326, 22.05515], [-103.93252, 22.05571], [-103.93205, 22.0557], [-103.93107, 22.05515]]]}}, {"id": "953205", "type": "Feature", "properties": {"id": "953205", "CVEGEO": "1406100110332032", "POBTOT": 0.0, "score_nse": 0.0, "NSE": null, "VIVTOT": 0.0, "GRAPROES": 0.0, "_ent": "14", "_mun": "061", "_loc": "0011"}, "geometry": {"type": "Polygon", "coordinates": [[[-103.93428, 22.05903], [-103.9344, 22.06035], [-103.93422, 22.06084], [-103.9339, 22.061], [-103.93375, 22.06088], [-103.93379, 22.06041], [-103.93338, 22.05913], [-103.93428, 22.05903]]]}}, {"id": "953206", "type": "Feature", "properties": {"id": "953206", "CVEGEO": "1406100110332028", "POBTOT": 0.0, "score_nse": 0.0, "NSE": null, "VIVTOT": 0.0, "GRAPROES": 0.0, "_ent": "14", "_mun": "061", "_loc": "0011"}, "geometry": {"type": "Polygon", "coordinates": [[[-103.93311, 22.05762], [-103.93293, 22.05723], [-103.93241, 22.05715], [-103.93231, 22.05646], [-103.93279, 22.05642], [-103.93302, 22.05671], [-103.93341, 22.05756], [-103.93311, 22.05762]]]}}, {"id": "953207", "type": "Feature", "properties": {"id": "953207", "CVEGEO": "1406100110332027", "POBTOT": 0.0, "score_nse": 0.0, "NSE": null, "VIVTOT": 0.0, "GRAPROES": 0.0, "_ent": "14", "_mun": "061", "_loc": "0011"}, "geometry": {"type": "Polygon", "coordinates": [[[-103.93236, 22.05732], [-103.93127, 22.05671], [-103.93103, 22.05639], [-103.93113, 22.05577], [-103.93099, 22.05527], [-103.93214, 22.05592], [-103.93253, 22.05596], [-103.93275, 22.05628], [-103.93223, 22.05641], [-103.93236, 22.05732]]]}}, {"id": "953208", "type": "Feature", "properties": {"id": "953208", "CVEGEO": "1406100110332010", "POBTOT": 0.0, "score_nse": 0.0, "NSE": null, "VIVTOT": 0.0, "GRAPROES": 0.0, "_ent": "14", "_mun": "061", "_loc": "0011"}, "geometry": {"type": "Polygon", "coordinates": [[[-103.93079, 22.05709], [-103.93106, 22.05761], [-103.93077, 22.05777], [-103.93051, 22.05759], [-103.93079, 22.05709]]]}}, {"id": "953209", "type": "Feature", "properties": {"id": "953209", "CVEGEO": "1406100110332002", "POBTOT": 0.0, "score_nse": 0.0, "NSE": null, "VIVTOT": 0.0, "GRAPROES": 0.0, "_ent": "14", "_mun": "061", "_loc": "0011"}, "geometry": {"type": "Polygon", "coordinates": [[[-103.93037, 22.0587], [-103.93064, 22.05806], [-103.93117, 22.0577], [-103.93147, 22.05878], [-103.93037, 22.0587]]]}}, {"id": "953257", "type": "Feature", "properties": {"id": "953257", "CVEGEO": "1406100110332022", "POBTOT": 0.0, "score_nse": 0.0, "NSE": null, "VIVTOT": 0.0, "GRAPROES": 0.0, "_ent": "14", "_mun": "061", "_loc": "0011"}, "geometry": {"type": "Polygon", "coordinates": [[[-103.93031, 22.06143], [-103.93062, 22.06102], [-103.93182, 22.06028], [-103.93266, 22.06154], [-103.93156, 22.06178], [-103.93109, 22.06135], [-103.93031, 22.06143]]]}}, {"id": "953258", "type": "Feature", "properties": {"id": "953258", "CVEGEO": "1406100110332021", "POBTOT": 0.0, "score_nse": 0.0, "NSE": null, "VIVTOT": 0.0, "GRAPROES": 0.0, "_ent": "14", "_mun": "061", "_loc": "0011"}, "geometry": {"type": "Polygon", "coordinates": [[[-103.93205, 22.06051], [-103.93186, 22.06021], [-103.93246, 22.05959], [-103.93271, 22.05966], [-103.93281, 22.05979], [-103.93205, 22.06051]]]}}, {"id": "953293", "type": "Feature", "properties": {"id": "953293", "CVEGEO": "1406100110332001", "POBTOT": 0.0, "score_nse": 0.0, "NSE": null, "VIVTOT": 0.0, "GRAPROES": 0.0, "_ent": "14", "_mun": "061", "_loc": "0011"}, "geometry": {"type": "Polygon", "coordinates": [[[-103.93149, 22.05848], [-103.93121, 22.05766], [-103.93163, 22.05764], [-103.93233, 22.05791], [-103.93217, 22.05798], [-103.93212, 22.05844], [-103.93149, 22.05848]]]}}, {"id": "953297", "type": "Feature", "properties": {"id": "953297", "CVEGEO": "1406100110332019", "POBTOT": 0.0, "score_nse": 0.0, "NSE": null, "VIVTOT": 0.0, "GRAPROES": 0.0, "_ent": "14", "_mun": "061", "_loc": "0011"}, "geometry": {"type": "Polygon", "coordinates": [[[-103.93069, 22.05783], [-103.93003, 22.05894], [-103.92949, 22.05837], [-103.93019, 22.05797], [-103.9302, 22.05778], [-103.93042, 22.05765], [-103.93069, 22.05783]]]}}, {"id": "953326", "type": "Feature", "properties": {"id": "953326", "CVEGEO": "1406100110332037", "POBTOT": 0.0, "score_nse": 0.0, "NSE": null, "VIVTOT": 0.0, "GRAPROES": 0.0, "_ent": "14", "_mun": "061", "_loc": "0011"}, "geometry": {"type": "Polygon", "coordinates": [[[-103.93291, 22.0564], [-103.9339, 22.05629], [-103.93401, 22.05646], [-103.93411, 22.05777], [-103.93353, 22.05777], [-103.93341, 22.05711], [-103.93291, 22.0564]]]}}, {"id": "953327", "type": "Feature", "properties": {"id": "953327", "CVEGEO": "1406100110332026", "POBTOT": 0.0, "score_nse": 0.0, "NSE": null, "VIVTOT": 0.0, "GRAPROES": 0.0, "_ent": "14", "_mun": "061", "_loc": "0011"}, "geometry": {"type": "Polygon", "coordinates": [[[-103.92946, 22.05816], [-103.93052, 22.05615], [-103.93069, 22.05437], [-103.93144, 22.05451], [-103.93086, 22.0554], [-103.93107, 22.05588], [-103.93084, 22.05663], [-103.9305, 22.05694], [-103.93004, 22.05798], [-103.92946, 22.05816]]]}}, {"id": "953392", "type": "Feature", "properties": {"id": "953392", "CVEGEO": "1406100110332020", "POBTOT": 0.0, "score_nse": 0.0, "NSE": null, "VIVTOT": 0.0, "GRAPROES": 0.0, "_ent": "14", "_mun": "061", "_loc": "0011"}, "geometry": {"type": "Polygon", "coordinates": [[[-103.93213, 22.05761], [-103.93113, 22.05758], [-103.93099, 22.0571], [-103.93075, 22.05704], [-103.93071, 22.05682], [-103.931, 22.05651], [-103.93151, 22.057], [-103.93227, 22.05737], [-103.93213, 22.05761]]]}}, {"id": "953412", "type": "Feature", "properties": {"id": "953412", "CVEGEO": "1406100110332044", "POBTOT": 0.0, "score_nse": 0.0, "NSE": null, "VIVTOT": 0.0, "GRAPROES": 0.0, "_ent": "14", "_mun": "061", "_loc": "0011"}, "geometry": {"type": "Polygon", "coordinates": [[[-103.93172, 22.05932], [-103.93159, 22.05856], [-103.93205, 22.05854], [-103.93193, 22.0589], [-103.93172, 22.05932]]]}}, {"id": "953504", "type": "Feature", "properties": {"id": "953504", "CVEGEO": "1406100110332035", "POBTOT": 0.0, "score_nse": 0.0, "NSE": null, "VIVTOT": 0.0, "GRAPROES": 0.0, "_ent": "14", "_mun": "061", "_loc": "0011"}, "geometry": {"type": "Polygon", "coordinates": [[[-103.93385, 22.05623], [-103.93288, 22.05633], [-103.93275, 22.05616], [-103.9328, 22.05585], [-103.9332, 22.0556], [-103.93266, 22.05506], [-103.93262, 22.05455], [-103.93371, 22.05504], [-103.93385, 22.05623]]]}}, {"id": "953505", "type": "Feature", "properties": {"id": "953505", "CVEGEO": "1406100110332030", "POBTOT": 0.0, "score_nse": 0.0, "NSE": null, "VIVTOT": 0.0, "GRAPROES": 0.0, "_ent": "14", "_mun": "061", "_loc": "0011"}, "geometry": {"type": "Polygon", "coordinates": [[[-103.93428, 22.05896], [-103.93326, 22.05899], [-103.93299, 22.05838], [-103.93225, 22.05766], [-103.93249, 22.05724], [-103.93286, 22.05731], [-103.93306, 22.05772], [-103.93344, 22.05769], [-103.93359, 22.058], [-103.93427, 22.05812], [-103.93428, 22.05896]]]}}, {"id": "953506", "type": "Feature", "properties": {"id": "953506", "CVEGEO": "1406100110332005", "POBTOT": 0.0, "score_nse": 0.0, "NSE": null, "VIVTOT": 0.0, "GRAPROES": 0.0, "_ent": "14", "_mun": "061", "_loc": "0011"}, "geometry": {"type": "Polygon", "coordinates": [[[-103.93218, 22.0598], [-103.9308, 22.06084], [-103.93032, 22.06051], [-103.93012, 22.05914], [-103.9303, 22.05879], [-103.9315, 22.05885], [-103.93165, 22.05962], [-103.93185, 22.05982], [-103.93218, 22.0598]]]}}, {"id": "953507", "type": "Feature", "properties": {"id": "953507", "CVEGEO": "1406100110332003", "POBTOT": 0.0, "score_nse": 0.0, "NSE": null, "VIVTOT": 0.0, "GRAPROES": 0.0, "_ent": "14", "_mun": "061", "_loc": "0011"}, "geometry": {"type": "Polygon", "coordinates": [[[-103.93369, 22.06068], [-103.93336, 22.06047], [-103.9327, 22.05958], [-103.93247, 22.05947], [-103.93231, 22.05968], [-103.93194, 22.05971], [-103.93175, 22.05955], [-103.93171, 22.05939], [-103.93234, 22.058], [-103.93281, 22.05833], [-103.93316, 22.05893], [-103.93369, 22.06068]]]}}]}