{"type": "FeatureCollection", "features": [{"id": "902953", "type": "Feature", "properties": {"id": "902953", "CVEGEO": "140060070010A003", "POBTOT": 0.0, "score_nse": 0.0, "NSE": null, "VIVTOT": 0.0, "GRAPROES": 0.0, "_ent": "14", "_mun": "006", "_loc": "0070"}, "geometry": {"type": "Polygon", "coordinates": [[[-104.05788, 20.53487], [-104.05784, 20.53411], [-104.05813, 20.5336], [-104.05907, 20.53416], [-104.05996, 20.53395], [-104.0604, 20.53396], [-104.06041, 20.5342], [-104.0615, 20.5342], [-104.06167, 20.53403], [-104.06147, 20.53475], [-104.05788, 20.53487]]]}}, {"id": "902954", "type": "Feature", "properties": {"id": "902954", "CVEGEO": "140060070010A002", "POBTOT": 0.0, "score_nse": 0.0, "NSE": null, "VIVTOT": 0.0, "GRAPROES": 0.0, "_ent": "14", "_mun": "006", "_loc": "0070"}, "geometry": {"type": "Polygon", "coordinates": [[[-104.05333, 20.5346], [-104.05442, 20.53423], [-104.05574, 20.53481], [-104.05623, 20.53402], [-104.05652, 20.53414], [-104.05643, 20.53442], [-104.05675, 20.53434], [-104.05705, 20.53455], [-104.05797, 20.5334], [-104.05771, 20.534], [-104.0577, 20.53487], [-104.05291, 20.53503], [-104.05333, 20.5346]]]}}, {"id": "903068", "type": "Feature", "properties": {"id": "903068", "CVEGEO": "140060070010A005", "POBTOT": 0.0, "score_nse": 0.0, "NSE": null, "VIVTOT": 0.0, "GRAPROES": 0.0, "_ent": "14", "_mun": "006", "_loc": "0070"}, "geometry": {"type": "Polygon", "coordinates": [[[-104.05167, 20.53558], [-104.05314, 20.53511], [-104.05333, 20.53549], [-104.05286, 20.5354], [-104.05255, 20.53592], [-104.05215, 20.53586], [-104.05161, 20.53688], [-104.05167, 20.53558]]]}}, {"id": "903139", "type": "Feature", "properties": {"id": "903139", "CVEGEO": "140060070010A004", "POBTOT": 0.0, "score_nse": 0.0, "NSE": null, "VIVTOT": 0.0, "GRAPROES": 0.0, "_ent": "14", "_mun": "006", "_loc": "0070"}, "geometry": {"type": "Polygon", "coordinates": [[[-104.05364, 20.53509], [-104.05355, 20.53547], [-104.05341, 20.53548], [-104.05322, 20.53509], [-104.05364, 20.53509]]]}}, {"id": "903464", "type": "Feature", "properties": {"id": "903464", "CVEGEO": "140060070010A006", "POBTOT": 0.0, "score_nse": 0.0, "NSE": null, "VIVTOT": 0.0, "GRAPROES": 0.0, "_ent": "14", "_mun": "006", "_loc": "0070"}, "geometry": {"type": "Polygon", "coordinates": [[[-104.05159, 20.53563], [-104.05157, 20.53687], [-104.05123, 20.53688], [-104.05117, 20.53589], [-104.05159, 20.53563]]]}}, {"id": "903801", "type": "Feature", "properties": {"id": "903801", "CVEGEO": "140060070010A008", "POBTOT": 0.0, "score_nse": 0.0, "NSE": null, "VIVTOT": 0.0, "GRAPROES": 0.0, "_ent": "14", "_mun": "006", "_loc": "0070"}, "geometry": {"type": "Polygon", "coordinates": [[[-104.06202, 20.53421], [-104.06193, 20.53475], [-104.06156, 20.53476], [-104.06175, 20.53397], [-104.06224, 20.53405], [-104.06268, 20.53386], [-104.06391, 20.53418], [-104.06406, 20.53378], [-104.06438, 20.53382], [-104.06413, 20.53469], [-104.06201, 20.53474], [-104.06202, 20.53421]]]}}, {"id": "904287", "type": "Feature", "properties": {"id": "904287", "CVEGEO": "140060070010A001", "POBTOT": 0.0, "score_nse": 0.0, "NSE": null, "VIVTOT": 0.0, "GRAPROES": 0.0, "_ent": "14", "_mun": "006", "_loc": "0070"}, "geometry": {"type": "Polygon", "coordinates": [[[-104.05597, 20.53545], [-104.05506, 20.53555], [-104.05499, 20.53503], [-104.05599, 20.53501], [-104.05597, 20.53545]]]}}, {"id": "904298", "type": "Feature", "properties": {"id": "904298", "CVEGEO": "140060070010A007", "POBTOT": 0.0, "score_nse": 0.0, "NSE": null, "VIVTOT": 0.0, "GRAPROES": 0.0, "_ent": "14", "_mun": "006", "_loc": "0070"}, "geometry": {"type": "Polygon", "coordinates": [[[-104.05328, 20.53456], [-104.05263, 20.53507], [-104.05308, 20.53444], [-104.05328, 20.53456]]]}}]}