{"type": "FeatureCollection", "features": [{"id": "1714799", "type": "Feature", "properties": {"id": "1714799", "CVEGEO": "2114900030028009", "POBTOT": 0.0, "score_nse": 0.0, "NSE": null, "VIVTOT": 0.0, "GRAPROES": 0.0, "_ent": "21", "_mun": "149", "_loc": "0003"}, "geometry": {"type": "Polygon", "coordinates": [[[-97.38412, 18.56789], [-97.38382, 18.56783], [-97.38354, 18.56787], [-97.38408, 18.56741], [-97.38525, 18.56697], [-97.38625, 18.56619], [-97.3848, 18.56765], [-97.38468, 18.56749], [-97.38464, 18.56762], [-97.3842, 18.56743], [-97.38412, 18.56789]]]}}, {"id": "1714800", "type": "Feature", "properties": {"id": "1714800", "CVEGEO": "2114900030028008", "POBTOT": 0.0, "score_nse": 0.0, "NSE": null, "VIVTOT": 0.0, "GRAPROES": 0.0, "_ent": "21", "_mun": "149", "_loc": "0003"}, "geometry": {"type": "Polygon", "coordinates": [[[-97.38158, 18.56999], [-97.38213, 18.56957], [-97.38355, 18.56793], [-97.38244, 18.56999], [-97.38203, 18.57033], [-97.38158, 18.56999]]]}}, {"id": "1714801", "type": "Feature", "properties": {"id": "1714801", "CVEGEO": "2114900030028007", "POBTOT": 0.0, "score_nse": 0.0, "NSE": null, "VIVTOT": 0.0, "GRAPROES": 0.0, "_ent": "21", "_mun": "149", "_loc": "0003"}, "geometry": {"type": "Polygon", "coordinates": [[[-97.38171, 18.5693], [-97.38081, 18.56881], [-97.38173, 18.56811], [-97.38212, 18.56752], [-97.38284, 18.56691], [-97.38328, 18.5671], [-97.38171, 18.5693]]]}}, {"id": "1714802", "type": "Feature", "properties": {"id": "1714802", "CVEGEO": "2114900030028005", "POBTOT": 0.0, "score_nse": 0.0, "NSE": null, "VIVTOT": 0.0, "GRAPROES": 0.0, "_ent": "21", "_mun": "149", "_loc": "0003"}, "geometry": {"type": "Polygon", "coordinates": [[[-97.38056, 18.56929], [-97.38082, 18.56887], [-97.38207, 18.56956], [-97.38137, 18.56996], [-97.38056, 18.56929]]]}}, {"id": "1714803", "type": "Feature", "properties": {"id": "1714803", "CVEGEO": "2114900030028004", "POBTOT": 0.0, "score_nse": 0.0, "NSE": null, "VIVTOT": 0.0, "GRAPROES": 0.0, "_ent": "21", "_mun": "149", "_loc": "0003"}, "geometry": {"type": "Polygon", "coordinates": [[[-97.37996, 18.57164], [-97.37952, 18.57147], [-97.37952, 18.5713], [-97.37999, 18.5707], [-97.3801, 18.57086], [-97.37996, 18.57164]]]}}, {"id": "1714928", "type": "Feature", "properties": {"id": "1714928", "CVEGEO": "2114900030028014", "POBTOT": 0.0, "score_nse": 0.0, "NSE": null, "VIVTOT": 0.0, "GRAPROES": 0.0, "_ent": "21", "_mun": "149", "_loc": "0003"}, "geometry": {"type": "Polygon", "coordinates": [[[-97.38278, 18.56872], [-97.38211, 18.56953], [-97.38176, 18.56933], [-97.38235, 18.56857], [-97.38278, 18.56872]]]}}, {"id": "1714977", "type": "Feature", "properties": {"id": "1714977", "CVEGEO": "2114900030028013", "POBTOT": 0.0, "score_nse": 0.0, "NSE": null, "VIVTOT": 0.0, "GRAPROES": 0.0, "_ent": "21", "_mun": "149", "_loc": "0003"}, "geometry": {"type": "Polygon", "coordinates": [[[-97.38076, 18.56883], [-97.38046, 18.56927], [-97.38025, 18.56911], [-97.38015, 18.56832], [-97.38027, 18.56797], [-97.38076, 18.56883]]]}}, {"id": "1714978", "type": "Feature", "properties": {"id": "1714978", "CVEGEO": "2114900030028012", "POBTOT": 0.0, "score_nse": 0.0, "NSE": null, "VIVTOT": 0.0, "GRAPROES": 0.0, "_ent": "21", "_mun": "149", "_loc": "0003"}, "geometry": {"type": "Polygon", "coordinates": [[[-97.383, 18.5676], [-97.38332, 18.56712], [-97.3839, 18.56741], [-97.38346, 18.56784], [-97.383, 18.5676]]]}}, {"id": "1714979", "type": "Feature", "properties": {"id": "1714979", "CVEGEO": "2114900030028011", "POBTOT": 0.0, "score_nse": 0.0, "NSE": null, "VIVTOT": 0.0, "GRAPROES": 0.0, "_ent": "21", "_mun": "149", "_loc": "0003"}, "geometry": {"type": "Polygon", "coordinates": [[[-97.3829, 18.56687], [-97.38332, 18.56655], [-97.38602, 18.56619], [-97.38534, 18.56681], [-97.38395, 18.56737], [-97.3829, 18.56687]]]}}, {"id": "1714980", "type": "Feature", "properties": {"id": "1714980", "CVEGEO": "2114900030028010", "POBTOT": 0.0, "score_nse": 0.0, "NSE": null, "VIVTOT": 0.0, "GRAPROES": 0.0, "_ent": "21", "_mun": "149", "_loc": "0003"}, "geometry": {"type": "Polygon", "coordinates": [[[-97.38237, 18.56853], [-97.38297, 18.56765], [-97.38341, 18.56787], [-97.38283, 18.56868], [-97.38237, 18.56853]]]}}, {"id": "1714981", "type": "Feature", "properties": {"id": "1714981", "CVEGEO": "2114900030028002", "POBTOT": 0.0, "score_nse": 0.0, "NSE": null, "VIVTOT": 0.0, "GRAPROES": 0.0, "_ent": "21", "_mun": "149", "_loc": "0003"}, "geometry": {"type": "Polygon", "coordinates": [[[-97.37998, 18.57005], [-97.38042, 18.56996], [-97.38085, 18.57034], [-97.38028, 18.57084], [-97.38014, 18.57081], [-97.37984, 18.57057], [-97.37987, 18.56994], [-97.37998, 18.57005]]]}}, {"id": "1714982", "type": "Feature", "properties": {"id": "1714982", "CVEGEO": "2114900030028001", "POBTOT": 0.0, "score_nse": 0.0, "NSE": null, "VIVTOT": 0.0, "GRAPROES": 0.0, "_ent": "21", "_mun": "149", "_loc": "0003"}, "geometry": {"type": "Polygon", "coordinates": [[[-97.38129, 18.57087], [-97.38068, 18.57244], [-97.38024, 18.5728], [-97.38005, 18.57334], [-97.38008, 18.57118], [-97.38147, 18.57003], [-97.38197, 18.57038], [-97.38129, 18.57087]]]}}, {"id": "1715506", "type": "Feature", "properties": {"id": "1715506", "CVEGEO": "2114900030028003", "POBTOT": 0.0, "score_nse": 0.0, "NSE": null, "VIVTOT": 0.0, "GRAPROES": 0.0, "_ent": "21", "_mun": "149", "_loc": "0003"}, "geometry": {"type": "Polygon", "coordinates": [[[-97.38094, 18.57031], [-97.38012, 18.56971], [-97.38051, 18.56935], [-97.38132, 18.56999], [-97.38094, 18.57031]]]}}, {"id": "1715507", "type": "Feature", "properties": {"id": "1715507", "CVEGEO": "2114900030028015", "POBTOT": 0.0, "score_nse": 0.0, "NSE": null, "VIVTOT": 0.0, "GRAPROES": 0.0, "_ent": "21", "_mun": "149", "_loc": "0003"}, "geometry": {"type": "Polygon", "coordinates": [[[-97.38009, 18.56974], [-97.38037, 18.56992], [-97.37998, 18.56999], [-97.38009, 18.56974]]]}}]}