{"type": "FeatureCollection", "features": [{"id": "629676", "type": "Feature", "properties": {"id": "629676", "CVEGEO": "1101408380150003", "POBTOT": 0.0, "score_nse": 0.0, "NSE": null, "VIVTOT": 0.0, "GRAPROES": 0.0, "_ent": "11", "_mun": "014", "_loc": "0838"}, "geometry": {"type": "Polygon", "coordinates": [[[-100.93977, 21.12905], [-100.93953, 21.1287], [-100.93967, 21.12854], [-100.93995, 21.12895], [-100.93977, 21.12905]]]}}, {"id": "629677", "type": "Feature", "properties": {"id": "629677", "CVEGEO": "1101408380150005", "POBTOT": 0.0, "score_nse": 0.0, "NSE": null, "VIVTOT": 0.0, "GRAPROES": 0.0, "_ent": "11", "_mun": "014", "_loc": "0838"}, "geometry": {"type": "Polygon", "coordinates": [[[-100.93917, 21.12737], [-100.94011, 21.1281], [-100.93948, 21.12855], [-100.93935, 21.12836], [-100.93917, 21.12737]]]}}, {"id": "629705", "type": "Feature", "properties": {"id": "629705", "CVEGEO": "1101408380150018", "POBTOT": 0.0, "score_nse": 0.0, "NSE": null, "VIVTOT": 0.0, "GRAPROES": 0.0, "_ent": "11", "_mun": "014", "_loc": "0838"}, "geometry": {"type": "Polygon", "coordinates": [[[-100.93839, 21.12437], [-100.93846, 21.12305], [-100.93916, 21.1236], [-100.93857, 21.1245], [-100.93839, 21.12437]]]}}, {"id": "629712", "type": "Feature", "properties": {"id": "629712", "CVEGEO": "1101408380150020", "POBTOT": 0.0, "score_nse": 0.0, "NSE": null, "VIVTOT": 0.0, "GRAPROES": 0.0, "_ent": "11", "_mun": "014", "_loc": "0838"}, "geometry": {"type": "Polygon", "coordinates": [[[-100.93916, 21.12727], [-100.9391, 21.12669], [-100.93921, 21.12663], [-100.9402, 21.12781], [-100.94003, 21.12793], [-100.93916, 21.12727]]]}}, {"id": "629722", "type": "Feature", "properties": {"id": "629722", "CVEGEO": "1101408380150002", "POBTOT": 0.0, "score_nse": 0.0, "NSE": null, "VIVTOT": 0.0, "GRAPROES": 0.0, "_ent": "11", "_mun": "014", "_loc": "0838"}, "geometry": {"type": "Polygon", "coordinates": [[[-100.93979, 21.12909], [-100.93997, 21.12899], [-100.94027, 21.12947], [-100.94007, 21.12958], [-100.93979, 21.12909]]]}}, {"id": "629935", "type": "Feature", "properties": {"id": "629935", "CVEGEO": "1101408380150019", "POBTOT": 0.0, "score_nse": 0.0, "NSE": null, "VIVTOT": 0.0, "GRAPROES": 0.0, "_ent": "11", "_mun": "014", "_loc": "0838"}, "geometry": {"type": "Polygon", "coordinates": [[[-100.93505, 21.13133], [-100.93631, 21.12983], [-100.93671, 21.13034], [-100.93548, 21.13166], [-100.93505, 21.13133]]]}}, {"id": "630263", "type": "Feature", "properties": {"id": "630263", "CVEGEO": "1101408380150016", "POBTOT": 0.0, "score_nse": 0.0, "NSE": null, "VIVTOT": 0.0, "GRAPROES": 0.0, "_ent": "11", "_mun": "014", "_loc": "0838"}, "geometry": {"type": "Polygon", "coordinates": [[[-100.93862, 21.12456], [-100.93925, 21.12359], [-100.93962, 21.12373], [-100.93891, 21.12478], [-100.93862, 21.12456]]]}}, {"id": "630264", "type": "Feature", "properties": {"id": "630264", "CVEGEO": "1101408380150014", "POBTOT": 0.0, "score_nse": 0.0, "NSE": null, "VIVTOT": 0.0, "GRAPROES": 0.0, "_ent": "11", "_mun": "014", "_loc": "0838"}, "geometry": {"type": "Polygon", "coordinates": [[[-100.93919, 21.12455], [-100.93942, 21.12419], [-100.94049, 21.12483], [-100.94021, 21.12516], [-100.93919, 21.12455]]]}}, {"id": "630265", "type": "Feature", "properties": {"id": "630265", "CVEGEO": "1101408380150015", "POBTOT": 0.0, "score_nse": 0.0, "NSE": null, "VIVTOT": 0.0, "GRAPROES": 0.0, "_ent": "11", "_mun": "014", "_loc": "0838"}, "geometry": {"type": "Polygon", "coordinates": [[[-100.94008, 21.12404], [-100.94079, 21.12445], [-100.94053, 21.12477], [-100.93985, 21.12436], [-100.94008, 21.12404]]]}}, {"id": "630318", "type": "Feature", "properties": {"id": "630318", "CVEGEO": "1101408380150024", "POBTOT": 0.0, "score_nse": 0.0, "NSE": null, "VIVTOT": 0.0, "GRAPROES": 0.0, "_ent": "11", "_mun": "014", "_loc": "0838"}, "geometry": {"type": "Polygon", "coordinates": [[[-100.93832, 21.12639], [-100.93838, 21.12446], [-100.93896, 21.1249], [-100.93916, 21.1246], [-100.94018, 21.1252], [-100.939, 21.12665], [-100.93832, 21.12639]]]}}, {"id": "630319", "type": "Feature", "properties": {"id": "630319", "CVEGEO": "1101408380150023", "POBTOT": 0.0, "score_nse": 0.0, "NSE": null, "VIVTOT": 0.0, "GRAPROES": 0.0, "_ent": "11", "_mun": "014", "_loc": "0838"}, "geometry": {"type": "Polygon", "coordinates": [[[-100.93947, 21.12413], [-100.93969, 21.12382], [-100.94003, 21.12402], [-100.93981, 21.12433], [-100.93947, 21.12413]]]}}, {"id": "630608", "type": "Feature", "properties": {"id": "630608", "CVEGEO": "1101408380150025", "POBTOT": 0.0, "score_nse": 0.0, "NSE": null, "VIVTOT": 0.0, "GRAPROES": 0.0, "_ent": "11", "_mun": "014", "_loc": "0838"}, "geometry": {"type": "Polygon", "coordinates": [[[-100.93916, 21.1297], [-100.93862, 21.13176], [-100.93712, 21.13135], [-100.93687, 21.13054], [-100.93847, 21.131], [-100.93893, 21.12924], [-100.93916, 21.1297]]]}}, {"id": "630609", "type": "Feature", "properties": {"id": "630609", "CVEGEO": "1101408380150026", "POBTOT": 0.0, "score_nse": 0.0, "NSE": null, "VIVTOT": 0.0, "GRAPROES": 0.0, "_ent": "11", "_mun": "014", "_loc": "0838"}, "geometry": {"type": "Polygon", "coordinates": [[[-100.93881, 21.12936], [-100.93806, 21.12914], [-100.9384, 21.1282], [-100.93876, 21.12892], [-100.93853, 21.12893], [-100.93887, 21.12914], [-100.93881, 21.12936]]]}}, {"id": "630610", "type": "Feature", "properties": {"id": "630610", "CVEGEO": "1101408380150027", "POBTOT": 0.0, "score_nse": 0.0, "NSE": null, "VIVTOT": 0.0, "GRAPROES": 0.0, "_ent": "11", "_mun": "014", "_loc": "0838"}, "geometry": {"type": "Polygon", "coordinates": [[[-100.93841, 21.13091], [-100.93694, 21.13049], [-100.93722, 21.13022], [-100.9385, 21.13058], [-100.93841, 21.13091]]]}}, {"id": "630611", "type": "Feature", "properties": {"id": "630611", "CVEGEO": "1101408380150028", "POBTOT": 0.0, "score_nse": 0.0, "NSE": null, "VIVTOT": 0.0, "GRAPROES": 0.0, "_ent": "11", "_mun": "014", "_loc": "0838"}, "geometry": {"type": "Polygon", "coordinates": [[[-100.93871, 21.12973], [-100.93783, 21.12949], [-100.93801, 21.12922], [-100.9388, 21.12945], [-100.93871, 21.12973]]]}}, {"id": "630612", "type": "Feature", "properties": {"id": "630612", "CVEGEO": "1101408380150029", "POBTOT": 0.0, "score_nse": 0.0, "NSE": null, "VIVTOT": 0.0, "GRAPROES": 0.0, "_ent": "11", "_mun": "014", "_loc": "0838"}, "geometry": {"type": "Polygon", "coordinates": [[[-100.9385, 21.13049], [-100.93732, 21.13016], [-100.9376, 21.12991], [-100.93859, 21.1302], [-100.9385, 21.13049]]]}}, {"id": "630613", "type": "Feature", "properties": {"id": "630613", "CVEGEO": "1101408380150030", "POBTOT": 0.0, "score_nse": 0.0, "NSE": null, "VIVTOT": 0.0, "GRAPROES": 0.0, "_ent": "11", "_mun": "014", "_loc": "0838"}, "geometry": {"type": "Polygon", "coordinates": [[[-100.93858, 21.1301], [-100.93764, 21.12985], [-100.93783, 21.12957], [-100.93868, 21.12979], [-100.93858, 21.1301]]]}}, {"id": "630721", "type": "Feature", "properties": {"id": "630721", "CVEGEO": "1101408380150001", "POBTOT": 0.0, "score_nse": 0.0, "NSE": null, "VIVTOT": 0.0, "GRAPROES": 0.0, "_ent": "11", "_mun": "014", "_loc": "0838"}, "geometry": {"type": "Polygon", "coordinates": [[[-100.93938, 21.12991], [-100.9384, 21.12777], [-100.93838, 21.12646], [-100.93904, 21.12671], [-100.9393, 21.1284], [-100.93995, 21.12955], [-100.93981, 21.1297], [-100.93929, 21.12886], [-100.93975, 21.12975], [-100.93938, 21.12991]]]}}, {"id": "630722", "type": "Feature", "properties": {"id": "630722", "CVEGEO": "1101408380150004", "POBTOT": 0.0, "score_nse": 0.0, "NSE": null, "VIVTOT": 0.0, "GRAPROES": 0.0, "_ent": "11", "_mun": "014", "_loc": "0838"}, "geometry": {"type": "Polygon", "coordinates": [[[-100.94047, 21.12856], [-100.94024, 21.12806], [-100.94029, 21.12777], [-100.93985, 21.12726], [-100.94041, 21.12678], [-100.94017, 21.12694], [-100.93992, 21.12666], [-100.94007, 21.12643], [-100.93989, 21.12662], [-100.9397, 21.12643], [-100.94014, 21.12696], [-100.93981, 21.12723], [-100.93915, 21.12648], [-100.94087, 21.12444], [-100.94184, 21.12581], [-100.94151, 21.12621], [-100.94188, 21.12584], [-100.94252, 21.12639], [-100.94205, 21.12693], [-100.94165, 21.12666], [-100.94203, 21.12696], [-100.94092, 21.12825], [-100.9406, 21.12843], [-100.94081, 21.12883], [-100.94019, 21.1292], [-100.9397, 21.12842], [-100.94017, 21.12813], [-100.94047, 21.12856]]]}}, {"id": "630723", "type": "Feature", "properties": {"id": "630723", "CVEGEO": "1101408380150006", "POBTOT": 0.0, "score_nse": 0.0, "NSE": null, "VIVTOT": 0.0, "GRAPROES": 0.0, "_ent": "11", "_mun": "014", "_loc": "0838"}, "geometry": {"type": "Polygon", "coordinates": [[[-100.94107, 21.1282], [-100.94263, 21.12641], [-100.94299, 21.12666], [-100.94133, 21.12827], [-100.94107, 21.1282]]]}}, {"id": "630724", "type": "Feature", "properties": {"id": "630724", "CVEGEO": "1101408380150022", "POBTOT": 0.0, "score_nse": 0.0, "NSE": null, "VIVTOT": 0.0, "GRAPROES": 0.0, "_ent": "11", "_mun": "014", "_loc": "0838"}, "geometry": {"type": "Polygon", "coordinates": [[[-100.93958, 21.13036], [-100.94005, 21.13015], [-100.94053, 21.13091], [-100.94033, 21.13102], [-100.9401, 21.13063], [-100.9403, 21.13104], [-100.93996, 21.13122], [-100.93958, 21.13036]]]}}, {"id": "630725", "type": "Feature", "properties": {"id": "630725", "CVEGEO": "1101408380150031", "POBTOT": 0.0, "score_nse": 0.0, "NSE": null, "VIVTOT": 0.0, "GRAPROES": 0.0, "_ent": "11", "_mun": "014", "_loc": "0838"}, "geometry": {"type": "Polygon", "coordinates": [[[-100.93998, 21.13126], [-100.94036, 21.13105], [-100.94052, 21.13129], [-100.9404, 21.13103], [-100.94055, 21.13094], [-100.94109, 21.13179], [-100.94038, 21.13214], [-100.93998, 21.13126]]]}}, {"id": "630726", "type": "Feature", "properties": {"id": "630726", "CVEGEO": "1101408380150032", "POBTOT": 0.0, "score_nse": 0.0, "NSE": null, "VIVTOT": 0.0, "GRAPROES": 0.0, "_ent": "11", "_mun": "014", "_loc": "0838"}, "geometry": {"type": "Polygon", "coordinates": [[[-100.9394, 21.12994], [-100.93982, 21.12978], [-100.94001, 21.13011], [-100.93956, 21.13031], [-100.9394, 21.12994]]]}}, {"id": "630727", "type": "Feature", "properties": {"id": "630727", "CVEGEO": "1101408380150033", "POBTOT": 0.0, "score_nse": 0.0, "NSE": null, "VIVTOT": 0.0, "GRAPROES": 0.0, "_ent": "11", "_mun": "014", "_loc": "0838"}, "geometry": {"type": "Polygon", "coordinates": [[[-100.94093, 21.12888], [-100.94071, 21.12845], [-100.941, 21.12822], [-100.94142, 21.12829], [-100.94298, 21.12674], [-100.94282, 21.12716], [-100.94194, 21.12789], [-100.9423, 21.12851], [-100.94178, 21.12899], [-100.94155, 21.1288], [-100.94087, 21.12915], [-100.94078, 21.12893], [-100.94093, 21.12888]]]}}]}