{"type": "FeatureCollection", "features": [{"id": "843725", "type": "Feature", "properties": {"id": "843725", "CVEGEO": "1303000170030001", "POBTOT": 0.0, "score_nse": 0.0, "NSE": null, "VIVTOT": 0.0, "GRAPROES": 0.0, "_ent": "13", "_mun": "030", "_loc": "0017"}, "geometry": {"type": "Polygon", "coordinates": [[[-99.17869, 20.555], [-99.1786, 20.55452], [-99.17885, 20.55447], [-99.17894, 20.55496], [-99.17869, 20.555]]]}}, {"id": "843726", "type": "Feature", "properties": {"id": "843726", "CVEGEO": "1303000170030002", "POBTOT": 0.0, "score_nse": 0.0, "NSE": null, "VIVTOT": 0.0, "GRAPROES": 0.0, "_ent": "13", "_mun": "030", "_loc": "0017"}, "geometry": {"type": "Polygon", "coordinates": [[[-99.17847, 20.55415], [-99.17877, 20.55439], [-99.17854, 20.55445], [-99.17847, 20.55415]]]}}, {"id": "843727", "type": "Feature", "properties": {"id": "843727", "CVEGEO": "1303000170030003", "POBTOT": 0.0, "score_nse": 0.0, "NSE": null, "VIVTOT": 0.0, "GRAPROES": 0.0, "_ent": "13", "_mun": "030", "_loc": "0017"}, "geometry": {"type": "Polygon", "coordinates": [[[-99.17908, 20.55496], [-99.17889, 20.55436], [-99.17994, 20.5543], [-99.17993, 20.55415], [-99.17887, 20.55427], [-99.17898, 20.55331], [-99.17953, 20.55309], [-99.18023, 20.55364], [-99.18015, 20.55401], [-99.18033, 20.5536], [-99.1808, 20.55344], [-99.18054, 20.55435], [-99.17908, 20.55496]]]}}, {"id": "843728", "type": "Feature", "properties": {"id": "843728", "CVEGEO": "1303000170030004", "POBTOT": 0.0, "score_nse": 0.0, "NSE": null, "VIVTOT": 0.0, "GRAPROES": 0.0, "_ent": "13", "_mun": "030", "_loc": "0017"}, "geometry": {"type": "Polygon", "coordinates": [[[-99.17855, 20.55502], [-99.17835, 20.55457], [-99.17845, 20.55455], [-99.17855, 20.55502]]]}}, {"id": "843729", "type": "Feature", "properties": {"id": "843729", "CVEGEO": "1303000170030005", "POBTOT": 0.0, "score_nse": 0.0, "NSE": null, "VIVTOT": 0.0, "GRAPROES": 0.0, "_ent": "13", "_mun": "030", "_loc": "0017"}, "geometry": {"type": "Polygon", "coordinates": [[[-99.17843, 20.55447], [-99.17826, 20.55421], [-99.17822, 20.55397], [-99.17843, 20.55447]]]}}, {"id": "843730", "type": "Feature", "properties": {"id": "843730", "CVEGEO": "1303000170030006", "POBTOT": 0.0, "score_nse": 0.0, "NSE": null, "VIVTOT": 0.0, "GRAPROES": 0.0, "_ent": "13", "_mun": "030", "_loc": "0017"}, "geometry": {"type": "Polygon", "coordinates": [[[-99.18007, 20.55349], [-99.1796, 20.55304], [-99.18067, 20.55251], [-99.18077, 20.55201], [-99.18127, 20.5521], [-99.1808, 20.55329], [-99.18007, 20.55349]]]}}, {"id": "843731", "type": "Feature", "properties": {"id": "843731", "CVEGEO": "1303000170030007", "POBTOT": 0.0, "score_nse": 0.0, "NSE": null, "VIVTOT": 0.0, "GRAPROES": 0.0, "_ent": "13", "_mun": "030", "_loc": "0017"}, "geometry": {"type": "Polygon", "coordinates": [[[-99.17776, 20.55518], [-99.17752, 20.55403], [-99.17757, 20.55383], [-99.17773, 20.55414], [-99.17764, 20.55378], [-99.17777, 20.55367], [-99.17811, 20.55384], [-99.17837, 20.55505], [-99.17776, 20.55518]]]}}, {"id": "843732", "type": "Feature", "properties": {"id": "843732", "CVEGEO": "1303000170030008", "POBTOT": 0.0, "score_nse": 0.0, "NSE": null, "VIVTOT": 0.0, "GRAPROES": 0.0, "_ent": "13", "_mun": "030", "_loc": "0017"}, "geometry": {"type": "Polygon", "coordinates": [[[-99.17941, 20.55283], [-99.17965, 20.55109], [-99.18009, 20.55079], [-99.18093, 20.55072], [-99.18137, 20.55139], [-99.18129, 20.55203], [-99.1807, 20.55196], [-99.18053, 20.55251], [-99.17954, 20.55297], [-99.17941, 20.55283]]]}}, {"id": "843733", "type": "Feature", "properties": {"id": "843733", "CVEGEO": "1303000170030010", "POBTOT": 0.0, "score_nse": 0.0, "NSE": null, "VIVTOT": 0.0, "GRAPROES": 0.0, "_ent": "13", "_mun": "030", "_loc": "0017"}, "geometry": {"type": "Polygon", "coordinates": [[[-99.17882, 20.55416], [-99.17815, 20.5537], [-99.1789, 20.55335], [-99.17882, 20.55416]]]}}, {"id": "843734", "type": "Feature", "properties": {"id": "843734", "CVEGEO": "1303000170030011", "POBTOT": 0.0, "score_nse": 0.0, "NSE": null, "VIVTOT": 0.0, "GRAPROES": 0.0, "_ent": "13", "_mun": "030", "_loc": "0017"}, "geometry": {"type": "Polygon", "coordinates": [[[-99.17949, 20.55489], [-99.18025, 20.55469], [-99.18029, 20.55506], [-99.18059, 20.55549], [-99.17949, 20.55489]]]}}, {"id": "843735", "type": "Feature", "properties": {"id": "843735", "CVEGEO": "1303000170030012", "POBTOT": 0.0, "score_nse": 0.0, "NSE": null, "VIVTOT": 0.0, "GRAPROES": 0.0, "_ent": "13", "_mun": "030", "_loc": "0017"}, "geometry": {"type": "Polygon", "coordinates": [[[-99.18055, 20.5558], [-99.17916, 20.55519], [-99.17909, 20.55506], [-99.17936, 20.55495], [-99.18029, 20.55543], [-99.18022, 20.55559], [-99.18034, 20.55545], [-99.18058, 20.55557], [-99.18055, 20.5558]]]}}, {"id": "843736", "type": "Feature", "properties": {"id": "843736", "CVEGEO": "1303000170030013", "POBTOT": 0.0, "score_nse": 0.0, "NSE": null, "VIVTOT": 0.0, "GRAPROES": 0.0, "_ent": "13", "_mun": "030", "_loc": "0017"}, "geometry": {"type": "Polygon", "coordinates": [[[-99.17888, 20.55328], [-99.17779, 20.5536], [-99.17616, 20.55075], [-99.17748, 20.55063], [-99.17749, 20.55108], [-99.17836, 20.55284], [-99.17891, 20.553], [-99.17888, 20.55328]]]}}, {"id": "843737", "type": "Feature", "properties": {"id": "843737", "CVEGEO": "1303000170030016", "POBTOT": 0.0, "score_nse": 0.0, "NSE": null, "VIVTOT": 0.0, "GRAPROES": 0.0, "_ent": "13", "_mun": "030", "_loc": "0017"}, "geometry": {"type": "Polygon", "coordinates": [[[-99.17586, 20.54954], [-99.17589, 20.5477], [-99.17762, 20.5479], [-99.17761, 20.54959], [-99.17779, 20.54988], [-99.17754, 20.55056], [-99.17619, 20.55065], [-99.17574, 20.54968], [-99.17586, 20.54954]]]}}, {"id": "843738", "type": "Feature", "properties": {"id": "843738", "CVEGEO": "1303000170030020", "POBTOT": 0.0, "score_nse": 0.0, "NSE": null, "VIVTOT": 0.0, "GRAPROES": 0.0, "_ent": "13", "_mun": "030", "_loc": "0017"}, "geometry": {"type": "Polygon", "coordinates": [[[-99.17838, 20.55513], [-99.1781, 20.55552], [-99.17791, 20.55559], [-99.17785, 20.55523], [-99.17838, 20.55513]]]}}, {"id": "843739", "type": "Feature", "properties": {"id": "843739", "CVEGEO": "1303000170030021", "POBTOT": 0.0, "score_nse": 0.0, "NSE": null, "VIVTOT": 0.0, "GRAPROES": 0.0, "_ent": "13", "_mun": "030", "_loc": "0017"}, "geometry": {"type": "Polygon", "coordinates": [[[-99.17786, 20.55552], [-99.17653, 20.55568], [-99.1765, 20.5555], [-99.1778, 20.55525], [-99.17786, 20.55552]]]}}, {"id": "844937", "type": "Feature", "properties": {"id": "844937", "CVEGEO": "1303000170030022", "POBTOT": 0.0, "score_nse": 0.0, "NSE": null, "VIVTOT": 0.0, "GRAPROES": 0.0, "_ent": "13", "_mun": "030", "_loc": "0017"}, "geometry": {"type": "Polygon", "coordinates": [[[-99.17575, 20.55581], [-99.17634, 20.55553], [-99.17632, 20.55651], [-99.17559, 20.55652], [-99.17575, 20.55581]]]}}]}