{"type": "FeatureCollection", "features": [{"id": "2328371", "type": "Feature", "properties": {"id": "2328371", "CVEGEO": "3011700240042011", "POBTOT": 0.0, "score_nse": 0.0, "NSE": null, "VIVTOT": 0.0, "GRAPROES": 0.0, "_ent": "30", "_mun": "117", "_loc": "0024"}, "geometry": {"type": "Polygon", "coordinates": [[[-96.66802, 18.73682], [-96.66857, 18.73683], [-96.66836, 18.73773], [-96.66775, 18.73792], [-96.66802, 18.73682]]]}}, {"id": "2328372", "type": "Feature", "properties": {"id": "2328372", "CVEGEO": "3011700240042010", "POBTOT": 0.0, "score_nse": 0.0, "NSE": null, "VIVTOT": 0.0, "GRAPROES": 0.0, "_ent": "30", "_mun": "117", "_loc": "0024"}, "geometry": {"type": "Polygon", "coordinates": [[[-96.67401, 18.73789], [-96.6739, 18.73823], [-96.67302, 18.73822], [-96.67315, 18.73786], [-96.67401, 18.73789]]]}}, {"id": "2328373", "type": "Feature", "properties": {"id": "2328373", "CVEGEO": "3011700240042009", "POBTOT": 0.0, "score_nse": 0.0, "NSE": null, "VIVTOT": 0.0, "GRAPROES": 0.0, "_ent": "30", "_mun": "117", "_loc": "0024"}, "geometry": {"type": "Polygon", "coordinates": [[[-96.67405, 18.7378], [-96.67318, 18.73777], [-96.67345, 18.73699], [-96.67428, 18.73706], [-96.67405, 18.7378]]]}}, {"id": "2328463", "type": "Feature", "properties": {"id": "2328463", "CVEGEO": "3011700240042008", "POBTOT": 0.0, "score_nse": 0.0, "NSE": null, "VIVTOT": 0.0, "GRAPROES": 0.0, "_ent": "30", "_mun": "117", "_loc": "0024"}, "geometry": {"type": "Polygon", "coordinates": [[[-96.66865, 18.73683], [-96.66956, 18.73685], [-96.66941, 18.73765], [-96.66844, 18.73769], [-96.66865, 18.73683]]]}}, {"id": "2328464", "type": "Feature", "properties": {"id": "2328464", "CVEGEO": "3011700240042006", "POBTOT": 0.0, "score_nse": 0.0, "NSE": null, "VIVTOT": 0.0, "GRAPROES": 0.0, "_ent": "30", "_mun": "117", "_loc": "0024"}, "geometry": {"type": "Polygon", "coordinates": [[[-96.67218, 18.73783], [-96.67248, 18.73784], [-96.67306, 18.73786], [-96.67293, 18.73821], [-96.67208, 18.73819], [-96.67218, 18.73783]]]}}, {"id": "2328465", "type": "Feature", "properties": {"id": "2328465", "CVEGEO": "3011700240042005", "POBTOT": 0.0, "score_nse": 0.0, "NSE": null, "VIVTOT": 0.0, "GRAPROES": 0.0, "_ent": "30", "_mun": "117", "_loc": "0024"}, "geometry": {"type": "Polygon", "coordinates": [[[-96.67334, 18.73698], [-96.67308, 18.73776], [-96.67222, 18.73773], [-96.67247, 18.73696], [-96.67334, 18.73698]]]}}, {"id": "2328466", "type": "Feature", "properties": {"id": "2328466", "CVEGEO": "3011700240042004", "POBTOT": 0.0, "score_nse": 0.0, "NSE": null, "VIVTOT": 0.0, "GRAPROES": 0.0, "_ent": "30", "_mun": "117", "_loc": "0024"}, "geometry": {"type": "Polygon", "coordinates": [[[-96.67152, 18.73691], [-96.67238, 18.73697], [-96.67214, 18.73774], [-96.67129, 18.73771], [-96.67152, 18.73691]]]}}, {"id": "2328467", "type": "Feature", "properties": {"id": "2328467", "CVEGEO": "3011700240042003", "POBTOT": 0.0, "score_nse": 0.0, "NSE": null, "VIVTOT": 0.0, "GRAPROES": 0.0, "_ent": "30", "_mun": "117", "_loc": "0024"}, "geometry": {"type": "Polygon", "coordinates": [[[-96.66965, 18.73685], [-96.67143, 18.7369], [-96.67122, 18.73771], [-96.66947, 18.73766], [-96.66965, 18.73685]]]}}, {"id": "2328468", "type": "Feature", "properties": {"id": "2328468", "CVEGEO": "3011700240042002", "POBTOT": 0.0, "score_nse": 0.0, "NSE": null, "VIVTOT": 0.0, "GRAPROES": 0.0, "_ent": "30", "_mun": "117", "_loc": "0024"}, "geometry": {"type": "Polygon", "coordinates": [[[-96.66842, 18.73781], [-96.67007, 18.73776], [-96.67119, 18.7378], [-96.67108, 18.73817], [-96.66837, 18.73809], [-96.66842, 18.73781]]]}}, {"id": "2328577", "type": "Feature", "properties": {"id": "2328577", "CVEGEO": "3011700240042013", "POBTOT": 0.0, "score_nse": 0.0, "NSE": null, "VIVTOT": 0.0, "GRAPROES": 0.0, "_ent": "30", "_mun": "117", "_loc": "0024"}, "geometry": {"type": "Polygon", "coordinates": [[[-96.6675, 18.73803], [-96.66741, 18.73842], [-96.66729, 18.73839], [-96.66727, 18.73804], [-96.6675, 18.73803]]]}}, {"id": "2328578", "type": "Feature", "properties": {"id": "2328578", "CVEGEO": "3011700240042012", "POBTOT": 0.0, "score_nse": 0.0, "NSE": null, "VIVTOT": 0.0, "GRAPROES": 0.0, "_ent": "30", "_mun": "117", "_loc": "0024"}, "geometry": {"type": "Polygon", "coordinates": [[[-96.67257, 18.73826], [-96.67359, 18.7383], [-96.67388, 18.7383], [-96.67377, 18.73864], [-96.67251, 18.7386], [-96.67257, 18.73826]]]}}, {"id": "2328740", "type": "Feature", "properties": {"id": "2328740", "CVEGEO": "3011700240042001", "POBTOT": 0.0, "score_nse": 0.0, "NSE": null, "VIVTOT": 0.0, "GRAPROES": 0.0, "_ent": "30", "_mun": "117", "_loc": "0024"}, "geometry": {"type": "Polygon", "coordinates": [[[-96.67126, 18.73781], [-96.67211, 18.73783], [-96.672, 18.73818], [-96.67115, 18.73817], [-96.67126, 18.73781]]]}}, {"id": "2328918", "type": "Feature", "properties": {"id": "2328918", "CVEGEO": "3011700240042007", "POBTOT": 0.0, "score_nse": 0.0, "NSE": null, "VIVTOT": 0.0, "GRAPROES": 0.0, "_ent": "30", "_mun": "117", "_loc": "0024"}, "geometry": {"type": "Polygon", "coordinates": [[[-96.67253, 18.73826], [-96.67248, 18.7386], [-96.66909, 18.73851], [-96.66916, 18.73818], [-96.67253, 18.73826]]]}}, {"id": "2328919", "type": "Feature", "properties": {"id": "2328919", "CVEGEO": "3011700240042014", "POBTOT": 0.0, "score_nse": 0.0, "NSE": null, "VIVTOT": 0.0, "GRAPROES": 0.0, "_ent": "30", "_mun": "117", "_loc": "0024"}, "geometry": {"type": "Polygon", "coordinates": [[[-96.66907, 18.73818], [-96.66897, 18.73875], [-96.66793, 18.73869], [-96.66795, 18.73853], [-96.66745, 18.73842], [-96.66754, 18.73803], [-96.66835, 18.73783], [-96.66827, 18.73824], [-96.66907, 18.73818]]]}}]}