{"type": "FeatureCollection", "features": [{"id": "2385687", "type": "Feature", "properties": {"id": "2385687", "CVEGEO": "3018000020012001", "POBTOT": 0.0, "score_nse": 0.0, "NSE": null, "VIVTOT": 0.0, "GRAPROES": 0.0, "_ent": "30", "_mun": "180", "_loc": "0002"}, "geometry": {"type": "Polygon", "coordinates": [[[-98.17827, 20.69648], [-98.1789, 20.69694], [-98.17854, 20.69754], [-98.1784, 20.69821], [-98.17797, 20.69812], [-98.17741, 20.69774], [-98.17827, 20.69648]]]}}, {"id": "2385688", "type": "Feature", "properties": {"id": "2385688", "CVEGEO": "3018000020012010", "POBTOT": 0.0, "score_nse": 0.0, "NSE": null, "VIVTOT": 0.0, "GRAPROES": 0.0, "_ent": "30", "_mun": "180", "_loc": "0002"}, "geometry": {"type": "Polygon", "coordinates": [[[-98.18016, 20.69623], [-98.17928, 20.69716], [-98.17909, 20.69769], [-98.17859, 20.69758], [-98.17896, 20.69694], [-98.17927, 20.69692], [-98.18021, 20.69593], [-98.18016, 20.69623]]]}}, {"id": "2385689", "type": "Feature", "properties": {"id": "2385689", "CVEGEO": "3018000020012007", "POBTOT": 0.0, "score_nse": 0.0, "NSE": null, "VIVTOT": 0.0, "GRAPROES": 0.0, "_ent": "30", "_mun": "180", "_loc": "0002"}, "geometry": {"type": "Polygon", "coordinates": [[[-98.18001, 20.69606], [-98.17922, 20.69689], [-98.17899, 20.6969], [-98.17912, 20.69664], [-98.18001, 20.69606]]]}}, {"id": "2385690", "type": "Feature", "properties": {"id": "2385690", "CVEGEO": "3018000020012011", "POBTOT": 0.0, "score_nse": 0.0, "NSE": null, "VIVTOT": 0.0, "GRAPROES": 0.0, "_ent": "30", "_mun": "180", "_loc": "0002"}, "geometry": {"type": "Polygon", "coordinates": [[[-98.17983, 20.69809], [-98.17935, 20.6984], [-98.17915, 20.69873], [-98.17867, 20.69872], [-98.17842, 20.69852], [-98.17857, 20.69763], [-98.17946, 20.69784], [-98.17983, 20.69809]]]}}, {"id": "2385691", "type": "Feature", "properties": {"id": "2385691", "CVEGEO": "3018000020012006", "POBTOT": 0.0, "score_nse": 0.0, "NSE": null, "VIVTOT": 0.0, "GRAPROES": 0.0, "_ent": "30", "_mun": "180", "_loc": "0002"}, "geometry": {"type": "Polygon", "coordinates": [[[-98.18192, 20.69504], [-98.18105, 20.6959], [-98.18029, 20.69589], [-98.18097, 20.69507], [-98.18192, 20.69504]]]}}, {"id": "2385692", "type": "Feature", "properties": {"id": "2385692", "CVEGEO": "3018000020012005", "POBTOT": 0.0, "score_nse": 0.0, "NSE": null, "VIVTOT": 0.0, "GRAPROES": 0.0, "_ent": "30", "_mun": "180", "_loc": "0002"}, "geometry": {"type": "Polygon", "coordinates": [[[-98.18255, 20.6941], [-98.18197, 20.69499], [-98.18113, 20.69509], [-98.18076, 20.69483], [-98.18128, 20.69416], [-98.18239, 20.69355], [-98.18255, 20.6941]]]}}, {"id": "2385693", "type": "Feature", "properties": {"id": "2385693", "CVEGEO": "3018000020012004", "POBTOT": 0.0, "score_nse": 0.0, "NSE": null, "VIVTOT": 0.0, "GRAPROES": 0.0, "_ent": "30", "_mun": "180", "_loc": "0002"}, "geometry": {"type": "Polygon", "coordinates": [[[-98.17944, 20.69514], [-98.17951, 20.69468], [-98.17911, 20.69399], [-98.17923, 20.69314], [-98.17972, 20.69381], [-98.18006, 20.69391], [-98.18032, 20.69333], [-98.1806, 20.6933], [-98.18093, 20.69357], [-98.18119, 20.69412], [-98.1807, 20.69471], [-98.18091, 20.69507], [-98.1802, 20.69585], [-98.17944, 20.69514]]]}}, {"id": "2385694", "type": "Feature", "properties": {"id": "2385694", "CVEGEO": "3018000020012003", "POBTOT": 0.0, "score_nse": 0.0, "NSE": null, "VIVTOT": 0.0, "GRAPROES": 0.0, "_ent": "30", "_mun": "180", "_loc": "0002"}, "geometry": {"type": "Polygon", "coordinates": [[[-98.17963, 20.69683], [-98.18036, 20.69596], [-98.18099, 20.69595], [-98.18042, 20.6968], [-98.1804, 20.69759], [-98.18021, 20.6973], [-98.17959, 20.69707], [-98.17963, 20.69683]]]}}, {"id": "2385695", "type": "Feature", "properties": {"id": "2385695", "CVEGEO": "3018000020012002", "POBTOT": 0.0, "score_nse": 0.0, "NSE": null, "VIVTOT": 0.0, "GRAPROES": 0.0, "_ent": "30", "_mun": "180", "_loc": "0002"}, "geometry": {"type": "Polygon", "coordinates": [[[-98.17953, 20.69337], [-98.18037, 20.69258], [-98.18133, 20.69253], [-98.18236, 20.69352], [-98.18126, 20.69411], [-98.18097, 20.69352], [-98.18045, 20.69314], [-98.18008, 20.69381], [-98.17976, 20.69375], [-98.17953, 20.69337]]]}}, {"id": "2385696", "type": "Feature", "properties": {"id": "2385696", "CVEGEO": "3018000020012008", "POBTOT": 0.0, "score_nse": 0.0, "NSE": null, "VIVTOT": 0.0, "GRAPROES": 0.0, "_ent": "30", "_mun": "180", "_loc": "0002"}, "geometry": {"type": "Polygon", "coordinates": [[[-98.18016, 20.69586], [-98.17908, 20.69659], [-98.17894, 20.69689], [-98.17832, 20.69645], [-98.18016, 20.69586]]]}}, {"id": "2385767", "type": "Feature", "properties": {"id": "2385767", "CVEGEO": "3018000020012009", "POBTOT": 0.0, "score_nse": 0.0, "NSE": null, "VIVTOT": 0.0, "GRAPROES": 0.0, "_ent": "30", "_mun": "180", "_loc": "0002"}, "geometry": {"type": "Polygon", "coordinates": [[[-98.1804, 20.69764], [-98.17986, 20.69806], [-98.17954, 20.6978], [-98.1797, 20.69748], [-98.17964, 20.69722], [-98.18018, 20.69734], [-98.1804, 20.69764]]]}}, {"id": "2385768", "type": "Feature", "properties": {"id": "2385768", "CVEGEO": "3018000020012012", "POBTOT": 0.0, "score_nse": 0.0, "NSE": null, "VIVTOT": 0.0, "GRAPROES": 0.0, "_ent": "30", "_mun": "180", "_loc": "0002"}, "geometry": {"type": "Polygon", "coordinates": [[[-98.17958, 20.69723], [-98.17958, 20.6977], [-98.1792, 20.6977], [-98.17934, 20.69722], [-98.17958, 20.69723]]]}}]}