{"type": "FeatureCollection", "features": [{"id": "297803", "type": "Feature", "properties": {"id": "297803", "CVEGEO": "0707704460116002", "POBTOT": 0.0, "score_nse": 0.0, "NSE": null, "VIVTOT": 0.0, "GRAPROES": 0.0, "_ent": "07", "_mun": "077", "_loc": "0446"}, "geometry": {"type": "Polygon", "coordinates": [[[-92.17517, 17.35459], [-92.17479, 17.3543], [-92.17538, 17.35364], [-92.17574, 17.35392], [-92.17517, 17.35459]]]}}, {"id": "298778", "type": "Feature", "properties": {"id": "298778", "CVEGEO": "0707704460116003", "POBTOT": 0.0, "score_nse": 0.0, "NSE": null, "VIVTOT": 0.0, "GRAPROES": 0.0, "_ent": "07", "_mun": "077", "_loc": "0446"}, "geometry": {"type": "Polygon", "coordinates": [[[-92.17586, 17.35387], [-92.17602, 17.3537], [-92.17665, 17.3541], [-92.17645, 17.35433], [-92.17586, 17.35387]]]}}, {"id": "298780", "type": "Feature", "properties": {"id": "298780", "CVEGEO": "0707704460116006", "POBTOT": 0.0, "score_nse": 0.0, "NSE": null, "VIVTOT": 0.0, "GRAPROES": 0.0, "_ent": "07", "_mun": "077", "_loc": "0446"}, "geometry": {"type": "Polygon", "coordinates": [[[-92.1759, 17.35511], [-92.17698, 17.35378], [-92.17735, 17.35405], [-92.17623, 17.35536], [-92.1759, 17.35511]]]}}, {"id": "298781", "type": "Feature", "properties": {"id": "298781", "CVEGEO": "0707704460116005", "POBTOT": 0.0, "score_nse": 0.0, "NSE": null, "VIVTOT": 0.0, "GRAPROES": 0.0, "_ent": "07", "_mun": "077", "_loc": "0446"}, "geometry": {"type": "Polygon", "coordinates": [[[-92.17605, 17.35364], [-92.17635, 17.35329], [-92.17694, 17.35376], [-92.17669, 17.35405], [-92.17605, 17.35364]]]}}, {"id": "298782", "type": "Feature", "properties": {"id": "298782", "CVEGEO": "0707704460116004", "POBTOT": 0.0, "score_nse": 0.0, "NSE": null, "VIVTOT": 0.0, "GRAPROES": 0.0, "_ent": "07", "_mun": "077", "_loc": "0446"}, "geometry": {"type": "Polygon", "coordinates": [[[-92.17631, 17.35326], [-92.17582, 17.35384], [-92.17544, 17.35355], [-92.17592, 17.35296], [-92.17631, 17.35326]]]}}, {"id": "298845", "type": "Feature", "properties": {"id": "298845", "CVEGEO": "0707704460116001", "POBTOT": 0.0, "score_nse": 0.0, "NSE": null, "VIVTOT": 0.0, "GRAPROES": 0.0, "_ent": "07", "_mun": "077", "_loc": "0446"}, "geometry": {"type": "Polygon", "coordinates": [[[-92.17585, 17.35506], [-92.17525, 17.35461], [-92.17579, 17.35396], [-92.17637, 17.35442], [-92.17585, 17.35506]]]}}]}