{"type": "FeatureCollection", "features": [{"id": "1104982", "type": "Feature", "properties": {"id": "1104982", "CVEGEO": "1504200420153001", "POBTOT": 0.0, "score_nse": 0.0, "NSE": null, "VIVTOT": 0.0, "GRAPROES": 0.0, "_ent": "15", "_mun": "042", "_loc": "0042"}, "geometry": {"type": "Polygon", "coordinates": [[[-99.82384, 19.63159], [-99.82358, 19.63212], [-99.8228, 19.63185], [-99.82067, 19.63176], [-99.82116, 19.63037], [-99.82119, 19.62968], [-99.82178, 19.62819], [-99.82198, 19.62823], [-99.82173, 19.62804], [-99.82102, 19.62994], [-99.8211, 19.63036], [-99.82061, 19.63177], [-99.81963, 19.63171], [-99.82069, 19.62842], [-99.81995, 19.63023], [-99.81946, 19.63017], [-99.82, 19.63047], [-99.81957, 19.63171], [-99.8177, 19.63164], [-99.81931, 19.62838], [-99.81981, 19.62811], [-99.8202, 19.62746], [-99.8206, 19.6274], [-99.81994, 19.62726], [-99.81995, 19.6271], [-99.82064, 19.62711], [-99.82199, 19.62681], [-99.82281, 19.62632], [-99.82326, 19.62577], [-99.82378, 19.62553], [-99.82584, 19.6261], [-99.82722, 19.62715], [-99.82636, 19.62894], [-99.82542, 19.62821], [-99.82629, 19.62901], [-99.82594, 19.63067], [-99.82472, 19.62965], [-99.8259, 19.63072], [-99.82508, 19.63263], [-99.82363, 19.63214], [-99.82384, 19.63159]]]}}, {"id": "1104983", "type": "Feature", "properties": {"id": "1104983", "CVEGEO": "1504200420153005", "POBTOT": 0.0, "score_nse": 0.0, "NSE": null, "VIVTOT": 0.0, "GRAPROES": 0.0, "_ent": "15", "_mun": "042", "_loc": "0042"}, "geometry": {"type": "Polygon", "coordinates": [[[-99.8147, 19.6263], [-99.81562, 19.62676], [-99.81522, 19.62762], [-99.81566, 19.62678], [-99.81744, 19.62781], [-99.81699, 19.62856], [-99.81576, 19.62792], [-99.81696, 19.62859], [-99.81657, 19.62928], [-99.81607, 19.62899], [-99.81653, 19.62934], [-99.81567, 19.63144], [-99.81479, 19.63128], [-99.81509, 19.62972], [-99.8147, 19.63126], [-99.81387, 19.63113], [-99.81435, 19.62931], [-99.81475, 19.62945], [-99.81436, 19.62926], [-99.81459, 19.62841], [-99.81535, 19.62875], [-99.8146, 19.62836], [-99.81484, 19.62746], [-99.8143, 19.62704], [-99.8147, 19.6263]]]}}, {"id": "1104984", "type": "Feature", "properties": {"id": "1104984", "CVEGEO": "1504200420153006", "POBTOT": 0.0, "score_nse": 0.0, "NSE": null, "VIVTOT": 0.0, "GRAPROES": 0.0, "_ent": "15", "_mun": "042", "_loc": "0042"}, "geometry": {"type": "Polygon", "coordinates": [[[-99.81052, 19.63238], [-99.8114, 19.63112], [-99.81125, 19.63091], [-99.81132, 19.63122], [-99.81049, 19.63235], [-99.81028, 19.63154], [-99.8104, 19.63127], [-99.81022, 19.63145], [-99.81036, 19.63225], [-99.80855, 19.6302], [-99.80977, 19.62799], [-99.81225, 19.63], [-99.81297, 19.63112], [-99.81404, 19.63131], [-99.81318, 19.63202], [-99.8124, 19.63102], [-99.81321, 19.63227], [-99.81253, 19.6328], [-99.81198, 19.63208], [-99.8125, 19.63283], [-99.81189, 19.63369], [-99.81176, 19.63333], [-99.81052, 19.63238]]]}}, {"id": "1104985", "type": "Feature", "properties": {"id": "1104985", "CVEGEO": "1504200420153008", "POBTOT": 0.0, "score_nse": 0.0, "NSE": null, "VIVTOT": 0.0, "GRAPROES": 0.0, "_ent": "15", "_mun": "042", "_loc": "0042"}, "geometry": {"type": "Polygon", "coordinates": [[[-99.81453, 19.62831], [-99.81418, 19.62962], [-99.81328, 19.62923], [-99.81324, 19.62928], [-99.81323, 19.62939], [-99.81329, 19.62927], [-99.81416, 19.62964], [-99.8138, 19.63111], [-99.81302, 19.63094], [-99.81254, 19.63026], [-99.8125, 19.63001], [-99.81292, 19.62934], [-99.81305, 19.62875], [-99.81268, 19.62965], [-99.81218, 19.62937], [-99.81236, 19.62907], [-99.81247, 19.62807], [-99.81233, 19.62903], [-99.81211, 19.62937], [-99.8125, 19.6298], [-99.81246, 19.63015], [-99.81085, 19.62876], [-99.81147, 19.62807], [-99.81169, 19.62673], [-99.81453, 19.62831]]]}}, {"id": "1104986", "type": "Feature", "properties": {"id": "1104986", "CVEGEO": "1504200420153009", "POBTOT": 0.0, "score_nse": 0.0, "NSE": null, "VIVTOT": 0.0, "GRAPROES": 0.0, "_ent": "15", "_mun": "042", "_loc": "0042"}, "geometry": {"type": "Polygon", "coordinates": [[[-99.81413, 19.62328], [-99.81716, 19.62467], [-99.81789, 19.62611], [-99.81908, 19.62698], [-99.81989, 19.62709], [-99.81987, 19.62725], [-99.81934, 19.62728], [-99.81928, 19.6282], [-99.81813, 19.63063], [-99.81795, 19.63098], [-99.81759, 19.63096], [-99.81792, 19.63103], [-99.81761, 19.63168], [-99.81577, 19.6315], [-99.81623, 19.63001], [-99.81753, 19.62778], [-99.81526, 19.62647], [-99.81554, 19.62591], [-99.81518, 19.62646], [-99.8135, 19.62565], [-99.81449, 19.62406], [-99.81488, 19.62422], [-99.81451, 19.62401], [-99.81415, 19.62444], [-99.81436, 19.62387], [-99.81402, 19.62365], [-99.81413, 19.62328]]]}}, {"id": "1104987", "type": "Feature", "properties": {"id": "1104987", "CVEGEO": "1504200420153010", "POBTOT": 0.0, "score_nse": 0.0, "NSE": null, "VIVTOT": 0.0, "GRAPROES": 0.0, "_ent": "15", "_mun": "042", "_loc": "0042"}, "geometry": {"type": "Polygon", "coordinates": [[[-99.81938, 19.6282], [-99.81938, 19.62733], [-99.82014, 19.62735], [-99.81988, 19.62793], [-99.81938, 19.6282]]]}}]}