{"type": "FeatureCollection", "features": [{"id": "622707", "type": "Feature", "properties": {"id": "622707", "CVEGEO": "1100900260038008", "POBTOT": 0.0, "score_nse": 0.0, "NSE": null, "VIVTOT": 0.0, "GRAPROES": 0.0, "_ent": "11", "_mun": "009", "_loc": "0026"}, "geometry": {"type": "Polygon", "coordinates": [[[-100.80728, 20.76588], [-100.80759, 20.76625], [-100.80479, 20.7691], [-100.80447, 20.7687], [-100.80728, 20.76588]]]}}, {"id": "622944", "type": "Feature", "properties": {"id": "622944", "CVEGEO": "1100900260038007", "POBTOT": 0.0, "score_nse": 0.0, "NSE": null, "VIVTOT": 0.0, "GRAPROES": 0.0, "_ent": "11", "_mun": "009", "_loc": "0026"}, "geometry": {"type": "Polygon", "coordinates": [[[-100.8073, 20.76579], [-100.80695, 20.76546], [-100.80939, 20.76313], [-100.80972, 20.76348], [-100.8073, 20.76579]]]}}, {"id": "622945", "type": "Feature", "properties": {"id": "622945", "CVEGEO": "1100900260038006", "POBTOT": 0.0, "score_nse": 0.0, "NSE": null, "VIVTOT": 0.0, "GRAPROES": 0.0, "_ent": "11", "_mun": "009", "_loc": "0026"}, "geometry": {"type": "Polygon", "coordinates": [[[-100.80769, 20.76616], [-100.80735, 20.76584], [-100.80977, 20.76352], [-100.81006, 20.7639], [-100.80769, 20.76616]]]}}, {"id": "622946", "type": "Feature", "properties": {"id": "622946", "CVEGEO": "1100900260038004", "POBTOT": 0.0, "score_nse": 0.0, "NSE": null, "VIVTOT": 0.0, "GRAPROES": 0.0, "_ent": "11", "_mun": "009", "_loc": "0026"}, "geometry": {"type": "Polygon", "coordinates": [[[-100.80444, 20.76867], [-100.80414, 20.76829], [-100.80692, 20.7655], [-100.80726, 20.76584], [-100.80444, 20.76867]]]}}, {"id": "622947", "type": "Feature", "properties": {"id": "622947", "CVEGEO": "1100900260038002", "POBTOT": 0.0, "score_nse": 0.0, "NSE": null, "VIVTOT": 0.0, "GRAPROES": 0.0, "_ent": "11", "_mun": "009", "_loc": "0026"}, "geometry": {"type": "Polygon", "coordinates": [[[-100.80309, 20.77121], [-100.80242, 20.7713], [-100.80129, 20.77223], [-100.80011, 20.77084], [-100.7996, 20.77062], [-100.79978, 20.77051], [-100.80104, 20.77064], [-100.80227, 20.77101], [-100.80355, 20.77049], [-100.80309, 20.77121]]]}}, {"id": "623375", "type": "Feature", "properties": {"id": "623375", "CVEGEO": "1100900260038009", "POBTOT": 0.0, "score_nse": 0.0, "NSE": null, "VIVTOT": 0.0, "GRAPROES": 0.0, "_ent": "11", "_mun": "009", "_loc": "0026"}, "geometry": {"type": "Polygon", "coordinates": [[[-100.80407, 20.76819], [-100.80338, 20.7676], [-100.80416, 20.76676], [-100.80486, 20.76734], [-100.80407, 20.76819]]]}}, {"id": "623606", "type": "Feature", "properties": {"id": "623606", "CVEGEO": "1100900260038010", "POBTOT": 0.0, "score_nse": 0.0, "NSE": null, "VIVTOT": 0.0, "GRAPROES": 0.0, "_ent": "11", "_mun": "009", "_loc": "0026"}, "geometry": {"type": "Polygon", "coordinates": [[[-100.80729, 20.76674], [-100.80774, 20.76729], [-100.80667, 20.76805], [-100.80632, 20.76772], [-100.80729, 20.76674]]]}}, {"id": "623794", "type": "Feature", "properties": {"id": "623794", "CVEGEO": "1100900260038005", "POBTOT": 0.0, "score_nse": 0.0, "NSE": null, "VIVTOT": 0.0, "GRAPROES": 0.0, "_ent": "11", "_mun": "009", "_loc": "0026"}, "geometry": {"type": "Polygon", "coordinates": [[[-100.80735, 20.76671], [-100.80834, 20.76574], [-100.80901, 20.76656], [-100.80779, 20.76726], [-100.80735, 20.76671]]]}}, {"id": "623961", "type": "Feature", "properties": {"id": "623961", "CVEGEO": "1100900260038001", "POBTOT": 0.0, "score_nse": 0.0, "NSE": null, "VIVTOT": 0.0, "GRAPROES": 0.0, "_ent": "11", "_mun": "009", "_loc": "0026"}, "geometry": {"type": "Polygon", "coordinates": [[[-100.80569, 20.77048], [-100.80541, 20.77077], [-100.80463, 20.77075], [-100.80415, 20.77001], [-100.80493, 20.76923], [-100.80569, 20.77048]]]}}, {"id": "623962", "type": "Feature", "properties": {"id": "623962", "CVEGEO": "1100900260038011", "POBTOT": 0.0, "score_nse": 0.0, "NSE": null, "VIVTOT": 0.0, "GRAPROES": 0.0, "_ent": "11", "_mun": "009", "_loc": "0026"}, "geometry": {"type": "Polygon", "coordinates": [[[-100.8046, 20.77075], [-100.80436, 20.77073], [-100.8038, 20.77034], [-100.80414, 20.77003], [-100.8046, 20.77075]]]}}, {"id": "623963", "type": "Feature", "properties": {"id": "623963", "CVEGEO": "1100900260038003", "POBTOT": 0.0, "score_nse": 0.0, "NSE": null, "VIVTOT": 0.0, "GRAPROES": 0.0, "_ent": "11", "_mun": "009", "_loc": "0026"}, "geometry": {"type": "Polygon", "coordinates": [[[-100.80477, 20.76921], [-100.80334, 20.7705], [-100.80297, 20.76986], [-100.80329, 20.77052], [-100.80295, 20.77068], [-100.8029, 20.77038], [-100.80291, 20.77069], [-100.80242, 20.77087], [-100.80178, 20.77074], [-100.80179, 20.77035], [-100.80166, 20.76963], [-100.80174, 20.77072], [-100.7987, 20.77022], [-100.79806, 20.76987], [-100.80278, 20.76924], [-100.80412, 20.76836], [-100.80477, 20.76921]]]}}]}