{"type": "FeatureCollection", "features": [{"id": "622890", "type": "Feature", "properties": {"id": "622890", "CVEGEO": "1100900720269009", "POBTOT": 0.0, "score_nse": 0.0, "NSE": null, "VIVTOT": 0.0, "GRAPROES": 0.0, "_ent": "11", "_mun": "009", "_loc": "0072"}, "geometry": {"type": "Polygon", "coordinates": [[[-100.74148, 20.68935], [-100.74129, 20.69063], [-100.74077, 20.6906], [-100.74088, 20.68937], [-100.74148, 20.68935]]]}}, {"id": "623007", "type": "Feature", "properties": {"id": "623007", "CVEGEO": "1100900720269005", "POBTOT": 0.0, "score_nse": 0.0, "NSE": null, "VIVTOT": 0.0, "GRAPROES": 0.0, "_ent": "11", "_mun": "009", "_loc": "0072"}, "geometry": {"type": "Polygon", "coordinates": [[[-100.74391, 20.6911], [-100.74391, 20.69169], [-100.74319, 20.69162], [-100.74254, 20.69096], [-100.74131, 20.69091], [-100.74132, 20.69072], [-100.74323, 20.69072], [-100.74391, 20.6911]]]}}, {"id": "623141", "type": "Feature", "properties": {"id": "623141", "CVEGEO": "1100900720269001", "POBTOT": 0.0, "score_nse": 0.0, "NSE": null, "VIVTOT": 0.0, "GRAPROES": 0.0, "_ent": "11", "_mun": "009", "_loc": "0072"}, "geometry": {"type": "Polygon", "coordinates": [[[-100.74529, 20.69296], [-100.74415, 20.69304], [-100.74409, 20.6926], [-100.74452, 20.69256], [-100.7446, 20.69282], [-100.74529, 20.69296]]]}}, {"id": "623168", "type": "Feature", "properties": {"id": "623168", "CVEGEO": "1100900720269004", "POBTOT": 0.0, "score_nse": 0.0, "NSE": null, "VIVTOT": 0.0, "GRAPROES": 0.0, "_ent": "11", "_mun": "009", "_loc": "0072"}, "geometry": {"type": "Polygon", "coordinates": [[[-100.74128, 20.69067], [-100.74115, 20.69183], [-100.74084, 20.69186], [-100.73984, 20.69165], [-100.73969, 20.69128], [-100.73974, 20.69083], [-100.73958, 20.69071], [-100.7398, 20.69056], [-100.74128, 20.69067]]]}}, {"id": "623169", "type": "Feature", "properties": {"id": "623169", "CVEGEO": "1100900720269003", "POBTOT": 0.0, "score_nse": 0.0, "NSE": null, "VIVTOT": 0.0, "GRAPROES": 0.0, "_ent": "11", "_mun": "009", "_loc": "0072"}, "geometry": {"type": "Polygon", "coordinates": [[[-100.74315, 20.69462], [-100.74278, 20.69462], [-100.74284, 20.69268], [-100.74326, 20.6929], [-100.74315, 20.69462]]]}}, {"id": "623170", "type": "Feature", "properties": {"id": "623170", "CVEGEO": "1100900720269002", "POBTOT": 0.0, "score_nse": 0.0, "NSE": null, "VIVTOT": 0.0, "GRAPROES": 0.0, "_ent": "11", "_mun": "009", "_loc": "0072"}, "geometry": {"type": "Polygon", "coordinates": [[[-100.74415, 20.69352], [-100.74327, 20.6935], [-100.74331, 20.69291], [-100.74415, 20.69309], [-100.74415, 20.69352]]]}}, {"id": "623224", "type": "Feature", "properties": {"id": "623224", "CVEGEO": "1100900720269008", "POBTOT": 0.0, "score_nse": 0.0, "NSE": null, "VIVTOT": 0.0, "GRAPROES": 0.0, "_ent": "11", "_mun": "009", "_loc": "0072"}, "geometry": {"type": "Polygon", "coordinates": [[[-100.74392, 20.69081], [-100.74348, 20.6909], [-100.74327, 20.69068], [-100.74223, 20.69062], [-100.74221, 20.69012], [-100.74216, 20.69067], [-100.74133, 20.69064], [-100.74158, 20.68875], [-100.74269, 20.68883], [-100.74286, 20.68853], [-100.74365, 20.68867], [-100.74356, 20.68892], [-100.74269, 20.68897], [-100.74253, 20.68999], [-100.74375, 20.68998], [-100.74378, 20.68981], [-100.74414, 20.68983], [-100.74392, 20.69081]]]}}, {"id": "623225", "type": "Feature", "properties": {"id": "623225", "CVEGEO": "1100900720269007", "POBTOT": 0.0, "score_nse": 0.0, "NSE": null, "VIVTOT": 0.0, "GRAPROES": 0.0, "_ent": "11", "_mun": "009", "_loc": "0072"}, "geometry": {"type": "Polygon", "coordinates": [[[-100.74419, 20.68983], [-100.74443, 20.69052], [-100.74508, 20.69049], [-100.74507, 20.69076], [-100.74398, 20.6908], [-100.74419, 20.68983]]]}}, {"id": "624090", "type": "Feature", "properties": {"id": "624090", "CVEGEO": "1100900720269006", "POBTOT": 0.0, "score_nse": 0.0, "NSE": null, "VIVTOT": 0.0, "GRAPROES": 0.0, "_ent": "11", "_mun": "009", "_loc": "0072"}, "geometry": {"type": "Polygon", "coordinates": [[[-100.74418, 20.69169], [-100.74395, 20.69169], [-100.74394, 20.69084], [-100.74417, 20.69083], [-100.74418, 20.69169]]]}}]}