{"type": "FeatureCollection", "features": [{"id": "351322", "type": "Feature", "properties": {"id": "351322", "CVEGEO": "0701710350264005", "POBTOT": 0.0, "score_nse": 0.0, "NSE": null, "VIVTOT": 0.0, "GRAPROES": 0.0, "_ent": "07", "_mun": "017", "_loc": "1035"}, "geometry": {"type": "Polygon", "coordinates": [[[-93.8523, 16.57067], [-93.85177, 16.57007], [-93.85246, 16.56963], [-93.85294, 16.57029], [-93.8523, 16.57067]]]}}, {"id": "351323", "type": "Feature", "properties": {"id": "351323", "CVEGEO": "0701710350264004", "POBTOT": 0.0, "score_nse": 0.0, "NSE": null, "VIVTOT": 0.0, "GRAPROES": 0.0, "_ent": "07", "_mun": "017", "_loc": "1035"}, "geometry": {"type": "Polygon", "coordinates": [[[-93.85244, 16.56954], [-93.85172, 16.57005], [-93.85127, 16.56936], [-93.85198, 16.5689], [-93.85244, 16.56954]]]}}, {"id": "351324", "type": "Feature", "properties": {"id": "351324", "CVEGEO": "0701710350264008", "POBTOT": 0.0, "score_nse": 0.0, "NSE": null, "VIVTOT": 0.0, "GRAPROES": 0.0, "_ent": "07", "_mun": "017", "_loc": "1035"}, "geometry": {"type": "Polygon", "coordinates": [[[-93.85092, 16.57048], [-93.85024, 16.57091], [-93.84975, 16.57029], [-93.85049, 16.56984], [-93.85092, 16.57048]]]}}, {"id": "351325", "type": "Feature", "properties": {"id": "351325", "CVEGEO": "0701710350264010", "POBTOT": 0.0, "score_nse": 0.0, "NSE": null, "VIVTOT": 0.0, "GRAPROES": 0.0, "_ent": "07", "_mun": "017", "_loc": "1035"}, "geometry": {"type": "Polygon", "coordinates": [[[-93.85204, 16.5688], [-93.85159, 16.5681], [-93.85219, 16.56772], [-93.85269, 16.56842], [-93.85204, 16.5688]]]}}, {"id": "351326", "type": "Feature", "properties": {"id": "351326", "CVEGEO": "0701710350264009", "POBTOT": 0.0, "score_nse": 0.0, "NSE": null, "VIVTOT": 0.0, "GRAPROES": 0.0, "_ent": "07", "_mun": "017", "_loc": "1035"}, "geometry": {"type": "Polygon", "coordinates": [[[-93.8504, 16.56975], [-93.84975, 16.57017], [-93.84932, 16.56959], [-93.84995, 16.56918], [-93.8504, 16.56975]]]}}, {"id": "351493", "type": "Feature", "properties": {"id": "351493", "CVEGEO": "0701710350264011", "POBTOT": 0.0, "score_nse": 0.0, "NSE": null, "VIVTOT": 0.0, "GRAPROES": 0.0, "_ent": "07", "_mun": "017", "_loc": "1035"}, "geometry": {"type": "Polygon", "coordinates": [[[-93.85206, 16.56889], [-93.85277, 16.56848], [-93.85319, 16.56907], [-93.8525, 16.56953], [-93.85206, 16.56889]]]}}, {"id": "351494", "type": "Feature", "properties": {"id": "351494", "CVEGEO": "0701710350264003", "POBTOT": 0.0, "score_nse": 0.0, "NSE": null, "VIVTOT": 0.0, "GRAPROES": 0.0, "_ent": "07", "_mun": "017", "_loc": "1035"}, "geometry": {"type": "Polygon", "coordinates": [[[-93.85127, 16.56925], [-93.85085, 16.56863], [-93.85149, 16.56819], [-93.8519, 16.56881], [-93.85127, 16.56925]]]}}, {"id": "352149", "type": "Feature", "properties": {"id": "352149", "CVEGEO": "0701710350264002", "POBTOT": 0.0, "score_nse": 0.0, "NSE": null, "VIVTOT": 0.0, "GRAPROES": 0.0, "_ent": "07", "_mun": "017", "_loc": "1035"}, "geometry": {"type": "Polygon", "coordinates": [[[-93.85118, 16.56929], [-93.85046, 16.56971], [-93.85005, 16.56913], [-93.85074, 16.56868], [-93.85118, 16.56929]]]}}, {"id": "352188", "type": "Feature", "properties": {"id": "352188", "CVEGEO": "0701710350264012", "POBTOT": 0.0, "score_nse": 0.0, "NSE": null, "VIVTOT": 0.0, "GRAPROES": 0.0, "_ent": "07", "_mun": "017", "_loc": "1035"}, "geometry": {"type": "Polygon", "coordinates": [[[-93.85371, 16.56986], [-93.85299, 16.57027], [-93.85251, 16.56959], [-93.85322, 16.56915], [-93.85371, 16.56986]]]}}, {"id": "352377", "type": "Feature", "properties": {"id": "352377", "CVEGEO": "0701710350264007", "POBTOT": 0.0, "score_nse": 0.0, "NSE": null, "VIVTOT": 0.0, "GRAPROES": 0.0, "_ent": "07", "_mun": "017", "_loc": "1035"}, "geometry": {"type": "Polygon", "coordinates": [[[-93.85148, 16.57118], [-93.85073, 16.57165], [-93.85025, 16.57099], [-93.85097, 16.57053], [-93.85148, 16.57118]]]}}, {"id": "352378", "type": "Feature", "properties": {"id": "352378", "CVEGEO": "0701710350264006", "POBTOT": 0.0, "score_nse": 0.0, "NSE": null, "VIVTOT": 0.0, "GRAPROES": 0.0, "_ent": "07", "_mun": "017", "_loc": "1035"}, "geometry": {"type": "Polygon", "coordinates": [[[-93.85224, 16.5707], [-93.85153, 16.57115], [-93.85103, 16.57048], [-93.85171, 16.57012], [-93.85224, 16.5707]]]}}, {"id": "352379", "type": "Feature", "properties": {"id": "352379", "CVEGEO": "0701710350264001", "POBTOT": 0.0, "score_nse": 0.0, "NSE": null, "VIVTOT": 0.0, "GRAPROES": 0.0, "_ent": "07", "_mun": "017", "_loc": "1035"}, "geometry": {"type": "Polygon", "coordinates": [[[-93.85165, 16.57007], [-93.85103, 16.57041], [-93.85057, 16.56978], [-93.85122, 16.5694], [-93.85165, 16.57007]]]}}]}