{"type": "FeatureCollection", "features": [{"id": "1894529", "type": "Feature", "properties": {"id": "1894529", "CVEGEO": "2405700160013002", "POBTOT": 0.0, "score_nse": 0.0, "NSE": null, "VIVTOT": 0.0, "GRAPROES": 0.0, "_ent": "24", "_mun": "057", "_loc": "0016"}, "geometry": {"type": "Polygon", "coordinates": [[[-98.84311, 21.37441], [-98.84007, 21.37076], [-98.84043, 21.37039], [-98.84141, 21.37115], [-98.84386, 21.37388], [-98.84311, 21.37441]]]}}, {"id": "1894530", "type": "Feature", "properties": {"id": "1894530", "CVEGEO": "2405700160013003", "POBTOT": 0.0, "score_nse": 0.0, "NSE": null, "VIVTOT": 0.0, "GRAPROES": 0.0, "_ent": "24", "_mun": "057", "_loc": "0016"}, "geometry": {"type": "Polygon", "coordinates": [[[-98.84279, 21.37249], [-98.84166, 21.37123], [-98.84071, 21.37039], [-98.84137, 21.37076], [-98.84204, 21.37083], [-98.8426, 21.37127], [-98.84393, 21.3716], [-98.84279, 21.37249]]]}}, {"id": "1894531", "type": "Feature", "properties": {"id": "1894531", "CVEGEO": "2405700160013004", "POBTOT": 0.0, "score_nse": 0.0, "NSE": null, "VIVTOT": 0.0, "GRAPROES": 0.0, "_ent": "24", "_mun": "057", "_loc": "0016"}, "geometry": {"type": "Polygon", "coordinates": [[[-98.8431, 21.37452], [-98.84392, 21.37394], [-98.8443, 21.37436], [-98.84422, 21.37498], [-98.84383, 21.37529], [-98.8431, 21.37452]]]}}, {"id": "1894616", "type": "Feature", "properties": {"id": "1894616", "CVEGEO": "2405700160013007", "POBTOT": 0.0, "score_nse": 0.0, "NSE": null, "VIVTOT": 0.0, "GRAPROES": 0.0, "_ent": "24", "_mun": "057", "_loc": "0016"}, "geometry": {"type": "Polygon", "coordinates": [[[-98.84537, 21.37559], [-98.8446, 21.37556], [-98.84415, 21.37515], [-98.84438, 21.37446], [-98.84537, 21.37559]]]}}, {"id": "1894644", "type": "Feature", "properties": {"id": "1894644", "CVEGEO": "2405700160013001", "POBTOT": 0.0, "score_nse": 0.0, "NSE": null, "VIVTOT": 0.0, "GRAPROES": 0.0, "_ent": "24", "_mun": "057", "_loc": "0016"}, "geometry": {"type": "Polygon", "coordinates": [[[-98.84288, 21.37258], [-98.84382, 21.37179], [-98.84496, 21.37319], [-98.84441, 21.37359], [-98.84406, 21.37317], [-98.84434, 21.37361], [-98.84394, 21.37373], [-98.84348, 21.37324], [-98.84387, 21.3729], [-98.84343, 21.3732], [-98.84288, 21.37258]]]}}, {"id": "1894649", "type": "Feature", "properties": {"id": "1894649", "CVEGEO": "2405700160013006", "POBTOT": 0.0, "score_nse": 0.0, "NSE": null, "VIVTOT": 0.0, "GRAPROES": 0.0, "_ent": "24", "_mun": "057", "_loc": "0016"}, "geometry": {"type": "Polygon", "coordinates": [[[-98.8449, 21.37492], [-98.84403, 21.37382], [-98.84482, 21.37342], [-98.84489, 21.37467], [-98.8449, 21.37492]]]}}]}