{"type": "FeatureCollection", "features": [{"id": "1894620", "type": "Feature", "properties": {"id": "1894620", "CVEGEO": "2405700330013001", "POBTOT": 0.0, "score_nse": 0.0, "NSE": null, "VIVTOT": 0.0, "GRAPROES": 0.0, "_ent": "24", "_mun": "057", "_loc": "0033"}, "geometry": {"type": "Polygon", "coordinates": [[[-98.78347, 21.30045], [-98.78377, 21.30003], [-98.78438, 21.30066], [-98.78394, 21.30141], [-98.78414, 21.30169], [-98.78396, 21.30194], [-98.7837, 21.3018], [-98.78364, 21.30122], [-98.78345, 21.30107], [-98.78347, 21.30045]]]}}]}