{"type": "FeatureCollection", "features": [{"id": "1224467", "type": "Feature", "properties": {"id": "1224467", "CVEGEO": "1601700010047024", "POBTOT": 15.0, "score_nse": 0.0, "NSE": "ND", "VIVTOT": 9.0, "GRAPROES": 10.36, "_ent": "16", "_mun": "017", "_loc": "0001"}, "geometry": {"type": "Polygon", "coordinates": [[[-100.16346, 19.95572], [-100.16397, 19.95557], [-100.16405, 19.95627], [-100.16355, 19.9564], [-100.16346, 19.95572]]]}}, {"id": "1224468", "type": "Feature", "properties": {"id": "1224468", "CVEGEO": "1601700010047023", "POBTOT": 30.0, "score_nse": 50.9566, "NSE": "C-", "VIVTOT": 14.0, "GRAPROES": 8.68, "_ent": "16", "_mun": "017", "_loc": "0001"}, "geometry": {"type": "Polygon", "coordinates": [[[-100.15933, 19.95071], [-100.15962, 19.9504], [-100.16038, 19.95123], [-100.15994, 19.95156], [-100.15933, 19.95071]]]}}, {"id": "1224469", "type": "Feature", "properties": {"id": "1224469", "CVEGEO": "1601700010047022", "POBTOT": 2.0, "score_nse": 0.0, "NSE": "ND", "VIVTOT": 3.0, "GRAPROES": 0.0, "_ent": "16", "_mun": "017", "_loc": "0001"}, "geometry": {"type": "Polygon", "coordinates": [[[-100.16147, 19.95307], [-100.16138, 19.95244], [-100.1618, 19.95293], [-100.16147, 19.95307]]]}}, {"id": "1224470", "type": "Feature", "properties": {"id": "1224470", "CVEGEO": "1601700010047021", "POBTOT": 60.0, "score_nse": 53.0628, "NSE": "C-", "VIVTOT": 27.0, "GRAPROES": 9.83, "_ent": "16", "_mun": "017", "_loc": "0001"}, "geometry": {"type": "Polygon", "coordinates": [[[-100.16149, 19.95314], [-100.16186, 19.95298], [-100.16309, 19.95417], [-100.16159, 19.95408], [-100.16149, 19.95314]]]}}, {"id": "1224471", "type": "Feature", "properties": {"id": "1224471", "CVEGEO": "1601700010047020", "POBTOT": 69.0, "score_nse": 53.208, "NSE": "C-", "VIVTOT": 40.0, "GRAPROES": 9.98, "_ent": "16", "_mun": "017", "_loc": "0001"}, "geometry": {"type": "Polygon", "coordinates": [[[-100.16168, 19.95518], [-100.1616, 19.95415], [-100.16332, 19.95433], [-100.16329, 19.95511], [-100.16168, 19.95518]]]}}, {"id": "1224472", "type": "Feature", "properties": {"id": "1224472", "CVEGEO": "1601700010047010", "POBTOT": 68.0, "score_nse": 55.9598, "NSE": "C", "VIVTOT": 32.0, "GRAPROES": 11.4, "_ent": "16", "_mun": "017", "_loc": "0001"}, "geometry": {"type": "Polygon", "coordinates": [[[-100.1614, 19.95234], [-100.1635, 19.95295], [-100.1634, 19.95428], [-100.16182, 19.95283], [-100.1614, 19.95234]]]}}, {"id": "1224473", "type": "Feature", "properties": {"id": "1224473", "CVEGEO": "1601700010047009", "POBTOT": 1.0, "score_nse": 0.0, "NSE": "ND", "VIVTOT": 1.0, "GRAPROES": 0.0, "_ent": "16", "_mun": "017", "_loc": "0001"}, "geometry": {"type": "Polygon", "coordinates": [[[-100.16339, 19.95511], [-100.16342, 19.95439], [-100.16384, 19.95447], [-100.16387, 19.95508], [-100.16339, 19.95511]]]}}, {"id": "1224486", "type": "Feature", "properties": {"id": "1224486", "CVEGEO": "1601700010047037", "POBTOT": 11.0, "score_nse": 0.0, "NSE": "ND", "VIVTOT": 4.0, "GRAPROES": 9.38, "_ent": "16", "_mun": "017", "_loc": "0001"}, "geometry": {"type": "Polygon", "coordinates": [[[-100.1628, 19.94912], [-100.16258, 19.94878], [-100.16264, 19.94815], [-100.16365, 19.94781], [-100.16377, 19.94824], [-100.1628, 19.94912]]]}}, {"id": "1224498", "type": "Feature", "properties": {"id": "1224498", "CVEGEO": "1601700010047019", "POBTOT": 57.0, "score_nse": 45.7094, "NSE": "C-", "VIVTOT": 23.0, "GRAPROES": 8.06, "_ent": "16", "_mun": "017", "_loc": "0001"}, "geometry": {"type": "Polygon", "coordinates": [[[-100.16211, 19.95641], [-100.16168, 19.95525], [-100.16326, 19.95517], [-100.16345, 19.9564], [-100.16276, 19.95635], [-100.16276, 19.95617], [-100.16269, 19.95636], [-100.16211, 19.95641]]]}}, {"id": "1224535", "type": "Feature", "properties": {"id": "1224535", "CVEGEO": "1601700010047001", "POBTOT": 53.0, "score_nse": 54.9956, "NSE": "C-", "VIVTOT": 21.0, "GRAPROES": 10.18, "_ent": "16", "_mun": "017", "_loc": "0001"}, "geometry": {"type": "Polygon", "coordinates": [[[-100.16346, 19.95429], [-100.16357, 19.95297], [-100.16463, 19.9533], [-100.16472, 19.95393], [-100.16456, 19.95442], [-100.16346, 19.95429]]]}}, {"id": "1224724", "type": "Feature", "properties": {"id": "1224724", "CVEGEO": "1601700010117006", "POBTOT": 33.0, "score_nse": 59.4662, "NSE": "C", "VIVTOT": 11.0, "GRAPROES": 9.15, "_ent": "16", "_mun": "017", "_loc": "0001"}, "geometry": {"type": "Polygon", "coordinates": [[[-100.1749, 19.94136], [-100.17449, 19.94166], [-100.17335, 19.94017], [-100.17365, 19.93992], [-100.1749, 19.94136]]]}}, {"id": "1224748", "type": "Feature", "properties": {"id": "1224748", "CVEGEO": "1601700010047008", "POBTOT": 18.0, "score_nse": 0.0, "NSE": "ND", "VIVTOT": 10.0, "GRAPROES": 12.31, "_ent": "16", "_mun": "017", "_loc": "0001"}, "geometry": {"type": "Polygon", "coordinates": [[[-100.16398, 19.95513], [-100.16464, 19.9551], [-100.16468, 19.95612], [-100.16412, 19.95626], [-100.16398, 19.95513]]]}}, {"id": "1224749", "type": "Feature", "properties": {"id": "1224749", "CVEGEO": "1601700010047006", "POBTOT": 13.0, "score_nse": 0.0, "NSE": "ND", "VIVTOT": 11.0, "GRAPROES": 9.83, "_ent": "16", "_mun": "017", "_loc": "0001"}, "geometry": {"type": "Polygon", "coordinates": [[[-100.16475, 19.9546], [-100.16584, 19.95464], [-100.16573, 19.95532], [-100.16472, 19.95504], [-100.16475, 19.9546]]]}}, {"id": "1224750", "type": "Feature", "properties": {"id": "1224750", "CVEGEO": "1601700010047003", "POBTOT": 178.0, "score_nse": 50.4107, "NSE": "C-", "VIVTOT": 75.0, "GRAPROES": 9.59, "_ent": "16", "_mun": "017", "_loc": "0001"}, "geometry": {"type": "Polygon", "coordinates": [[[-100.16359, 19.95288], [-100.16385, 19.95091], [-100.16409, 19.9491], [-100.16559, 19.94988], [-100.1649, 19.95161], [-100.1643, 19.9514], [-100.16488, 19.95166], [-100.16451, 19.95264], [-100.16462, 19.95322], [-100.16359, 19.95288]]]}}, {"id": "1224800", "type": "Feature", "properties": {"id": "1224800", "CVEGEO": "1601700010140002", "POBTOT": 9.0, "score_nse": 0.0, "NSE": "ND", "VIVTOT": 3.0, "GRAPROES": 0.0, "_ent": "16", "_mun": "017", "_loc": "0001"}, "geometry": {"type": "Polygon", "coordinates": [[[-100.1758, 19.94227], [-100.17529, 19.94274], [-100.17466, 19.94165], [-100.17522, 19.94125], [-100.1758, 19.94227]]]}}, {"id": "1224801", "type": "Feature", "properties": {"id": "1224801", "CVEGEO": "1601700010117008", "POBTOT": 18.0, "score_nse": 0.0, "NSE": "ND", "VIVTOT": 8.0, "GRAPROES": 9.0, "_ent": "16", "_mun": "017", "_loc": "0001"}, "geometry": {"type": "Polygon", "coordinates": [[[-100.17411, 19.93954], [-100.17449, 19.93927], [-100.17589, 19.94059], [-100.1754, 19.94099], [-100.17411, 19.93954]]]}}, {"id": "1224802", "type": "Feature", "properties": {"id": "1224802", "CVEGEO": "1601700010117007", "POBTOT": 4.0, "score_nse": 0.0, "NSE": "ND", "VIVTOT": 4.0, "GRAPROES": 0.0, "_ent": "16", "_mun": "017", "_loc": "0001"}, "geometry": {"type": "Polygon", "coordinates": [[[-100.17372, 19.93986], [-100.17404, 19.93961], [-100.17533, 19.94104], [-100.17499, 19.94129], [-100.17372, 19.93986]]]}}, {"id": "1224803", "type": "Feature", "properties": {"id": "1224803", "CVEGEO": "1601700010117010", "POBTOT": 0.0, "score_nse": 10.0, "NSE": "E", "VIVTOT": 1.0, "GRAPROES": 0.0, "_ent": "16", "_mun": "017", "_loc": "0001"}, "geometry": {"type": "Polygon", "coordinates": [[[-100.17302, 19.94035], [-100.17416, 19.94185], [-100.17366, 19.94223], [-100.17255, 19.94074], [-100.17302, 19.94035]]]}}, {"id": "1224804", "type": "Feature", "properties": {"id": "1224804", "CVEGEO": "1601700010117009", "POBTOT": 5.0, "score_nse": 0.0, "NSE": "ND", "VIVTOT": 2.0, "GRAPROES": 0.0, "_ent": "16", "_mun": "017", "_loc": "0001"}, "geometry": {"type": "Polygon", "coordinates": [[[-100.17324, 19.94017], [-100.17442, 19.94166], [-100.1742, 19.94183], [-100.17305, 19.94033], [-100.17324, 19.94017]]]}}, {"id": "1224805", "type": "Feature", "properties": {"id": "1224805", "CVEGEO": "1601700010085006", "POBTOT": 25.0, "score_nse": 0.0, "NSE": "ND", "VIVTOT": 10.0, "GRAPROES": 9.53, "_ent": "16", "_mun": "017", "_loc": "0001"}, "geometry": {"type": "Polygon", "coordinates": [[[-100.16097, 19.95529], [-100.1616, 19.95526], [-100.16174, 19.95588], [-100.16214, 19.95656], [-100.16148, 19.95659], [-100.16097, 19.95529]]]}}, {"id": "1224806", "type": "Feature", "properties": {"id": "1224806", "CVEGEO": "1601700010047035", "POBTOT": 19.0, "score_nse": 0.0, "NSE": "ND", "VIVTOT": 7.0, "GRAPROES": 9.0, "_ent": "16", "_mun": "017", "_loc": "0001"}, "geometry": {"type": "Polygon", "coordinates": [[[-100.15917, 19.95084], [-100.15929, 19.95074], [-100.15989, 19.9516], [-100.15971, 19.95175], [-100.15917, 19.95084]]]}}, {"id": "1224807", "type": "Feature", "properties": {"id": "1224807", "CVEGEO": "1601700010047032", "POBTOT": 0.0, "score_nse": 0.0, "NSE": "ND", "VIVTOT": 0.0, "GRAPROES": 0.0, "_ent": "16", "_mun": "017", "_loc": "0001"}, "geometry": {"type": "Polygon", "coordinates": [[[-100.16394, 19.95507], [-100.16393, 19.95451], [-100.16421, 19.95451], [-100.16421, 19.95505], [-100.16394, 19.95507]]]}}, {"id": "1224808", "type": "Feature", "properties": {"id": "1224808", "CVEGEO": "1601700010047018", "POBTOT": 1.0, "score_nse": 0.0, "NSE": "ND", "VIVTOT": 3.0, "GRAPROES": 0.0, "_ent": "16", "_mun": "017", "_loc": "0001"}, "geometry": {"type": "Polygon", "coordinates": [[[-100.16334, 19.95517], [-100.16389, 19.95513], [-100.16396, 19.95552], [-100.16344, 19.95568], [-100.16334, 19.95517]]]}}, {"id": "1224809", "type": "Feature", "properties": {"id": "1224809", "CVEGEO": "1601700010047016", "POBTOT": 55.0, "score_nse": 60.944, "NSE": "C", "VIVTOT": 25.0, "GRAPROES": 10.74, "_ent": "16", "_mun": "017", "_loc": "0001"}, "geometry": {"type": "Polygon", "coordinates": [[[-100.16477, 19.9561], [-100.16474, 19.95511], [-100.16639, 19.95566], [-100.16477, 19.9561]]]}}, {"id": "1224911", "type": "Feature", "properties": {"id": "1224911", "CVEGEO": "160170001009A013", "POBTOT": 7.0, "score_nse": 0.0, "NSE": "ND", "VIVTOT": 2.0, "GRAPROES": 0.0, "_ent": "16", "_mun": "017", "_loc": "0001"}, "geometry": {"type": "Polygon", "coordinates": [[[-100.16969, 19.95731], [-100.16976, 19.95759], [-100.16943, 19.95768], [-100.16932, 19.95735], [-100.16969, 19.95731]]]}}, {"id": "1224912", "type": "Feature", "properties": {"id": "1224912", "CVEGEO": "1601700010102006", "POBTOT": 42.0, "score_nse": 0.0, "NSE": "ND", "VIVTOT": 17.0, "GRAPROES": 7.93, "_ent": "16", "_mun": "017", "_loc": "0001"}, "geometry": {"type": "Polygon", "coordinates": [[[-100.17109, 19.95207], [-100.17191, 19.95225], [-100.17233, 19.95205], [-100.17256, 19.95165], [-100.17299, 19.95184], [-100.17293, 19.95167], [-100.17257, 19.95159], [-100.17288, 19.95161], [-100.17259, 19.95145], [-100.1728, 19.95066], [-100.17321, 19.95064], [-100.17383, 19.95189], [-100.17357, 19.95229], [-100.17017, 19.95346], [-100.17078, 19.95235], [-100.17109, 19.95207]]]}}, {"id": "1224913", "type": "Feature", "properties": {"id": "1224913", "CVEGEO": "1601700010070001", "POBTOT": 79.0, "score_nse": 0.0, "NSE": "ND", "VIVTOT": 25.0, "GRAPROES": 8.04, "_ent": "16", "_mun": "017", "_loc": "0001"}, "geometry": {"type": "Polygon", "coordinates": [[[-100.15892, 19.95042], [-100.15873, 19.95071], [-100.15722, 19.95059], [-100.15732, 19.95017], [-100.15716, 19.95059], [-100.1568, 19.95067], [-100.15766, 19.94864], [-100.15955, 19.95041], [-100.1592, 19.95075], [-100.15881, 19.95073], [-100.15892, 19.95042]]]}}, {"id": "1224914", "type": "Feature", "properties": {"id": "1224914", "CVEGEO": "1601700010070004", "POBTOT": 92.0, "score_nse": 0.0, "NSE": "ND", "VIVTOT": 35.0, "GRAPROES": 7.1, "_ent": "16", "_mun": "017", "_loc": "0001"}, "geometry": {"type": "Polygon", "coordinates": [[[-100.15568, 19.95327], [-100.15565, 19.95338], [-100.15463, 19.9533], [-100.15456, 19.95313], [-100.15485, 19.95237], [-100.15553, 19.95244], [-100.15491, 19.95231], [-100.15533, 19.95185], [-100.15578, 19.95196], [-100.15538, 19.95179], [-100.15567, 19.95147], [-100.15671, 19.95077], [-100.15766, 19.95065], [-100.15766, 19.95079], [-100.15771, 19.95064], [-100.15907, 19.95082], [-100.15929, 19.95133], [-100.15906, 19.95145], [-100.15932, 19.95139], [-100.15957, 19.95173], [-100.15915, 19.95254], [-100.15858, 19.95321], [-100.15858, 19.95363], [-100.15681, 19.95363], [-100.15572, 19.9534], [-100.15568, 19.95327]]]}}, {"id": "1224915", "type": "Feature", "properties": {"id": "1224915", "CVEGEO": "1601700010102007", "POBTOT": 20.0, "score_nse": 0.0, "NSE": "ND", "VIVTOT": 4.0, "GRAPROES": 8.92, "_ent": "16", "_mun": "017", "_loc": "0001"}, "geometry": {"type": "Polygon", "coordinates": [[[-100.17435, 19.95243], [-100.17526, 19.95205], [-100.1759, 19.95317], [-100.17573, 19.95334], [-100.17489, 19.95334], [-100.17458, 19.95305], [-100.17498, 19.95275], [-100.17455, 19.95298], [-100.17435, 19.95243]]]}}, {"id": "1224916", "type": "Feature", "properties": {"id": "1224916", "CVEGEO": "1601700010047029", "POBTOT": 13.0, "score_nse": 0.0, "NSE": "ND", "VIVTOT": 10.0, "GRAPROES": 10.0, "_ent": "16", "_mun": "017", "_loc": "0001"}, "geometry": {"type": "Polygon", "coordinates": [[[-100.16478, 19.95395], [-100.1647, 19.9533], [-100.16544, 19.95354], [-100.16551, 19.9539], [-100.16478, 19.95395]]]}}, {"id": "1224917", "type": "Feature", "properties": {"id": "1224917", "CVEGEO": "1601700010102008", "POBTOT": 0.0, "score_nse": 10.0, "NSE": "E", "VIVTOT": 1.0, "GRAPROES": 0.0, "_ent": "16", "_mun": "017", "_loc": "0001"}, "geometry": {"type": "Polygon", "coordinates": [[[-100.17228, 19.95274], [-100.17367, 19.95231], [-100.17393, 19.95242], [-100.17303, 19.95271], [-100.17228, 19.95274]]]}}, {"id": "1224918", "type": "Feature", "properties": {"id": "1224918", "CVEGEO": "1601700010047036", "POBTOT": 8.0, "score_nse": 0.0, "NSE": "ND", "VIVTOT": 2.0, "GRAPROES": 0.0, "_ent": "16", "_mun": "017", "_loc": "0001"}, "geometry": {"type": "Polygon", "coordinates": [[[-100.16585, 19.95391], [-100.16555, 19.95389], [-100.16553, 19.95377], [-100.16574, 19.95383], [-100.16585, 19.95391]]]}}, {"id": "1224919", "type": "Feature", "properties": {"id": "1224919", "CVEGEO": "1601700010117004", "POBTOT": 2.0, "score_nse": 0.0, "NSE": "ND", "VIVTOT": 2.0, "GRAPROES": 0.0, "_ent": "16", "_mun": "017", "_loc": "0001"}, "geometry": {"type": "Polygon", "coordinates": [[[-100.16957, 19.94463], [-100.17008, 19.94427], [-100.17032, 19.94462], [-100.16973, 19.94498], [-100.16957, 19.94463]]]}}, {"id": "1224920", "type": "Feature", "properties": {"id": "1224920", "CVEGEO": "1601700010117005", "POBTOT": 192.0, "score_nse": 44.8183, "NSE": "C-", "VIVTOT": 71.0, "GRAPROES": 8.6, "_ent": "16", "_mun": "017", "_loc": "0001"}, "geometry": {"type": "Polygon", "coordinates": [[[-100.16925, 19.94415], [-100.16834, 19.94382], [-100.16806, 19.94333], [-100.16824, 19.94276], [-100.16856, 19.94256], [-100.16915, 19.94179], [-100.17045, 19.94124], [-100.17106, 19.9407], [-100.17188, 19.94084], [-100.17254, 19.94078], [-100.17363, 19.94227], [-100.1732, 19.94261], [-100.17226, 19.94153], [-100.17313, 19.94267], [-100.17225, 19.94337], [-100.17091, 19.94163], [-100.17008, 19.94215], [-100.17087, 19.94174], [-100.1722, 19.94342], [-100.17167, 19.94381], [-100.17122, 19.94324], [-100.17162, 19.94383], [-100.17143, 19.94394], [-100.17099, 19.94344], [-100.17137, 19.94397], [-100.17098, 19.94422], [-100.17066, 19.94373], [-100.17095, 19.94426], [-100.17039, 19.94458], [-100.16978, 19.94359], [-100.17017, 19.94335], [-100.16973, 19.94352], [-100.16935, 19.94303], [-100.17005, 19.94416], [-100.16954, 19.94451], [-100.16925, 19.94415]]]}}, {"id": "1224921", "type": "Feature", "properties": {"id": "1224921", "CVEGEO": "1601700010070006", "POBTOT": 19.0, "score_nse": 0.0, "NSE": "ND", "VIVTOT": 6.0, "GRAPROES": 5.73, "_ent": "16", "_mun": "017", "_loc": "0001"}, "geometry": {"type": "Polygon", "coordinates": [[[-100.15522, 19.9538], [-100.15468, 19.95338], [-100.15609, 19.95348], [-100.15716, 19.95374], [-100.15857, 19.9537], [-100.15878, 19.95409], [-100.15717, 19.95538], [-100.15656, 19.95638], [-100.15565, 19.95549], [-100.15524, 19.95453], [-100.15522, 19.9538]]]}}, {"id": "1224922", "type": "Feature", "properties": {"id": "1224922", "CVEGEO": "1601700010047015", "POBTOT": 52.0, "score_nse": 49.1627, "NSE": "C-", "VIVTOT": 24.0, "GRAPROES": 9.11, "_ent": "16", "_mun": "017", "_loc": "0001"}, "geometry": {"type": "Polygon", "coordinates": [[[-100.16745, 19.95582], [-100.1675, 19.95499], [-100.16739, 19.95581], [-100.1658, 19.95535], [-100.16593, 19.95465], [-100.16766, 19.95472], [-100.16791, 19.95485], [-100.16812, 19.95477], [-100.16774, 19.95471], [-100.16898, 19.95417], [-100.16919, 19.95643], [-100.16745, 19.95582]]]}}, {"id": "1224923", "type": "Feature", "properties": {"id": "1224923", "CVEGEO": "1601700010047007", "POBTOT": 0.0, "score_nse": 0.0, "NSE": "ND", "VIVTOT": 0.0, "GRAPROES": 0.0, "_ent": "16", "_mun": "017", "_loc": "0001"}, "geometry": {"type": "Polygon", "coordinates": [[[-100.1643, 19.95454], [-100.16468, 19.95454], [-100.16467, 19.95494], [-100.16429, 19.95495], [-100.1643, 19.95454]]]}}, {"id": "1224924", "type": "Feature", "properties": {"id": "1224924", "CVEGEO": "160170001009A001", "POBTOT": 73.0, "score_nse": 40.576, "NSE": "D+", "VIVTOT": 34.0, "GRAPROES": 8.35, "_ent": "16", "_mun": "017", "_loc": "0001"}, "geometry": {"type": "Polygon", "coordinates": [[[-100.16899, 19.95694], [-100.16648, 19.95678], [-100.16617, 19.95577], [-100.16684, 19.95573], [-100.16681, 19.95591], [-100.16693, 19.95632], [-100.1669, 19.95575], [-100.16884, 19.95643], [-100.16877, 19.95665], [-100.16892, 19.95645], [-100.16923, 19.95652], [-100.16929, 19.95668], [-100.16899, 19.95694]]]}}, {"id": "1224925", "type": "Feature", "properties": {"id": "1224925", "CVEGEO": "1601700010085001", "POBTOT": 229.0, "score_nse": 0.0, "NSE": "ND", "VIVTOT": 78.0, "GRAPROES": 8.31, "_ent": "16", "_mun": "017", "_loc": "0001"}, "geometry": {"type": "Polygon", "coordinates": [[[-100.15956, 19.96035], [-100.15749, 19.95947], [-100.15698, 19.95834], [-100.15838, 19.958], [-100.15813, 19.95791], [-100.15695, 19.95823], [-100.1566, 19.95709], [-100.1567, 19.95643], [-100.15699, 19.95584], [-100.15723, 19.95545], [-100.15875, 19.95417], [-100.15949, 19.95405], [-100.15984, 19.95489], [-100.15955, 19.95404], [-100.1615, 19.95412], [-100.16159, 19.95518], [-100.16086, 19.95523], [-100.1609, 19.95534], [-100.16062, 19.95548], [-100.16015, 19.95481], [-100.16056, 19.95551], [-100.16036, 19.9557], [-100.16092, 19.95541], [-100.16104, 19.95577], [-100.16056, 19.95595], [-100.16106, 19.95582], [-100.16119, 19.95618], [-100.16089, 19.95631], [-100.16122, 19.95621], [-100.16135, 19.95661], [-100.15956, 19.9576], [-100.16144, 19.95668], [-100.16225, 19.95664], [-100.16217, 19.95652], [-100.16269, 19.95645], [-100.1627, 19.95695], [-100.162, 19.95776], [-100.16123, 19.95936], [-100.16133, 19.9594], [-100.16209, 19.95779], [-100.16279, 19.95697], [-100.16279, 19.95647], [-100.16346, 19.95651], [-100.16346, 19.95717], [-100.16307, 19.95717], [-100.16344, 19.95725], [-100.1631, 19.95986], [-100.1625, 19.95978], [-100.16179, 19.96048], [-100.16069, 19.96091], [-100.1601, 19.96184], [-100.16014, 19.96127], [-100.15989, 19.96066], [-100.15956, 19.96035]]]}}, {"id": "1224926", "type": "Feature", "properties": {"id": "1224926", "CVEGEO": "1601700010117001", "POBTOT": 68.0, "score_nse": 48.9971, "NSE": "C-", "VIVTOT": 19.0, "GRAPROES": 8.26, "_ent": "16", "_mun": "017", "_loc": "0001"}, "geometry": {"type": "Polygon", "coordinates": [[[-100.16524, 19.94384], [-100.16455, 19.94443], [-100.16444, 19.94363], [-100.1644, 19.94498], [-100.16418, 19.94531], [-100.164, 19.94527], [-100.16385, 19.94431], [-100.16395, 19.94529], [-100.16411, 19.94542], [-100.16358, 19.94619], [-100.16327, 19.94619], [-100.16308, 19.94471], [-100.16258, 19.94299], [-100.16353, 19.94249], [-100.16417, 19.94296], [-100.16456, 19.94248], [-100.16526, 19.94275], [-100.16598, 19.9423], [-100.16615, 19.94187], [-100.16719, 19.94226], [-100.16563, 19.94383], [-100.16524, 19.94384]]]}}, {"id": "1224927", "type": "Feature", "properties": {"id": "1224927", "CVEGEO": "160170001009A004", "POBTOT": 17.0, "score_nse": 0.0, "NSE": "ND", "VIVTOT": 13.0, "GRAPROES": 7.79, "_ent": "16", "_mun": "017", "_loc": "0001"}, "geometry": {"type": "Polygon", "coordinates": [[[-100.17261, 19.95453], [-100.17494, 19.95353], [-100.17583, 19.95351], [-100.17592, 19.95503], [-100.1736, 19.95563], [-100.1729, 19.956], [-100.16953, 19.95651], [-100.17036, 19.95592], [-100.1711, 19.95596], [-100.17147, 19.95582], [-100.17193, 19.95488], [-100.17226, 19.95484], [-100.17261, 19.95453]]]}}, {"id": "1224928", "type": "Feature", "properties": {"id": "1224928", "CVEGEO": "160170001009A003", "POBTOT": 32.0, "score_nse": 48.8827, "NSE": "C-", "VIVTOT": 15.0, "GRAPROES": 10.22, "_ent": "16", "_mun": "017", "_loc": "0001"}, "geometry": {"type": "Polygon", "coordinates": [[[-100.16479, 19.95616], [-100.1661, 19.9558], [-100.16636, 19.95671], [-100.16497, 19.95766], [-100.16476, 19.95802], [-100.16488, 19.95763], [-100.16479, 19.95616]]]}}, {"id": "1224929", "type": "Feature", "properties": {"id": "1224929", "CVEGEO": "160170001009A006", "POBTOT": 105.0, "score_nse": 53.3631, "NSE": "C-", "VIVTOT": 45.0, "GRAPROES": 10.55, "_ent": "16", "_mun": "017", "_loc": "0001"}, "geometry": {"type": "Polygon", "coordinates": [[[-100.16413, 19.95897], [-100.16334, 19.9586], [-100.1634, 19.95822], [-100.16433, 19.95866], [-100.16341, 19.95816], [-100.16343, 19.95802], [-100.16378, 19.95801], [-100.16439, 19.9583], [-100.16362, 19.95788], [-100.16343, 19.95797], [-100.16356, 19.95653], [-100.16406, 19.95639], [-100.1641, 19.95654], [-100.16411, 19.95637], [-100.16468, 19.95618], [-100.16469, 19.95815], [-100.16443, 19.95878], [-100.16413, 19.95897]]]}}, {"id": "1224930", "type": "Feature", "properties": {"id": "1224930", "CVEGEO": "1601700010047005", "POBTOT": 59.0, "score_nse": 46.5477, "NSE": "C-", "VIVTOT": 29.0, "GRAPROES": 8.62, "_ent": "16", "_mun": "017", "_loc": "0001"}, "geometry": {"type": "Polygon", "coordinates": [[[-100.16479, 19.95399], [-100.16598, 19.95397], [-100.16679, 19.95465], [-100.16465, 19.95445], [-100.16479, 19.95399]]]}}, {"id": "1224931", "type": "Feature", "properties": {"id": "1224931", "CVEGEO": "1601700010102003", "POBTOT": 48.0, "score_nse": 0.0, "NSE": "ND", "VIVTOT": 17.0, "GRAPROES": 8.14, "_ent": "16", "_mun": "017", "_loc": "0001"}, "geometry": {"type": "Polygon", "coordinates": [[[-100.16902, 19.95415], [-100.17022, 19.95353], [-100.17207, 19.95287], [-100.17305, 19.95278], [-100.17319, 19.95311], [-100.17313, 19.95276], [-100.17404, 19.95244], [-100.1743, 19.9525], [-100.17459, 19.95322], [-100.17485, 19.95339], [-100.17407, 19.95384], [-100.17292, 19.9541], [-100.17171, 19.95485], [-100.17131, 19.95571], [-100.17075, 19.95585], [-100.17039, 19.95577], [-100.16948, 19.95648], [-100.16924, 19.95645], [-100.16902, 19.95415]]]}}, {"id": "1224932", "type": "Feature", "properties": {"id": "1224932", "CVEGEO": "160170001009A011", "POBTOT": 0.0, "score_nse": 10.0, "NSE": "E", "VIVTOT": 1.0, "GRAPROES": 0.0, "_ent": "16", "_mun": "017", "_loc": "0001"}, "geometry": {"type": "Polygon", "coordinates": [[[-100.16314, 19.95955], [-100.16328, 19.95891], [-100.164, 19.95922], [-100.16326, 19.96015], [-100.16314, 19.95955]]]}}, {"id": "1224933", "type": "Feature", "properties": {"id": "1224933", "CVEGEO": "1601700010117002", "POBTOT": 16.0, "score_nse": 0.0, "NSE": "ND", "VIVTOT": 3.0, "GRAPROES": 9.75, "_ent": "16", "_mun": "017", "_loc": "0001"}, "geometry": {"type": "Polygon", "coordinates": [[[-100.16345, 19.94685], [-100.16327, 19.94622], [-100.16357, 19.94623], [-100.16345, 19.94685]]]}}, {"id": "1224934", "type": "Feature", "properties": {"id": "1224934", "CVEGEO": "1601700010047013", "POBTOT": 134.0, "score_nse": 0.0, "NSE": "ND", "VIVTOT": 47.0, "GRAPROES": 9.04, "_ent": "16", "_mun": "017", "_loc": "0001"}, "geometry": {"type": "Polygon", "coordinates": [[[-100.16352, 19.94699], [-100.16365, 19.94617], [-100.1645, 19.94501], [-100.16454, 19.94467], [-100.16522, 19.944], [-100.16629, 19.9439], [-100.16716, 19.94335], [-100.16784, 19.94338], [-100.16721, 19.94342], [-100.16635, 19.94402], [-100.16559, 19.94573], [-100.16574, 19.94617], [-100.16537, 19.94641], [-100.16485, 19.94641], [-100.16471, 19.94594], [-100.16476, 19.94647], [-100.16524, 19.94648], [-100.16485, 19.94695], [-100.16537, 19.9465], [-100.16601, 19.94676], [-100.16568, 19.94719], [-100.16607, 19.9468], [-100.1671, 19.9473], [-100.16647, 19.94792], [-100.16545, 19.94753], [-100.16641, 19.94798], [-100.16587, 19.94921], [-100.16424, 19.94848], [-100.16584, 19.94928], [-100.16561, 19.94981], [-100.16408, 19.94902], [-100.16352, 19.94699]]]}}, {"id": "1224935", "type": "Feature", "properties": {"id": "1224935", "CVEGEO": "1601700010117003", "POBTOT": 0.0, "score_nse": 0.0, "NSE": "ND", "VIVTOT": 0.0, "GRAPROES": 0.0, "_ent": "16", "_mun": "017", "_loc": "0001"}, "geometry": {"type": "Polygon", "coordinates": [[[-100.16786, 19.94179], [-100.16809, 19.94183], [-100.16792, 19.94326], [-100.16685, 19.94334], [-100.16625, 19.94382], [-100.16572, 19.94387], [-100.16786, 19.94179]]]}}, {"id": "1224936", "type": "Feature", "properties": {"id": "1224936", "CVEGEO": "1601700010047031", "POBTOT": 115.0, "score_nse": 57.434, "NSE": "C", "VIVTOT": 40.0, "GRAPROES": 9.11, "_ent": "16", "_mun": "017", "_loc": "0001"}, "geometry": {"type": "Polygon", "coordinates": [[[-100.16608, 19.95236], [-100.16522, 19.95105], [-100.16593, 19.9494], [-100.16632, 19.94949], [-100.16596, 19.94934], [-100.16641, 19.94815], [-100.16745, 19.94716], [-100.16845, 19.94843], [-100.16818, 19.94862], [-100.16849, 19.94849], [-100.1687, 19.94882], [-100.16786, 19.9491], [-100.16772, 19.94928], [-100.16785, 19.94971], [-100.16781, 19.94932], [-100.16797, 19.94914], [-100.16869, 19.94888], [-100.16842, 19.94949], [-100.16879, 19.94895], [-100.16929, 19.94911], [-100.17017, 19.9486], [-100.1697, 19.94944], [-100.16962, 19.9499], [-100.16925, 19.95036], [-100.16608, 19.95236]]]}}, {"id": "1224937", "type": "Feature", "properties": {"id": "1224937", "CVEGEO": "160170001009A014", "POBTOT": 14.0, "score_nse": 0.0, "NSE": "ND", "VIVTOT": 5.0, "GRAPROES": 13.5, "_ent": "16", "_mun": "017", "_loc": "0001"}, "geometry": {"type": "Polygon", "coordinates": [[[-100.16902, 19.95778], [-100.1689, 19.9574], [-100.16926, 19.95736], [-100.16938, 19.95769], [-100.16902, 19.95778]]]}}, {"id": "1224938", "type": "Feature", "properties": {"id": "1224938", "CVEGEO": "1601700010085004", "POBTOT": 56.0, "score_nse": 0.0, "NSE": "ND", "VIVTOT": 19.0, "GRAPROES": 8.95, "_ent": "16", "_mun": "017", "_loc": "0001"}, "geometry": {"type": "Polygon", "coordinates": [[[-100.15948, 19.95398], [-100.15882, 19.95408], [-100.15872, 19.95382], [-100.15991, 19.95386], [-100.1604, 19.95349], [-100.16144, 19.95333], [-100.16153, 19.95408], [-100.15948, 19.95398]]]}}, {"id": "1224939", "type": "Feature", "properties": {"id": "1224939", "CVEGEO": "160170001009A012", "POBTOT": 12.0, "score_nse": 0.0, "NSE": "ND", "VIVTOT": 6.0, "GRAPROES": 8.63, "_ent": "16", "_mun": "017", "_loc": "0001"}, "geometry": {"type": "Polygon", "coordinates": [[[-100.16333, 19.95866], [-100.1641, 19.95902], [-100.16402, 19.95916], [-100.1633, 19.95886], [-100.16333, 19.95866]]]}}, {"id": "1225006", "type": "Feature", "properties": {"id": "1225006", "CVEGEO": "1601700010070007", "POBTOT": 57.0, "score_nse": 0.0, "NSE": "ND", "VIVTOT": 18.0, "GRAPROES": 7.78, "_ent": "16", "_mun": "017", "_loc": "0001"}, "geometry": {"type": "Polygon", "coordinates": [[[-100.15518, 19.95118], [-100.15658, 19.95082], [-100.15545, 19.95163], [-100.15518, 19.95118]]]}}, {"id": "1225010", "type": "Feature", "properties": {"id": "1225010", "CVEGEO": "1601700010070010", "POBTOT": 0.0, "score_nse": 0.0, "NSE": "ND", "VIVTOT": 0.0, "GRAPROES": 0.0, "_ent": "16", "_mun": "017", "_loc": "0001"}, "geometry": {"type": "Polygon", "coordinates": [[[-100.15698, 19.95008], [-100.15634, 19.95029], [-100.15629, 19.9501], [-100.15703, 19.94986], [-100.15698, 19.95008]]]}}, {"id": "1225011", "type": "Feature", "properties": {"id": "1225011", "CVEGEO": "1601700010070009", "POBTOT": 10.0, "score_nse": 0.0, "NSE": "ND", "VIVTOT": 4.0, "GRAPROES": 0.0, "_ent": "16", "_mun": "017", "_loc": "0001"}, "geometry": {"type": "Polygon", "coordinates": [[[-100.15696, 19.95015], [-100.15659, 19.9507], [-100.15636, 19.95035], [-100.15696, 19.95015]]]}}, {"id": "1225012", "type": "Feature", "properties": {"id": "1225012", "CVEGEO": "1601700010070008", "POBTOT": 27.0, "score_nse": 0.0, "NSE": "ND", "VIVTOT": 10.0, "GRAPROES": 8.41, "_ent": "16", "_mun": "017", "_loc": "0001"}, "geometry": {"type": "Polygon", "coordinates": [[[-100.15597, 19.9503], [-100.15627, 19.95035], [-100.15649, 19.9507], [-100.15542, 19.95093], [-100.15501, 19.95127], [-100.15468, 19.95123], [-100.15451, 19.95089], [-100.15502, 19.9508], [-100.15526, 19.95056], [-100.15597, 19.9503]]]}}, {"id": "1225061", "type": "Feature", "properties": {"id": "1225061", "CVEGEO": "1601700010047026", "POBTOT": 46.0, "score_nse": 70.706, "NSE": "C+", "VIVTOT": 20.0, "GRAPROES": 12.97, "_ent": "16", "_mun": "017", "_loc": "0001"}, "geometry": {"type": "Polygon", "coordinates": [[[-100.16476, 19.95218], [-100.16519, 19.95114], [-100.16601, 19.9524], [-100.16494, 19.95332], [-100.16469, 19.95323], [-100.16456, 19.95277], [-100.16475, 19.95221], [-100.16534, 19.9524], [-100.16476, 19.95218]]]}}, {"id": "1225066", "type": "Feature", "properties": {"id": "1225066", "CVEGEO": "1601700010047027", "POBTOT": 205.0, "score_nse": 46.4721, "NSE": "C-", "VIVTOT": 78.0, "GRAPROES": 8.41, "_ent": "16", "_mun": "017", "_loc": "0001"}, "geometry": {"type": "Polygon", "coordinates": [[[-100.16572, 19.95272], [-100.16844, 19.95099], [-100.16874, 19.95117], [-100.16894, 19.95158], [-100.16884, 19.95119], [-100.16942, 19.95077], [-100.16901, 19.95107], [-100.16853, 19.95092], [-100.16942, 19.9503], [-100.16975, 19.9498], [-100.17015, 19.95001], [-100.16976, 19.94966], [-100.17018, 19.94895], [-100.17039, 19.94953], [-100.17105, 19.95045], [-100.17158, 19.95088], [-100.17153, 19.95159], [-100.17114, 19.95168], [-100.1716, 19.95167], [-100.17168, 19.9509], [-100.17209, 19.95042], [-100.17268, 19.95065], [-100.17225, 19.95199], [-100.17169, 19.95219], [-100.1711, 19.95197], [-100.17056, 19.95256], [-100.16935, 19.95283], [-100.16884, 19.95325], [-100.16801, 19.95351], [-100.16887, 19.95329], [-100.16959, 19.95284], [-100.16957, 19.95314], [-100.16967, 19.95281], [-100.1705, 19.95264], [-100.17007, 19.9535], [-100.16778, 19.95462], [-100.16694, 19.95467], [-100.16605, 19.95395], [-100.1667, 19.95375], [-100.16599, 19.95391], [-100.16549, 19.9537], [-100.16557, 19.95351], [-100.16504, 19.95334], [-100.16572, 19.95272]]]}}, {"id": "1225067", "type": "Feature", "properties": {"id": "1225067", "CVEGEO": "1601700010047030", "POBTOT": 169.0, "score_nse": 0.0, "NSE": "ND", "VIVTOT": 69.0, "GRAPROES": 9.35, "_ent": "16", "_mun": "017", "_loc": "0001"}, "geometry": {"type": "Polygon", "coordinates": [[[-100.16807, 19.9472], [-100.16773, 19.94736], [-100.1675, 19.9471], [-100.16897, 19.9458], [-100.16909, 19.94587], [-100.16902, 19.94576], [-100.16968, 19.94516], [-100.17004, 19.94607], [-100.16999, 19.94659], [-100.16979, 19.94677], [-100.16999, 19.94673], [-100.17022, 19.94734], [-100.17022, 19.94793], [-100.16935, 19.94729], [-100.17021, 19.94803], [-100.17018, 19.94851], [-100.17003, 19.94859], [-100.16995, 19.94843], [-100.16998, 19.94862], [-100.16932, 19.94902], [-100.16919, 19.94899], [-100.16928, 19.94855], [-100.16914, 19.94897], [-100.16882, 19.94885], [-100.16859, 19.94849], [-100.16889, 19.94828], [-100.16856, 19.94844], [-100.16806, 19.94783], [-100.16851, 19.94747], [-100.16803, 19.94776], [-100.16776, 19.94742], [-100.16807, 19.9472]]]}}, {"id": "1225068", "type": "Feature", "properties": {"id": "1225068", "CVEGEO": "1601700010070002", "POBTOT": 75.0, "score_nse": 44.2727, "NSE": "C-", "VIVTOT": 34.0, "GRAPROES": 8.38, "_ent": "16", "_mun": "017", "_loc": "0001"}, "geometry": {"type": "Polygon", "coordinates": [[[-100.1583, 19.94713], [-100.15836, 19.94631], [-100.15938, 19.94482], [-100.15994, 19.94813], [-100.16038, 19.94945], [-100.15947, 19.95021], [-100.15828, 19.94906], [-100.15845, 19.94891], [-100.15821, 19.94899], [-100.15772, 19.94852], [-100.15802, 19.94774], [-100.1586, 19.94787], [-100.15804, 19.9477], [-100.1583, 19.94713]]]}}, {"id": "1225069", "type": "Feature", "properties": {"id": "1225069", "CVEGEO": "160170001009A005", "POBTOT": 214.0, "score_nse": 0.0, "NSE": "ND", "VIVTOT": 69.0, "GRAPROES": 8.72, "_ent": "16", "_mun": "017", "_loc": "0001"}, "geometry": {"type": "Polygon", "coordinates": [[[-100.17291, 19.95606], [-100.17341, 19.95581], [-100.17361, 19.95617], [-100.17346, 19.95578], [-100.17517, 19.95533], [-100.17523, 19.95588], [-100.17522, 19.95531], [-100.17581, 19.95514], [-100.17692, 19.95607], [-100.17707, 19.95679], [-100.17663, 19.95755], [-100.17598, 19.9574], [-100.17387, 19.95791], [-100.17316, 19.95777], [-100.17236, 19.95817], [-100.17072, 19.95856], [-100.1707, 19.95827], [-100.17018, 19.95794], [-100.17038, 19.95782], [-100.1699, 19.95784], [-100.16987, 19.95755], [-100.1705, 19.95749], [-100.17166, 19.95707], [-100.1705, 19.95746], [-100.17028, 19.95736], [-100.16985, 19.95751], [-100.16976, 19.95731], [-100.1703, 19.95708], [-100.17017, 19.95673], [-100.17026, 19.95709], [-100.16973, 19.95725], [-100.16961, 19.95701], [-100.16997, 19.95688], [-100.16959, 19.95696], [-100.16955, 19.95662], [-100.17165, 19.9562], [-100.17191, 19.95617], [-100.17217, 19.95651], [-100.17235, 19.95724], [-100.17267, 19.95716], [-100.17307, 19.95745], [-100.17272, 19.95715], [-100.17308, 19.95702], [-100.17241, 19.95718], [-100.17222, 19.95649], [-100.17198, 19.95615], [-100.17291, 19.95606]]]}}, {"id": "1225070", "type": "Feature", "properties": {"id": "1225070", "CVEGEO": "160170001009A002", "POBTOT": 124.0, "score_nse": 51.4692, "NSE": "C-", "VIVTOT": 33.0, "GRAPROES": 8.56, "_ent": "16", "_mun": "017", "_loc": "0001"}, "geometry": {"type": "Polygon", "coordinates": [[[-100.16335, 19.96015], [-100.16453, 19.95891], [-100.165, 19.95801], [-100.16641, 19.95685], [-100.16644, 19.95705], [-100.16646, 19.95685], [-100.1667, 19.95681], [-100.16755, 19.95723], [-100.16784, 19.95833], [-100.16835, 19.95829], [-100.16793, 19.95827], [-100.16787, 19.95803], [-100.16849, 19.95803], [-100.16849, 19.95791], [-100.16786, 19.95797], [-100.1676, 19.95718], [-100.16697, 19.95688], [-100.1675, 19.95704], [-100.16785, 19.95691], [-100.16892, 19.95701], [-100.16931, 19.95673], [-100.16967, 19.95725], [-100.16928, 19.9573], [-100.16922, 19.95717], [-100.16923, 19.95732], [-100.16846, 19.95739], [-100.16855, 19.95767], [-100.16851, 19.95744], [-100.16886, 19.95741], [-100.16897, 19.95779], [-100.16882, 19.95789], [-100.16976, 19.95764], [-100.16985, 19.95788], [-100.16964, 19.958], [-100.1694, 19.958], [-100.16871, 19.95821], [-100.16872, 19.95824], [-100.16966, 19.95804], [-100.16961, 19.95826], [-100.16973, 19.95856], [-100.16971, 19.95806], [-100.16992, 19.95791], [-100.17064, 19.95833], [-100.17066, 19.95858], [-100.16812, 19.95889], [-100.16597, 19.95963], [-100.16512, 19.96013], [-100.1643, 19.95993], [-100.16335, 19.96015]]]}}, {"id": "1225186", "type": "Feature", "properties": {"id": "1225186", "CVEGEO": "1601700010140001", "POBTOT": 2.0, "score_nse": 0.0, "NSE": "ND", "VIVTOT": 3.0, "GRAPROES": 0.0, "_ent": "16", "_mun": "017", "_loc": "0001"}, "geometry": {"type": "Polygon", "coordinates": [[[-100.17533, 19.9444], [-100.17448, 19.94381], [-100.17366, 19.9425], [-100.17403, 19.94218], [-100.17449, 19.94283], [-100.17407, 19.94213], [-100.17461, 19.94169], [-100.17521, 19.94274], [-100.17509, 19.94281], [-100.17526, 19.94283], [-100.17474, 19.94337], [-100.1753, 19.94292], [-100.17585, 19.94385], [-100.17533, 19.9444]]]}}, {"id": "1225189", "type": "Feature", "properties": {"id": "1225189", "CVEGEO": "1601700010070005", "POBTOT": 97.0, "score_nse": 0.0, "NSE": "ND", "VIVTOT": 31.0, "GRAPROES": 7.29, "_ent": "16", "_mun": "017", "_loc": "0001"}, "geometry": {"type": "Polygon", "coordinates": [[[-100.16143, 19.95327], [-100.16026, 19.95349], [-100.1599, 19.95382], [-100.15862, 19.95373], [-100.15865, 19.95323], [-100.15917, 19.95263], [-100.16005, 19.95275], [-100.15922, 19.95252], [-100.15962, 19.95177], [-100.16143, 19.95327]]]}}, {"id": "1225190", "type": "Feature", "properties": {"id": "1225190", "CVEGEO": "1601700010047012", "POBTOT": 350.0, "score_nse": 0.0, "NSE": "ND", "VIVTOT": 133.0, "GRAPROES": 8.85, "_ent": "16", "_mun": "017", "_loc": "0001"}, "geometry": {"type": "Polygon", "coordinates": [[[-100.164, 19.94904], [-100.16341, 19.94904], [-100.16399, 19.9491], [-100.16373, 19.95126], [-100.16344, 19.95126], [-100.16372, 19.95133], [-100.16352, 19.95286], [-100.1623, 19.9524], [-100.16306, 19.9517], [-100.16225, 19.95233], [-100.16191, 19.95171], [-100.16328, 19.95089], [-100.16244, 19.95133], [-100.1622, 19.95083], [-100.16237, 19.95074], [-100.16209, 19.95079], [-100.16236, 19.95136], [-100.16204, 19.95132], [-100.16216, 19.95148], [-100.16187, 19.95166], [-100.16144, 19.9512], [-100.16226, 19.95249], [-100.16129, 19.9522], [-100.15959, 19.95025], [-100.16126, 19.94887], [-100.16196, 19.94866], [-100.16249, 19.9486], [-100.16278, 19.94924], [-100.1638, 19.94833], [-100.164, 19.94904]]]}}, {"id": "1225191", "type": "Feature", "properties": {"id": "1225191", "CVEGEO": "1601700010047033", "POBTOT": 0.0, "score_nse": 10.0, "NSE": "E", "VIVTOT": 2.0, "GRAPROES": 0.0, "_ent": "16", "_mun": "017", "_loc": "0001"}, "geometry": {"type": "Polygon", "coordinates": [[[-100.16894, 19.94563], [-100.1687, 19.94588], [-100.16828, 19.94558], [-100.16857, 19.94532], [-100.16894, 19.94563]]]}}, {"id": "1225192", "type": "Feature", "properties": {"id": "1225192", "CVEGEO": "1601700010047004", "POBTOT": 149.0, "score_nse": 59.4238, "NSE": "C", "VIVTOT": 48.0, "GRAPROES": 10.82, "_ent": "16", "_mun": "017", "_loc": "0001"}, "geometry": {"type": "Polygon", "coordinates": [[[-100.16965, 19.94501], [-100.16944, 19.94517], [-100.1691, 19.94491], [-100.16939, 19.94521], [-100.169, 19.94558], [-100.16855, 19.94524], [-100.16721, 19.94624], [-100.16821, 19.94562], [-100.16866, 19.94594], [-100.16715, 19.94724], [-100.1661, 19.94673], [-100.16633, 19.94599], [-100.16604, 19.94671], [-100.16551, 19.94648], [-100.16595, 19.946], [-100.16586, 19.94574], [-100.16605, 19.94505], [-100.16683, 19.94389], [-100.16728, 19.94354], [-100.16797, 19.94353], [-100.16829, 19.94392], [-100.1692, 19.94427], [-100.16965, 19.94501]]]}}, {"id": "1225193", "type": "Feature", "properties": {"id": "1225193", "CVEGEO": "1601700010047034", "POBTOT": 83.0, "score_nse": 55.047, "NSE": "C", "VIVTOT": 24.0, "GRAPROES": 9.96, "_ent": "16", "_mun": "017", "_loc": "0001"}, "geometry": {"type": "Polygon", "coordinates": [[[-100.16142, 19.9531], [-100.16007, 19.9521], [-100.15977, 19.95179], [-100.15988, 19.95172], [-100.1602, 19.95207], [-100.16044, 19.95201], [-100.16011, 19.9516], [-100.16033, 19.95193], [-100.16021, 19.95203], [-100.1599, 19.95169], [-100.16041, 19.95128], [-100.1613, 19.95237], [-100.16142, 19.9531]]]}}, {"id": "1225224", "type": "Feature", "properties": {"id": "1225224", "CVEGEO": "1601700010070003", "POBTOT": 230.0, "score_nse": 0.0, "NSE": "ND", "VIVTOT": 86.0, "GRAPROES": 7.76, "_ent": "16", "_mun": "017", "_loc": "0001"}, "geometry": {"type": "Polygon", "coordinates": [[[-100.16137, 19.94343], [-100.16244, 19.94306], [-100.16297, 19.94477], [-100.16311, 19.94614], [-100.1635, 19.94713], [-100.16258, 19.94653], [-100.16188, 19.94627], [-100.16272, 19.94669], [-100.16256, 19.94698], [-100.16279, 19.94674], [-100.16345, 19.94718], [-100.16324, 19.94728], [-100.16351, 19.94725], [-100.16364, 19.94772], [-100.16259, 19.94807], [-100.16249, 19.9485], [-100.16233, 19.94854], [-100.16219, 19.94792], [-100.16255, 19.94774], [-100.16248, 19.94754], [-100.16249, 19.94772], [-100.16217, 19.94787], [-100.16208, 19.94777], [-100.16228, 19.94854], [-100.16163, 19.94868], [-100.16149, 19.94818], [-100.16159, 19.94869], [-100.16142, 19.94874], [-100.16121, 19.94819], [-100.16108, 19.94815], [-100.16082, 19.94831], [-100.16067, 19.9486], [-100.16112, 19.9482], [-100.16139, 19.94875], [-100.16046, 19.94943], [-100.15993, 19.94748], [-100.16033, 19.94741], [-100.15992, 19.9474], [-100.1596, 19.94552], [-100.16012, 19.94563], [-100.15961, 19.94542], [-100.15944, 19.94438], [-100.16005, 19.94284], [-100.16137, 19.94343]]]}}, {"id": "1225225", "type": "Feature", "properties": {"id": "1225225", "CVEGEO": "1601700010102001", "POBTOT": 155.0, "score_nse": 0.0, "NSE": "ND", "VIVTOT": 57.0, "GRAPROES": 7.72, "_ent": "16", "_mun": "017", "_loc": "0001"}, "geometry": {"type": "Polygon", "coordinates": [[[-100.17437, 19.94383], [-100.17412, 19.94408], [-100.17393, 19.94477], [-100.17417, 19.94527], [-100.17236, 19.94576], [-100.1716, 19.94616], [-100.17139, 19.94637], [-100.17155, 19.94693], [-100.17058, 19.94784], [-100.1708, 19.94695], [-100.17052, 19.94789], [-100.17027, 19.9481], [-100.17031, 19.94732], [-100.17066, 19.94686], [-100.17028, 19.94723], [-100.17007, 19.94672], [-100.17009, 19.9459], [-100.17049, 19.94594], [-100.17077, 19.94622], [-100.17053, 19.94587], [-100.17006, 19.94579], [-100.16974, 19.94511], [-100.17132, 19.94415], [-100.17151, 19.94458], [-100.17137, 19.94411], [-100.17328, 19.94277], [-100.17376, 19.94357], [-100.17332, 19.94274], [-100.17358, 19.94256], [-100.17437, 19.94383]]]}}, {"id": "1225226", "type": "Feature", "properties": {"id": "1225226", "CVEGEO": "1601700010102009", "POBTOT": 0.0, "score_nse": 0.0, "NSE": null, "VIVTOT": 0.0, "GRAPROES": 0.0, "_ent": "16", "_mun": "017", "_loc": "0001"}, "geometry": {"type": "Polygon", "coordinates": [[[-100.17646, 19.95202], [-100.17523, 19.9519], [-100.17408, 19.95237], [-100.17376, 19.95232], [-100.1739, 19.95187], [-100.1735, 19.95107], [-100.17415, 19.95075], [-100.17462, 19.95006], [-100.17485, 19.95074], [-100.176, 19.95049], [-100.17697, 19.95048], [-100.17738, 19.95065], [-100.17809, 19.95138], [-100.17721, 19.9516], [-100.17646, 19.95202]]]}}, {"id": "1225227", "type": "Feature", "properties": {"id": "1225227", "CVEGEO": "1601700010102010", "POBTOT": 0.0, "score_nse": 0.0, "NSE": null, "VIVTOT": 0.0, "GRAPROES": 0.0, "_ent": "16", "_mun": "017", "_loc": "0001"}, "geometry": {"type": "Polygon", "coordinates": [[[-100.17394, 19.95077], [-100.17341, 19.9509], [-100.17331, 19.94971], [-100.17384, 19.94969], [-100.17394, 19.95077]]]}}, {"id": "1225228", "type": "Feature", "properties": {"id": "1225228", "CVEGEO": "1601700010102011", "POBTOT": 0.0, "score_nse": 0.0, "NSE": null, "VIVTOT": 0.0, "GRAPROES": 0.0, "_ent": "16", "_mun": "017", "_loc": "0001"}, "geometry": {"type": "Polygon", "coordinates": [[[-100.17158, 19.94699], [-100.17197, 19.94809], [-100.17196, 19.94859], [-100.17327, 19.95015], [-100.17324, 19.95054], [-100.17204, 19.95032], [-100.17166, 19.9508], [-100.17114, 19.95042], [-100.17119, 19.9499], [-100.17149, 19.94946], [-100.17112, 19.94988], [-100.17105, 19.95035], [-100.17047, 19.94949], [-100.17024, 19.94888], [-100.17027, 19.94816], [-100.17158, 19.94699]]]}}]}