{"type": "FeatureCollection", "features": [{"id": "837925", "type": "Feature", "properties": {"id": "837925", "CVEGEO": "130270028004A001", "POBTOT": 0.0, "score_nse": 0.0, "NSE": null, "VIVTOT": 0.0, "GRAPROES": 0.0, "_ent": "13", "_mun": "027", "_loc": "0028"}, "geometry": {"type": "Polygon", "coordinates": [[[-98.08046, 20.43337], [-98.08057, 20.43346], [-98.08023, 20.43433], [-98.07987, 20.43406], [-98.07975, 20.43354], [-98.08046, 20.43337]]]}}, {"id": "838246", "type": "Feature", "properties": {"id": "838246", "CVEGEO": "130270028004A002", "POBTOT": 0.0, "score_nse": 0.0, "NSE": null, "VIVTOT": 0.0, "GRAPROES": 0.0, "_ent": "13", "_mun": "027", "_loc": "0028"}, "geometry": {"type": "Polygon", "coordinates": [[[-98.08097, 20.42932], [-98.08142, 20.4291], [-98.08113, 20.43204], [-98.08075, 20.43301], [-98.0804, 20.43271], [-98.08019, 20.4321], [-98.08056, 20.43166], [-98.08099, 20.43027], [-98.08109, 20.42962], [-98.08097, 20.42932]]]}}]}