{"type": "FeatureCollection", "features": [{"id": "837857", "type": "Feature", "properties": {"id": "837857", "CVEGEO": "1302700370035011", "POBTOT": 0.0, "score_nse": 0.0, "NSE": null, "VIVTOT": 0.0, "GRAPROES": 0.0, "_ent": "13", "_mun": "027", "_loc": "0037"}, "geometry": {"type": "Polygon", "coordinates": [[[-98.01936, 20.50091], [-98.01781, 20.5006], [-98.01812, 20.50031], [-98.01827, 20.49985], [-98.01887, 20.49929], [-98.01971, 20.49931], [-98.01968, 20.50074], [-98.01936, 20.50091]]]}}, {"id": "837888", "type": "Feature", "properties": {"id": "837888", "CVEGEO": "1302700370035004", "POBTOT": 0.0, "score_nse": 0.0, "NSE": null, "VIVTOT": 0.0, "GRAPROES": 0.0, "_ent": "13", "_mun": "027", "_loc": "0037"}, "geometry": {"type": "Polygon", "coordinates": [[[-98.0188, 20.49837], [-98.01896, 20.49838], [-98.01891, 20.49874], [-98.01869, 20.49885], [-98.0188, 20.49837]]]}}, {"id": "837970", "type": "Feature", "properties": {"id": "837970", "CVEGEO": "1302700370035010", "POBTOT": 0.0, "score_nse": 0.0, "NSE": null, "VIVTOT": 0.0, "GRAPROES": 0.0, "_ent": "13", "_mun": "027", "_loc": "0037"}, "geometry": {"type": "Polygon", "coordinates": [[[-98.01912, 20.49878], [-98.0193, 20.49929], [-98.01885, 20.49925], [-98.01912, 20.49878]]]}}, {"id": "838034", "type": "Feature", "properties": {"id": "838034", "CVEGEO": "1302700370035018", "POBTOT": 0.0, "score_nse": 0.0, "NSE": null, "VIVTOT": 0.0, "GRAPROES": 0.0, "_ent": "13", "_mun": "027", "_loc": "0037"}, "geometry": {"type": "Polygon", "coordinates": [[[-98.01984, 20.49963], [-98.01996, 20.49892], [-98.02038, 20.49826], [-98.02079, 20.49798], [-98.02123, 20.49818], [-98.02133, 20.49836], [-98.02121, 20.49913], [-98.02049, 20.49983], [-98.01984, 20.49963]]]}}, {"id": "838035", "type": "Feature", "properties": {"id": "838035", "CVEGEO": "1302700370035003", "POBTOT": 0.0, "score_nse": 0.0, "NSE": null, "VIVTOT": 0.0, "GRAPROES": 0.0, "_ent": "13", "_mun": "027", "_loc": "0037"}, "geometry": {"type": "Polygon", "coordinates": [[[-98.01732, 20.49642], [-98.01731, 20.49602], [-98.0178, 20.49654], [-98.01792, 20.49642], [-98.01831, 20.49656], [-98.01868, 20.49728], [-98.01818, 20.49766], [-98.01804, 20.49703], [-98.01732, 20.49642]]]}}, {"id": "838036", "type": "Feature", "properties": {"id": "838036", "CVEGEO": "1302700370035002", "POBTOT": 0.0, "score_nse": 0.0, "NSE": null, "VIVTOT": 0.0, "GRAPROES": 0.0, "_ent": "13", "_mun": "027", "_loc": "0037"}, "geometry": {"type": "Polygon", "coordinates": [[[-98.01733, 20.49695], [-98.01765, 20.49707], [-98.01774, 20.49712], [-98.01754, 20.49732], [-98.01736, 20.49727], [-98.01718, 20.49717], [-98.01733, 20.49695]]]}}, {"id": "838037", "type": "Feature", "properties": {"id": "838037", "CVEGEO": "1302700370035006", "POBTOT": 0.0, "score_nse": 0.0, "NSE": null, "VIVTOT": 0.0, "GRAPROES": 0.0, "_ent": "13", "_mun": "027", "_loc": "0037"}, "geometry": {"type": "Polygon", "coordinates": [[[-98.01752, 20.49671], [-98.01787, 20.49696], [-98.01776, 20.49711], [-98.01743, 20.49697], [-98.01752, 20.49671]]]}}, {"id": "838038", "type": "Feature", "properties": {"id": "838038", "CVEGEO": "1302700370035008", "POBTOT": 0.0, "score_nse": 0.0, "NSE": null, "VIVTOT": 0.0, "GRAPROES": 0.0, "_ent": "13", "_mun": "027", "_loc": "0037"}, "geometry": {"type": "Polygon", "coordinates": [[[-98.01699, 20.49626], [-98.01715, 20.49654], [-98.0175, 20.49669], [-98.01716, 20.49716], [-98.0169, 20.49705], [-98.01696, 20.49679], [-98.01666, 20.49654], [-98.01699, 20.49626]]]}}, {"id": "838039", "type": "Feature", "properties": {"id": "838039", "CVEGEO": "1302700370035014", "POBTOT": 0.0, "score_nse": 0.0, "NSE": null, "VIVTOT": 0.0, "GRAPROES": 0.0, "_ent": "13", "_mun": "027", "_loc": "0037"}, "geometry": {"type": "Polygon", "coordinates": [[[-98.01702, 20.49607], [-98.01722, 20.49593], [-98.01735, 20.49655], [-98.01714, 20.49648], [-98.01702, 20.49607]]]}}, {"id": "838040", "type": "Feature", "properties": {"id": "838040", "CVEGEO": "1302700370035013", "POBTOT": 0.0, "score_nse": 0.0, "NSE": null, "VIVTOT": 0.0, "GRAPROES": 0.0, "_ent": "13", "_mun": "027", "_loc": "0037"}, "geometry": {"type": "Polygon", "coordinates": [[[-98.01697, 20.49625], [-98.01615, 20.49669], [-98.01677, 20.49612], [-98.01697, 20.49625]]]}}, {"id": "838041", "type": "Feature", "properties": {"id": "838041", "CVEGEO": "1302700370035019", "POBTOT": 0.0, "score_nse": 0.0, "NSE": null, "VIVTOT": 0.0, "GRAPROES": 0.0, "_ent": "13", "_mun": "027", "_loc": "0037"}, "geometry": {"type": "Polygon", "coordinates": [[[-98.01875, 20.49679], [-98.01875, 20.49589], [-98.01905, 20.49529], [-98.01965, 20.49588], [-98.01985, 20.4959], [-98.02001, 20.4956], [-98.02035, 20.4957], [-98.02004, 20.49618], [-98.01965, 20.49633], [-98.01928, 20.49675], [-98.01875, 20.49679]]]}}, {"id": "838042", "type": "Feature", "properties": {"id": "838042", "CVEGEO": "1302700370035017", "POBTOT": 0.0, "score_nse": 0.0, "NSE": null, "VIVTOT": 0.0, "GRAPROES": 0.0, "_ent": "13", "_mun": "027", "_loc": "0037"}, "geometry": {"type": "Polygon", "coordinates": [[[-98.01874, 20.49791], [-98.01875, 20.49681], [-98.01928, 20.49677], [-98.01891, 20.49781], [-98.01874, 20.49791]]]}}, {"id": "838043", "type": "Feature", "properties": {"id": "838043", "CVEGEO": "1302700370035001", "POBTOT": 0.0, "score_nse": 0.0, "NSE": null, "VIVTOT": 0.0, "GRAPROES": 0.0, "_ent": "13", "_mun": "027", "_loc": "0037"}, "geometry": {"type": "Polygon", "coordinates": [[[-98.01833, 20.49877], [-98.01827, 20.49819], [-98.01872, 20.49806], [-98.01862, 20.49851], [-98.01833, 20.49877]]]}}, {"id": "838044", "type": "Feature", "properties": {"id": "838044", "CVEGEO": "1302700370035016", "POBTOT": 0.0, "score_nse": 0.0, "NSE": null, "VIVTOT": 0.0, "GRAPROES": 0.0, "_ent": "13", "_mun": "027", "_loc": "0037"}, "geometry": {"type": "Polygon", "coordinates": [[[-98.01867, 20.49919], [-98.01854, 20.49956], [-98.0176, 20.49981], [-98.01741, 20.50008], [-98.01704, 20.49963], [-98.01742, 20.49925], [-98.0183, 20.49883], [-98.01867, 20.49919]]]}}, {"id": "838054", "type": "Feature", "properties": {"id": "838054", "CVEGEO": "1302700370035012", "POBTOT": 0.0, "score_nse": 0.0, "NSE": null, "VIVTOT": 0.0, "GRAPROES": 0.0, "_ent": "13", "_mun": "027", "_loc": "0037"}, "geometry": {"type": "Polygon", "coordinates": [[[-98.01868, 20.4973], [-98.01874, 20.49802], [-98.01855, 20.49786], [-98.01872, 20.49803], [-98.01827, 20.49817], [-98.01819, 20.49767], [-98.01868, 20.4973]]]}}, {"id": "838213", "type": "Feature", "properties": {"id": "838213", "CVEGEO": "1302700370035020", "POBTOT": 0.0, "score_nse": 0.0, "NSE": null, "VIVTOT": 0.0, "GRAPROES": 0.0, "_ent": "13", "_mun": "027", "_loc": "0037"}, "geometry": {"type": "Polygon", "coordinates": [[[-98.01873, 20.49603], [-98.01871, 20.4969], [-98.01864, 20.49706], [-98.01836, 20.49658], [-98.01873, 20.49603]]]}}, {"id": "838218", "type": "Feature", "properties": {"id": "838218", "CVEGEO": "1302700370035015", "POBTOT": 0.0, "score_nse": 0.0, "NSE": null, "VIVTOT": 0.0, "GRAPROES": 0.0, "_ent": "13", "_mun": "027", "_loc": "0037"}, "geometry": {"type": "Polygon", "coordinates": [[[-98.0183, 20.49652], [-98.0179, 20.49639], [-98.01779, 20.4965], [-98.01729, 20.49596], [-98.018, 20.49541], [-98.01829, 20.49472], [-98.01912, 20.49499], [-98.01872, 20.49601], [-98.0183, 20.49652]]]}}, {"id": "838219", "type": "Feature", "properties": {"id": "838219", "CVEGEO": "1302700370035009", "POBTOT": 0.0, "score_nse": 0.0, "NSE": null, "VIVTOT": 0.0, "GRAPROES": 0.0, "_ent": "13", "_mun": "027", "_loc": "0037"}, "geometry": {"type": "Polygon", "coordinates": [[[-98.01619, 20.49355], [-98.0164, 20.49341], [-98.01722, 20.49352], [-98.01764, 20.49439], [-98.01822, 20.49471], [-98.01793, 20.49539], [-98.01727, 20.49591], [-98.01682, 20.49517], [-98.01642, 20.49497], [-98.01685, 20.49479], [-98.0169, 20.49463], [-98.01641, 20.49426], [-98.01619, 20.49355]]]}}]}