{"type": "FeatureCollection", "features": [{"id": "1420054", "type": "Feature", "properties": {"id": "1420054", "CVEGEO": "1900700460468005", "POBTOT": 0.0, "score_nse": 0.0, "NSE": null, "VIVTOT": 0.0, "GRAPROES": 0.0, "_ent": "19", "_mun": "007", "_loc": "0046"}, "geometry": {"type": "Polygon", "coordinates": [[[-99.84306, 24.09981], [-99.84209, 24.0994], [-99.84176, 24.09914], [-99.84246, 24.09854], [-99.84288, 24.09925], [-99.8432, 24.09949], [-99.84329, 24.09976], [-99.84306, 24.09981]]]}}, {"id": "1420055", "type": "Feature", "properties": {"id": "1420055", "CVEGEO": "1900700460468007", "POBTOT": 0.0, "score_nse": 0.0, "NSE": null, "VIVTOT": 0.0, "GRAPROES": 0.0, "_ent": "19", "_mun": "007", "_loc": "0046"}, "geometry": {"type": "Polygon", "coordinates": [[[-99.84286, 24.09833], [-99.8431, 24.09839], [-99.84314, 24.09859], [-99.84281, 24.09902], [-99.84248, 24.09852], [-99.84286, 24.09833]]]}}, {"id": "1420056", "type": "Feature", "properties": {"id": "1420056", "CVEGEO": "1900700460468006", "POBTOT": 0.0, "score_nse": 0.0, "NSE": null, "VIVTOT": 0.0, "GRAPROES": 0.0, "_ent": "19", "_mun": "007", "_loc": "0046"}, "geometry": {"type": "Polygon", "coordinates": [[[-99.84088, 24.10004], [-99.84174, 24.09927], [-99.8421, 24.09972], [-99.84128, 24.10035], [-99.84088, 24.10004]]]}}, {"id": "1420057", "type": "Feature", "properties": {"id": "1420057", "CVEGEO": "1900700460468004", "POBTOT": 0.0, "score_nse": 0.0, "NSE": null, "VIVTOT": 0.0, "GRAPROES": 0.0, "_ent": "19", "_mun": "007", "_loc": "0046"}, "geometry": {"type": "Polygon", "coordinates": [[[-99.83881, 24.10135], [-99.83862, 24.10109], [-99.83985, 24.10082], [-99.84083, 24.10007], [-99.84182, 24.10075], [-99.84143, 24.10135], [-99.84047, 24.10121], [-99.84043, 24.10137], [-99.83971, 24.10166], [-99.8396, 24.10143], [-99.83881, 24.10135]]]}}, {"id": "1420058", "type": "Feature", "properties": {"id": "1420058", "CVEGEO": "1900700460468003", "POBTOT": 0.0, "score_nse": 0.0, "NSE": null, "VIVTOT": 0.0, "GRAPROES": 0.0, "_ent": "19", "_mun": "007", "_loc": "0046"}, "geometry": {"type": "Polygon", "coordinates": [[[-99.8373, 24.10137], [-99.83643, 24.10202], [-99.8361, 24.10128], [-99.83675, 24.10086], [-99.83796, 24.10109], [-99.8373, 24.10137]]]}}, {"id": "1420059", "type": "Feature", "properties": {"id": "1420059", "CVEGEO": "1900700460468002", "POBTOT": 0.0, "score_nse": 0.0, "NSE": null, "VIVTOT": 0.0, "GRAPROES": 0.0, "_ent": "19", "_mun": "007", "_loc": "0046"}, "geometry": {"type": "Polygon", "coordinates": [[[-99.83449, 24.1025], [-99.83604, 24.10131], [-99.83636, 24.10203], [-99.83379, 24.10412], [-99.83359, 24.10396], [-99.83449, 24.1025]]]}}, {"id": "1420060", "type": "Feature", "properties": {"id": "1420060", "CVEGEO": "1900700460468001", "POBTOT": 0.0, "score_nse": 0.0, "NSE": null, "VIVTOT": 0.0, "GRAPROES": 0.0, "_ent": "19", "_mun": "007", "_loc": "0046"}, "geometry": {"type": "Polygon", "coordinates": [[[-99.83388, 24.1042], [-99.83737, 24.10143], [-99.83837, 24.10109], [-99.83857, 24.10111], [-99.83874, 24.10135], [-99.83841, 24.10165], [-99.83805, 24.10153], [-99.83777, 24.10205], [-99.83705, 24.10257], [-99.83603, 24.10298], [-99.83558, 24.10391], [-99.83506, 24.10362], [-99.83471, 24.104], [-99.83494, 24.10425], [-99.8344, 24.10462], [-99.83388, 24.1042]]]}}]}