{"type": "FeatureCollection", "features": [{"id": "1582526", "type": "Feature", "properties": {"id": "1582526", "CVEGEO": "2005800320012001", "POBTOT": 0.0, "score_nse": 0.0, "NSE": null, "VIVTOT": 0.0, "GRAPROES": 0.0, "_ent": "20", "_mun": "058", "_loc": "0032"}, "geometry": {"type": "Polygon", "coordinates": [[[-96.90744, 18.03964], [-96.90697, 18.03954], [-96.90677, 18.03917], [-96.90728, 18.03872], [-96.90757, 18.03908], [-96.90744, 18.03964]]]}}, {"id": "1582527", "type": "Feature", "properties": {"id": "1582527", "CVEGEO": "2005800320012003", "POBTOT": 0.0, "score_nse": 0.0, "NSE": null, "VIVTOT": 0.0, "GRAPROES": 0.0, "_ent": "20", "_mun": "058", "_loc": "0032"}, "geometry": {"type": "Polygon", "coordinates": [[[-96.90613, 18.04141], [-96.90546, 18.04108], [-96.90542, 18.0409], [-96.90568, 18.04079], [-96.90572, 18.04048], [-96.90662, 18.04054], [-96.90686, 18.0408], [-96.90699, 18.04111], [-96.90613, 18.04141]]]}}]}