{"type": "FeatureCollection", "features": [{"id": "1582550", "type": "Feature", "properties": {"id": "1582550", "CVEGEO": "2005801390012002", "POBTOT": 0.0, "score_nse": 0.0, "NSE": null, "VIVTOT": 0.0, "GRAPROES": 0.0, "_ent": "20", "_mun": "058", "_loc": "0139"}, "geometry": {"type": "Polygon", "coordinates": [[[-96.92313, 18.06131], [-96.92308, 18.06073], [-96.92241, 18.06001], [-96.92232, 18.05958], [-96.9224, 18.05922], [-96.92282, 18.05869], [-96.92356, 18.05914], [-96.9237, 18.05953], [-96.9235, 18.06145], [-96.92313, 18.06131]]]}}, {"id": "1582551", "type": "Feature", "properties": {"id": "1582551", "CVEGEO": "2005801390012001", "POBTOT": 0.0, "score_nse": 0.0, "NSE": null, "VIVTOT": 0.0, "GRAPROES": 0.0, "_ent": "20", "_mun": "058", "_loc": "0139"}, "geometry": {"type": "Polygon", "coordinates": [[[-96.92237, 18.05997], [-96.92197, 18.05923], [-96.92121, 18.0592], [-96.92224, 18.05734], [-96.92203, 18.05783], [-96.92263, 18.05789], [-96.92295, 18.05864], [-96.92235, 18.05919], [-96.92237, 18.05997]]]}}, {"id": "1582587", "type": "Feature", "properties": {"id": "1582587", "CVEGEO": "2005801390012003", "POBTOT": 0.0, "score_nse": 0.0, "NSE": null, "VIVTOT": 0.0, "GRAPROES": 0.0, "_ent": "20", "_mun": "058", "_loc": "0139"}, "geometry": {"type": "Polygon", "coordinates": [[[-96.9235, 18.06148], [-96.92356, 18.06171], [-96.92379, 18.06219], [-96.92312, 18.06134], [-96.9235, 18.06148]]]}}]}