{"type": "FeatureCollection", "features": [{"id": "1304699", "type": "Feature", "properties": {"id": "1304699", "CVEGEO": "1609300560015012", "POBTOT": 0.0, "score_nse": 0.0, "NSE": null, "VIVTOT": 0.0, "GRAPROES": 0.0, "_ent": "16", "_mun": "093", "_loc": "0056"}, "geometry": {"type": "Polygon", "coordinates": [[[-100.25906, 19.75787], [-100.25844, 19.75829], [-100.25815, 19.75812], [-100.25908, 19.75761], [-100.25906, 19.75787]]]}}, {"id": "1304700", "type": "Feature", "properties": {"id": "1304700", "CVEGEO": "1609300560015014", "POBTOT": 0.0, "score_nse": 0.0, "NSE": null, "VIVTOT": 0.0, "GRAPROES": 0.0, "_ent": "16", "_mun": "093", "_loc": "0056"}, "geometry": {"type": "Polygon", "coordinates": [[[-100.25839, 19.75831], [-100.25787, 19.75865], [-100.25698, 19.75894], [-100.25718, 19.75865], [-100.25811, 19.75815], [-100.25839, 19.75831]]]}}, {"id": "1304701", "type": "Feature", "properties": {"id": "1304701", "CVEGEO": "1609300560015015", "POBTOT": 0.0, "score_nse": 0.0, "NSE": null, "VIVTOT": 0.0, "GRAPROES": 0.0, "_ent": "16", "_mun": "093", "_loc": "0056"}, "geometry": {"type": "Polygon", "coordinates": [[[-100.25781, 19.75919], [-100.25755, 19.75911], [-100.25697, 19.75932], [-100.25731, 19.76013], [-100.25691, 19.75992], [-100.25655, 19.75924], [-100.25782, 19.75876], [-100.25781, 19.75919]]]}}, {"id": "1304702", "type": "Feature", "properties": {"id": "1304702", "CVEGEO": "1609300560015013", "POBTOT": 0.0, "score_nse": 0.0, "NSE": null, "VIVTOT": 0.0, "GRAPROES": 0.0, "_ent": "16", "_mun": "093", "_loc": "0056"}, "geometry": {"type": "Polygon", "coordinates": [[[-100.26009, 19.75798], [-100.25974, 19.7585], [-100.2591, 19.75827], [-100.25869, 19.75885], [-100.25853, 19.75882], [-100.25851, 19.75904], [-100.2579, 19.75879], [-100.25929, 19.75786], [-100.26009, 19.75798]]]}}, {"id": "1304703", "type": "Feature", "properties": {"id": "1304703", "CVEGEO": "1609300560015016", "POBTOT": 0.0, "score_nse": 0.0, "NSE": null, "VIVTOT": 0.0, "GRAPROES": 0.0, "_ent": "16", "_mun": "093", "_loc": "0056"}, "geometry": {"type": "Polygon", "coordinates": [[[-100.25911, 19.75785], [-100.25913, 19.75761], [-100.25975, 19.75757], [-100.26114, 19.75817], [-100.25971, 19.75779], [-100.25911, 19.75785]]]}}, {"id": "1304773", "type": "Feature", "properties": {"id": "1304773", "CVEGEO": "1609300560015005", "POBTOT": 0.0, "score_nse": 0.0, "NSE": null, "VIVTOT": 0.0, "GRAPROES": 0.0, "_ent": "16", "_mun": "093", "_loc": "0056"}, "geometry": {"type": "Polygon", "coordinates": [[[-100.26138, 19.75812], [-100.26025, 19.7576], [-100.25985, 19.75743], [-100.26093, 19.75699], [-100.26158, 19.75697], [-100.26203, 19.75726], [-100.26209, 19.75747], [-100.26194, 19.75772], [-100.26135, 19.75796], [-100.26138, 19.75812]]]}}]}