{"type": "FeatureCollection", "features": [{"id": "1173863", "type": "Feature", "properties": {"id": "1173863", "CVEGEO": "1510601231269003", "POBTOT": 0.0, "score_nse": 0.0, "NSE": null, "VIVTOT": 0.0, "GRAPROES": 0.0, "_ent": "15", "_mun": "106", "_loc": "0123"}, "geometry": {"type": "Polygon", "coordinates": [[[-99.64911, 19.43917], [-99.64819, 19.43939], [-99.64809, 19.43854], [-99.64831, 19.43832], [-99.65008, 19.43881], [-99.64982, 19.43964], [-99.64911, 19.43917]]]}}, {"id": "1173864", "type": "Feature", "properties": {"id": "1173864", "CVEGEO": "1510601231269002", "POBTOT": 0.0, "score_nse": 0.0, "NSE": null, "VIVTOT": 0.0, "GRAPROES": 0.0, "_ent": "15", "_mun": "106", "_loc": "0123"}, "geometry": {"type": "Polygon", "coordinates": [[[-99.64987, 19.43967], [-99.65013, 19.43881], [-99.651, 19.43901], [-99.65086, 19.43989], [-99.65063, 19.43986], [-99.65106, 19.44001], [-99.65108, 19.44032], [-99.65014, 19.43997], [-99.64987, 19.43967]]]}}, {"id": "1173959", "type": "Feature", "properties": {"id": "1173959", "CVEGEO": "1510601231269001", "POBTOT": 0.0, "score_nse": 0.0, "NSE": null, "VIVTOT": 0.0, "GRAPROES": 0.0, "_ent": "15", "_mun": "106", "_loc": "0123"}, "geometry": {"type": "Polygon", "coordinates": [[[-99.65107, 19.43903], [-99.65183, 19.43914], [-99.65157, 19.44033], [-99.65112, 19.44028], [-99.65111, 19.43999], [-99.65092, 19.43992], [-99.65107, 19.43903]]]}}, {"id": "1180708", "type": "Feature", "properties": {"id": "1180708", "CVEGEO": "1510601231269005", "POBTOT": 0.0, "score_nse": 0.0, "NSE": null, "VIVTOT": 0.0, "GRAPROES": 0.0, "_ent": "15", "_mun": "106", "_loc": "0123"}, "geometry": {"type": "Polygon", "coordinates": [[[-99.64837, 19.43827], [-99.64833, 19.43756], [-99.65096, 19.43817], [-99.65078, 19.43886], [-99.6484, 19.43828], [-99.64853, 19.43774], [-99.64837, 19.43827]]]}}, {"id": "1180790", "type": "Feature", "properties": {"id": "1180790", "CVEGEO": "1510601231269008", "POBTOT": 0.0, "score_nse": 0.0, "NSE": null, "VIVTOT": 0.0, "GRAPROES": 0.0, "_ent": "15", "_mun": "106", "_loc": "0123"}, "geometry": {"type": "Polygon", "coordinates": [[[-99.65165, 19.4403], [-99.65189, 19.43914], [-99.65247, 19.43918], [-99.65246, 19.43952], [-99.65253, 19.43919], [-99.65414, 19.43937], [-99.65409, 19.43964], [-99.65372, 19.4397], [-99.6528, 19.43977], [-99.65271, 19.43956], [-99.65271, 19.44013], [-99.65221, 19.44024], [-99.6522, 19.44002], [-99.65217, 19.44024], [-99.65165, 19.4403]]]}}, {"id": "1182230", "type": "Feature", "properties": {"id": "1182230", "CVEGEO": "1510601231269009", "POBTOT": 0.0, "score_nse": 0.0, "NSE": null, "VIVTOT": 0.0, "GRAPROES": 0.0, "_ent": "15", "_mun": "106", "_loc": "0123"}, "geometry": {"type": "Polygon", "coordinates": [[[-99.65156, 19.43854], [-99.6514, 19.43901], [-99.65112, 19.43896], [-99.65122, 19.43853], [-99.65106, 19.43895], [-99.65084, 19.4389], [-99.65099, 19.43818], [-99.65217, 19.43838], [-99.65201, 19.43909], [-99.65179, 19.43905], [-99.65186, 19.43872], [-99.65173, 19.43905], [-99.65145, 19.43901], [-99.65156, 19.43854]]]}}]}