{"type": "FeatureCollection", "features": [{"id": "1173677", "type": "Feature", "properties": {"id": "1173677", "CVEGEO": "1510602215079007", "POBTOT": 194.0, "score_nse": 0.0, "NSE": "ND", "VIVTOT": 135.0, "GRAPROES": 11.15, "_ent": "15", "_mun": "106", "_loc": "0221"}, "geometry": {"type": "Polygon", "coordinates": [[[-99.63891, 19.38234], [-99.6387, 19.38218], [-99.63941, 19.381], [-99.63908, 19.3808], [-99.6385, 19.38175], [-99.63835, 19.38145], [-99.63883, 19.38068], [-99.63993, 19.3808], [-99.63891, 19.38234]]]}}, {"id": "1173678", "type": "Feature", "properties": {"id": "1173678", "CVEGEO": "1510602215079029", "POBTOT": 44.0, "score_nse": 45.8303, "NSE": "C-", "VIVTOT": 24.0, "GRAPROES": 10.92, "_ent": "15", "_mun": "106", "_loc": "0221"}, "geometry": {"type": "Polygon", "coordinates": [[[-99.63506, 19.38179], [-99.63534, 19.38181], [-99.63527, 19.38232], [-99.635, 19.38229], [-99.63506, 19.38179]]]}}, {"id": "1173679", "type": "Feature", "properties": {"id": "1173679", "CVEGEO": "1510602215079024", "POBTOT": 25.0, "score_nse": 64.0447, "NSE": "C", "VIVTOT": 12.0, "GRAPROES": 12.12, "_ent": "15", "_mun": "106", "_loc": "0221"}, "geometry": {"type": "Polygon", "coordinates": [[[-99.635, 19.38239], [-99.63526, 19.38241], [-99.63523, 19.38266], [-99.63497, 19.38263], [-99.635, 19.38239]]]}}, {"id": "1173691", "type": "Feature", "properties": {"id": "1173691", "CVEGEO": "1510602215079040", "POBTOT": 275.0, "score_nse": 46.457, "NSE": "C-", "VIVTOT": 160.0, "GRAPROES": 10.22, "_ent": "15", "_mun": "106", "_loc": "0221"}, "geometry": {"type": "Polygon", "coordinates": [[[-99.64063, 19.37834], [-99.64118, 19.37832], [-99.64179, 19.37863], [-99.64162, 19.37978], [-99.64147, 19.37976], [-99.64168, 19.37863], [-99.64151, 19.37863], [-99.64139, 19.37975], [-99.64111, 19.37971], [-99.6413, 19.3785], [-99.64088, 19.3785], [-99.64072, 19.37966], [-99.64045, 19.37963], [-99.64063, 19.37834]]]}}, {"id": "1173692", "type": "Feature", "properties": {"id": "1173692", "CVEGEO": "1510602215079039", "POBTOT": 105.0, "score_nse": 46.7252, "NSE": "C-", "VIVTOT": 61.0, "GRAPROES": 10.67, "_ent": "15", "_mun": "106", "_loc": "0221"}, "geometry": {"type": "Polygon", "coordinates": [[[-99.64027, 19.37781], [-99.64109, 19.37824], [-99.64029, 19.37805], [-99.63881, 19.37946], [-99.64027, 19.37781]]]}}, {"id": "1173693", "type": "Feature", "properties": {"id": "1173693", "CVEGEO": "1510602215079004", "POBTOT": 77.0, "score_nse": 49.2157, "NSE": "C-", "VIVTOT": 51.0, "GRAPROES": 11.07, "_ent": "15", "_mun": "106", "_loc": "0221"}, "geometry": {"type": "Polygon", "coordinates": [[[-99.63854, 19.38279], [-99.63823, 19.38338], [-99.63777, 19.38332], [-99.63785, 19.38268], [-99.63813, 19.38271], [-99.63802, 19.38327], [-99.63815, 19.38328], [-99.63819, 19.38271], [-99.63854, 19.38279]]]}}, {"id": "1173696", "type": "Feature", "properties": {"id": "1173696", "CVEGEO": "1510602215079034", "POBTOT": 311.0, "score_nse": 51.864, "NSE": "C-", "VIVTOT": 177.0, "GRAPROES": 10.86, "_ent": "15", "_mun": "106", "_loc": "0221"}, "geometry": {"type": "Polygon", "coordinates": [[[-99.64042, 19.37972], [-99.64159, 19.37988], [-99.64139, 19.38144], [-99.64122, 19.38137], [-99.64149, 19.38007], [-99.64123, 19.38006], [-99.64133, 19.38014], [-99.64117, 19.38133], [-99.64091, 19.3812], [-99.64108, 19.38], [-99.64066, 19.37995], [-99.64052, 19.38099], [-99.64026, 19.38084], [-99.64042, 19.37972]]]}}, {"id": "1173709", "type": "Feature", "properties": {"id": "1173709", "CVEGEO": "1510602215079017", "POBTOT": 127.0, "score_nse": 54.1145, "NSE": "C-", "VIVTOT": 55.0, "GRAPROES": 10.6, "_ent": "15", "_mun": "106", "_loc": "0221"}, "geometry": {"type": "Polygon", "coordinates": [[[-99.64074, 19.38343], [-99.64119, 19.38272], [-99.64133, 19.38301], [-99.64111, 19.38337], [-99.64157, 19.38359], [-99.64173, 19.38399], [-99.64074, 19.38343]]]}}, {"id": "1173711", "type": "Feature", "properties": {"id": "1173711", "CVEGEO": "1510602215079022", "POBTOT": 40.0, "score_nse": 54.9275, "NSE": "C-", "VIVTOT": 16.0, "GRAPROES": 9.92, "_ent": "15", "_mun": "106", "_loc": "0221"}, "geometry": {"type": "Polygon", "coordinates": [[[-99.63604, 19.3825], [-99.63631, 19.38252], [-99.63627, 19.38286], [-99.63601, 19.38284], [-99.63604, 19.3825]]]}}, {"id": "1173712", "type": "Feature", "properties": {"id": "1173712", "CVEGEO": "1510602215079019", "POBTOT": 227.0, "score_nse": 47.6299, "NSE": "C-", "VIVTOT": 142.0, "GRAPROES": 10.49, "_ent": "15", "_mun": "106", "_loc": "0221"}, "geometry": {"type": "Polygon", "coordinates": [[[-99.64013, 19.38438], [-99.64055, 19.3837], [-99.6408, 19.38384], [-99.64042, 19.38443], [-99.64075, 19.38462], [-99.64115, 19.38404], [-99.64139, 19.38417], [-99.64102, 19.38487], [-99.64109, 19.38477], [-99.64132, 19.38504], [-99.64174, 19.38438], [-99.64184, 19.38444], [-99.64191, 19.38463], [-99.64154, 19.38517], [-99.64163, 19.38523], [-99.64195, 19.38476], [-99.64202, 19.38505], [-99.64188, 19.38524], [-99.64219, 19.38557], [-99.64013, 19.38438]]]}}, {"id": "1173733", "type": "Feature", "properties": {"id": "1173733", "CVEGEO": "1510602215079023", "POBTOT": 54.0, "score_nse": 44.2993, "NSE": "C-", "VIVTOT": 53.0, "GRAPROES": 10.88, "_ent": "15", "_mun": "106", "_loc": "0221"}, "geometry": {"type": "Polygon", "coordinates": [[[-99.63557, 19.38301], [-99.63439, 19.3827], [-99.63443, 19.38232], [-99.63459, 19.38234], [-99.63451, 19.38266], [-99.63467, 19.38267], [-99.63465, 19.38235], [-99.63493, 19.38238], [-99.6349, 19.38275], [-99.63523, 19.38279], [-99.63532, 19.38243], [-99.63561, 19.38245], [-99.63557, 19.38301]]]}}, {"id": "1173734", "type": "Feature", "properties": {"id": "1173734", "CVEGEO": "1510602215079037", "POBTOT": 0.0, "score_nse": 0.0, "NSE": "ND", "VIVTOT": 0.0, "GRAPROES": 0.0, "_ent": "15", "_mun": "106", "_loc": "0221"}, "geometry": {"type": "Polygon", "coordinates": [[[-99.63984, 19.37871], [-99.63974, 19.37955], [-99.63945, 19.37951], [-99.63951, 19.37901], [-99.63984, 19.37871]]]}}, {"id": "1173735", "type": "Feature", "properties": {"id": "1173735", "CVEGEO": "1510602215079003", "POBTOT": 46.0, "score_nse": 0.0, "NSE": "ND", "VIVTOT": 28.0, "GRAPROES": 11.34, "_ent": "15", "_mun": "106", "_loc": "0221"}, "geometry": {"type": "Polygon", "coordinates": [[[-99.63837, 19.38184], [-99.63803, 19.38198], [-99.63785, 19.38162], [-99.63807, 19.38116], [-99.63837, 19.38184]]]}}, {"id": "1173736", "type": "Feature", "properties": {"id": "1173736", "CVEGEO": "1510602215079002", "POBTOT": 0.0, "score_nse": 0.0, "NSE": "ND", "VIVTOT": 0.0, "GRAPROES": 0.0, "_ent": "15", "_mun": "106", "_loc": "0221"}, "geometry": {"type": "Polygon", "coordinates": [[[-99.63685, 19.38167], [-99.63724, 19.38161], [-99.63726, 19.38098], [-99.6379, 19.38086], [-99.638, 19.3811], [-99.63774, 19.38152], [-99.63794, 19.38204], [-99.63769, 19.3833], [-99.63665, 19.38315], [-99.63685, 19.38167]]]}}, {"id": "1173740", "type": "Feature", "properties": {"id": "1173740", "CVEGEO": "1510602215079006", "POBTOT": 55.0, "score_nse": 61.4471, "NSE": "C", "VIVTOT": 26.0, "GRAPROES": 11.95, "_ent": "15", "_mun": "106", "_loc": "0221"}, "geometry": {"type": "Polygon", "coordinates": [[[-99.63829, 19.3813], [-99.63818, 19.38102], [-99.63846, 19.38055], [-99.63874, 19.38067], [-99.63829, 19.3813]]]}}, {"id": "1173741", "type": "Feature", "properties": {"id": "1173741", "CVEGEO": "1510602215079032", "POBTOT": 22.0, "score_nse": 58.359, "NSE": "C", "VIVTOT": 8.0, "GRAPROES": 9.37, "_ent": "15", "_mun": "106", "_loc": "0221"}, "geometry": {"type": "Polygon", "coordinates": [[[-99.6392, 19.38059], [-99.63894, 19.38058], [-99.63924, 19.38008], [-99.63927, 19.38009], [-99.6392, 19.38059]]]}}, {"id": "1173742", "type": "Feature", "properties": {"id": "1173742", "CVEGEO": "1510602215079031", "POBTOT": 116.0, "score_nse": 55.8237, "NSE": "C", "VIVTOT": 52.0, "GRAPROES": 11.42, "_ent": "15", "_mun": "106", "_loc": "0221"}, "geometry": {"type": "Polygon", "coordinates": [[[-99.64096, 19.37858], [-99.64122, 19.37861], [-99.64106, 19.3797], [-99.64078, 19.37967], [-99.64096, 19.37858]]]}}, {"id": "1173743", "type": "Feature", "properties": {"id": "1173743", "CVEGEO": "1510602215079030", "POBTOT": 128.0, "score_nse": 56.7045, "NSE": "C", "VIVTOT": 46.0, "GRAPROES": 10.9, "_ent": "15", "_mun": "106", "_loc": "0221"}, "geometry": {"type": "Polygon", "coordinates": [[[-99.64006, 19.38167], [-99.63961, 19.38141], [-99.64, 19.38082], [-99.64024, 19.38095], [-99.63982, 19.38139], [-99.64008, 19.38154], [-99.64001, 19.38144], [-99.6403, 19.38098], [-99.64046, 19.38106], [-99.64006, 19.38167]]]}}, {"id": "1173747", "type": "Feature", "properties": {"id": "1173747", "CVEGEO": "1510602215079015", "POBTOT": 48.0, "score_nse": 50.1326, "NSE": "C-", "VIVTOT": 26.0, "GRAPROES": 10.56, "_ent": "15", "_mun": "106", "_loc": "0221"}, "geometry": {"type": "Polygon", "coordinates": [[[-99.63993, 19.38335], [-99.64018, 19.38349], [-99.63986, 19.38399], [-99.63962, 19.38385], [-99.63993, 19.38335]]]}}, {"id": "1173748", "type": "Feature", "properties": {"id": "1173748", "CVEGEO": "1510602215079013", "POBTOT": 58.0, "score_nse": 51.3436, "NSE": "C-", "VIVTOT": 36.0, "GRAPROES": 12.37, "_ent": "15", "_mun": "106", "_loc": "0221"}, "geometry": {"type": "Polygon", "coordinates": [[[-99.6402, 19.38223], [-99.63979, 19.38288], [-99.63955, 19.38274], [-99.63996, 19.38209], [-99.6402, 19.38223]]]}}, {"id": "1173749", "type": "Feature", "properties": {"id": "1173749", "CVEGEO": "1510602215079012", "POBTOT": 57.0, "score_nse": 56.6767, "NSE": "C", "VIVTOT": 36.0, "GRAPROES": 13.05, "_ent": "15", "_mun": "106", "_loc": "0221"}, "geometry": {"type": "Polygon", "coordinates": [[[-99.64015, 19.38308], [-99.64054, 19.38243], [-99.64079, 19.38257], [-99.64038, 19.38322], [-99.64015, 19.38308]]]}}, {"id": "1173753", "type": "Feature", "properties": {"id": "1173753", "CVEGEO": "1510602215079021", "POBTOT": 117.0, "score_nse": 52.9618, "NSE": "C-", "VIVTOT": 55.0, "GRAPROES": 10.1, "_ent": "15", "_mun": "106", "_loc": "0221"}, "geometry": {"type": "Polygon", "coordinates": [[[-99.63564, 19.383], [-99.63569, 19.38246], [-99.63598, 19.38249], [-99.63593, 19.38293], [-99.63626, 19.38297], [-99.63637, 19.38253], [-99.63666, 19.38255], [-99.63658, 19.38314], [-99.63564, 19.383]]]}}, {"id": "1173754", "type": "Feature", "properties": {"id": "1173754", "CVEGEO": "1510602215079005", "POBTOT": 21.0, "score_nse": 65.335, "NSE": "C", "VIVTOT": 8.0, "GRAPROES": 12.93, "_ent": "15", "_mun": "106", "_loc": "0221"}, "geometry": {"type": "Polygon", "coordinates": [[[-99.63817, 19.38089], [-99.63809, 19.3807], [-99.6382, 19.38045], [-99.63839, 19.38053], [-99.63817, 19.38089]]]}}, {"id": "1173755", "type": "Feature", "properties": {"id": "1173755", "CVEGEO": "1510602215079026", "POBTOT": 186.0, "score_nse": 45.5294, "NSE": "C-", "VIVTOT": 116.0, "GRAPROES": 10.79, "_ent": "15", "_mun": "106", "_loc": "0221"}, "geometry": {"type": "Polygon", "coordinates": [[[-99.63652, 19.38137], [-99.63611, 19.38138], [-99.63598, 19.3824], [-99.63571, 19.38237], [-99.63582, 19.3814], [-99.63682, 19.38109], [-99.63667, 19.38247], [-99.63639, 19.38244], [-99.63652, 19.38137]]]}}, {"id": "1173756", "type": "Feature", "properties": {"id": "1173756", "CVEGEO": "1510602215079025", "POBTOT": 0.0, "score_nse": 0.0, "NSE": "ND", "VIVTOT": 0.0, "GRAPROES": 0.0, "_ent": "15", "_mun": "106", "_loc": "0221"}, "geometry": {"type": "Polygon", "coordinates": [[[-99.63432, 19.38267], [-99.63414, 19.38192], [-99.6344, 19.38184], [-99.63432, 19.38267]]]}}, {"id": "1173760", "type": "Feature", "properties": {"id": "1173760", "CVEGEO": "1510602215079020", "POBTOT": 27.0, "score_nse": 0.0, "NSE": "ND", "VIVTOT": 21.0, "GRAPROES": 10.16, "_ent": "15", "_mun": "106", "_loc": "0221"}, "geometry": {"type": "Polygon", "coordinates": [[[-99.63717, 19.381], [-99.63715, 19.38156], [-99.63689, 19.38158], [-99.63692, 19.38106], [-99.63717, 19.381]]]}}, {"id": "1173762", "type": "Feature", "properties": {"id": "1173762", "CVEGEO": "1510602215079010", "POBTOT": 60.0, "score_nse": 51.3785, "NSE": "C-", "VIVTOT": 27.0, "GRAPROES": 10.18, "_ent": "15", "_mun": "106", "_loc": "0221"}, "geometry": {"type": "Polygon", "coordinates": [[[-99.64136, 19.38485], [-99.64111, 19.38471], [-99.64144, 19.38421], [-99.64169, 19.38435], [-99.64136, 19.38485]]]}}, {"id": "1173763", "type": "Feature", "properties": {"id": "1173763", "CVEGEO": "1510602215079009", "POBTOT": 49.0, "score_nse": 46.4174, "NSE": "C-", "VIVTOT": 28.0, "GRAPROES": 10.16, "_ent": "15", "_mun": "106", "_loc": "0221"}, "geometry": {"type": "Polygon", "coordinates": [[[-99.64085, 19.38387], [-99.64109, 19.38401], [-99.64077, 19.38451], [-99.64053, 19.38437], [-99.64085, 19.38387]]]}}, {"id": "1173764", "type": "Feature", "properties": {"id": "1173764", "CVEGEO": "1510602215079008", "POBTOT": 87.0, "score_nse": 0.0, "NSE": "ND", "VIVTOT": 50.0, "GRAPROES": 11.77, "_ent": "15", "_mun": "106", "_loc": "0221"}, "geometry": {"type": "Polygon", "coordinates": [[[-99.63852, 19.38182], [-99.63907, 19.38093], [-99.63931, 19.38106], [-99.63865, 19.38211], [-99.63852, 19.38182]]]}}, {"id": "1176962", "type": "Feature", "properties": {"id": "1176962", "CVEGEO": "1510602215079041", "POBTOT": 0.0, "score_nse": 0.0, "NSE": "ND", "VIVTOT": 0.0, "GRAPROES": 0.0, "_ent": "15", "_mun": "106", "_loc": "0221"}, "geometry": {"type": "Polygon", "coordinates": [[[-99.63936, 19.37958], [-99.63881, 19.38059], [-99.63822, 19.38036], [-99.63859, 19.37943], [-99.63877, 19.37947], [-99.6387, 19.37956], [-99.63936, 19.37958]]]}}, {"id": "1179922", "type": "Feature", "properties": {"id": "1179922", "CVEGEO": "1510602215079027", "POBTOT": 64.0, "score_nse": 0.0, "NSE": "ND", "VIVTOT": 46.0, "GRAPROES": 9.98, "_ent": "15", "_mun": "106", "_loc": "0221"}, "geometry": {"type": "Polygon", "coordinates": [[[-99.63615, 19.38146], [-99.63643, 19.38148], [-99.63633, 19.38243], [-99.63605, 19.38241], [-99.63615, 19.38146]]]}}, {"id": "1179973", "type": "Feature", "properties": {"id": "1179973", "CVEGEO": "1510602215079018", "POBTOT": 3.0, "score_nse": 0.0, "NSE": "ND", "VIVTOT": 2.0, "GRAPROES": 0.0, "_ent": "15", "_mun": "106", "_loc": "0221"}, "geometry": {"type": "Polygon", "coordinates": [[[-99.64154, 19.38349], [-99.64122, 19.38331], [-99.64136, 19.38307], [-99.64154, 19.38349]]]}}, {"id": "1179987", "type": "Feature", "properties": {"id": "1179987", "CVEGEO": "1510602215079036", "POBTOT": 115.0, "score_nse": 45.1436, "NSE": "C-", "VIVTOT": 57.0, "GRAPROES": 9.86, "_ent": "15", "_mun": "106", "_loc": "0221"}, "geometry": {"type": "Polygon", "coordinates": [[[-99.64018, 19.37822], [-99.6401, 19.37959], [-99.63983, 19.37956], [-99.63997, 19.37846], [-99.64018, 19.37822]]]}}, {"id": "1180062", "type": "Feature", "properties": {"id": "1180062", "CVEGEO": "1510602215079016", "POBTOT": 52.0, "score_nse": 54.776, "NSE": "C-", "VIVTOT": 28.0, "GRAPROES": 12.0, "_ent": "15", "_mun": "106", "_loc": "0221"}, "geometry": {"type": "Polygon", "coordinates": [[[-99.63927, 19.38365], [-99.63904, 19.38352], [-99.63936, 19.38301], [-99.6396, 19.38315], [-99.63927, 19.38365]]]}}, {"id": "1180095", "type": "Feature", "properties": {"id": "1180095", "CVEGEO": "1510602215079014", "POBTOT": 252.0, "score_nse": 47.8954, "NSE": "C-", "VIVTOT": 152.0, "GRAPROES": 10.73, "_ent": "15", "_mun": "106", "_loc": "0221"}, "geometry": {"type": "Polygon", "coordinates": [[[-99.64005, 19.38433], [-99.63837, 19.38341], [-99.63877, 19.38268], [-99.63903, 19.38282], [-99.63861, 19.38338], [-99.63874, 19.38346], [-99.63907, 19.38285], [-99.63929, 19.38297], [-99.63893, 19.38358], [-99.63928, 19.38379], [-99.63966, 19.38318], [-99.63988, 19.38332], [-99.63952, 19.38392], [-99.63985, 19.38412], [-99.64024, 19.38352], [-99.64047, 19.38366], [-99.64005, 19.38433]]]}}, {"id": "1180098", "type": "Feature", "properties": {"id": "1180098", "CVEGEO": "1510602215079011", "POBTOT": 266.0, "score_nse": 0.0, "NSE": "ND", "VIVTOT": 223.0, "GRAPROES": 11.43, "_ent": "15", "_mun": "106", "_loc": "0221"}, "geometry": {"type": "Polygon", "coordinates": [[[-99.64087, 19.38223], [-99.64117, 19.38265], [-99.64067, 19.38339], [-99.64043, 19.38324], [-99.64087, 19.38254], [-99.64052, 19.38235], [-99.64008, 19.38304], [-99.63985, 19.38291], [-99.64026, 19.38214], [-99.63996, 19.38197], [-99.6395, 19.38271], [-99.63926, 19.38257], [-99.63984, 19.38192], [-99.63957, 19.38176], [-99.63966, 19.38186], [-99.63919, 19.38254], [-99.63896, 19.38241], [-99.63956, 19.38148], [-99.64087, 19.38223]]]}}, {"id": "1180163", "type": "Feature", "properties": {"id": "1180163", "CVEGEO": "1510602215079028", "POBTOT": 161.0, "score_nse": 52.6535, "NSE": "C-", "VIVTOT": 82.0, "GRAPROES": 10.55, "_ent": "15", "_mun": "106", "_loc": "0221"}, "geometry": {"type": "Polygon", "coordinates": [[[-99.63541, 19.38172], [-99.635, 19.38173], [-99.63496, 19.38229], [-99.63466, 19.38226], [-99.63476, 19.38185], [-99.6346, 19.38185], [-99.6346, 19.38226], [-99.63444, 19.38225], [-99.63449, 19.3818], [-99.63576, 19.38142], [-99.63564, 19.38236], [-99.63534, 19.38233], [-99.63541, 19.38172]]]}}, {"id": "1180164", "type": "Feature", "properties": {"id": "1180164", "CVEGEO": "1510602215079033", "POBTOT": 146.0, "score_nse": 49.3436, "NSE": "C-", "VIVTOT": 96.0, "GRAPROES": 11.2, "_ent": "15", "_mun": "106", "_loc": "0221"}, "geometry": {"type": "Polygon", "coordinates": [[[-99.63965, 19.38064], [-99.63977, 19.37992], [-99.6399, 19.37987], [-99.63958, 19.37985], [-99.6397, 19.37991], [-99.63959, 19.38062], [-99.63931, 19.3806], [-99.63946, 19.3796], [-99.6401, 19.37968], [-99.63994, 19.3807], [-99.63965, 19.38064]]]}}, {"id": "1180177", "type": "Feature", "properties": {"id": "1180177", "CVEGEO": "1510602215079001", "POBTOT": 73.0, "score_nse": 0.0, "NSE": "ND", "VIVTOT": 45.0, "GRAPROES": 10.89, "_ent": "15", "_mun": "106", "_loc": "0221"}, "geometry": {"type": "Polygon", "coordinates": [[[-99.63822, 19.38263], [-99.63818, 19.38218], [-99.63817, 19.38262], [-99.63788, 19.3826], [-99.63801, 19.38212], [-99.63841, 19.38194], [-99.63854, 19.38267], [-99.63822, 19.38263]]]}}, {"id": "1180207", "type": "Feature", "properties": {"id": "1180207", "CVEGEO": "1510602215079035", "POBTOT": 58.0, "score_nse": 0.0, "NSE": "ND", "VIVTOT": 45.0, "GRAPROES": 10.88, "_ent": "15", "_mun": "106", "_loc": "0221"}, "geometry": {"type": "Polygon", "coordinates": [[[-99.64071, 19.38009], [-99.64099, 19.38013], [-99.64085, 19.38117], [-99.64059, 19.38103], [-99.64071, 19.38009]]]}}]}