{"type": "FeatureCollection", "features": [{"id": "2049740", "type": "Feature", "properties": {"id": "2049740", "CVEGEO": "2603005964543004", "POBTOT": 0.0, "score_nse": 0.0, "NSE": null, "VIVTOT": 0.0, "GRAPROES": 0.0, "_ent": "26", "_mun": "030", "_loc": "0596"}, "geometry": {"type": "Polygon", "coordinates": [[[-111.60738, 28.71262], [-111.60655, 28.71287], [-111.60592, 28.71291], [-111.60588, 28.71276], [-111.60741, 28.71237], [-111.60757, 28.71281], [-111.60745, 28.71284], [-111.60738, 28.71262]]]}}, {"id": "2049741", "type": "Feature", "properties": {"id": "2049741", "CVEGEO": "2603005964543003", "POBTOT": 0.0, "score_nse": 0.0, "NSE": null, "VIVTOT": 0.0, "GRAPROES": 0.0, "_ent": "26", "_mun": "030", "_loc": "0596"}, "geometry": {"type": "Polygon", "coordinates": [[[-111.60767, 28.71195], [-111.60781, 28.71231], [-111.60769, 28.71235], [-111.60754, 28.712], [-111.60767, 28.71195]]]}}, {"id": "2049742", "type": "Feature", "properties": {"id": "2049742", "CVEGEO": "2603005964543002", "POBTOT": 0.0, "score_nse": 0.0, "NSE": null, "VIVTOT": 0.0, "GRAPROES": 0.0, "_ent": "26", "_mun": "030", "_loc": "0596"}, "geometry": {"type": "Polygon", "coordinates": [[[-111.6062, 28.71236], [-111.60608, 28.71174], [-111.60698, 28.7117], [-111.607, 28.71193], [-111.60725, 28.71187], [-111.60731, 28.71209], [-111.6062, 28.71236]]]}}, {"id": "2050088", "type": "Feature", "properties": {"id": "2050088", "CVEGEO": "2603005964543001", "POBTOT": 0.0, "score_nse": 0.0, "NSE": null, "VIVTOT": 0.0, "GRAPROES": 0.0, "_ent": "26", "_mun": "030", "_loc": "0596"}, "geometry": {"type": "Polygon", "coordinates": [[[-111.60617, 28.7125], [-111.60736, 28.71217], [-111.60739, 28.7123], [-111.6062, 28.71263], [-111.60617, 28.7125]]]}}]}