{"type": "FeatureCollection", "features": [{"id": "2047748", "type": "Feature", "properties": {"id": "2047748", "CVEGEO": "2603006694083013", "POBTOT": 0.0, "score_nse": 0.0, "NSE": null, "VIVTOT": 0.0, "GRAPROES": 0.0, "_ent": "26", "_mun": "030", "_loc": "0669"}, "geometry": {"type": "Polygon", "coordinates": [[[-110.88856, 29.1188], [-110.88915, 29.11801], [-110.88983, 29.11901], [-110.88921, 29.11943], [-110.88908, 29.11928], [-110.88915, 29.11949], [-110.8884, 29.12012], [-110.88907, 29.12113], [-110.88875, 29.1213], [-110.88853, 29.12172], [-110.8874, 29.12183], [-110.88773, 29.12034], [-110.88827, 29.11959], [-110.88856, 29.1188]]]}}, {"id": "2049750", "type": "Feature", "properties": {"id": "2049750", "CVEGEO": "2603006694083015", "POBTOT": 0.0, "score_nse": 0.0, "NSE": null, "VIVTOT": 0.0, "GRAPROES": 0.0, "_ent": "26", "_mun": "030", "_loc": "0669"}, "geometry": {"type": "Polygon", "coordinates": [[[-110.89136, 29.12259], [-110.89149, 29.1224], [-110.89184, 29.12255], [-110.89173, 29.12273], [-110.89136, 29.12259]]]}}, {"id": "2049751", "type": "Feature", "properties": {"id": "2049751", "CVEGEO": "2603006694083002", "POBTOT": 0.0, "score_nse": 0.0, "NSE": null, "VIVTOT": 0.0, "GRAPROES": 0.0, "_ent": "26", "_mun": "030", "_loc": "0669"}, "geometry": {"type": "Polygon", "coordinates": [[[-110.89148, 29.1251], [-110.89023, 29.12465], [-110.89078, 29.12384], [-110.89174, 29.12446], [-110.89148, 29.1251]]]}}, {"id": "2049752", "type": "Feature", "properties": {"id": "2049752", "CVEGEO": "2603006694083010", "POBTOT": 0.0, "score_nse": 0.0, "NSE": null, "VIVTOT": 0.0, "GRAPROES": 0.0, "_ent": "26", "_mun": "030", "_loc": "0669"}, "geometry": {"type": "Polygon", "coordinates": [[[-110.8926, 29.12438], [-110.8936, 29.12314], [-110.89518, 29.12367], [-110.89453, 29.12527], [-110.8926, 29.12438]]]}}, {"id": "2049753", "type": "Feature", "properties": {"id": "2049753", "CVEGEO": "2603006694083017", "POBTOT": 0.0, "score_nse": 0.0, "NSE": null, "VIVTOT": 0.0, "GRAPROES": 0.0, "_ent": "26", "_mun": "030", "_loc": "0669"}, "geometry": {"type": "Polygon", "coordinates": [[[-110.8946, 29.12542], [-110.89529, 29.12371], [-110.89811, 29.12462], [-110.89689, 29.12652], [-110.8946, 29.12542]]]}}, {"id": "2049754", "type": "Feature", "properties": {"id": "2049754", "CVEGEO": "2603006694083045", "POBTOT": 0.0, "score_nse": 0.0, "NSE": null, "VIVTOT": 0.0, "GRAPROES": 0.0, "_ent": "26", "_mun": "030", "_loc": "0669"}, "geometry": {"type": "Polygon", "coordinates": [[[-110.89737, 29.11389], [-110.89708, 29.11459], [-110.89662, 29.11443], [-110.89684, 29.1137], [-110.89737, 29.11389]]]}}, {"id": "2050115", "type": "Feature", "properties": {"id": "2050115", "CVEGEO": "2603006694083008", "POBTOT": 0.0, "score_nse": 0.0, "NSE": null, "VIVTOT": 0.0, "GRAPROES": 0.0, "_ent": "26", "_mun": "030", "_loc": "0669"}, "geometry": {"type": "Polygon", "coordinates": [[[-110.88995, 29.12459], [-110.88759, 29.12375], [-110.88725, 29.1244], [-110.8864, 29.12392], [-110.88669, 29.12187], [-110.88836, 29.12177], [-110.88889, 29.12194], [-110.89052, 29.12408], [-110.88995, 29.12459]]]}}, {"id": "2050116", "type": "Feature", "properties": {"id": "2050116", "CVEGEO": "2603006694083009", "POBTOT": 0.0, "score_nse": 0.0, "NSE": null, "VIVTOT": 0.0, "GRAPROES": 0.0, "_ent": "26", "_mun": "030", "_loc": "0669"}, "geometry": {"type": "Polygon", "coordinates": [[[-110.89055, 29.12396], [-110.88914, 29.12221], [-110.88903, 29.12197], [-110.89123, 29.12267], [-110.89055, 29.12396]]]}}, {"id": "2050117", "type": "Feature", "properties": {"id": "2050117", "CVEGEO": "2603006694083005", "POBTOT": 0.0, "score_nse": 0.0, "NSE": null, "VIVTOT": 0.0, "GRAPROES": 0.0, "_ent": "26", "_mun": "030", "_loc": "0669"}, "geometry": {"type": "Polygon", "coordinates": [[[-110.89278, 29.12617], [-110.8935, 29.12653], [-110.89257, 29.12873], [-110.89188, 29.12836], [-110.89278, 29.12617]]]}}, {"id": "2050118", "type": "Feature", "properties": {"id": "2050118", "CVEGEO": "2603006694083001", "POBTOT": 0.0, "score_nse": 0.0, "NSE": null, "VIVTOT": 0.0, "GRAPROES": 0.0, "_ent": "26", "_mun": "030", "_loc": "0669"}, "geometry": {"type": "Polygon", "coordinates": [[[-110.89253, 29.12445], [-110.89327, 29.12479], [-110.89274, 29.12604], [-110.89198, 29.12569], [-110.89253, 29.12445]]]}}, {"id": "2050119", "type": "Feature", "properties": {"id": "2050119", "CVEGEO": "2603006694083004", "POBTOT": 0.0, "score_nse": 0.0, "NSE": null, "VIVTOT": 0.0, "GRAPROES": 0.0, "_ent": "26", "_mun": "030", "_loc": "0669"}, "geometry": {"type": "Polygon", "coordinates": [[[-110.89282, 29.12609], [-110.89335, 29.12485], [-110.89408, 29.12519], [-110.89354, 29.12644], [-110.89282, 29.12609]]]}}, {"id": "2050120", "type": "Feature", "properties": {"id": "2050120", "CVEGEO": "2603006694083011", "POBTOT": 0.0, "score_nse": 0.0, "NSE": null, "VIVTOT": 0.0, "GRAPROES": 0.0, "_ent": "26", "_mun": "030", "_loc": "0669"}, "geometry": {"type": "Polygon", "coordinates": [[[-110.89418, 29.12522], [-110.89455, 29.1254], [-110.89401, 29.12665], [-110.89364, 29.1265], [-110.89418, 29.12522]]]}}, {"id": "2050121", "type": "Feature", "properties": {"id": "2050121", "CVEGEO": "2603006694083006", "POBTOT": 0.0, "score_nse": 0.0, "NSE": null, "VIVTOT": 0.0, "GRAPROES": 0.0, "_ent": "26", "_mun": "030", "_loc": "0669"}, "geometry": {"type": "Polygon", "coordinates": [[[-110.89141, 29.12817], [-110.8918, 29.12661], [-110.8919, 29.12577], [-110.89269, 29.12614], [-110.89178, 29.12832], [-110.89141, 29.12817]]]}}, {"id": "2050122", "type": "Feature", "properties": {"id": "2050122", "CVEGEO": "2603006694083023", "POBTOT": 0.0, "score_nse": 0.0, "NSE": null, "VIVTOT": 0.0, "GRAPROES": 0.0, "_ent": "26", "_mun": "030", "_loc": "0669"}, "geometry": {"type": "Polygon", "coordinates": [[[-110.89027, 29.11904], [-110.8901, 29.1192], [-110.88922, 29.11796], [-110.89018, 29.1173], [-110.89188, 29.11885], [-110.8929, 29.11923], [-110.89268, 29.11958], [-110.89175, 29.11915], [-110.89195, 29.11929], [-110.89161, 29.11975], [-110.89266, 29.12029], [-110.89193, 29.12105], [-110.89125, 29.12063], [-110.89052, 29.11972], [-110.89071, 29.11936], [-110.89061, 29.11932], [-110.89045, 29.11964], [-110.89015, 29.11924], [-110.89027, 29.11904]]]}}, {"id": "2050123", "type": "Feature", "properties": {"id": "2050123", "CVEGEO": "2603006694083024", "POBTOT": 0.0, "score_nse": 0.0, "NSE": null, "VIVTOT": 0.0, "GRAPROES": 0.0, "_ent": "26", "_mun": "030", "_loc": "0669"}, "geometry": {"type": "Polygon", "coordinates": [[[-110.89275, 29.12018], [-110.89243, 29.12004], [-110.89298, 29.11923], [-110.89331, 29.11932], [-110.89275, 29.12018]]]}}, {"id": "2050124", "type": "Feature", "properties": {"id": "2050124", "CVEGEO": "2603006694083025", "POBTOT": 0.0, "score_nse": 0.0, "NSE": null, "VIVTOT": 0.0, "GRAPROES": 0.0, "_ent": "26", "_mun": "030", "_loc": "0669"}, "geometry": {"type": "Polygon", "coordinates": [[[-110.89339, 29.11933], [-110.89422, 29.11954], [-110.8937, 29.12063], [-110.89281, 29.12022], [-110.89339, 29.11933]]]}}, {"id": "2050125", "type": "Feature", "properties": {"id": "2050125", "CVEGEO": "2603006694083016", "POBTOT": 0.0, "score_nse": 0.0, "NSE": null, "VIVTOT": 0.0, "GRAPROES": 0.0, "_ent": "26", "_mun": "030", "_loc": "0669"}, "geometry": {"type": "Polygon", "coordinates": [[[-110.89272, 29.12031], [-110.89491, 29.12104], [-110.89285, 29.12319], [-110.89184, 29.12275], [-110.89311, 29.12162], [-110.89199, 29.12104], [-110.89272, 29.12031]]]}}, {"id": "2050126", "type": "Feature", "properties": {"id": "2050126", "CVEGEO": "2603006694083012", "POBTOT": 0.0, "score_nse": 0.0, "NSE": null, "VIVTOT": 0.0, "GRAPROES": 0.0, "_ent": "26", "_mun": "030", "_loc": "0669"}, "geometry": {"type": "Polygon", "coordinates": [[[-110.89374, 29.13101], [-110.89161, 29.13062], [-110.8912, 29.12959], [-110.89142, 29.12823], [-110.89254, 29.12877], [-110.89257, 29.12896], [-110.89359, 29.12653], [-110.89433, 29.1269], [-110.89369, 29.12855], [-110.8949, 29.1293], [-110.89374, 29.13101]]]}}, {"id": "2050130", "type": "Feature", "properties": {"id": "2050130", "CVEGEO": "2603006694083031", "POBTOT": 0.0, "score_nse": 0.0, "NSE": null, "VIVTOT": 0.0, "GRAPROES": 0.0, "_ent": "26", "_mun": "030", "_loc": "0669"}, "geometry": {"type": "Polygon", "coordinates": [[[-110.89628, 29.1132], [-110.89671, 29.11257], [-110.89714, 29.11285], [-110.89657, 29.11379], [-110.89628, 29.1132]]]}}, {"id": "2050131", "type": "Feature", "properties": {"id": "2050131", "CVEGEO": "2603006694083041", "POBTOT": 0.0, "score_nse": 0.0, "NSE": null, "VIVTOT": 0.0, "GRAPROES": 0.0, "_ent": "26", "_mun": "030", "_loc": "0669"}, "geometry": {"type": "Polygon", "coordinates": [[[-110.89136, 29.11716], [-110.89162, 29.11654], [-110.89298, 29.11788], [-110.89278, 29.11853], [-110.89136, 29.11716]]]}}, {"id": "2050132", "type": "Feature", "properties": {"id": "2050132", "CVEGEO": "2603006694083043", "POBTOT": 0.0, "score_nse": 0.0, "NSE": null, "VIVTOT": 0.0, "GRAPROES": 0.0, "_ent": "26", "_mun": "030", "_loc": "0669"}, "geometry": {"type": "Polygon", "coordinates": [[[-110.89163, 29.11642], [-110.89173, 29.11605], [-110.89317, 29.11744], [-110.895, 29.11783], [-110.89489, 29.11812], [-110.89296, 29.11772], [-110.89163, 29.11642]]]}}, {"id": "2050133", "type": "Feature", "properties": {"id": "2050133", "CVEGEO": "2603006694083040", "POBTOT": 0.0, "score_nse": 0.0, "NSE": null, "VIVTOT": 0.0, "GRAPROES": 0.0, "_ent": "26", "_mun": "030", "_loc": "0669"}, "geometry": {"type": "Polygon", "coordinates": [[[-110.89216, 29.11893], [-110.89089, 29.11776], [-110.8913, 29.11725], [-110.89276, 29.11863], [-110.89263, 29.11908], [-110.89216, 29.11893]]]}}, {"id": "2050134", "type": "Feature", "properties": {"id": "2050134", "CVEGEO": "2603006694083042", "POBTOT": 0.0, "score_nse": 0.0, "NSE": null, "VIVTOT": 0.0, "GRAPROES": 0.0, "_ent": "26", "_mun": "030", "_loc": "0669"}, "geometry": {"type": "Polygon", "coordinates": [[[-110.89294, 29.11841], [-110.89312, 29.11786], [-110.89485, 29.11824], [-110.89467, 29.1188], [-110.89294, 29.11841]]]}}, {"id": "2050135", "type": "Feature", "properties": {"id": "2050135", "CVEGEO": "2603006694083027", "POBTOT": 0.0, "score_nse": 0.0, "NSE": null, "VIVTOT": 0.0, "GRAPROES": 0.0, "_ent": "26", "_mun": "030", "_loc": "0669"}, "geometry": {"type": "Polygon", "coordinates": [[[-110.89201, 29.11931], [-110.89264, 29.11964], [-110.89238, 29.12002], [-110.89173, 29.11972], [-110.89201, 29.11931]]]}}, {"id": "2050136", "type": "Feature", "properties": {"id": "2050136", "CVEGEO": "2603006694083039", "POBTOT": 0.0, "score_nse": 0.0, "NSE": null, "VIVTOT": 0.0, "GRAPROES": 0.0, "_ent": "26", "_mun": "030", "_loc": "0669"}, "geometry": {"type": "Polygon", "coordinates": [[[-110.8892, 29.12032], [-110.8889, 29.12051], [-110.88853, 29.12004], [-110.88917, 29.11956], [-110.88983, 29.12043], [-110.88952, 29.12123], [-110.88998, 29.12222], [-110.88861, 29.12174], [-110.88885, 29.12131], [-110.88916, 29.12116], [-110.88893, 29.12056], [-110.8892, 29.12032]]]}}, {"id": "2050137", "type": "Feature", "properties": {"id": "2050137", "CVEGEO": "2603006694083028", "POBTOT": 0.0, "score_nse": 0.0, "NSE": null, "VIVTOT": 0.0, "GRAPROES": 0.0, "_ent": "26", "_mun": "030", "_loc": "0669"}, "geometry": {"type": "Polygon", "coordinates": [[[-110.89548, 29.11708], [-110.89562, 29.11669], [-110.89724, 29.11727], [-110.89706, 29.11782], [-110.89548, 29.11708]]]}}, {"id": "2050138", "type": "Feature", "properties": {"id": "2050138", "CVEGEO": "2603006694083029", "POBTOT": 0.0, "score_nse": 0.0, "NSE": null, "VIVTOT": 0.0, "GRAPROES": 0.0, "_ent": "26", "_mun": "030", "_loc": "0669"}, "geometry": {"type": "Polygon", "coordinates": [[[-110.89564, 29.11659], [-110.89577, 29.11622], [-110.89745, 29.11679], [-110.89728, 29.11719], [-110.89564, 29.11659]]]}}, {"id": "2050139", "type": "Feature", "properties": {"id": "2050139", "CVEGEO": "2603006694083038", "POBTOT": 0.0, "score_nse": 0.0, "NSE": null, "VIVTOT": 0.0, "GRAPROES": 0.0, "_ent": "26", "_mun": "030", "_loc": "0669"}, "geometry": {"type": "Polygon", "coordinates": [[[-110.89529, 29.1176], [-110.89546, 29.11719], [-110.89698, 29.11792], [-110.89679, 29.11838], [-110.89529, 29.1176]]]}}, {"id": "2050140", "type": "Feature", "properties": {"id": "2050140", "CVEGEO": "2603006694083026", "POBTOT": 0.0, "score_nse": 0.0, "NSE": null, "VIVTOT": 0.0, "GRAPROES": 0.0, "_ent": "26", "_mun": "030", "_loc": "0669"}, "geometry": {"type": "Polygon", "coordinates": [[[-110.89377, 29.12065], [-110.89436, 29.11949], [-110.89273, 29.11908], [-110.8929, 29.11852], [-110.89472, 29.11891], [-110.89518, 29.11766], [-110.89673, 29.11847], [-110.89596, 29.12005], [-110.89505, 29.12101], [-110.89377, 29.12065]]]}}, {"id": "2050141", "type": "Feature", "properties": {"id": "2050141", "CVEGEO": "2603006694083030", "POBTOT": 0.0, "score_nse": 0.0, "NSE": null, "VIVTOT": 0.0, "GRAPROES": 0.0, "_ent": "26", "_mun": "030", "_loc": "0669"}, "geometry": {"type": "Polygon", "coordinates": [[[-110.89581, 29.11617], [-110.89601, 29.11564], [-110.89769, 29.11628], [-110.89749, 29.1167], [-110.89581, 29.11617]]]}}, {"id": "2050142", "type": "Feature", "properties": {"id": "2050142", "CVEGEO": "2603006694083032", "POBTOT": 0.0, "score_nse": 0.0, "NSE": null, "VIVTOT": 0.0, "GRAPROES": 0.0, "_ent": "26", "_mun": "030", "_loc": "0669"}, "geometry": {"type": "Polygon", "coordinates": [[[-110.89608, 29.11556], [-110.89633, 29.11494], [-110.89749, 29.11539], [-110.89725, 29.11598], [-110.89608, 29.11556]]]}}, {"id": "2050143", "type": "Feature", "properties": {"id": "2050143", "CVEGEO": "2603006694083037", "POBTOT": 0.0, "score_nse": 0.0, "NSE": null, "VIVTOT": 0.0, "GRAPROES": 0.0, "_ent": "26", "_mun": "030", "_loc": "0669"}, "geometry": {"type": "Polygon", "coordinates": [[[-110.89715, 29.11467], [-110.89744, 29.11389], [-110.89797, 29.1141], [-110.89773, 29.11486], [-110.89715, 29.11467]]]}}, {"id": "2050144", "type": "Feature", "properties": {"id": "2050144", "CVEGEO": "2603006694083044", "POBTOT": 0.0, "score_nse": 0.0, "NSE": null, "VIVTOT": 0.0, "GRAPROES": 0.0, "_ent": "26", "_mun": "030", "_loc": "0669"}, "geometry": {"type": "Polygon", "coordinates": [[[-110.8975, 29.11533], [-110.89638, 29.11487], [-110.89651, 29.11461], [-110.89767, 29.1149], [-110.8975, 29.11533]]]}}, {"id": "2050145", "type": "Feature", "properties": {"id": "2050145", "CVEGEO": "2603006694083033", "POBTOT": 0.0, "score_nse": 0.0, "NSE": null, "VIVTOT": 0.0, "GRAPROES": 0.0, "_ent": "26", "_mun": "030", "_loc": "0669"}, "geometry": {"type": "Polygon", "coordinates": [[[-110.89912, 29.11199], [-110.90104, 29.11318], [-110.89927, 29.11417], [-110.89867, 29.11473], [-110.89776, 29.11618], [-110.89734, 29.11603], [-110.89807, 29.11415], [-110.8969, 29.11361], [-110.89721, 29.113], [-110.89912, 29.11199]]]}}, {"id": "2050475", "type": "Feature", "properties": {"id": "2050475", "CVEGEO": "2603006694083003", "POBTOT": 0.0, "score_nse": 0.0, "NSE": null, "VIVTOT": 0.0, "GRAPROES": 0.0, "_ent": "26", "_mun": "030", "_loc": "0669"}, "geometry": {"type": "Polygon", "coordinates": [[[-110.89154, 29.1237], [-110.89167, 29.12373], [-110.89218, 29.12301], [-110.89273, 29.12327], [-110.89179, 29.12441], [-110.89079, 29.12373], [-110.89139, 29.12272], [-110.89213, 29.12299], [-110.89154, 29.1237]]]}}, {"id": "2050519", "type": "Feature", "properties": {"id": "2050519", "CVEGEO": "2603006694083014", "POBTOT": 0.0, "score_nse": 0.0, "NSE": null, "VIVTOT": 0.0, "GRAPROES": 0.0, "_ent": "26", "_mun": "030", "_loc": "0669"}, "geometry": {"type": "Polygon", "coordinates": [[[-110.89003, 29.12222], [-110.88955, 29.12115], [-110.88991, 29.12048], [-110.88926, 29.11951], [-110.88991, 29.11909], [-110.89061, 29.1199], [-110.89039, 29.12007], [-110.89046, 29.12017], [-110.89069, 29.12002], [-110.89103, 29.12048], [-110.89012, 29.12122], [-110.89106, 29.12052], [-110.89189, 29.12109], [-110.89068, 29.1224], [-110.89003, 29.12222]]]}}, {"id": "2050520", "type": "Feature", "properties": {"id": "2050520", "CVEGEO": "2603006694083021", "POBTOT": 0.0, "score_nse": 0.0, "NSE": null, "VIVTOT": 0.0, "GRAPROES": 0.0, "_ent": "26", "_mun": "030", "_loc": "0669"}, "geometry": {"type": "Polygon", "coordinates": [[[-110.89147, 29.12233], [-110.89131, 29.12258], [-110.89084, 29.12235], [-110.89199, 29.12112], [-110.89294, 29.12162], [-110.89191, 29.12251], [-110.89147, 29.12233]]]}}, {"id": "2050627", "type": "Feature", "properties": {"id": "2050627", "CVEGEO": "2603006694083022", "POBTOT": 0.0, "score_nse": 0.0, "NSE": null, "VIVTOT": 0.0, "GRAPROES": 0.0, "_ent": "26", "_mun": "030", "_loc": "0669"}, "geometry": {"type": "Polygon", "coordinates": [[[-110.8996, 29.13197], [-110.89878, 29.13311], [-110.89385, 29.13119], [-110.89827, 29.12468], [-110.90405, 29.12651], [-110.89953, 29.13339], [-110.89887, 29.13316], [-110.8996, 29.13197]]]}}, {"id": "2051185", "type": "Feature", "properties": {"id": "2051185", "CVEGEO": "2603006694083007", "POBTOT": 0.0, "score_nse": 0.0, "NSE": null, "VIVTOT": 0.0, "GRAPROES": 0.0, "_ent": "26", "_mun": "030", "_loc": "0669"}, "geometry": {"type": "Polygon", "coordinates": [[[-110.88921, 29.12588], [-110.88744, 29.12531], [-110.88717, 29.12559], [-110.88699, 29.12549], [-110.88696, 29.12517], [-110.88585, 29.12476], [-110.88637, 29.12395], [-110.88733, 29.12453], [-110.88763, 29.12384], [-110.88817, 29.12405], [-110.88807, 29.1247], [-110.88763, 29.12466], [-110.88815, 29.12473], [-110.88825, 29.12407], [-110.8894, 29.12448], [-110.88872, 29.12486], [-110.88878, 29.1253], [-110.88893, 29.12479], [-110.88958, 29.12455], [-110.88921, 29.12588]]]}}, {"id": "2053016", "type": "Feature", "properties": {"id": "2053016", "CVEGEO": "2603006694083018", "POBTOT": 0.0, "score_nse": 0.0, "NSE": null, "VIVTOT": 0.0, "GRAPROES": 0.0, "_ent": "26", "_mun": "030", "_loc": "0669"}, "geometry": {"type": "Polygon", "coordinates": [[[-110.8968, 29.12654], [-110.89495, 29.12924], [-110.89374, 29.12854], [-110.89442, 29.12693], [-110.89518, 29.1273], [-110.89407, 29.12667], [-110.89458, 29.12545], [-110.8968, 29.12654]]]}}, {"id": "2053091", "type": "Feature", "properties": {"id": "2053091", "CVEGEO": "2603006694083046", "POBTOT": 0.0, "score_nse": 0.0, "NSE": null, "VIVTOT": 0.0, "GRAPROES": 0.0, "_ent": "26", "_mun": "030", "_loc": "0669"}, "geometry": {"type": "Polygon", "coordinates": [[[-110.88962, 29.12454], [-110.89143, 29.1252], [-110.89096, 29.12752], [-110.88908, 29.12725], [-110.88962, 29.12454]]]}}]}