{"type": "FeatureCollection", "features": [{"id": "2199524", "type": "Feature", "properties": {"id": "2199524", "CVEGEO": "2803900820174057", "POBTOT": 0.0, "score_nse": 0.0, "NSE": null, "VIVTOT": 0.0, "GRAPROES": 0.0, "_ent": "28", "_mun": "039", "_loc": "0082"}, "geometry": {"type": "Polygon", "coordinates": [[[-99.82105, 22.92809], [-99.8207, 22.92835], [-99.8201, 22.92783], [-99.82075, 22.92778], [-99.82105, 22.92809]]]}}, {"id": "2199525", "type": "Feature", "properties": {"id": "2199525", "CVEGEO": "2803900820174056", "POBTOT": 0.0, "score_nse": 0.0, "NSE": null, "VIVTOT": 0.0, "GRAPROES": 0.0, "_ent": "28", "_mun": "039", "_loc": "0082"}, "geometry": {"type": "Polygon", "coordinates": [[[-99.81745, 22.92985], [-99.8169, 22.92919], [-99.81708, 22.92884], [-99.81779, 22.92966], [-99.81745, 22.92985]]]}}, {"id": "2199526", "type": "Feature", "properties": {"id": "2199526", "CVEGEO": "2803900820174046", "POBTOT": 0.0, "score_nse": 0.0, "NSE": null, "VIVTOT": 0.0, "GRAPROES": 0.0, "_ent": "28", "_mun": "039", "_loc": "0082"}, "geometry": {"type": "Polygon", "coordinates": [[[-99.82206, 22.92906], [-99.82197, 22.92953], [-99.8215, 22.9295], [-99.82156, 22.92902], [-99.82206, 22.92906]]]}}, {"id": "2199527", "type": "Feature", "properties": {"id": "2199527", "CVEGEO": "2803900820174045", "POBTOT": 0.0, "score_nse": 0.0, "NSE": null, "VIVTOT": 0.0, "GRAPROES": 0.0, "_ent": "28", "_mun": "039", "_loc": "0082"}, "geometry": {"type": "Polygon", "coordinates": [[[-99.82211, 22.92907], [-99.82297, 22.92917], [-99.82315, 22.92964], [-99.82205, 22.92956], [-99.82211, 22.92907]]]}}, {"id": "2199528", "type": "Feature", "properties": {"id": "2199528", "CVEGEO": "2803900820174025", "POBTOT": 0.0, "score_nse": 0.0, "NSE": null, "VIVTOT": 0.0, "GRAPROES": 0.0, "_ent": "28", "_mun": "039", "_loc": "0082"}, "geometry": {"type": "Polygon", "coordinates": [[[-99.82243, 22.93022], [-99.82239, 22.93057], [-99.82196, 22.93054], [-99.822, 22.93018], [-99.82243, 22.93022]]]}}, {"id": "2199529", "type": "Feature", "properties": {"id": "2199529", "CVEGEO": "2803900820174024", "POBTOT": 0.0, "score_nse": 0.0, "NSE": null, "VIVTOT": 0.0, "GRAPROES": 0.0, "_ent": "28", "_mun": "039", "_loc": "0082"}, "geometry": {"type": "Polygon", "coordinates": [[[-99.82323, 22.93026], [-99.82305, 22.93063], [-99.82247, 22.93057], [-99.82252, 22.93022], [-99.82323, 22.93026]]]}}, {"id": "2199530", "type": "Feature", "properties": {"id": "2199530", "CVEGEO": "2803900820174005", "POBTOT": 0.0, "score_nse": 0.0, "NSE": null, "VIVTOT": 0.0, "GRAPROES": 0.0, "_ent": "28", "_mun": "039", "_loc": "0082"}, "geometry": {"type": "Polygon", "coordinates": [[[-99.82235, 22.93168], [-99.8224, 22.93123], [-99.8228, 22.93126], [-99.82287, 22.93176], [-99.82235, 22.93168]]]}}, {"id": "2199551", "type": "Feature", "properties": {"id": "2199551", "CVEGEO": "2803900820174062", "POBTOT": 0.0, "score_nse": 0.0, "NSE": null, "VIVTOT": 0.0, "GRAPROES": 0.0, "_ent": "28", "_mun": "039", "_loc": "0082"}, "geometry": {"type": "Polygon", "coordinates": [[[-99.81883, 22.92844], [-99.81836, 22.92779], [-99.81882, 22.92744], [-99.81916, 22.928], [-99.81883, 22.92844]]]}}, {"id": "2199552", "type": "Feature", "properties": {"id": "2199552", "CVEGEO": "2803900820174060", "POBTOT": 0.0, "score_nse": 0.0, "NSE": null, "VIVTOT": 0.0, "GRAPROES": 0.0, "_ent": "28", "_mun": "039", "_loc": "0082"}, "geometry": {"type": "Polygon", "coordinates": [[[-99.81765, 22.9317], [-99.81803, 22.93175], [-99.81799, 22.93211], [-99.81761, 22.93208], [-99.81765, 22.9317]]]}}, {"id": "2199553", "type": "Feature", "properties": {"id": "2199553", "CVEGEO": "2803900820174021", "POBTOT": 0.0, "score_nse": 0.0, "NSE": null, "VIVTOT": 0.0, "GRAPROES": 0.0, "_ent": "28", "_mun": "039", "_loc": "0082"}, "geometry": {"type": "Polygon", "coordinates": [[[-99.81825, 22.93027], [-99.81822, 22.93069], [-99.81729, 22.93061], [-99.81778, 22.93024], [-99.81825, 22.93027]]]}}, {"id": "2199554", "type": "Feature", "properties": {"id": "2199554", "CVEGEO": "2803900820174020", "POBTOT": 0.0, "score_nse": 0.0, "NSE": null, "VIVTOT": 0.0, "GRAPROES": 0.0, "_ent": "28", "_mun": "039", "_loc": "0082"}, "geometry": {"type": "Polygon", "coordinates": [[[-99.81831, 22.93024], [-99.81868, 22.93061], [-99.81829, 22.93068], [-99.81831, 22.93024]]]}}, {"id": "2199555", "type": "Feature", "properties": {"id": "2199555", "CVEGEO": "2803900820174019", "POBTOT": 0.0, "score_nse": 0.0, "NSE": null, "VIVTOT": 0.0, "GRAPROES": 0.0, "_ent": "28", "_mun": "039", "_loc": "0082"}, "geometry": {"type": "Polygon", "coordinates": [[[-99.81928, 22.93046], [-99.81964, 22.93049], [-99.81965, 22.93086], [-99.81885, 22.93076], [-99.81928, 22.93046]]]}}, {"id": "2199556", "type": "Feature", "properties": {"id": "2199556", "CVEGEO": "2803900820174018", "POBTOT": 0.0, "score_nse": 0.0, "NSE": null, "VIVTOT": 0.0, "GRAPROES": 0.0, "_ent": "28", "_mun": "039", "_loc": "0082"}, "geometry": {"type": "Polygon", "coordinates": [[[-99.82018, 22.93053], [-99.82016, 22.93094], [-99.81974, 22.93088], [-99.81972, 22.9305], [-99.82018, 22.93053]]]}}, {"id": "2199557", "type": "Feature", "properties": {"id": "2199557", "CVEGEO": "2803900820174017", "POBTOT": 0.0, "score_nse": 0.0, "NSE": null, "VIVTOT": 0.0, "GRAPROES": 0.0, "_ent": "28", "_mun": "039", "_loc": "0082"}, "geometry": {"type": "Polygon", "coordinates": [[[-99.82027, 22.93054], [-99.82128, 22.9306], [-99.82123, 22.93102], [-99.82025, 22.93093], [-99.82027, 22.93054]]]}}, {"id": "2199558", "type": "Feature", "properties": {"id": "2199558", "CVEGEO": "2803900820174016", "POBTOT": 0.0, "score_nse": 0.0, "NSE": null, "VIVTOT": 0.0, "GRAPROES": 0.0, "_ent": "28", "_mun": "039", "_loc": "0082"}, "geometry": {"type": "Polygon", "coordinates": [[[-99.82185, 22.93062], [-99.82179, 22.93107], [-99.82132, 22.93103], [-99.82137, 22.93059], [-99.82185, 22.93062]]]}}, {"id": "2199559", "type": "Feature", "properties": {"id": "2199559", "CVEGEO": "2803900820174006", "POBTOT": 0.0, "score_nse": 0.0, "NSE": null, "VIVTOT": 0.0, "GRAPROES": 0.0, "_ent": "28", "_mun": "039", "_loc": "0082"}, "geometry": {"type": "Polygon", "coordinates": [[[-99.82182, 22.93156], [-99.82187, 22.93117], [-99.82232, 22.93121], [-99.82227, 22.93168], [-99.82182, 22.93156]]]}}, {"id": "2200085", "type": "Feature", "properties": {"id": "2200085", "CVEGEO": "2803900820174044", "POBTOT": 0.0, "score_nse": 0.0, "NSE": null, "VIVTOT": 0.0, "GRAPROES": 0.0, "_ent": "28", "_mun": "039", "_loc": "0082"}, "geometry": {"type": "Polygon", "coordinates": [[[-99.81994, 22.92969], [-99.81889, 22.9285], [-99.81914, 22.92816], [-99.82003, 22.92853], [-99.82068, 22.92918], [-99.81994, 22.92969]]]}}, {"id": "2200086", "type": "Feature", "properties": {"id": "2200086", "CVEGEO": "2803900820174043", "POBTOT": 0.0, "score_nse": 0.0, "NSE": null, "VIVTOT": 0.0, "GRAPROES": 0.0, "_ent": "28", "_mun": "039", "_loc": "0082"}, "geometry": {"type": "Polygon", "coordinates": [[[-99.81911, 22.92893], [-99.81878, 22.92912], [-99.81819, 22.92848], [-99.81849, 22.92822], [-99.81911, 22.92893]]]}}, {"id": "2200087", "type": "Feature", "properties": {"id": "2200087", "CVEGEO": "2803900820174042", "POBTOT": 0.0, "score_nse": 0.0, "NSE": null, "VIVTOT": 0.0, "GRAPROES": 0.0, "_ent": "28", "_mun": "039", "_loc": "0082"}, "geometry": {"type": "Polygon", "coordinates": [[[-99.81935, 22.92919], [-99.81906, 22.92941], [-99.81881, 22.92916], [-99.81915, 22.92897], [-99.81935, 22.92919]]]}}, {"id": "2200088", "type": "Feature", "properties": {"id": "2200088", "CVEGEO": "2803900820174041", "POBTOT": 0.0, "score_nse": 0.0, "NSE": null, "VIVTOT": 0.0, "GRAPROES": 0.0, "_ent": "28", "_mun": "039", "_loc": "0082"}, "geometry": {"type": "Polygon", "coordinates": [[[-99.81985, 22.92975], [-99.81953, 22.92997], [-99.8191, 22.92946], [-99.81938, 22.92923], [-99.81985, 22.92975]]]}}, {"id": "2200089", "type": "Feature", "properties": {"id": "2200089", "CVEGEO": "2803900820174040", "POBTOT": 0.0, "score_nse": 0.0, "NSE": null, "VIVTOT": 0.0, "GRAPROES": 0.0, "_ent": "28", "_mun": "039", "_loc": "0082"}, "geometry": {"type": "Polygon", "coordinates": [[[-99.81871, 22.92916], [-99.81834, 22.92937], [-99.81783, 22.9288], [-99.81816, 22.92853], [-99.81871, 22.92916]]]}}, {"id": "2200090", "type": "Feature", "properties": {"id": "2200090", "CVEGEO": "2803900820174039", "POBTOT": 0.0, "score_nse": 0.0, "NSE": null, "VIVTOT": 0.0, "GRAPROES": 0.0, "_ent": "28", "_mun": "039", "_loc": "0082"}, "geometry": {"type": "Polygon", "coordinates": [[[-99.8191, 22.92957], [-99.81876, 22.92981], [-99.81838, 22.92941], [-99.81876, 22.9292], [-99.8191, 22.92957]]]}}, {"id": "2200091", "type": "Feature", "properties": {"id": "2200091", "CVEGEO": "2803900820174038", "POBTOT": 0.0, "score_nse": 0.0, "NSE": null, "VIVTOT": 0.0, "GRAPROES": 0.0, "_ent": "28", "_mun": "039", "_loc": "0082"}, "geometry": {"type": "Polygon", "coordinates": [[[-99.81947, 22.93001], [-99.81915, 22.93024], [-99.81883, 22.92986], [-99.81915, 22.92963], [-99.81947, 22.93001]]]}}, {"id": "2200092", "type": "Feature", "properties": {"id": "2200092", "CVEGEO": "2803900820174036", "POBTOT": 0.0, "score_nse": 0.0, "NSE": null, "VIVTOT": 0.0, "GRAPROES": 0.0, "_ent": "28", "_mun": "039", "_loc": "0082"}, "geometry": {"type": "Polygon", "coordinates": [[[-99.82067, 22.92936], [-99.82089, 22.92999], [-99.81995, 22.92988], [-99.82067, 22.92936]]]}}, {"id": "2200093", "type": "Feature", "properties": {"id": "2200093", "CVEGEO": "2803900820174004", "POBTOT": 0.0, "score_nse": 0.0, "NSE": null, "VIVTOT": 0.0, "GRAPROES": 0.0, "_ent": "28", "_mun": "039", "_loc": "0082"}, "geometry": {"type": "Polygon", "coordinates": [[[-99.82174, 22.93208], [-99.82181, 22.93161], [-99.82226, 22.93173], [-99.82219, 22.93214], [-99.82174, 22.93208]]]}}, {"id": "2200094", "type": "Feature", "properties": {"id": "2200094", "CVEGEO": "2803900820174003", "POBTOT": 0.0, "score_nse": 0.0, "NSE": null, "VIVTOT": 0.0, "GRAPROES": 0.0, "_ent": "28", "_mun": "039", "_loc": "0082"}, "geometry": {"type": "Polygon", "coordinates": [[[-99.8216, 22.93259], [-99.82115, 22.93257], [-99.82124, 22.93178], [-99.82169, 22.93181], [-99.8216, 22.93259]]]}}, {"id": "2200095", "type": "Feature", "properties": {"id": "2200095", "CVEGEO": "2803900820174002", "POBTOT": 0.0, "score_nse": 0.0, "NSE": null, "VIVTOT": 0.0, "GRAPROES": 0.0, "_ent": "28", "_mun": "039", "_loc": "0082"}, "geometry": {"type": "Polygon", "coordinates": [[[-99.82167, 22.9326], [-99.82172, 22.93213], [-99.82217, 22.93218], [-99.82212, 22.93262], [-99.82167, 22.9326]]]}}, {"id": "2200096", "type": "Feature", "properties": {"id": "2200096", "CVEGEO": "2803900820174001", "POBTOT": 0.0, "score_nse": 0.0, "NSE": null, "VIVTOT": 0.0, "GRAPROES": 0.0, "_ent": "28", "_mun": "039", "_loc": "0082"}, "geometry": {"type": "Polygon", "coordinates": [[[-99.82277, 22.93266], [-99.82222, 22.93263], [-99.82233, 22.93174], [-99.82285, 22.93182], [-99.82277, 22.93266]]]}}, {"id": "2200311", "type": "Feature", "properties": {"id": "2200311", "CVEGEO": "2803900820174059", "POBTOT": 0.0, "score_nse": 0.0, "NSE": null, "VIVTOT": 0.0, "GRAPROES": 0.0, "_ent": "28", "_mun": "039", "_loc": "0082"}, "geometry": {"type": "Polygon", "coordinates": [[[-99.82062, 22.93214], [-99.82108, 22.93217], [-99.82105, 22.93262], [-99.8206, 22.93257], [-99.82062, 22.93214]]]}}, {"id": "2200312", "type": "Feature", "properties": {"id": "2200312", "CVEGEO": "2803900820174058", "POBTOT": 0.0, "score_nse": 0.0, "NSE": null, "VIVTOT": 0.0, "GRAPROES": 0.0, "_ent": "28", "_mun": "039", "_loc": "0082"}, "geometry": {"type": "Polygon", "coordinates": [[[-99.82115, 22.93265], [-99.8216, 22.93267], [-99.82157, 22.93304], [-99.82112, 22.93302], [-99.82115, 22.93265]]]}}, {"id": "2200476", "type": "Feature", "properties": {"id": "2200476", "CVEGEO": "2803900820174055", "POBTOT": 0.0, "score_nse": 0.0, "NSE": null, "VIVTOT": 0.0, "GRAPROES": 0.0, "_ent": "28", "_mun": "039", "_loc": "0082"}, "geometry": {"type": "Polygon", "coordinates": [[[-99.81651, 22.93037], [-99.81626, 22.93008], [-99.81691, 22.9293], [-99.81738, 22.92988], [-99.81651, 22.93037]]]}}, {"id": "2200477", "type": "Feature", "properties": {"id": "2200477", "CVEGEO": "2803900820174054", "POBTOT": 0.0, "score_nse": 0.0, "NSE": null, "VIVTOT": 0.0, "GRAPROES": 0.0, "_ent": "28", "_mun": "039", "_loc": "0082"}, "geometry": {"type": "Polygon", "coordinates": [[[-99.82193, 22.92716], [-99.82218, 22.92737], [-99.82153, 22.92781], [-99.82122, 22.9274], [-99.82159, 22.92717], [-99.82193, 22.92716]]]}}, {"id": "2200478", "type": "Feature", "properties": {"id": "2200478", "CVEGEO": "2803900820174053", "POBTOT": 0.0, "score_nse": 0.0, "NSE": null, "VIVTOT": 0.0, "GRAPROES": 0.0, "_ent": "28", "_mun": "039", "_loc": "0082"}, "geometry": {"type": "Polygon", "coordinates": [[[-99.82244, 22.92786], [-99.82192, 22.92828], [-99.82159, 22.92788], [-99.82222, 22.92743], [-99.82244, 22.92786]]]}}, {"id": "2200479", "type": "Feature", "properties": {"id": "2200479", "CVEGEO": "2803900820174052", "POBTOT": 0.0, "score_nse": 0.0, "NSE": null, "VIVTOT": 0.0, "GRAPROES": 0.0, "_ent": "28", "_mun": "039", "_loc": "0082"}, "geometry": {"type": "Polygon", "coordinates": [[[-99.82121, 22.92748], [-99.82187, 22.92832], [-99.82153, 22.92857], [-99.82082, 22.92777], [-99.82121, 22.92748]]]}}, {"id": "2200480", "type": "Feature", "properties": {"id": "2200480", "CVEGEO": "2803900820174051", "POBTOT": 0.0, "score_nse": 0.0, "NSE": null, "VIVTOT": 0.0, "GRAPROES": 0.0, "_ent": "28", "_mun": "039", "_loc": "0082"}, "geometry": {"type": "Polygon", "coordinates": [[[-99.82146, 22.92862], [-99.82115, 22.92884], [-99.82074, 22.92839], [-99.82107, 22.92814], [-99.82146, 22.92862]]]}}, {"id": "2200481", "type": "Feature", "properties": {"id": "2200481", "CVEGEO": "2803900820174050", "POBTOT": 0.0, "score_nse": 0.0, "NSE": null, "VIVTOT": 0.0, "GRAPROES": 0.0, "_ent": "28", "_mun": "039", "_loc": "0082"}, "geometry": {"type": "Polygon", "coordinates": [[[-99.82215, 22.9282], [-99.82207, 22.92901], [-99.82155, 22.92895], [-99.8216, 22.92867], [-99.82215, 22.9282]]]}}, {"id": "2200482", "type": "Feature", "properties": {"id": "2200482", "CVEGEO": "2803900820174049", "POBTOT": 0.0, "score_nse": 0.0, "NSE": null, "VIVTOT": 0.0, "GRAPROES": 0.0, "_ent": "28", "_mun": "039", "_loc": "0082"}, "geometry": {"type": "Polygon", "coordinates": [[[-99.82243, 22.92797], [-99.82291, 22.92907], [-99.82212, 22.92901], [-99.8222, 22.92816], [-99.82243, 22.92797]]]}}, {"id": "2200483", "type": "Feature", "properties": {"id": "2200483", "CVEGEO": "2803900820174048", "POBTOT": 0.0, "score_nse": 0.0, "NSE": null, "VIVTOT": 0.0, "GRAPROES": 0.0, "_ent": "28", "_mun": "039", "_loc": "0082"}, "geometry": {"type": "Polygon", "coordinates": [[[-99.81917, 22.92809], [-99.81963, 22.92734], [-99.81975, 22.92761], [-99.82111, 22.92887], [-99.82072, 22.92916], [-99.82001, 22.9284], [-99.81917, 22.92809]]]}}, {"id": "2200484", "type": "Feature", "properties": {"id": "2200484", "CVEGEO": "2803900820174047", "POBTOT": 0.0, "score_nse": 0.0, "NSE": null, "VIVTOT": 0.0, "GRAPROES": 0.0, "_ent": "28", "_mun": "039", "_loc": "0082"}, "geometry": {"type": "Polygon", "coordinates": [[[-99.82128, 22.9289], [-99.8215, 22.929], [-99.82142, 22.92949], [-99.82081, 22.92945], [-99.82079, 22.92929], [-99.82128, 22.9289]]]}}, {"id": "2200485", "type": "Feature", "properties": {"id": "2200485", "CVEGEO": "2803900820174035", "POBTOT": 0.0, "score_nse": 0.0, "NSE": null, "VIVTOT": 0.0, "GRAPROES": 0.0, "_ent": "28", "_mun": "039", "_loc": "0082"}, "geometry": {"type": "Polygon", "coordinates": [[[-99.82141, 22.92957], [-99.82137, 22.93004], [-99.82094, 22.92999], [-99.82087, 22.92952], [-99.82141, 22.92957]]]}}, {"id": "2200486", "type": "Feature", "properties": {"id": "2200486", "CVEGEO": "2803900820174034", "POBTOT": 0.0, "score_nse": 0.0, "NSE": null, "VIVTOT": 0.0, "GRAPROES": 0.0, "_ent": "28", "_mun": "039", "_loc": "0082"}, "geometry": {"type": "Polygon", "coordinates": [[[-99.82148, 22.92958], [-99.82195, 22.92962], [-99.8219, 22.93009], [-99.82146, 22.93005], [-99.82148, 22.92958]]]}}, {"id": "2200487", "type": "Feature", "properties": {"id": "2200487", "CVEGEO": "2803900820174033", "POBTOT": 0.0, "score_nse": 0.0, "NSE": null, "VIVTOT": 0.0, "GRAPROES": 0.0, "_ent": "28", "_mun": "039", "_loc": "0082"}, "geometry": {"type": "Polygon", "coordinates": [[[-99.82249, 22.92966], [-99.82244, 22.93014], [-99.82201, 22.93011], [-99.82205, 22.92963], [-99.82249, 22.92966]]]}}, {"id": "2200488", "type": "Feature", "properties": {"id": "2200488", "CVEGEO": "2803900820174032", "POBTOT": 0.0, "score_nse": 0.0, "NSE": null, "VIVTOT": 0.0, "GRAPROES": 0.0, "_ent": "28", "_mun": "039", "_loc": "0082"}, "geometry": {"type": "Polygon", "coordinates": [[[-99.82317, 22.92969], [-99.82317, 22.9302], [-99.82253, 22.93014], [-99.82261, 22.92966], [-99.82317, 22.92969]]]}}, {"id": "2200489", "type": "Feature", "properties": {"id": "2200489", "CVEGEO": "2803900820174031", "POBTOT": 0.0, "score_nse": 0.0, "NSE": null, "VIVTOT": 0.0, "GRAPROES": 0.0, "_ent": "28", "_mun": "039", "_loc": "0082"}, "geometry": {"type": "Polygon", "coordinates": [[[-99.81829, 22.9294], [-99.81786, 22.92963], [-99.81744, 22.92911], [-99.81779, 22.92884], [-99.81829, 22.9294]]]}}, {"id": "2200490", "type": "Feature", "properties": {"id": "2200490", "CVEGEO": "2803900820174029", "POBTOT": 0.0, "score_nse": 0.0, "NSE": null, "VIVTOT": 0.0, "GRAPROES": 0.0, "_ent": "28", "_mun": "039", "_loc": "0082"}, "geometry": {"type": "Polygon", "coordinates": [[[-99.81909, 22.93028], [-99.81872, 22.93055], [-99.81838, 22.9302], [-99.81877, 22.9299], [-99.81909, 22.93028]]]}}, {"id": "2200491", "type": "Feature", "properties": {"id": "2200491", "CVEGEO": "2803900820174028", "POBTOT": 0.0, "score_nse": 0.0, "NSE": null, "VIVTOT": 0.0, "GRAPROES": 0.0, "_ent": "28", "_mun": "039", "_loc": "0082"}, "geometry": {"type": "Polygon", "coordinates": [[[-99.81971, 22.93015], [-99.82024, 22.93], [-99.82021, 22.93044], [-99.81972, 22.93042], [-99.81971, 22.93015]]]}}, {"id": "2200492", "type": "Feature", "properties": {"id": "2200492", "CVEGEO": "2803900820174027", "POBTOT": 0.0, "score_nse": 0.0, "NSE": null, "VIVTOT": 0.0, "GRAPROES": 0.0, "_ent": "28", "_mun": "039", "_loc": "0082"}, "geometry": {"type": "Polygon", "coordinates": [[[-99.82033, 22.93001], [-99.82135, 22.93012], [-99.82131, 22.93052], [-99.82029, 22.93045], [-99.82033, 22.93001]]]}}, {"id": "2200493", "type": "Feature", "properties": {"id": "2200493", "CVEGEO": "2803900820174026", "POBTOT": 0.0, "score_nse": 0.0, "NSE": null, "VIVTOT": 0.0, "GRAPROES": 0.0, "_ent": "28", "_mun": "039", "_loc": "0082"}, "geometry": {"type": "Polygon", "coordinates": [[[-99.82189, 22.93017], [-99.82186, 22.93055], [-99.82137, 22.93052], [-99.82143, 22.93014], [-99.82189, 22.93017]]]}}, {"id": "2200494", "type": "Feature", "properties": {"id": "2200494", "CVEGEO": "2803900820174015", "POBTOT": 0.0, "score_nse": 0.0, "NSE": null, "VIVTOT": 0.0, "GRAPROES": 0.0, "_ent": "28", "_mun": "039", "_loc": "0082"}, "geometry": {"type": "Polygon", "coordinates": [[[-99.82237, 22.93066], [-99.82233, 22.93113], [-99.82188, 22.93109], [-99.82194, 22.93063], [-99.82237, 22.93066]]]}}, {"id": "2200495", "type": "Feature", "properties": {"id": "2200495", "CVEGEO": "2803900820174014", "POBTOT": 0.0, "score_nse": 0.0, "NSE": null, "VIVTOT": 0.0, "GRAPROES": 0.0, "_ent": "28", "_mun": "039", "_loc": "0082"}, "geometry": {"type": "Polygon", "coordinates": [[[-99.82301, 22.9307], [-99.82289, 22.93118], [-99.82242, 22.93113], [-99.82248, 22.93067], [-99.82301, 22.9307]]]}}, {"id": "2200496", "type": "Feature", "properties": {"id": "2200496", "CVEGEO": "2803900820174013", "POBTOT": 0.0, "score_nse": 0.0, "NSE": null, "VIVTOT": 0.0, "GRAPROES": 0.0, "_ent": "28", "_mun": "039", "_loc": "0082"}, "geometry": {"type": "Polygon", "coordinates": [[[-99.81767, 22.93073], [-99.8175, 22.9316], [-99.81708, 22.93154], [-99.81726, 22.93069], [-99.81767, 22.93073]]]}}, {"id": "2200497", "type": "Feature", "properties": {"id": "2200497", "CVEGEO": "2803900820174012", "POBTOT": 0.0, "score_nse": 0.0, "NSE": null, "VIVTOT": 0.0, "GRAPROES": 0.0, "_ent": "28", "_mun": "039", "_loc": "0082"}, "geometry": {"type": "Polygon", "coordinates": [[[-99.81757, 22.9316], [-99.81771, 22.93073], [-99.81813, 22.93078], [-99.81805, 22.93167], [-99.81757, 22.9316]]]}}, {"id": "2200498", "type": "Feature", "properties": {"id": "2200498", "CVEGEO": "2803900820174011", "POBTOT": 0.0, "score_nse": 0.0, "NSE": null, "VIVTOT": 0.0, "GRAPROES": 0.0, "_ent": "28", "_mun": "039", "_loc": "0082"}, "geometry": {"type": "Polygon", "coordinates": [[[-99.81812, 22.93168], [-99.8182, 22.93079], [-99.81868, 22.93084], [-99.81876, 22.9318], [-99.81812, 22.93168]]]}}, {"id": "2200499", "type": "Feature", "properties": {"id": "2200499", "CVEGEO": "2803900820174010", "POBTOT": 0.0, "score_nse": 0.0, "NSE": null, "VIVTOT": 0.0, "GRAPROES": 0.0, "_ent": "28", "_mun": "039", "_loc": "0082"}, "geometry": {"type": "Polygon", "coordinates": [[[-99.81966, 22.93094], [-99.8197, 22.93194], [-99.81883, 22.9318], [-99.81876, 22.93084], [-99.81966, 22.93094]]]}}, {"id": "2200500", "type": "Feature", "properties": {"id": "2200500", "CVEGEO": "2803900820174009", "POBTOT": 0.0, "score_nse": 0.0, "NSE": null, "VIVTOT": 0.0, "GRAPROES": 0.0, "_ent": "28", "_mun": "039", "_loc": "0082"}, "geometry": {"type": "Polygon", "coordinates": [[[-99.81977, 22.93196], [-99.81974, 22.93096], [-99.82015, 22.93102], [-99.82004, 22.932], [-99.81977, 22.93196]]]}}, {"id": "2200501", "type": "Feature", "properties": {"id": "2200501", "CVEGEO": "2803900820174008", "POBTOT": 0.0, "score_nse": 0.0, "NSE": null, "VIVTOT": 0.0, "GRAPROES": 0.0, "_ent": "28", "_mun": "039", "_loc": "0082"}, "geometry": {"type": "Polygon", "coordinates": [[[-99.8211, 22.9321], [-99.82012, 22.93202], [-99.82023, 22.93103], [-99.82122, 22.93111], [-99.8211, 22.9321]]]}}, {"id": "2200502", "type": "Feature", "properties": {"id": "2200502", "CVEGEO": "2803900820174007", "POBTOT": 0.0, "score_nse": 0.0, "NSE": null, "VIVTOT": 0.0, "GRAPROES": 0.0, "_ent": "28", "_mun": "039", "_loc": "0082"}, "geometry": {"type": "Polygon", "coordinates": [[[-99.82124, 22.93174], [-99.82131, 22.93112], [-99.82178, 22.93115], [-99.8217, 22.93177], [-99.82124, 22.93174]]]}}, {"id": "2202787", "type": "Feature", "properties": {"id": "2202787", "CVEGEO": "2803900820174061", "POBTOT": 0.0, "score_nse": 0.0, "NSE": null, "VIVTOT": 0.0, "GRAPROES": 0.0, "_ent": "28", "_mun": "039", "_loc": "0082"}, "geometry": {"type": "Polygon", "coordinates": [[[-99.8172, 22.93068], [-99.81702, 22.93153], [-99.81655, 22.93145], [-99.81667, 22.93065], [-99.8172, 22.93068]]]}}, {"id": "2202788", "type": "Feature", "properties": {"id": "2202788", "CVEGEO": "2803900820174023", "POBTOT": 0.0, "score_nse": 0.0, "NSE": null, "VIVTOT": 0.0, "GRAPROES": 0.0, "_ent": "28", "_mun": "039", "_loc": "0082"}, "geometry": {"type": "Polygon", "coordinates": [[[-99.81871, 22.92985], [-99.81808, 22.93019], [-99.81775, 22.93015], [-99.8175, 22.92989], [-99.81833, 22.92944], [-99.81871, 22.92985]]]}}, {"id": "2202789", "type": "Feature", "properties": {"id": "2202789", "CVEGEO": "2803900820174022", "POBTOT": 0.0, "score_nse": 0.0, "NSE": null, "VIVTOT": 0.0, "GRAPROES": 0.0, "_ent": "28", "_mun": "039", "_loc": "0082"}, "geometry": {"type": "Polygon", "coordinates": [[[-99.81767, 22.93022], [-99.8172, 22.93059], [-99.81673, 22.93056], [-99.81675, 22.9303], [-99.81742, 22.92993], [-99.81767, 22.93022]]]}}, {"id": "2202841", "type": "Feature", "properties": {"id": "2202841", "CVEGEO": "2803900820174064", "POBTOT": 0.0, "score_nse": 0.0, "NSE": null, "VIVTOT": 0.0, "GRAPROES": 0.0, "_ent": "28", "_mun": "039", "_loc": "0082"}, "geometry": {"type": "Polygon", "coordinates": [[[-99.82262, 22.93273], [-99.82258, 22.93317], [-99.82216, 22.93314], [-99.82221, 22.9327], [-99.82262, 22.93273]]]}}, {"id": "2202842", "type": "Feature", "properties": {"id": "2202842", "CVEGEO": "2803900820174065", "POBTOT": 0.0, "score_nse": 0.0, "NSE": null, "VIVTOT": 0.0, "GRAPROES": 0.0, "_ent": "28", "_mun": "039", "_loc": "0082"}, "geometry": {"type": "Polygon", "coordinates": [[[-99.82211, 22.9327], [-99.82206, 22.93312], [-99.82166, 22.93306], [-99.82169, 22.93267], [-99.82211, 22.9327]]]}}, {"id": "2202843", "type": "Feature", "properties": {"id": "2202843", "CVEGEO": "2803900820174063", "POBTOT": 0.0, "score_nse": 0.0, "NSE": null, "VIVTOT": 0.0, "GRAPROES": 0.0, "_ent": "28", "_mun": "039", "_loc": "0082"}, "geometry": {"type": "Polygon", "coordinates": [[[-99.82205, 22.93318], [-99.82201, 22.93354], [-99.82161, 22.93345], [-99.82166, 22.93311], [-99.82205, 22.93318]]]}}]}