{"type": "FeatureCollection", "features": [{"id": "2315215", "type": "Feature", "properties": {"id": "2315215", "CVEGEO": "301000006005A002", "POBTOT": 0.0, "score_nse": 0.0, "NSE": null, "VIVTOT": 0.0, "GRAPROES": 0.0, "_ent": "30", "_mun": "100", "_loc": "0006"}, "geometry": {"type": "Polygon", "coordinates": [[[-96.30867, 19.15131], [-96.30874, 19.15238], [-96.30837, 19.15233], [-96.30807, 19.15177], [-96.30867, 19.15131]]]}}, {"id": "2315433", "type": "Feature", "properties": {"id": "2315433", "CVEGEO": "301000006005A004", "POBTOT": 0.0, "score_nse": 0.0, "NSE": null, "VIVTOT": 0.0, "GRAPROES": 0.0, "_ent": "30", "_mun": "100", "_loc": "0006"}, "geometry": {"type": "Polygon", "coordinates": [[[-96.30793, 19.1517], [-96.30767, 19.15145], [-96.30804, 19.15101], [-96.30846, 19.14992], [-96.30862, 19.14993], [-96.30867, 19.15113], [-96.30793, 19.1517]]]}}, {"id": "2315444", "type": "Feature", "properties": {"id": "2315444", "CVEGEO": "301000006005A010", "POBTOT": 0.0, "score_nse": 0.0, "NSE": null, "VIVTOT": 0.0, "GRAPROES": 0.0, "_ent": "30", "_mun": "100", "_loc": "0006"}, "geometry": {"type": "Polygon", "coordinates": [[[-96.30864, 19.14953], [-96.309, 19.14943], [-96.30907, 19.15078], [-96.30873, 19.15109], [-96.30864, 19.14953]]]}}, {"id": "2315447", "type": "Feature", "properties": {"id": "2315447", "CVEGEO": "301000006005A006", "POBTOT": 0.0, "score_nse": 0.0, "NSE": null, "VIVTOT": 0.0, "GRAPROES": 0.0, "_ent": "30", "_mun": "100", "_loc": "0006"}, "geometry": {"type": "Polygon", "coordinates": [[[-96.3077, 19.15135], [-96.30739, 19.15174], [-96.30727, 19.15134], [-96.3077, 19.15135]]]}}, {"id": "2315448", "type": "Feature", "properties": {"id": "2315448", "CVEGEO": "301000006005A009", "POBTOT": 0.0, "score_nse": 0.0, "NSE": null, "VIVTOT": 0.0, "GRAPROES": 0.0, "_ent": "30", "_mun": "100", "_loc": "0006"}, "geometry": {"type": "Polygon", "coordinates": [[[-96.30772, 19.15133], [-96.30735, 19.15124], [-96.30769, 19.1505], [-96.30818, 19.15065], [-96.30772, 19.15133]]]}}, {"id": "2315454", "type": "Feature", "properties": {"id": "2315454", "CVEGEO": "301000006005A007", "POBTOT": 0.0, "score_nse": 0.0, "NSE": null, "VIVTOT": 0.0, "GRAPROES": 0.0, "_ent": "30", "_mun": "100", "_loc": "0006"}, "geometry": {"type": "Polygon", "coordinates": [[[-96.30741, 19.1519], [-96.30683, 19.15215], [-96.30691, 19.15193], [-96.3067, 19.15179], [-96.30679, 19.15141], [-96.30717, 19.15139], [-96.30741, 19.1519]]]}}, {"id": "2315457", "type": "Feature", "properties": {"id": "2315457", "CVEGEO": "301000006005A005", "POBTOT": 0.0, "score_nse": 0.0, "NSE": null, "VIVTOT": 0.0, "GRAPROES": 0.0, "_ent": "30", "_mun": "100", "_loc": "0006"}, "geometry": {"type": "Polygon", "coordinates": [[[-96.30744, 19.1519], [-96.30765, 19.15148], [-96.3079, 19.15171], [-96.30744, 19.1519]]]}}, {"id": "2315526", "type": "Feature", "properties": {"id": "2315526", "CVEGEO": "301000006005A001", "POBTOT": 0.0, "score_nse": 0.0, "NSE": null, "VIVTOT": 0.0, "GRAPROES": 0.0, "_ent": "30", "_mun": "100", "_loc": "0006"}, "geometry": {"type": "Polygon", "coordinates": [[[-96.30839, 19.14998], [-96.30818, 19.15059], [-96.30717, 19.15032], [-96.30732, 19.14973], [-96.30839, 19.14998]]]}}, {"id": "2315527", "type": "Feature", "properties": {"id": "2315527", "CVEGEO": "301000006005A003", "POBTOT": 0.0, "score_nse": 0.0, "NSE": null, "VIVTOT": 0.0, "GRAPROES": 0.0, "_ent": "30", "_mun": "100", "_loc": "0006"}, "geometry": {"type": "Polygon", "coordinates": [[[-96.30717, 19.15036], [-96.30766, 19.15049], [-96.3074, 19.15107], [-96.30715, 19.15104], [-96.30739, 19.15108], [-96.30721, 19.15137], [-96.30681, 19.15137], [-96.30717, 19.15036]]]}}, {"id": "2315528", "type": "Feature", "properties": {"id": "2315528", "CVEGEO": "301000006005A011", "POBTOT": 0.0, "score_nse": 0.0, "NSE": null, "VIVTOT": 0.0, "GRAPROES": 0.0, "_ent": "30", "_mun": "100", "_loc": "0006"}, "geometry": {"type": "Polygon", "coordinates": [[[-96.30733, 19.14968], [-96.30741, 19.14926], [-96.30862, 19.14921], [-96.3087, 19.14936], [-96.30842, 19.1499], [-96.30733, 19.14968]]]}}]}