{"type": "FeatureCollection", "features": [{"id": "2315054", "type": "Feature", "properties": {"id": "2315054", "CVEGEO": "301000051005A019", "POBTOT": 0.0, "score_nse": 0.0, "NSE": null, "VIVTOT": 0.0, "GRAPROES": 0.0, "_ent": "30", "_mun": "100", "_loc": "0051"}, "geometry": {"type": "Polygon", "coordinates": [[[-96.35073, 19.09771], [-96.35135, 19.09798], [-96.35139, 19.09822], [-96.35027, 19.09858], [-96.35073, 19.09771]]]}}, {"id": "2315055", "type": "Feature", "properties": {"id": "2315055", "CVEGEO": "301000051005A011", "POBTOT": 0.0, "score_nse": 0.0, "NSE": null, "VIVTOT": 0.0, "GRAPROES": 0.0, "_ent": "30", "_mun": "100", "_loc": "0051"}, "geometry": {"type": "Polygon", "coordinates": [[[-96.35027, 19.09862], [-96.35161, 19.09822], [-96.35151, 19.09901], [-96.3511, 19.09971], [-96.3502, 19.09934], [-96.35027, 19.09862]]]}}, {"id": "2315056", "type": "Feature", "properties": {"id": "2315056", "CVEGEO": "301000051005A010", "POBTOT": 0.0, "score_nse": 0.0, "NSE": null, "VIVTOT": 0.0, "GRAPROES": 0.0, "_ent": "30", "_mun": "100", "_loc": "0051"}, "geometry": {"type": "Polygon", "coordinates": [[[-96.35063, 19.09443], [-96.35156, 19.09382], [-96.35179, 19.09532], [-96.35124, 19.09554], [-96.35118, 19.09488], [-96.35117, 19.09554], [-96.35059, 19.09552], [-96.35063, 19.09443]]]}}, {"id": "2315057", "type": "Feature", "properties": {"id": "2315057", "CVEGEO": "301000051005A009", "POBTOT": 0.0, "score_nse": 0.0, "NSE": null, "VIVTOT": 0.0, "GRAPROES": 0.0, "_ent": "30", "_mun": "100", "_loc": "0051"}, "geometry": {"type": "Polygon", "coordinates": [[[-96.34921, 19.09364], [-96.3497, 19.0938], [-96.34994, 19.09558], [-96.34896, 19.09539], [-96.34921, 19.09364]]]}}, {"id": "2315245", "type": "Feature", "properties": {"id": "2315245", "CVEGEO": "301000051005A013", "POBTOT": 0.0, "score_nse": 0.0, "NSE": null, "VIVTOT": 0.0, "GRAPROES": 0.0, "_ent": "30", "_mun": "100", "_loc": "0051"}, "geometry": {"type": "Polygon", "coordinates": [[[-96.34997, 19.09379], [-96.34954, 19.09361], [-96.34922, 19.0936], [-96.34931, 19.09305], [-96.35, 19.093], [-96.34997, 19.09379]]]}}, {"id": "2315246", "type": "Feature", "properties": {"id": "2315246", "CVEGEO": "301000051005A014", "POBTOT": 0.0, "score_nse": 0.0, "NSE": null, "VIVTOT": 0.0, "GRAPROES": 0.0, "_ent": "30", "_mun": "100", "_loc": "0051"}, "geometry": {"type": "Polygon", "coordinates": [[[-96.35061, 19.09444], [-96.35055, 19.09552], [-96.34998, 19.09557], [-96.34983, 19.09436], [-96.35061, 19.09444]]]}}, {"id": "2315247", "type": "Feature", "properties": {"id": "2315247", "CVEGEO": "301000051005A016", "POBTOT": 0.0, "score_nse": 0.0, "NSE": null, "VIVTOT": 0.0, "GRAPROES": 0.0, "_ent": "30", "_mun": "100", "_loc": "0051"}, "geometry": {"type": "Polygon", "coordinates": [[[-96.34946, 19.09646], [-96.35015, 19.09602], [-96.35094, 19.0969], [-96.35044, 19.09724], [-96.35014, 19.09726], [-96.35009, 19.09708], [-96.34951, 19.0971], [-96.34946, 19.09646]]]}}, {"id": "2315263", "type": "Feature", "properties": {"id": "2315263", "CVEGEO": "301000051005A006", "POBTOT": 0.0, "score_nse": 0.0, "NSE": null, "VIVTOT": 0.0, "GRAPROES": 0.0, "_ent": "30", "_mun": "100", "_loc": "0051"}, "geometry": {"type": "Polygon", "coordinates": [[[-96.35055, 19.09726], [-96.35096, 19.09692], [-96.35106, 19.09708], [-96.3507, 19.09766], [-96.35016, 19.09729], [-96.35055, 19.09726]]]}}, {"id": "2315264", "type": "Feature", "properties": {"id": "2315264", "CVEGEO": "301000051005A017", "POBTOT": 0.0, "score_nse": 0.0, "NSE": null, "VIVTOT": 0.0, "GRAPROES": 0.0, "_ent": "30", "_mun": "100", "_loc": "0051"}, "geometry": {"type": "Polygon", "coordinates": [[[-96.35005, 19.09713], [-96.35008, 19.09727], [-96.34949, 19.09763], [-96.34951, 19.09714], [-96.35005, 19.09713]]]}}, {"id": "2315280", "type": "Feature", "properties": {"id": "2315280", "CVEGEO": "301000051005A012", "POBTOT": 0.0, "score_nse": 0.0, "NSE": null, "VIVTOT": 0.0, "GRAPROES": 0.0, "_ent": "30", "_mun": "100", "_loc": "0051"}, "geometry": {"type": "Polygon", "coordinates": [[[-96.34886, 19.09869], [-96.34952, 19.09878], [-96.34959, 19.09961], [-96.34872, 19.09937], [-96.34886, 19.09869]]]}}, {"id": "2315416", "type": "Feature", "properties": {"id": "2315416", "CVEGEO": "301000051005A015", "POBTOT": 0.0, "score_nse": 0.0, "NSE": null, "VIVTOT": 0.0, "GRAPROES": 0.0, "_ent": "30", "_mun": "100", "_loc": "0051"}, "geometry": {"type": "Polygon", "coordinates": [[[-96.35049, 19.09555], [-96.35016, 19.09595], [-96.34992, 19.09564], [-96.35049, 19.09555]]]}}, {"id": "2315417", "type": "Feature", "properties": {"id": "2315417", "CVEGEO": "301000051005A003", "POBTOT": 0.0, "score_nse": 0.0, "NSE": null, "VIVTOT": 0.0, "GRAPROES": 0.0, "_ent": "30", "_mun": "100", "_loc": "0051"}, "geometry": {"type": "Polygon", "coordinates": [[[-96.35013, 19.09599], [-96.34938, 19.09651], [-96.34945, 19.09701], [-96.34932, 19.09734], [-96.34877, 19.09691], [-96.34895, 19.09541], [-96.34988, 19.09565], [-96.35013, 19.09599]]]}}, {"id": "2315418", "type": "Feature", "properties": {"id": "2315418", "CVEGEO": "301000051005A002", "POBTOT": 0.0, "score_nse": 0.0, "NSE": null, "VIVTOT": 0.0, "GRAPROES": 0.0, "_ent": "30", "_mun": "100", "_loc": "0051"}, "geometry": {"type": "Polygon", "coordinates": [[[-96.34882, 19.09865], [-96.34867, 19.09936], [-96.34821, 19.09923], [-96.3486, 19.09696], [-96.34929, 19.09738], [-96.34947, 19.09795], [-96.34952, 19.09874], [-96.34882, 19.09865]]]}}, {"id": "2315419", "type": "Feature", "properties": {"id": "2315419", "CVEGEO": "301000051005A001", "POBTOT": 0.0, "score_nse": 0.0, "NSE": null, "VIVTOT": 0.0, "GRAPROES": 0.0, "_ent": "30", "_mun": "100", "_loc": "0051"}, "geometry": {"type": "Polygon", "coordinates": [[[-96.34985, 19.09785], [-96.34972, 19.09759], [-96.35012, 19.09731], [-96.35069, 19.09769], [-96.35021, 19.09859], [-96.34958, 19.09854], [-96.3495, 19.09767], [-96.34969, 19.09761], [-96.34985, 19.09785]]]}}, {"id": "2315440", "type": "Feature", "properties": {"id": "2315440", "CVEGEO": "301000051005A004", "POBTOT": 0.0, "score_nse": 0.0, "NSE": null, "VIVTOT": 0.0, "GRAPROES": 0.0, "_ent": "30", "_mun": "100", "_loc": "0051"}, "geometry": {"type": "Polygon", "coordinates": [[[-96.35088, 19.10024], [-96.35155, 19.09901], [-96.35165, 19.09841], [-96.35181, 19.09839], [-96.35231, 19.09931], [-96.35233, 19.09993], [-96.35213, 19.10058], [-96.35204, 19.10075], [-96.35088, 19.10024]]]}}, {"id": "2315441", "type": "Feature", "properties": {"id": "2315441", "CVEGEO": "301000051005A018", "POBTOT": 0.0, "score_nse": 0.0, "NSE": null, "VIVTOT": 0.0, "GRAPROES": 0.0, "_ent": "30", "_mun": "100", "_loc": "0051"}, "geometry": {"type": "Polygon", "coordinates": [[[-96.35201, 19.09585], [-96.35137, 19.09666], [-96.35118, 19.09672], [-96.35129, 19.0956], [-96.35183, 19.09535], [-96.35201, 19.09585]]]}}, {"id": "2315474", "type": "Feature", "properties": {"id": "2315474", "CVEGEO": "301000051005A022", "POBTOT": 0.0, "score_nse": 0.0, "NSE": null, "VIVTOT": 0.0, "GRAPROES": 0.0, "_ent": "30", "_mun": "100", "_loc": "0051"}, "geometry": {"type": "Polygon", "coordinates": [[[-96.34962, 19.09926], [-96.34958, 19.0986], [-96.35011, 19.09868], [-96.34996, 19.09931], [-96.34962, 19.09926]]]}}, {"id": "2315475", "type": "Feature", "properties": {"id": "2315475", "CVEGEO": "301000051005A021", "POBTOT": 0.0, "score_nse": 0.0, "NSE": null, "VIVTOT": 0.0, "GRAPROES": 0.0, "_ent": "30", "_mun": "100", "_loc": "0051"}, "geometry": {"type": "Polygon", "coordinates": [[[-96.35307, 19.09992], [-96.35237, 19.09988], [-96.35242, 19.09857], [-96.35281, 19.09862], [-96.35307, 19.09992]]]}}, {"id": "2315476", "type": "Feature", "properties": {"id": "2315476", "CVEGEO": "301000051005A007", "POBTOT": 0.0, "score_nse": 0.0, "NSE": null, "VIVTOT": 0.0, "GRAPROES": 0.0, "_ent": "30", "_mun": "100", "_loc": "0051"}, "geometry": {"type": "Polygon", "coordinates": [[[-96.35139, 19.09795], [-96.35077, 19.09763], [-96.35109, 19.09708], [-96.35161, 19.09751], [-96.35165, 19.09814], [-96.35142, 19.09817], [-96.35139, 19.09795]]]}}, {"id": "2315477", "type": "Feature", "properties": {"id": "2315477", "CVEGEO": "301000051005A008", "POBTOT": 0.0, "score_nse": 0.0, "NSE": null, "VIVTOT": 0.0, "GRAPROES": 0.0, "_ent": "30", "_mun": "100", "_loc": "0051"}, "geometry": {"type": "Polygon", "coordinates": [[[-96.35019, 19.09599], [-96.35054, 19.09555], [-96.35125, 19.09559], [-96.35108, 19.09683], [-96.35019, 19.09599]]]}}, {"id": "2315478", "type": "Feature", "properties": {"id": "2315478", "CVEGEO": "301000051005A020", "POBTOT": 0.0, "score_nse": 0.0, "NSE": null, "VIVTOT": 0.0, "GRAPROES": 0.0, "_ent": "30", "_mun": "100", "_loc": "0051"}, "geometry": {"type": "Polygon", "coordinates": [[[-96.35236, 19.09855], [-96.35206, 19.09856], [-96.35171, 19.09828], [-96.35167, 19.09752], [-96.35106, 19.09696], [-96.35161, 19.09639], [-96.35198, 19.097], [-96.35193, 19.09757], [-96.35234, 19.09763], [-96.35236, 19.09855]]]}}, {"id": "2315546", "type": "Feature", "properties": {"id": "2315546", "CVEGEO": "301000051005A005", "POBTOT": 0.0, "score_nse": 0.0, "NSE": null, "VIVTOT": 0.0, "GRAPROES": 0.0, "_ent": "30", "_mun": "100", "_loc": "0051"}, "geometry": {"type": "Polygon", "coordinates": [[[-96.35107, 19.09974], [-96.35083, 19.1002], [-96.3502, 19.09993], [-96.35044, 19.09944], [-96.35107, 19.09974]]]}}, {"id": "2315547", "type": "Feature", "properties": {"id": "2315547", "CVEGEO": "301000051005A023", "POBTOT": 0.0, "score_nse": 0.0, "NSE": null, "VIVTOT": 0.0, "GRAPROES": 0.0, "_ent": "30", "_mun": "100", "_loc": "0051"}, "geometry": {"type": "Polygon", "coordinates": [[[-96.35037, 19.09943], [-96.35014, 19.0999], [-96.34971, 19.09964], [-96.34962, 19.09928], [-96.35037, 19.09943]]]}}]}