{"type": "FeatureCollection", "features": [{"id": "1646505", "type": "Feature", "properties": {"id": "1646505", "CVEGEO": "2102500080016003", "POBTOT": 0.0, "score_nse": 0.0, "NSE": null, "VIVTOT": 0.0, "GRAPROES": 0.0, "_ent": "21", "_mun": "025", "_loc": "0008"}, "geometry": {"type": "Polygon", "coordinates": [[[-97.42802, 20.06028], [-97.42805, 20.06068], [-97.42764, 20.06068], [-97.42762, 20.06027], [-97.42802, 20.06028]]]}}, {"id": "1646566", "type": "Feature", "properties": {"id": "1646566", "CVEGEO": "2102500080016022", "POBTOT": 0.0, "score_nse": 0.0, "NSE": null, "VIVTOT": 0.0, "GRAPROES": 0.0, "_ent": "21", "_mun": "025", "_loc": "0008"}, "geometry": {"type": "Polygon", "coordinates": [[[-97.42343, 20.06019], [-97.42569, 20.0602], [-97.42568, 20.0607], [-97.42425, 20.06066], [-97.42479, 20.06051], [-97.42392, 20.06053], [-97.42341, 20.06034], [-97.42343, 20.06019]]]}}, {"id": "1646575", "type": "Feature", "properties": {"id": "1646575", "CVEGEO": "2102500080016007", "POBTOT": 0.0, "score_nse": 0.0, "NSE": null, "VIVTOT": 0.0, "GRAPROES": 0.0, "_ent": "21", "_mun": "025", "_loc": "0008"}, "geometry": {"type": "Polygon", "coordinates": [[[-97.42763, 20.0612], [-97.42723, 20.06121], [-97.42717, 20.06076], [-97.42759, 20.06075], [-97.42763, 20.0612]]]}}, {"id": "1646576", "type": "Feature", "properties": {"id": "1646576", "CVEGEO": "2102500080016006", "POBTOT": 0.0, "score_nse": 0.0, "NSE": null, "VIVTOT": 0.0, "GRAPROES": 0.0, "_ent": "21", "_mun": "025", "_loc": "0008"}, "geometry": {"type": "Polygon", "coordinates": [[[-97.42861, 20.0612], [-97.42859, 20.06075], [-97.42903, 20.06075], [-97.42905, 20.0612], [-97.42861, 20.0612]]]}}, {"id": "1646577", "type": "Feature", "properties": {"id": "1646577", "CVEGEO": "2102500080016004", "POBTOT": 0.0, "score_nse": 0.0, "NSE": null, "VIVTOT": 0.0, "GRAPROES": 0.0, "_ent": "21", "_mun": "025", "_loc": "0008"}, "geometry": {"type": "Polygon", "coordinates": [[[-97.42898, 20.06031], [-97.42903, 20.06068], [-97.4281, 20.06068], [-97.42807, 20.06029], [-97.42898, 20.06031]]]}}, {"id": "1646596", "type": "Feature", "properties": {"id": "1646596", "CVEGEO": "2102500080016012", "POBTOT": 0.0, "score_nse": 0.0, "NSE": null, "VIVTOT": 0.0, "GRAPROES": 0.0, "_ent": "21", "_mun": "025", "_loc": "0008"}, "geometry": {"type": "Polygon", "coordinates": [[[-97.42628, 20.06071], [-97.4263, 20.06021], [-97.42705, 20.06025], [-97.42709, 20.06069], [-97.42628, 20.06071]]]}}, {"id": "1646597", "type": "Feature", "properties": {"id": "1646597", "CVEGEO": "2102500080016010", "POBTOT": 0.0, "score_nse": 0.0, "NSE": null, "VIVTOT": 0.0, "GRAPROES": 0.0, "_ent": "21", "_mun": "025", "_loc": "0008"}, "geometry": {"type": "Polygon", "coordinates": [[[-97.42909, 20.06075], [-97.42953, 20.06074], [-97.42955, 20.06119], [-97.42911, 20.0612], [-97.42909, 20.06075]]]}}, {"id": "1646598", "type": "Feature", "properties": {"id": "1646598", "CVEGEO": "2102500080016009", "POBTOT": 0.0, "score_nse": 0.0, "NSE": null, "VIVTOT": 0.0, "GRAPROES": 0.0, "_ent": "21", "_mun": "025", "_loc": "0008"}, "geometry": {"type": "Polygon", "coordinates": [[[-97.42947, 20.06029], [-97.42951, 20.06069], [-97.42909, 20.06068], [-97.42904, 20.06031], [-97.42947, 20.06029]]]}}, {"id": "1646599", "type": "Feature", "properties": {"id": "1646599", "CVEGEO": "2102500080016008", "POBTOT": 0.0, "score_nse": 0.0, "NSE": null, "VIVTOT": 0.0, "GRAPROES": 0.0, "_ent": "21", "_mun": "025", "_loc": "0008"}, "geometry": {"type": "Polygon", "coordinates": [[[-97.42759, 20.06068], [-97.42714, 20.06068], [-97.4271, 20.06026], [-97.42757, 20.06027], [-97.42759, 20.06068]]]}}, {"id": "1646626", "type": "Feature", "properties": {"id": "1646626", "CVEGEO": "2102500080016013", "POBTOT": 0.0, "score_nse": 0.0, "NSE": null, "VIVTOT": 0.0, "GRAPROES": 0.0, "_ent": "21", "_mun": "025", "_loc": "0008"}, "geometry": {"type": "Polygon", "coordinates": [[[-97.42993, 20.06027], [-97.42996, 20.06069], [-97.42955, 20.06069], [-97.42952, 20.06029], [-97.42993, 20.06027]]]}}, {"id": "1646636", "type": "Feature", "properties": {"id": "1646636", "CVEGEO": "2102500080016014", "POBTOT": 0.0, "score_nse": 0.0, "NSE": null, "VIVTOT": 0.0, "GRAPROES": 0.0, "_ent": "21", "_mun": "025", "_loc": "0008"}, "geometry": {"type": "Polygon", "coordinates": [[[-97.42957, 20.06075], [-97.42996, 20.06075], [-97.42998, 20.06118], [-97.4296, 20.06118], [-97.42957, 20.06075]]]}}, {"id": "1646666", "type": "Feature", "properties": {"id": "1646666", "CVEGEO": "2102500080016021", "POBTOT": 0.0, "score_nse": 0.0, "NSE": null, "VIVTOT": 0.0, "GRAPROES": 0.0, "_ent": "21", "_mun": "025", "_loc": "0008"}, "geometry": {"type": "Polygon", "coordinates": [[[-97.42574, 20.06018], [-97.42623, 20.06021], [-97.42621, 20.06071], [-97.42573, 20.06069], [-97.42574, 20.06018]]]}}, {"id": "1646667", "type": "Feature", "properties": {"id": "1646667", "CVEGEO": "2102500080016020", "POBTOT": 0.0, "score_nse": 0.0, "NSE": null, "VIVTOT": 0.0, "GRAPROES": 0.0, "_ent": "21", "_mun": "025", "_loc": "0008"}, "geometry": {"type": "Polygon", "coordinates": [[[-97.42571, 20.06118], [-97.42572, 20.06076], [-97.42621, 20.06078], [-97.42623, 20.06119], [-97.42571, 20.06118]]]}}, {"id": "1646668", "type": "Feature", "properties": {"id": "1646668", "CVEGEO": "2102500080016019", "POBTOT": 0.0, "score_nse": 0.0, "NSE": null, "VIVTOT": 0.0, "GRAPROES": 0.0, "_ent": "21", "_mun": "025", "_loc": "0008"}, "geometry": {"type": "Polygon", "coordinates": [[[-97.43094, 20.06075], [-97.43101, 20.0611], [-97.43054, 20.06112], [-97.43049, 20.06075], [-97.43094, 20.06075]]]}}, {"id": "1646669", "type": "Feature", "properties": {"id": "1646669", "CVEGEO": "2102500080016018", "POBTOT": 0.0, "score_nse": 0.0, "NSE": null, "VIVTOT": 0.0, "GRAPROES": 0.0, "_ent": "21", "_mun": "025", "_loc": "0008"}, "geometry": {"type": "Polygon", "coordinates": [[[-97.43048, 20.06069], [-97.43047, 20.06019], [-97.43095, 20.0601], [-97.43093, 20.06069], [-97.43048, 20.06069]]]}}, {"id": "1646670", "type": "Feature", "properties": {"id": "1646670", "CVEGEO": "2102500080016017", "POBTOT": 0.0, "score_nse": 0.0, "NSE": null, "VIVTOT": 0.0, "GRAPROES": 0.0, "_ent": "21", "_mun": "025", "_loc": "0008"}, "geometry": {"type": "Polygon", "coordinates": [[[-97.42999, 20.06074], [-97.43044, 20.06075], [-97.43049, 20.06114], [-97.43001, 20.06118], [-97.42999, 20.06074]]]}}, {"id": "1646671", "type": "Feature", "properties": {"id": "1646671", "CVEGEO": "2102500080016016", "POBTOT": 0.0, "score_nse": 0.0, "NSE": null, "VIVTOT": 0.0, "GRAPROES": 0.0, "_ent": "21", "_mun": "025", "_loc": "0008"}, "geometry": {"type": "Polygon", "coordinates": [[[-97.4304, 20.0602], [-97.43043, 20.06069], [-97.43001, 20.06069], [-97.42997, 20.06024], [-97.4304, 20.0602]]]}}, {"id": "1646672", "type": "Feature", "properties": {"id": "1646672", "CVEGEO": "2102500080016001", "POBTOT": 0.0, "score_nse": 0.0, "NSE": null, "VIVTOT": 0.0, "GRAPROES": 0.0, "_ent": "21", "_mun": "025", "_loc": "0008"}, "geometry": {"type": "Polygon", "coordinates": [[[-97.42814, 20.0612], [-97.42809, 20.06075], [-97.42855, 20.06075], [-97.42856, 20.0612], [-97.42814, 20.0612]]]}}, {"id": "1646689", "type": "Feature", "properties": {"id": "1646689", "CVEGEO": "2102500080016002", "POBTOT": 0.0, "score_nse": 0.0, "NSE": null, "VIVTOT": 0.0, "GRAPROES": 0.0, "_ent": "21", "_mun": "025", "_loc": "0008"}, "geometry": {"type": "Polygon", "coordinates": [[[-97.42805, 20.06075], [-97.4281, 20.0612], [-97.42767, 20.0612], [-97.42763, 20.06075], [-97.42805, 20.06075]]]}}, {"id": "1646726", "type": "Feature", "properties": {"id": "1646726", "CVEGEO": "2102500080016015", "POBTOT": 0.0, "score_nse": 0.0, "NSE": null, "VIVTOT": 0.0, "GRAPROES": 0.0, "_ent": "21", "_mun": "025", "_loc": "0008"}, "geometry": {"type": "Polygon", "coordinates": [[[-97.4248, 20.06074], [-97.4252, 20.06075], [-97.42526, 20.06121], [-97.42489, 20.06123], [-97.4248, 20.06074]]]}}, {"id": "1646727", "type": "Feature", "properties": {"id": "1646727", "CVEGEO": "2102500080016011", "POBTOT": 0.0, "score_nse": 0.0, "NSE": null, "VIVTOT": 0.0, "GRAPROES": 0.0, "_ent": "21", "_mun": "025", "_loc": "0008"}, "geometry": {"type": "Polygon", "coordinates": [[[-97.42669, 20.06077], [-97.4271, 20.06079], [-97.42716, 20.06121], [-97.42673, 20.06123], [-97.42669, 20.06077]]]}}, {"id": "1646734", "type": "Feature", "properties": {"id": "1646734", "CVEGEO": "2102500080016025", "POBTOT": 0.0, "score_nse": 0.0, "NSE": null, "VIVTOT": 0.0, "GRAPROES": 0.0, "_ent": "21", "_mun": "025", "_loc": "0008"}, "geometry": {"type": "Polygon", "coordinates": [[[-97.42526, 20.06075], [-97.42568, 20.06076], [-97.42567, 20.06119], [-97.42532, 20.0612], [-97.42526, 20.06075]]]}}, {"id": "1646735", "type": "Feature", "properties": {"id": "1646735", "CVEGEO": "2102500080016024", "POBTOT": 0.0, "score_nse": 0.0, "NSE": null, "VIVTOT": 0.0, "GRAPROES": 0.0, "_ent": "21", "_mun": "025", "_loc": "0008"}, "geometry": {"type": "Polygon", "coordinates": [[[-97.42484, 20.06124], [-97.42441, 20.06127], [-97.42426, 20.06073], [-97.42474, 20.06074], [-97.42484, 20.06124]]]}}, {"id": "1646736", "type": "Feature", "properties": {"id": "1646736", "CVEGEO": "2102500080016023", "POBTOT": 0.0, "score_nse": 0.0, "NSE": null, "VIVTOT": 0.0, "GRAPROES": 0.0, "_ent": "21", "_mun": "025", "_loc": "0008"}, "geometry": {"type": "Polygon", "coordinates": [[[-97.42629, 20.06109], [-97.42628, 20.06078], [-97.42664, 20.06077], [-97.42667, 20.06122], [-97.42629, 20.06109]]]}}]}