{"type": "FeatureCollection", "features": [{"id": "2182735", "type": "Feature", "properties": {"id": "2182735", "CVEGEO": "2803205480188001", "POBTOT": 0.0, "score_nse": 0.0, "NSE": null, "VIVTOT": 0.0, "GRAPROES": 0.0, "_ent": "28", "_mun": "032", "_loc": "0548"}, "geometry": {"type": "Polygon", "coordinates": [[[-98.25296, 25.74848], [-98.25347, 25.74847], [-98.25363, 25.75052], [-98.25313, 25.75053], [-98.25296, 25.74848]]]}}, {"id": "2182736", "type": "Feature", "properties": {"id": "2182736", "CVEGEO": "2803205480188002", "POBTOT": 0.0, "score_nse": 0.0, "NSE": null, "VIVTOT": 0.0, "GRAPROES": 0.0, "_ent": "28", "_mun": "032", "_loc": "0548"}, "geometry": {"type": "Polygon", "coordinates": [[[-98.25233, 25.74808], [-98.25284, 25.74805], [-98.25305, 25.75054], [-98.25256, 25.75054], [-98.25233, 25.74808]]]}}, {"id": "2182737", "type": "Feature", "properties": {"id": "2182737", "CVEGEO": "2803205480188003", "POBTOT": 0.0, "score_nse": 0.0, "NSE": null, "VIVTOT": 0.0, "GRAPROES": 0.0, "_ent": "28", "_mun": "032", "_loc": "0548"}, "geometry": {"type": "Polygon", "coordinates": [[[-98.25278, 25.74647], [-98.25331, 25.74646], [-98.25346, 25.74839], [-98.25296, 25.74841], [-98.25278, 25.74647]]]}}, {"id": "2182738", "type": "Feature", "properties": {"id": "2182738", "CVEGEO": "2803205480188004", "POBTOT": 0.0, "score_nse": 0.0, "NSE": null, "VIVTOT": 0.0, "GRAPROES": 0.0, "_ent": "28", "_mun": "032", "_loc": "0548"}, "geometry": {"type": "Polygon", "coordinates": [[[-98.25219, 25.74642], [-98.2527, 25.74642], [-98.25286, 25.74797], [-98.25233, 25.74799], [-98.25219, 25.74642]]]}}, {"id": "2182739", "type": "Feature", "properties": {"id": "2182739", "CVEGEO": "2803205480188005", "POBTOT": 0.0, "score_nse": 0.0, "NSE": null, "VIVTOT": 0.0, "GRAPROES": 0.0, "_ent": "28", "_mun": "032", "_loc": "0548"}, "geometry": {"type": "Polygon", "coordinates": [[[-98.25219, 25.74627], [-98.25208, 25.74567], [-98.25329, 25.74568], [-98.25333, 25.74625], [-98.25219, 25.74627]]]}}]}