{"type": "FeatureCollection", "features": [{"id": "829397", "type": "Feature", "properties": {"id": "829397", "CVEGEO": "1301400060037010", "POBTOT": 0.0, "score_nse": 0.0, "NSE": null, "VIVTOT": 0.0, "GRAPROES": 0.0, "_ent": "13", "_mun": "014", "_loc": "0006"}, "geometry": {"type": "Polygon", "coordinates": [[[-98.50027, 20.90249], [-98.49963, 20.90257], [-98.4996, 20.9022], [-98.50022, 20.90214], [-98.50027, 20.90249]]]}}, {"id": "829398", "type": "Feature", "properties": {"id": "829398", "CVEGEO": "1301400060037009", "POBTOT": 0.0, "score_nse": 0.0, "NSE": null, "VIVTOT": 0.0, "GRAPROES": 0.0, "_ent": "13", "_mun": "014", "_loc": "0006"}, "geometry": {"type": "Polygon", "coordinates": [[[-98.5009, 20.9024], [-98.50032, 20.90248], [-98.50028, 20.90209], [-98.50048, 20.90202], [-98.5009, 20.9024]]]}}, {"id": "829399", "type": "Feature", "properties": {"id": "829399", "CVEGEO": "1301400060037003", "POBTOT": 0.0, "score_nse": 0.0, "NSE": null, "VIVTOT": 0.0, "GRAPROES": 0.0, "_ent": "13", "_mun": "014", "_loc": "0006"}, "geometry": {"type": "Polygon", "coordinates": [[[-98.49957, 20.90242], [-98.49899, 20.90265], [-98.49871, 20.90263], [-98.49874, 20.90219], [-98.49952, 20.9021], [-98.49957, 20.90242]]]}}, {"id": "829400", "type": "Feature", "properties": {"id": "829400", "CVEGEO": "1301400060037001", "POBTOT": 0.0, "score_nse": 0.0, "NSE": null, "VIVTOT": 0.0, "GRAPROES": 0.0, "_ent": "13", "_mun": "014", "_loc": "0006"}, "geometry": {"type": "Polygon", "coordinates": [[[-98.49955, 20.90204], [-98.49863, 20.90214], [-98.49846, 20.90189], [-98.49863, 20.90171], [-98.49905, 20.90166], [-98.49937, 20.90094], [-98.49955, 20.90204]]]}}, {"id": "829401", "type": "Feature", "properties": {"id": "829401", "CVEGEO": "1301400060037006", "POBTOT": 0.0, "score_nse": 0.0, "NSE": null, "VIVTOT": 0.0, "GRAPROES": 0.0, "_ent": "13", "_mun": "014", "_loc": "0006"}, "geometry": {"type": "Polygon", "coordinates": [[[-98.49643, 20.9016], [-98.49636, 20.90196], [-98.49575, 20.90223], [-98.49564, 20.90203], [-98.49643, 20.9016]]]}}, {"id": "829551", "type": "Feature", "properties": {"id": "829551", "CVEGEO": "1301400060037005", "POBTOT": 0.0, "score_nse": 0.0, "NSE": null, "VIVTOT": 0.0, "GRAPROES": 0.0, "_ent": "13", "_mun": "014", "_loc": "0006"}, "geometry": {"type": "Polygon", "coordinates": [[[-98.50107, 20.9026], [-98.50083, 20.90274], [-98.5008, 20.90248], [-98.50089, 20.90247], [-98.50107, 20.9026]]]}}, {"id": "829552", "type": "Feature", "properties": {"id": "829552", "CVEGEO": "1301400060037018", "POBTOT": 0.0, "score_nse": 0.0, "NSE": null, "VIVTOT": 0.0, "GRAPROES": 0.0, "_ent": "13", "_mun": "014", "_loc": "0006"}, "geometry": {"type": "Polygon", "coordinates": [[[-98.50066, 20.90283], [-98.50053, 20.90285], [-98.50053, 20.90253], [-98.5006, 20.90251], [-98.50066, 20.90283]]]}}, {"id": "829553", "type": "Feature", "properties": {"id": "829553", "CVEGEO": "1301400060037016", "POBTOT": 0.0, "score_nse": 0.0, "NSE": null, "VIVTOT": 0.0, "GRAPROES": 0.0, "_ent": "13", "_mun": "014", "_loc": "0006"}, "geometry": {"type": "Polygon", "coordinates": [[[-98.50032, 20.90291], [-98.50019, 20.90291], [-98.50017, 20.90276], [-98.5003, 20.90275], [-98.50032, 20.90291]]]}}, {"id": "829554", "type": "Feature", "properties": {"id": "829554", "CVEGEO": "1301400060037015", "POBTOT": 0.0, "score_nse": 0.0, "NSE": null, "VIVTOT": 0.0, "GRAPROES": 0.0, "_ent": "13", "_mun": "014", "_loc": "0006"}, "geometry": {"type": "Polygon", "coordinates": [[[-98.50027, 20.90255], [-98.50017, 20.90274], [-98.50015, 20.90257], [-98.50027, 20.90255]]]}}, {"id": "829555", "type": "Feature", "properties": {"id": "829555", "CVEGEO": "1301400060037019", "POBTOT": 0.0, "score_nse": 0.0, "NSE": null, "VIVTOT": 0.0, "GRAPROES": 0.0, "_ent": "13", "_mun": "014", "_loc": "0006"}, "geometry": {"type": "Polygon", "coordinates": [[[-98.5008, 20.90282], [-98.50067, 20.90283], [-98.50062, 20.90252], [-98.50076, 20.90249], [-98.5008, 20.90282]]]}}, {"id": "829556", "type": "Feature", "properties": {"id": "829556", "CVEGEO": "1301400060037017", "POBTOT": 0.0, "score_nse": 0.0, "NSE": null, "VIVTOT": 0.0, "GRAPROES": 0.0, "_ent": "13", "_mun": "014", "_loc": "0006"}, "geometry": {"type": "Polygon", "coordinates": [[[-98.50052, 20.90284], [-98.50038, 20.90286], [-98.50034, 20.90255], [-98.50051, 20.90253], [-98.50052, 20.90284]]]}}, {"id": "829557", "type": "Feature", "properties": {"id": "829557", "CVEGEO": "1301400060037002", "POBTOT": 0.0, "score_nse": 0.0, "NSE": null, "VIVTOT": 0.0, "GRAPROES": 0.0, "_ent": "13", "_mun": "014", "_loc": "0006"}, "geometry": {"type": "Polygon", "coordinates": [[[-98.50043, 20.90197], [-98.50028, 20.90204], [-98.50004, 20.90162], [-98.49955, 20.90176], [-98.49943, 20.90088], [-98.50007, 20.90042], [-98.50043, 20.90197]]]}}, {"id": "829559", "type": "Feature", "properties": {"id": "829559", "CVEGEO": "1301400060037014", "POBTOT": 0.0, "score_nse": 0.0, "NSE": null, "VIVTOT": 0.0, "GRAPROES": 0.0, "_ent": "13", "_mun": "014", "_loc": "0006"}, "geometry": {"type": "Polygon", "coordinates": [[[-98.50023, 20.90209], [-98.49962, 20.90216], [-98.49955, 20.90184], [-98.50003, 20.90166], [-98.50023, 20.90209]]]}}, {"id": "829637", "type": "Feature", "properties": {"id": "829637", "CVEGEO": "1301400060037013", "POBTOT": 0.0, "score_nse": 0.0, "NSE": null, "VIVTOT": 0.0, "GRAPROES": 0.0, "_ent": "13", "_mun": "014", "_loc": "0006"}, "geometry": {"type": "Polygon", "coordinates": [[[-98.49578, 20.90228], [-98.4955, 20.90241], [-98.4954, 20.90233], [-98.49562, 20.90204], [-98.49578, 20.90228]]]}}, {"id": "829641", "type": "Feature", "properties": {"id": "829641", "CVEGEO": "1301400060037011", "POBTOT": 0.0, "score_nse": 0.0, "NSE": null, "VIVTOT": 0.0, "GRAPROES": 0.0, "_ent": "13", "_mun": "014", "_loc": "0006"}, "geometry": {"type": "Polygon", "coordinates": [[[-98.49633, 20.90199], [-98.49603, 20.90298], [-98.49579, 20.90324], [-98.49505, 20.90319], [-98.49362, 20.90351], [-98.4936, 20.90326], [-98.49431, 20.90272], [-98.49548, 20.90284], [-98.49593, 20.90215], [-98.49633, 20.90199]]]}}, {"id": "829642", "type": "Feature", "properties": {"id": "829642", "CVEGEO": "1301400060037012", "POBTOT": 0.0, "score_nse": 0.0, "NSE": null, "VIVTOT": 0.0, "GRAPROES": 0.0, "_ent": "13", "_mun": "014", "_loc": "0006"}, "geometry": {"type": "Polygon", "coordinates": [[[-98.49469, 20.90171], [-98.49465, 20.90245], [-98.49457, 20.90256], [-98.4944, 20.90227], [-98.49455, 20.90258], [-98.49419, 20.90271], [-98.49403, 20.90243], [-98.49416, 20.90185], [-98.49406, 20.90164], [-98.49469, 20.90171]]]}}, {"id": "829643", "type": "Feature", "properties": {"id": "829643", "CVEGEO": "1301400060037004", "POBTOT": 0.0, "score_nse": 0.0, "NSE": null, "VIVTOT": 0.0, "GRAPROES": 0.0, "_ent": "13", "_mun": "014", "_loc": "0006"}, "geometry": {"type": "Polygon", "coordinates": [[[-98.49964, 20.89954], [-98.49777, 20.90019], [-98.4982, 20.90075], [-98.4974, 20.90107], [-98.49714, 20.90149], [-98.49593, 20.90164], [-98.49577, 20.90145], [-98.49622, 20.9006], [-98.49626, 20.90037], [-98.4962, 20.90029], [-98.49617, 20.90059], [-98.4957, 20.90132], [-98.49571, 20.90144], [-98.49589, 20.90166], [-98.49606, 20.90167], [-98.49543, 20.9022], [-98.49524, 20.90208], [-98.49508, 20.90099], [-98.49563, 20.9007], [-98.49619, 20.89958], [-98.49705, 20.89952], [-98.49793, 20.89931], [-98.49851, 20.89897], [-98.49908, 20.89895], [-98.49964, 20.89954]]]}}, {"id": "829646", "type": "Feature", "properties": {"id": "829646", "CVEGEO": "1301400060037025", "POBTOT": 0.0, "score_nse": 0.0, "NSE": null, "VIVTOT": 0.0, "GRAPROES": 0.0, "_ent": "13", "_mun": "014", "_loc": "0006"}, "geometry": {"type": "Polygon", "coordinates": [[[-98.49565, 20.90249], [-98.49542, 20.90283], [-98.49461, 20.90259], [-98.49477, 20.90238], [-98.49523, 20.90262], [-98.49565, 20.90249]]]}}, {"id": "829647", "type": "Feature", "properties": {"id": "829647", "CVEGEO": "1301400060037027", "POBTOT": 0.0, "score_nse": 0.0, "NSE": null, "VIVTOT": 0.0, "GRAPROES": 0.0, "_ent": "13", "_mun": "014", "_loc": "0006"}, "geometry": {"type": "Polygon", "coordinates": [[[-98.49556, 20.90255], [-98.49525, 20.9026], [-98.49487, 20.90236], [-98.49521, 20.90237], [-98.49556, 20.90255]]]}}, {"id": "829648", "type": "Feature", "properties": {"id": "829648", "CVEGEO": "1301400060037028", "POBTOT": 0.0, "score_nse": 0.0, "NSE": null, "VIVTOT": 0.0, "GRAPROES": 0.0, "_ent": "13", "_mun": "014", "_loc": "0006"}, "geometry": {"type": "Polygon", "coordinates": [[[-98.49569, 20.9024], [-98.49539, 20.90249], [-98.49524, 20.90236], [-98.4955, 20.90243], [-98.49569, 20.9024]]]}}, {"id": "829650", "type": "Feature", "properties": {"id": "829650", "CVEGEO": "1301400060037024", "POBTOT": 0.0, "score_nse": 0.0, "NSE": null, "VIVTOT": 0.0, "GRAPROES": 0.0, "_ent": "13", "_mun": "014", "_loc": "0006"}, "geometry": {"type": "Polygon", "coordinates": [[[-98.49541, 20.90225], [-98.49474, 20.90234], [-98.4948, 20.90187], [-98.49493, 20.90177], [-98.49541, 20.90225]]]}}, {"id": "829651", "type": "Feature", "properties": {"id": "829651", "CVEGEO": "1301400060037023", "POBTOT": 0.0, "score_nse": 0.0, "NSE": null, "VIVTOT": 0.0, "GRAPROES": 0.0, "_ent": "13", "_mun": "014", "_loc": "0006"}, "geometry": {"type": "Polygon", "coordinates": [[[-98.49519, 20.90165], [-98.49515, 20.90195], [-98.49509, 20.90198], [-98.49509, 20.90184], [-98.49494, 20.90187], [-98.49495, 20.90158], [-98.49519, 20.90165]]]}}, {"id": "829652", "type": "Feature", "properties": {"id": "829652", "CVEGEO": "1301400060037020", "POBTOT": 0.0, "score_nse": 0.0, "NSE": null, "VIVTOT": 0.0, "GRAPROES": 0.0, "_ent": "13", "_mun": "014", "_loc": "0006"}, "geometry": {"type": "Polygon", "coordinates": [[[-98.50006, 20.90037], [-98.49829, 20.90068], [-98.49787, 20.90021], [-98.49963, 20.89961], [-98.50006, 20.90037]]]}}, {"id": "829654", "type": "Feature", "properties": {"id": "829654", "CVEGEO": "1301400060037030", "POBTOT": 0.0, "score_nse": 0.0, "NSE": null, "VIVTOT": 0.0, "GRAPROES": 0.0, "_ent": "13", "_mun": "014", "_loc": "0006"}, "geometry": {"type": "Polygon", "coordinates": [[[-98.49973, 20.90052], [-98.4993, 20.90097], [-98.4991, 20.90056], [-98.49937, 20.9005], [-98.49973, 20.90052]]]}}, {"id": "829655", "type": "Feature", "properties": {"id": "829655", "CVEGEO": "1301400060037029", "POBTOT": 0.0, "score_nse": 0.0, "NSE": null, "VIVTOT": 0.0, "GRAPROES": 0.0, "_ent": "13", "_mun": "014", "_loc": "0006"}, "geometry": {"type": "Polygon", "coordinates": [[[-98.49517, 20.90163], [-98.49496, 20.90156], [-98.49501, 20.90119], [-98.49513, 20.90149], [-98.49517, 20.90163]]]}}, {"id": "829656", "type": "Feature", "properties": {"id": "829656", "CVEGEO": "1301400060037026", "POBTOT": 0.0, "score_nse": 0.0, "NSE": null, "VIVTOT": 0.0, "GRAPROES": 0.0, "_ent": "13", "_mun": "014", "_loc": "0006"}, "geometry": {"type": "Polygon", "coordinates": [[[-98.50017, 20.90292], [-98.49951, 20.90312], [-98.49944, 20.90299], [-98.49952, 20.90266], [-98.50011, 20.90258], [-98.50017, 20.90292]]]}}, {"id": "829657", "type": "Feature", "properties": {"id": "829657", "CVEGEO": "1301400060037022", "POBTOT": 0.0, "score_nse": 0.0, "NSE": null, "VIVTOT": 0.0, "GRAPROES": 0.0, "_ent": "13", "_mun": "014", "_loc": "0006"}, "geometry": {"type": "Polygon", "coordinates": [[[-98.4984, 20.90189], [-98.49777, 20.90162], [-98.49747, 20.9011], [-98.49821, 20.9008], [-98.49851, 20.9015], [-98.4984, 20.90189]]]}}, {"id": "829723", "type": "Feature", "properties": {"id": "829723", "CVEGEO": "1301400060037021", "POBTOT": 0.0, "score_nse": 0.0, "NSE": null, "VIVTOT": 0.0, "GRAPROES": 0.0, "_ent": "13", "_mun": "014", "_loc": "0006"}, "geometry": {"type": "Polygon", "coordinates": [[[-98.49927, 20.90099], [-98.49905, 20.9016], [-98.49878, 20.90165], [-98.49865, 20.9012], [-98.49872, 20.90164], [-98.4985, 20.90171], [-98.49848, 20.90124], [-98.49823, 20.90078], [-98.49903, 20.90057], [-98.49927, 20.90099]]]}}]}