{"type": "FeatureCollection", "features": [{"id": "1663650", "type": "Feature", "properties": {"id": "1663650", "CVEGEO": "2106800130013003", "POBTOT": 0.0, "score_nse": 0.0, "NSE": null, "VIVTOT": 0.0, "GRAPROES": 0.0, "_ent": "21", "_mun": "068", "_loc": "0013"}, "geometry": {"type": "Polygon", "coordinates": [[[-97.7075, 20.13017], [-97.70777, 20.13068], [-97.70769, 20.13118], [-97.7073, 20.1309], [-97.7071, 20.13047], [-97.7075, 20.13017]]]}}, {"id": "1663666", "type": "Feature", "properties": {"id": "1663666", "CVEGEO": "2106800130013002", "POBTOT": 0.0, "score_nse": 0.0, "NSE": null, "VIVTOT": 0.0, "GRAPROES": 0.0, "_ent": "21", "_mun": "068", "_loc": "0013"}, "geometry": {"type": "Polygon", "coordinates": [[[-97.70732, 20.13293], [-97.70758, 20.13208], [-97.70788, 20.13189], [-97.70829, 20.13243], [-97.70834, 20.13279], [-97.70732, 20.13293]]]}}, {"id": "1663667", "type": "Feature", "properties": {"id": "1663667", "CVEGEO": "2106800130013001", "POBTOT": 0.0, "score_nse": 0.0, "NSE": null, "VIVTOT": 0.0, "GRAPROES": 0.0, "_ent": "21", "_mun": "068", "_loc": "0013"}, "geometry": {"type": "Polygon", "coordinates": [[[-97.70777, 20.13069], [-97.70837, 20.13144], [-97.70832, 20.13238], [-97.70786, 20.13168], [-97.70777, 20.13069]]]}}, {"id": "1663722", "type": "Feature", "properties": {"id": "1663722", "CVEGEO": "2106800130013005", "POBTOT": 0.0, "score_nse": 0.0, "NSE": null, "VIVTOT": 0.0, "GRAPROES": 0.0, "_ent": "21", "_mun": "068", "_loc": "0013"}, "geometry": {"type": "Polygon", "coordinates": [[[-97.70724, 20.13399], [-97.70733, 20.13343], [-97.70792, 20.13362], [-97.70724, 20.13399]]]}}, {"id": "1663723", "type": "Feature", "properties": {"id": "1663723", "CVEGEO": "2106800130013004", "POBTOT": 0.0, "score_nse": 0.0, "NSE": null, "VIVTOT": 0.0, "GRAPROES": 0.0, "_ent": "21", "_mun": "068", "_loc": "0013"}, "geometry": {"type": "Polygon", "coordinates": [[[-97.70732, 20.13341], [-97.70733, 20.13305], [-97.7075, 20.13292], [-97.70832, 20.1329], [-97.70843, 20.13313], [-97.70794, 20.1336], [-97.70732, 20.13341]]]}}]}