{"type": "FeatureCollection", "features": [{"id": "409001", "type": "Feature", "properties": {"id": "409001", "CVEGEO": "0801002761209022", "POBTOT": 0.0, "score_nse": 0.0, "NSE": null, "VIVTOT": 0.0, "GRAPROES": 0.0, "_ent": "08", "_mun": "010", "_loc": "0276"}, "geometry": {"type": "Polygon", "coordinates": [[[-107.33751, 30.10103], [-107.33605, 30.10105], [-107.33605, 30.09976], [-107.33748, 30.09974], [-107.33751, 30.10103]]]}}, {"id": "409002", "type": "Feature", "properties": {"id": "409002", "CVEGEO": "0801002761209021", "POBTOT": 0.0, "score_nse": 0.0, "NSE": null, "VIVTOT": 0.0, "GRAPROES": 0.0, "_ent": "08", "_mun": "010", "_loc": "0276"}, "geometry": {"type": "Polygon", "coordinates": [[[-107.33748, 30.09832], [-107.33754, 30.09956], [-107.33609, 30.09958], [-107.33607, 30.09836], [-107.33748, 30.09832]]]}}, {"id": "409003", "type": "Feature", "properties": {"id": "409003", "CVEGEO": "0801002761209020", "POBTOT": 0.0, "score_nse": 0.0, "NSE": null, "VIVTOT": 0.0, "GRAPROES": 0.0, "_ent": "08", "_mun": "010", "_loc": "0276"}, "geometry": {"type": "Polygon", "coordinates": [[[-107.33748, 30.09816], [-107.33603, 30.09822], [-107.33602, 30.09691], [-107.33746, 30.09689], [-107.33748, 30.09816]]]}}, {"id": "409004", "type": "Feature", "properties": {"id": "409004", "CVEGEO": "0801002761209019", "POBTOT": 0.0, "score_nse": 0.0, "NSE": null, "VIVTOT": 0.0, "GRAPROES": 0.0, "_ent": "08", "_mun": "010", "_loc": "0276"}, "geometry": {"type": "Polygon", "coordinates": [[[-107.33608, 30.09663], [-107.33603, 30.09501], [-107.33722, 30.09599], [-107.33719, 30.09662], [-107.33608, 30.09663]]]}}, {"id": "409005", "type": "Feature", "properties": {"id": "409005", "CVEGEO": "0801002761209008", "POBTOT": 0.0, "score_nse": 0.0, "NSE": null, "VIVTOT": 0.0, "GRAPROES": 0.0, "_ent": "08", "_mun": "010", "_loc": "0276"}, "geometry": {"type": "Polygon", "coordinates": [[[-107.33428, 30.10253], [-107.33127, 30.10245], [-107.33123, 30.10132], [-107.33427, 30.10126], [-107.33428, 30.10253]]]}}, {"id": "409006", "type": "Feature", "properties": {"id": "409006", "CVEGEO": "0801002761209007", "POBTOT": 0.0, "score_nse": 0.0, "NSE": null, "VIVTOT": 0.0, "GRAPROES": 0.0, "_ent": "08", "_mun": "010", "_loc": "0276"}, "geometry": {"type": "Polygon", "coordinates": [[[-107.33446, 30.10306], [-107.33443, 30.10127], [-107.33584, 30.10124], [-107.33588, 30.10303], [-107.33446, 30.10306]]]}}, {"id": "409007", "type": "Feature", "properties": {"id": "409007", "CVEGEO": "0801002761209023", "POBTOT": 0.0, "score_nse": 0.0, "NSE": null, "VIVTOT": 0.0, "GRAPROES": 0.0, "_ent": "08", "_mun": "010", "_loc": "0276"}, "geometry": {"type": "Polygon", "coordinates": [[[-107.33611, 30.10303], [-107.33607, 30.10125], [-107.33749, 30.1012], [-107.33753, 30.10301], [-107.33611, 30.10303]]]}}, {"id": "409174", "type": "Feature", "properties": {"id": "409174", "CVEGEO": "0801002761209009", "POBTOT": 0.0, "score_nse": 0.0, "NSE": null, "VIVTOT": 0.0, "GRAPROES": 0.0, "_ent": "08", "_mun": "010", "_loc": "0276"}, "geometry": {"type": "Polygon", "coordinates": [[[-107.32948, 30.09967], [-107.32946, 30.0984], [-107.33091, 30.09837], [-107.33094, 30.09964], [-107.32948, 30.09967]]]}}, {"id": "409196", "type": "Feature", "properties": {"id": "409196", "CVEGEO": "0801002761209010", "POBTOT": 0.0, "score_nse": 0.0, "NSE": null, "VIVTOT": 0.0, "GRAPROES": 0.0, "_ent": "08", "_mun": "010", "_loc": "0276"}, "geometry": {"type": "Polygon", "coordinates": [[[-107.33091, 30.09822], [-107.32952, 30.09824], [-107.32948, 30.09691], [-107.33083, 30.09691], [-107.33091, 30.09822]]]}}, {"id": "409303", "type": "Feature", "properties": {"id": "409303", "CVEGEO": "0801002761209024", "POBTOT": 0.0, "score_nse": 0.0, "NSE": null, "VIVTOT": 0.0, "GRAPROES": 0.0, "_ent": "08", "_mun": "010", "_loc": "0276"}, "geometry": {"type": "Polygon", "coordinates": [[[-107.33614, 30.10444], [-107.3361, 30.1032], [-107.33753, 30.10318], [-107.33755, 30.1044], [-107.33614, 30.10444]]]}}, {"id": "409312", "type": "Feature", "properties": {"id": "409312", "CVEGEO": "0801002761209026", "POBTOT": 0.0, "score_nse": 0.0, "NSE": null, "VIVTOT": 0.0, "GRAPROES": 0.0, "_ent": "08", "_mun": "010", "_loc": "0276"}, "geometry": {"type": "Polygon", "coordinates": [[[-107.33307, 30.10598], [-107.33276, 30.10467], [-107.33423, 30.10464], [-107.33425, 30.10524], [-107.33366, 30.10524], [-107.33367, 30.10538], [-107.33427, 30.10539], [-107.3343, 30.10596], [-107.33307, 30.10598]]]}}, {"id": "409330", "type": "Feature", "properties": {"id": "409330", "CVEGEO": "0801002761209017", "POBTOT": 0.0, "score_nse": 0.0, "NSE": null, "VIVTOT": 0.0, "GRAPROES": 0.0, "_ent": "08", "_mun": "010", "_loc": "0276"}, "geometry": {"type": "Polygon", "coordinates": [[[-107.32932, 30.0997], [-107.32869, 30.09974], [-107.32864, 30.09846], [-107.32928, 30.09843], [-107.32932, 30.0997]]]}}, {"id": "409332", "type": "Feature", "properties": {"id": "409332", "CVEGEO": "0801002761209027", "POBTOT": 0.0, "score_nse": 0.0, "NSE": null, "VIVTOT": 0.0, "GRAPROES": 0.0, "_ent": "08", "_mun": "010", "_loc": "0276"}, "geometry": {"type": "Polygon", "coordinates": [[[-107.33123, 30.10604], [-107.33127, 30.10263], [-107.33174, 30.10262], [-107.33198, 30.10268], [-107.33282, 30.10604], [-107.33123, 30.10604]]]}}, {"id": "409333", "type": "Feature", "properties": {"id": "409333", "CVEGEO": "0801002761209025", "POBTOT": 0.0, "score_nse": 0.0, "NSE": null, "VIVTOT": 0.0, "GRAPROES": 0.0, "_ent": "08", "_mun": "010", "_loc": "0276"}, "geometry": {"type": "Polygon", "coordinates": [[[-107.33612, 30.10591], [-107.33609, 30.10464], [-107.3375, 30.10462], [-107.33755, 30.1059], [-107.33612, 30.10591]]]}}, {"id": "409334", "type": "Feature", "properties": {"id": "409334", "CVEGEO": "0801002761209006", "POBTOT": 0.0, "score_nse": 0.0, "NSE": null, "VIVTOT": 0.0, "GRAPROES": 0.0, "_ent": "08", "_mun": "010", "_loc": "0276"}, "geometry": {"type": "Polygon", "coordinates": [[[-107.33589, 30.10103], [-107.33444, 30.10105], [-107.33441, 30.09976], [-107.33588, 30.09975], [-107.33589, 30.10103]]]}}, {"id": "409335", "type": "Feature", "properties": {"id": "409335", "CVEGEO": "0801002761209005", "POBTOT": 0.0, "score_nse": 0.0, "NSE": null, "VIVTOT": 0.0, "GRAPROES": 0.0, "_ent": "08", "_mun": "010", "_loc": "0276"}, "geometry": {"type": "Polygon", "coordinates": [[[-107.33587, 30.09834], [-107.33589, 30.09961], [-107.33447, 30.09963], [-107.33445, 30.09836], [-107.33587, 30.09834]]]}}, {"id": "409336", "type": "Feature", "properties": {"id": "409336", "CVEGEO": "0801002761209004", "POBTOT": 0.0, "score_nse": 0.0, "NSE": null, "VIVTOT": 0.0, "GRAPROES": 0.0, "_ent": "08", "_mun": "010", "_loc": "0276"}, "geometry": {"type": "Polygon", "coordinates": [[[-107.33424, 30.09962], [-107.33279, 30.09965], [-107.33277, 30.09838], [-107.33422, 30.09835], [-107.33424, 30.09962]]]}}, {"id": "409337", "type": "Feature", "properties": {"id": "409337", "CVEGEO": "0801002761209003", "POBTOT": 0.0, "score_nse": 0.0, "NSE": null, "VIVTOT": 0.0, "GRAPROES": 0.0, "_ent": "08", "_mun": "010", "_loc": "0276"}, "geometry": {"type": "Polygon", "coordinates": [[[-107.33256, 30.09964], [-107.33115, 30.09965], [-107.33113, 30.09838], [-107.33252, 30.09838], [-107.33256, 30.09964]]]}}, {"id": "409338", "type": "Feature", "properties": {"id": "409338", "CVEGEO": "0801002761209002", "POBTOT": 0.0, "score_nse": 0.0, "NSE": null, "VIVTOT": 0.0, "GRAPROES": 0.0, "_ent": "08", "_mun": "010", "_loc": "0276"}, "geometry": {"type": "Polygon", "coordinates": [[[-107.3326, 30.10108], [-107.33121, 30.1011], [-107.33118, 30.09979], [-107.33257, 30.09979], [-107.3326, 30.10108]]]}}, {"id": "409339", "type": "Feature", "properties": {"id": "409339", "CVEGEO": "0801002761209001", "POBTOT": 0.0, "score_nse": 0.0, "NSE": null, "VIVTOT": 0.0, "GRAPROES": 0.0, "_ent": "08", "_mun": "010", "_loc": "0276"}, "geometry": {"type": "Polygon", "coordinates": [[[-107.33425, 30.10105], [-107.33282, 30.10109], [-107.3328, 30.0998], [-107.33417, 30.09977], [-107.33425, 30.10105]]]}}, {"id": "409620", "type": "Feature", "properties": {"id": "409620", "CVEGEO": "0801002761209016", "POBTOT": 0.0, "score_nse": 0.0, "NSE": null, "VIVTOT": 0.0, "GRAPROES": 0.0, "_ent": "08", "_mun": "010", "_loc": "0276"}, "geometry": {"type": "Polygon", "coordinates": [[[-107.33425, 30.10445], [-107.33271, 30.10449], [-107.33215, 30.10271], [-107.33421, 30.1027], [-107.33423, 30.10308], [-107.33361, 30.10309], [-107.33362, 30.10322], [-107.33421, 30.10322], [-107.33425, 30.10445]]]}}, {"id": "409621", "type": "Feature", "properties": {"id": "409621", "CVEGEO": "0801002761209015", "POBTOT": 0.0, "score_nse": 0.0, "NSE": null, "VIVTOT": 0.0, "GRAPROES": 0.0, "_ent": "08", "_mun": "010", "_loc": "0276"}, "geometry": {"type": "Polygon", "coordinates": [[[-107.33451, 30.10593], [-107.33448, 30.10467], [-107.3359, 30.10463], [-107.33598, 30.1059], [-107.33451, 30.10593]]]}}, {"id": "409622", "type": "Feature", "properties": {"id": "409622", "CVEGEO": "0801002761209014", "POBTOT": 0.0, "score_nse": 0.0, "NSE": null, "VIVTOT": 0.0, "GRAPROES": 0.0, "_ent": "08", "_mun": "010", "_loc": "0276"}, "geometry": {"type": "Polygon", "coordinates": [[[-107.33447, 30.10445], [-107.33445, 30.10317], [-107.33589, 30.10315], [-107.33593, 30.10442], [-107.33447, 30.10445]]]}}, {"id": "409623", "type": "Feature", "properties": {"id": "409623", "CVEGEO": "0801002761209013", "POBTOT": 0.0, "score_nse": 0.0, "NSE": null, "VIVTOT": 0.0, "GRAPROES": 0.0, "_ent": "08", "_mun": "010", "_loc": "0276"}, "geometry": {"type": "Polygon", "coordinates": [[[-107.33586, 30.09816], [-107.33446, 30.09817], [-107.33446, 30.09689], [-107.33587, 30.0969], [-107.33586, 30.09816]]]}}, {"id": "409624", "type": "Feature", "properties": {"id": "409624", "CVEGEO": "0801002761209012", "POBTOT": 0.0, "score_nse": 0.0, "NSE": null, "VIVTOT": 0.0, "GRAPROES": 0.0, "_ent": "08", "_mun": "010", "_loc": "0276"}, "geometry": {"type": "Polygon", "coordinates": [[[-107.3342, 30.09818], [-107.3328, 30.09821], [-107.33277, 30.09688], [-107.33419, 30.09688], [-107.3342, 30.09818]]]}}, {"id": "409625", "type": "Feature", "properties": {"id": "409625", "CVEGEO": "0801002761209011", "POBTOT": 0.0, "score_nse": 0.0, "NSE": null, "VIVTOT": 0.0, "GRAPROES": 0.0, "_ent": "08", "_mun": "010", "_loc": "0276"}, "geometry": {"type": "Polygon", "coordinates": [[[-107.33256, 30.0982], [-107.33112, 30.09821], [-107.33109, 30.09691], [-107.33256, 30.09691], [-107.33256, 30.0982]]]}}, {"id": "409847", "type": "Feature", "properties": {"id": "409847", "CVEGEO": "0801002761209041", "POBTOT": 0.0, "score_nse": 0.0, "NSE": null, "VIVTOT": 0.0, "GRAPROES": 0.0, "_ent": "08", "_mun": "010", "_loc": "0276"}, "geometry": {"type": "Polygon", "coordinates": [[[-107.35927, 30.09955], [-107.35927, 30.10079], [-107.35697, 30.1008], [-107.35697, 30.09951], [-107.35927, 30.09955]]]}}, {"id": "409848", "type": "Feature", "properties": {"id": "409848", "CVEGEO": "0801002761209057", "POBTOT": 0.0, "score_nse": 0.0, "NSE": null, "VIVTOT": 0.0, "GRAPROES": 0.0, "_ent": "08", "_mun": "010", "_loc": "0276"}, "geometry": {"type": "Polygon", "coordinates": [[[-107.36455, 30.08768], [-107.36516, 30.0876], [-107.36528, 30.08772], [-107.36526, 30.09104], [-107.36459, 30.09102], [-107.36455, 30.08768]]]}}, {"id": "409849", "type": "Feature", "properties": {"id": "409849", "CVEGEO": "0801002761209018", "POBTOT": 0.0, "score_nse": 0.0, "NSE": null, "VIVTOT": 0.0, "GRAPROES": 0.0, "_ent": "08", "_mun": "010", "_loc": "0276"}, "geometry": {"type": "Polygon", "coordinates": [[[-107.32934, 30.09828], [-107.32745, 30.09831], [-107.32616, 30.09697], [-107.32929, 30.09693], [-107.32934, 30.09828]]]}}, {"id": "409850", "type": "Feature", "properties": {"id": "409850", "CVEGEO": "0801002761209047", "POBTOT": 0.0, "score_nse": 0.0, "NSE": null, "VIVTOT": 0.0, "GRAPROES": 0.0, "_ent": "08", "_mun": "010", "_loc": "0276"}, "geometry": {"type": "Polygon", "coordinates": [[[-107.35488, 30.09676], [-107.35484, 30.08769], [-107.35893, 30.08767], [-107.35891, 30.09535], [-107.36155, 30.09536], [-107.36156, 30.09671], [-107.35488, 30.09676]]]}}, {"id": "409851", "type": "Feature", "properties": {"id": "409851", "CVEGEO": "0801002761209052", "POBTOT": 0.0, "score_nse": 0.0, "NSE": null, "VIVTOT": 0.0, "GRAPROES": 0.0, "_ent": "08", "_mun": "010", "_loc": "0276"}, "geometry": {"type": "Polygon", "coordinates": [[[-107.36539, 30.0911], [-107.36698, 30.09115], [-107.36695, 30.09431], [-107.36536, 30.09428], [-107.36539, 30.0911]]]}}, {"id": "409852", "type": "Feature", "properties": {"id": "409852", "CVEGEO": "0801002761209067", "POBTOT": 0.0, "score_nse": 0.0, "NSE": null, "VIVTOT": 0.0, "GRAPROES": 0.0, "_ent": "08", "_mun": "010", "_loc": "0276"}, "geometry": {"type": "Polygon", "coordinates": [[[-107.36763, 30.07363], [-107.36604, 30.07367], [-107.3663, 30.06919], [-107.36782, 30.06922], [-107.36763, 30.07363]]]}}, {"id": "409853", "type": "Feature", "properties": {"id": "409853", "CVEGEO": "0801002761209065", "POBTOT": 0.0, "score_nse": 0.0, "NSE": null, "VIVTOT": 0.0, "GRAPROES": 0.0, "_ent": "08", "_mun": "010", "_loc": "0276"}, "geometry": {"type": "Polygon", "coordinates": [[[-107.36721, 30.08283], [-107.36561, 30.08289], [-107.36584, 30.07838], [-107.36742, 30.07843], [-107.36721, 30.08283]]]}}, {"id": "409854", "type": "Feature", "properties": {"id": "409854", "CVEGEO": "0801002761209044", "POBTOT": 0.0, "score_nse": 0.0, "NSE": null, "VIVTOT": 0.0, "GRAPROES": 0.0, "_ent": "08", "_mun": "010", "_loc": "0276"}, "geometry": {"type": "Polygon", "coordinates": [[[-107.35928, 30.09935], [-107.35699, 30.09941], [-107.35693, 30.09822], [-107.35926, 30.09816], [-107.35928, 30.09935]]]}}, {"id": "409855", "type": "Feature", "properties": {"id": "409855", "CVEGEO": "0801002761209045", "POBTOT": 0.0, "score_nse": 0.0, "NSE": null, "VIVTOT": 0.0, "GRAPROES": 0.0, "_ent": "08", "_mun": "010", "_loc": "0276"}, "geometry": {"type": "Polygon", "coordinates": [[[-107.35698, 30.09686], [-107.35929, 30.09683], [-107.35929, 30.09807], [-107.35696, 30.09813], [-107.35698, 30.09686]]]}}, {"id": "409856", "type": "Feature", "properties": {"id": "409856", "CVEGEO": "0801002761209063", "POBTOT": 0.0, "score_nse": 0.0, "NSE": null, "VIVTOT": 0.0, "GRAPROES": 0.0, "_ent": "08", "_mun": "010", "_loc": "0276"}, "geometry": {"type": "Polygon", "coordinates": [[[-107.3657, 30.09655], [-107.36383, 30.09809], [-107.36293, 30.09931], [-107.36257, 30.09938], [-107.36263, 30.09682], [-107.3657, 30.09655]]]}}, {"id": "409858", "type": "Feature", "properties": {"id": "409858", "CVEGEO": "0801002761209048", "POBTOT": 0.0, "score_nse": 0.0, "NSE": null, "VIVTOT": 0.0, "GRAPROES": 0.0, "_ent": "08", "_mun": "010", "_loc": "0276"}, "geometry": {"type": "Polygon", "coordinates": [[[-107.36165, 30.09523], [-107.36166, 30.09394], [-107.36452, 30.09398], [-107.36448, 30.09527], [-107.36165, 30.09523]]]}}, {"id": "409859", "type": "Feature", "properties": {"id": "409859", "CVEGEO": "0801002761209062", "POBTOT": 0.0, "score_nse": 0.0, "NSE": null, "VIVTOT": 0.0, "GRAPROES": 0.0, "_ent": "08", "_mun": "010", "_loc": "0276"}, "geometry": {"type": "Polygon", "coordinates": [[[-107.36896, 30.08736], [-107.36884, 30.08751], [-107.36707, 30.08746], [-107.36738, 30.08297], [-107.36914, 30.08303], [-107.36896, 30.08736]]]}}, {"id": "409860", "type": "Feature", "properties": {"id": "409860", "CVEGEO": "0801002761209061", "POBTOT": 0.0, "score_nse": 0.0, "NSE": null, "VIVTOT": 0.0, "GRAPROES": 0.0, "_ent": "08", "_mun": "010", "_loc": "0276"}, "geometry": {"type": "Polygon", "coordinates": [[[-107.36719, 30.08777], [-107.37064, 30.08774], [-107.3706, 30.08908], [-107.36712, 30.08908], [-107.36719, 30.08777]]]}}, {"id": "409861", "type": "Feature", "properties": {"id": "409861", "CVEGEO": "0801002761209064", "POBTOT": 0.0, "score_nse": 0.0, "NSE": null, "VIVTOT": 0.0, "GRAPROES": 0.0, "_ent": "08", "_mun": "010", "_loc": "0276"}, "geometry": {"type": "Polygon", "coordinates": [[[-107.36698, 30.08743], [-107.36537, 30.08747], [-107.36565, 30.08296], [-107.36721, 30.083], [-107.36698, 30.08743]]]}}, {"id": "409862", "type": "Feature", "properties": {"id": "409862", "CVEGEO": "0801002761209066", "POBTOT": 0.0, "score_nse": 0.0, "NSE": null, "VIVTOT": 0.0, "GRAPROES": 0.0, "_ent": "08", "_mun": "010", "_loc": "0276"}, "geometry": {"type": "Polygon", "coordinates": [[[-107.36742, 30.07826], [-107.36579, 30.0783], [-107.36607, 30.07377], [-107.36764, 30.07383], [-107.36742, 30.07826]]]}}, {"id": "409863", "type": "Feature", "properties": {"id": "409863", "CVEGEO": "0801002761209040", "POBTOT": 0.0, "score_nse": 0.0, "NSE": null, "VIVTOT": 0.0, "GRAPROES": 0.0, "_ent": "08", "_mun": "010", "_loc": "0276"}, "geometry": {"type": "Polygon", "coordinates": [[[-107.36086, 30.10021], [-107.36044, 30.10114], [-107.3594, 30.10131], [-107.35939, 30.09953], [-107.36082, 30.09953], [-107.36086, 30.10021]]]}}, {"id": "409864", "type": "Feature", "properties": {"id": "409864", "CVEGEO": "0801002761209039", "POBTOT": 0.0, "score_nse": 0.0, "NSE": null, "VIVTOT": 0.0, "GRAPROES": 0.0, "_ent": "08", "_mun": "010", "_loc": "0276"}, "geometry": {"type": "Polygon", "coordinates": [[[-107.35916, 30.1009], [-107.35778, 30.10171], [-107.35699, 30.10195], [-107.357, 30.10091], [-107.35916, 30.1009]]]}}, {"id": "409865", "type": "Feature", "properties": {"id": "409865", "CVEGEO": "0801002761209042", "POBTOT": 0.0, "score_nse": 0.0, "NSE": null, "VIVTOT": 0.0, "GRAPROES": 0.0, "_ent": "08", "_mun": "010", "_loc": "0276"}, "geometry": {"type": "Polygon", "coordinates": [[[-107.36098, 30.09939], [-107.36096, 30.09687], [-107.36245, 30.09683], [-107.3625, 30.09932], [-107.36098, 30.09939]]]}}, {"id": "409871", "type": "Feature", "properties": {"id": "409871", "CVEGEO": "0801002761209033", "POBTOT": 0.0, "score_nse": 0.0, "NSE": null, "VIVTOT": 0.0, "GRAPROES": 0.0, "_ent": "08", "_mun": "010", "_loc": "0276"}, "geometry": {"type": "Polygon", "coordinates": [[[-107.34204, 30.09223], [-107.34339, 30.09223], [-107.3434, 30.0937], [-107.34204, 30.0937], [-107.34204, 30.09223]]]}}, {"id": "409872", "type": "Feature", "properties": {"id": "409872", "CVEGEO": "0801002761209032", "POBTOT": 0.0, "score_nse": 0.0, "NSE": null, "VIVTOT": 0.0, "GRAPROES": 0.0, "_ent": "08", "_mun": "010", "_loc": "0276"}, "geometry": {"type": "Polygon", "coordinates": [[[-107.34204, 30.0952], [-107.34204, 30.09377], [-107.34339, 30.09376], [-107.34342, 30.09523], [-107.34204, 30.0952]]]}}, {"id": "409873", "type": "Feature", "properties": {"id": "409873", "CVEGEO": "0801002761209060", "POBTOT": 0.0, "score_nse": 0.0, "NSE": null, "VIVTOT": 0.0, "GRAPROES": 0.0, "_ent": "08", "_mun": "010", "_loc": "0276"}, "geometry": {"type": "Polygon", "coordinates": [[[-107.37062, 30.08925], [-107.37057, 30.09196], [-107.36707, 30.09194], [-107.3671, 30.08917], [-107.37062, 30.08925]]]}}, {"id": "409874", "type": "Feature", "properties": {"id": "409874", "CVEGEO": "0801002761209037", "POBTOT": 0.0, "score_nse": 0.0, "NSE": null, "VIVTOT": 0.0, "GRAPROES": 0.0, "_ent": "08", "_mun": "010", "_loc": "0276"}, "geometry": {"type": "Polygon", "coordinates": [[[-107.34498, 30.09529], [-107.34635, 30.09528], [-107.34635, 30.09682], [-107.34499, 30.09682], [-107.34498, 30.09529]]]}}, {"id": "409875", "type": "Feature", "properties": {"id": "409875", "CVEGEO": "0801002761209036", "POBTOT": 0.0, "score_nse": 0.0, "NSE": null, "VIVTOT": 0.0, "GRAPROES": 0.0, "_ent": "08", "_mun": "010", "_loc": "0276"}, "geometry": {"type": "Polygon", "coordinates": [[[-107.3449, 30.09529], [-107.34492, 30.09682], [-107.34353, 30.0968], [-107.34351, 30.0953], [-107.3449, 30.09529]]]}}, {"id": "409876", "type": "Feature", "properties": {"id": "409876", "CVEGEO": "0801002761209035", "POBTOT": 0.0, "score_nse": 0.0, "NSE": null, "VIVTOT": 0.0, "GRAPROES": 0.0, "_ent": "08", "_mun": "010", "_loc": "0276"}, "geometry": {"type": "Polygon", "coordinates": [[[-107.3435, 30.09376], [-107.34489, 30.09375], [-107.3449, 30.09523], [-107.34351, 30.09523], [-107.3435, 30.09376]]]}}, {"id": "409877", "type": "Feature", "properties": {"id": "409877", "CVEGEO": "0801002761209038", "POBTOT": 0.0, "score_nse": 0.0, "NSE": null, "VIVTOT": 0.0, "GRAPROES": 0.0, "_ent": "08", "_mun": "010", "_loc": "0276"}, "geometry": {"type": "Polygon", "coordinates": [[[-107.34498, 30.09375], [-107.34635, 30.09374], [-107.34635, 30.09521], [-107.34497, 30.09521], [-107.34498, 30.09375]]]}}, {"id": "409878", "type": "Feature", "properties": {"id": "409878", "CVEGEO": "0801002761209034", "POBTOT": 0.0, "score_nse": 0.0, "NSE": null, "VIVTOT": 0.0, "GRAPROES": 0.0, "_ent": "08", "_mun": "010", "_loc": "0276"}, "geometry": {"type": "Polygon", "coordinates": [[[-107.3435, 30.09369], [-107.34349, 30.09224], [-107.34488, 30.09224], [-107.34489, 30.09369], [-107.3435, 30.09369]]]}}, {"id": "409879", "type": "Feature", "properties": {"id": "409879", "CVEGEO": "0801002761209028", "POBTOT": 0.0, "score_nse": 0.0, "NSE": null, "VIVTOT": 0.0, "GRAPROES": 0.0, "_ent": "08", "_mun": "010", "_loc": "0276"}, "geometry": {"type": "Polygon", "coordinates": [[[-107.329, 30.10138], [-107.32881, 30.09986], [-107.33098, 30.09982], [-107.33099, 30.10599], [-107.33033, 30.10599], [-107.3303, 30.10446], [-107.329, 30.10138]]]}}, {"id": "409880", "type": "Feature", "properties": {"id": "409880", "CVEGEO": "0801002761209043", "POBTOT": 0.0, "score_nse": 0.0, "NSE": null, "VIVTOT": 0.0, "GRAPROES": 0.0, "_ent": "08", "_mun": "010", "_loc": "0276"}, "geometry": {"type": "Polygon", "coordinates": [[[-107.35936, 30.09694], [-107.35949, 30.09682], [-107.36088, 30.09686], [-107.36086, 30.0994], [-107.35939, 30.09939], [-107.35936, 30.09694]]]}}, {"id": "409881", "type": "Feature", "properties": {"id": "409881", "CVEGEO": "0801002761209053", "POBTOT": 0.0, "score_nse": 0.0, "NSE": null, "VIVTOT": 0.0, "GRAPROES": 0.0, "_ent": "08", "_mun": "010", "_loc": "0276"}, "geometry": {"type": "Polygon", "coordinates": [[[-107.3653, 30.09427], [-107.36458, 30.09424], [-107.36464, 30.09112], [-107.36532, 30.09113], [-107.3653, 30.09427]]]}}, {"id": "409882", "type": "Feature", "properties": {"id": "409882", "CVEGEO": "0801002761209050", "POBTOT": 0.0, "score_nse": 0.0, "NSE": null, "VIVTOT": 0.0, "GRAPROES": 0.0, "_ent": "08", "_mun": "010", "_loc": "0276"}, "geometry": {"type": "Polygon", "coordinates": [[[-107.36167, 30.09383], [-107.36167, 30.09256], [-107.36451, 30.0926], [-107.36449, 30.09386], [-107.36167, 30.09383]]]}}, {"id": "409883", "type": "Feature", "properties": {"id": "409883", "CVEGEO": "0801002761209051", "POBTOT": 0.0, "score_nse": 0.0, "NSE": null, "VIVTOT": 0.0, "GRAPROES": 0.0, "_ent": "08", "_mun": "010", "_loc": "0276"}, "geometry": {"type": "Polygon", "coordinates": [[[-107.35894, 30.0938], [-107.35892, 30.09258], [-107.36158, 30.09258], [-107.36157, 30.09388], [-107.35894, 30.0938]]]}}, {"id": "409884", "type": "Feature", "properties": {"id": "409884", "CVEGEO": "0801002761209049", "POBTOT": 0.0, "score_nse": 0.0, "NSE": null, "VIVTOT": 0.0, "GRAPROES": 0.0, "_ent": "08", "_mun": "010", "_loc": "0276"}, "geometry": {"type": "Polygon", "coordinates": [[[-107.35899, 30.09526], [-107.35897, 30.09398], [-107.36155, 30.09397], [-107.36154, 30.09528], [-107.35899, 30.09526]]]}}, {"id": "409885", "type": "Feature", "properties": {"id": "409885", "CVEGEO": "0801002761209058", "POBTOT": 0.0, "score_nse": 0.0, "NSE": null, "VIVTOT": 0.0, "GRAPROES": 0.0, "_ent": "08", "_mun": "010", "_loc": "0276"}, "geometry": {"type": "Polygon", "coordinates": [[[-107.35893, 30.09111], [-107.35894, 30.0904], [-107.36451, 30.0904], [-107.36449, 30.09108], [-107.35893, 30.09111]]]}}, {"id": "409886", "type": "Feature", "properties": {"id": "409886", "CVEGEO": "0801002761209055", "POBTOT": 0.0, "score_nse": 0.0, "NSE": null, "VIVTOT": 0.0, "GRAPROES": 0.0, "_ent": "08", "_mun": "010", "_loc": "0276"}, "geometry": {"type": "Polygon", "coordinates": [[[-107.35893, 30.0925], [-107.35893, 30.09117], [-107.36156, 30.09122], [-107.36158, 30.09249], [-107.35893, 30.0925]]]}}, {"id": "409887", "type": "Feature", "properties": {"id": "409887", "CVEGEO": "0801002761209054", "POBTOT": 0.0, "score_nse": 0.0, "NSE": null, "VIVTOT": 0.0, "GRAPROES": 0.0, "_ent": "08", "_mun": "010", "_loc": "0276"}, "geometry": {"type": "Polygon", "coordinates": [[[-107.3645, 30.09243], [-107.36169, 30.09247], [-107.36164, 30.09125], [-107.3645, 30.09118], [-107.3645, 30.09243]]]}}, {"id": "409888", "type": "Feature", "properties": {"id": "409888", "CVEGEO": "0801002761209056", "POBTOT": 0.0, "score_nse": 0.0, "NSE": null, "VIVTOT": 0.0, "GRAPROES": 0.0, "_ent": "08", "_mun": "010", "_loc": "0276"}, "geometry": {"type": "Polygon", "coordinates": [[[-107.36538, 30.08763], [-107.36698, 30.08766], [-107.36692, 30.09104], [-107.36539, 30.09103], [-107.36538, 30.08763]]]}}, {"id": "409889", "type": "Feature", "properties": {"id": "409889", "CVEGEO": "0801002761209059", "POBTOT": 0.0, "score_nse": 0.0, "NSE": null, "VIVTOT": 0.0, "GRAPROES": 0.0, "_ent": "08", "_mun": "010", "_loc": "0276"}, "geometry": {"type": "Polygon", "coordinates": [[[-107.37534, 30.09202], [-107.37494, 30.09226], [-107.37347, 30.09254], [-107.37081, 30.09343], [-107.36711, 30.09361], [-107.3671, 30.09209], [-107.37534, 30.09202]]]}}, {"id": "409890", "type": "Feature", "properties": {"id": "409890", "CVEGEO": "0801002761209046", "POBTOT": 0.0, "score_nse": 0.0, "NSE": null, "VIVTOT": 0.0, "GRAPROES": 0.0, "_ent": "08", "_mun": "010", "_loc": "0276"}, "geometry": {"type": "Polygon", "coordinates": [[[-107.36172, 30.09675], [-107.36169, 30.09535], [-107.36452, 30.09533], [-107.36466, 30.09438], [-107.36697, 30.0944], [-107.36678, 30.09505], [-107.36635, 30.0957], [-107.36516, 30.09647], [-107.36347, 30.09673], [-107.36172, 30.09675]]]}}, {"id": "409937", "type": "Feature", "properties": {"id": "409937", "CVEGEO": "0801002761209068", "POBTOT": 0.0, "score_nse": 0.0, "NSE": null, "VIVTOT": 0.0, "GRAPROES": 0.0, "_ent": "08", "_mun": "010", "_loc": "0276"}, "geometry": {"type": "Polygon", "coordinates": [[[-107.33921, 30.10114], [-107.33772, 30.10114], [-107.33772, 30.09985], [-107.33922, 30.09986], [-107.33921, 30.10114]]]}}, {"id": "409938", "type": "Feature", "properties": {"id": "409938", "CVEGEO": "0801002761209030", "POBTOT": 0.0, "score_nse": 0.0, "NSE": null, "VIVTOT": 0.0, "GRAPROES": 0.0, "_ent": "08", "_mun": "010", "_loc": "0276"}, "geometry": {"type": "Polygon", "coordinates": [[[-107.33921, 30.09969], [-107.33771, 30.09971], [-107.33768, 30.09842], [-107.33922, 30.09839], [-107.33921, 30.09969]]]}}, {"id": "409939", "type": "Feature", "properties": {"id": "409939", "CVEGEO": "0801002761209069", "POBTOT": 0.0, "score_nse": 0.0, "NSE": null, "VIVTOT": 0.0, "GRAPROES": 0.0, "_ent": "08", "_mun": "010", "_loc": "0276"}, "geometry": {"type": "Polygon", "coordinates": [[[-107.33921, 30.09823], [-107.3377, 30.09824], [-107.33773, 30.09697], [-107.33922, 30.09695], [-107.33921, 30.09823]]]}}, {"id": "410833", "type": "Feature", "properties": {"id": "410833", "CVEGEO": "0801002761209031", "POBTOT": 0.0, "score_nse": 0.0, "NSE": null, "VIVTOT": 0.0, "GRAPROES": 0.0, "_ent": "08", "_mun": "010", "_loc": "0276"}, "geometry": {"type": "Polygon", "coordinates": [[[-107.34125, 30.09226], [-107.34193, 30.09225], [-107.34194, 30.09525], [-107.34124, 30.09525], [-107.34125, 30.09226]]]}}, {"id": "410834", "type": "Feature", "properties": {"id": "410834", "CVEGEO": "0801002761209070", "POBTOT": 0.0, "score_nse": 0.0, "NSE": null, "VIVTOT": 0.0, "GRAPROES": 0.0, "_ent": "08", "_mun": "010", "_loc": "0276"}, "geometry": {"type": "Polygon", "coordinates": [[[-107.34343, 30.0968], [-107.34206, 30.09681], [-107.34206, 30.09531], [-107.34343, 30.0953], [-107.34343, 30.0968]]]}}, {"id": "410835", "type": "Feature", "properties": {"id": "410835", "CVEGEO": "0801002761209071", "POBTOT": 0.0, "score_nse": 0.0, "NSE": null, "VIVTOT": 0.0, "GRAPROES": 0.0, "_ent": "08", "_mun": "010", "_loc": "0276"}, "geometry": {"type": "Polygon", "coordinates": [[[-107.34195, 30.09531], [-107.34195, 30.09682], [-107.34125, 30.09682], [-107.34124, 30.0953], [-107.34195, 30.09531]]]}}, {"id": "410836", "type": "Feature", "properties": {"id": "410836", "CVEGEO": "0801002761209072", "POBTOT": 0.0, "score_nse": 0.0, "NSE": null, "VIVTOT": 0.0, "GRAPROES": 0.0, "_ent": "08", "_mun": "010", "_loc": "0276"}, "geometry": {"type": "Polygon", "coordinates": [[[-107.34635, 30.09367], [-107.34499, 30.09368], [-107.34498, 30.09225], [-107.34635, 30.09226], [-107.34635, 30.09367]]]}}, {"id": "410837", "type": "Feature", "properties": {"id": "410837", "CVEGEO": "0801002761209073", "POBTOT": 0.0, "score_nse": 0.0, "NSE": null, "VIVTOT": 0.0, "GRAPROES": 0.0, "_ent": "08", "_mun": "010", "_loc": "0276"}, "geometry": {"type": "Polygon", "coordinates": [[[-107.3392, 30.1019], [-107.33769, 30.10193], [-107.33768, 30.10127], [-107.3392, 30.10125], [-107.3392, 30.1019]]]}}, {"id": "410838", "type": "Feature", "properties": {"id": "410838", "CVEGEO": "0801002761209074", "POBTOT": 0.0, "score_nse": 0.0, "NSE": null, "VIVTOT": 0.0, "GRAPROES": 0.0, "_ent": "08", "_mun": "010", "_loc": "0276"}, "geometry": {"type": "Polygon", "coordinates": [[[-107.3508, 30.09694], [-107.34943, 30.09727], [-107.34804, 30.09805], [-107.34699, 30.0992], [-107.34645, 30.10038], [-107.34646, 30.09696], [-107.3508, 30.09694]]]}}, {"id": "410839", "type": "Feature", "properties": {"id": "410839", "CVEGEO": "0801002761209075", "POBTOT": 0.0, "score_nse": 0.0, "NSE": null, "VIVTOT": 0.0, "GRAPROES": 0.0, "_ent": "08", "_mun": "010", "_loc": "0276"}, "geometry": {"type": "Polygon", "coordinates": [[[-107.37201, 30.08747], [-107.37071, 30.08748], [-107.37109, 30.07846], [-107.37247, 30.07846], [-107.37201, 30.08747]]]}}, {"id": "410840", "type": "Feature", "properties": {"id": "410840", "CVEGEO": "0801002761209076", "POBTOT": 0.0, "score_nse": 0.0, "NSE": null, "VIVTOT": 0.0, "GRAPROES": 0.0, "_ent": "08", "_mun": "010", "_loc": "0276"}, "geometry": {"type": "Polygon", "coordinates": [[[-107.37362, 30.08748], [-107.37219, 30.08748], [-107.37261, 30.07844], [-107.374, 30.07842], [-107.37362, 30.08748]]]}}, {"id": "410841", "type": "Feature", "properties": {"id": "410841", "CVEGEO": "0801002761209077", "POBTOT": 0.0, "score_nse": 0.0, "NSE": null, "VIVTOT": 0.0, "GRAPROES": 0.0, "_ent": "08", "_mun": "010", "_loc": "0276"}, "geometry": {"type": "Polygon", "coordinates": [[[-107.3746, 30.08742], [-107.37385, 30.08742], [-107.37417, 30.07842], [-107.3749, 30.07842], [-107.3746, 30.08742]]]}}]}