{"type": "FeatureCollection", "features": [{"id": "1839426", "type": "Feature", "properties": {"id": "1839426", "CVEGEO": "2400900070016001", "POBTOT": 0.0, "score_nse": 0.0, "NSE": null, "VIVTOT": 0.0, "GRAPROES": 0.0, "_ent": "24", "_mun": "009", "_loc": "0007"}, "geometry": {"type": "Polygon", "coordinates": [[[-100.74516, 22.20932], [-100.74507, 22.21013], [-100.7456, 22.21079], [-100.74517, 22.21115], [-100.74517, 22.21133], [-100.7458, 22.21183], [-100.7458, 22.21203], [-100.74525, 22.21191], [-100.74445, 22.21041], [-100.74445, 22.20947], [-100.74468, 22.20932], [-100.74516, 22.20932]]]}}, {"id": "1839427", "type": "Feature", "properties": {"id": "1839427", "CVEGEO": "2400900070016002", "POBTOT": 0.0, "score_nse": 0.0, "NSE": null, "VIVTOT": 0.0, "GRAPROES": 0.0, "_ent": "24", "_mun": "009", "_loc": "0007"}, "geometry": {"type": "Polygon", "coordinates": [[[-100.74438, 22.20993], [-100.74443, 22.21056], [-100.74427, 22.21059], [-100.74411, 22.21036], [-100.74421, 22.20993], [-100.74438, 22.20993]]]}}, {"id": "1839428", "type": "Feature", "properties": {"id": "1839428", "CVEGEO": "2400900070016003", "POBTOT": 0.0, "score_nse": 0.0, "NSE": null, "VIVTOT": 0.0, "GRAPROES": 0.0, "_ent": "24", "_mun": "009", "_loc": "0007"}, "geometry": {"type": "Polygon", "coordinates": [[[-100.74437, 22.20987], [-100.74412, 22.2099], [-100.74402, 22.20938], [-100.74439, 22.20934], [-100.74437, 22.20987]]]}}, {"id": "1839429", "type": "Feature", "properties": {"id": "1839429", "CVEGEO": "2400900070016004", "POBTOT": 0.0, "score_nse": 0.0, "NSE": null, "VIVTOT": 0.0, "GRAPROES": 0.0, "_ent": "24", "_mun": "009", "_loc": "0007"}, "geometry": {"type": "Polygon", "coordinates": [[[-100.74428, 22.21062], [-100.74479, 22.21098], [-100.74487, 22.21139], [-100.74475, 22.21161], [-100.74444, 22.21162], [-100.74424, 22.21124], [-100.74428, 22.21062]]]}}, {"id": "1839430", "type": "Feature", "properties": {"id": "1839430", "CVEGEO": "2400900070016005", "POBTOT": 0.0, "score_nse": 0.0, "NSE": null, "VIVTOT": 0.0, "GRAPROES": 0.0, "_ent": "24", "_mun": "009", "_loc": "0007"}, "geometry": {"type": "Polygon", "coordinates": [[[-100.74402, 22.21043], [-100.74428, 22.21077], [-100.74422, 22.21112], [-100.74365, 22.21127], [-100.74353, 22.2105], [-100.74402, 22.21043]]]}}, {"id": "1839431", "type": "Feature", "properties": {"id": "1839431", "CVEGEO": "2400900070016007", "POBTOT": 0.0, "score_nse": 0.0, "NSE": null, "VIVTOT": 0.0, "GRAPROES": 0.0, "_ent": "24", "_mun": "009", "_loc": "0007"}, "geometry": {"type": "Polygon", "coordinates": [[[-100.74412, 22.20874], [-100.74412, 22.20932], [-100.74345, 22.20941], [-100.74376, 22.20872], [-100.74412, 22.20874]]]}}, {"id": "1839432", "type": "Feature", "properties": {"id": "1839432", "CVEGEO": "2400900070016008", "POBTOT": 0.0, "score_nse": 0.0, "NSE": null, "VIVTOT": 0.0, "GRAPROES": 0.0, "_ent": "24", "_mun": "009", "_loc": "0007"}, "geometry": {"type": "Polygon", "coordinates": [[[-100.74417, 22.20873], [-100.74433, 22.20876], [-100.7444, 22.2093], [-100.74416, 22.20932], [-100.74417, 22.20873]]]}}, {"id": "1839433", "type": "Feature", "properties": {"id": "1839433", "CVEGEO": "2400900070016009", "POBTOT": 0.0, "score_nse": 0.0, "NSE": null, "VIVTOT": 0.0, "GRAPROES": 0.0, "_ent": "24", "_mun": "009", "_loc": "0007"}, "geometry": {"type": "Polygon", "coordinates": [[[-100.74436, 22.20869], [-100.74451, 22.20835], [-100.74483, 22.20855], [-100.74481, 22.20875], [-100.74436, 22.20869]]]}}, {"id": "1839434", "type": "Feature", "properties": {"id": "1839434", "CVEGEO": "2400900070016010", "POBTOT": 0.0, "score_nse": 0.0, "NSE": null, "VIVTOT": 0.0, "GRAPROES": 0.0, "_ent": "24", "_mun": "009", "_loc": "0007"}, "geometry": {"type": "Polygon", "coordinates": [[[-100.74513, 22.20929], [-100.74506, 22.2086], [-100.74569, 22.2082], [-100.74584, 22.20916], [-100.74513, 22.20929]]]}}, {"id": "1839435", "type": "Feature", "properties": {"id": "1839435", "CVEGEO": "2400900070016012", "POBTOT": 0.0, "score_nse": 0.0, "NSE": null, "VIVTOT": 0.0, "GRAPROES": 0.0, "_ent": "24", "_mun": "009", "_loc": "0007"}, "geometry": {"type": "Polygon", "coordinates": [[[-100.74532, 22.21203], [-100.7458, 22.21209], [-100.74566, 22.2128], [-100.74537, 22.21244], [-100.74532, 22.21203]]]}}, {"id": "1839436", "type": "Feature", "properties": {"id": "1839436", "CVEGEO": "2400900070016013", "POBTOT": 0.0, "score_nse": 0.0, "NSE": null, "VIVTOT": 0.0, "GRAPROES": 0.0, "_ent": "24", "_mun": "009", "_loc": "0007"}, "geometry": {"type": "Polygon", "coordinates": [[[-100.74494, 22.21149], [-100.74516, 22.21183], [-100.74529, 22.21247], [-100.74463, 22.21219], [-100.74442, 22.21184], [-100.74446, 22.21164], [-100.74494, 22.21149]]]}}, {"id": "1839437", "type": "Feature", "properties": {"id": "1839437", "CVEGEO": "2400900070016014", "POBTOT": 0.0, "score_nse": 0.0, "NSE": null, "VIVTOT": 0.0, "GRAPROES": 0.0, "_ent": "24", "_mun": "009", "_loc": "0007"}, "geometry": {"type": "Polygon", "coordinates": [[[-100.74414, 22.21122], [-100.74432, 22.21184], [-100.74361, 22.21147], [-100.74361, 22.21131], [-100.74414, 22.21122]]]}}, {"id": "1839438", "type": "Feature", "properties": {"id": "1839438", "CVEGEO": "2400900070016015", "POBTOT": 0.0, "score_nse": 0.0, "NSE": null, "VIVTOT": 0.0, "GRAPROES": 0.0, "_ent": "24", "_mun": "009", "_loc": "0007"}, "geometry": {"type": "Polygon", "coordinates": [[[-100.74303, 22.21116], [-100.74407, 22.21182], [-100.74398, 22.21231], [-100.74318, 22.2121], [-100.74271, 22.21161], [-100.7427, 22.21131], [-100.74303, 22.21116]]]}}, {"id": "1839439", "type": "Feature", "properties": {"id": "1839439", "CVEGEO": "2400900070016016", "POBTOT": 0.0, "score_nse": 0.0, "NSE": null, "VIVTOT": 0.0, "GRAPROES": 0.0, "_ent": "24", "_mun": "009", "_loc": "0007"}, "geometry": {"type": "Polygon", "coordinates": [[[-100.74337, 22.21049], [-100.7436, 22.21108], [-100.74353, 22.21134], [-100.74297, 22.21102], [-100.74337, 22.21049]]]}}, {"id": "1839440", "type": "Feature", "properties": {"id": "1839440", "CVEGEO": "2400900070016019", "POBTOT": 0.0, "score_nse": 0.0, "NSE": null, "VIVTOT": 0.0, "GRAPROES": 0.0, "_ent": "24", "_mun": "009", "_loc": "0007"}, "geometry": {"type": "Polygon", "coordinates": [[[-100.74403, 22.20814], [-100.7442, 22.20868], [-100.74375, 22.20871], [-100.74382, 22.20829], [-100.74403, 22.20814]]]}}, {"id": "1839441", "type": "Feature", "properties": {"id": "1839441", "CVEGEO": "2400900070016020", "POBTOT": 0.0, "score_nse": 0.0, "NSE": null, "VIVTOT": 0.0, "GRAPROES": 0.0, "_ent": "24", "_mun": "009", "_loc": "0007"}, "geometry": {"type": "Polygon", "coordinates": [[[-100.74382, 22.20729], [-100.74388, 22.20705], [-100.74429, 22.20772], [-100.74429, 22.20852], [-100.74382, 22.20729]]]}}, {"id": "1839442", "type": "Feature", "properties": {"id": "1839442", "CVEGEO": "2400900070016021", "POBTOT": 0.0, "score_nse": 0.0, "NSE": null, "VIVTOT": 0.0, "GRAPROES": 0.0, "_ent": "24", "_mun": "009", "_loc": "0007"}, "geometry": {"type": "Polygon", "coordinates": [[[-100.74471, 22.20707], [-100.74505, 22.20767], [-100.74541, 22.20772], [-100.74565, 22.20808], [-100.74514, 22.2085], [-100.74436, 22.20811], [-100.74471, 22.20707]]]}}, {"id": "1839443", "type": "Feature", "properties": {"id": "1839443", "CVEGEO": "2400900070016023", "POBTOT": 0.0, "score_nse": 0.0, "NSE": null, "VIVTOT": 0.0, "GRAPROES": 0.0, "_ent": "24", "_mun": "009", "_loc": "0007"}, "geometry": {"type": "Polygon", "coordinates": [[[-100.74729, 22.21294], [-100.74741, 22.21329], [-100.74698, 22.21373], [-100.74626, 22.21356], [-100.74583, 22.21295], [-100.74687, 22.2129], [-100.74729, 22.21294]]]}}, {"id": "1839444", "type": "Feature", "properties": {"id": "1839444", "CVEGEO": "2400900070016024", "POBTOT": 0.0, "score_nse": 0.0, "NSE": null, "VIVTOT": 0.0, "GRAPROES": 0.0, "_ent": "24", "_mun": "009", "_loc": "0007"}, "geometry": {"type": "Polygon", "coordinates": [[[-100.74582, 22.21321], [-100.7463, 22.21363], [-100.74677, 22.21363], [-100.74711, 22.21386], [-100.74701, 22.2148], [-100.7466, 22.21472], [-100.74597, 22.21418], [-100.74575, 22.21356], [-100.74582, 22.21321]]]}}, {"id": "1839445", "type": "Feature", "properties": {"id": "1839445", "CVEGEO": "2400900070016025", "POBTOT": 0.0, "score_nse": 0.0, "NSE": null, "VIVTOT": 0.0, "GRAPROES": 0.0, "_ent": "24", "_mun": "009", "_loc": "0007"}, "geometry": {"type": "Polygon", "coordinates": [[[-100.74554, 22.21353], [-100.74551, 22.21399], [-100.74529, 22.21417], [-100.74495, 22.214], [-100.74438, 22.21335], [-100.74554, 22.21353]]]}}, {"id": "1839446", "type": "Feature", "properties": {"id": "1839446", "CVEGEO": "2400900070016026", "POBTOT": 0.0, "score_nse": 0.0, "NSE": null, "VIVTOT": 0.0, "GRAPROES": 0.0, "_ent": "24", "_mun": "009", "_loc": "0007"}, "geometry": {"type": "Polygon", "coordinates": [[[-100.74445, 22.21345], [-100.74537, 22.21433], [-100.74534, 22.21477], [-100.74412, 22.21418], [-100.74429, 22.21347], [-100.74445, 22.21345]]]}}, {"id": "1839447", "type": "Feature", "properties": {"id": "1839447", "CVEGEO": "2400900070016028", "POBTOT": 0.0, "score_nse": 0.0, "NSE": null, "VIVTOT": 0.0, "GRAPROES": 0.0, "_ent": "24", "_mun": "009", "_loc": "0007"}, "geometry": {"type": "Polygon", "coordinates": [[[-100.74557, 22.21362], [-100.74591, 22.21433], [-100.74642, 22.21469], [-100.74607, 22.21525], [-100.74538, 22.21471], [-100.74557, 22.21362]]]}}, {"id": "1839448", "type": "Feature", "properties": {"id": "1839448", "CVEGEO": "2400900070016029", "POBTOT": 0.0, "score_nse": 0.0, "NSE": null, "VIVTOT": 0.0, "GRAPROES": 0.0, "_ent": "24", "_mun": "009", "_loc": "0007"}, "geometry": {"type": "Polygon", "coordinates": [[[-100.74568, 22.21504], [-100.74619, 22.21561], [-100.74592, 22.21584], [-100.74568, 22.21564], [-100.74568, 22.21504]]]}}, {"id": "1839449", "type": "Feature", "properties": {"id": "1839449", "CVEGEO": "2400900070016034", "POBTOT": 0.0, "score_nse": 0.0, "NSE": null, "VIVTOT": 0.0, "GRAPROES": 0.0, "_ent": "24", "_mun": "009", "_loc": "0007"}, "geometry": {"type": "Polygon", "coordinates": [[[-100.74511, 22.20923], [-100.74456, 22.20926], [-100.74452, 22.20884], [-100.74503, 22.20878], [-100.74511, 22.20923]]]}}, {"id": "1839648", "type": "Feature", "properties": {"id": "1839648", "CVEGEO": "2400900070016006", "POBTOT": 0.0, "score_nse": 0.0, "NSE": null, "VIVTOT": 0.0, "GRAPROES": 0.0, "_ent": "24", "_mun": "009", "_loc": "0007"}, "geometry": {"type": "Polygon", "coordinates": [[[-100.74397, 22.20939], [-100.74413, 22.20999], [-100.74398, 22.21038], [-100.74344, 22.20974], [-100.74347, 22.20952], [-100.74397, 22.20939]]]}}, {"id": "1839649", "type": "Feature", "properties": {"id": "1839649", "CVEGEO": "2400900070016022", "POBTOT": 0.0, "score_nse": 0.0, "NSE": null, "VIVTOT": 0.0, "GRAPROES": 0.0, "_ent": "24", "_mun": "009", "_loc": "0007"}, "geometry": {"type": "Polygon", "coordinates": [[[-100.74734, 22.21295], [-100.74883, 22.213], [-100.74884, 22.2132], [-100.74743, 22.21327], [-100.74734, 22.21295]]]}}, {"id": "1839650", "type": "Feature", "properties": {"id": "1839650", "CVEGEO": "2400900070016030", "POBTOT": 0.0, "score_nse": 0.0, "NSE": null, "VIVTOT": 0.0, "GRAPROES": 0.0, "_ent": "24", "_mun": "009", "_loc": "0007"}, "geometry": {"type": "Polygon", "coordinates": [[[-100.74526, 22.21478], [-100.74555, 22.21497], [-100.74565, 22.21542], [-100.74539, 22.21614], [-100.74516, 22.21554], [-100.7454, 22.21516], [-100.74526, 22.21478]]]}}]}