{"type": "FeatureCollection", "features": [{"id": "288493", "type": "Feature", "properties": {"id": "288493", "CVEGEO": "0706500090191006", "POBTOT": 0.0, "score_nse": 0.0, "NSE": null, "VIVTOT": 0.0, "GRAPROES": 0.0, "_ent": "07", "_mun": "065", "_loc": "0009"}, "geometry": {"type": "Polygon", "coordinates": [[[-91.94073, 17.39485], [-91.94096, 17.39423], [-91.94157, 17.3944], [-91.94131, 17.39503], [-91.94073, 17.39485]]]}}, {"id": "288506", "type": "Feature", "properties": {"id": "288506", "CVEGEO": "0706500090191004", "POBTOT": 0.0, "score_nse": 0.0, "NSE": null, "VIVTOT": 0.0, "GRAPROES": 0.0, "_ent": "07", "_mun": "065", "_loc": "0009"}, "geometry": {"type": "Polygon", "coordinates": [[[-91.93947, 17.39379], [-91.9401, 17.39397], [-91.93989, 17.39461], [-91.93925, 17.39443], [-91.93947, 17.39379]]]}}, {"id": "288507", "type": "Feature", "properties": {"id": "288507", "CVEGEO": "0706500090191005", "POBTOT": 0.0, "score_nse": 0.0, "NSE": null, "VIVTOT": 0.0, "GRAPROES": 0.0, "_ent": "07", "_mun": "065", "_loc": "0009"}, "geometry": {"type": "Polygon", "coordinates": [[[-91.94017, 17.39399], [-91.94089, 17.3942], [-91.94069, 17.39484], [-91.93995, 17.39463], [-91.94017, 17.39399]]]}}, {"id": "288509", "type": "Feature", "properties": {"id": "288509", "CVEGEO": "0706500090191007", "POBTOT": 0.0, "score_nse": 0.0, "NSE": null, "VIVTOT": 0.0, "GRAPROES": 0.0, "_ent": "07", "_mun": "065", "_loc": "0009"}, "geometry": {"type": "Polygon", "coordinates": [[[-91.94055, 17.39545], [-91.94073, 17.39493], [-91.94129, 17.39509], [-91.94111, 17.39561], [-91.94055, 17.39545]]]}}, {"id": "288510", "type": "Feature", "properties": {"id": "288510", "CVEGEO": "0706500090191008", "POBTOT": 0.0, "score_nse": 0.0, "NSE": null, "VIVTOT": 0.0, "GRAPROES": 0.0, "_ent": "07", "_mun": "065", "_loc": "0009"}, "geometry": {"type": "Polygon", "coordinates": [[[-91.94037, 17.39606], [-91.94056, 17.39554], [-91.94104, 17.39569], [-91.94087, 17.3962], [-91.94037, 17.39606]]]}}, {"id": "288511", "type": "Feature", "properties": {"id": "288511", "CVEGEO": "0706500090191012", "POBTOT": 0.0, "score_nse": 0.0, "NSE": null, "VIVTOT": 0.0, "GRAPROES": 0.0, "_ent": "07", "_mun": "065", "_loc": "0009"}, "geometry": {"type": "Polygon", "coordinates": [[[-91.93767, 17.39531], [-91.93785, 17.39475], [-91.93895, 17.39507], [-91.93876, 17.39561], [-91.93809, 17.39532], [-91.93767, 17.39531]]]}}, {"id": "289562", "type": "Feature", "properties": {"id": "289562", "CVEGEO": "0706500090191003", "POBTOT": 0.0, "score_nse": 0.0, "NSE": null, "VIVTOT": 0.0, "GRAPROES": 0.0, "_ent": "07", "_mun": "065", "_loc": "0009"}, "geometry": {"type": "Polygon", "coordinates": [[[-91.93923, 17.39449], [-91.93972, 17.39463], [-91.93966, 17.39478], [-91.93908, 17.39491], [-91.93923, 17.39449]]]}}, {"id": "289563", "type": "Feature", "properties": {"id": "289563", "CVEGEO": "0706500090191013", "POBTOT": 0.0, "score_nse": 0.0, "NSE": null, "VIVTOT": 0.0, "GRAPROES": 0.0, "_ent": "07", "_mun": "065", "_loc": "0009"}, "geometry": {"type": "Polygon", "coordinates": [[[-91.93805, 17.39416], [-91.93915, 17.39447], [-91.93897, 17.39502], [-91.93787, 17.3947], [-91.93805, 17.39416]]]}}, {"id": "290034", "type": "Feature", "properties": {"id": "290034", "CVEGEO": "0706500090191001", "POBTOT": 0.0, "score_nse": 0.0, "NSE": null, "VIVTOT": 0.0, "GRAPROES": 0.0, "_ent": "07", "_mun": "065", "_loc": "0009"}, "geometry": {"type": "Polygon", "coordinates": [[[-91.93993, 17.3947], [-91.94067, 17.39491], [-91.9405, 17.39545], [-91.93975, 17.39524], [-91.93993, 17.3947]]]}}, {"id": "290035", "type": "Feature", "properties": {"id": "290035", "CVEGEO": "0706500090191002", "POBTOT": 0.0, "score_nse": 0.0, "NSE": null, "VIVTOT": 0.0, "GRAPROES": 0.0, "_ent": "07", "_mun": "065", "_loc": "0009"}, "geometry": {"type": "Polygon", "coordinates": [[[-91.93906, 17.39496], [-91.93974, 17.3948], [-91.93986, 17.39468], [-91.93968, 17.39522], [-91.93906, 17.39496]]]}}, {"id": "290036", "type": "Feature", "properties": {"id": "290036", "CVEGEO": "0706500090191015", "POBTOT": 0.0, "score_nse": 0.0, "NSE": null, "VIVTOT": 0.0, "GRAPROES": 0.0, "_ent": "07", "_mun": "065", "_loc": "0009"}, "geometry": {"type": "Polygon", "coordinates": [[[-91.94138, 17.39506], [-91.94163, 17.39442], [-91.94223, 17.39461], [-91.942, 17.39525], [-91.94138, 17.39506]]]}}, {"id": "290037", "type": "Feature", "properties": {"id": "290037", "CVEGEO": "0706500090191016", "POBTOT": 0.0, "score_nse": 0.0, "NSE": null, "VIVTOT": 0.0, "GRAPROES": 0.0, "_ent": "07", "_mun": "065", "_loc": "0009"}, "geometry": {"type": "Polygon", "coordinates": [[[-91.94117, 17.39564], [-91.94138, 17.39512], [-91.942, 17.39531], [-91.94181, 17.39584], [-91.94117, 17.39564]]]}}, {"id": "290038", "type": "Feature", "properties": {"id": "290038", "CVEGEO": "0706500090191017", "POBTOT": 0.0, "score_nse": 0.0, "NSE": null, "VIVTOT": 0.0, "GRAPROES": 0.0, "_ent": "07", "_mun": "065", "_loc": "0009"}, "geometry": {"type": "Polygon", "coordinates": [[[-91.94091, 17.39623], [-91.9411, 17.39571], [-91.94176, 17.39594], [-91.94156, 17.39643], [-91.94091, 17.39623]]]}}, {"id": "290039", "type": "Feature", "properties": {"id": "290039", "CVEGEO": "0706500090191018", "POBTOT": 0.0, "score_nse": 0.0, "NSE": null, "VIVTOT": 0.0, "GRAPROES": 0.0, "_ent": "07", "_mun": "065", "_loc": "0009"}, "geometry": {"type": "Polygon", "coordinates": [[[-91.94026, 17.39611], [-91.94009, 17.39662], [-91.93748, 17.39591], [-91.93765, 17.39537], [-91.94026, 17.39611]]]}}, {"id": "290850", "type": "Feature", "properties": {"id": "290850", "CVEGEO": "0706500090191014", "POBTOT": 0.0, "score_nse": 0.0, "NSE": null, "VIVTOT": 0.0, "GRAPROES": 0.0, "_ent": "07", "_mun": "065", "_loc": "0009"}, "geometry": {"type": "Polygon", "coordinates": [[[-91.93829, 17.39345], [-91.93939, 17.39377], [-91.93917, 17.39441], [-91.93807, 17.39409], [-91.93829, 17.39345]]]}}, {"id": "291488", "type": "Feature", "properties": {"id": "291488", "CVEGEO": "0706500090191009", "POBTOT": 0.0, "score_nse": 0.0, "NSE": null, "VIVTOT": 0.0, "GRAPROES": 0.0, "_ent": "07", "_mun": "065", "_loc": "0009"}, "geometry": {"type": "Polygon", "coordinates": [[[-91.94031, 17.39605], [-91.93884, 17.39563], [-91.93902, 17.39509], [-91.94048, 17.39551], [-91.94031, 17.39605]]]}}, {"id": "291885", "type": "Feature", "properties": {"id": "291885", "CVEGEO": "0706500090191019", "POBTOT": 0.0, "score_nse": 0.0, "NSE": null, "VIVTOT": 0.0, "GRAPROES": 0.0, "_ent": "07", "_mun": "065", "_loc": "0009"}, "geometry": {"type": "Polygon", "coordinates": [[[-91.93776, 17.39474], [-91.93757, 17.39526], [-91.93615, 17.39486], [-91.9361, 17.39458], [-91.9367, 17.39448], [-91.93776, 17.39474]]]}}]}