{"type": "FeatureCollection", "features": [{"id": "288566", "type": "Feature", "properties": {"id": "288566", "CVEGEO": "0706500280223007", "POBTOT": 0.0, "score_nse": 0.0, "NSE": null, "VIVTOT": 0.0, "GRAPROES": 0.0, "_ent": "07", "_mun": "065", "_loc": "0028"}, "geometry": {"type": "Polygon", "coordinates": [[[-91.63083, 17.3872], [-91.63089, 17.38637], [-91.6318, 17.38654], [-91.63169, 17.38737], [-91.63083, 17.3872]]]}}, {"id": "288567", "type": "Feature", "properties": {"id": "288567", "CVEGEO": "0706500280223008", "POBTOT": 0.0, "score_nse": 0.0, "NSE": null, "VIVTOT": 0.0, "GRAPROES": 0.0, "_ent": "07", "_mun": "065", "_loc": "0028"}, "geometry": {"type": "Polygon", "coordinates": [[[-91.62977, 17.38696], [-91.62982, 17.38621], [-91.63064, 17.38631], [-91.63061, 17.38704], [-91.62977, 17.38696]]]}}, {"id": "288568", "type": "Feature", "properties": {"id": "288568", "CVEGEO": "0706500280223009", "POBTOT": 0.0, "score_nse": 0.0, "NSE": null, "VIVTOT": 0.0, "GRAPROES": 0.0, "_ent": "07", "_mun": "065", "_loc": "0028"}, "geometry": {"type": "Polygon", "coordinates": [[[-91.62879, 17.38688], [-91.62887, 17.38604], [-91.62964, 17.38617], [-91.62958, 17.38694], [-91.62879, 17.38688]]]}}, {"id": "288569", "type": "Feature", "properties": {"id": "288569", "CVEGEO": "0706500280223018", "POBTOT": 0.0, "score_nse": 0.0, "NSE": null, "VIVTOT": 0.0, "GRAPROES": 0.0, "_ent": "07", "_mun": "065", "_loc": "0028"}, "geometry": {"type": "Polygon", "coordinates": [[[-91.63286, 17.38853], [-91.63294, 17.38772], [-91.63379, 17.38779], [-91.63372, 17.38861], [-91.63286, 17.38853]]]}}, {"id": "288570", "type": "Feature", "properties": {"id": "288570", "CVEGEO": "0706500280223019", "POBTOT": 0.0, "score_nse": 0.0, "NSE": null, "VIVTOT": 0.0, "GRAPROES": 0.0, "_ent": "07", "_mun": "065", "_loc": "0028"}, "geometry": {"type": "Polygon", "coordinates": [[[-91.63176, 17.38847], [-91.63183, 17.38752], [-91.6327, 17.38771], [-91.63265, 17.38855], [-91.63176, 17.38847]]]}}, {"id": "288571", "type": "Feature", "properties": {"id": "288571", "CVEGEO": "0706500280223020", "POBTOT": 0.0, "score_nse": 0.0, "NSE": null, "VIVTOT": 0.0, "GRAPROES": 0.0, "_ent": "07", "_mun": "065", "_loc": "0028"}, "geometry": {"type": "Polygon", "coordinates": [[[-91.63086, 17.38784], [-91.63087, 17.38738], [-91.63166, 17.38755], [-91.63159, 17.38841], [-91.63086, 17.38784]]]}}, {"id": "288572", "type": "Feature", "properties": {"id": "288572", "CVEGEO": "0706500280223021", "POBTOT": 0.0, "score_nse": 0.0, "NSE": null, "VIVTOT": 0.0, "GRAPROES": 0.0, "_ent": "07", "_mun": "065", "_loc": "0028"}, "geometry": {"type": "Polygon", "coordinates": [[[-91.63076, 17.38846], [-91.63079, 17.38805], [-91.63135, 17.38849], [-91.63076, 17.38846]]]}}, {"id": "288992", "type": "Feature", "properties": {"id": "288992", "CVEGEO": "0706500280223001", "POBTOT": 0.0, "score_nse": 0.0, "NSE": null, "VIVTOT": 0.0, "GRAPROES": 0.0, "_ent": "07", "_mun": "065", "_loc": "0028"}, "geometry": {"type": "Polygon", "coordinates": [[[-91.63091, 17.38618], [-91.631, 17.38533], [-91.63184, 17.38541], [-91.6318, 17.3863], [-91.63091, 17.38618]]]}}, {"id": "288993", "type": "Feature", "properties": {"id": "288993", "CVEGEO": "0706500280223002", "POBTOT": 0.0, "score_nse": 0.0, "NSE": null, "VIVTOT": 0.0, "GRAPROES": 0.0, "_ent": "07", "_mun": "065", "_loc": "0028"}, "geometry": {"type": "Polygon", "coordinates": [[[-91.62981, 17.38606], [-91.62993, 17.38424], [-91.63087, 17.38431], [-91.63065, 17.38618], [-91.62981, 17.38606]]]}}, {"id": "289599", "type": "Feature", "properties": {"id": "289599", "CVEGEO": "0706500280223023", "POBTOT": 0.0, "score_nse": 0.0, "NSE": null, "VIVTOT": 0.0, "GRAPROES": 0.0, "_ent": "07", "_mun": "065", "_loc": "0028"}, "geometry": {"type": "Polygon", "coordinates": [[[-91.62869, 17.38798], [-91.62877, 17.38707], [-91.62958, 17.38713], [-91.62952, 17.38813], [-91.62869, 17.38798]]]}}, {"id": "289600", "type": "Feature", "properties": {"id": "289600", "CVEGEO": "0706500280223024", "POBTOT": 0.0, "score_nse": 0.0, "NSE": null, "VIVTOT": 0.0, "GRAPROES": 0.0, "_ent": "07", "_mun": "065", "_loc": "0028"}, "geometry": {"type": "Polygon", "coordinates": [[[-91.63275, 17.38926], [-91.63282, 17.38869], [-91.6338, 17.38875], [-91.63363, 17.3903], [-91.63275, 17.38926]]]}}, {"id": "289601", "type": "Feature", "properties": {"id": "289601", "CVEGEO": "0706500280223025", "POBTOT": 0.0, "score_nse": 0.0, "NSE": null, "VIVTOT": 0.0, "GRAPROES": 0.0, "_ent": "07", "_mun": "065", "_loc": "0028"}, "geometry": {"type": "Polygon", "coordinates": [[[-91.6319, 17.38863], [-91.63263, 17.38868], [-91.63259, 17.38917], [-91.6319, 17.38863]]]}}, {"id": "290127", "type": "Feature", "properties": {"id": "290127", "CVEGEO": "0706500280223010", "POBTOT": 0.0, "score_nse": 0.0, "NSE": null, "VIVTOT": 0.0, "GRAPROES": 0.0, "_ent": "07", "_mun": "065", "_loc": "0028"}, "geometry": {"type": "Polygon", "coordinates": [[[-91.62885, 17.38586], [-91.62891, 17.38522], [-91.62971, 17.38522], [-91.62966, 17.38597], [-91.62885, 17.38586]]]}}, {"id": "290128", "type": "Feature", "properties": {"id": "290128", "CVEGEO": "0706500280223011", "POBTOT": 0.0, "score_nse": 0.0, "NSE": null, "VIVTOT": 0.0, "GRAPROES": 0.0, "_ent": "07", "_mun": "065", "_loc": "0028"}, "geometry": {"type": "Polygon", "coordinates": [[[-91.62893, 17.3851], [-91.62899, 17.38415], [-91.62979, 17.3842], [-91.62972, 17.38512], [-91.62893, 17.3851]]]}}, {"id": "290129", "type": "Feature", "properties": {"id": "290129", "CVEGEO": "0706500280223012", "POBTOT": 0.0, "score_nse": 0.0, "NSE": null, "VIVTOT": 0.0, "GRAPROES": 0.0, "_ent": "07", "_mun": "065", "_loc": "0028"}, "geometry": {"type": "Polygon", "coordinates": [[[-91.62899, 17.38405], [-91.62908, 17.38296], [-91.62985, 17.38296], [-91.62979, 17.38411], [-91.62899, 17.38405]]]}}, {"id": "290130", "type": "Feature", "properties": {"id": "290130", "CVEGEO": "0706500280223013", "POBTOT": 0.0, "score_nse": 0.0, "NSE": null, "VIVTOT": 0.0, "GRAPROES": 0.0, "_ent": "07", "_mun": "065", "_loc": "0028"}, "geometry": {"type": "Polygon", "coordinates": [[[-91.6299, 17.3841], [-91.62998, 17.38298], [-91.63112, 17.38298], [-91.63096, 17.38419], [-91.6299, 17.3841]]]}}, {"id": "290131", "type": "Feature", "properties": {"id": "290131", "CVEGEO": "0706500280223014", "POBTOT": 0.0, "score_nse": 0.0, "NSE": null, "VIVTOT": 0.0, "GRAPROES": 0.0, "_ent": "07", "_mun": "065", "_loc": "0028"}, "geometry": {"type": "Polygon", "coordinates": [[[-91.63113, 17.38422], [-91.63125, 17.38298], [-91.63198, 17.38298], [-91.63194, 17.38429], [-91.63113, 17.38422]]]}}, {"id": "290132", "type": "Feature", "properties": {"id": "290132", "CVEGEO": "0706500280223015", "POBTOT": 0.0, "score_nse": 0.0, "NSE": null, "VIVTOT": 0.0, "GRAPROES": 0.0, "_ent": "07", "_mun": "065", "_loc": "0028"}, "geometry": {"type": "Polygon", "coordinates": [[[-91.63311, 17.38535], [-91.63315, 17.38475], [-91.63405, 17.3849], [-91.63404, 17.38541], [-91.63311, 17.38535]]]}}, {"id": "290134", "type": "Feature", "properties": {"id": "290134", "CVEGEO": "0706500280223016", "POBTOT": 0.0, "score_nse": 0.0, "NSE": null, "VIVTOT": 0.0, "GRAPROES": 0.0, "_ent": "07", "_mun": "065", "_loc": "0028"}, "geometry": {"type": "Polygon", "coordinates": [[[-91.63305, 17.38652], [-91.63311, 17.38549], [-91.63398, 17.38557], [-91.6339, 17.38655], [-91.63305, 17.38652]]]}}, {"id": "290135", "type": "Feature", "properties": {"id": "290135", "CVEGEO": "0706500280223017", "POBTOT": 0.0, "score_nse": 0.0, "NSE": null, "VIVTOT": 0.0, "GRAPROES": 0.0, "_ent": "07", "_mun": "065", "_loc": "0028"}, "geometry": {"type": "Polygon", "coordinates": [[[-91.63294, 17.3876], [-91.63305, 17.38671], [-91.6339, 17.38676], [-91.63382, 17.38768], [-91.63294, 17.3876]]]}}, {"id": "290861", "type": "Feature", "properties": {"id": "290861", "CVEGEO": "0706500280223003", "POBTOT": 0.0, "score_nse": 0.0, "NSE": null, "VIVTOT": 0.0, "GRAPROES": 0.0, "_ent": "07", "_mun": "065", "_loc": "0028"}, "geometry": {"type": "Polygon", "coordinates": [[[-91.63099, 17.38517], [-91.63111, 17.38429], [-91.6319, 17.38439], [-91.63185, 17.38525], [-91.63099, 17.38517]]]}}, {"id": "290862", "type": "Feature", "properties": {"id": "290862", "CVEGEO": "0706500280223004", "POBTOT": 0.0, "score_nse": 0.0, "NSE": null, "VIVTOT": 0.0, "GRAPROES": 0.0, "_ent": "07", "_mun": "065", "_loc": "0028"}, "geometry": {"type": "Polygon", "coordinates": [[[-91.63208, 17.38524], [-91.63212, 17.38445], [-91.63299, 17.38468], [-91.63295, 17.38532], [-91.63208, 17.38524]]]}}, {"id": "290863", "type": "Feature", "properties": {"id": "290863", "CVEGEO": "0706500280223005", "POBTOT": 0.0, "score_nse": 0.0, "NSE": null, "VIVTOT": 0.0, "GRAPROES": 0.0, "_ent": "07", "_mun": "065", "_loc": "0028"}, "geometry": {"type": "Polygon", "coordinates": [[[-91.632, 17.3864], [-91.63206, 17.38543], [-91.63294, 17.38548], [-91.63287, 17.38651], [-91.632, 17.3864]]]}}, {"id": "290864", "type": "Feature", "properties": {"id": "290864", "CVEGEO": "0706500280223006", "POBTOT": 0.0, "score_nse": 0.0, "NSE": null, "VIVTOT": 0.0, "GRAPROES": 0.0, "_ent": "07", "_mun": "065", "_loc": "0028"}, "geometry": {"type": "Polygon", "coordinates": [[[-91.63189, 17.38741], [-91.63197, 17.38658], [-91.63282, 17.3867], [-91.63273, 17.38754], [-91.63189, 17.38741]]]}}, {"id": "290865", "type": "Feature", "properties": {"id": "290865", "CVEGEO": "0706500280223022", "POBTOT": 0.0, "score_nse": 0.0, "NSE": null, "VIVTOT": 0.0, "GRAPROES": 0.0, "_ent": "07", "_mun": "065", "_loc": "0028"}, "geometry": {"type": "Polygon", "coordinates": [[[-91.62972, 17.38834], [-91.62978, 17.38717], [-91.63062, 17.38722], [-91.63058, 17.38843], [-91.62972, 17.38834]]]}}]}