{"type": "FeatureCollection", "features": [{"id": "288645", "type": "Feature", "properties": {"id": "288645", "CVEGEO": "0706500980238028", "POBTOT": 0.0, "score_nse": 0.0, "NSE": null, "VIVTOT": 0.0, "GRAPROES": 0.0, "_ent": "07", "_mun": "065", "_loc": "0098"}, "geometry": {"type": "Polygon", "coordinates": [[[-91.93686, 17.34467], [-91.93734, 17.3443], [-91.93783, 17.34518], [-91.93728, 17.34547], [-91.93686, 17.34467]]]}}, {"id": "288646", "type": "Feature", "properties": {"id": "288646", "CVEGEO": "0706500980238029", "POBTOT": 0.0, "score_nse": 0.0, "NSE": null, "VIVTOT": 0.0, "GRAPROES": 0.0, "_ent": "07", "_mun": "065", "_loc": "0098"}, "geometry": {"type": "Polygon", "coordinates": [[[-91.93739, 17.34427], [-91.93788, 17.34392], [-91.93736, 17.34422], [-91.93697, 17.34337], [-91.9392, 17.34355], [-91.9389, 17.34453], [-91.93788, 17.34515], [-91.93739, 17.34427]]]}}, {"id": "288647", "type": "Feature", "properties": {"id": "288647", "CVEGEO": "0706500980238031", "POBTOT": 0.0, "score_nse": 0.0, "NSE": null, "VIVTOT": 0.0, "GRAPROES": 0.0, "_ent": "07", "_mun": "065", "_loc": "0098"}, "geometry": {"type": "Polygon", "coordinates": [[[-91.93633, 17.34497], [-91.93656, 17.34484], [-91.93643, 17.34516], [-91.93633, 17.34497]]]}}, {"id": "288648", "type": "Feature", "properties": {"id": "288648", "CVEGEO": "0706500980238032", "POBTOT": 0.0, "score_nse": 0.0, "NSE": null, "VIVTOT": 0.0, "GRAPROES": 0.0, "_ent": "07", "_mun": "065", "_loc": "0098"}, "geometry": {"type": "Polygon", "coordinates": [[[-91.93679, 17.34464], [-91.9363, 17.3449], [-91.93572, 17.34384], [-91.93615, 17.34362], [-91.93679, 17.34464]]]}}, {"id": "288649", "type": "Feature", "properties": {"id": "288649", "CVEGEO": "0706500980238033", "POBTOT": 0.0, "score_nse": 0.0, "NSE": null, "VIVTOT": 0.0, "GRAPROES": 0.0, "_ent": "07", "_mun": "065", "_loc": "0098"}, "geometry": {"type": "Polygon", "coordinates": [[[-91.93688, 17.3441], [-91.93685, 17.34348], [-91.93689, 17.34343], [-91.93732, 17.34425], [-91.93684, 17.34462], [-91.93672, 17.3444], [-91.93688, 17.3441]]]}}, {"id": "289023", "type": "Feature", "properties": {"id": "289023", "CVEGEO": "0706500980238017", "POBTOT": 0.0, "score_nse": 0.0, "NSE": null, "VIVTOT": 0.0, "GRAPROES": 0.0, "_ent": "07", "_mun": "065", "_loc": "0098"}, "geometry": {"type": "Polygon", "coordinates": [[[-91.93963, 17.34776], [-91.93928, 17.34713], [-91.93956, 17.347], [-91.9399, 17.34761], [-91.93963, 17.34776]]]}}, {"id": "289024", "type": "Feature", "properties": {"id": "289024", "CVEGEO": "0706500980238018", "POBTOT": 0.0, "score_nse": 0.0, "NSE": null, "VIVTOT": 0.0, "GRAPROES": 0.0, "_ent": "07", "_mun": "065", "_loc": "0098"}, "geometry": {"type": "Polygon", "coordinates": [[[-91.93901, 17.34725], [-91.93925, 17.34714], [-91.93961, 17.34777], [-91.93936, 17.3479], [-91.93901, 17.34725]]]}}, {"id": "289188", "type": "Feature", "properties": {"id": "289188", "CVEGEO": "0706500980238009", "POBTOT": 0.0, "score_nse": 0.0, "NSE": null, "VIVTOT": 0.0, "GRAPROES": 0.0, "_ent": "07", "_mun": "065", "_loc": "0098"}, "geometry": {"type": "Polygon", "coordinates": [[[-91.93926, 17.34708], [-91.93935, 17.34661], [-91.93953, 17.34695], [-91.93926, 17.34708]]]}}, {"id": "289189", "type": "Feature", "properties": {"id": "289189", "CVEGEO": "0706500980238010", "POBTOT": 0.0, "score_nse": 0.0, "NSE": null, "VIVTOT": 0.0, "GRAPROES": 0.0, "_ent": "07", "_mun": "065", "_loc": "0098"}, "geometry": {"type": "Polygon", "coordinates": [[[-91.93794, 17.34742], [-91.93815, 17.34716], [-91.93836, 17.34754], [-91.93808, 17.34768], [-91.93794, 17.34742]]]}}, {"id": "289190", "type": "Feature", "properties": {"id": "289190", "CVEGEO": "0706500980238011", "POBTOT": 0.0, "score_nse": 0.0, "NSE": null, "VIVTOT": 0.0, "GRAPROES": 0.0, "_ent": "07", "_mun": "065", "_loc": "0098"}, "geometry": {"type": "Polygon", "coordinates": [[[-91.93756, 17.3473], [-91.93809, 17.34705], [-91.93791, 17.34732], [-91.93805, 17.34769], [-91.93782, 17.3478], [-91.93756, 17.3473]]]}}, {"id": "289191", "type": "Feature", "properties": {"id": "289191", "CVEGEO": "0706500980238012", "POBTOT": 0.0, "score_nse": 0.0, "NSE": null, "VIVTOT": 0.0, "GRAPROES": 0.0, "_ent": "07", "_mun": "065", "_loc": "0098"}, "geometry": {"type": "Polygon", "coordinates": [[[-91.93725, 17.34674], [-91.93777, 17.34649], [-91.93806, 17.347], [-91.93754, 17.34725], [-91.93725, 17.34674]]]}}, {"id": "289192", "type": "Feature", "properties": {"id": "289192", "CVEGEO": "0706500980238013", "POBTOT": 0.0, "score_nse": 0.0, "NSE": null, "VIVTOT": 0.0, "GRAPROES": 0.0, "_ent": "07", "_mun": "065", "_loc": "0098"}, "geometry": {"type": "Polygon", "coordinates": [[[-91.9384, 17.34613], [-91.93859, 17.34603], [-91.93849, 17.34628], [-91.9384, 17.34613]]]}}, {"id": "289193", "type": "Feature", "properties": {"id": "289193", "CVEGEO": "0706500980238014", "POBTOT": 0.0, "score_nse": 0.0, "NSE": null, "VIVTOT": 0.0, "GRAPROES": 0.0, "_ent": "07", "_mun": "065", "_loc": "0098"}, "geometry": {"type": "Polygon", "coordinates": [[[-91.93951, 17.34625], [-91.93934, 17.34565], [-91.9395, 17.34557], [-91.93974, 17.34615], [-91.93951, 17.34625]]]}}, {"id": "289194", "type": "Feature", "properties": {"id": "289194", "CVEGEO": "0706500980238015", "POBTOT": 0.0, "score_nse": 0.0, "NSE": null, "VIVTOT": 0.0, "GRAPROES": 0.0, "_ent": "07", "_mun": "065", "_loc": "0098"}, "geometry": {"type": "Polygon", "coordinates": [[[-91.93939, 17.34657], [-91.93976, 17.3462], [-91.94002, 17.34671], [-91.93958, 17.34693], [-91.93939, 17.34657]]]}}, {"id": "289637", "type": "Feature", "properties": {"id": "289637", "CVEGEO": "0706500980238019", "POBTOT": 0.0, "score_nse": 0.0, "NSE": null, "VIVTOT": 0.0, "GRAPROES": 0.0, "_ent": "07", "_mun": "065", "_loc": "0098"}, "geometry": {"type": "Polygon", "coordinates": [[[-91.93844, 17.34757], [-91.93896, 17.34728], [-91.93934, 17.34797], [-91.93878, 17.34823], [-91.93844, 17.34757]]]}}, {"id": "290280", "type": "Feature", "properties": {"id": "290280", "CVEGEO": "0706500980238001", "POBTOT": 0.0, "score_nse": 0.0, "NSE": null, "VIVTOT": 0.0, "GRAPROES": 0.0, "_ent": "07", "_mun": "065", "_loc": "0098"}, "geometry": {"type": "Polygon", "coordinates": [[[-91.93874, 17.3467], [-91.93924, 17.34642], [-91.93923, 17.34709], [-91.93898, 17.34721], [-91.93874, 17.3467]]]}}, {"id": "290281", "type": "Feature", "properties": {"id": "290281", "CVEGEO": "0706500980238002", "POBTOT": 0.0, "score_nse": 0.0, "NSE": null, "VIVTOT": 0.0, "GRAPROES": 0.0, "_ent": "07", "_mun": "065", "_loc": "0098"}, "geometry": {"type": "Polygon", "coordinates": [[[-91.9382, 17.34713], [-91.93869, 17.34672], [-91.93893, 17.34723], [-91.93841, 17.34752], [-91.9382, 17.34713]]]}}, {"id": "290282", "type": "Feature", "properties": {"id": "290282", "CVEGEO": "0706500980238003", "POBTOT": 0.0, "score_nse": 0.0, "NSE": null, "VIVTOT": 0.0, "GRAPROES": 0.0, "_ent": "07", "_mun": "065", "_loc": "0098"}, "geometry": {"type": "Polygon", "coordinates": [[[-91.93839, 17.34689], [-91.9383, 17.34701], [-91.93818, 17.34711], [-91.93814, 17.34702], [-91.93839, 17.34689]]]}}, {"id": "290283", "type": "Feature", "properties": {"id": "290283", "CVEGEO": "0706500980238004", "POBTOT": 0.0, "score_nse": 0.0, "NSE": null, "VIVTOT": 0.0, "GRAPROES": 0.0, "_ent": "07", "_mun": "065", "_loc": "0098"}, "geometry": {"type": "Polygon", "coordinates": [[[-91.93782, 17.34646], [-91.93835, 17.34616], [-91.93839, 17.34682], [-91.93811, 17.34698], [-91.93782, 17.34646]]]}}, {"id": "290284", "type": "Feature", "properties": {"id": "290284", "CVEGEO": "0706500980238005", "POBTOT": 0.0, "score_nse": 0.0, "NSE": null, "VIVTOT": 0.0, "GRAPROES": 0.0, "_ent": "07", "_mun": "065", "_loc": "0098"}, "geometry": {"type": "Polygon", "coordinates": [[[-91.93841, 17.34681], [-91.93846, 17.34634], [-91.93866, 17.34667], [-91.93841, 17.34681]]]}}, {"id": "290285", "type": "Feature", "properties": {"id": "290285", "CVEGEO": "0706500980238006", "POBTOT": 0.0, "score_nse": 0.0, "NSE": null, "VIVTOT": 0.0, "GRAPROES": 0.0, "_ent": "07", "_mun": "065", "_loc": "0098"}, "geometry": {"type": "Polygon", "coordinates": [[[-91.9385, 17.3463], [-91.93862, 17.34602], [-91.93894, 17.34586], [-91.93922, 17.34637], [-91.93871, 17.34665], [-91.9385, 17.3463]]]}}, {"id": "290286", "type": "Feature", "properties": {"id": "290286", "CVEGEO": "0706500980238007", "POBTOT": 0.0, "score_nse": 0.0, "NSE": null, "VIVTOT": 0.0, "GRAPROES": 0.0, "_ent": "07", "_mun": "065", "_loc": "0098"}, "geometry": {"type": "Polygon", "coordinates": [[[-91.93899, 17.34583], [-91.93932, 17.34566], [-91.93948, 17.34626], [-91.93927, 17.34634], [-91.93899, 17.34583]]]}}, {"id": "290287", "type": "Feature", "properties": {"id": "290287", "CVEGEO": "0706500980238008", "POBTOT": 0.0, "score_nse": 0.0, "NSE": null, "VIVTOT": 0.0, "GRAPROES": 0.0, "_ent": "07", "_mun": "065", "_loc": "0098"}, "geometry": {"type": "Polygon", "coordinates": [[[-91.93929, 17.34639], [-91.9395, 17.34631], [-91.93951, 17.34631], [-91.93938, 17.34655], [-91.93929, 17.34639]]]}}, {"id": "290288", "type": "Feature", "properties": {"id": "290288", "CVEGEO": "0706500980238020", "POBTOT": 0.0, "score_nse": 0.0, "NSE": null, "VIVTOT": 0.0, "GRAPROES": 0.0, "_ent": "07", "_mun": "065", "_loc": "0098"}, "geometry": {"type": "Polygon", "coordinates": [[[-91.938, 17.34812], [-91.9381, 17.34773], [-91.93839, 17.34759], [-91.93871, 17.34821], [-91.93822, 17.3485], [-91.938, 17.34812]]]}}, {"id": "290289", "type": "Feature", "properties": {"id": "290289", "CVEGEO": "0706500980238021", "POBTOT": 0.0, "score_nse": 0.0, "NSE": null, "VIVTOT": 0.0, "GRAPROES": 0.0, "_ent": "07", "_mun": "065", "_loc": "0098"}, "geometry": {"type": "Polygon", "coordinates": [[[-91.93807, 17.34774], [-91.93807, 17.34795], [-91.93799, 17.3481], [-91.93785, 17.34784], [-91.93807, 17.34774]]]}}, {"id": "290290", "type": "Feature", "properties": {"id": "290290", "CVEGEO": "0706500980238022", "POBTOT": 0.0, "score_nse": 0.0, "NSE": null, "VIVTOT": 0.0, "GRAPROES": 0.0, "_ent": "07", "_mun": "065", "_loc": "0098"}, "geometry": {"type": "Polygon", "coordinates": [[[-91.93677, 17.34582], [-91.93725, 17.34554], [-91.93775, 17.34644], [-91.93722, 17.3467], [-91.93677, 17.34582]]]}}, {"id": "290291", "type": "Feature", "properties": {"id": "290291", "CVEGEO": "0706500980238023", "POBTOT": 0.0, "score_nse": 0.0, "NSE": null, "VIVTOT": 0.0, "GRAPROES": 0.0, "_ent": "07", "_mun": "065", "_loc": "0098"}, "geometry": {"type": "Polygon", "coordinates": [[[-91.9373, 17.34552], [-91.93785, 17.34523], [-91.93832, 17.34611], [-91.93779, 17.34642], [-91.9373, 17.34552]]]}}, {"id": "290292", "type": "Feature", "properties": {"id": "290292", "CVEGEO": "0706500980238026", "POBTOT": 0.0, "score_nse": 0.0, "NSE": null, "VIVTOT": 0.0, "GRAPROES": 0.0, "_ent": "07", "_mun": "065", "_loc": "0098"}, "geometry": {"type": "Polygon", "coordinates": [[[-91.93723, 17.34841], [-91.93796, 17.34817], [-91.93817, 17.34853], [-91.93742, 17.34893], [-91.93723, 17.34841]]]}}, {"id": "290293", "type": "Feature", "properties": {"id": "290293", "CVEGEO": "0706500980238027", "POBTOT": 0.0, "score_nse": 0.0, "NSE": null, "VIVTOT": 0.0, "GRAPROES": 0.0, "_ent": "07", "_mun": "065", "_loc": "0098"}, "geometry": {"type": "Polygon", "coordinates": [[[-91.93644, 17.34519], [-91.9366, 17.34482], [-91.93682, 17.3447], [-91.93723, 17.3455], [-91.93675, 17.34578], [-91.93644, 17.34519]]]}}, {"id": "290881", "type": "Feature", "properties": {"id": "290881", "CVEGEO": "0706500980238016", "POBTOT": 0.0, "score_nse": 0.0, "NSE": null, "VIVTOT": 0.0, "GRAPROES": 0.0, "_ent": "07", "_mun": "065", "_loc": "0098"}, "geometry": {"type": "Polygon", "coordinates": [[[-91.93961, 17.34697], [-91.94004, 17.34676], [-91.94036, 17.34737], [-91.93995, 17.34759], [-91.93961, 17.34697]]]}}, {"id": "291757", "type": "Feature", "properties": {"id": "291757", "CVEGEO": "0706500980238036", "POBTOT": 0.0, "score_nse": 0.0, "NSE": null, "VIVTOT": 0.0, "GRAPROES": 0.0, "_ent": "07", "_mun": "065", "_loc": "0098"}, "geometry": {"type": "Polygon", "coordinates": [[[-91.93752, 17.34727], [-91.93703, 17.34752], [-91.93592, 17.34663], [-91.93607, 17.34628], [-91.93674, 17.34586], [-91.93752, 17.34727]]]}}, {"id": "291758", "type": "Feature", "properties": {"id": "291758", "CVEGEO": "0706500980238035", "POBTOT": 0.0, "score_nse": 0.0, "NSE": null, "VIVTOT": 0.0, "GRAPROES": 0.0, "_ent": "07", "_mun": "065", "_loc": "0098"}, "geometry": {"type": "Polygon", "coordinates": [[[-91.93797, 17.34813], [-91.93725, 17.34833], [-91.93733, 17.34802], [-91.93707, 17.34758], [-91.93755, 17.34732], [-91.93797, 17.34813]]]}}, {"id": "291759", "type": "Feature", "properties": {"id": "291759", "CVEGEO": "0706500980238034", "POBTOT": 0.0, "score_nse": 0.0, "NSE": null, "VIVTOT": 0.0, "GRAPROES": 0.0, "_ent": "07", "_mun": "065", "_loc": "0098"}, "geometry": {"type": "Polygon", "coordinates": [[[-91.94014, 17.34804], [-91.93955, 17.34829], [-91.93937, 17.34793], [-91.93992, 17.34765], [-91.94014, 17.34804]]]}}, {"id": "291957", "type": "Feature", "properties": {"id": "291957", "CVEGEO": "0706500980238024", "POBTOT": 0.0, "score_nse": 0.0, "NSE": null, "VIVTOT": 0.0, "GRAPROES": 0.0, "_ent": "07", "_mun": "065", "_loc": "0098"}, "geometry": {"type": "Polygon", "coordinates": [[[-91.93876, 17.34505], [-91.93816, 17.34541], [-91.93829, 17.34567], [-91.93887, 17.34573], [-91.93837, 17.3461], [-91.93792, 17.34523], [-91.93888, 17.34468], [-91.93876, 17.34505]]]}}, {"id": "291958", "type": "Feature", "properties": {"id": "291958", "CVEGEO": "0706500980238025", "POBTOT": 0.0, "score_nse": 0.0, "NSE": null, "VIVTOT": 0.0, "GRAPROES": 0.0, "_ent": "07", "_mun": "065", "_loc": "0098"}, "geometry": {"type": "Polygon", "coordinates": [[[-91.9395, 17.34555], [-91.93908, 17.34573], [-91.93838, 17.34567], [-91.93819, 17.34545], [-91.93878, 17.34513], [-91.93893, 17.34473], [-91.93914, 17.34462], [-91.9395, 17.34555]]]}}]}