{"type": "FeatureCollection", "features": [{"id": "1547899", "type": "Feature", "properties": {"id": "1547899", "CVEGEO": "2023500050019026", "POBTOT": 0.0, "score_nse": 0.0, "NSE": null, "VIVTOT": 0.0, "GRAPROES": 0.0, "_ent": "20", "_mun": "235", "_loc": "0005"}, "geometry": {"type": "Polygon", "coordinates": [[[-96.55009, 16.5062], [-96.55111, 16.50662], [-96.55086, 16.5077], [-96.55092, 16.5086], [-96.55155, 16.50903], [-96.55191, 16.50962], [-96.55178, 16.50984], [-96.5512, 16.50993], [-96.55031, 16.50972], [-96.54967, 16.50974], [-96.54919, 16.51003], [-96.54895, 16.51072], [-96.54904, 16.50933], [-96.54931, 16.50942], [-96.5494, 16.50944], [-96.54904, 16.50926], [-96.54935, 16.50841], [-96.54977, 16.50764], [-96.5504, 16.5077], [-96.5498, 16.50754], [-96.55009, 16.5062]]]}}, {"id": "1547900", "type": "Feature", "properties": {"id": "1547900", "CVEGEO": "2023500050019028", "POBTOT": 0.0, "score_nse": 0.0, "NSE": null, "VIVTOT": 0.0, "GRAPROES": 0.0, "_ent": "20", "_mun": "235", "_loc": "0005"}, "geometry": {"type": "Polygon", "coordinates": [[[-96.54918, 16.5087], [-96.54843, 16.50818], [-96.54911, 16.50708], [-96.54912, 16.50657], [-96.54965, 16.50636], [-96.54972, 16.50612], [-96.55004, 16.50619], [-96.54977, 16.50751], [-96.54918, 16.5087]]]}}, {"id": "1547901", "type": "Feature", "properties": {"id": "1547901", "CVEGEO": "2023500050019008", "POBTOT": 0.0, "score_nse": 0.0, "NSE": null, "VIVTOT": 0.0, "GRAPROES": 0.0, "_ent": "20", "_mun": "235", "_loc": "0005"}, "geometry": {"type": "Polygon", "coordinates": [[[-96.54824, 16.50723], [-96.54838, 16.50471], [-96.54851, 16.50453], [-96.54909, 16.50438], [-96.54932, 16.50472], [-96.54928, 16.50563], [-96.54968, 16.50609], [-96.54962, 16.50629], [-96.54909, 16.50655], [-96.54905, 16.50705], [-96.54872, 16.50744], [-96.54824, 16.50723]]]}}, {"id": "1547902", "type": "Feature", "properties": {"id": "1547902", "CVEGEO": "2023500050019001", "POBTOT": 0.0, "score_nse": 0.0, "NSE": null, "VIVTOT": 0.0, "GRAPROES": 0.0, "_ent": "20", "_mun": "235", "_loc": "0005"}, "geometry": {"type": "Polygon", "coordinates": [[[-96.55035, 16.50518], [-96.54991, 16.50418], [-96.55052, 16.50336], [-96.55118, 16.50376], [-96.55152, 16.5042], [-96.55156, 16.50452], [-96.55127, 16.50494], [-96.55035, 16.50518]]]}}, {"id": "1547903", "type": "Feature", "properties": {"id": "1547903", "CVEGEO": "2023500050019009", "POBTOT": 0.0, "score_nse": 0.0, "NSE": null, "VIVTOT": 0.0, "GRAPROES": 0.0, "_ent": "20", "_mun": "235", "_loc": "0005"}, "geometry": {"type": "Polygon", "coordinates": [[[-96.55043, 16.50327], [-96.55006, 16.50317], [-96.54994, 16.50273], [-96.5496, 16.50233], [-96.55035, 16.50299], [-96.55043, 16.50327]]]}}, {"id": "1547904", "type": "Feature", "properties": {"id": "1547904", "CVEGEO": "2023500050019007", "POBTOT": 0.0, "score_nse": 0.0, "NSE": null, "VIVTOT": 0.0, "GRAPROES": 0.0, "_ent": "20", "_mun": "235", "_loc": "0005"}, "geometry": {"type": "Polygon", "coordinates": [[[-96.5501, 16.50447], [-96.55025, 16.50518], [-96.54943, 16.50521], [-96.54928, 16.50451], [-96.5501, 16.50447]]]}}, {"id": "1547905", "type": "Feature", "properties": {"id": "1547905", "CVEGEO": "2023500050019040", "POBTOT": 0.0, "score_nse": 0.0, "NSE": null, "VIVTOT": 0.0, "GRAPROES": 0.0, "_ent": "20", "_mun": "235", "_loc": "0005"}, "geometry": {"type": "Polygon", "coordinates": [[[-96.54918, 16.50446], [-96.55001, 16.50322], [-96.55042, 16.50334], [-96.54987, 16.50412], [-96.5499, 16.50448], [-96.54918, 16.50446]]]}}, {"id": "1547906", "type": "Feature", "properties": {"id": "1547906", "CVEGEO": "2023500050019017", "POBTOT": 0.0, "score_nse": 0.0, "NSE": null, "VIVTOT": 0.0, "GRAPROES": 0.0, "_ent": "20", "_mun": "235", "_loc": "0005"}, "geometry": {"type": "Polygon", "coordinates": [[[-96.54957, 16.5024], [-96.54999, 16.50309], [-96.54958, 16.50376], [-96.54904, 16.50347], [-96.5493, 16.50246], [-96.54957, 16.5024]]]}}, {"id": "1547907", "type": "Feature", "properties": {"id": "1547907", "CVEGEO": "2023500050019019", "POBTOT": 0.0, "score_nse": 0.0, "NSE": null, "VIVTOT": 0.0, "GRAPROES": 0.0, "_ent": "20", "_mun": "235", "_loc": "0005"}, "geometry": {"type": "Polygon", "coordinates": [[[-96.54971, 16.50002], [-96.55018, 16.50046], [-96.55035, 16.50114], [-96.54945, 16.50142], [-96.54977, 16.50056], [-96.54971, 16.50002]]]}}, {"id": "1547908", "type": "Feature", "properties": {"id": "1547908", "CVEGEO": "2023500050019020", "POBTOT": 0.0, "score_nse": 0.0, "NSE": null, "VIVTOT": 0.0, "GRAPROES": 0.0, "_ent": "20", "_mun": "235", "_loc": "0005"}, "geometry": {"type": "Polygon", "coordinates": [[[-96.55008, 16.49938], [-96.54962, 16.49921], [-96.54961, 16.49885], [-96.55236, 16.49965], [-96.55185, 16.5003], [-96.55128, 16.50036], [-96.55037, 16.50079], [-96.54971, 16.49995], [-96.54963, 16.49927], [-96.55008, 16.49938]]]}}, {"id": "1547909", "type": "Feature", "properties": {"id": "1547909", "CVEGEO": "2023500050019029", "POBTOT": 0.0, "score_nse": 0.0, "NSE": null, "VIVTOT": 0.0, "GRAPROES": 0.0, "_ent": "20", "_mun": "235", "_loc": "0005"}, "geometry": {"type": "Polygon", "coordinates": [[[-96.54827, 16.49834], [-96.54937, 16.49853], [-96.54966, 16.50027], [-96.54886, 16.49979], [-96.54756, 16.4993], [-96.54783, 16.49869], [-96.54827, 16.49834]]]}}, {"id": "1547911", "type": "Feature", "properties": {"id": "1547911", "CVEGEO": "2023500050019038", "POBTOT": 0.0, "score_nse": 0.0, "NSE": null, "VIVTOT": 0.0, "GRAPROES": 0.0, "_ent": "20", "_mun": "235", "_loc": "0005"}, "geometry": {"type": "Polygon", "coordinates": [[[-96.54915, 16.50271], [-96.54889, 16.50223], [-96.54873, 16.50172], [-96.54915, 16.50166], [-96.5496, 16.50228], [-96.54927, 16.50245], [-96.54934, 16.5026], [-96.54915, 16.50271]]]}}, {"id": "1547912", "type": "Feature", "properties": {"id": "1547912", "CVEGEO": "2023500050019018", "POBTOT": 0.0, "score_nse": 0.0, "NSE": null, "VIVTOT": 0.0, "GRAPROES": 0.0, "_ent": "20", "_mun": "235", "_loc": "0005"}, "geometry": {"type": "Polygon", "coordinates": [[[-96.5475, 16.49883], [-96.54742, 16.49942], [-96.54884, 16.49989], [-96.54949, 16.50031], [-96.54906, 16.50159], [-96.54868, 16.50169], [-96.54708, 16.50038], [-96.54676, 16.49897], [-96.5475, 16.49883]]]}}, {"id": "1547913", "type": "Feature", "properties": {"id": "1547913", "CVEGEO": "2023500050019015", "POBTOT": 0.0, "score_nse": 0.0, "NSE": null, "VIVTOT": 0.0, "GRAPROES": 0.0, "_ent": "20", "_mun": "235", "_loc": "0005"}, "geometry": {"type": "Polygon", "coordinates": [[[-96.55197, 16.50736], [-96.551, 16.5063], [-96.54964, 16.50597], [-96.5494, 16.50565], [-96.54944, 16.50539], [-96.5505, 16.5054], [-96.55153, 16.5052], [-96.55209, 16.5055], [-96.55202, 16.50589], [-96.55261, 16.50653], [-96.55281, 16.50721], [-96.55197, 16.50736]]]}}, {"id": "1547914", "type": "Feature", "properties": {"id": "1547914", "CVEGEO": "2023500050019010", "POBTOT": 0.0, "score_nse": 0.0, "NSE": null, "VIVTOT": 0.0, "GRAPROES": 0.0, "_ent": "20", "_mun": "235", "_loc": "0005"}, "geometry": {"type": "Polygon", "coordinates": [[[-96.5504, 16.50231], [-96.54993, 16.50254], [-96.54937, 16.50193], [-96.54932, 16.5015], [-96.55038, 16.50121], [-96.55173, 16.50172], [-96.55137, 16.50237], [-96.55029, 16.50282], [-96.54999, 16.50255], [-96.5504, 16.50231]]]}}, {"id": "1547915", "type": "Feature", "properties": {"id": "1547915", "CVEGEO": "2023500050019011", "POBTOT": 0.0, "score_nse": 0.0, "NSE": null, "VIVTOT": 0.0, "GRAPROES": 0.0, "_ent": "20", "_mun": "235", "_loc": "0005"}, "geometry": {"type": "Polygon", "coordinates": [[[-96.55232, 16.50315], [-96.55128, 16.50363], [-96.55046, 16.50328], [-96.55033, 16.50287], [-96.55139, 16.50241], [-96.55181, 16.50176], [-96.55212, 16.50202], [-96.55255, 16.5029], [-96.55232, 16.50315]]]}}, {"id": "1547916", "type": "Feature", "properties": {"id": "1547916", "CVEGEO": "2023500050019034", "POBTOT": 0.0, "score_nse": 0.0, "NSE": null, "VIVTOT": 0.0, "GRAPROES": 0.0, "_ent": "20", "_mun": "235", "_loc": "0005"}, "geometry": {"type": "Polygon", "coordinates": [[[-96.55041, 16.49476], [-96.55076, 16.49525], [-96.54966, 16.49665], [-96.54913, 16.49627], [-96.55001, 16.49466], [-96.55041, 16.49476]]]}}, {"id": "1547917", "type": "Feature", "properties": {"id": "1547917", "CVEGEO": "2023500050019039", "POBTOT": 0.0, "score_nse": 0.0, "NSE": null, "VIVTOT": 0.0, "GRAPROES": 0.0, "_ent": "20", "_mun": "235", "_loc": "0005"}, "geometry": {"type": "Polygon", "coordinates": [[[-96.54915, 16.49636], [-96.54963, 16.49669], [-96.54931, 16.49745], [-96.5493, 16.49849], [-96.54818, 16.49821], [-96.54877, 16.49681], [-96.54915, 16.49636]]]}}, {"id": "1547918", "type": "Feature", "properties": {"id": "1547918", "CVEGEO": "2023500050019005", "POBTOT": 0.0, "score_nse": 0.0, "NSE": null, "VIVTOT": 0.0, "GRAPROES": 0.0, "_ent": "20", "_mun": "235", "_loc": "0005"}, "geometry": {"type": "Polygon", "coordinates": [[[-96.55283, 16.50312], [-96.55319, 16.5031], [-96.5537, 16.50357], [-96.55465, 16.50406], [-96.55492, 16.50465], [-96.55568, 16.50454], [-96.55623, 16.50477], [-96.55687, 16.50461], [-96.55711, 16.50472], [-96.55724, 16.5049], [-96.55714, 16.50537], [-96.55724, 16.50598], [-96.55615, 16.50551], [-96.55537, 16.50537], [-96.5547, 16.50457], [-96.55477, 16.5048], [-96.55432, 16.50505], [-96.55339, 16.50408], [-96.55291, 16.50405], [-96.55283, 16.50312]]]}}]}