{"type": "FeatureCollection", "features": [{"id": "315358", "type": "Feature", "properties": {"id": "315358", "CVEGEO": "0709601300094001", "POBTOT": 0.0, "score_nse": 0.0, "NSE": null, "VIVTOT": 0.0, "GRAPROES": 0.0, "_ent": "07", "_mun": "096", "_loc": "0130"}, "geometry": {"type": "Polygon", "coordinates": [[[-92.48094, 17.24835], [-92.4805, 17.24835], [-92.48032, 17.24778], [-92.48094, 17.24774], [-92.48094, 17.24835]]]}}, {"id": "315359", "type": "Feature", "properties": {"id": "315359", "CVEGEO": "0709601300094002", "POBTOT": 0.0, "score_nse": 0.0, "NSE": null, "VIVTOT": 0.0, "GRAPROES": 0.0, "_ent": "07", "_mun": "096", "_loc": "0130"}, "geometry": {"type": "Polygon", "coordinates": [[[-92.48031, 17.24792], [-92.48011, 17.248], [-92.48001, 17.24778], [-92.48027, 17.24779], [-92.48031, 17.24792]]]}}, {"id": "315447", "type": "Feature", "properties": {"id": "315447", "CVEGEO": "0709601300094003", "POBTOT": 0.0, "score_nse": 0.0, "NSE": null, "VIVTOT": 0.0, "GRAPROES": 0.0, "_ent": "07", "_mun": "096", "_loc": "0130"}, "geometry": {"type": "Polygon", "coordinates": [[[-92.48099, 17.24866], [-92.48098, 17.24772], [-92.48136, 17.24773], [-92.48099, 17.24866]]]}}]}