{"type": "FeatureCollection", "features": [{"id": "314388", "type": "Feature", "properties": {"id": "314388", "CVEGEO": "0709601330094009", "POBTOT": 0.0, "score_nse": 0.0, "NSE": null, "VIVTOT": 0.0, "GRAPROES": 0.0, "_ent": "07", "_mun": "096", "_loc": "0133"}, "geometry": {"type": "Polygon", "coordinates": [[[-92.47003, 17.25487], [-92.47047, 17.2551], [-92.47018, 17.25554], [-92.46978, 17.25538], [-92.47003, 17.25487]]]}}, {"id": "314763", "type": "Feature", "properties": {"id": "314763", "CVEGEO": "0709601330094002", "POBTOT": 0.0, "score_nse": 0.0, "NSE": null, "VIVTOT": 0.0, "GRAPROES": 0.0, "_ent": "07", "_mun": "096", "_loc": "0133"}, "geometry": {"type": "Polygon", "coordinates": [[[-92.46776, 17.25679], [-92.46744, 17.25736], [-92.46757, 17.2567], [-92.46776, 17.25679]]]}}, {"id": "314764", "type": "Feature", "properties": {"id": "314764", "CVEGEO": "0709601330094001", "POBTOT": 0.0, "score_nse": 0.0, "NSE": null, "VIVTOT": 0.0, "GRAPROES": 0.0, "_ent": "07", "_mun": "096", "_loc": "0133"}, "geometry": {"type": "Polygon", "coordinates": [[[-92.4678, 17.2568], [-92.46845, 17.25695], [-92.46824, 17.25757], [-92.46753, 17.25739], [-92.4678, 17.2568]]]}}, {"id": "315041", "type": "Feature", "properties": {"id": "315041", "CVEGEO": "0709601330094008", "POBTOT": 0.0, "score_nse": 0.0, "NSE": null, "VIVTOT": 0.0, "GRAPROES": 0.0, "_ent": "07", "_mun": "096", "_loc": "0133"}, "geometry": {"type": "Polygon", "coordinates": [[[-92.469, 17.2556], [-92.46968, 17.25542], [-92.47018, 17.25564], [-92.469, 17.2556]]]}}, {"id": "315042", "type": "Feature", "properties": {"id": "315042", "CVEGEO": "0709601330094007", "POBTOT": 0.0, "score_nse": 0.0, "NSE": null, "VIVTOT": 0.0, "GRAPROES": 0.0, "_ent": "07", "_mun": "096", "_loc": "0133"}, "geometry": {"type": "Polygon", "coordinates": [[[-92.46857, 17.25543], [-92.46877, 17.25533], [-92.46897, 17.25532], [-92.46862, 17.25568], [-92.46857, 17.25543]]]}}, {"id": "315043", "type": "Feature", "properties": {"id": "315043", "CVEGEO": "0709601330094006", "POBTOT": 0.0, "score_nse": 0.0, "NSE": null, "VIVTOT": 0.0, "GRAPROES": 0.0, "_ent": "07", "_mun": "096", "_loc": "0133"}, "geometry": {"type": "Polygon", "coordinates": [[[-92.46808, 17.25822], [-92.46725, 17.25793], [-92.46748, 17.25747], [-92.46824, 17.25764], [-92.46808, 17.25822]]]}}, {"id": "315044", "type": "Feature", "properties": {"id": "315044", "CVEGEO": "0709601330094005", "POBTOT": 0.0, "score_nse": 0.0, "NSE": null, "VIVTOT": 0.0, "GRAPROES": 0.0, "_ent": "07", "_mun": "096", "_loc": "0133"}, "geometry": {"type": "Polygon", "coordinates": [[[-92.46865, 17.25658], [-92.46846, 17.25688], [-92.46783, 17.25675], [-92.46828, 17.25602], [-92.4692, 17.25635], [-92.46859, 17.25759], [-92.46832, 17.25759], [-92.46865, 17.25658]]]}}, {"id": "315045", "type": "Feature", "properties": {"id": "315045", "CVEGEO": "0709601330094004", "POBTOT": 0.0, "score_nse": 0.0, "NSE": null, "VIVTOT": 0.0, "GRAPROES": 0.0, "_ent": "07", "_mun": "096", "_loc": "0133"}, "geometry": {"type": "Polygon", "coordinates": [[[-92.46831, 17.25597], [-92.46861, 17.25576], [-92.4686, 17.25608], [-92.46831, 17.25597]]]}}, {"id": "315046", "type": "Feature", "properties": {"id": "315046", "CVEGEO": "0709601330094003", "POBTOT": 0.0, "score_nse": 0.0, "NSE": null, "VIVTOT": 0.0, "GRAPROES": 0.0, "_ent": "07", "_mun": "096", "_loc": "0133"}, "geometry": {"type": "Polygon", "coordinates": [[[-92.46825, 17.256], [-92.46779, 17.25675], [-92.46762, 17.25665], [-92.46798, 17.25589], [-92.46825, 17.256]]]}}]}