{"type": "FeatureCollection", "features": [{"id": "1916500", "type": "Feature", "properties": {"id": "1916500", "CVEGEO": "2500102531398026", "POBTOT": 0.0, "score_nse": 0.0, "NSE": null, "VIVTOT": 0.0, "GRAPROES": 0.0, "_ent": "25", "_mun": "001", "_loc": "0253"}, "geometry": {"type": "Polygon", "coordinates": [[[-109.02807, 26.29947], [-109.02766, 26.30096], [-109.02675, 26.30076], [-109.02682, 26.30052], [-109.02715, 26.3006], [-109.02758, 26.30029], [-109.02777, 26.2997], [-109.02807, 26.29947]]]}}, {"id": "1916546", "type": "Feature", "properties": {"id": "1916546", "CVEGEO": "2500102531398003", "POBTOT": 0.0, "score_nse": 0.0, "NSE": null, "VIVTOT": 0.0, "GRAPROES": 0.0, "_ent": "25", "_mun": "001", "_loc": "0253"}, "geometry": {"type": "Polygon", "coordinates": [[[-109.031, 26.29758], [-109.03197, 26.2978], [-109.03171, 26.29868], [-109.03076, 26.29845], [-109.031, 26.29758]]]}}, {"id": "1916662", "type": "Feature", "properties": {"id": "1916662", "CVEGEO": "2500102531398004", "POBTOT": 0.0, "score_nse": 0.0, "NSE": null, "VIVTOT": 0.0, "GRAPROES": 0.0, "_ent": "25", "_mun": "001", "_loc": "0253"}, "geometry": {"type": "Polygon", "coordinates": [[[-109.03208, 26.29783], [-109.03303, 26.29806], [-109.03277, 26.2989], [-109.03183, 26.29868], [-109.03208, 26.29783]]]}}, {"id": "1916731", "type": "Feature", "properties": {"id": "1916731", "CVEGEO": "2500102531398020", "POBTOT": 0.0, "score_nse": 0.0, "NSE": null, "VIVTOT": 0.0, "GRAPROES": 0.0, "_ent": "25", "_mun": "001", "_loc": "0253"}, "geometry": {"type": "Polygon", "coordinates": [[[-109.02911, 26.30023], [-109.03004, 26.30043], [-109.02979, 26.3013], [-109.02887, 26.30108], [-109.02911, 26.30023]]]}}, {"id": "1916732", "type": "Feature", "properties": {"id": "1916732", "CVEGEO": "2500102531398019", "POBTOT": 0.0, "score_nse": 0.0, "NSE": null, "VIVTOT": 0.0, "GRAPROES": 0.0, "_ent": "25", "_mun": "001", "_loc": "0253"}, "geometry": {"type": "Polygon", "coordinates": [[[-109.03017, 26.30045], [-109.03113, 26.30068], [-109.03087, 26.30156], [-109.02992, 26.30134], [-109.03017, 26.30045]]]}}, {"id": "1916733", "type": "Feature", "properties": {"id": "1916733", "CVEGEO": "2500102531398018", "POBTOT": 0.0, "score_nse": 0.0, "NSE": null, "VIVTOT": 0.0, "GRAPROES": 0.0, "_ent": "25", "_mun": "001", "_loc": "0253"}, "geometry": {"type": "Polygon", "coordinates": [[[-109.03094, 26.30158], [-109.03122, 26.30069], [-109.0322, 26.30093], [-109.03195, 26.30181], [-109.03094, 26.30158]]]}}, {"id": "1916734", "type": "Feature", "properties": {"id": "1916734", "CVEGEO": "2500102531398002", "POBTOT": 0.0, "score_nse": 0.0, "NSE": null, "VIVTOT": 0.0, "GRAPROES": 0.0, "_ent": "25", "_mun": "001", "_loc": "0253"}, "geometry": {"type": "Polygon", "coordinates": [[[-109.03072, 26.29853], [-109.03168, 26.29877], [-109.03143, 26.29962], [-109.03045, 26.29939], [-109.03072, 26.29853]]]}}, {"id": "1916735", "type": "Feature", "properties": {"id": "1916735", "CVEGEO": "2500102531398001", "POBTOT": 0.0, "score_nse": 0.0, "NSE": null, "VIVTOT": 0.0, "GRAPROES": 0.0, "_ent": "25", "_mun": "001", "_loc": "0253"}, "geometry": {"type": "Polygon", "coordinates": [[[-109.03181, 26.29878], [-109.03275, 26.29902], [-109.03249, 26.29987], [-109.03154, 26.29965], [-109.03181, 26.29878]]]}}, {"id": "1917113", "type": "Feature", "properties": {"id": "1917113", "CVEGEO": "2500102531398013", "POBTOT": 0.0, "score_nse": 0.0, "NSE": null, "VIVTOT": 0.0, "GRAPROES": 0.0, "_ent": "25", "_mun": "001", "_loc": "0253"}, "geometry": {"type": "Polygon", "coordinates": [[[-109.03008, 26.2968], [-109.03244, 26.29728], [-109.03259, 26.29697], [-109.03279, 26.29691], [-109.0333, 26.29704], [-109.03306, 26.29795], [-109.02995, 26.29723], [-109.03008, 26.2968]]]}}, {"id": "1917114", "type": "Feature", "properties": {"id": "1917114", "CVEGEO": "2500102531398012", "POBTOT": 0.0, "score_nse": 0.0, "NSE": null, "VIVTOT": 0.0, "GRAPROES": 0.0, "_ent": "25", "_mun": "001", "_loc": "0253"}, "geometry": {"type": "Polygon", "coordinates": [[[-109.02994, 26.29733], [-109.03089, 26.29756], [-109.03063, 26.29843], [-109.02968, 26.29821], [-109.02994, 26.29733]]]}}, {"id": "1917115", "type": "Feature", "properties": {"id": "1917115", "CVEGEO": "2500102531398011", "POBTOT": 0.0, "score_nse": 0.0, "NSE": null, "VIVTOT": 0.0, "GRAPROES": 0.0, "_ent": "25", "_mun": "001", "_loc": "0253"}, "geometry": {"type": "Polygon", "coordinates": [[[-109.02965, 26.29828], [-109.03061, 26.29851], [-109.03035, 26.29938], [-109.0294, 26.29917], [-109.02965, 26.29828]]]}}, {"id": "1917116", "type": "Feature", "properties": {"id": "1917116", "CVEGEO": "2500102531398009", "POBTOT": 0.0, "score_nse": 0.0, "NSE": null, "VIVTOT": 0.0, "GRAPROES": 0.0, "_ent": "25", "_mun": "001", "_loc": "0253"}, "geometry": {"type": "Polygon", "coordinates": [[[-109.03045, 26.29953], [-109.0314, 26.29973], [-109.03114, 26.30058], [-109.0302, 26.30037], [-109.03045, 26.29953]]]}}, {"id": "1917117", "type": "Feature", "properties": {"id": "1917117", "CVEGEO": "2500102531398008", "POBTOT": 0.0, "score_nse": 0.0, "NSE": null, "VIVTOT": 0.0, "GRAPROES": 0.0, "_ent": "25", "_mun": "001", "_loc": "0253"}, "geometry": {"type": "Polygon", "coordinates": [[[-109.03151, 26.29977], [-109.03245, 26.29998], [-109.03221, 26.30082], [-109.03125, 26.30059], [-109.03151, 26.29977]]]}}, {"id": "1917127", "type": "Feature", "properties": {"id": "1917127", "CVEGEO": "2500102531398010", "POBTOT": 0.0, "score_nse": 0.0, "NSE": null, "VIVTOT": 0.0, "GRAPROES": 0.0, "_ent": "25", "_mun": "001", "_loc": "0253"}, "geometry": {"type": "Polygon", "coordinates": [[[-109.02938, 26.29928], [-109.03033, 26.2995], [-109.03008, 26.30034], [-109.02914, 26.30014], [-109.02938, 26.29928]]]}}, {"id": "1917491", "type": "Feature", "properties": {"id": "1917491", "CVEGEO": "2500102531398007", "POBTOT": 0.0, "score_nse": 0.0, "NSE": null, "VIVTOT": 0.0, "GRAPROES": 0.0, "_ent": "25", "_mun": "001", "_loc": "0253"}, "geometry": {"type": "Polygon", "coordinates": [[[-109.03232, 26.30085], [-109.03258, 26.30001], [-109.03353, 26.30024], [-109.03329, 26.30109], [-109.03232, 26.30085]]]}}, {"id": "1917492", "type": "Feature", "properties": {"id": "1917492", "CVEGEO": "2500102531398006", "POBTOT": 0.0, "score_nse": 0.0, "NSE": null, "VIVTOT": 0.0, "GRAPROES": 0.0, "_ent": "25", "_mun": "001", "_loc": "0253"}, "geometry": {"type": "Polygon", "coordinates": [[[-109.03288, 26.29905], [-109.03381, 26.29928], [-109.03357, 26.30013], [-109.03262, 26.2999], [-109.03288, 26.29905]]]}}, {"id": "1917493", "type": "Feature", "properties": {"id": "1917493", "CVEGEO": "2500102531398005", "POBTOT": 0.0, "score_nse": 0.0, "NSE": null, "VIVTOT": 0.0, "GRAPROES": 0.0, "_ent": "25", "_mun": "001", "_loc": "0253"}, "geometry": {"type": "Polygon", "coordinates": [[[-109.03314, 26.29807], [-109.03412, 26.29829], [-109.03385, 26.29917], [-109.03288, 26.29893], [-109.03314, 26.29807]]]}}, {"id": "1918766", "type": "Feature", "properties": {"id": "1918766", "CVEGEO": "2500102531398025", "POBTOT": 0.0, "score_nse": 0.0, "NSE": null, "VIVTOT": 0.0, "GRAPROES": 0.0, "_ent": "25", "_mun": "001", "_loc": "0253"}, "geometry": {"type": "Polygon", "coordinates": [[[-109.02999, 26.29676], [-109.02986, 26.29722], [-109.02885, 26.297], [-109.02898, 26.29653], [-109.02999, 26.29676]]]}}, {"id": "1918767", "type": "Feature", "properties": {"id": "1918767", "CVEGEO": "2500102531398023", "POBTOT": 0.0, "score_nse": 0.0, "NSE": null, "VIVTOT": 0.0, "GRAPROES": 0.0, "_ent": "25", "_mun": "001", "_loc": "0253"}, "geometry": {"type": "Polygon", "coordinates": [[[-109.02858, 26.29805], [-109.02955, 26.29828], [-109.0293, 26.29916], [-109.02835, 26.29893], [-109.02858, 26.29805]]]}}, {"id": "1918768", "type": "Feature", "properties": {"id": "1918768", "CVEGEO": "2500102531398022", "POBTOT": 0.0, "score_nse": 0.0, "NSE": null, "VIVTOT": 0.0, "GRAPROES": 0.0, "_ent": "25", "_mun": "001", "_loc": "0253"}, "geometry": {"type": "Polygon", "coordinates": [[[-109.02832, 26.299], [-109.02928, 26.29923], [-109.02904, 26.30012], [-109.02805, 26.29989], [-109.02832, 26.299]]]}}, {"id": "1919102", "type": "Feature", "properties": {"id": "1919102", "CVEGEO": "2500102531398024", "POBTOT": 0.0, "score_nse": 0.0, "NSE": null, "VIVTOT": 0.0, "GRAPROES": 0.0, "_ent": "25", "_mun": "001", "_loc": "0253"}, "geometry": {"type": "Polygon", "coordinates": [[[-109.02889, 26.29708], [-109.02984, 26.29731], [-109.02957, 26.29818], [-109.02864, 26.29797], [-109.02889, 26.29708]]]}}, {"id": "1919103", "type": "Feature", "properties": {"id": "1919103", "CVEGEO": "2500102531398021", "POBTOT": 0.0, "score_nse": 0.0, "NSE": null, "VIVTOT": 0.0, "GRAPROES": 0.0, "_ent": "25", "_mun": "001", "_loc": "0253"}, "geometry": {"type": "Polygon", "coordinates": [[[-109.02805, 26.29998], [-109.02901, 26.30021], [-109.02877, 26.30106], [-109.02779, 26.30085], [-109.02805, 26.29998]]]}}, {"id": "1919470", "type": "Feature", "properties": {"id": "1919470", "CVEGEO": "2500102531398017", "POBTOT": 0.0, "score_nse": 0.0, "NSE": null, "VIVTOT": 0.0, "GRAPROES": 0.0, "_ent": "25", "_mun": "001", "_loc": "0253"}, "geometry": {"type": "Polygon", "coordinates": [[[-109.03303, 26.30206], [-109.03205, 26.30183], [-109.03232, 26.30094], [-109.03326, 26.30118], [-109.03303, 26.30206]]]}}, {"id": "1919488", "type": "Feature", "properties": {"id": "1919488", "CVEGEO": "2500102531398016", "POBTOT": 0.0, "score_nse": 0.0, "NSE": null, "VIVTOT": 0.0, "GRAPROES": 0.0, "_ent": "25", "_mun": "001", "_loc": "0253"}, "geometry": {"type": "Polygon", "coordinates": [[[-109.03342, 26.29706], [-109.03397, 26.29718], [-109.03385, 26.29765], [-109.03422, 26.29793], [-109.03414, 26.29819], [-109.03318, 26.29797], [-109.03342, 26.29706]]]}}, {"id": "1919870", "type": "Feature", "properties": {"id": "1919870", "CVEGEO": "2500102531398028", "POBTOT": 0.0, "score_nse": 0.0, "NSE": null, "VIVTOT": 0.0, "GRAPROES": 0.0, "_ent": "25", "_mun": "001", "_loc": "0253"}, "geometry": {"type": "Polygon", "coordinates": [[[-109.03301, 26.30227], [-109.0325, 26.30215], [-109.03253, 26.30203], [-109.03304, 26.30215], [-109.03301, 26.30227]]]}}]}