{"type": "FeatureCollection", "features": [{"id": "1916782", "type": "Feature", "properties": {"id": "1916782", "CVEGEO": "2500103491557017", "POBTOT": 0.0, "score_nse": 0.0, "NSE": null, "VIVTOT": 0.0, "GRAPROES": 0.0, "_ent": "25", "_mun": "001", "_loc": "0349"}, "geometry": {"type": "Polygon", "coordinates": [[[-108.98994, 25.6673], [-108.98984, 25.66734], [-108.98999, 25.66755], [-108.98975, 25.66772], [-108.98925, 25.66728], [-108.98955, 25.66697], [-108.98994, 25.6673]]]}}, {"id": "1916783", "type": "Feature", "properties": {"id": "1916783", "CVEGEO": "2500103491557016", "POBTOT": 0.0, "score_nse": 0.0, "NSE": null, "VIVTOT": 0.0, "GRAPROES": 0.0, "_ent": "25", "_mun": "001", "_loc": "0349"}, "geometry": {"type": "Polygon", "coordinates": [[[-108.99106, 25.66873], [-108.99093, 25.66828], [-108.99129, 25.6682], [-108.99145, 25.66888], [-108.98973, 25.66925], [-108.98953, 25.66876], [-108.99087, 25.66831], [-108.99106, 25.66873]]]}}, {"id": "1916784", "type": "Feature", "properties": {"id": "1916784", "CVEGEO": "2500103491557013", "POBTOT": 0.0, "score_nse": 0.0, "NSE": null, "VIVTOT": 0.0, "GRAPROES": 0.0, "_ent": "25", "_mun": "001", "_loc": "0349"}, "geometry": {"type": "Polygon", "coordinates": [[[-108.98786, 25.6673], [-108.98809, 25.66702], [-108.9888, 25.66764], [-108.98854, 25.66789], [-108.98786, 25.6673]]]}}, {"id": "1917125", "type": "Feature", "properties": {"id": "1917125", "CVEGEO": "2500103491557008", "POBTOT": 0.0, "score_nse": 0.0, "NSE": null, "VIVTOT": 0.0, "GRAPROES": 0.0, "_ent": "25", "_mun": "001", "_loc": "0349"}, "geometry": {"type": "Polygon", "coordinates": [[[-108.98813, 25.66695], [-108.98843, 25.66665], [-108.98915, 25.66729], [-108.98885, 25.66759], [-108.98813, 25.66695]]]}}, {"id": "1917126", "type": "Feature", "properties": {"id": "1917126", "CVEGEO": "2500103491557007", "POBTOT": 0.0, "score_nse": 0.0, "NSE": null, "VIVTOT": 0.0, "GRAPROES": 0.0, "_ent": "25", "_mun": "001", "_loc": "0349"}, "geometry": {"type": "Polygon", "coordinates": [[[-108.98991, 25.66853], [-108.9889, 25.66763], [-108.9892, 25.66734], [-108.99031, 25.66838], [-108.98991, 25.66853]]]}}, {"id": "1917478", "type": "Feature", "properties": {"id": "1917478", "CVEGEO": "2500103491557001", "POBTOT": 0.0, "score_nse": 0.0, "NSE": null, "VIVTOT": 0.0, "GRAPROES": 0.0, "_ent": "25", "_mun": "001", "_loc": "0349"}, "geometry": {"type": "Polygon", "coordinates": [[[-108.98991, 25.66566], [-108.98911, 25.66648], [-108.98887, 25.6663], [-108.98962, 25.66536], [-108.98991, 25.66566]]]}}, {"id": "1917480", "type": "Feature", "properties": {"id": "1917480", "CVEGEO": "2500103491557026", "POBTOT": 0.0, "score_nse": 0.0, "NSE": null, "VIVTOT": 0.0, "GRAPROES": 0.0, "_ent": "25", "_mun": "001", "_loc": "0349"}, "geometry": {"type": "Polygon", "coordinates": [[[-108.98948, 25.66881], [-108.98967, 25.66929], [-108.98924, 25.66939], [-108.98912, 25.66894], [-108.98948, 25.66881]]]}}, {"id": "1917481", "type": "Feature", "properties": {"id": "1917481", "CVEGEO": "2500103491557025", "POBTOT": 0.0, "score_nse": 0.0, "NSE": null, "VIVTOT": 0.0, "GRAPROES": 0.0, "_ent": "25", "_mun": "001", "_loc": "0349"}, "geometry": {"type": "Polygon", "coordinates": [[[-108.99035, 25.66917], [-108.99143, 25.66894], [-108.99172, 25.66994], [-108.99118, 25.67001], [-108.99075, 25.66985], [-108.99035, 25.66917]]]}}, {"id": "1917483", "type": "Feature", "properties": {"id": "1917483", "CVEGEO": "2500103491557009", "POBTOT": 0.0, "score_nse": 0.0, "NSE": null, "VIVTOT": 0.0, "GRAPROES": 0.0, "_ent": "25", "_mun": "001", "_loc": "0349"}, "geometry": {"type": "Polygon", "coordinates": [[[-108.98822, 25.66632], [-108.98977, 25.66473], [-108.98995, 25.66493], [-108.9884, 25.66652], [-108.98822, 25.66632]]]}}, {"id": "1917484", "type": "Feature", "properties": {"id": "1917484", "CVEGEO": "2500103491557005", "POBTOT": 0.0, "score_nse": 0.0, "NSE": null, "VIVTOT": 0.0, "GRAPROES": 0.0, "_ent": "25", "_mun": "001", "_loc": "0349"}, "geometry": {"type": "Polygon", "coordinates": [[[-108.99141, 25.66806], [-108.98948, 25.66622], [-108.98983, 25.66586], [-108.99005, 25.66615], [-108.98986, 25.6658], [-108.99, 25.66566], [-108.99033, 25.66655], [-108.99132, 25.66762], [-108.99141, 25.66806]]]}}, {"id": "1917486", "type": "Feature", "properties": {"id": "1917486", "CVEGEO": "2500103491557011", "POBTOT": 0.0, "score_nse": 0.0, "NSE": null, "VIVTOT": 0.0, "GRAPROES": 0.0, "_ent": "25", "_mun": "001", "_loc": "0349"}, "geometry": {"type": "Polygon", "coordinates": [[[-108.99052, 25.66749], [-108.9912, 25.66794], [-108.9913, 25.66813], [-108.9909, 25.66823], [-108.99052, 25.66749]]]}}, {"id": "1917656", "type": "Feature", "properties": {"id": "1917656", "CVEGEO": "2500103491557012", "POBTOT": 0.0, "score_nse": 0.0, "NSE": null, "VIVTOT": 0.0, "GRAPROES": 0.0, "_ent": "25", "_mun": "001", "_loc": "0349"}, "geometry": {"type": "Polygon", "coordinates": [[[-108.9895, 25.66874], [-108.9886, 25.66795], [-108.98885, 25.66769], [-108.98986, 25.66858], [-108.9895, 25.66874]]]}}, {"id": "1918901", "type": "Feature", "properties": {"id": "1918901", "CVEGEO": "2500103491557019", "POBTOT": 0.0, "score_nse": 0.0, "NSE": null, "VIVTOT": 0.0, "GRAPROES": 0.0, "_ent": "25", "_mun": "001", "_loc": "0349"}, "geometry": {"type": "Polygon", "coordinates": [[[-108.98943, 25.66876], [-108.98845, 25.66905], [-108.98818, 25.66839], [-108.98855, 25.66799], [-108.98943, 25.66876]]]}}, {"id": "1919154", "type": "Feature", "properties": {"id": "1919154", "CVEGEO": "2500103491557020", "POBTOT": 0.0, "score_nse": 0.0, "NSE": null, "VIVTOT": 0.0, "GRAPROES": 0.0, "_ent": "25", "_mun": "001", "_loc": "0349"}, "geometry": {"type": "Polygon", "coordinates": [[[-108.98815, 25.66831], [-108.98772, 25.66751], [-108.98784, 25.66735], [-108.9885, 25.66794], [-108.98815, 25.66831]]]}}, {"id": "1919461", "type": "Feature", "properties": {"id": "1919461", "CVEGEO": "2500103491557006", "POBTOT": 0.0, "score_nse": 0.0, "NSE": null, "VIVTOT": 0.0, "GRAPROES": 0.0, "_ent": "25", "_mun": "001", "_loc": "0349"}, "geometry": {"type": "Polygon", "coordinates": [[[-108.98919, 25.6666], [-108.98945, 25.6663], [-108.99014, 25.66684], [-108.98982, 25.66708], [-108.98919, 25.6666]]]}}, {"id": "1919465", "type": "Feature", "properties": {"id": "1919465", "CVEGEO": "2500103491557003", "POBTOT": 0.0, "score_nse": 0.0, "NSE": null, "VIVTOT": 0.0, "GRAPROES": 0.0, "_ent": "25", "_mun": "001", "_loc": "0349"}, "geometry": {"type": "Polygon", "coordinates": [[[-108.98887, 25.66695], [-108.98851, 25.66663], [-108.9888, 25.66634], [-108.98917, 25.66667], [-108.98887, 25.66695]]]}}, {"id": "1919466", "type": "Feature", "properties": {"id": "1919466", "CVEGEO": "2500103491557002", "POBTOT": 0.0, "score_nse": 0.0, "NSE": null, "VIVTOT": 0.0, "GRAPROES": 0.0, "_ent": "25", "_mun": "001", "_loc": "0349"}, "geometry": {"type": "Polygon", "coordinates": [[[-108.9889, 25.66697], [-108.98919, 25.6667], [-108.98946, 25.66695], [-108.98918, 25.66721], [-108.9889, 25.66697]]]}}, {"id": "1919981", "type": "Feature", "properties": {"id": "1919981", "CVEGEO": "2500103491557010", "POBTOT": 0.0, "score_nse": 0.0, "NSE": null, "VIVTOT": 0.0, "GRAPROES": 0.0, "_ent": "25", "_mun": "001", "_loc": "0349"}, "geometry": {"type": "Polygon", "coordinates": [[[-108.9903, 25.66449], [-108.99002, 25.66483], [-108.98983, 25.6647], [-108.99028, 25.66414], [-108.99056, 25.6643], [-108.99032, 25.66409], [-108.99065, 25.66368], [-108.99109, 25.66377], [-108.9909, 25.66467], [-108.98997, 25.66561], [-108.98967, 25.66533], [-108.9903, 25.66449]]]}}, {"id": "1919982", "type": "Feature", "properties": {"id": "1919982", "CVEGEO": "2500103491557028", "POBTOT": 0.0, "score_nse": 0.0, "NSE": null, "VIVTOT": 0.0, "GRAPROES": 0.0, "_ent": "25", "_mun": "001", "_loc": "0349"}, "geometry": {"type": "Polygon", "coordinates": [[[-108.98785, 25.66673], [-108.98813, 25.66638], [-108.98833, 25.66655], [-108.98806, 25.66686], [-108.98785, 25.66673]]]}}, {"id": "1919986", "type": "Feature", "properties": {"id": "1919986", "CVEGEO": "2500103491557014", "POBTOT": 0.0, "score_nse": 0.0, "NSE": null, "VIVTOT": 0.0, "GRAPROES": 0.0, "_ent": "25", "_mun": "001", "_loc": "0349"}, "geometry": {"type": "Polygon", "coordinates": [[[-108.98803, 25.66691], [-108.98765, 25.66735], [-108.98746, 25.66719], [-108.98781, 25.66677], [-108.98803, 25.66691]]]}}, {"id": "1919987", "type": "Feature", "properties": {"id": "1919987", "CVEGEO": "2500103491557018", "POBTOT": 0.0, "score_nse": 0.0, "NSE": null, "VIVTOT": 0.0, "GRAPROES": 0.0, "_ent": "25", "_mun": "001", "_loc": "0349"}, "geometry": {"type": "Polygon", "coordinates": [[[-108.99043, 25.66835], [-108.98979, 25.66776], [-108.99012, 25.66749], [-108.98987, 25.66712], [-108.99018, 25.66687], [-108.99083, 25.66823], [-108.99043, 25.66835]]]}}, {"id": "1925880", "type": "Feature", "properties": {"id": "1925880", "CVEGEO": "2500103491557024", "POBTOT": 0.0, "score_nse": 0.0, "NSE": null, "VIVTOT": 0.0, "GRAPROES": 0.0, "_ent": "25", "_mun": "001", "_loc": "0349"}, "geometry": {"type": "Polygon", "coordinates": [[[-108.99256, 25.66191], [-108.99182, 25.66243], [-108.99108, 25.66363], [-108.99082, 25.66348], [-108.99153, 25.66232], [-108.99235, 25.66156], [-108.99256, 25.66191]]]}}, {"id": "1925965", "type": "Feature", "properties": {"id": "1925965", "CVEGEO": "2500103491557029", "POBTOT": 0.0, "score_nse": 0.0, "NSE": null, "VIVTOT": 0.0, "GRAPROES": 0.0, "_ent": "25", "_mun": "001", "_loc": "0349"}, "geometry": {"type": "Polygon", "coordinates": [[[-108.99246, 25.66146], [-108.9926, 25.66136], [-108.99291, 25.66174], [-108.99281, 25.6622], [-108.99271, 25.66227], [-108.99254, 25.66206], [-108.99167, 25.66283], [-108.9913, 25.66358], [-108.99106, 25.66474], [-108.9901, 25.66567], [-108.99097, 25.66472], [-108.99118, 25.66357], [-108.99164, 25.66278], [-108.99206, 25.66229], [-108.99253, 25.66201], [-108.9927, 25.662], [-108.99246, 25.66146]]]}}]}