{"type": "FeatureCollection", "features": [{"id": "1932724", "type": "Feature", "properties": {"id": "1932724", "CVEGEO": "2500609692462011", "POBTOT": 0.0, "score_nse": 0.0, "NSE": null, "VIVTOT": 0.0, "GRAPROES": 0.0, "_ent": "25", "_mun": "006", "_loc": "0969"}, "geometry": {"type": "Polygon", "coordinates": [[[-107.41053, 24.85797], [-107.41023, 24.85838], [-107.41098, 24.85853], [-107.41093, 24.85864], [-107.4107, 24.85883], [-107.41023, 24.85886], [-107.40964, 24.85926], [-107.40926, 24.85994], [-107.40929, 24.86076], [-107.40964, 24.86154], [-107.41014, 24.86152], [-107.4098, 24.86175], [-107.40987, 24.86188], [-107.40958, 24.86199], [-107.40892, 24.86036], [-107.40875, 24.85897], [-107.40918, 24.85757], [-107.40979, 24.85759], [-107.41053, 24.85797]]]}}, {"id": "1932725", "type": "Feature", "properties": {"id": "1932725", "CVEGEO": "2500609692462010", "POBTOT": 0.0, "score_nse": 0.0, "NSE": null, "VIVTOT": 0.0, "GRAPROES": 0.0, "_ent": "25", "_mun": "006", "_loc": "0969"}, "geometry": {"type": "Polygon", "coordinates": [[[-107.41289, 24.86615], [-107.41188, 24.86666], [-107.41063, 24.86626], [-107.41004, 24.86377], [-107.41198, 24.86359], [-107.41204, 24.86518], [-107.41133, 24.86519], [-107.41148, 24.86565], [-107.41163, 24.86596], [-107.41301, 24.86583], [-107.41289, 24.86615]]]}}, {"id": "1932726", "type": "Feature", "properties": {"id": "1932726", "CVEGEO": "2500609692462009", "POBTOT": 0.0, "score_nse": 0.0, "NSE": null, "VIVTOT": 0.0, "GRAPROES": 0.0, "_ent": "25", "_mun": "006", "_loc": "0969"}, "geometry": {"type": "Polygon", "coordinates": [[[-107.41307, 24.8689], [-107.41309, 24.86957], [-107.41298, 24.8697], [-107.41193, 24.87019], [-107.41099, 24.86823], [-107.41085, 24.86676], [-107.41066, 24.86631], [-107.41183, 24.86668], [-107.4116, 24.8668], [-107.41167, 24.86762], [-107.41194, 24.86761], [-107.41159, 24.86834], [-107.41171, 24.86892], [-107.41273, 24.86882], [-107.41307, 24.8689]]]}}, {"id": "1932728", "type": "Feature", "properties": {"id": "1932728", "CVEGEO": "2500609692462007", "POBTOT": 0.0, "score_nse": 0.0, "NSE": null, "VIVTOT": 0.0, "GRAPROES": 0.0, "_ent": "25", "_mun": "006", "_loc": "0969"}, "geometry": {"type": "Polygon", "coordinates": [[[-107.41235, 24.87075], [-107.41197, 24.87024], [-107.4132, 24.86952], [-107.41347, 24.87034], [-107.41317, 24.87051], [-107.41335, 24.87108], [-107.41285, 24.87121], [-107.41316, 24.87207], [-107.41282, 24.87214], [-107.41235, 24.87075]]]}}, {"id": "1932729", "type": "Feature", "properties": {"id": "1932729", "CVEGEO": "2500609692462006", "POBTOT": 0.0, "score_nse": 0.0, "NSE": null, "VIVTOT": 0.0, "GRAPROES": 0.0, "_ent": "25", "_mun": "006", "_loc": "0969"}, "geometry": {"type": "Polygon", "coordinates": [[[-107.41122, 24.8548], [-107.41222, 24.8551], [-107.41196, 24.85524], [-107.41196, 24.85556], [-107.41135, 24.85532], [-107.41122, 24.8548]]]}}, {"id": "1936275", "type": "Feature", "properties": {"id": "1936275", "CVEGEO": "2500609692462004", "POBTOT": 0.0, "score_nse": 0.0, "NSE": null, "VIVTOT": 0.0, "GRAPROES": 0.0, "_ent": "25", "_mun": "006", "_loc": "0969"}, "geometry": {"type": "Polygon", "coordinates": [[[-107.40906, 24.85693], [-107.40953, 24.85678], [-107.40974, 24.85753], [-107.4092, 24.85753], [-107.40906, 24.85693]]]}}, {"id": "1939140", "type": "Feature", "properties": {"id": "1939140", "CVEGEO": "2500609692462003", "POBTOT": 0.0, "score_nse": 0.0, "NSE": null, "VIVTOT": 0.0, "GRAPROES": 0.0, "_ent": "25", "_mun": "006", "_loc": "0969"}, "geometry": {"type": "Polygon", "coordinates": [[[-107.40811, 24.855], [-107.40839, 24.85592], [-107.40909, 24.85727], [-107.40896, 24.85836], [-107.40869, 24.85897], [-107.40885, 24.8604], [-107.40924, 24.86135], [-107.40853, 24.8613], [-107.40704, 24.86153], [-107.40669, 24.86092], [-107.40654, 24.85903], [-107.40684, 24.85901], [-107.40678, 24.85776], [-107.40743, 24.85775], [-107.40728, 24.85584], [-107.40759, 24.85575], [-107.40773, 24.8546], [-107.40811, 24.855]]]}}, {"id": "1943426", "type": "Feature", "properties": {"id": "1943426", "CVEGEO": "2500609692462002", "POBTOT": 0.0, "score_nse": 0.0, "NSE": null, "VIVTOT": 0.0, "GRAPROES": 0.0, "_ent": "25", "_mun": "006", "_loc": "0969"}, "geometry": {"type": "Polygon", "coordinates": [[[-107.41178, 24.8742], [-107.41107, 24.87213], [-107.41257, 24.87169], [-107.41328, 24.87382], [-107.41178, 24.8742]]]}}, {"id": "1943427", "type": "Feature", "properties": {"id": "1943427", "CVEGEO": "2500609692462001", "POBTOT": 0.0, "score_nse": 0.0, "NSE": null, "VIVTOT": 0.0, "GRAPROES": 0.0, "_ent": "25", "_mun": "006", "_loc": "0969"}, "geometry": {"type": "Polygon", "coordinates": [[[-107.40854, 24.86133], [-107.40925, 24.86138], [-107.40965, 24.86237], [-107.41023, 24.8654], [-107.41071, 24.86676], [-107.41087, 24.86824], [-107.4112, 24.86909], [-107.41224, 24.87075], [-107.41256, 24.87166], [-107.41107, 24.87209], [-107.41079, 24.87195], [-107.41043, 24.86995], [-107.40962, 24.86832], [-107.40927, 24.86692], [-107.40757, 24.86372], [-107.4075, 24.86348], [-107.40771, 24.86329], [-107.40705, 24.86156], [-107.40854, 24.86133]]]}}, {"id": "1948154", "type": "Feature", "properties": {"id": "1948154", "CVEGEO": "2500609692462005", "POBTOT": 0.0, "score_nse": 0.0, "NSE": null, "VIVTOT": 0.0, "GRAPROES": 0.0, "_ent": "25", "_mun": "006", "_loc": "0969"}, "geometry": {"type": "Polygon", "coordinates": [[[-107.41264, 24.85495], [-107.41127, 24.85475], [-107.4117, 24.85385], [-107.41254, 24.85387], [-107.4125, 24.85439], [-107.4127, 24.85439], [-107.41264, 24.85495]]]}}, {"id": "1948155", "type": "Feature", "properties": {"id": "1948155", "CVEGEO": "2500609692462013", "POBTOT": 0.0, "score_nse": 0.0, "NSE": null, "VIVTOT": 0.0, "GRAPROES": 0.0, "_ent": "25", "_mun": "006", "_loc": "0969"}, "geometry": {"type": "Polygon", "coordinates": [[[-107.41044, 24.85785], [-107.41026, 24.85674], [-107.41105, 24.85685], [-107.41072, 24.85785], [-107.41044, 24.85785]]]}}, {"id": "1948157", "type": "Feature", "properties": {"id": "1948157", "CVEGEO": "2500609692462012", "POBTOT": 0.0, "score_nse": 0.0, "NSE": null, "VIVTOT": 0.0, "GRAPROES": 0.0, "_ent": "25", "_mun": "006", "_loc": "0969"}, "geometry": {"type": "Polygon", "coordinates": [[[-107.41038, 24.85784], [-107.40983, 24.85752], [-107.40962, 24.85674], [-107.4102, 24.85672], [-107.41038, 24.85784]]]}}, {"id": "1948342", "type": "Feature", "properties": {"id": "1948342", "CVEGEO": "2500609692462008", "POBTOT": 0.0, "score_nse": 0.0, "NSE": null, "VIVTOT": 0.0, "GRAPROES": 0.0, "_ent": "25", "_mun": "006", "_loc": "0969"}, "geometry": {"type": "Polygon", "coordinates": [[[-107.41296, 24.87254], [-107.41344, 24.8725], [-107.41348, 24.87309], [-107.41434, 24.8729], [-107.41441, 24.87318], [-107.41323, 24.87344], [-107.41296, 24.87254]]]}}, {"id": "1948343", "type": "Feature", "properties": {"id": "1948343", "CVEGEO": "2500609692462014", "POBTOT": 0.0, "score_nse": 0.0, "NSE": null, "VIVTOT": 0.0, "GRAPROES": 0.0, "_ent": "25", "_mun": "006", "_loc": "0969"}, "geometry": {"type": "Polygon", "coordinates": [[[-107.41443, 24.87322], [-107.41457, 24.87377], [-107.41342, 24.87406], [-107.41324, 24.87347], [-107.41443, 24.87322]]]}}]}