{"type": "FeatureCollection", "features": [{"id": "1936068", "type": "Feature", "properties": {"id": "1936068", "CVEGEO": "2500620732655003", "POBTOT": 0.0, "score_nse": 0.0, "NSE": null, "VIVTOT": 0.0, "GRAPROES": 0.0, "_ent": "25", "_mun": "006", "_loc": "2073"}, "geometry": {"type": "Polygon", "coordinates": [[[-107.44061, 24.64094], [-107.44159, 24.64129], [-107.44122, 24.64207], [-107.44025, 24.64169], [-107.44061, 24.64094]]]}}, {"id": "1936069", "type": "Feature", "properties": {"id": "1936069", "CVEGEO": "2500620732655002", "POBTOT": 0.0, "score_nse": 0.0, "NSE": null, "VIVTOT": 0.0, "GRAPROES": 0.0, "_ent": "25", "_mun": "006", "_loc": "2073"}, "geometry": {"type": "Polygon", "coordinates": [[[-107.44022, 24.64176], [-107.44118, 24.64214], [-107.44085, 24.64285], [-107.43988, 24.64247], [-107.44022, 24.64176]]]}}, {"id": "1936070", "type": "Feature", "properties": {"id": "1936070", "CVEGEO": "2500620732655001", "POBTOT": 0.0, "score_nse": 0.0, "NSE": null, "VIVTOT": 0.0, "GRAPROES": 0.0, "_ent": "25", "_mun": "006", "_loc": "2073"}, "geometry": {"type": "Polygon", "coordinates": [[[-107.44126, 24.64216], [-107.44221, 24.64254], [-107.44188, 24.64325], [-107.44092, 24.64288], [-107.44126, 24.64216]]]}}, {"id": "1941308", "type": "Feature", "properties": {"id": "1941308", "CVEGEO": "2500620732655013", "POBTOT": 0.0, "score_nse": 0.0, "NSE": null, "VIVTOT": 0.0, "GRAPROES": 0.0, "_ent": "25", "_mun": "006", "_loc": "2073"}, "geometry": {"type": "Polygon", "coordinates": [[[-107.44146, 24.64119], [-107.44063, 24.64089], [-107.44071, 24.64071], [-107.44146, 24.64119]]]}}, {"id": "1941309", "type": "Feature", "properties": {"id": "1941309", "CVEGEO": "2500620732655004", "POBTOT": 0.0, "score_nse": 0.0, "NSE": null, "VIVTOT": 0.0, "GRAPROES": 0.0, "_ent": "25", "_mun": "006", "_loc": "2073"}, "geometry": {"type": "Polygon", "coordinates": [[[-107.44129, 24.6421], [-107.44165, 24.64132], [-107.44255, 24.64183], [-107.44224, 24.64248], [-107.44129, 24.6421]]]}}, {"id": "1941417", "type": "Feature", "properties": {"id": "1941417", "CVEGEO": "2500620732655012", "POBTOT": 0.0, "score_nse": 0.0, "NSE": null, "VIVTOT": 0.0, "GRAPROES": 0.0, "_ent": "25", "_mun": "006", "_loc": "2073"}, "geometry": {"type": "Polygon", "coordinates": [[[-107.44513, 24.64448], [-107.44495, 24.64486], [-107.44473, 24.64488], [-107.44472, 24.64448], [-107.44513, 24.64448]]]}}, {"id": "1941418", "type": "Feature", "properties": {"id": "1941418", "CVEGEO": "2500620732655010", "POBTOT": 0.0, "score_nse": 0.0, "NSE": null, "VIVTOT": 0.0, "GRAPROES": 0.0, "_ent": "25", "_mun": "006", "_loc": "2073"}, "geometry": {"type": "Polygon", "coordinates": [[[-107.44334, 24.64298], [-107.44434, 24.64338], [-107.44435, 24.64422], [-107.44301, 24.64369], [-107.44334, 24.64298]]]}}, {"id": "1941419", "type": "Feature", "properties": {"id": "1941419", "CVEGEO": "2500620732655009", "POBTOT": 0.0, "score_nse": 0.0, "NSE": null, "VIVTOT": 0.0, "GRAPROES": 0.0, "_ent": "25", "_mun": "006", "_loc": "2073"}, "geometry": {"type": "Polygon", "coordinates": [[[-107.44368, 24.64227], [-107.44432, 24.64226], [-107.44433, 24.64329], [-107.44337, 24.64291], [-107.44368, 24.64227]]]}}, {"id": "1941420", "type": "Feature", "properties": {"id": "1941420", "CVEGEO": "2500620732655008", "POBTOT": 0.0, "score_nse": 0.0, "NSE": null, "VIVTOT": 0.0, "GRAPROES": 0.0, "_ent": "25", "_mun": "006", "_loc": "2073"}, "geometry": {"type": "Polygon", "coordinates": [[[-107.43935, 24.64042], [-107.44053, 24.64091], [-107.44018, 24.64166], [-107.43898, 24.64119], [-107.43935, 24.64042]]]}}, {"id": "1941421", "type": "Feature", "properties": {"id": "1941421", "CVEGEO": "2500620732655007", "POBTOT": 0.0, "score_nse": 0.0, "NSE": null, "VIVTOT": 0.0, "GRAPROES": 0.0, "_ent": "25", "_mun": "006", "_loc": "2073"}, "geometry": {"type": "Polygon", "coordinates": [[[-107.43894, 24.64125], [-107.44015, 24.64173], [-107.43981, 24.64244], [-107.4386, 24.64197], [-107.43894, 24.64125]]]}}, {"id": "1941422", "type": "Feature", "properties": {"id": "1941422", "CVEGEO": "2500620732655006", "POBTOT": 0.0, "score_nse": 0.0, "NSE": null, "VIVTOT": 0.0, "GRAPROES": 0.0, "_ent": "25", "_mun": "006", "_loc": "2073"}, "geometry": {"type": "Polygon", "coordinates": [[[-107.44195, 24.64328], [-107.44228, 24.64257], [-107.44327, 24.64296], [-107.44293, 24.64366], [-107.44195, 24.64328]]]}}, {"id": "1941423", "type": "Feature", "properties": {"id": "1941423", "CVEGEO": "2500620732655005", "POBTOT": 0.0, "score_nse": 0.0, "NSE": null, "VIVTOT": 0.0, "GRAPROES": 0.0, "_ent": "25", "_mun": "006", "_loc": "2073"}, "geometry": {"type": "Polygon", "coordinates": [[[-107.44262, 24.64186], [-107.44358, 24.64225], [-107.44329, 24.64288], [-107.44231, 24.6425], [-107.44262, 24.64186]]]}}, {"id": "1949325", "type": "Feature", "properties": {"id": "1949325", "CVEGEO": "2500620732655011", "POBTOT": 0.0, "score_nse": 0.0, "NSE": null, "VIVTOT": 0.0, "GRAPROES": 0.0, "_ent": "25", "_mun": "006", "_loc": "2073"}, "geometry": {"type": "Polygon", "coordinates": [[[-107.44056, 24.64086], [-107.43938, 24.64037], [-107.43955, 24.64003], [-107.44065, 24.64067], [-107.44056, 24.64086]]]}}]}