{"type": "FeatureCollection", "features": [{"id": "1948203", "type": "Feature", "properties": {"id": "1948203", "CVEGEO": "2500634822655001", "POBTOT": 0.0, "score_nse": 0.0, "NSE": null, "VIVTOT": 0.0, "GRAPROES": 0.0, "_ent": "25", "_mun": "006", "_loc": "3482"}, "geometry": {"type": "Polygon", "coordinates": [[[-107.44898, 24.69967], [-107.44472, 24.69958], [-107.44471, 24.69875], [-107.4497, 24.69878], [-107.44984, 24.69897], [-107.44985, 24.70115], [-107.44966, 24.70147], [-107.44899, 24.70151], [-107.44898, 24.69967]]]}}, {"id": "1948204", "type": "Feature", "properties": {"id": "1948204", "CVEGEO": "2500634822655002", "POBTOT": 0.0, "score_nse": 0.0, "NSE": null, "VIVTOT": 0.0, "GRAPROES": 0.0, "_ent": "25", "_mun": "006", "_loc": "3482"}, "geometry": {"type": "Polygon", "coordinates": [[[-107.44958, 24.69842], [-107.44481, 24.69836], [-107.44471, 24.69743], [-107.45093, 24.69748], [-107.45081, 24.70157], [-107.45022, 24.70153], [-107.45001, 24.70112], [-107.45, 24.699], [-107.45022, 24.69867], [-107.45018, 24.69842], [-107.4499, 24.69829], [-107.44958, 24.69842]]]}}]}