{"type": "FeatureCollection", "features": [{"id": "703549", "type": "Feature", "properties": {"id": "703549", "CVEGEO": "1104100330285029", "POBTOT": 0.0, "score_nse": 0.0, "NSE": null, "VIVTOT": 0.0, "GRAPROES": 0.0, "_ent": "11", "_mun": "041", "_loc": "0033"}, "geometry": {"type": "Polygon", "coordinates": [[[-101.1553, 20.14273], [-101.15514, 20.14178], [-101.15549, 20.14172], [-101.15566, 20.14272], [-101.1553, 20.14273]]]}}, {"id": "703565", "type": "Feature", "properties": {"id": "703565", "CVEGEO": "1104100330285037", "POBTOT": 0.0, "score_nse": 0.0, "NSE": null, "VIVTOT": 0.0, "GRAPROES": 0.0, "_ent": "11", "_mun": "041", "_loc": "0033"}, "geometry": {"type": "Polygon", "coordinates": [[[-101.1543, 20.1405], [-101.15405, 20.14056], [-101.15401, 20.13975], [-101.15412, 20.13972], [-101.1543, 20.1405]]]}}, {"id": "703591", "type": "Feature", "properties": {"id": "703591", "CVEGEO": "1104100330285011", "POBTOT": 0.0, "score_nse": 0.0, "NSE": null, "VIVTOT": 0.0, "GRAPROES": 0.0, "_ent": "11", "_mun": "041", "_loc": "0033"}, "geometry": {"type": "Polygon", "coordinates": [[[-101.15299, 20.14302], [-101.15289, 20.14375], [-101.15186, 20.14377], [-101.15212, 20.143], [-101.15299, 20.14302]]]}}, {"id": "703593", "type": "Feature", "properties": {"id": "703593", "CVEGEO": "1104100330285015", "POBTOT": 0.0, "score_nse": 0.0, "NSE": null, "VIVTOT": 0.0, "GRAPROES": 0.0, "_ent": "11", "_mun": "041", "_loc": "0033"}, "geometry": {"type": "Polygon", "coordinates": [[[-101.15462, 20.14554], [-101.15465, 20.14465], [-101.15546, 20.14463], [-101.1554, 20.14563], [-101.15462, 20.14554]]]}}, {"id": "703848", "type": "Feature", "properties": {"id": "703848", "CVEGEO": "1104100330285031", "POBTOT": 0.0, "score_nse": 0.0, "NSE": null, "VIVTOT": 0.0, "GRAPROES": 0.0, "_ent": "11", "_mun": "041", "_loc": "0033"}, "geometry": {"type": "Polygon", "coordinates": [[[-101.14784, 20.14503], [-101.14818, 20.14482], [-101.14831, 20.145], [-101.14784, 20.14503]]]}}, {"id": "703849", "type": "Feature", "properties": {"id": "703849", "CVEGEO": "1104100330285021", "POBTOT": 0.0, "score_nse": 0.0, "NSE": null, "VIVTOT": 0.0, "GRAPROES": 0.0, "_ent": "11", "_mun": "041", "_loc": "0033"}, "geometry": {"type": "Polygon", "coordinates": [[[-101.15091, 20.14146], [-101.15088, 20.14157], [-101.15162, 20.14171], [-101.15153, 20.14261], [-101.15197, 20.14264], [-101.15105, 20.14381], [-101.14996, 20.14334], [-101.15043, 20.14143], [-101.15091, 20.14146]]]}}, {"id": "703850", "type": "Feature", "properties": {"id": "703850", "CVEGEO": "1104100330285020", "POBTOT": 0.0, "score_nse": 0.0, "NSE": null, "VIVTOT": 0.0, "GRAPROES": 0.0, "_ent": "11", "_mun": "041", "_loc": "0033"}, "geometry": {"type": "Polygon", "coordinates": [[[-101.14711, 20.14455], [-101.14611, 20.14461], [-101.14805, 20.14344], [-101.14826, 20.1435], [-101.1482, 20.14407], [-101.14711, 20.14455]]]}}, {"id": "703851", "type": "Feature", "properties": {"id": "703851", "CVEGEO": "1104100330285018", "POBTOT": 0.0, "score_nse": 0.0, "NSE": null, "VIVTOT": 0.0, "GRAPROES": 0.0, "_ent": "11", "_mun": "041", "_loc": "0033"}, "geometry": {"type": "Polygon", "coordinates": [[[-101.14665, 20.14529], [-101.14118, 20.14733], [-101.14102, 20.14734], [-101.14133, 20.14685], [-101.14186, 20.1465], [-101.14228, 20.14577], [-101.14665, 20.14529]]]}}, {"id": "703852", "type": "Feature", "properties": {"id": "703852", "CVEGEO": "1104100330285016", "POBTOT": 0.0, "score_nse": 0.0, "NSE": null, "VIVTOT": 0.0, "GRAPROES": 0.0, "_ent": "11", "_mun": "041", "_loc": "0033"}, "geometry": {"type": "Polygon", "coordinates": [[[-101.15628, 20.14565], [-101.15633, 20.14618], [-101.1546, 20.14592], [-101.15462, 20.1456], [-101.15628, 20.14565]]]}}, {"id": "703865", "type": "Feature", "properties": {"id": "703865", "CVEGEO": "1104100330285044", "POBTOT": 0.0, "score_nse": 0.0, "NSE": null, "VIVTOT": 0.0, "GRAPROES": 0.0, "_ent": "11", "_mun": "041", "_loc": "0033"}, "geometry": {"type": "Polygon", "coordinates": [[[-101.15291, 20.14533], [-101.15368, 20.14541], [-101.15368, 20.14577], [-101.15291, 20.14565], [-101.15291, 20.14533]]]}}, {"id": "703866", "type": "Feature", "properties": {"id": "703866", "CVEGEO": "1104100330285042", "POBTOT": 0.0, "score_nse": 0.0, "NSE": null, "VIVTOT": 0.0, "GRAPROES": 0.0, "_ent": "11", "_mun": "041", "_loc": "0033"}, "geometry": {"type": "Polygon", "coordinates": [[[-101.14978, 20.14336], [-101.14946, 20.14325], [-101.14999, 20.1406], [-101.14951, 20.14053], [-101.14955, 20.1403], [-101.15045, 20.14043], [-101.14978, 20.14336]]]}}, {"id": "703867", "type": "Feature", "properties": {"id": "703867", "CVEGEO": "1104100330285028", "POBTOT": 0.0, "score_nse": 0.0, "NSE": null, "VIVTOT": 0.0, "GRAPROES": 0.0, "_ent": "11", "_mun": "041", "_loc": "0033"}, "geometry": {"type": "Polygon", "coordinates": [[[-101.15511, 20.14171], [-101.15501, 20.14105], [-101.15535, 20.14098], [-101.15548, 20.14165], [-101.15511, 20.14171]]]}}, {"id": "703868", "type": "Feature", "properties": {"id": "703868", "CVEGEO": "1104100330285026", "POBTOT": 0.0, "score_nse": 0.0, "NSE": null, "VIVTOT": 0.0, "GRAPROES": 0.0, "_ent": "11", "_mun": "041", "_loc": "0033"}, "geometry": {"type": "Polygon", "coordinates": [[[-101.14634, 20.14171], [-101.14637, 20.14215], [-101.14524, 20.14257], [-101.14519, 20.14334], [-101.14452, 20.14357], [-101.1438, 20.14312], [-101.14358, 20.14245], [-101.1438, 20.14216], [-101.14462, 20.14181], [-101.14612, 20.14156], [-101.14566, 20.14049], [-101.14724, 20.1399], [-101.14755, 20.14005], [-101.14783, 20.14107], [-101.14873, 20.14112], [-101.14879, 20.14149], [-101.14927, 20.14228], [-101.14653, 20.14213], [-101.14634, 20.14171]]]}}, {"id": "703869", "type": "Feature", "properties": {"id": "703869", "CVEGEO": "1104100330285025", "POBTOT": 0.0, "score_nse": 0.0, "NSE": null, "VIVTOT": 0.0, "GRAPROES": 0.0, "_ent": "11", "_mun": "041", "_loc": "0033"}, "geometry": {"type": "Polygon", "coordinates": [[[-101.14224, 20.14577], [-101.14182, 20.14646], [-101.14089, 20.1473], [-101.14091, 20.14656], [-101.14058, 20.14594], [-101.14224, 20.14577]]]}}, {"id": "703870", "type": "Feature", "properties": {"id": "703870", "CVEGEO": "1104100330285024", "POBTOT": 0.0, "score_nse": 0.0, "NSE": null, "VIVTOT": 0.0, "GRAPROES": 0.0, "_ent": "11", "_mun": "041", "_loc": "0033"}, "geometry": {"type": "Polygon", "coordinates": [[[-101.15626, 20.14558], [-101.15548, 20.14562], [-101.15553, 20.14463], [-101.1559, 20.14462], [-101.15626, 20.14558]]]}}, {"id": "703871", "type": "Feature", "properties": {"id": "703871", "CVEGEO": "1104100330285023", "POBTOT": 0.0, "score_nse": 0.0, "NSE": null, "VIVTOT": 0.0, "GRAPROES": 0.0, "_ent": "11", "_mun": "041", "_loc": "0033"}, "geometry": {"type": "Polygon", "coordinates": [[[-101.15488, 20.14279], [-101.1547, 20.14184], [-101.15506, 20.14179], [-101.15523, 20.14275], [-101.15488, 20.14279]]]}}, {"id": "703872", "type": "Feature", "properties": {"id": "703872", "CVEGEO": "1104100330285010", "POBTOT": 0.0, "score_nse": 0.0, "NSE": null, "VIVTOT": 0.0, "GRAPROES": 0.0, "_ent": "11", "_mun": "041", "_loc": "0033"}, "geometry": {"type": "Polygon", "coordinates": [[[-101.15208, 20.14262], [-101.15179, 20.14377], [-101.15111, 20.14377], [-101.15208, 20.14262]]]}}, {"id": "703873", "type": "Feature", "properties": {"id": "703873", "CVEGEO": "1104100330285009", "POBTOT": 0.0, "score_nse": 0.0, "NSE": null, "VIVTOT": 0.0, "GRAPROES": 0.0, "_ent": "11", "_mun": "041", "_loc": "0033"}, "geometry": {"type": "Polygon", "coordinates": [[[-101.15207, 20.14519], [-101.15104, 20.14508], [-101.15115, 20.1445], [-101.15207, 20.14462], [-101.15207, 20.14519]]]}}, {"id": "703874", "type": "Feature", "properties": {"id": "703874", "CVEGEO": "1104100330285005", "POBTOT": 0.0, "score_nse": 0.0, "NSE": null, "VIVTOT": 0.0, "GRAPROES": 0.0, "_ent": "11", "_mun": "041", "_loc": "0033"}, "geometry": {"type": "Polygon", "coordinates": [[[-101.15383, 20.1437], [-101.15381, 20.14346], [-101.15462, 20.1431], [-101.15461, 20.14365], [-101.15383, 20.1437]]]}}, {"id": "703875", "type": "Feature", "properties": {"id": "703875", "CVEGEO": "1104100330285004", "POBTOT": 0.0, "score_nse": 0.0, "NSE": null, "VIVTOT": 0.0, "GRAPROES": 0.0, "_ent": "11", "_mun": "041", "_loc": "0033"}, "geometry": {"type": "Polygon", "coordinates": [[[-101.15343, 20.14365], [-101.15375, 20.14349], [-101.15376, 20.1437], [-101.15343, 20.14365]]]}}, {"id": "703876", "type": "Feature", "properties": {"id": "703876", "CVEGEO": "1104100330285003", "POBTOT": 0.0, "score_nse": 0.0, "NSE": null, "VIVTOT": 0.0, "GRAPROES": 0.0, "_ent": "11", "_mun": "041", "_loc": "0033"}, "geometry": {"type": "Polygon", "coordinates": [[[-101.15274, 20.1438], [-101.15212, 20.14402], [-101.15124, 20.14387], [-101.15125, 20.14386], [-101.15274, 20.1438]]]}}, {"id": "703901", "type": "Feature", "properties": {"id": "703901", "CVEGEO": "1104100330285027", "POBTOT": 0.0, "score_nse": 0.0, "NSE": null, "VIVTOT": 0.0, "GRAPROES": 0.0, "_ent": "11", "_mun": "041", "_loc": "0033"}, "geometry": {"type": "Polygon", "coordinates": [[[-101.15468, 20.14176], [-101.15455, 20.14115], [-101.15492, 20.14107], [-101.15504, 20.1417], [-101.15468, 20.14176]]]}}, {"id": "703905", "type": "Feature", "properties": {"id": "703905", "CVEGEO": "1104100330285022", "POBTOT": 0.0, "score_nse": 0.0, "NSE": null, "VIVTOT": 0.0, "GRAPROES": 0.0, "_ent": "11", "_mun": "041", "_loc": "0033"}, "geometry": {"type": "Polygon", "coordinates": [[[-101.15213, 20.14293], [-101.15221, 20.14264], [-101.15303, 20.14274], [-101.15301, 20.14296], [-101.15213, 20.14293]]]}}, {"id": "703906", "type": "Feature", "properties": {"id": "703906", "CVEGEO": "1104100330285006", "POBTOT": 0.0, "score_nse": 0.0, "NSE": null, "VIVTOT": 0.0, "GRAPROES": 0.0, "_ent": "11", "_mun": "041", "_loc": "0033"}, "geometry": {"type": "Polygon", "coordinates": [[[-101.15375, 20.14537], [-101.15383, 20.14375], [-101.1546, 20.14372], [-101.15458, 20.14553], [-101.15375, 20.14537]]]}}, {"id": "704228", "type": "Feature", "properties": {"id": "704228", "CVEGEO": "1104100330285036", "POBTOT": 0.0, "score_nse": 0.0, "NSE": null, "VIVTOT": 0.0, "GRAPROES": 0.0, "_ent": "11", "_mun": "041", "_loc": "0033"}, "geometry": {"type": "Polygon", "coordinates": [[[-101.15498, 20.14096], [-101.15487, 20.14048], [-101.15526, 20.1404], [-101.15533, 20.1409], [-101.15498, 20.14096]]]}}, {"id": "704229", "type": "Feature", "properties": {"id": "704229", "CVEGEO": "1104100330285035", "POBTOT": 0.0, "score_nse": 0.0, "NSE": null, "VIVTOT": 0.0, "GRAPROES": 0.0, "_ent": "11", "_mun": "041", "_loc": "0033"}, "geometry": {"type": "Polygon", "coordinates": [[[-101.15454, 20.14105], [-101.15441, 20.14055], [-101.15477, 20.14049], [-101.15489, 20.14098], [-101.15454, 20.14105]]]}}, {"id": "704230", "type": "Feature", "properties": {"id": "704230", "CVEGEO": "1104100330285034", "POBTOT": 0.0, "score_nse": 0.0, "NSE": null, "VIVTOT": 0.0, "GRAPROES": 0.0, "_ent": "11", "_mun": "041", "_loc": "0033"}, "geometry": {"type": "Polygon", "coordinates": [[[-101.15444, 20.14108], [-101.15405, 20.14115], [-101.15395, 20.14066], [-101.15431, 20.14058], [-101.15444, 20.14108]]]}}, {"id": "704231", "type": "Feature", "properties": {"id": "704231", "CVEGEO": "1104100330285033", "POBTOT": 0.0, "score_nse": 0.0, "NSE": null, "VIVTOT": 0.0, "GRAPROES": 0.0, "_ent": "11", "_mun": "041", "_loc": "0033"}, "geometry": {"type": "Polygon", "coordinates": [[[-101.15379, 20.14214], [-101.15345, 20.14221], [-101.15327, 20.14141], [-101.1536, 20.14135], [-101.15379, 20.14214]]]}}, {"id": "704232", "type": "Feature", "properties": {"id": "704232", "CVEGEO": "1104100330285014", "POBTOT": 0.0, "score_nse": 0.0, "NSE": null, "VIVTOT": 0.0, "GRAPROES": 0.0, "_ent": "11", "_mun": "041", "_loc": "0033"}, "geometry": {"type": "Polygon", "coordinates": [[[-101.15465, 20.14457], [-101.15467, 20.14371], [-101.15526, 20.14372], [-101.15586, 20.14455], [-101.15465, 20.14457]]]}}, {"id": "704233", "type": "Feature", "properties": {"id": "704233", "CVEGEO": "1104100330285013", "POBTOT": 0.0, "score_nse": 0.0, "NSE": null, "VIVTOT": 0.0, "GRAPROES": 0.0, "_ent": "11", "_mun": "041", "_loc": "0033"}, "geometry": {"type": "Polygon", "coordinates": [[[-101.15468, 20.14365], [-101.1547, 20.14306], [-101.15478, 20.14302], [-101.15522, 20.14366], [-101.15468, 20.14365]]]}}, {"id": "704234", "type": "Feature", "properties": {"id": "704234", "CVEGEO": "1104100330285002", "POBTOT": 0.0, "score_nse": 0.0, "NSE": null, "VIVTOT": 0.0, "GRAPROES": 0.0, "_ent": "11", "_mun": "041", "_loc": "0033"}, "geometry": {"type": "Polygon", "coordinates": [[[-101.15214, 20.1452], [-101.15215, 20.14456], [-101.15116, 20.14443], [-101.15125, 20.14402], [-101.1522, 20.14415], [-101.15287, 20.14394], [-101.15284, 20.14527], [-101.15214, 20.1452]]]}}, {"id": "704235", "type": "Feature", "properties": {"id": "704235", "CVEGEO": "1104100330285001", "POBTOT": 0.0, "score_nse": 0.0, "NSE": null, "VIVTOT": 0.0, "GRAPROES": 0.0, "_ent": "11", "_mun": "041", "_loc": "0033"}, "geometry": {"type": "Polygon", "coordinates": [[[-101.1529, 20.14527], [-101.15294, 20.14393], [-101.15338, 20.14371], [-101.15376, 20.14376], [-101.15368, 20.14536], [-101.1529, 20.14527]]]}}, {"id": "704609", "type": "Feature", "properties": {"id": "704609", "CVEGEO": "1104100330285047", "POBTOT": 0.0, "score_nse": 0.0, "NSE": null, "VIVTOT": 0.0, "GRAPROES": 0.0, "_ent": "11", "_mun": "041", "_loc": "0033"}, "geometry": {"type": "Polygon", "coordinates": [[[-101.15059, 20.14435], [-101.15107, 20.14452], [-101.15098, 20.14504], [-101.15034, 20.14467], [-101.15059, 20.14435]]]}}, {"id": "704622", "type": "Feature", "properties": {"id": "704622", "CVEGEO": "1104100330285048", "POBTOT": 0.0, "score_nse": 0.0, "NSE": null, "VIVTOT": 0.0, "GRAPROES": 0.0, "_ent": "11", "_mun": "041", "_loc": "0033"}, "geometry": {"type": "Polygon", "coordinates": [[[-101.14869, 20.13999], [-101.14927, 20.13839], [-101.14998, 20.1386], [-101.15019, 20.13843], [-101.15089, 20.1385], [-101.15106, 20.13806], [-101.15164, 20.13875], [-101.15189, 20.14028], [-101.15064, 20.14038], [-101.14869, 20.13999]]]}}, {"id": "704698", "type": "Feature", "properties": {"id": "704698", "CVEGEO": "1104100330285043", "POBTOT": 0.0, "score_nse": 0.0, "NSE": null, "VIVTOT": 0.0, "GRAPROES": 0.0, "_ent": "11", "_mun": "041", "_loc": "0033"}, "geometry": {"type": "Polygon", "coordinates": [[[-101.15109, 20.14447], [-101.15062, 20.1443], [-101.15094, 20.14391], [-101.15119, 20.144], [-101.15109, 20.14447]]]}}, {"id": "704706", "type": "Feature", "properties": {"id": "704706", "CVEGEO": "1104100330285038", "POBTOT": 0.0, "score_nse": 0.0, "NSE": null, "VIVTOT": 0.0, "GRAPROES": 0.0, "_ent": "11", "_mun": "041", "_loc": "0033"}, "geometry": {"type": "Polygon", "coordinates": [[[-101.15475, 20.14041], [-101.15438, 20.14048], [-101.15419, 20.1397], [-101.15455, 20.13961], [-101.15475, 20.14041]]]}}, {"id": "704707", "type": "Feature", "properties": {"id": "704707", "CVEGEO": "1104100330285039", "POBTOT": 0.0, "score_nse": 0.0, "NSE": null, "VIVTOT": 0.0, "GRAPROES": 0.0, "_ent": "11", "_mun": "041", "_loc": "0033"}, "geometry": {"type": "Polygon", "coordinates": [[[-101.15524, 20.14031], [-101.15483, 20.14039], [-101.15463, 20.13958], [-101.15503, 20.13947], [-101.15524, 20.14031]]]}}, {"id": "704812", "type": "Feature", "properties": {"id": "704812", "CVEGEO": "1104100330285045", "POBTOT": 0.0, "score_nse": 0.0, "NSE": null, "VIVTOT": 0.0, "GRAPROES": 0.0, "_ent": "11", "_mun": "041", "_loc": "0033"}, "geometry": {"type": "Polygon", "coordinates": [[[-101.15419, 20.14207], [-101.15384, 20.14213], [-101.15366, 20.14131], [-101.15401, 20.14124], [-101.15419, 20.14207]]]}}, {"id": "704813", "type": "Feature", "properties": {"id": "704813", "CVEGEO": "1104100330285032", "POBTOT": 0.0, "score_nse": 0.0, "NSE": null, "VIVTOT": 0.0, "GRAPROES": 0.0, "_ent": "11", "_mun": "041", "_loc": "0033"}, "geometry": {"type": "Polygon", "coordinates": [[[-101.15461, 20.14198], [-101.15426, 20.14205], [-101.15408, 20.14122], [-101.15443, 20.14114], [-101.15461, 20.14198]]]}}, {"id": "704814", "type": "Feature", "properties": {"id": "704814", "CVEGEO": "1104100330285012", "POBTOT": 0.0, "score_nse": 0.0, "NSE": null, "VIVTOT": 0.0, "GRAPROES": 0.0, "_ent": "11", "_mun": "041", "_loc": "0033"}, "geometry": {"type": "Polygon", "coordinates": [[[-101.15469, 20.14248], [-101.15465, 20.1429], [-101.153, 20.14363], [-101.15312, 20.14274], [-101.15273, 20.14269], [-101.15271, 20.1419], [-101.15317, 20.14144], [-101.15338, 20.14232], [-101.15463, 20.14207], [-101.15468, 20.14242], [-101.15443, 20.14245], [-101.15469, 20.14248]]]}}, {"id": "704927", "type": "Feature", "properties": {"id": "704927", "CVEGEO": "1104100330285017", "POBTOT": 0.0, "score_nse": 0.0, "NSE": null, "VIVTOT": 0.0, "GRAPROES": 0.0, "_ent": "11", "_mun": "041", "_loc": "0033"}, "geometry": {"type": "Polygon", "coordinates": [[[-101.14885, 20.1475], [-101.14485, 20.1481], [-101.14066, 20.14794], [-101.14092, 20.14764], [-101.1419, 20.14718], [-101.14393, 20.1464], [-101.14753, 20.1451], [-101.1485, 20.14504], [-101.14866, 20.14593], [-101.14816, 20.14578], [-101.14867, 20.14598], [-101.14885, 20.1475]]]}}, {"id": "704929", "type": "Feature", "properties": {"id": "704929", "CVEGEO": "1104100330285046", "POBTOT": 0.0, "score_nse": 0.0, "NSE": null, "VIVTOT": 0.0, "GRAPROES": 0.0, "_ent": "11", "_mun": "041", "_loc": "0033"}, "geometry": {"type": "Polygon", "coordinates": [[[-101.15099, 20.14534], [-101.15015, 20.14488], [-101.15026, 20.1447], [-101.15089, 20.14511], [-101.15099, 20.14534]]]}}, {"id": "704932", "type": "Feature", "properties": {"id": "704932", "CVEGEO": "1104100330285008", "POBTOT": 0.0, "score_nse": 0.0, "NSE": null, "VIVTOT": 0.0, "GRAPROES": 0.0, "_ent": "11", "_mun": "041", "_loc": "0033"}, "geometry": {"type": "Polygon", "coordinates": [[[-101.15105, 20.14512], [-101.15283, 20.14532], [-101.15283, 20.14564], [-101.15108, 20.14538], [-101.15105, 20.14512]]]}}, {"id": "704933", "type": "Feature", "properties": {"id": "704933", "CVEGEO": "1104100330285019", "POBTOT": 0.0, "score_nse": 0.0, "NSE": null, "VIVTOT": 0.0, "GRAPROES": 0.0, "_ent": "11", "_mun": "041", "_loc": "0033"}, "geometry": {"type": "Polygon", "coordinates": [[[-101.14814, 20.14461], [-101.14791, 20.14486], [-101.14695, 20.14519], [-101.14437, 20.14548], [-101.14419, 20.14497], [-101.14365, 20.14501], [-101.14416, 20.14501], [-101.1443, 20.14549], [-101.14231, 20.14572], [-101.14265, 20.14473], [-101.14322, 20.14444], [-101.14362, 20.1445], [-101.14487, 20.14526], [-101.14527, 20.1452], [-101.14613, 20.14466], [-101.14711, 20.14462], [-101.1482, 20.14426], [-101.14814, 20.14461]]]}}, {"id": "704934", "type": "Feature", "properties": {"id": "704934", "CVEGEO": "1104100330285007", "POBTOT": 0.0, "score_nse": 0.0, "NSE": null, "VIVTOT": 0.0, "GRAPROES": 0.0, "_ent": "11", "_mun": "041", "_loc": "0033"}, "geometry": {"type": "Polygon", "coordinates": [[[-101.15374, 20.14578], [-101.15374, 20.14543], [-101.15457, 20.14559], [-101.15456, 20.14592], [-101.15374, 20.14578]]]}}]}