{"type": "FeatureCollection", "features": [{"id": "1439782", "type": "Feature", "properties": {"id": "1439782", "CVEGEO": "190180044018A009", "POBTOT": 0.0, "score_nse": 0.0, "NSE": null, "VIVTOT": 0.0, "GRAPROES": 0.0, "_ent": "19", "_mun": "018", "_loc": "0044"}, "geometry": {"type": "Polygon", "coordinates": [[[-100.69275, 25.77836], [-100.69249, 25.7786], [-100.69188, 25.77888], [-100.69207, 25.77822], [-100.69275, 25.77836]]]}}, {"id": "1439905", "type": "Feature", "properties": {"id": "1439905", "CVEGEO": "190180044018A003", "POBTOT": 0.0, "score_nse": 0.0, "NSE": null, "VIVTOT": 0.0, "GRAPROES": 0.0, "_ent": "19", "_mun": "018", "_loc": "0044"}, "geometry": {"type": "Polygon", "coordinates": [[[-100.69176, 25.77893], [-100.69017, 25.7793], [-100.68989, 25.77924], [-100.6915, 25.77766], [-100.69199, 25.7782], [-100.69176, 25.77893]]]}}, {"id": "1440034", "type": "Feature", "properties": {"id": "1440034", "CVEGEO": "190180044018A006", "POBTOT": 0.0, "score_nse": 0.0, "NSE": null, "VIVTOT": 0.0, "GRAPROES": 0.0, "_ent": "19", "_mun": "018", "_loc": "0044"}, "geometry": {"type": "Polygon", "coordinates": [[[-100.69104, 25.77749], [-100.69128, 25.77611], [-100.69214, 25.77615], [-100.69258, 25.77635], [-100.69141, 25.77751], [-100.69104, 25.77749]]]}}, {"id": "1441948", "type": "Feature", "properties": {"id": "1441948", "CVEGEO": "190180044018A015", "POBTOT": 0.0, "score_nse": 0.0, "NSE": null, "VIVTOT": 0.0, "GRAPROES": 0.0, "_ent": "19", "_mun": "018", "_loc": "0044"}, "geometry": {"type": "Polygon", "coordinates": [[[-100.68606, 25.78093], [-100.68789, 25.77848], [-100.68838, 25.77884], [-100.68631, 25.7811], [-100.68606, 25.78093]]]}}, {"id": "1441949", "type": "Feature", "properties": {"id": "1441949", "CVEGEO": "190180044018A002", "POBTOT": 0.0, "score_nse": 0.0, "NSE": null, "VIVTOT": 0.0, "GRAPROES": 0.0, "_ent": "19", "_mun": "018", "_loc": "0044"}, "geometry": {"type": "Polygon", "coordinates": [[[-100.69281, 25.7786], [-100.69252, 25.77919], [-100.69211, 25.77947], [-100.69126, 25.77916], [-100.69281, 25.7786]]]}}, {"id": "1441950", "type": "Feature", "properties": {"id": "1441950", "CVEGEO": "190180044018A013", "POBTOT": 0.0, "score_nse": 0.0, "NSE": null, "VIVTOT": 0.0, "GRAPROES": 0.0, "_ent": "19", "_mun": "018", "_loc": "0044"}, "geometry": {"type": "Polygon", "coordinates": [[[-100.68643, 25.78104], [-100.68779, 25.77961], [-100.68836, 25.78007], [-100.68703, 25.78142], [-100.68643, 25.78104]]]}}, {"id": "1441951", "type": "Feature", "properties": {"id": "1441951", "CVEGEO": "190180044018A014", "POBTOT": 0.0, "score_nse": 0.0, "NSE": null, "VIVTOT": 0.0, "GRAPROES": 0.0, "_ent": "19", "_mun": "018", "_loc": "0044"}, "geometry": {"type": "Polygon", "coordinates": [[[-100.68785, 25.77956], [-100.68848, 25.77891], [-100.68905, 25.77935], [-100.68841, 25.78001], [-100.68785, 25.77956]]]}}, {"id": "1441952", "type": "Feature", "properties": {"id": "1441952", "CVEGEO": "190180044018A018", "POBTOT": 0.0, "score_nse": 0.0, "NSE": null, "VIVTOT": 0.0, "GRAPROES": 0.0, "_ent": "19", "_mun": "018", "_loc": "0044"}, "geometry": {"type": "Polygon", "coordinates": [[[-100.68799, 25.7784], [-100.68864, 25.77743], [-100.6893, 25.77721], [-100.68986, 25.77742], [-100.68852, 25.77878], [-100.68799, 25.7784]]]}}, {"id": "1441953", "type": "Feature", "properties": {"id": "1441953", "CVEGEO": "190180044018A011", "POBTOT": 0.0, "score_nse": 0.0, "NSE": null, "VIVTOT": 0.0, "GRAPROES": 0.0, "_ent": "19", "_mun": "018", "_loc": "0044"}, "geometry": {"type": "Polygon", "coordinates": [[[-100.69259, 25.77624], [-100.69129, 25.77603], [-100.69084, 25.77533], [-100.69082, 25.77472], [-100.69506, 25.77369], [-100.69526, 25.77412], [-100.69388, 25.77472], [-100.69259, 25.77624]]]}}, {"id": "1441954", "type": "Feature", "properties": {"id": "1441954", "CVEGEO": "190180044018A012", "POBTOT": 0.0, "score_nse": 0.0, "NSE": null, "VIVTOT": 0.0, "GRAPROES": 0.0, "_ent": "19", "_mun": "018", "_loc": "0044"}, "geometry": {"type": "Polygon", "coordinates": [[[-100.69312, 25.77408], [-100.69378, 25.77272], [-100.69489, 25.77355], [-100.69312, 25.77408]]]}}, {"id": "1441955", "type": "Feature", "properties": {"id": "1441955", "CVEGEO": "190180044018A001", "POBTOT": 0.0, "score_nse": 0.0, "NSE": null, "VIVTOT": 0.0, "GRAPROES": 0.0, "_ent": "19", "_mun": "018", "_loc": "0044"}, "geometry": {"type": "Polygon", "coordinates": [[[-100.69095, 25.78089], [-100.68991, 25.78042], [-100.68986, 25.78053], [-100.68956, 25.78048], [-100.6892, 25.78008], [-100.69018, 25.77936], [-100.69127, 25.7792], [-100.69189, 25.77952], [-100.69138, 25.78081], [-100.69095, 25.78089]]]}}, {"id": "1441956", "type": "Feature", "properties": {"id": "1441956", "CVEGEO": "190180044018A007", "POBTOT": 0.0, "score_nse": 0.0, "NSE": null, "VIVTOT": 0.0, "GRAPROES": 0.0, "_ent": "19", "_mun": "018", "_loc": "0044"}, "geometry": {"type": "Polygon", "coordinates": [[[-100.69298, 25.7741], [-100.6907, 25.77465], [-100.69009, 25.77317], [-100.69047, 25.77295], [-100.69163, 25.77292], [-100.69228, 25.77226], [-100.69272, 25.77228], [-100.69368, 25.77267], [-100.69298, 25.7741]]]}}, {"id": "1443325", "type": "Feature", "properties": {"id": "1443325", "CVEGEO": "190180044018A004", "POBTOT": 0.0, "score_nse": 0.0, "NSE": null, "VIVTOT": 0.0, "GRAPROES": 0.0, "_ent": "19", "_mun": "018", "_loc": "0044"}, "geometry": {"type": "Polygon", "coordinates": [[[-100.6963, 25.77421], [-100.69582, 25.77495], [-100.69287, 25.77669], [-100.69272, 25.77701], [-100.69293, 25.77825], [-100.69251, 25.77833], [-100.69213, 25.77818], [-100.69258, 25.77735], [-100.69248, 25.7773], [-100.69207, 25.77809], [-100.69167, 25.77779], [-100.69157, 25.77761], [-100.69185, 25.77731], [-100.69422, 25.77502], [-100.69571, 25.7742], [-100.6963, 25.77421]]]}}, {"id": "1443326", "type": "Feature", "properties": {"id": "1443326", "CVEGEO": "190180044018A008", "POBTOT": 0.0, "score_nse": 0.0, "NSE": null, "VIVTOT": 0.0, "GRAPROES": 0.0, "_ent": "19", "_mun": "018", "_loc": "0044"}, "geometry": {"type": "Polygon", "coordinates": [[[-100.69198, 25.77956], [-100.69232, 25.77969], [-100.69203, 25.78089], [-100.69133, 25.78242], [-100.69105, 25.78261], [-100.6908, 25.78243], [-100.69069, 25.78211], [-100.69148, 25.78083], [-100.69198, 25.77956]]]}}, {"id": "1443327", "type": "Feature", "properties": {"id": "1443327", "CVEGEO": "190180044018A016", "POBTOT": 0.0, "score_nse": 0.0, "NSE": null, "VIVTOT": 0.0, "GRAPROES": 0.0, "_ent": "19", "_mun": "018", "_loc": "0044"}, "geometry": {"type": "Polygon", "coordinates": [[[-100.68867, 25.77887], [-100.68931, 25.77815], [-100.68991, 25.77864], [-100.68924, 25.7793], [-100.68867, 25.77887]]]}}, {"id": "1443328", "type": "Feature", "properties": {"id": "1443328", "CVEGEO": "190180044018A017", "POBTOT": 0.0, "score_nse": 0.0, "NSE": null, "VIVTOT": 0.0, "GRAPROES": 0.0, "_ent": "19", "_mun": "018", "_loc": "0044"}, "geometry": {"type": "Polygon", "coordinates": [[[-100.68937, 25.77806], [-100.69001, 25.77741], [-100.69116, 25.77753], [-100.68996, 25.77859], [-100.68937, 25.77806]]]}}]}