{"type": "FeatureCollection", "features": [{"id": "611837", "type": "Feature", "properties": {"id": "611837", "CVEGEO": "1100303260015001", "POBTOT": 0.0, "score_nse": 0.0, "NSE": null, "VIVTOT": 0.0, "GRAPROES": 0.0, "_ent": "11", "_mun": "003", "_loc": "0326"}, "geometry": {"type": "Polygon", "coordinates": [[[-100.75504, 21.04587], [-100.75502, 21.04626], [-100.75427, 21.0462], [-100.75459, 21.04636], [-100.75452, 21.04705], [-100.75349, 21.04733], [-100.75351, 21.04551], [-100.75504, 21.04587]]]}}, {"id": "612450", "type": "Feature", "properties": {"id": "612450", "CVEGEO": "1100303260015007", "POBTOT": 0.0, "score_nse": 0.0, "NSE": null, "VIVTOT": 0.0, "GRAPROES": 0.0, "_ent": "11", "_mun": "003", "_loc": "0326"}, "geometry": {"type": "Polygon", "coordinates": [[[-100.75273, 21.04764], [-100.7535, 21.04751], [-100.75394, 21.04823], [-100.753, 21.04891], [-100.75232, 21.04903], [-100.75165, 21.04821], [-100.7517, 21.04771], [-100.75189, 21.04757], [-100.75266, 21.04784], [-100.75273, 21.04764]]]}}, {"id": "612451", "type": "Feature", "properties": {"id": "612451", "CVEGEO": "1100303260015006", "POBTOT": 0.0, "score_nse": 0.0, "NSE": null, "VIVTOT": 0.0, "GRAPROES": 0.0, "_ent": "11", "_mun": "003", "_loc": "0326"}, "geometry": {"type": "Polygon", "coordinates": [[[-100.754, 21.04817], [-100.75364, 21.0474], [-100.75456, 21.0471], [-100.7548, 21.04727], [-100.754, 21.04817]]]}}, {"id": "612894", "type": "Feature", "properties": {"id": "612894", "CVEGEO": "1100303260015013", "POBTOT": 0.0, "score_nse": 0.0, "NSE": null, "VIVTOT": 0.0, "GRAPROES": 0.0, "_ent": "11", "_mun": "003", "_loc": "0326"}, "geometry": {"type": "Polygon", "coordinates": [[[-100.75123, 21.04499], [-100.75133, 21.04581], [-100.75121, 21.04614], [-100.75013, 21.04649], [-100.74929, 21.04697], [-100.75123, 21.04499]]]}}, {"id": "612895", "type": "Feature", "properties": {"id": "612895", "CVEGEO": "1100303260015012", "POBTOT": 0.0, "score_nse": 0.0, "NSE": null, "VIVTOT": 0.0, "GRAPROES": 0.0, "_ent": "11", "_mun": "003", "_loc": "0326"}, "geometry": {"type": "Polygon", "coordinates": [[[-100.75125, 21.04652], [-100.75161, 21.04763], [-100.75155, 21.04786], [-100.75062, 21.04826], [-100.74989, 21.04826], [-100.74951, 21.04782], [-100.74956, 21.04704], [-100.75001, 21.04672], [-100.75088, 21.04645], [-100.75125, 21.04652]]]}}, {"id": "612896", "type": "Feature", "properties": {"id": "612896", "CVEGEO": "1100303260015010", "POBTOT": 0.0, "score_nse": 0.0, "NSE": null, "VIVTOT": 0.0, "GRAPROES": 0.0, "_ent": "11", "_mun": "003", "_loc": "0326"}, "geometry": {"type": "Polygon", "coordinates": [[[-100.75372, 21.04454], [-100.75365, 21.04426], [-100.75414, 21.04418], [-100.75372, 21.04454]]]}}, {"id": "612897", "type": "Feature", "properties": {"id": "612897", "CVEGEO": "1100303260015008", "POBTOT": 0.0, "score_nse": 0.0, "NSE": null, "VIVTOT": 0.0, "GRAPROES": 0.0, "_ent": "11", "_mun": "003", "_loc": "0326"}, "geometry": {"type": "Polygon", "coordinates": [[[-100.75272, 21.04759], [-100.75161, 21.04739], [-100.75155, 21.0472], [-100.7519, 21.04714], [-100.75154, 21.04715], [-100.75158, 21.04679], [-100.75228, 21.04671], [-100.7528, 21.047], [-100.75317, 21.04746], [-100.75272, 21.04759]]]}}, {"id": "613732", "type": "Feature", "properties": {"id": "613732", "CVEGEO": "1100303260015009", "POBTOT": 0.0, "score_nse": 0.0, "NSE": null, "VIVTOT": 0.0, "GRAPROES": 0.0, "_ent": "11", "_mun": "003", "_loc": "0326"}, "geometry": {"type": "Polygon", "coordinates": [[[-100.75363, 21.04436], [-100.75366, 21.04458], [-100.75339, 21.04482], [-100.752, 21.04468], [-100.75148, 21.04483], [-100.75175, 21.04464], [-100.75363, 21.04436]]]}}, {"id": "613760", "type": "Feature", "properties": {"id": "613760", "CVEGEO": "1100303260015005", "POBTOT": 0.0, "score_nse": 0.0, "NSE": null, "VIVTOT": 0.0, "GRAPROES": 0.0, "_ent": "11", "_mun": "003", "_loc": "0326"}, "geometry": {"type": "Polygon", "coordinates": [[[-100.75584, 21.04614], [-100.75499, 21.04707], [-100.75463, 21.04708], [-100.75464, 21.04639], [-100.75584, 21.04614]]]}}, {"id": "613761", "type": "Feature", "properties": {"id": "613761", "CVEGEO": "1100303260015004", "POBTOT": 0.0, "score_nse": 0.0, "NSE": null, "VIVTOT": 0.0, "GRAPROES": 0.0, "_ent": "11", "_mun": "003", "_loc": "0326"}, "geometry": {"type": "Polygon", "coordinates": [[[-100.7552, 21.04585], [-100.75563, 21.04588], [-100.75608, 21.04589], [-100.75588, 21.0461], [-100.75507, 21.04626], [-100.7552, 21.04585]]]}}, {"id": "613762", "type": "Feature", "properties": {"id": "613762", "CVEGEO": "1100303260015003", "POBTOT": 0.0, "score_nse": 0.0, "NSE": null, "VIVTOT": 0.0, "GRAPROES": 0.0, "_ent": "11", "_mun": "003", "_loc": "0326"}, "geometry": {"type": "Polygon", "coordinates": [[[-100.75463, 21.04465], [-100.7545, 21.04572], [-100.75351, 21.04544], [-100.7535, 21.04497], [-100.75463, 21.04465]]]}}, {"id": "613763", "type": "Feature", "properties": {"id": "613763", "CVEGEO": "1100303260015002", "POBTOT": 0.0, "score_nse": 0.0, "NSE": null, "VIVTOT": 0.0, "GRAPROES": 0.0, "_ent": "11", "_mun": "003", "_loc": "0326"}, "geometry": {"type": "Polygon", "coordinates": [[[-100.75266, 21.04569], [-100.75206, 21.04595], [-100.75229, 21.046], [-100.7527, 21.04572], [-100.75295, 21.04582], [-100.75342, 21.04584], [-100.7534, 21.04735], [-100.75321, 21.04739], [-100.75295, 21.04703], [-100.75228, 21.04665], [-100.75151, 21.04671], [-100.75139, 21.04647], [-100.75156, 21.04593], [-100.75137, 21.04512], [-100.75166, 21.04489], [-100.75344, 21.04492], [-100.75343, 21.0458], [-100.75278, 21.04573], [-100.75245, 21.04539], [-100.75224, 21.04535], [-100.75266, 21.04569]]]}}, {"id": "615940", "type": "Feature", "properties": {"id": "615940", "CVEGEO": "1100303260015014", "POBTOT": 0.0, "score_nse": 0.0, "NSE": null, "VIVTOT": 0.0, "GRAPROES": 0.0, "_ent": "11", "_mun": "003", "_loc": "0326"}, "geometry": {"type": "Polygon", "coordinates": [[[-100.75495, 21.04729], [-100.75589, 21.04631], [-100.75654, 21.04702], [-100.75558, 21.04798], [-100.75495, 21.04729]]]}}]}