{"type": "FeatureCollection", "features": [{"id": "646074", "type": "Feature", "properties": {"id": "646074", "CVEGEO": "1101900060091005", "POBTOT": 0.0, "score_nse": 0.0, "NSE": null, "VIVTOT": 0.0, "GRAPROES": 0.0, "_ent": "11", "_mun": "019", "_loc": "0006"}, "geometry": {"type": "Polygon", "coordinates": [[[-100.46807, 20.14617], [-100.46807, 20.14535], [-100.46859, 20.14545], [-100.46858, 20.14571], [-100.46864, 20.14546], [-100.46903, 20.14553], [-100.46922, 20.14616], [-100.46807, 20.14617]]]}}, {"id": "646081", "type": "Feature", "properties": {"id": "646081", "CVEGEO": "1101900060091001", "POBTOT": 0.0, "score_nse": 0.0, "NSE": null, "VIVTOT": 0.0, "GRAPROES": 0.0, "_ent": "11", "_mun": "019", "_loc": "0006"}, "geometry": {"type": "Polygon", "coordinates": [[[-100.47127, 20.14582], [-100.47051, 20.14602], [-100.47037, 20.14562], [-100.47156, 20.14544], [-100.47127, 20.14582]]]}}, {"id": "646082", "type": "Feature", "properties": {"id": "646082", "CVEGEO": "1101900060091002", "POBTOT": 0.0, "score_nse": 0.0, "NSE": null, "VIVTOT": 0.0, "GRAPROES": 0.0, "_ent": "11", "_mun": "019", "_loc": "0006"}, "geometry": {"type": "Polygon", "coordinates": [[[-100.47101, 20.14601], [-100.47084, 20.14683], [-100.47066, 20.14692], [-100.47053, 20.14608], [-100.47101, 20.14601]]]}}, {"id": "646083", "type": "Feature", "properties": {"id": "646083", "CVEGEO": "1101900060091003", "POBTOT": 0.0, "score_nse": 0.0, "NSE": null, "VIVTOT": 0.0, "GRAPROES": 0.0, "_ent": "11", "_mun": "019", "_loc": "0006"}, "geometry": {"type": "Polygon", "coordinates": [[[-100.47047, 20.14624], [-100.47057, 20.14699], [-100.47013, 20.14708], [-100.46997, 20.14623], [-100.47047, 20.14624]]]}}, {"id": "646084", "type": "Feature", "properties": {"id": "646084", "CVEGEO": "1101900060091006", "POBTOT": 0.0, "score_nse": 0.0, "NSE": null, "VIVTOT": 0.0, "GRAPROES": 0.0, "_ent": "11", "_mun": "019", "_loc": "0006"}, "geometry": {"type": "Polygon", "coordinates": [[[-100.47012, 20.14619], [-100.46928, 20.14616], [-100.46911, 20.14556], [-100.47008, 20.14567], [-100.47012, 20.14619]]]}}, {"id": "646085", "type": "Feature", "properties": {"id": "646085", "CVEGEO": "1101900060091004", "POBTOT": 0.0, "score_nse": 0.0, "NSE": null, "VIVTOT": 0.0, "GRAPROES": 0.0, "_ent": "11", "_mun": "019", "_loc": "0006"}, "geometry": {"type": "Polygon", "coordinates": [[[-100.46783, 20.1466], [-100.46696, 20.14635], [-100.46694, 20.14562], [-100.46718, 20.14561], [-100.46694, 20.14554], [-100.46674, 20.14495], [-100.4674, 20.1452], [-100.46741, 20.14573], [-100.46744, 20.14521], [-100.46795, 20.14534], [-100.46793, 20.14615], [-100.46755, 20.14612], [-100.46792, 20.1462], [-100.46783, 20.1466]]]}}]}