{"type": "FeatureCollection", "features": [{"id": "645364", "type": "Feature", "properties": {"id": "645364", "CVEGEO": "1101900470015006", "POBTOT": 0.0, "score_nse": 0.0, "NSE": null, "VIVTOT": 0.0, "GRAPROES": 0.0, "_ent": "11", "_mun": "019", "_loc": "0047"}, "geometry": {"type": "Polygon", "coordinates": [[[-100.63051, 20.33877], [-100.62964, 20.33902], [-100.62943, 20.33887], [-100.62949, 20.33849], [-100.63051, 20.33833], [-100.63051, 20.33877]]]}}, {"id": "645365", "type": "Feature", "properties": {"id": "645365", "CVEGEO": "1101900470015007", "POBTOT": 0.0, "score_nse": 0.0, "NSE": null, "VIVTOT": 0.0, "GRAPROES": 0.0, "_ent": "11", "_mun": "019", "_loc": "0047"}, "geometry": {"type": "Polygon", "coordinates": [[[-100.62866, 20.33862], [-100.62987, 20.33909], [-100.63057, 20.33881], [-100.63066, 20.33942], [-100.62976, 20.33965], [-100.62822, 20.33967], [-100.62825, 20.3392], [-100.62882, 20.33905], [-100.62866, 20.33862]]]}}, {"id": "645366", "type": "Feature", "properties": {"id": "645366", "CVEGEO": "1101900470015005", "POBTOT": 0.0, "score_nse": 0.0, "NSE": null, "VIVTOT": 0.0, "GRAPROES": 0.0, "_ent": "11", "_mun": "019", "_loc": "0047"}, "geometry": {"type": "Polygon", "coordinates": [[[-100.62571, 20.33844], [-100.62655, 20.33868], [-100.62633, 20.33916], [-100.62598, 20.33919], [-100.62509, 20.33862], [-100.62513, 20.33837], [-100.6254, 20.33816], [-100.62574, 20.33819], [-100.62571, 20.33844]]]}}, {"id": "645367", "type": "Feature", "properties": {"id": "645367", "CVEGEO": "1101900470015002", "POBTOT": 0.0, "score_nse": 0.0, "NSE": null, "VIVTOT": 0.0, "GRAPROES": 0.0, "_ent": "11", "_mun": "019", "_loc": "0047"}, "geometry": {"type": "Polygon", "coordinates": [[[-100.62568, 20.33905], [-100.6249, 20.33902], [-100.62484, 20.33954], [-100.62468, 20.33954], [-100.62385, 20.3393], [-100.62382, 20.33891], [-100.62531, 20.33874], [-100.62568, 20.33905]]]}}, {"id": "645692", "type": "Feature", "properties": {"id": "645692", "CVEGEO": "1101900470015003", "POBTOT": 0.0, "score_nse": 0.0, "NSE": null, "VIVTOT": 0.0, "GRAPROES": 0.0, "_ent": "11", "_mun": "019", "_loc": "0047"}, "geometry": {"type": "Polygon", "coordinates": [[[-100.62379, 20.33895], [-100.62379, 20.33916], [-100.62333, 20.33915], [-100.62335, 20.33879], [-100.62379, 20.33895]]]}}, {"id": "645784", "type": "Feature", "properties": {"id": "645784", "CVEGEO": "1101900470015004", "POBTOT": 0.0, "score_nse": 0.0, "NSE": null, "VIVTOT": 0.0, "GRAPROES": 0.0, "_ent": "11", "_mun": "019", "_loc": "0047"}, "geometry": {"type": "Polygon", "coordinates": [[[-100.62414, 20.33892], [-100.62317, 20.33855], [-100.62334, 20.33809], [-100.6233, 20.33764], [-100.62371, 20.33766], [-100.62361, 20.33829], [-100.62413, 20.33842], [-100.62477, 20.33832], [-100.62466, 20.33878], [-100.62414, 20.33892]]]}}, {"id": "645875", "type": "Feature", "properties": {"id": "645875", "CVEGEO": "1101900470015001", "POBTOT": 0.0, "score_nse": 0.0, "NSE": null, "VIVTOT": 0.0, "GRAPROES": 0.0, "_ent": "11", "_mun": "019", "_loc": "0047"}, "geometry": {"type": "Polygon", "coordinates": [[[-100.62472, 20.33874], [-100.62483, 20.33835], [-100.62501, 20.33834], [-100.6249, 20.3387], [-100.62472, 20.33874]]]}}]}