{"type": "FeatureCollection", "features": [{"id": "1608595", "type": "Feature", "properties": {"id": "1608595", "CVEGEO": "2031000360015002", "POBTOT": 0.0, "score_nse": 0.0, "NSE": null, "VIVTOT": 0.0, "GRAPROES": 0.0, "_ent": "20", "_mun": "310", "_loc": "0036"}, "geometry": {"type": "Polygon", "coordinates": [[[-96.8034, 17.05503], [-96.80335, 17.05462], [-96.80427, 17.05457], [-96.80424, 17.05496], [-96.8034, 17.05503]]]}}, {"id": "1608596", "type": "Feature", "properties": {"id": "1608596", "CVEGEO": "2031000360015003", "POBTOT": 0.0, "score_nse": 0.0, "NSE": null, "VIVTOT": 0.0, "GRAPROES": 0.0, "_ent": "20", "_mun": "310", "_loc": "0036"}, "geometry": {"type": "Polygon", "coordinates": [[[-96.8034, 17.05505], [-96.80383, 17.055], [-96.80424, 17.05498], [-96.80411, 17.0554], [-96.80341, 17.05545], [-96.8034, 17.05505]]]}}, {"id": "1608597", "type": "Feature", "properties": {"id": "1608597", "CVEGEO": "2031000360015004", "POBTOT": 0.0, "score_nse": 0.0, "NSE": null, "VIVTOT": 0.0, "GRAPROES": 0.0, "_ent": "20", "_mun": "310", "_loc": "0036"}, "geometry": {"type": "Polygon", "coordinates": [[[-96.8026, 17.05512], [-96.80336, 17.05506], [-96.80337, 17.05545], [-96.80257, 17.05548], [-96.8026, 17.05512]]]}}, {"id": "1608604", "type": "Feature", "properties": {"id": "1608604", "CVEGEO": "2031000360015009", "POBTOT": 0.0, "score_nse": 0.0, "NSE": null, "VIVTOT": 0.0, "GRAPROES": 0.0, "_ent": "20", "_mun": "310", "_loc": "0036"}, "geometry": {"type": "Polygon", "coordinates": [[[-96.80404, 17.05314], [-96.80322, 17.05351], [-96.80322, 17.05351], [-96.80316, 17.05328], [-96.80343, 17.05312], [-96.80349, 17.05278], [-96.80395, 17.05287], [-96.80404, 17.05314]]]}}, {"id": "1608605", "type": "Feature", "properties": {"id": "1608605", "CVEGEO": "2031000360015012", "POBTOT": 0.0, "score_nse": 0.0, "NSE": null, "VIVTOT": 0.0, "GRAPROES": 0.0, "_ent": "20", "_mun": "310", "_loc": "0036"}, "geometry": {"type": "Polygon", "coordinates": [[[-96.80225, 17.05607], [-96.80229, 17.05472], [-96.80253, 17.05472], [-96.80253, 17.05551], [-96.8029, 17.05553], [-96.8029, 17.05587], [-96.8027, 17.05583], [-96.80264, 17.05609], [-96.80225, 17.05607]]]}}, {"id": "1608765", "type": "Feature", "properties": {"id": "1608765", "CVEGEO": "2031000360015006", "POBTOT": 0.0, "score_nse": 0.0, "NSE": null, "VIVTOT": 0.0, "GRAPROES": 0.0, "_ent": "20", "_mun": "310", "_loc": "0036"}, "geometry": {"type": "Polygon", "coordinates": [[[-96.80418, 17.05544], [-96.80428, 17.05554], [-96.8039, 17.05584], [-96.80294, 17.05588], [-96.80294, 17.05553], [-96.80418, 17.05544]]]}}, {"id": "1608766", "type": "Feature", "properties": {"id": "1608766", "CVEGEO": "2031000360015001", "POBTOT": 0.0, "score_nse": 0.0, "NSE": null, "VIVTOT": 0.0, "GRAPROES": 0.0, "_ent": "20", "_mun": "310", "_loc": "0036"}, "geometry": {"type": "Polygon", "coordinates": [[[-96.80263, 17.0547], [-96.80331, 17.05463], [-96.80336, 17.05503], [-96.80262, 17.05508], [-96.80263, 17.0547]]]}}, {"id": "1608767", "type": "Feature", "properties": {"id": "1608767", "CVEGEO": "2031000360015005", "POBTOT": 0.0, "score_nse": 0.0, "NSE": null, "VIVTOT": 0.0, "GRAPROES": 0.0, "_ent": "20", "_mun": "310", "_loc": "0036"}, "geometry": {"type": "Polygon", "coordinates": [[[-96.80328, 17.05414], [-96.80249, 17.0542], [-96.80247, 17.05405], [-96.80324, 17.05387], [-96.80322, 17.05355], [-96.80405, 17.05317], [-96.80427, 17.0545], [-96.8026, 17.05465], [-96.8025, 17.05423], [-96.80328, 17.05414]]]}}, {"id": "1608855", "type": "Feature", "properties": {"id": "1608855", "CVEGEO": "2031000360015010", "POBTOT": 0.0, "score_nse": 0.0, "NSE": null, "VIVTOT": 0.0, "GRAPROES": 0.0, "_ent": "20", "_mun": "310", "_loc": "0036"}, "geometry": {"type": "Polygon", "coordinates": [[[-96.80175, 17.05737], [-96.80167, 17.05473], [-96.80224, 17.05472], [-96.80211, 17.05602], [-96.80223, 17.05735], [-96.80175, 17.05737]]]}}, {"id": "1608892", "type": "Feature", "properties": {"id": "1608892", "CVEGEO": "2031000360015007", "POBTOT": 0.0, "score_nse": 0.0, "NSE": null, "VIVTOT": 0.0, "GRAPROES": 0.0, "_ent": "20", "_mun": "310", "_loc": "0036"}, "geometry": {"type": "Polygon", "coordinates": [[[-96.80272, 17.05333], [-96.80315, 17.05337], [-96.80323, 17.05384], [-96.80288, 17.05392], [-96.80272, 17.05333]]]}}, {"id": "1608915", "type": "Feature", "properties": {"id": "1608915", "CVEGEO": "2031000360015008", "POBTOT": 0.0, "score_nse": 0.0, "NSE": null, "VIVTOT": 0.0, "GRAPROES": 0.0, "_ent": "20", "_mun": "310", "_loc": "0036"}, "geometry": {"type": "Polygon", "coordinates": [[[-96.80266, 17.05338], [-96.80284, 17.05393], [-96.80247, 17.05402], [-96.80235, 17.05349], [-96.80266, 17.05338]]]}}]}