{"type": "FeatureCollection", "features": [{"id": "1608572", "type": "Feature", "properties": {"id": "1608572", "CVEGEO": "2031000390015004", "POBTOT": 0.0, "score_nse": 0.0, "NSE": null, "VIVTOT": 0.0, "GRAPROES": 0.0, "_ent": "20", "_mun": "310", "_loc": "0039"}, "geometry": {"type": "Polygon", "coordinates": [[[-96.82615, 17.04721], [-96.82607, 17.04757], [-96.82529, 17.0474], [-96.82535, 17.04704], [-96.82615, 17.04721]]]}}, {"id": "1608573", "type": "Feature", "properties": {"id": "1608573", "CVEGEO": "2031000390015005", "POBTOT": 0.0, "score_nse": 0.0, "NSE": null, "VIVTOT": 0.0, "GRAPROES": 0.0, "_ent": "20", "_mun": "310", "_loc": "0039"}, "geometry": {"type": "Polygon", "coordinates": [[[-96.8262, 17.04717], [-96.82539, 17.047], [-96.8254, 17.04662], [-96.8263, 17.0468], [-96.8262, 17.04717]]]}}, {"id": "1608574", "type": "Feature", "properties": {"id": "1608574", "CVEGEO": "2031000390015001", "POBTOT": 0.0, "score_nse": 0.0, "NSE": null, "VIVTOT": 0.0, "GRAPROES": 0.0, "_ent": "20", "_mun": "310", "_loc": "0039"}, "geometry": {"type": "Polygon", "coordinates": [[[-96.82477, 17.04878], [-96.8254, 17.0489], [-96.82534, 17.04928], [-96.82471, 17.04894], [-96.82477, 17.04878]]]}}, {"id": "1608575", "type": "Feature", "properties": {"id": "1608575", "CVEGEO": "2031000390015006", "POBTOT": 0.0, "score_nse": 0.0, "NSE": null, "VIVTOT": 0.0, "GRAPROES": 0.0, "_ent": "20", "_mun": "310", "_loc": "0039"}, "geometry": {"type": "Polygon", "coordinates": [[[-96.82632, 17.04676], [-96.8254, 17.04656], [-96.82536, 17.04618], [-96.8262, 17.04634], [-96.82632, 17.04676]]]}}, {"id": "1608578", "type": "Feature", "properties": {"id": "1608578", "CVEGEO": "2031000390015002", "POBTOT": 0.0, "score_nse": 0.0, "NSE": null, "VIVTOT": 0.0, "GRAPROES": 0.0, "_ent": "20", "_mun": "310", "_loc": "0039"}, "geometry": {"type": "Polygon", "coordinates": [[[-96.8254, 17.04846], [-96.82536, 17.0488], [-96.82481, 17.04872], [-96.82494, 17.04839], [-96.8254, 17.04846]]]}}, {"id": "1608579", "type": "Feature", "properties": {"id": "1608579", "CVEGEO": "2031000390015003", "POBTOT": 0.0, "score_nse": 0.0, "NSE": null, "VIVTOT": 0.0, "GRAPROES": 0.0, "_ent": "20", "_mun": "310", "_loc": "0039"}, "geometry": {"type": "Polygon", "coordinates": [[[-96.82565, 17.04754], [-96.82541, 17.0484], [-96.82494, 17.04832], [-96.82529, 17.04747], [-96.82565, 17.04754]]]}}]}