{"type": "FeatureCollection", "features": [{"id": "2277884", "type": "Feature", "properties": {"id": "2277884", "CVEGEO": "300530100001A001", "POBTOT": 0.0, "score_nse": 0.0, "NSE": null, "VIVTOT": 0.0, "GRAPROES": 0.0, "_ent": "30", "_mun": "053", "_loc": "0100"}, "geometry": {"type": "Polygon", "coordinates": [[[-96.71919, 18.80589], [-96.71814, 18.80547], [-96.7182, 18.80508], [-96.71928, 18.80551], [-96.71919, 18.80589]]]}}, {"id": "2277894", "type": "Feature", "properties": {"id": "2277894", "CVEGEO": "300530100001A007", "POBTOT": 0.0, "score_nse": 0.0, "NSE": null, "VIVTOT": 0.0, "GRAPROES": 0.0, "_ent": "30", "_mun": "053", "_loc": "0100"}, "geometry": {"type": "Polygon", "coordinates": [[[-96.71801, 18.80565], [-96.71722, 18.80536], [-96.71728, 18.80517], [-96.71809, 18.80548], [-96.71801, 18.80565]]]}}, {"id": "2277895", "type": "Feature", "properties": {"id": "2277895", "CVEGEO": "300530100001A003", "POBTOT": 0.0, "score_nse": 0.0, "NSE": null, "VIVTOT": 0.0, "GRAPROES": 0.0, "_ent": "30", "_mun": "053", "_loc": "0100"}, "geometry": {"type": "Polygon", "coordinates": [[[-96.71809, 18.80546], [-96.71729, 18.80515], [-96.7174, 18.8048], [-96.71814, 18.80506], [-96.71809, 18.80546]]]}}, {"id": "2277896", "type": "Feature", "properties": {"id": "2277896", "CVEGEO": "300530100001A009", "POBTOT": 0.0, "score_nse": 0.0, "NSE": null, "VIVTOT": 0.0, "GRAPROES": 0.0, "_ent": "30", "_mun": "053", "_loc": "0100"}, "geometry": {"type": "Polygon", "coordinates": [[[-96.71827, 18.80465], [-96.71755, 18.80436], [-96.71761, 18.8042], [-96.71832, 18.80448], [-96.71827, 18.80465]]]}}, {"id": "2277897", "type": "Feature", "properties": {"id": "2277897", "CVEGEO": "300530100001A006", "POBTOT": 0.0, "score_nse": 0.0, "NSE": null, "VIVTOT": 0.0, "GRAPROES": 0.0, "_ent": "30", "_mun": "053", "_loc": "0100"}, "geometry": {"type": "Polygon", "coordinates": [[[-96.71913, 18.80606], [-96.71807, 18.80568], [-96.71813, 18.8055], [-96.71919, 18.80591], [-96.71913, 18.80606]]]}}, {"id": "2277905", "type": "Feature", "properties": {"id": "2277905", "CVEGEO": "300530100001A012", "POBTOT": 0.0, "score_nse": 0.0, "NSE": null, "VIVTOT": 0.0, "GRAPROES": 0.0, "_ent": "30", "_mun": "053", "_loc": "0100"}, "geometry": {"type": "Polygon", "coordinates": [[[-96.71946, 18.80483], [-96.71932, 18.80478], [-96.71945, 18.80433], [-96.71959, 18.80436], [-96.71946, 18.80483]]]}}, {"id": "2277906", "type": "Feature", "properties": {"id": "2277906", "CVEGEO": "300530100001A008", "POBTOT": 0.0, "score_nse": 0.0, "NSE": null, "VIVTOT": 0.0, "GRAPROES": 0.0, "_ent": "30", "_mun": "053", "_loc": "0100"}, "geometry": {"type": "Polygon", "coordinates": [[[-96.71923, 18.80499], [-96.71864, 18.80466], [-96.71833, 18.8047], [-96.71835, 18.80451], [-96.71929, 18.8048], [-96.71923, 18.80499]]]}}, {"id": "2277907", "type": "Feature", "properties": {"id": "2277907", "CVEGEO": "300530100001A002", "POBTOT": 0.0, "score_nse": 0.0, "NSE": null, "VIVTOT": 0.0, "GRAPROES": 0.0, "_ent": "30", "_mun": "053", "_loc": "0100"}, "geometry": {"type": "Polygon", "coordinates": [[[-96.71928, 18.80547], [-96.71821, 18.80502], [-96.71829, 18.80478], [-96.71936, 18.80516], [-96.71928, 18.80547]]]}}, {"id": "2277908", "type": "Feature", "properties": {"id": "2277908", "CVEGEO": "300530100001A004", "POBTOT": 0.0, "score_nse": 0.0, "NSE": null, "VIVTOT": 0.0, "GRAPROES": 0.0, "_ent": "30", "_mun": "053", "_loc": "0100"}, "geometry": {"type": "Polygon", "coordinates": [[[-96.71816, 18.80501], [-96.71742, 18.80476], [-96.71754, 18.80438], [-96.71826, 18.80468], [-96.71816, 18.80501]]]}}, {"id": "2277909", "type": "Feature", "properties": {"id": "2277909", "CVEGEO": "300530100001A011", "POBTOT": 0.0, "score_nse": 0.0, "NSE": null, "VIVTOT": 0.0, "GRAPROES": 0.0, "_ent": "30", "_mun": "053", "_loc": "0100"}, "geometry": {"type": "Polygon", "coordinates": [[[-96.7193, 18.80476], [-96.71836, 18.80448], [-96.71875, 18.8039], [-96.71963, 18.80422], [-96.71943, 18.8043], [-96.7193, 18.80476]]]}}, {"id": "2277910", "type": "Feature", "properties": {"id": "2277910", "CVEGEO": "300530100001A010", "POBTOT": 0.0, "score_nse": 0.0, "NSE": null, "VIVTOT": 0.0, "GRAPROES": 0.0, "_ent": "30", "_mun": "053", "_loc": "0100"}, "geometry": {"type": "Polygon", "coordinates": [[[-96.71832, 18.80446], [-96.71761, 18.80419], [-96.71773, 18.8039], [-96.71844, 18.80415], [-96.71832, 18.80446]]]}}, {"id": "2277911", "type": "Feature", "properties": {"id": "2277911", "CVEGEO": "300530100001A005", "POBTOT": 0.0, "score_nse": 0.0, "NSE": null, "VIVTOT": 0.0, "GRAPROES": 0.0, "_ent": "30", "_mun": "053", "_loc": "0100"}, "geometry": {"type": "Polygon", "coordinates": [[[-96.71834, 18.80472], [-96.71863, 18.80467], [-96.71924, 18.80501], [-96.7193, 18.8048], [-96.71945, 18.80485], [-96.71937, 18.80514], [-96.71834, 18.80472]]]}}]}