{"type": "FeatureCollection", "features": [{"id": "2189316", "type": "Feature", "properties": {"id": "2189316", "CVEGEO": "2803503350029003", "POBTOT": 0.0, "score_nse": 0.0, "NSE": null, "VIVTOT": 0.0, "GRAPROES": 0.0, "_ent": "28", "_mun": "035", "_loc": "0335"}, "geometry": {"type": "Polygon", "coordinates": [[[-98.04582, 25.36552], [-98.04585, 25.36627], [-98.04446, 25.36627], [-98.04445, 25.36551], [-98.04582, 25.36552]]]}}, {"id": "2189318", "type": "Feature", "properties": {"id": "2189318", "CVEGEO": "2803503350029002", "POBTOT": 0.0, "score_nse": 0.0, "NSE": null, "VIVTOT": 0.0, "GRAPROES": 0.0, "_ent": "28", "_mun": "035", "_loc": "0335"}, "geometry": {"type": "Polygon", "coordinates": [[[-98.04737, 25.3655], [-98.04735, 25.36627], [-98.04595, 25.36627], [-98.04595, 25.36551], [-98.04737, 25.3655]]]}}, {"id": "2189319", "type": "Feature", "properties": {"id": "2189319", "CVEGEO": "2803503350029001", "POBTOT": 0.0, "score_nse": 0.0, "NSE": null, "VIVTOT": 0.0, "GRAPROES": 0.0, "_ent": "28", "_mun": "035", "_loc": "0335"}, "geometry": {"type": "Polygon", "coordinates": [[[-98.04748, 25.36627], [-98.04747, 25.36551], [-98.04874, 25.36551], [-98.04872, 25.36628], [-98.04748, 25.36627]]]}}, {"id": "2189590", "type": "Feature", "properties": {"id": "2189590", "CVEGEO": "2803503350029021", "POBTOT": 0.0, "score_nse": 0.0, "NSE": null, "VIVTOT": 0.0, "GRAPROES": 0.0, "_ent": "28", "_mun": "035", "_loc": "0335"}, "geometry": {"type": "Polygon", "coordinates": [[[-98.03987, 25.36369], [-98.03986, 25.36446], [-98.03899, 25.36447], [-98.03902, 25.36369], [-98.03987, 25.36369]]]}}, {"id": "2189600", "type": "Feature", "properties": {"id": "2189600", "CVEGEO": "2803503350029014", "POBTOT": 0.0, "score_nse": 0.0, "NSE": null, "VIVTOT": 0.0, "GRAPROES": 0.0, "_ent": "28", "_mun": "035", "_loc": "0335"}, "geometry": {"type": "Polygon", "coordinates": [[[-98.03986, 25.36459], [-98.03985, 25.36538], [-98.03899, 25.36539], [-98.03899, 25.3646], [-98.03986, 25.36459]]]}}, {"id": "2189688", "type": "Feature", "properties": {"id": "2189688", "CVEGEO": "2803503350029025", "POBTOT": 0.0, "score_nse": 0.0, "NSE": null, "VIVTOT": 0.0, "GRAPROES": 0.0, "_ent": "28", "_mun": "035", "_loc": "0335"}, "geometry": {"type": "Polygon", "coordinates": [[[-98.04432, 25.36281], [-98.04429, 25.36358], [-98.04294, 25.36357], [-98.04295, 25.36282], [-98.04432, 25.36281]]]}}, {"id": "2189689", "type": "Feature", "properties": {"id": "2189689", "CVEGEO": "2803503350029024", "POBTOT": 0.0, "score_nse": 0.0, "NSE": null, "VIVTOT": 0.0, "GRAPROES": 0.0, "_ent": "28", "_mun": "035", "_loc": "0335"}, "geometry": {"type": "Polygon", "coordinates": [[[-98.04578, 25.36358], [-98.04444, 25.36358], [-98.04447, 25.36283], [-98.04481, 25.36282], [-98.04482, 25.36215], [-98.04579, 25.36214], [-98.04578, 25.36358]]]}}, {"id": "2189690", "type": "Feature", "properties": {"id": "2189690", "CVEGEO": "2803503350029022", "POBTOT": 0.0, "score_nse": 0.0, "NSE": null, "VIVTOT": 0.0, "GRAPROES": 0.0, "_ent": "28", "_mun": "035", "_loc": "0335"}, "geometry": {"type": "Polygon", "coordinates": [[[-98.04745, 25.36358], [-98.04745, 25.36282], [-98.04877, 25.36284], [-98.04877, 25.36359], [-98.04745, 25.36358]]]}}, {"id": "2189691", "type": "Feature", "properties": {"id": "2189691", "CVEGEO": "2803503350029005", "POBTOT": 0.0, "score_nse": 0.0, "NSE": null, "VIVTOT": 0.0, "GRAPROES": 0.0, "_ent": "28", "_mun": "035", "_loc": "0335"}, "geometry": {"type": "Polygon", "coordinates": [[[-98.04281, 25.36552], [-98.04281, 25.36628], [-98.04144, 25.36627], [-98.04145, 25.36551], [-98.04281, 25.36552]]]}}, {"id": "2189692", "type": "Feature", "properties": {"id": "2189692", "CVEGEO": "2803503350029004", "POBTOT": 0.0, "score_nse": 0.0, "NSE": null, "VIVTOT": 0.0, "GRAPROES": 0.0, "_ent": "28", "_mun": "035", "_loc": "0335"}, "geometry": {"type": "Polygon", "coordinates": [[[-98.0443, 25.36551], [-98.04431, 25.36627], [-98.04295, 25.36627], [-98.04294, 25.36551], [-98.0443, 25.36551]]]}}, {"id": "2190018", "type": "Feature", "properties": {"id": "2190018", "CVEGEO": "2803503350029020", "POBTOT": 0.0, "score_nse": 0.0, "NSE": null, "VIVTOT": 0.0, "GRAPROES": 0.0, "_ent": "28", "_mun": "035", "_loc": "0335"}, "geometry": {"type": "Polygon", "coordinates": [[[-98.04135, 25.36369], [-98.04133, 25.36447], [-98.03997, 25.36447], [-98.03999, 25.36369], [-98.04135, 25.36369]]]}}, {"id": "2190019", "type": "Feature", "properties": {"id": "2190019", "CVEGEO": "2803503350029019", "POBTOT": 0.0, "score_nse": 0.0, "NSE": null, "VIVTOT": 0.0, "GRAPROES": 0.0, "_ent": "28", "_mun": "035", "_loc": "0335"}, "geometry": {"type": "Polygon", "coordinates": [[[-98.04282, 25.36369], [-98.04282, 25.36447], [-98.04145, 25.36448], [-98.04145, 25.36369], [-98.04282, 25.36369]]]}}, {"id": "2190020", "type": "Feature", "properties": {"id": "2190020", "CVEGEO": "2803503350029018", "POBTOT": 0.0, "score_nse": 0.0, "NSE": null, "VIVTOT": 0.0, "GRAPROES": 0.0, "_ent": "28", "_mun": "035", "_loc": "0335"}, "geometry": {"type": "Polygon", "coordinates": [[[-98.0443, 25.36371], [-98.04431, 25.36448], [-98.04294, 25.36448], [-98.04293, 25.36369], [-98.0443, 25.36371]]]}}, {"id": "2190021", "type": "Feature", "properties": {"id": "2190021", "CVEGEO": "2803503350029017", "POBTOT": 0.0, "score_nse": 0.0, "NSE": null, "VIVTOT": 0.0, "GRAPROES": 0.0, "_ent": "28", "_mun": "035", "_loc": "0335"}, "geometry": {"type": "Polygon", "coordinates": [[[-98.04581, 25.36371], [-98.0458, 25.36448], [-98.04445, 25.36448], [-98.04444, 25.36371], [-98.04581, 25.36371]]]}}, {"id": "2190022", "type": "Feature", "properties": {"id": "2190022", "CVEGEO": "2803503350029016", "POBTOT": 0.0, "score_nse": 0.0, "NSE": null, "VIVTOT": 0.0, "GRAPROES": 0.0, "_ent": "28", "_mun": "035", "_loc": "0335"}, "geometry": {"type": "Polygon", "coordinates": [[[-98.0473, 25.3637], [-98.04732, 25.36447], [-98.04593, 25.36447], [-98.04592, 25.36369], [-98.0473, 25.3637]]]}}, {"id": "2190023", "type": "Feature", "properties": {"id": "2190023", "CVEGEO": "2803503350029015", "POBTOT": 0.0, "score_nse": 0.0, "NSE": null, "VIVTOT": 0.0, "GRAPROES": 0.0, "_ent": "28", "_mun": "035", "_loc": "0335"}, "geometry": {"type": "Polygon", "coordinates": [[[-98.04746, 25.36447], [-98.04746, 25.3637], [-98.04876, 25.3637], [-98.04876, 25.36447], [-98.04746, 25.36447]]]}}, {"id": "2190024", "type": "Feature", "properties": {"id": "2190024", "CVEGEO": "2803503350029006", "POBTOT": 0.0, "score_nse": 0.0, "NSE": null, "VIVTOT": 0.0, "GRAPROES": 0.0, "_ent": "28", "_mun": "035", "_loc": "0335"}, "geometry": {"type": "Polygon", "coordinates": [[[-98.04133, 25.36551], [-98.04134, 25.36627], [-98.03995, 25.36627], [-98.03996, 25.36551], [-98.04133, 25.36551]]]}}, {"id": "2191057", "type": "Feature", "properties": {"id": "2191057", "CVEGEO": "2803503350029023", "POBTOT": 0.0, "score_nse": 0.0, "NSE": null, "VIVTOT": 0.0, "GRAPROES": 0.0, "_ent": "28", "_mun": "035", "_loc": "0335"}, "geometry": {"type": "Polygon", "coordinates": [[[-98.0473, 25.36282], [-98.0473, 25.36358], [-98.04593, 25.36357], [-98.04594, 25.36283], [-98.0473, 25.36282]]]}}, {"id": "2191812", "type": "Feature", "properties": {"id": "2191812", "CVEGEO": "2803503350029028", "POBTOT": 0.0, "score_nse": 0.0, "NSE": null, "VIVTOT": 0.0, "GRAPROES": 0.0, "_ent": "28", "_mun": "035", "_loc": "0335"}, "geometry": {"type": "Polygon", "coordinates": [[[-98.03987, 25.3628], [-98.03988, 25.36358], [-98.03902, 25.36358], [-98.03902, 25.3628], [-98.03987, 25.3628]]]}}, {"id": "2191813", "type": "Feature", "properties": {"id": "2191813", "CVEGEO": "2803503350029027", "POBTOT": 0.0, "score_nse": 0.0, "NSE": null, "VIVTOT": 0.0, "GRAPROES": 0.0, "_ent": "28", "_mun": "035", "_loc": "0335"}, "geometry": {"type": "Polygon", "coordinates": [[[-98.04135, 25.36281], [-98.04135, 25.36357], [-98.03999, 25.36358], [-98.04, 25.3628], [-98.04135, 25.36281]]]}}, {"id": "2191814", "type": "Feature", "properties": {"id": "2191814", "CVEGEO": "2803503350029026", "POBTOT": 0.0, "score_nse": 0.0, "NSE": null, "VIVTOT": 0.0, "GRAPROES": 0.0, "_ent": "28", "_mun": "035", "_loc": "0335"}, "geometry": {"type": "Polygon", "coordinates": [[[-98.04282, 25.36282], [-98.04282, 25.36357], [-98.04145, 25.36358], [-98.04146, 25.36282], [-98.04282, 25.36282]]]}}, {"id": "2191815", "type": "Feature", "properties": {"id": "2191815", "CVEGEO": "2803503350029013", "POBTOT": 0.0, "score_nse": 0.0, "NSE": null, "VIVTOT": 0.0, "GRAPROES": 0.0, "_ent": "28", "_mun": "035", "_loc": "0335"}, "geometry": {"type": "Polygon", "coordinates": [[[-98.04136, 25.36459], [-98.04134, 25.36539], [-98.03996, 25.36538], [-98.03997, 25.3646], [-98.04136, 25.36459]]]}}, {"id": "2191816", "type": "Feature", "properties": {"id": "2191816", "CVEGEO": "2803503350029012", "POBTOT": 0.0, "score_nse": 0.0, "NSE": null, "VIVTOT": 0.0, "GRAPROES": 0.0, "_ent": "28", "_mun": "035", "_loc": "0335"}, "geometry": {"type": "Polygon", "coordinates": [[[-98.04282, 25.36459], [-98.04282, 25.36539], [-98.04145, 25.36539], [-98.04145, 25.36459], [-98.04282, 25.36459]]]}}, {"id": "2191817", "type": "Feature", "properties": {"id": "2191817", "CVEGEO": "2803503350029011", "POBTOT": 0.0, "score_nse": 0.0, "NSE": null, "VIVTOT": 0.0, "GRAPROES": 0.0, "_ent": "28", "_mun": "035", "_loc": "0335"}, "geometry": {"type": "Polygon", "coordinates": [[[-98.04431, 25.36459], [-98.0443, 25.36539], [-98.04294, 25.36539], [-98.04294, 25.36459], [-98.04431, 25.36459]]]}}, {"id": "2191818", "type": "Feature", "properties": {"id": "2191818", "CVEGEO": "2803503350029010", "POBTOT": 0.0, "score_nse": 0.0, "NSE": null, "VIVTOT": 0.0, "GRAPROES": 0.0, "_ent": "28", "_mun": "035", "_loc": "0335"}, "geometry": {"type": "Polygon", "coordinates": [[[-98.04446, 25.36459], [-98.0458, 25.36459], [-98.04581, 25.36539], [-98.04445, 25.36539], [-98.04446, 25.36459]]]}}, {"id": "2191819", "type": "Feature", "properties": {"id": "2191819", "CVEGEO": "2803503350029009", "POBTOT": 0.0, "score_nse": 0.0, "NSE": null, "VIVTOT": 0.0, "GRAPROES": 0.0, "_ent": "28", "_mun": "035", "_loc": "0335"}, "geometry": {"type": "Polygon", "coordinates": [[[-98.04731, 25.36459], [-98.04735, 25.36539], [-98.04595, 25.36538], [-98.04594, 25.36459], [-98.04731, 25.36459]]]}}, {"id": "2191820", "type": "Feature", "properties": {"id": "2191820", "CVEGEO": "2803503350029008", "POBTOT": 0.0, "score_nse": 0.0, "NSE": null, "VIVTOT": 0.0, "GRAPROES": 0.0, "_ent": "28", "_mun": "035", "_loc": "0335"}, "geometry": {"type": "Polygon", "coordinates": [[[-98.04747, 25.36539], [-98.04745, 25.36459], [-98.04875, 25.36461], [-98.04874, 25.3654], [-98.04747, 25.36539]]]}}, {"id": "2191821", "type": "Feature", "properties": {"id": "2191821", "CVEGEO": "2803503350029007", "POBTOT": 0.0, "score_nse": 0.0, "NSE": null, "VIVTOT": 0.0, "GRAPROES": 0.0, "_ent": "28", "_mun": "035", "_loc": "0335"}, "geometry": {"type": "Polygon", "coordinates": [[[-98.03985, 25.3655], [-98.03984, 25.36629], [-98.03898, 25.36629], [-98.03898, 25.36551], [-98.03985, 25.3655]]]}}]}