{"type": "FeatureCollection", "features": [{"id": "1577667", "type": "Feature", "properties": {"id": "1577667", "CVEGEO": "2052500040127001", "POBTOT": 0.0, "score_nse": 0.0, "NSE": null, "VIVTOT": 0.0, "GRAPROES": 0.0, "_ent": "20", "_mun": "525", "_loc": "0004"}, "geometry": {"type": "Polygon", "coordinates": [[[-94.3657, 16.37848], [-94.36675, 16.3789], [-94.36627, 16.37977], [-94.36529, 16.37949], [-94.3657, 16.37848]]]}}, {"id": "1577692", "type": "Feature", "properties": {"id": "1577692", "CVEGEO": "2052500040127002", "POBTOT": 0.0, "score_nse": 0.0, "NSE": null, "VIVTOT": 0.0, "GRAPROES": 0.0, "_ent": "20", "_mun": "525", "_loc": "0004"}, "geometry": {"type": "Polygon", "coordinates": [[[-94.3647, 16.37821], [-94.36566, 16.37846], [-94.36524, 16.37947], [-94.36426, 16.37922], [-94.3647, 16.37821]]]}}, {"id": "1577693", "type": "Feature", "properties": {"id": "1577693", "CVEGEO": "2052500040127003", "POBTOT": 0.0, "score_nse": 0.0, "NSE": null, "VIVTOT": 0.0, "GRAPROES": 0.0, "_ent": "20", "_mun": "525", "_loc": "0004"}, "geometry": {"type": "Polygon", "coordinates": [[[-94.36605, 16.37754], [-94.36566, 16.37843], [-94.3647, 16.37817], [-94.36534, 16.37666], [-94.36605, 16.37754]]]}}, {"id": "1577694", "type": "Feature", "properties": {"id": "1577694", "CVEGEO": "2052500040127010", "POBTOT": 0.0, "score_nse": 0.0, "NSE": null, "VIVTOT": 0.0, "GRAPROES": 0.0, "_ent": "20", "_mun": "525", "_loc": "0004"}, "geometry": {"type": "Polygon", "coordinates": [[[-94.36516, 16.3762], [-94.36657, 16.37657], [-94.36609, 16.37747], [-94.36536, 16.37661], [-94.36516, 16.3762]]]}}, {"id": "1577695", "type": "Feature", "properties": {"id": "1577695", "CVEGEO": "2052500040127006", "POBTOT": 0.0, "score_nse": 0.0, "NSE": null, "VIVTOT": 0.0, "GRAPROES": 0.0, "_ent": "20", "_mun": "525", "_loc": "0004"}, "geometry": {"type": "Polygon", "coordinates": [[[-94.36629, 16.37983], [-94.3669, 16.38005], [-94.36672, 16.38115], [-94.36573, 16.3809], [-94.36629, 16.37983]]]}}, {"id": "1577696", "type": "Feature", "properties": {"id": "1577696", "CVEGEO": "2052500040127008", "POBTOT": 0.0, "score_nse": 0.0, "NSE": null, "VIVTOT": 0.0, "GRAPROES": 0.0, "_ent": "20", "_mun": "525", "_loc": "0004"}, "geometry": {"type": "Polygon", "coordinates": [[[-94.36423, 16.37927], [-94.36523, 16.37952], [-94.36472, 16.3806], [-94.36379, 16.38025], [-94.36423, 16.37927]]]}}, {"id": "1577697", "type": "Feature", "properties": {"id": "1577697", "CVEGEO": "2052500040127007", "POBTOT": 0.0, "score_nse": 0.0, "NSE": null, "VIVTOT": 0.0, "GRAPROES": 0.0, "_ent": "20", "_mun": "525", "_loc": "0004"}, "geometry": {"type": "Polygon", "coordinates": [[[-94.36528, 16.37955], [-94.36626, 16.3798], [-94.36569, 16.38086], [-94.3648, 16.38062], [-94.36528, 16.37955]]]}}, {"id": "1577698", "type": "Feature", "properties": {"id": "1577698", "CVEGEO": "2052500040127004", "POBTOT": 0.0, "score_nse": 0.0, "NSE": null, "VIVTOT": 0.0, "GRAPROES": 0.0, "_ent": "20", "_mun": "525", "_loc": "0004"}, "geometry": {"type": "Polygon", "coordinates": [[[-94.36611, 16.37755], [-94.36705, 16.37797], [-94.36677, 16.37886], [-94.36571, 16.37845], [-94.36611, 16.37755]]]}}, {"id": "1577699", "type": "Feature", "properties": {"id": "1577699", "CVEGEO": "2052500040127011", "POBTOT": 0.0, "score_nse": 0.0, "NSE": null, "VIVTOT": 0.0, "GRAPROES": 0.0, "_ent": "20", "_mun": "525", "_loc": "0004"}, "geometry": {"type": "Polygon", "coordinates": [[[-94.36478, 16.38065], [-94.36568, 16.3809], [-94.36524, 16.38176], [-94.36441, 16.3815], [-94.36478, 16.38065]]]}}, {"id": "1577700", "type": "Feature", "properties": {"id": "1577700", "CVEGEO": "2052500040127014", "POBTOT": 0.0, "score_nse": 0.0, "NSE": null, "VIVTOT": 0.0, "GRAPROES": 0.0, "_ent": "20", "_mun": "525", "_loc": "0004"}, "geometry": {"type": "Polygon", "coordinates": [[[-94.36402, 16.37654], [-94.36465, 16.3757], [-94.36525, 16.37666], [-94.36463, 16.37813], [-94.36371, 16.37789], [-94.36402, 16.37654]]]}}, {"id": "1577701", "type": "Feature", "properties": {"id": "1577701", "CVEGEO": "2052500040127013", "POBTOT": 0.0, "score_nse": 0.0, "NSE": null, "VIVTOT": 0.0, "GRAPROES": 0.0, "_ent": "20", "_mun": "525", "_loc": "0004"}, "geometry": {"type": "Polygon", "coordinates": [[[-94.36368, 16.37794], [-94.36459, 16.37821], [-94.3642, 16.37921], [-94.36339, 16.37908], [-94.36368, 16.37794]]]}}, {"id": "1577808", "type": "Feature", "properties": {"id": "1577808", "CVEGEO": "2052500040127012", "POBTOT": 0.0, "score_nse": 0.0, "NSE": null, "VIVTOT": 0.0, "GRAPROES": 0.0, "_ent": "20", "_mun": "525", "_loc": "0004"}, "geometry": {"type": "Polygon", "coordinates": [[[-94.36379, 16.38029], [-94.36471, 16.38065], [-94.36433, 16.3815], [-94.36348, 16.38127], [-94.36379, 16.38029]]]}}, {"id": "1577813", "type": "Feature", "properties": {"id": "1577813", "CVEGEO": "2052500040127005", "POBTOT": 0.0, "score_nse": 0.0, "NSE": null, "VIVTOT": 0.0, "GRAPROES": 0.0, "_ent": "20", "_mun": "525", "_loc": "0004"}, "geometry": {"type": "Polygon", "coordinates": [[[-94.367, 16.37847], [-94.367, 16.37782], [-94.36752, 16.37749], [-94.3682, 16.37739], [-94.36897, 16.37753], [-94.36878, 16.37761], [-94.36871, 16.37794], [-94.3681, 16.37859], [-94.36802, 16.37946], [-94.36733, 16.37931], [-94.36692, 16.38], [-94.36632, 16.37978], [-94.367, 16.37847]]]}}]}