{"type": "FeatureCollection", "features": [{"id": "1660046", "type": "Feature", "properties": {"id": "1660046", "CVEGEO": "2105500050034005", "POBTOT": 0.0, "score_nse": 0.0, "NSE": null, "VIVTOT": 0.0, "GRAPROES": 0.0, "_ent": "21", "_mun": "055", "_loc": "0005"}, "geometry": {"type": "Polygon", "coordinates": [[[-97.8484, 17.95354], [-97.84799, 17.95281], [-97.84786, 17.95226], [-97.84846, 17.95239], [-97.8484, 17.95354]]]}}, {"id": "1660047", "type": "Feature", "properties": {"id": "1660047", "CVEGEO": "2105500050034001", "POBTOT": 0.0, "score_nse": 0.0, "NSE": null, "VIVTOT": 0.0, "GRAPROES": 0.0, "_ent": "21", "_mun": "055", "_loc": "0005"}, "geometry": {"type": "Polygon", "coordinates": [[[-97.84778, 17.95191], [-97.8472, 17.95111], [-97.84721, 17.95025], [-97.84698, 17.94953], [-97.84807, 17.94933], [-97.84833, 17.9497], [-97.84797, 17.95169], [-97.84778, 17.95191]]]}}, {"id": "1660048", "type": "Feature", "properties": {"id": "1660048", "CVEGEO": "2105500050034002", "POBTOT": 0.0, "score_nse": 0.0, "NSE": null, "VIVTOT": 0.0, "GRAPROES": 0.0, "_ent": "21", "_mun": "055", "_loc": "0005"}, "geometry": {"type": "Polygon", "coordinates": [[[-97.8478, 17.95225], [-97.84669, 17.95234], [-97.8465, 17.95213], [-97.8465, 17.9517], [-97.8469, 17.95171], [-97.8473, 17.95146], [-97.84775, 17.95194], [-97.8478, 17.95225]]]}}, {"id": "1660049", "type": "Feature", "properties": {"id": "1660049", "CVEGEO": "2105500050034003", "POBTOT": 0.0, "score_nse": 0.0, "NSE": null, "VIVTOT": 0.0, "GRAPROES": 0.0, "_ent": "21", "_mun": "055", "_loc": "0005"}, "geometry": {"type": "Polygon", "coordinates": [[[-97.84786, 17.95252], [-97.84711, 17.95342], [-97.84551, 17.95308], [-97.84602, 17.95248], [-97.84641, 17.95231], [-97.84712, 17.95244], [-97.84781, 17.9523], [-97.84786, 17.95252]]]}}, {"id": "1660050", "type": "Feature", "properties": {"id": "1660050", "CVEGEO": "2105500050034004", "POBTOT": 0.0, "score_nse": 0.0, "NSE": null, "VIVTOT": 0.0, "GRAPROES": 0.0, "_ent": "21", "_mun": "055", "_loc": "0005"}, "geometry": {"type": "Polygon", "coordinates": [[[-97.84789, 17.95254], [-97.84806, 17.95309], [-97.84857, 17.95387], [-97.84714, 17.95343], [-97.84789, 17.95254]]]}}]}