{"type": "FeatureCollection", "features": [{"id": "864231", "type": "Feature", "properties": {"id": "864231", "CVEGEO": "1305101011344023", "POBTOT": 4.0, "score_nse": 0.0, "NSE": "ND", "VIVTOT": 4.0, "GRAPROES": 0.0, "_ent": "13", "_mun": "051", "_loc": "0101"}, "geometry": {"type": "Polygon", "coordinates": [[[-98.71426, 20.12734], [-98.71417, 20.12788], [-98.71396, 20.12781], [-98.71413, 20.12719], [-98.71426, 20.12734]]]}}, {"id": "864232", "type": "Feature", "properties": {"id": "864232", "CVEGEO": "1305101011344004", "POBTOT": 61.0, "score_nse": 66.3544, "NSE": "C", "VIVTOT": 27.0, "GRAPROES": 10.98, "_ent": "13", "_mun": "051", "_loc": "0101"}, "geometry": {"type": "Polygon", "coordinates": [[[-98.71416, 20.12598], [-98.71349, 20.12608], [-98.71346, 20.12586], [-98.7136, 20.12583], [-98.71343, 20.12584], [-98.71339, 20.12567], [-98.71405, 20.12557], [-98.71412, 20.12584], [-98.71409, 20.12556], [-98.71456, 20.1255], [-98.71452, 20.12576], [-98.71416, 20.12598]]]}}, {"id": "864233", "type": "Feature", "properties": {"id": "864233", "CVEGEO": "1305101011344003", "POBTOT": 69.0, "score_nse": 0.0, "NSE": "ND", "VIVTOT": 22.0, "GRAPROES": 10.17, "_ent": "13", "_mun": "051", "_loc": "0101"}, "geometry": {"type": "Polygon", "coordinates": [[[-98.71335, 20.12543], [-98.71402, 20.12527], [-98.71405, 20.12553], [-98.71338, 20.12564], [-98.71335, 20.12543]]]}}, {"id": "864234", "type": "Feature", "properties": {"id": "864234", "CVEGEO": "1305101011344002", "POBTOT": 49.0, "score_nse": 0.0, "NSE": "ND", "VIVTOT": 12.0, "GRAPROES": 7.65, "_ent": "13", "_mun": "051", "_loc": "0101"}, "geometry": {"type": "Polygon", "coordinates": [[[-98.71332, 20.12566], [-98.7125, 20.12603], [-98.71238, 20.12594], [-98.71328, 20.12545], [-98.71332, 20.12566]]]}}, {"id": "864256", "type": "Feature", "properties": {"id": "864256", "CVEGEO": "1305101011359001", "POBTOT": 49.0, "score_nse": 53.9213, "NSE": "C-", "VIVTOT": 12.0, "GRAPROES": 8.11, "_ent": "13", "_mun": "051", "_loc": "0101"}, "geometry": {"type": "Polygon", "coordinates": [[[-98.71521, 20.12668], [-98.71513, 20.12648], [-98.71522, 20.12615], [-98.71541, 20.12656], [-98.71521, 20.12668]]]}}, {"id": "864282", "type": "Feature", "properties": {"id": "864282", "CVEGEO": "1305101011344006", "POBTOT": 89.0, "score_nse": 0.0, "NSE": "ND", "VIVTOT": 28.0, "GRAPROES": 7.5, "_ent": "13", "_mun": "051", "_loc": "0101"}, "geometry": {"type": "Polygon", "coordinates": [[[-98.71285, 20.12761], [-98.71185, 20.12633], [-98.71167, 20.12601], [-98.71168, 20.12559], [-98.71247, 20.12615], [-98.71236, 20.12657], [-98.71255, 20.12619], [-98.71269, 20.12626], [-98.7125, 20.12666], [-98.71273, 20.12627], [-98.71288, 20.12634], [-98.71285, 20.12761]]]}}, {"id": "864283", "type": "Feature", "properties": {"id": "864283", "CVEGEO": "1305101011359015", "POBTOT": 37.0, "score_nse": 0.0, "NSE": "ND", "VIVTOT": 12.0, "GRAPROES": 7.73, "_ent": "13", "_mun": "051", "_loc": "0101"}, "geometry": {"type": "Polygon", "coordinates": [[[-98.71423, 20.12676], [-98.71427, 20.12649], [-98.71475, 20.1266], [-98.71466, 20.12686], [-98.71423, 20.12676]]]}}, {"id": "864284", "type": "Feature", "properties": {"id": "864284", "CVEGEO": "1305101011344021", "POBTOT": 9.0, "score_nse": 0.0, "NSE": "ND", "VIVTOT": 4.0, "GRAPROES": 8.63, "_ent": "13", "_mun": "051", "_loc": "0101"}, "geometry": {"type": "Polygon", "coordinates": [[[-98.71362, 20.12684], [-98.71388, 20.12698], [-98.71371, 20.12751], [-98.71354, 20.12747], [-98.71362, 20.12684]]]}}, {"id": "864285", "type": "Feature", "properties": {"id": "864285", "CVEGEO": "1305101011344019", "POBTOT": 38.0, "score_nse": 0.0, "NSE": "ND", "VIVTOT": 11.0, "GRAPROES": 8.3, "_ent": "13", "_mun": "051", "_loc": "0101"}, "geometry": {"type": "Polygon", "coordinates": [[[-98.71341, 20.12821], [-98.71335, 20.12764], [-98.71327, 20.12802], [-98.71318, 20.12742], [-98.71334, 20.12669], [-98.71357, 20.12681], [-98.71348, 20.12774], [-98.71356, 20.12751], [-98.7137, 20.12756], [-98.71363, 20.1282], [-98.71341, 20.12821]]]}}, {"id": "864286", "type": "Feature", "properties": {"id": "864286", "CVEGEO": "1305101011344018", "POBTOT": 13.0, "score_nse": 0.0, "NSE": "ND", "VIVTOT": 3.0, "GRAPROES": 7.0, "_ent": "13", "_mun": "051", "_loc": "0101"}, "geometry": {"type": "Polygon", "coordinates": [[[-98.71416, 20.12679], [-98.71412, 20.12703], [-98.71374, 20.1268], [-98.71386, 20.12679], [-98.71416, 20.12679]]]}}, {"id": "864287", "type": "Feature", "properties": {"id": "864287", "CVEGEO": "1305101011344017", "POBTOT": 4.0, "score_nse": 0.0, "NSE": "ND", "VIVTOT": 1.0, "GRAPROES": 0.0, "_ent": "13", "_mun": "051", "_loc": "0101"}, "geometry": {"type": "Polygon", "coordinates": [[[-98.71287, 20.12488], [-98.71178, 20.12557], [-98.71169, 20.12552], [-98.7124, 20.12502], [-98.71287, 20.12488]]]}}, {"id": "864309", "type": "Feature", "properties": {"id": "864309", "CVEGEO": "1305101011359008", "POBTOT": 45.0, "score_nse": 0.0, "NSE": "ND", "VIVTOT": 13.0, "GRAPROES": 8.95, "_ent": "13", "_mun": "051", "_loc": "0101"}, "geometry": {"type": "Polygon", "coordinates": [[[-98.7148, 20.12641], [-98.71429, 20.12631], [-98.71435, 20.12605], [-98.71486, 20.12618], [-98.7148, 20.12641]]]}}, {"id": "864310", "type": "Feature", "properties": {"id": "864310", "CVEGEO": "1305101011359007", "POBTOT": 31.0, "score_nse": 0.0, "NSE": "ND", "VIVTOT": 11.0, "GRAPROES": 7.76, "_ent": "13", "_mun": "051", "_loc": "0101"}, "geometry": {"type": "Polygon", "coordinates": [[[-98.71481, 20.12659], [-98.71501, 20.12657], [-98.71476, 20.12734], [-98.71459, 20.12728], [-98.71481, 20.12659]]]}}, {"id": "864311", "type": "Feature", "properties": {"id": "864311", "CVEGEO": "1305101011359006", "POBTOT": 43.0, "score_nse": 0.0, "NSE": "ND", "VIVTOT": 9.0, "GRAPROES": 7.75, "_ent": "13", "_mun": "051", "_loc": "0101"}, "geometry": {"type": "Polygon", "coordinates": [[[-98.715, 20.12712], [-98.7151, 20.1267], [-98.71527, 20.12704], [-98.715, 20.12712]]]}}, {"id": "864312", "type": "Feature", "properties": {"id": "864312", "CVEGEO": "1305101011359005", "POBTOT": 30.0, "score_nse": 0.0, "NSE": "ND", "VIVTOT": 8.0, "GRAPROES": 8.52, "_ent": "13", "_mun": "051", "_loc": "0101"}, "geometry": {"type": "Polygon", "coordinates": [[[-98.71522, 20.12671], [-98.7154, 20.12661], [-98.71552, 20.12694], [-98.71534, 20.127], [-98.71522, 20.12671]]]}}, {"id": "864313", "type": "Feature", "properties": {"id": "864313", "CVEGEO": "1305101011359004", "POBTOT": 51.0, "score_nse": 61.7206, "NSE": "C", "VIVTOT": 14.0, "GRAPROES": 10.43, "_ent": "13", "_mun": "051", "_loc": "0101"}, "geometry": {"type": "Polygon", "coordinates": [[[-98.71551, 20.12663], [-98.71537, 20.12623], [-98.71555, 20.12612], [-98.71566, 20.12639], [-98.71559, 20.12609], [-98.71584, 20.12596], [-98.7159, 20.12653], [-98.71551, 20.12663]]]}}, {"id": "864314", "type": "Feature", "properties": {"id": "864314", "CVEGEO": "1305101011359003", "POBTOT": 98.0, "score_nse": 60.2508, "NSE": "C", "VIVTOT": 23.0, "GRAPROES": 8.76, "_ent": "13", "_mun": "051", "_loc": "0101"}, "geometry": {"type": "Polygon", "coordinates": [[[-98.71577, 20.12553], [-98.7158, 20.12585], [-98.71525, 20.12611], [-98.71538, 20.12534], [-98.7157, 20.12548], [-98.71547, 20.12579], [-98.71577, 20.12553]]]}}, {"id": "864332", "type": "Feature", "properties": {"id": "864332", "CVEGEO": "1305101011359010", "POBTOT": 58.0, "score_nse": 0.0, "NSE": "ND", "VIVTOT": 11.0, "GRAPROES": 8.07, "_ent": "13", "_mun": "051", "_loc": "0101"}, "geometry": {"type": "Polygon", "coordinates": [[[-98.71508, 20.1254], [-98.71463, 20.12547], [-98.71471, 20.12509], [-98.71494, 20.12513], [-98.71485, 20.12533], [-98.71508, 20.1254]]]}}, {"id": "864338", "type": "Feature", "properties": {"id": "864338", "CVEGEO": "1305101011359016", "POBTOT": 19.0, "score_nse": 0.0, "NSE": "ND", "VIVTOT": 7.0, "GRAPROES": 8.0, "_ent": "13", "_mun": "051", "_loc": "0101"}, "geometry": {"type": "Polygon", "coordinates": [[[-98.71476, 20.12656], [-98.71429, 20.12635], [-98.71478, 20.12646], [-98.71476, 20.12656]]]}}, {"id": "864339", "type": "Feature", "properties": {"id": "864339", "CVEGEO": "1305101011344025", "POBTOT": 27.0, "score_nse": 0.0, "NSE": "ND", "VIVTOT": 9.0, "GRAPROES": 8.06, "_ent": "13", "_mun": "051", "_loc": "0101"}, "geometry": {"type": "Polygon", "coordinates": [[[-98.71339, 20.12618], [-98.71333, 20.12655], [-98.71299, 20.12635], [-98.71339, 20.12618]]]}}, {"id": "864340", "type": "Feature", "properties": {"id": "864340", "CVEGEO": "1305101011344024", "POBTOT": 15.0, "score_nse": 45.9, "NSE": "C-", "VIVTOT": 5.0, "GRAPROES": 7.5, "_ent": "13", "_mun": "051", "_loc": "0101"}, "geometry": {"type": "Polygon", "coordinates": [[[-98.71366, 20.12823], [-98.71372, 20.12771], [-98.71391, 20.12777], [-98.71383, 20.12808], [-98.71394, 20.12784], [-98.71415, 20.12791], [-98.71402, 20.12842], [-98.71366, 20.12823]]]}}, {"id": "864341", "type": "Feature", "properties": {"id": "864341", "CVEGEO": "1305101011344005", "POBTOT": 15.0, "score_nse": 0.0, "NSE": "ND", "VIVTOT": 6.0, "GRAPROES": 8.15, "_ent": "13", "_mun": "051", "_loc": "0101"}, "geometry": {"type": "Polygon", "coordinates": [[[-98.71426, 20.12606], [-98.71423, 20.12627], [-98.71349, 20.12633], [-98.71343, 20.12615], [-98.71426, 20.12606]]]}}, {"id": "864367", "type": "Feature", "properties": {"id": "864367", "CVEGEO": "1305101011359014", "POBTOT": 32.0, "score_nse": 0.0, "NSE": "ND", "VIVTOT": 10.0, "GRAPROES": 10.52, "_ent": "13", "_mun": "051", "_loc": "0101"}, "geometry": {"type": "Polygon", "coordinates": [[[-98.71496, 20.12723], [-98.71529, 20.12707], [-98.71535, 20.12728], [-98.71499, 20.12738], [-98.71496, 20.12723]]]}}, {"id": "864368", "type": "Feature", "properties": {"id": "864368", "CVEGEO": "1305101011359013", "POBTOT": 17.0, "score_nse": 0.0, "NSE": "ND", "VIVTOT": 4.0, "GRAPROES": 10.62, "_ent": "13", "_mun": "051", "_loc": "0101"}, "geometry": {"type": "Polygon", "coordinates": [[[-98.71537, 20.12704], [-98.71556, 20.12697], [-98.71565, 20.12723], [-98.71544, 20.12726], [-98.71537, 20.12704]]]}}, {"id": "864369", "type": "Feature", "properties": {"id": "864369", "CVEGEO": "1305101011359012", "POBTOT": 50.0, "score_nse": 0.0, "NSE": "ND", "VIVTOT": 14.0, "GRAPROES": 9.53, "_ent": "13", "_mun": "051", "_loc": "0101"}, "geometry": {"type": "Polygon", "coordinates": [[[-98.71583, 20.12754], [-98.71555, 20.12668], [-98.71588, 20.12658], [-98.71583, 20.12754]]]}}, {"id": "864370", "type": "Feature", "properties": {"id": "864370", "CVEGEO": "1305101011359011", "POBTOT": 6.0, "score_nse": 0.0, "NSE": "ND", "VIVTOT": 2.0, "GRAPROES": 0.0, "_ent": "13", "_mun": "051", "_loc": "0101"}, "geometry": {"type": "Polygon", "coordinates": [[[-98.71492, 20.12529], [-98.71499, 20.12513], [-98.71531, 20.12527], [-98.71512, 20.12536], [-98.71492, 20.12529]]]}}, {"id": "864371", "type": "Feature", "properties": {"id": "864371", "CVEGEO": "1305101011359009", "POBTOT": 49.0, "score_nse": 67.1185, "NSE": "C", "VIVTOT": 16.0, "GRAPROES": 9.64, "_ent": "13", "_mun": "051", "_loc": "0101"}, "geometry": {"type": "Polygon", "coordinates": [[[-98.71487, 20.12611], [-98.71438, 20.126], [-98.7146, 20.1255], [-98.71503, 20.12551], [-98.7149, 20.126], [-98.71455, 20.12587], [-98.71487, 20.12611]]]}}, {"id": "864418", "type": "Feature", "properties": {"id": "864418", "CVEGEO": "1305101011344009", "POBTOT": 43.0, "score_nse": 0.0, "NSE": "ND", "VIVTOT": 15.0, "GRAPROES": 8.9, "_ent": "13", "_mun": "051", "_loc": "0101"}, "geometry": {"type": "Polygon", "coordinates": [[[-98.71279, 20.12505], [-98.71318, 20.12498], [-98.71327, 20.12539], [-98.71292, 20.12549], [-98.71279, 20.12505]]]}}, {"id": "864419", "type": "Feature", "properties": {"id": "864419", "CVEGEO": "1305101011344008", "POBTOT": 48.0, "score_nse": 58.8514, "NSE": "C", "VIVTOT": 14.0, "GRAPROES": 9.44, "_ent": "13", "_mun": "051", "_loc": "0101"}, "geometry": {"type": "Polygon", "coordinates": [[[-98.71232, 20.12538], [-98.71271, 20.12509], [-98.71282, 20.12554], [-98.71255, 20.12568], [-98.71232, 20.12538]]]}}, {"id": "864424", "type": "Feature", "properties": {"id": "864424", "CVEGEO": "1305101011359002", "POBTOT": 46.0, "score_nse": 67.0409, "NSE": "C", "VIVTOT": 13.0, "GRAPROES": 8.69, "_ent": "13", "_mun": "051", "_loc": "0101"}, "geometry": {"type": "Polygon", "coordinates": [[[-98.71486, 20.12646], [-98.71508, 20.12552], [-98.71513, 20.12543], [-98.71524, 20.12548], [-98.71501, 20.12654], [-98.71486, 20.12646]]]}}, {"id": "864456", "type": "Feature", "properties": {"id": "864456", "CVEGEO": "1305101011359028", "POBTOT": 9.0, "score_nse": 0.0, "NSE": "ND", "VIVTOT": 3.0, "GRAPROES": 0.0, "_ent": "13", "_mun": "051", "_loc": "0101"}, "geometry": {"type": "Polygon", "coordinates": [[[-98.7142, 20.12689], [-98.71463, 20.12691], [-98.71461, 20.12699], [-98.7142, 20.12689]]]}}, {"id": "864457", "type": "Feature", "properties": {"id": "864457", "CVEGEO": "1305101011359027", "POBTOT": 13.0, "score_nse": 0.0, "NSE": "ND", "VIVTOT": 5.0, "GRAPROES": 7.86, "_ent": "13", "_mun": "051", "_loc": "0101"}, "geometry": {"type": "Polygon", "coordinates": [[[-98.71417, 20.12707], [-98.7142, 20.12694], [-98.7146, 20.12703], [-98.71454, 20.12722], [-98.71417, 20.12707]]]}}, {"id": "864458", "type": "Feature", "properties": {"id": "864458", "CVEGEO": "1305101011359024", "POBTOT": 29.0, "score_nse": 0.0, "NSE": "ND", "VIVTOT": 6.0, "GRAPROES": 8.95, "_ent": "13", "_mun": "051", "_loc": "0101"}, "geometry": {"type": "Polygon", "coordinates": [[[-98.71629, 20.12744], [-98.71619, 20.12762], [-98.71587, 20.12763], [-98.71593, 20.12746], [-98.71629, 20.12744]]]}}, {"id": "864459", "type": "Feature", "properties": {"id": "864459", "CVEGEO": "1305101011359023", "POBTOT": 18.0, "score_nse": 0.0, "NSE": "ND", "VIVTOT": 6.0, "GRAPROES": 9.29, "_ent": "13", "_mun": "051", "_loc": "0101"}, "geometry": {"type": "Polygon", "coordinates": [[[-98.71456, 20.1247], [-98.71481, 20.12466], [-98.7151, 20.12464], [-98.71463, 20.12495], [-98.71456, 20.1247]]]}}, {"id": "864460", "type": "Feature", "properties": {"id": "864460", "CVEGEO": "1305101011359022", "POBTOT": 17.0, "score_nse": 0.0, "NSE": "ND", "VIVTOT": 7.0, "GRAPROES": 8.29, "_ent": "13", "_mun": "051", "_loc": "0101"}, "geometry": {"type": "Polygon", "coordinates": [[[-98.71492, 20.12745], [-98.71539, 20.12731], [-98.71544, 20.12749], [-98.71505, 20.12759], [-98.71492, 20.12745]]]}}, {"id": "864461", "type": "Feature", "properties": {"id": "864461", "CVEGEO": "1305101011359021", "POBTOT": 37.0, "score_nse": 0.0, "NSE": "ND", "VIVTOT": 12.0, "GRAPROES": 8.71, "_ent": "13", "_mun": "051", "_loc": "0101"}, "geometry": {"type": "Polygon", "coordinates": [[[-98.7157, 20.12814], [-98.71545, 20.12729], [-98.71565, 20.12725], [-98.7157, 20.12814]]]}}, {"id": "864462", "type": "Feature", "properties": {"id": "864462", "CVEGEO": "1305101011359020", "POBTOT": 34.0, "score_nse": 66.355, "NSE": "C", "VIVTOT": 8.0, "GRAPROES": 10.09, "_ent": "13", "_mun": "051", "_loc": "0101"}, "geometry": {"type": "Polygon", "coordinates": [[[-98.71639, 20.12726], [-98.71632, 20.12739], [-98.71595, 20.12743], [-98.71602, 20.12713], [-98.71639, 20.12726]]]}}, {"id": "864463", "type": "Feature", "properties": {"id": "864463", "CVEGEO": "1305101011359019", "POBTOT": 54.0, "score_nse": 68.323, "NSE": "C", "VIVTOT": 16.0, "GRAPROES": 8.9, "_ent": "13", "_mun": "051", "_loc": "0101"}, "geometry": {"type": "Polygon", "coordinates": [[[-98.71581, 20.12547], [-98.71539, 20.12526], [-98.7155, 20.12476], [-98.71568, 20.12484], [-98.71581, 20.12547]]]}}, {"id": "864464", "type": "Feature", "properties": {"id": "864464", "CVEGEO": "1305101011359018", "POBTOT": 22.0, "score_nse": 0.0, "NSE": "ND", "VIVTOT": 8.0, "GRAPROES": 9.38, "_ent": "13", "_mun": "051", "_loc": "0101"}, "geometry": {"type": "Polygon", "coordinates": [[[-98.71512, 20.1251], [-98.71521, 20.12467], [-98.71543, 20.12474], [-98.71534, 20.12522], [-98.71512, 20.1251]]]}}, {"id": "864465", "type": "Feature", "properties": {"id": "864465", "CVEGEO": "1305101011344016", "POBTOT": 40.0, "score_nse": 0.0, "NSE": "ND", "VIVTOT": 12.0, "GRAPROES": 8.73, "_ent": "13", "_mun": "051", "_loc": "0101"}, "geometry": {"type": "Polygon", "coordinates": [[[-98.71269, 20.12503], [-98.71196, 20.12569], [-98.71187, 20.12562], [-98.7123, 20.12517], [-98.71269, 20.12503]]]}}, {"id": "864466", "type": "Feature", "properties": {"id": "864466", "CVEGEO": "1305101011344015", "POBTOT": 13.0, "score_nse": 0.0, "NSE": "ND", "VIVTOT": 4.0, "GRAPROES": 10.29, "_ent": "13", "_mun": "051", "_loc": "0101"}, "geometry": {"type": "Polygon", "coordinates": [[[-98.71291, 20.12762], [-98.71296, 20.12645], [-98.71329, 20.12663], [-98.71316, 20.12784], [-98.71291, 20.12762]]]}}, {"id": "864467", "type": "Feature", "properties": {"id": "864467", "CVEGEO": "1305101011344014", "POBTOT": 52.0, "score_nse": 53.2293, "NSE": "C-", "VIVTOT": 18.0, "GRAPROES": 7.56, "_ent": "13", "_mun": "051", "_loc": "0101"}, "geometry": {"type": "Polygon", "coordinates": [[[-98.7134, 20.12658], [-98.71349, 20.12652], [-98.7142, 20.1265], [-98.71417, 20.12675], [-98.71368, 20.12675], [-98.7134, 20.12658]]]}}, {"id": "864468", "type": "Feature", "properties": {"id": "864468", "CVEGEO": "1305101011344013", "POBTOT": 25.0, "score_nse": 64.193, "NSE": "C", "VIVTOT": 8.0, "GRAPROES": 7.91, "_ent": "13", "_mun": "051", "_loc": "0101"}, "geometry": {"type": "Polygon", "coordinates": [[[-98.71346, 20.12641], [-98.71358, 20.12637], [-98.71422, 20.12634], [-98.71421, 20.12644], [-98.71346, 20.12641]]]}}, {"id": "864469", "type": "Feature", "properties": {"id": "864469", "CVEGEO": "1305101011344012", "POBTOT": 23.0, "score_nse": 0.0, "NSE": "ND", "VIVTOT": 8.0, "GRAPROES": 8.56, "_ent": "13", "_mun": "051", "_loc": "0101"}, "geometry": {"type": "Polygon", "coordinates": [[[-98.71463, 20.12513], [-98.71453, 20.12548], [-98.7141, 20.12553], [-98.71407, 20.12526], [-98.71463, 20.12513]]]}}, {"id": "864470", "type": "Feature", "properties": {"id": "864470", "CVEGEO": "1305101011344011", "POBTOT": 39.0, "score_nse": 66.3625, "NSE": "C", "VIVTOT": 16.0, "GRAPROES": 11.55, "_ent": "13", "_mun": "051", "_loc": "0101"}, "geometry": {"type": "Polygon", "coordinates": [[[-98.71437, 20.12469], [-98.71457, 20.12501], [-98.71381, 20.12527], [-98.71371, 20.12479], [-98.71437, 20.12469]]]}}, {"id": "864471", "type": "Feature", "properties": {"id": "864471", "CVEGEO": "1305101011344010", "POBTOT": 26.0, "score_nse": 0.0, "NSE": "ND", "VIVTOT": 9.0, "GRAPROES": 9.38, "_ent": "13", "_mun": "051", "_loc": "0101"}, "geometry": {"type": "Polygon", "coordinates": [[[-98.71323, 20.12492], [-98.71367, 20.12482], [-98.71375, 20.12529], [-98.71334, 20.12538], [-98.71323, 20.12492]]]}}, {"id": "864472", "type": "Feature", "properties": {"id": "864472", "CVEGEO": "1305101011344007", "POBTOT": 45.0, "score_nse": 59.2, "NSE": "C", "VIVTOT": 12.0, "GRAPROES": 8.35, "_ent": "13", "_mun": "051", "_loc": "0101"}, "geometry": {"type": "Polygon", "coordinates": [[[-98.712, 20.12572], [-98.71227, 20.12544], [-98.7125, 20.12571], [-98.71231, 20.12592], [-98.712, 20.12572]]]}}, {"id": "864481", "type": "Feature", "properties": {"id": "864481", "CVEGEO": "1305101011359017", "POBTOT": 16.0, "score_nse": 0.0, "NSE": "ND", "VIVTOT": 6.0, "GRAPROES": 12.25, "_ent": "13", "_mun": "051", "_loc": "0101"}, "geometry": {"type": "Polygon", "coordinates": [[[-98.71517, 20.1247], [-98.71509, 20.12508], [-98.7147, 20.12505], [-98.71469, 20.12498], [-98.71517, 20.1247]]]}}, {"id": "864485", "type": "Feature", "properties": {"id": "864485", "CVEGEO": "1305101011344001", "POBTOT": 89.0, "score_nse": 57.9878, "NSE": "C", "VIVTOT": 23.0, "GRAPROES": 8.63, "_ent": "13", "_mun": "051", "_loc": "0101"}, "geometry": {"type": "Polygon", "coordinates": [[[-98.71341, 20.12612], [-98.71284, 20.12626], [-98.71277, 20.12608], [-98.71257, 20.12607], [-98.7133, 20.12573], [-98.71333, 20.12584], [-98.71307, 20.12593], [-98.71334, 20.12587], [-98.71341, 20.12612]]]}}, {"id": "864745", "type": "Feature", "properties": {"id": "864745", "CVEGEO": "1305101011359025", "POBTOT": 27.0, "score_nse": 62.218, "NSE": "C", "VIVTOT": 8.0, "GRAPROES": 8.91, "_ent": "13", "_mun": "051", "_loc": "0101"}, "geometry": {"type": "Polygon", "coordinates": [[[-98.71617, 20.12767], [-98.71592, 20.12833], [-98.71575, 20.1283], [-98.71585, 20.12766], [-98.71617, 20.12767]]]}}, {"id": "864772", "type": "Feature", "properties": {"id": "864772", "CVEGEO": "1305101011359029", "POBTOT": 11.0, "score_nse": 0.0, "NSE": "ND", "VIVTOT": 3.0, "GRAPROES": 8.86, "_ent": "13", "_mun": "051", "_loc": "0101"}, "geometry": {"type": "Polygon", "coordinates": [[[-98.71588, 20.12864], [-98.71562, 20.12862], [-98.71574, 20.12834], [-98.7159, 20.12839], [-98.71588, 20.12864]]]}}, {"id": "865046", "type": "Feature", "properties": {"id": "865046", "CVEGEO": "1305101011344022", "POBTOT": 31.0, "score_nse": 0.0, "NSE": "ND", "VIVTOT": 8.0, "GRAPROES": 9.1, "_ent": "13", "_mun": "051", "_loc": "0101"}, "geometry": {"type": "Polygon", "coordinates": [[[-98.71414, 20.12825], [-98.71431, 20.12732], [-98.71453, 20.12742], [-98.71435, 20.12829], [-98.71414, 20.12825]]]}}, {"id": "865047", "type": "Feature", "properties": {"id": "865047", "CVEGEO": "1305101011344026", "POBTOT": 0.0, "score_nse": 10.0, "NSE": "E", "VIVTOT": 1.0, "GRAPROES": 0.0, "_ent": "13", "_mun": "051", "_loc": "0101"}, "geometry": {"type": "Polygon", "coordinates": [[[-98.71407, 20.12863], [-98.71412, 20.12832], [-98.71427, 20.12835], [-98.71421, 20.12866], [-98.71407, 20.12863]]]}}, {"id": "865710", "type": "Feature", "properties": {"id": "865710", "CVEGEO": "1305101011344020", "POBTOT": 22.0, "score_nse": 0.0, "NSE": "ND", "VIVTOT": 6.0, "GRAPROES": 7.73, "_ent": "13", "_mun": "051", "_loc": "0101"}, "geometry": {"type": "Polygon", "coordinates": [[[-98.7141, 20.12714], [-98.71405, 20.1273], [-98.71386, 20.12722], [-98.71391, 20.12701], [-98.7141, 20.12714]]]}}, {"id": "865758", "type": "Feature", "properties": {"id": "865758", "CVEGEO": "1305101011344027", "POBTOT": 0.0, "score_nse": 0.0, "NSE": null, "VIVTOT": 0.0, "GRAPROES": 0.0, "_ent": "13", "_mun": "051", "_loc": "0101"}, "geometry": {"type": "Polygon", "coordinates": [[[-98.71403, 20.12733], [-98.71392, 20.12773], [-98.71374, 20.12769], [-98.71386, 20.12726], [-98.71403, 20.12733]]]}}, {"id": "865759", "type": "Feature", "properties": {"id": "865759", "CVEGEO": "1305101011359026", "POBTOT": 68.0, "score_nse": 61.6294, "NSE": "C", "VIVTOT": 17.0, "GRAPROES": 8.35, "_ent": "13", "_mun": "051", "_loc": "0101"}, "geometry": {"type": "Polygon", "coordinates": [[[-98.71541, 20.12878], [-98.71508, 20.12762], [-98.71543, 20.12751], [-98.71568, 20.12844], [-98.71561, 20.12854], [-98.71549, 20.12838], [-98.71555, 20.12863], [-98.71541, 20.12878]]]}}, {"id": "865760", "type": "Feature", "properties": {"id": "865760", "CVEGEO": "1305101011359030", "POBTOT": 0.0, "score_nse": 0.0, "NSE": null, "VIVTOT": 0.0, "GRAPROES": 0.0, "_ent": "13", "_mun": "051", "_loc": "0101"}, "geometry": {"type": "Polygon", "coordinates": [[[-98.71594, 20.12909], [-98.71595, 20.12841], [-98.71618, 20.12841], [-98.71616, 20.1291], [-98.71594, 20.12909]]]}}, {"id": "865761", "type": "Feature", "properties": {"id": "865761", "CVEGEO": "1305101011359031", "POBTOT": 0.0, "score_nse": 0.0, "NSE": null, "VIVTOT": 0.0, "GRAPROES": 0.0, "_ent": "13", "_mun": "051", "_loc": "0101"}, "geometry": {"type": "Polygon", "coordinates": [[[-98.71625, 20.12886], [-98.71625, 20.12874], [-98.71655, 20.12865], [-98.71625, 20.12868], [-98.71623, 20.12838], [-98.71666, 20.12845], [-98.71682, 20.12881], [-98.71625, 20.12886]]]}}, {"id": "865762", "type": "Feature", "properties": {"id": "865762", "CVEGEO": "1305101011359032", "POBTOT": 0.0, "score_nse": 0.0, "NSE": null, "VIVTOT": 0.0, "GRAPROES": 0.0, "_ent": "13", "_mun": "051", "_loc": "0101"}, "geometry": {"type": "Polygon", "coordinates": [[[-98.71595, 20.12834], [-98.71611, 20.12794], [-98.71648, 20.12829], [-98.71595, 20.12834]]]}}, {"id": "865763", "type": "Feature", "properties": {"id": "865763", "CVEGEO": "1305101011359033", "POBTOT": 0.0, "score_nse": 0.0, "NSE": null, "VIVTOT": 0.0, "GRAPROES": 0.0, "_ent": "13", "_mun": "051", "_loc": "0101"}, "geometry": {"type": "Polygon", "coordinates": [[[-98.71549, 20.12883], [-98.71587, 20.12872], [-98.7158, 20.12929], [-98.71531, 20.12918], [-98.71549, 20.12883]]]}}]}