{"type": "FeatureCollection", "features": [{"id": "862054", "type": "Feature", "properties": {"id": "862054", "CVEGEO": "1305101540577001", "POBTOT": 0.0, "score_nse": 0.0, "NSE": null, "VIVTOT": 0.0, "GRAPROES": 0.0, "_ent": "13", "_mun": "051", "_loc": "0154"}, "geometry": {"type": "Polygon", "coordinates": [[[-98.716, 20.02048], [-98.71602, 20.02142], [-98.7158, 20.02143], [-98.71582, 20.0205], [-98.716, 20.02048]]]}}, {"id": "862055", "type": "Feature", "properties": {"id": "862055", "CVEGEO": "1305101540577003", "POBTOT": 0.0, "score_nse": 0.0, "NSE": null, "VIVTOT": 0.0, "GRAPROES": 0.0, "_ent": "13", "_mun": "051", "_loc": "0154"}, "geometry": {"type": "Polygon", "coordinates": [[[-98.71646, 20.02125], [-98.71731, 20.02122], [-98.71731, 20.0214], [-98.71646, 20.02144], [-98.71646, 20.02125]]]}}, {"id": "862056", "type": "Feature", "properties": {"id": "862056", "CVEGEO": "1305101540577004", "POBTOT": 0.0, "score_nse": 0.0, "NSE": null, "VIVTOT": 0.0, "GRAPROES": 0.0, "_ent": "13", "_mun": "051", "_loc": "0154"}, "geometry": {"type": "Polygon", "coordinates": [[[-98.71643, 20.0205], [-98.71727, 20.02045], [-98.71728, 20.02064], [-98.71643, 20.02068], [-98.71643, 20.0205]]]}}, {"id": "862076", "type": "Feature", "properties": {"id": "862076", "CVEGEO": "1305101540577002", "POBTOT": 0.0, "score_nse": 0.0, "NSE": null, "VIVTOT": 0.0, "GRAPROES": 0.0, "_ent": "13", "_mun": "051", "_loc": "0154"}, "geometry": {"type": "Polygon", "coordinates": [[[-98.7162, 20.02047], [-98.71625, 20.0214], [-98.71605, 20.02142], [-98.71605, 20.02047], [-98.7162, 20.02047]]]}}, {"id": "862079", "type": "Feature", "properties": {"id": "862079", "CVEGEO": "1305101540577006", "POBTOT": 0.0, "score_nse": 0.0, "NSE": null, "VIVTOT": 0.0, "GRAPROES": 0.0, "_ent": "13", "_mun": "051", "_loc": "0154"}, "geometry": {"type": "Polygon", "coordinates": [[[-98.7211, 20.02121], [-98.72109, 20.02133], [-98.71789, 20.02147], [-98.71789, 20.02136], [-98.7211, 20.02121]]]}}, {"id": "863744", "type": "Feature", "properties": {"id": "863744", "CVEGEO": "1305101540577007", "POBTOT": 0.0, "score_nse": 0.0, "NSE": null, "VIVTOT": 0.0, "GRAPROES": 0.0, "_ent": "13", "_mun": "051", "_loc": "0154"}, "geometry": {"type": "Polygon", "coordinates": [[[-98.71838, 20.02122], [-98.71786, 20.02125], [-98.71782, 20.02065], [-98.71833, 20.02064], [-98.71838, 20.02122]]]}}, {"id": "863748", "type": "Feature", "properties": {"id": "863748", "CVEGEO": "1305101540577008", "POBTOT": 0.0, "score_nse": 0.0, "NSE": null, "VIVTOT": 0.0, "GRAPROES": 0.0, "_ent": "13", "_mun": "051", "_loc": "0154"}, "geometry": {"type": "Polygon", "coordinates": [[[-98.72135, 20.02037], [-98.71782, 20.02053], [-98.71781, 20.02039], [-98.72135, 20.02023], [-98.72135, 20.02037]]]}}, {"id": "863793", "type": "Feature", "properties": {"id": "863793", "CVEGEO": "1305101540577009", "POBTOT": 0.0, "score_nse": 0.0, "NSE": null, "VIVTOT": 0.0, "GRAPROES": 0.0, "_ent": "13", "_mun": "051", "_loc": "0154"}, "geometry": {"type": "Polygon", "coordinates": [[[-98.72139, 20.02112], [-98.72124, 20.02112], [-98.7212, 20.02048], [-98.72135, 20.02047], [-98.72139, 20.02112]]]}}, {"id": "863794", "type": "Feature", "properties": {"id": "863794", "CVEGEO": "1305101540577010", "POBTOT": 0.0, "score_nse": 0.0, "NSE": null, "VIVTOT": 0.0, "GRAPROES": 0.0, "_ent": "13", "_mun": "051", "_loc": "0154"}, "geometry": {"type": "Polygon", "coordinates": [[[-98.71784, 20.02121], [-98.71767, 20.02122], [-98.71763, 20.02039], [-98.71779, 20.0204], [-98.71784, 20.02121]]]}}, {"id": "863811", "type": "Feature", "properties": {"id": "863811", "CVEGEO": "1305101540577005", "POBTOT": 0.0, "score_nse": 0.0, "NSE": null, "VIVTOT": 0.0, "GRAPROES": 0.0, "_ent": "13", "_mun": "051", "_loc": "0154"}, "geometry": {"type": "Polygon", "coordinates": [[[-98.71764, 20.0212], [-98.71744, 20.02122], [-98.71741, 20.0204], [-98.71761, 20.0204], [-98.71764, 20.0212]]]}}, {"id": "864686", "type": "Feature", "properties": {"id": "864686", "CVEGEO": "1305101540577017", "POBTOT": 0.0, "score_nse": 0.0, "NSE": null, "VIVTOT": 0.0, "GRAPROES": 0.0, "_ent": "13", "_mun": "051", "_loc": "0154"}, "geometry": {"type": "Polygon", "coordinates": [[[-98.71883, 20.02123], [-98.71855, 20.02124], [-98.71852, 20.0206], [-98.71879, 20.02059], [-98.71883, 20.02123]]]}}, {"id": "864687", "type": "Feature", "properties": {"id": "864687", "CVEGEO": "1305101540577016", "POBTOT": 0.0, "score_nse": 0.0, "NSE": null, "VIVTOT": 0.0, "GRAPROES": 0.0, "_ent": "13", "_mun": "051", "_loc": "0154"}, "geometry": {"type": "Polygon", "coordinates": [[[-98.71922, 20.02121], [-98.71894, 20.02122], [-98.71891, 20.02058], [-98.71919, 20.02057], [-98.71922, 20.02121]]]}}, {"id": "864688", "type": "Feature", "properties": {"id": "864688", "CVEGEO": "1305101540577015", "POBTOT": 0.0, "score_nse": 0.0, "NSE": null, "VIVTOT": 0.0, "GRAPROES": 0.0, "_ent": "13", "_mun": "051", "_loc": "0154"}, "geometry": {"type": "Polygon", "coordinates": [[[-98.71961, 20.02119], [-98.71933, 20.0212], [-98.7193, 20.02056], [-98.71958, 20.02055], [-98.71961, 20.02119]]]}}, {"id": "864689", "type": "Feature", "properties": {"id": "864689", "CVEGEO": "1305101540577014", "POBTOT": 0.0, "score_nse": 0.0, "NSE": null, "VIVTOT": 0.0, "GRAPROES": 0.0, "_ent": "13", "_mun": "051", "_loc": "0154"}, "geometry": {"type": "Polygon", "coordinates": [[[-98.72001, 20.02117], [-98.71972, 20.02118], [-98.71968, 20.02054], [-98.71998, 20.02053], [-98.72001, 20.02117]]]}}, {"id": "864690", "type": "Feature", "properties": {"id": "864690", "CVEGEO": "1305101540577013", "POBTOT": 0.0, "score_nse": 0.0, "NSE": null, "VIVTOT": 0.0, "GRAPROES": 0.0, "_ent": "13", "_mun": "051", "_loc": "0154"}, "geometry": {"type": "Polygon", "coordinates": [[[-98.7204, 20.02115], [-98.72011, 20.02116], [-98.72008, 20.02053], [-98.72037, 20.02052], [-98.7204, 20.02115]]]}}, {"id": "864691", "type": "Feature", "properties": {"id": "864691", "CVEGEO": "1305101540577012", "POBTOT": 0.0, "score_nse": 0.0, "NSE": null, "VIVTOT": 0.0, "GRAPROES": 0.0, "_ent": "13", "_mun": "051", "_loc": "0154"}, "geometry": {"type": "Polygon", "coordinates": [[[-98.72079, 20.02113], [-98.7205, 20.02114], [-98.72047, 20.02052], [-98.72077, 20.02051], [-98.72079, 20.02113]]]}}, {"id": "864692", "type": "Feature", "properties": {"id": "864692", "CVEGEO": "1305101540577011", "POBTOT": 0.0, "score_nse": 0.0, "NSE": null, "VIVTOT": 0.0, "GRAPROES": 0.0, "_ent": "13", "_mun": "051", "_loc": "0154"}, "geometry": {"type": "Polygon", "coordinates": [[[-98.72116, 20.0211], [-98.7209, 20.02111], [-98.72086, 20.0205], [-98.72112, 20.02049], [-98.72116, 20.0211]]]}}]}