{"type": "FeatureCollection", "features": [{"id": "943461", "type": "Feature", "properties": {"id": "943461", "CVEGEO": "1404500930042005", "POBTOT": 0.0, "score_nse": 0.0, "NSE": null, "VIVTOT": 0.0, "GRAPROES": 0.0, "_ent": "14", "_mun": "045", "_loc": "0093"}, "geometry": {"type": "Polygon", "coordinates": [[[-103.22288, 20.92939], [-103.22259, 20.93177], [-103.22099, 20.93225], [-103.22259, 20.93185], [-103.22236, 20.93276], [-103.22249, 20.93324], [-103.22236, 20.93466], [-103.22095, 20.93533], [-103.22004, 20.93624], [-103.21972, 20.93553], [-103.2195, 20.93537], [-103.21819, 20.9352], [-103.21812, 20.93475], [-103.21829, 20.93358], [-103.2189, 20.93371], [-103.2183, 20.93348], [-103.2193, 20.93224], [-103.21929, 20.93179], [-103.21902, 20.93164], [-103.2191, 20.92942], [-103.22288, 20.92939]]]}}, {"id": "943474", "type": "Feature", "properties": {"id": "943474", "CVEGEO": "1404500930042004", "POBTOT": 0.0, "score_nse": 0.0, "NSE": null, "VIVTOT": 0.0, "GRAPROES": 0.0, "_ent": "14", "_mun": "045", "_loc": "0093"}, "geometry": {"type": "Polygon", "coordinates": [[[-103.21889, 20.93174], [-103.21919, 20.93188], [-103.21919, 20.93224], [-103.21875, 20.9326], [-103.21821, 20.93347], [-103.21764, 20.93308], [-103.21679, 20.93278], [-103.21485, 20.93289], [-103.21283, 20.93173], [-103.21071, 20.93124], [-103.20973, 20.9311], [-103.20807, 20.93115], [-103.20792, 20.93098], [-103.21542, 20.92688], [-103.21574, 20.9294], [-103.21899, 20.92937], [-103.21889, 20.93174]]]}}, {"id": "943475", "type": "Feature", "properties": {"id": "943475", "CVEGEO": "1404500930042003", "POBTOT": 0.0, "score_nse": 0.0, "NSE": null, "VIVTOT": 0.0, "GRAPROES": 0.0, "_ent": "14", "_mun": "045", "_loc": "0093"}, "geometry": {"type": "Polygon", "coordinates": [[[-103.21653, 20.93612], [-103.21614, 20.93598], [-103.21596, 20.93624], [-103.21555, 20.93629], [-103.21532, 20.93661], [-103.21276, 20.93664], [-103.21447, 20.93479], [-103.21495, 20.93333], [-103.2149, 20.933], [-103.2154, 20.93287], [-103.21697, 20.9329], [-103.2182, 20.93355], [-103.21823, 20.93408], [-103.21797, 20.935], [-103.21807, 20.93523], [-103.21695, 20.93526], [-103.21696, 20.93496], [-103.2166, 20.93484], [-103.21648, 20.93509], [-103.21666, 20.93532], [-103.21749, 20.93533], [-103.21653, 20.93612]]]}}, {"id": "943476", "type": "Feature", "properties": {"id": "943476", "CVEGEO": "1404500930042002", "POBTOT": 0.0, "score_nse": 0.0, "NSE": null, "VIVTOT": 0.0, "GRAPROES": 0.0, "_ent": "14", "_mun": "045", "_loc": "0093"}, "geometry": {"type": "Polygon", "coordinates": [[[-103.22002, 20.94069], [-103.2201, 20.94016], [-103.21862, 20.93993], [-103.21794, 20.93927], [-103.21653, 20.93926], [-103.21545, 20.93874], [-103.21445, 20.93672], [-103.21537, 20.93668], [-103.21559, 20.93638], [-103.21601, 20.9363], [-103.21617, 20.93607], [-103.21655, 20.93619], [-103.21763, 20.93531], [-103.21823, 20.93531], [-103.21804, 20.93615], [-103.21761, 20.93677], [-103.2179, 20.9365], [-103.21854, 20.93678], [-103.21859, 20.93744], [-103.21899, 20.93788], [-103.22087, 20.93789], [-103.22061, 20.93841], [-103.22041, 20.93979], [-103.22053, 20.93976], [-103.22078, 20.93812], [-103.22117, 20.93741], [-103.22213, 20.9375], [-103.22308, 20.94089], [-103.22002, 20.94069]]]}}, {"id": "943477", "type": "Feature", "properties": {"id": "943477", "CVEGEO": "1404500930042001", "POBTOT": 0.0, "score_nse": 0.0, "NSE": null, "VIVTOT": 0.0, "GRAPROES": 0.0, "_ent": "14", "_mun": "045", "_loc": "0093"}, "geometry": {"type": "Polygon", "coordinates": [[[-103.22122, 20.93731], [-103.22076, 20.93783], [-103.21902, 20.93781], [-103.21864, 20.93741], [-103.21865, 20.93677], [-103.21798, 20.93652], [-103.21831, 20.93535], [-103.21959, 20.93554], [-103.21999, 20.9363], [-103.21983, 20.93656], [-103.22102, 20.9354], [-103.22159, 20.93505], [-103.22234, 20.93493], [-103.22245, 20.93577], [-103.222, 20.93742], [-103.22122, 20.93731]]]}}, {"id": "943771", "type": "Feature", "properties": {"id": "943771", "CVEGEO": "1404500930042006", "POBTOT": 0.0, "score_nse": 0.0, "NSE": null, "VIVTOT": 0.0, "GRAPROES": 0.0, "_ent": "14", "_mun": "045", "_loc": "0093"}, "geometry": {"type": "Polygon", "coordinates": [[[-103.22253, 20.93585], [-103.22249, 20.93496], [-103.22606, 20.93436], [-103.226, 20.9353], [-103.22571, 20.93574], [-103.22532, 20.93785], [-103.22211, 20.93739], [-103.22253, 20.93585]]]}}]}