{"type": "FeatureCollection", "features": [{"id": "943400", "type": "Feature", "properties": {"id": "943400", "CVEGEO": "1404501040057005", "POBTOT": 0.0, "score_nse": 0.0, "NSE": null, "VIVTOT": 0.0, "GRAPROES": 0.0, "_ent": "14", "_mun": "045", "_loc": "0104"}, "geometry": {"type": "Polygon", "coordinates": [[[-103.2642, 20.84132], [-103.26498, 20.84101], [-103.26549, 20.84035], [-103.2656, 20.84038], [-103.26556, 20.84085], [-103.26568, 20.84038], [-103.26611, 20.84038], [-103.26609, 20.84142], [-103.26511, 20.84114], [-103.26481, 20.84142], [-103.2642, 20.84132]]]}}, {"id": "943401", "type": "Feature", "properties": {"id": "943401", "CVEGEO": "1404501040057004", "POBTOT": 0.0, "score_nse": 0.0, "NSE": null, "VIVTOT": 0.0, "GRAPROES": 0.0, "_ent": "14", "_mun": "045", "_loc": "0104"}, "geometry": {"type": "Polygon", "coordinates": [[[-103.26575, 20.83991], [-103.26611, 20.83943], [-103.26602, 20.83939], [-103.2656, 20.83995], [-103.2656, 20.8403], [-103.26515, 20.84004], [-103.26496, 20.83957], [-103.26441, 20.83968], [-103.26347, 20.83923], [-103.26382, 20.83883], [-103.26452, 20.83905], [-103.26547, 20.83905], [-103.26595, 20.83884], [-103.26682, 20.83895], [-103.26658, 20.83987], [-103.26613, 20.84007], [-103.26611, 20.84029], [-103.26573, 20.84027], [-103.26575, 20.83991]]]}}, {"id": "943471", "type": "Feature", "properties": {"id": "943471", "CVEGEO": "1404501040057003", "POBTOT": 0.0, "score_nse": 0.0, "NSE": null, "VIVTOT": 0.0, "GRAPROES": 0.0, "_ent": "14", "_mun": "045", "_loc": "0104"}, "geometry": {"type": "Polygon", "coordinates": [[[-103.26347, 20.83908], [-103.2629, 20.83877], [-103.26291, 20.8385], [-103.26283, 20.83873], [-103.26253, 20.83874], [-103.26194, 20.8385], [-103.26189, 20.83801], [-103.26315, 20.83779], [-103.26389, 20.83793], [-103.26433, 20.83771], [-103.26455, 20.83802], [-103.26517, 20.83801], [-103.266, 20.83768], [-103.26611, 20.83826], [-103.26648, 20.83878], [-103.26586, 20.83878], [-103.26547, 20.83897], [-103.26434, 20.83898], [-103.26399, 20.83887], [-103.26386, 20.83863], [-103.26337, 20.83826], [-103.26377, 20.83879], [-103.26347, 20.83908]]]}}, {"id": "943472", "type": "Feature", "properties": {"id": "943472", "CVEGEO": "1404501040057002", "POBTOT": 0.0, "score_nse": 0.0, "NSE": null, "VIVTOT": 0.0, "GRAPROES": 0.0, "_ent": "14", "_mun": "045", "_loc": "0104"}, "geometry": {"type": "Polygon", "coordinates": [[[-103.26222, 20.84092], [-103.26177, 20.84088], [-103.26209, 20.84062], [-103.26222, 20.84017], [-103.26253, 20.83981], [-103.26282, 20.83886], [-103.26302, 20.8388], [-103.26345, 20.83913], [-103.26253, 20.84014], [-103.26222, 20.84092]]]}}, {"id": "943473", "type": "Feature", "properties": {"id": "943473", "CVEGEO": "1404501040057001", "POBTOT": 0.0, "score_nse": 0.0, "NSE": null, "VIVTOT": 0.0, "GRAPROES": 0.0, "_ent": "14", "_mun": "045", "_loc": "0104"}, "geometry": {"type": "Polygon", "coordinates": [[[-103.26505, 20.84085], [-103.26415, 20.84117], [-103.26228, 20.84095], [-103.26267, 20.84021], [-103.26343, 20.83929], [-103.26389, 20.83951], [-103.26406, 20.84063], [-103.26397, 20.83953], [-103.26439, 20.83976], [-103.26491, 20.83969], [-103.26542, 20.84035], [-103.26505, 20.84085]]]}}, {"id": "943804", "type": "Feature", "properties": {"id": "943804", "CVEGEO": "1404501040057006", "POBTOT": 0.0, "score_nse": 0.0, "NSE": null, "VIVTOT": 0.0, "GRAPROES": 0.0, "_ent": "14", "_mun": "045", "_loc": "0104"}, "geometry": {"type": "Polygon", "coordinates": [[[-103.2633, 20.84109], [-103.26324, 20.84146], [-103.26216, 20.84135], [-103.26224, 20.84101], [-103.2633, 20.84109]]]}}, {"id": "943805", "type": "Feature", "properties": {"id": "943805", "CVEGEO": "1404501040057007", "POBTOT": 0.0, "score_nse": 0.0, "NSE": null, "VIVTOT": 0.0, "GRAPROES": 0.0, "_ent": "14", "_mun": "045", "_loc": "0104"}, "geometry": {"type": "Polygon", "coordinates": [[[-103.26217, 20.84105], [-103.26215, 20.84142], [-103.26129, 20.84124], [-103.26163, 20.84081], [-103.26217, 20.84105]]]}}, {"id": "943806", "type": "Feature", "properties": {"id": "943806", "CVEGEO": "1404501040057008", "POBTOT": 0.0, "score_nse": 0.0, "NSE": null, "VIVTOT": 0.0, "GRAPROES": 0.0, "_ent": "14", "_mun": "045", "_loc": "0104"}, "geometry": {"type": "Polygon", "coordinates": [[[-103.26412, 20.84127], [-103.26405, 20.84164], [-103.2633, 20.84147], [-103.26336, 20.84109], [-103.26412, 20.84127]]]}}]}