{"type": "FeatureCollection", "features": [{"id": "761987", "type": "Feature", "properties": {"id": "761987", "CVEGEO": "1202700260420006", "POBTOT": 0.0, "score_nse": 0.0, "NSE": null, "VIVTOT": 0.0, "GRAPROES": 0.0, "_ent": "12", "_mun": "027", "_loc": "0026"}, "geometry": {"type": "Polygon", "coordinates": [[[-100.74069, 18.61099], [-100.73973, 18.61099], [-100.7396, 18.61082], [-100.73988, 18.61057], [-100.74015, 18.61075], [-100.7406, 18.61036], [-100.74077, 18.60998], [-100.74076, 18.60922], [-100.74121, 18.60936], [-100.74136, 18.60974], [-100.7413, 18.60935], [-100.74176, 18.60921], [-100.74198, 18.60988], [-100.74185, 18.61047], [-100.74164, 18.61062], [-100.74119, 18.61022], [-100.74097, 18.61086], [-100.74069, 18.61099]]]}}, {"id": "761988", "type": "Feature", "properties": {"id": "761988", "CVEGEO": "1202700260420005", "POBTOT": 0.0, "score_nse": 0.0, "NSE": null, "VIVTOT": 0.0, "GRAPROES": 0.0, "_ent": "12", "_mun": "027", "_loc": "0026"}, "geometry": {"type": "Polygon", "coordinates": [[[-100.74337, 18.61001], [-100.74207, 18.61019], [-100.74186, 18.60915], [-100.74201, 18.60883], [-100.74336, 18.60942], [-100.74337, 18.61001]]]}}, {"id": "761989", "type": "Feature", "properties": {"id": "761989", "CVEGEO": "1202700260420004", "POBTOT": 0.0, "score_nse": 0.0, "NSE": null, "VIVTOT": 0.0, "GRAPROES": 0.0, "_ent": "12", "_mun": "027", "_loc": "0026"}, "geometry": {"type": "Polygon", "coordinates": [[[-100.74401, 18.61074], [-100.74343, 18.61001], [-100.74342, 18.60937], [-100.74208, 18.60874], [-100.74237, 18.60764], [-100.74376, 18.60688], [-100.74404, 18.60694], [-100.74377, 18.60771], [-100.74404, 18.60818], [-100.74421, 18.60906], [-100.74397, 18.60982], [-100.74432, 18.61006], [-100.74426, 18.6105], [-100.74401, 18.61074]]]}}, {"id": "762280", "type": "Feature", "properties": {"id": "762280", "CVEGEO": "1202700260420008", "POBTOT": 0.0, "score_nse": 0.0, "NSE": null, "VIVTOT": 0.0, "GRAPROES": 0.0, "_ent": "12", "_mun": "027", "_loc": "0026"}, "geometry": {"type": "Polygon", "coordinates": [[[-100.74318, 18.61154], [-100.74161, 18.61139], [-100.74166, 18.61093], [-100.74207, 18.61027], [-100.74337, 18.6101], [-100.74372, 18.61043], [-100.74318, 18.61154]]]}}, {"id": "762281", "type": "Feature", "properties": {"id": "762281", "CVEGEO": "1202700260420002", "POBTOT": 0.0, "score_nse": 0.0, "NSE": null, "VIVTOT": 0.0, "GRAPROES": 0.0, "_ent": "12", "_mun": "027", "_loc": "0026"}, "geometry": {"type": "Polygon", "coordinates": [[[-100.74156, 18.60921], [-100.741, 18.60916], [-100.74135, 18.60864], [-100.74151, 18.60863], [-100.74162, 18.60883], [-100.74169, 18.60907], [-100.74156, 18.60921]]]}}, {"id": "762282", "type": "Feature", "properties": {"id": "762282", "CVEGEO": "1202700260420001", "POBTOT": 0.0, "score_nse": 0.0, "NSE": null, "VIVTOT": 0.0, "GRAPROES": 0.0, "_ent": "12", "_mun": "027", "_loc": "0026"}, "geometry": {"type": "Polygon", "coordinates": [[[-100.74176, 18.60906], [-100.74161, 18.60866], [-100.74196, 18.60867], [-100.74188, 18.6089], [-100.74176, 18.60906]]]}}, {"id": "762518", "type": "Feature", "properties": {"id": "762518", "CVEGEO": "1202700260420003", "POBTOT": 0.0, "score_nse": 0.0, "NSE": null, "VIVTOT": 0.0, "GRAPROES": 0.0, "_ent": "12", "_mun": "027", "_loc": "0026"}, "geometry": {"type": "Polygon", "coordinates": [[[-100.74082, 18.60901], [-100.7418, 18.60782], [-100.74226, 18.60763], [-100.74208, 18.60857], [-100.74142, 18.60856], [-100.74095, 18.60911], [-100.74082, 18.60901]]]}}, {"id": "762550", "type": "Feature", "properties": {"id": "762550", "CVEGEO": "1202700260420009", "POBTOT": 0.0, "score_nse": 0.0, "NSE": null, "VIVTOT": 0.0, "GRAPROES": 0.0, "_ent": "12", "_mun": "027", "_loc": "0026"}, "geometry": {"type": "Polygon", "coordinates": [[[-100.74015, 18.60842], [-100.74091, 18.60831], [-100.74108, 18.60856], [-100.74066, 18.60879], [-100.74015, 18.60842]]]}}, {"id": "762590", "type": "Feature", "properties": {"id": "762590", "CVEGEO": "1202700260420007", "POBTOT": 0.0, "score_nse": 0.0, "NSE": null, "VIVTOT": 0.0, "GRAPROES": 0.0, "_ent": "12", "_mun": "027", "_loc": "0026"}, "geometry": {"type": "Polygon", "coordinates": [[[-100.7398, 18.61036], [-100.73889, 18.61015], [-100.73733, 18.61084], [-100.73811, 18.60992], [-100.73971, 18.60937], [-100.7406, 18.60934], [-100.74067, 18.60993], [-100.74044, 18.61043], [-100.74007, 18.61068], [-100.7398, 18.61036]]]}}, {"id": "762599", "type": "Feature", "properties": {"id": "762599", "CVEGEO": "1202700260420010", "POBTOT": 0.0, "score_nse": 0.0, "NSE": null, "VIVTOT": 0.0, "GRAPROES": 0.0, "_ent": "12", "_mun": "027", "_loc": "0026"}, "geometry": {"type": "Polygon", "coordinates": [[[-100.73942, 18.60848], [-100.74006, 18.60841], [-100.74029, 18.60862], [-100.73975, 18.60893], [-100.74033, 18.60866], [-100.7405, 18.60878], [-100.74041, 18.60913], [-100.73962, 18.6093], [-100.73942, 18.60848]]]}}]}