{"type": "FeatureCollection", "features": [{"id": "762648", "type": "Feature", "properties": {"id": "762648", "CVEGEO": "1202700570469010", "POBTOT": 0.0, "score_nse": 0.0, "NSE": null, "VIVTOT": 0.0, "GRAPROES": 0.0, "_ent": "12", "_mun": "027", "_loc": "0057"}, "geometry": {"type": "Polygon", "coordinates": [[[-100.6095, 18.54638], [-100.60862, 18.5462], [-100.60875, 18.54575], [-100.60955, 18.54604], [-100.6095, 18.54638]]]}}, {"id": "762649", "type": "Feature", "properties": {"id": "762649", "CVEGEO": "1202700570469009", "POBTOT": 0.0, "score_nse": 0.0, "NSE": null, "VIVTOT": 0.0, "GRAPROES": 0.0, "_ent": "12", "_mun": "027", "_loc": "0057"}, "geometry": {"type": "Polygon", "coordinates": [[[-100.60955, 18.54598], [-100.60875, 18.54571], [-100.60927, 18.54483], [-100.60956, 18.54527], [-100.60955, 18.54598]]]}}, {"id": "762650", "type": "Feature", "properties": {"id": "762650", "CVEGEO": "1202700570469005", "POBTOT": 0.0, "score_nse": 0.0, "NSE": null, "VIVTOT": 0.0, "GRAPROES": 0.0, "_ent": "12", "_mun": "027", "_loc": "0057"}, "geometry": {"type": "Polygon", "coordinates": [[[-100.61168, 18.54191], [-100.61069, 18.54191], [-100.6108, 18.54141], [-100.61124, 18.54146], [-100.61168, 18.54191]]]}}, {"id": "762651", "type": "Feature", "properties": {"id": "762651", "CVEGEO": "1202700570469004", "POBTOT": 0.0, "score_nse": 0.0, "NSE": null, "VIVTOT": 0.0, "GRAPROES": 0.0, "_ent": "12", "_mun": "027", "_loc": "0057"}, "geometry": {"type": "Polygon", "coordinates": [[[-100.61067, 18.54167], [-100.61064, 18.54191], [-100.61036, 18.54194], [-100.61032, 18.54151], [-100.61067, 18.54167]]]}}, {"id": "762652", "type": "Feature", "properties": {"id": "762652", "CVEGEO": "1202700570469003", "POBTOT": 0.0, "score_nse": 0.0, "NSE": null, "VIVTOT": 0.0, "GRAPROES": 0.0, "_ent": "12", "_mun": "027", "_loc": "0057"}, "geometry": {"type": "Polygon", "coordinates": [[[-100.6103, 18.54194], [-100.6101, 18.54187], [-100.60992, 18.54142], [-100.61026, 18.54151], [-100.6103, 18.54194]]]}}, {"id": "762653", "type": "Feature", "properties": {"id": "762653", "CVEGEO": "1202700570469007", "POBTOT": 0.0, "score_nse": 0.0, "NSE": null, "VIVTOT": 0.0, "GRAPROES": 0.0, "_ent": "12", "_mun": "027", "_loc": "0057"}, "geometry": {"type": "Polygon", "coordinates": [[[-100.60874, 18.54374], [-100.60916, 18.54376], [-100.60914, 18.54397], [-100.60892, 18.54405], [-100.60874, 18.54374]]]}}, {"id": "762655", "type": "Feature", "properties": {"id": "762655", "CVEGEO": "1202700570469008", "POBTOT": 0.0, "score_nse": 0.0, "NSE": null, "VIVTOT": 0.0, "GRAPROES": 0.0, "_ent": "12", "_mun": "027", "_loc": "0057"}, "geometry": {"type": "Polygon", "coordinates": [[[-100.60924, 18.5447], [-100.60949, 18.54456], [-100.60944, 18.54492], [-100.60924, 18.5447]]]}}, {"id": "762656", "type": "Feature", "properties": {"id": "762656", "CVEGEO": "1202700570469006", "POBTOT": 0.0, "score_nse": 0.0, "NSE": null, "VIVTOT": 0.0, "GRAPROES": 0.0, "_ent": "12", "_mun": "027", "_loc": "0057"}, "geometry": {"type": "Polygon", "coordinates": [[[-100.60959, 18.54403], [-100.6094, 18.54446], [-100.60923, 18.54457], [-100.60906, 18.54414], [-100.60917, 18.54401], [-100.60959, 18.54403]]]}}, {"id": "762657", "type": "Feature", "properties": {"id": "762657", "CVEGEO": "1202700570469002", "POBTOT": 0.0, "score_nse": 0.0, "NSE": null, "VIVTOT": 0.0, "GRAPROES": 0.0, "_ent": "12", "_mun": "027", "_loc": "0057"}, "geometry": {"type": "Polygon", "coordinates": [[[-100.61036, 18.54203], [-100.61035, 18.54226], [-100.61016, 18.5423], [-100.61016, 18.54197], [-100.61036, 18.54203]]]}}, {"id": "762658", "type": "Feature", "properties": {"id": "762658", "CVEGEO": "1202700570469001", "POBTOT": 0.0, "score_nse": 0.0, "NSE": null, "VIVTOT": 0.0, "GRAPROES": 0.0, "_ent": "12", "_mun": "027", "_loc": "0057"}, "geometry": {"type": "Polygon", "coordinates": [[[-100.61164, 18.54194], [-100.61097, 18.54283], [-100.61049, 18.54319], [-100.61015, 18.54267], [-100.61016, 18.54235], [-100.61041, 18.54229], [-100.61042, 18.54203], [-100.61164, 18.54194]]]}}]}