{"type": "FeatureCollection", "features": [{"id": "2285912", "type": "Feature", "properties": {"id": "2285912", "CVEGEO": "300650226003A001", "POBTOT": 0.0, "score_nse": 0.0, "NSE": null, "VIVTOT": 0.0, "GRAPROES": 0.0, "_ent": "30", "_mun": "065", "_loc": "0226"}, "geometry": {"type": "Polygon", "coordinates": [[[-96.80571, 19.46028], [-96.8057, 19.4599], [-96.80713, 19.46012], [-96.80705, 19.46043], [-96.80571, 19.46028]]]}}, {"id": "2285913", "type": "Feature", "properties": {"id": "2285913", "CVEGEO": "300650226003A007", "POBTOT": 0.0, "score_nse": 0.0, "NSE": null, "VIVTOT": 0.0, "GRAPROES": 0.0, "_ent": "30", "_mun": "065", "_loc": "0226"}, "geometry": {"type": "Polygon", "coordinates": [[[-96.80738, 19.46059], [-96.80713, 19.46154], [-96.80538, 19.46134], [-96.80534, 19.46042], [-96.80563, 19.46041], [-96.80566, 19.46102], [-96.80692, 19.46119], [-96.80709, 19.46056], [-96.80738, 19.46059]]]}}, {"id": "2285914", "type": "Feature", "properties": {"id": "2285914", "CVEGEO": "300650226003A003", "POBTOT": 0.0, "score_nse": 0.0, "NSE": null, "VIVTOT": 0.0, "GRAPROES": 0.0, "_ent": "30", "_mun": "065", "_loc": "0226"}, "geometry": {"type": "Polygon", "coordinates": [[[-96.80738, 19.45954], [-96.8077, 19.45946], [-96.80742, 19.46048], [-96.80713, 19.46043], [-96.80738, 19.45954]]]}}, {"id": "2286355", "type": "Feature", "properties": {"id": "2286355", "CVEGEO": "300650226003A002", "POBTOT": 0.0, "score_nse": 0.0, "NSE": null, "VIVTOT": 0.0, "GRAPROES": 0.0, "_ent": "30", "_mun": "065", "_loc": "0226"}, "geometry": {"type": "Polygon", "coordinates": [[[-96.8057, 19.45982], [-96.80567, 19.45925], [-96.8073, 19.45952], [-96.80716, 19.46006], [-96.8057, 19.45982]]]}}, {"id": "2286579", "type": "Feature", "properties": {"id": "2286579", "CVEGEO": "300650226003A005", "POBTOT": 0.0, "score_nse": 0.0, "NSE": null, "VIVTOT": 0.0, "GRAPROES": 0.0, "_ent": "30", "_mun": "065", "_loc": "0226"}, "geometry": {"type": "Polygon", "coordinates": [[[-96.80563, 19.46005], [-96.80533, 19.46002], [-96.80529, 19.45881], [-96.8066, 19.45905], [-96.80651, 19.45932], [-96.8056, 19.45917], [-96.80563, 19.46005]]]}}, {"id": "2286580", "type": "Feature", "properties": {"id": "2286580", "CVEGEO": "300650226003A006", "POBTOT": 0.0, "score_nse": 0.0, "NSE": null, "VIVTOT": 0.0, "GRAPROES": 0.0, "_ent": "30", "_mun": "065", "_loc": "0226"}, "geometry": {"type": "Polygon", "coordinates": [[[-96.80771, 19.45943], [-96.80656, 19.45933], [-96.8066, 19.4591], [-96.80777, 19.45921], [-96.80771, 19.45943]]]}}, {"id": "2286724", "type": "Feature", "properties": {"id": "2286724", "CVEGEO": "300650226003A004", "POBTOT": 0.0, "score_nse": 0.0, "NSE": null, "VIVTOT": 0.0, "GRAPROES": 0.0, "_ent": "30", "_mun": "065", "_loc": "0226"}, "geometry": {"type": "Polygon", "coordinates": [[[-96.80572, 19.4604], [-96.80701, 19.46054], [-96.80687, 19.4611], [-96.80574, 19.46096], [-96.80572, 19.4604]]]}}]}