{"type": "FeatureCollection", "features": [{"id": "1680000", "type": "Feature", "properties": {"id": "1680000", "CVEGEO": "2110900070041017", "POBTOT": 0.0, "score_nse": 0.0, "NSE": null, "VIVTOT": 0.0, "GRAPROES": 0.0, "_ent": "21", "_mun": "109", "_loc": "0007"}, "geometry": {"type": "Polygon", "coordinates": [[[-98.12537, 20.27437], [-98.12552, 20.27354], [-98.12639, 20.27368], [-98.1258, 20.27392], [-98.12537, 20.27437]]]}}, {"id": "1680001", "type": "Feature", "properties": {"id": "1680001", "CVEGEO": "2110900070041016", "POBTOT": 0.0, "score_nse": 0.0, "NSE": null, "VIVTOT": 0.0, "GRAPROES": 0.0, "_ent": "21", "_mun": "109", "_loc": "0007"}, "geometry": {"type": "Polygon", "coordinates": [[[-98.12608, 20.27491], [-98.12604, 20.27524], [-98.12529, 20.27523], [-98.12532, 20.27487], [-98.12608, 20.27491]]]}}, {"id": "1680002", "type": "Feature", "properties": {"id": "1680002", "CVEGEO": "2110900070041015", "POBTOT": 0.0, "score_nse": 0.0, "NSE": null, "VIVTOT": 0.0, "GRAPROES": 0.0, "_ent": "21", "_mun": "109", "_loc": "0007"}, "geometry": {"type": "Polygon", "coordinates": [[[-98.12612, 20.27522], [-98.12616, 20.2749], [-98.127, 20.27512], [-98.12701, 20.27539], [-98.12612, 20.27522]]]}}, {"id": "1680033", "type": "Feature", "properties": {"id": "1680033", "CVEGEO": "2110900070041022", "POBTOT": 0.0, "score_nse": 0.0, "NSE": null, "VIVTOT": 0.0, "GRAPROES": 0.0, "_ent": "21", "_mun": "109", "_loc": "0007"}, "geometry": {"type": "Polygon", "coordinates": [[[-98.12827, 20.27338], [-98.12757, 20.27354], [-98.12745, 20.27276], [-98.12777, 20.27262], [-98.12827, 20.27338]]]}}, {"id": "1680034", "type": "Feature", "properties": {"id": "1680034", "CVEGEO": "2110900070041012", "POBTOT": 0.0, "score_nse": 0.0, "NSE": null, "VIVTOT": 0.0, "GRAPROES": 0.0, "_ent": "21", "_mun": "109", "_loc": "0007"}, "geometry": {"type": "Polygon", "coordinates": [[[-98.12748, 20.2736], [-98.1265, 20.27363], [-98.12595, 20.27351], [-98.12651, 20.27288], [-98.12709, 20.27251], [-98.12746, 20.273], [-98.12748, 20.2736]]]}}, {"id": "1680060", "type": "Feature", "properties": {"id": "1680060", "CVEGEO": "2110900070041001", "POBTOT": 0.0, "score_nse": 0.0, "NSE": null, "VIVTOT": 0.0, "GRAPROES": 0.0, "_ent": "21", "_mun": "109", "_loc": "0007"}, "geometry": {"type": "Polygon", "coordinates": [[[-98.12457, 20.27538], [-98.1252, 20.2753], [-98.1252, 20.27573], [-98.12459, 20.27573], [-98.12457, 20.27538]]]}}, {"id": "1680077", "type": "Feature", "properties": {"id": "1680077", "CVEGEO": "2110900070041005", "POBTOT": 0.0, "score_nse": 0.0, "NSE": null, "VIVTOT": 0.0, "GRAPROES": 0.0, "_ent": "21", "_mun": "109", "_loc": "0007"}, "geometry": {"type": "Polygon", "coordinates": [[[-98.12494, 20.27621], [-98.12401, 20.27615], [-98.12406, 20.27595], [-98.1251, 20.2758], [-98.12494, 20.27621]]]}}, {"id": "1680078", "type": "Feature", "properties": {"id": "1680078", "CVEGEO": "2110900070041004", "POBTOT": 0.0, "score_nse": 0.0, "NSE": null, "VIVTOT": 0.0, "GRAPROES": 0.0, "_ent": "21", "_mun": "109", "_loc": "0007"}, "geometry": {"type": "Polygon", "coordinates": [[[-98.12597, 20.27596], [-98.12563, 20.27558], [-98.12542, 20.27534], [-98.12603, 20.27531], [-98.12597, 20.27596]]]}}, {"id": "1680079", "type": "Feature", "properties": {"id": "1680079", "CVEGEO": "2110900070041002", "POBTOT": 0.0, "score_nse": 0.0, "NSE": null, "VIVTOT": 0.0, "GRAPROES": 0.0, "_ent": "21", "_mun": "109", "_loc": "0007"}, "geometry": {"type": "Polygon", "coordinates": [[[-98.12451, 20.27533], [-98.12503, 20.27443], [-98.12529, 20.27445], [-98.12522, 20.27521], [-98.12451, 20.27533]]]}}, {"id": "1680087", "type": "Feature", "properties": {"id": "1680087", "CVEGEO": "2110900070041013", "POBTOT": 0.0, "score_nse": 0.0, "NSE": null, "VIVTOT": 0.0, "GRAPROES": 0.0, "_ent": "21", "_mun": "109", "_loc": "0007"}, "geometry": {"type": "Polygon", "coordinates": [[[-98.12882, 20.2768], [-98.12768, 20.27633], [-98.12713, 20.27565], [-98.1271, 20.27474], [-98.12732, 20.27443], [-98.1276, 20.27438], [-98.12752, 20.27459], [-98.12774, 20.27503], [-98.12844, 20.27548], [-98.12835, 20.27577], [-98.12882, 20.2768]]]}}, {"id": "1680089", "type": "Feature", "properties": {"id": "1680089", "CVEGEO": "2110900070041019", "POBTOT": 0.0, "score_nse": 0.0, "NSE": null, "VIVTOT": 0.0, "GRAPROES": 0.0, "_ent": "21", "_mun": "109", "_loc": "0007"}, "geometry": {"type": "Polygon", "coordinates": [[[-98.12738, 20.27595], [-98.12777, 20.27689], [-98.12776, 20.27726], [-98.12755, 20.27749], [-98.12725, 20.27726], [-98.12705, 20.27614], [-98.12714, 20.27576], [-98.12738, 20.27595]]]}}, {"id": "1680090", "type": "Feature", "properties": {"id": "1680090", "CVEGEO": "2110900070041018", "POBTOT": 0.0, "score_nse": 0.0, "NSE": null, "VIVTOT": 0.0, "GRAPROES": 0.0, "_ent": "21", "_mun": "109", "_loc": "0007"}, "geometry": {"type": "Polygon", "coordinates": [[[-98.12827, 20.27404], [-98.12861, 20.27494], [-98.12852, 20.27546], [-98.12774, 20.27495], [-98.12758, 20.27462], [-98.12781, 20.2742], [-98.12827, 20.27404]]]}}, {"id": "1680120", "type": "Feature", "properties": {"id": "1680120", "CVEGEO": "2110900070041009", "POBTOT": 0.0, "score_nse": 0.0, "NSE": null, "VIVTOT": 0.0, "GRAPROES": 0.0, "_ent": "21", "_mun": "109", "_loc": "0007"}, "geometry": {"type": "Polygon", "coordinates": [[[-98.12704, 20.27552], [-98.12705, 20.27643], [-98.12643, 20.27638], [-98.12637, 20.27615], [-98.12603, 20.27596], [-98.12609, 20.27526], [-98.12704, 20.27552]]]}}, {"id": "1680121", "type": "Feature", "properties": {"id": "1680121", "CVEGEO": "2110900070041010", "POBTOT": 0.0, "score_nse": 0.0, "NSE": null, "VIVTOT": 0.0, "GRAPROES": 0.0, "_ent": "21", "_mun": "109", "_loc": "0007"}, "geometry": {"type": "Polygon", "coordinates": [[[-98.12632, 20.27621], [-98.12639, 20.27703], [-98.12474, 20.27685], [-98.12471, 20.27662], [-98.12514, 20.2765], [-98.12503, 20.27636], [-98.12569, 20.27638], [-98.12579, 20.27592], [-98.12632, 20.27621]]]}}, {"id": "1680122", "type": "Feature", "properties": {"id": "1680122", "CVEGEO": "2110900070041021", "POBTOT": 0.0, "score_nse": 0.0, "NSE": null, "VIVTOT": 0.0, "GRAPROES": 0.0, "_ent": "21", "_mun": "109", "_loc": "0007"}, "geometry": {"type": "Polygon", "coordinates": [[[-98.12573, 20.27588], [-98.12568, 20.27629], [-98.1255, 20.27642], [-98.12489, 20.27627], [-98.12531, 20.27577], [-98.1253, 20.27529], [-98.12573, 20.27588]]]}}, {"id": "1680123", "type": "Feature", "properties": {"id": "1680123", "CVEGEO": "2110900070041023", "POBTOT": 0.0, "score_nse": 0.0, "NSE": null, "VIVTOT": 0.0, "GRAPROES": 0.0, "_ent": "21", "_mun": "109", "_loc": "0007"}, "geometry": {"type": "Polygon", "coordinates": [[[-98.12776, 20.27257], [-98.12741, 20.27273], [-98.12717, 20.27241], [-98.12755, 20.27213], [-98.12776, 20.27257]]]}}, {"id": "1680124", "type": "Feature", "properties": {"id": "1680124", "CVEGEO": "2110900070041025", "POBTOT": 0.0, "score_nse": 0.0, "NSE": null, "VIVTOT": 0.0, "GRAPROES": 0.0, "_ent": "21", "_mun": "109", "_loc": "0007"}, "geometry": {"type": "Polygon", "coordinates": [[[-98.12322, 20.27544], [-98.12244, 20.27544], [-98.12181, 20.2758], [-98.12145, 20.27552], [-98.12213, 20.27473], [-98.12322, 20.27544]]]}}, {"id": "1680125", "type": "Feature", "properties": {"id": "1680125", "CVEGEO": "2110900070041026", "POBTOT": 0.0, "score_nse": 0.0, "NSE": null, "VIVTOT": 0.0, "GRAPROES": 0.0, "_ent": "21", "_mun": "109", "_loc": "0007"}, "geometry": {"type": "Polygon", "coordinates": [[[-98.12699, 20.27247], [-98.12669, 20.27269], [-98.12646, 20.2728], [-98.12659, 20.27234], [-98.12699, 20.27247]]]}}, {"id": "1680126", "type": "Feature", "properties": {"id": "1680126", "CVEGEO": "2110900070041027", "POBTOT": 0.0, "score_nse": 0.0, "NSE": null, "VIVTOT": 0.0, "GRAPROES": 0.0, "_ent": "21", "_mun": "109", "_loc": "0007"}, "geometry": {"type": "Polygon", "coordinates": [[[-98.12702, 20.27246], [-98.12658, 20.27231], [-98.12695, 20.27148], [-98.12737, 20.2716], [-98.12749, 20.27207], [-98.12702, 20.27246]]]}}, {"id": "1680127", "type": "Feature", "properties": {"id": "1680127", "CVEGEO": "2110900070041028", "POBTOT": 0.0, "score_nse": 0.0, "NSE": null, "VIVTOT": 0.0, "GRAPROES": 0.0, "_ent": "21", "_mun": "109", "_loc": "0007"}, "geometry": {"type": "Polygon", "coordinates": [[[-98.12906, 20.27255], [-98.12796, 20.27265], [-98.12763, 20.27213], [-98.12901, 20.27217], [-98.12889, 20.27236], [-98.12906, 20.27255]]]}}, {"id": "1680128", "type": "Feature", "properties": {"id": "1680128", "CVEGEO": "2110900070041030", "POBTOT": 0.0, "score_nse": 0.0, "NSE": null, "VIVTOT": 0.0, "GRAPROES": 0.0, "_ent": "21", "_mun": "109", "_loc": "0007"}, "geometry": {"type": "Polygon", "coordinates": [[[-98.12867, 20.27178], [-98.1284, 20.27178], [-98.12817, 20.2721], [-98.12783, 20.27215], [-98.12753, 20.27206], [-98.12742, 20.27159], [-98.12697, 20.27146], [-98.12731, 20.27119], [-98.12753, 20.2712], [-98.12867, 20.27178]]]}}, {"id": "1680129", "type": "Feature", "properties": {"id": "1680129", "CVEGEO": "2110900070041031", "POBTOT": 0.0, "score_nse": 0.0, "NSE": null, "VIVTOT": 0.0, "GRAPROES": 0.0, "_ent": "21", "_mun": "109", "_loc": "0007"}, "geometry": {"type": "Polygon", "coordinates": [[[-98.12645, 20.2771], [-98.12635, 20.27745], [-98.12537, 20.27733], [-98.12494, 20.27766], [-98.12463, 20.2775], [-98.12477, 20.27695], [-98.12494, 20.27687], [-98.12645, 20.2771]]]}}, {"id": "1680130", "type": "Feature", "properties": {"id": "1680130", "CVEGEO": "2110900070041032", "POBTOT": 0.0, "score_nse": 0.0, "NSE": null, "VIVTOT": 0.0, "GRAPROES": 0.0, "_ent": "21", "_mun": "109", "_loc": "0007"}, "geometry": {"type": "Polygon", "coordinates": [[[-98.12452, 20.27513], [-98.12375, 20.27548], [-98.12334, 20.27545], [-98.12225, 20.27474], [-98.12338, 20.27493], [-98.12377, 20.2748], [-98.12452, 20.27513]]]}}, {"id": "1680131", "type": "Feature", "properties": {"id": "1680131", "CVEGEO": "2110900070041034", "POBTOT": 0.0, "score_nse": 0.0, "NSE": null, "VIVTOT": 0.0, "GRAPROES": 0.0, "_ent": "21", "_mun": "109", "_loc": "0007"}, "geometry": {"type": "Polygon", "coordinates": [[[-98.13003, 20.27395], [-98.13034, 20.27418], [-98.13048, 20.27464], [-98.13035, 20.27496], [-98.12998, 20.27507], [-98.12875, 20.27395], [-98.12928, 20.27376], [-98.12983, 20.2739], [-98.12968, 20.27407], [-98.13001, 20.27445], [-98.13009, 20.27435], [-98.13013, 20.27421], [-98.13009, 20.27415], [-98.12999, 20.2744], [-98.12972, 20.27407], [-98.13003, 20.27395]]]}}, {"id": "1680132", "type": "Feature", "properties": {"id": "1680132", "CVEGEO": "2110900070041035", "POBTOT": 0.0, "score_nse": 0.0, "NSE": null, "VIVTOT": 0.0, "GRAPROES": 0.0, "_ent": "21", "_mun": "109", "_loc": "0007"}, "geometry": {"type": "Polygon", "coordinates": [[[-98.12867, 20.27398], [-98.12981, 20.27539], [-98.1305, 20.27584], [-98.12883, 20.2766], [-98.12838, 20.27563], [-98.12855, 20.27549], [-98.12891, 20.27621], [-98.12859, 20.27544], [-98.12866, 20.27468], [-98.12837, 20.27447], [-98.12841, 20.27406], [-98.12867, 20.27398]]]}}, {"id": "1680133", "type": "Feature", "properties": {"id": "1680133", "CVEGEO": "2110900070041037", "POBTOT": 0.0, "score_nse": 0.0, "NSE": null, "VIVTOT": 0.0, "GRAPROES": 0.0, "_ent": "21", "_mun": "109", "_loc": "0007"}, "geometry": {"type": "Polygon", "coordinates": [[[-98.12628, 20.27752], [-98.12576, 20.27801], [-98.12513, 20.27791], [-98.12492, 20.27771], [-98.12537, 20.27739], [-98.12628, 20.27752]]]}}, {"id": "1680134", "type": "Feature", "properties": {"id": "1680134", "CVEGEO": "2110900070041038", "POBTOT": 0.0, "score_nse": 0.0, "NSE": null, "VIVTOT": 0.0, "GRAPROES": 0.0, "_ent": "21", "_mun": "109", "_loc": "0007"}, "geometry": {"type": "Polygon", "coordinates": [[[-98.12704, 20.27645], [-98.12716, 20.27729], [-98.1276, 20.27756], [-98.12735, 20.2777], [-98.12638, 20.27746], [-98.12644, 20.2764], [-98.12704, 20.27645]]]}}, {"id": "1680135", "type": "Feature", "properties": {"id": "1680135", "CVEGEO": "2110900070041039", "POBTOT": 0.0, "score_nse": 0.0, "NSE": null, "VIVTOT": 0.0, "GRAPROES": 0.0, "_ent": "21", "_mun": "109", "_loc": "0007"}, "geometry": {"type": "Polygon", "coordinates": [[[-98.12917, 20.27217], [-98.12852, 20.27202], [-98.12821, 20.27212], [-98.1284, 20.27182], [-98.12871, 20.27184], [-98.12917, 20.27217]]]}}, {"id": "1680177", "type": "Feature", "properties": {"id": "1680177", "CVEGEO": "2110900070041006", "POBTOT": 0.0, "score_nse": 0.0, "NSE": null, "VIVTOT": 0.0, "GRAPROES": 0.0, "_ent": "21", "_mun": "109", "_loc": "0007"}, "geometry": {"type": "Polygon", "coordinates": [[[-98.12506, 20.27644], [-98.12466, 20.27657], [-98.12474, 20.27707], [-98.12457, 20.27746], [-98.12392, 20.27714], [-98.12394, 20.27683], [-98.12364, 20.27621], [-98.12433, 20.27621], [-98.12506, 20.27644]]]}}, {"id": "1680179", "type": "Feature", "properties": {"id": "1680179", "CVEGEO": "2110900070041033", "POBTOT": 0.0, "score_nse": 0.0, "NSE": null, "VIVTOT": 0.0, "GRAPROES": 0.0, "_ent": "21", "_mun": "109", "_loc": "0007"}, "geometry": {"type": "Polygon", "coordinates": [[[-98.12693, 20.27141], [-98.12661, 20.27195], [-98.12644, 20.27282], [-98.12613, 20.27256], [-98.12635, 20.27291], [-98.12602, 20.27332], [-98.12549, 20.27287], [-98.12535, 20.27232], [-98.12543, 20.27208], [-98.12613, 20.2718], [-98.12586, 20.27115], [-98.126, 20.27092], [-98.12657, 20.27107], [-98.12693, 20.27141]]]}}, {"id": "1680180", "type": "Feature", "properties": {"id": "1680180", "CVEGEO": "2110900070041040", "POBTOT": 0.0, "score_nse": 0.0, "NSE": null, "VIVTOT": 0.0, "GRAPROES": 0.0, "_ent": "21", "_mun": "109", "_loc": "0007"}, "geometry": {"type": "Polygon", "coordinates": [[[-98.12601, 20.27333], [-98.12547, 20.27347], [-98.12528, 20.27435], [-98.12498, 20.27438], [-98.12455, 20.27508], [-98.12377, 20.27475], [-98.12425, 20.27437], [-98.12454, 20.27362], [-98.12527, 20.27343], [-98.12549, 20.27291], [-98.12601, 20.27333]]]}}, {"id": "1680189", "type": "Feature", "properties": {"id": "1680189", "CVEGEO": "2110900070041003", "POBTOT": 0.0, "score_nse": 0.0, "NSE": null, "VIVTOT": 0.0, "GRAPROES": 0.0, "_ent": "21", "_mun": "109", "_loc": "0007"}, "geometry": {"type": "Polygon", "coordinates": [[[-98.12611, 20.27484], [-98.12532, 20.27482], [-98.12538, 20.27443], [-98.12615, 20.27383], [-98.12611, 20.27484]]]}}, {"id": "1680190", "type": "Feature", "properties": {"id": "1680190", "CVEGEO": "2110900070041011", "POBTOT": 0.0, "score_nse": 0.0, "NSE": null, "VIVTOT": 0.0, "GRAPROES": 0.0, "_ent": "21", "_mun": "109", "_loc": "0007"}, "geometry": {"type": "Polygon", "coordinates": [[[-98.1245, 20.27573], [-98.124, 20.27584], [-98.12392, 20.27612], [-98.12358, 20.27616], [-98.12388, 20.27679], [-98.12386, 20.2771], [-98.12285, 20.27617], [-98.12248, 20.27593], [-98.12209, 20.27593], [-98.12256, 20.27552], [-98.12378, 20.27554], [-98.12446, 20.27532], [-98.1245, 20.27573]]]}}, {"id": "1680191", "type": "Feature", "properties": {"id": "1680191", "CVEGEO": "2110900070041014", "POBTOT": 0.0, "score_nse": 0.0, "NSE": null, "VIVTOT": 0.0, "GRAPROES": 0.0, "_ent": "21", "_mun": "109", "_loc": "0007"}, "geometry": {"type": "Polygon", "coordinates": [[[-98.12751, 20.27364], [-98.12832, 20.27349], [-98.12859, 20.27388], [-98.12761, 20.27421], [-98.12751, 20.27364]]]}}, {"id": "1680192", "type": "Feature", "properties": {"id": "1680192", "CVEGEO": "2110900070041024", "POBTOT": 0.0, "score_nse": 0.0, "NSE": null, "VIVTOT": 0.0, "GRAPROES": 0.0, "_ent": "21", "_mun": "109", "_loc": "0007"}, "geometry": {"type": "Polygon", "coordinates": [[[-98.12281, 20.27619], [-98.12364, 20.27703], [-98.12451, 20.27749], [-98.12406, 20.27772], [-98.12273, 20.27729], [-98.12164, 20.27813], [-98.12171, 20.27865], [-98.12102, 20.2799], [-98.12034, 20.27975], [-98.12012, 20.27925], [-98.12026, 20.27842], [-98.12005, 20.2777], [-98.12022, 20.27728], [-98.12205, 20.27597], [-98.12281, 20.27619]]]}}, {"id": "1680198", "type": "Feature", "properties": {"id": "1680198", "CVEGEO": "2110900070041008", "POBTOT": 0.0, "score_nse": 0.0, "NSE": null, "VIVTOT": 0.0, "GRAPROES": 0.0, "_ent": "21", "_mun": "109", "_loc": "0007"}, "geometry": {"type": "Polygon", "coordinates": [[[-98.12714, 20.27446], [-98.127, 20.27507], [-98.12617, 20.27484], [-98.1262, 20.2739], [-98.12714, 20.27446]]]}}, {"id": "1680199", "type": "Feature", "properties": {"id": "1680199", "CVEGEO": "2110900070041041", "POBTOT": 0.0, "score_nse": 0.0, "NSE": null, "VIVTOT": 0.0, "GRAPROES": 0.0, "_ent": "21", "_mun": "109", "_loc": "0007"}, "geometry": {"type": "Polygon", "coordinates": [[[-98.12751, 20.27422], [-98.12717, 20.27444], [-98.1262, 20.27386], [-98.12679, 20.27361], [-98.12746, 20.27364], [-98.12751, 20.27422]]]}}]}