{"type": "FeatureCollection", "features": [{"id": "712519", "type": "Feature", "properties": {"id": "712519", "CVEGEO": "1100701652877003", "POBTOT": 37.0, "score_nse": 0.0, "NSE": "ND", "VIVTOT": 10.0, "GRAPROES": 9.29, "_ent": "11", "_mun": "007", "_loc": "0165"}, "geometry": {"type": "Polygon", "coordinates": [[[-100.74376, 20.57024], [-100.74374, 20.57061], [-100.74278, 20.57054], [-100.74281, 20.57017], [-100.74376, 20.57024]]]}}, {"id": "712520", "type": "Feature", "properties": {"id": "712520", "CVEGEO": "1100701652877001", "POBTOT": 34.0, "score_nse": 0.0, "NSE": "ND", "VIVTOT": 9.0, "GRAPROES": 7.67, "_ent": "11", "_mun": "007", "_loc": "0165"}, "geometry": {"type": "Polygon", "coordinates": [[[-100.74273, 20.57016], [-100.7427, 20.57053], [-100.74182, 20.57048], [-100.74186, 20.5701], [-100.74273, 20.57016]]]}}, {"id": "712521", "type": "Feature", "properties": {"id": "712521", "CVEGEO": "1100701650832038", "POBTOT": 24.0, "score_nse": 0.0, "NSE": "ND", "VIVTOT": 9.0, "GRAPROES": 8.13, "_ent": "11", "_mun": "007", "_loc": "0165"}, "geometry": {"type": "Polygon", "coordinates": [[[-100.75291, 20.56898], [-100.75294, 20.5687], [-100.75396, 20.56877], [-100.75394, 20.56905], [-100.75291, 20.56898]]]}}, {"id": "712522", "type": "Feature", "properties": {"id": "712522", "CVEGEO": "1100701650832037", "POBTOT": 35.0, "score_nse": 0.0, "NSE": "ND", "VIVTOT": 11.0, "GRAPROES": 9.04, "_ent": "11", "_mun": "007", "_loc": "0165"}, "geometry": {"type": "Polygon", "coordinates": [[[-100.75394, 20.56912], [-100.75391, 20.56942], [-100.75289, 20.56935], [-100.75291, 20.56905], [-100.75394, 20.56912]]]}}, {"id": "712523", "type": "Feature", "properties": {"id": "712523", "CVEGEO": "1100701650832036", "POBTOT": 26.0, "score_nse": 0.0, "NSE": "ND", "VIVTOT": 11.0, "GRAPROES": 9.21, "_ent": "11", "_mun": "007", "_loc": "0165"}, "geometry": {"type": "Polygon", "coordinates": [[[-100.75387, 20.56949], [-100.75386, 20.56976], [-100.75287, 20.5697], [-100.75289, 20.56942], [-100.75387, 20.56949]]]}}, {"id": "712524", "type": "Feature", "properties": {"id": "712524", "CVEGEO": "1100701650832035", "POBTOT": 67.0, "score_nse": 46.3296, "NSE": "C-", "VIVTOT": 17.0, "GRAPROES": 7.5, "_ent": "11", "_mun": "007", "_loc": "0165"}, "geometry": {"type": "Polygon", "coordinates": [[[-100.74711, 20.56706], [-100.74673, 20.56705], [-100.74677, 20.56634], [-100.74712, 20.56635], [-100.74711, 20.56706]]]}}, {"id": "712525", "type": "Feature", "properties": {"id": "712525", "CVEGEO": "1100701650832034", "POBTOT": 42.0, "score_nse": 0.0, "NSE": "ND", "VIVTOT": 12.0, "GRAPROES": 7.46, "_ent": "11", "_mun": "007", "_loc": "0165"}, "geometry": {"type": "Polygon", "coordinates": [[[-100.74765, 20.56637], [-100.74763, 20.5671], [-100.74718, 20.56708], [-100.74721, 20.56635], [-100.74765, 20.56637]]]}}, {"id": "712526", "type": "Feature", "properties": {"id": "712526", "CVEGEO": "1100701650832033", "POBTOT": 62.0, "score_nse": 0.0, "NSE": "ND", "VIVTOT": 12.0, "GRAPROES": 7.6, "_ent": "11", "_mun": "007", "_loc": "0165"}, "geometry": {"type": "Polygon", "coordinates": [[[-100.74862, 20.56643], [-100.74858, 20.56715], [-100.74818, 20.56713], [-100.74821, 20.56641], [-100.74862, 20.56643]]]}}, {"id": "712527", "type": "Feature", "properties": {"id": "712527", "CVEGEO": "1100701650832032", "POBTOT": 31.0, "score_nse": 0.0, "NSE": "ND", "VIVTOT": 8.0, "GRAPROES": 9.0, "_ent": "11", "_mun": "007", "_loc": "0165"}, "geometry": {"type": "Polygon", "coordinates": [[[-100.7491, 20.56719], [-100.74865, 20.56716], [-100.74867, 20.56643], [-100.74911, 20.56646], [-100.7491, 20.56719]]]}}, {"id": "712528", "type": "Feature", "properties": {"id": "712528", "CVEGEO": "1100701650832010", "POBTOT": 73.0, "score_nse": 0.0, "NSE": "ND", "VIVTOT": 15.0, "GRAPROES": 7.98, "_ent": "11", "_mun": "007", "_loc": "0165"}, "geometry": {"type": "Polygon", "coordinates": [[[-100.7483, 20.56952], [-100.74834, 20.56889], [-100.74873, 20.56891], [-100.74868, 20.56954], [-100.7483, 20.56952]]]}}, {"id": "712529", "type": "Feature", "properties": {"id": "712529", "CVEGEO": "1100701650832009", "POBTOT": 67.0, "score_nse": 0.0, "NSE": "ND", "VIVTOT": 16.0, "GRAPROES": 8.28, "_ent": "11", "_mun": "007", "_loc": "0165"}, "geometry": {"type": "Polygon", "coordinates": [[[-100.74821, 20.5695], [-100.74783, 20.56948], [-100.74786, 20.56887], [-100.74826, 20.56888], [-100.74821, 20.5695]]]}}, {"id": "712530", "type": "Feature", "properties": {"id": "712530", "CVEGEO": "1100701650832008", "POBTOT": 158.0, "score_nse": 50.5377, "NSE": "C-", "VIVTOT": 38.0, "GRAPROES": 8.27, "_ent": "11", "_mun": "007", "_loc": "0165"}, "geometry": {"type": "Polygon", "coordinates": [[[-100.75122, 20.56972], [-100.75131, 20.56837], [-100.75171, 20.56838], [-100.75163, 20.56975], [-100.75122, 20.56972]]]}}, {"id": "712531", "type": "Feature", "properties": {"id": "712531", "CVEGEO": "1100701650832007", "POBTOT": 12.0, "score_nse": 0.0, "NSE": "ND", "VIVTOT": 2.0, "GRAPROES": 0.0, "_ent": "11", "_mun": "007", "_loc": "0165"}, "geometry": {"type": "Polygon", "coordinates": [[[-100.74954, 20.57095], [-100.7499, 20.56832], [-100.75122, 20.56837], [-100.75106, 20.5711], [-100.74954, 20.57095]]]}}, {"id": "712532", "type": "Feature", "properties": {"id": "712532", "CVEGEO": "1100701650387017", "POBTOT": 273.0, "score_nse": 0.0, "NSE": "ND", "VIVTOT": 75.0, "GRAPROES": 8.22, "_ent": "11", "_mun": "007", "_loc": "0165"}, "geometry": {"type": "Polygon", "coordinates": [[[-100.74711, 20.57254], [-100.74717, 20.57095], [-100.7484, 20.57106], [-100.74843, 20.5718], [-100.74769, 20.57179], [-100.74842, 20.57184], [-100.74845, 20.57234], [-100.74711, 20.57254]]]}}, {"id": "712533", "type": "Feature", "properties": {"id": "712533", "CVEGEO": "1100701650387015", "POBTOT": 428.0, "score_nse": 48.7028, "NSE": "C-", "VIVTOT": 97.0, "GRAPROES": 7.66, "_ent": "11", "_mun": "007", "_loc": "0165"}, "geometry": {"type": "Polygon", "coordinates": [[[-100.745, 20.57136], [-100.74539, 20.57134], [-100.74542, 20.57185], [-100.74546, 20.57134], [-100.74588, 20.57129], [-100.74501, 20.57127], [-100.74502, 20.57083], [-100.74628, 20.57089], [-100.74616, 20.57255], [-100.74495, 20.57249], [-100.745, 20.57136]]]}}, {"id": "712534", "type": "Feature", "properties": {"id": "712534", "CVEGEO": "1100701650387014", "POBTOT": 0.0, "score_nse": 0.0, "NSE": "ND", "VIVTOT": 0.0, "GRAPROES": 0.0, "_ent": "11", "_mun": "007", "_loc": "0165"}, "geometry": {"type": "Polygon", "coordinates": [[[-100.74487, 20.5725], [-100.74374, 20.57248], [-100.74387, 20.57076], [-100.74491, 20.57083], [-100.74487, 20.5725]]]}}, {"id": "712535", "type": "Feature", "properties": {"id": "712535", "CVEGEO": "1100701650387036", "POBTOT": 111.0, "score_nse": 0.0, "NSE": "ND", "VIVTOT": 25.0, "GRAPROES": 7.92, "_ent": "11", "_mun": "007", "_loc": "0165"}, "geometry": {"type": "Polygon", "coordinates": [[[-100.74224, 20.57566], [-100.74227, 20.57528], [-100.74308, 20.57532], [-100.74305, 20.57569], [-100.74224, 20.57566]]]}}, {"id": "712536", "type": "Feature", "properties": {"id": "712536", "CVEGEO": "1100701650387001", "POBTOT": 176.0, "score_nse": 57.9302, "NSE": "C", "VIVTOT": 52.0, "GRAPROES": 9.61, "_ent": "11", "_mun": "007", "_loc": "0165"}, "geometry": {"type": "Polygon", "coordinates": [[[-100.74614, 20.57588], [-100.74611, 20.57434], [-100.74707, 20.57437], [-100.74706, 20.5759], [-100.74614, 20.57588]]]}}, {"id": "712537", "type": "Feature", "properties": {"id": "712537", "CVEGEO": "1100701650048043", "POBTOT": 63.0, "score_nse": 0.0, "NSE": "ND", "VIVTOT": 21.0, "GRAPROES": 7.54, "_ent": "11", "_mun": "007", "_loc": "0165"}, "geometry": {"type": "Polygon", "coordinates": [[[-100.75119, 20.57026], [-100.75121, 20.56992], [-100.75273, 20.57001], [-100.7527, 20.57041], [-100.75119, 20.57026]]]}}, {"id": "712538", "type": "Feature", "properties": {"id": "712538", "CVEGEO": "1100701650048042", "POBTOT": 73.0, "score_nse": 0.0, "NSE": "ND", "VIVTOT": 22.0, "GRAPROES": 7.51, "_ent": "11", "_mun": "007", "_loc": "0165"}, "geometry": {"type": "Polygon", "coordinates": [[[-100.75349, 20.5743], [-100.75274, 20.5743], [-100.75274, 20.57395], [-100.75354, 20.57393], [-100.75349, 20.5743]]]}}, {"id": "712539", "type": "Feature", "properties": {"id": "712539", "CVEGEO": "1100701650048041", "POBTOT": 80.0, "score_nse": 0.0, "NSE": "ND", "VIVTOT": 19.0, "GRAPROES": 9.22, "_ent": "11", "_mun": "007", "_loc": "0165"}, "geometry": {"type": "Polygon", "coordinates": [[[-100.75378, 20.57679], [-100.75378, 20.57767], [-100.75343, 20.57769], [-100.75342, 20.57679], [-100.75378, 20.57679]]]}}, {"id": "712540", "type": "Feature", "properties": {"id": "712540", "CVEGEO": "1100701650048040", "POBTOT": 108.0, "score_nse": 0.0, "NSE": "ND", "VIVTOT": 22.0, "GRAPROES": 8.14, "_ent": "11", "_mun": "007", "_loc": "0165"}, "geometry": {"type": "Polygon", "coordinates": [[[-100.75378, 20.57671], [-100.75343, 20.57671], [-100.75342, 20.57594], [-100.75378, 20.57599], [-100.75378, 20.57671]]]}}, {"id": "712541", "type": "Feature", "properties": {"id": "712541", "CVEGEO": "1100701650048011", "POBTOT": 47.0, "score_nse": 70.2453, "NSE": "C+", "VIVTOT": 12.0, "GRAPROES": 10.56, "_ent": "11", "_mun": "007", "_loc": "0165"}, "geometry": {"type": "Polygon", "coordinates": [[[-100.749, 20.57233], [-100.749, 20.57341], [-100.74862, 20.57342], [-100.74854, 20.57239], [-100.749, 20.57233]]]}}, {"id": "712542", "type": "Feature", "properties": {"id": "712542", "CVEGEO": "1100701650048010", "POBTOT": 8.0, "score_nse": 0.0, "NSE": "ND", "VIVTOT": 5.0, "GRAPROES": 9.38, "_ent": "11", "_mun": "007", "_loc": "0165"}, "geometry": {"type": "Polygon", "coordinates": [[[-100.74865, 20.57397], [-100.74863, 20.57352], [-100.74903, 20.57351], [-100.74922, 20.57397], [-100.74865, 20.57397]]]}}, {"id": "712543", "type": "Feature", "properties": {"id": "712543", "CVEGEO": "1100701650048009", "POBTOT": 70.0, "score_nse": 63.0587, "NSE": "C", "VIVTOT": 18.0, "GRAPROES": 8.27, "_ent": "11", "_mun": "007", "_loc": "0165"}, "geometry": {"type": "Polygon", "coordinates": [[[-100.74923, 20.57404], [-100.74947, 20.57461], [-100.74867, 20.57459], [-100.74866, 20.57404], [-100.74923, 20.57404]]]}}, {"id": "712544", "type": "Feature", "properties": {"id": "712544", "CVEGEO": "1100701650048008", "POBTOT": 186.0, "score_nse": 56.5043, "NSE": "C", "VIVTOT": 49.0, "GRAPROES": 9.21, "_ent": "11", "_mun": "007", "_loc": "0165"}, "geometry": {"type": "Polygon", "coordinates": [[[-100.74999, 20.57595], [-100.74873, 20.57594], [-100.74869, 20.57466], [-100.74954, 20.57466], [-100.74999, 20.57595]]]}}, {"id": "712545", "type": "Feature", "properties": {"id": "712545", "CVEGEO": "1100701650048007", "POBTOT": 428.0, "score_nse": 52.6908, "NSE": "C-", "VIVTOT": 97.0, "GRAPROES": 8.55, "_ent": "11", "_mun": "007", "_loc": "0165"}, "geometry": {"type": "Polygon", "coordinates": [[[-100.74888, 20.57826], [-100.74874, 20.576], [-100.75, 20.57603], [-100.75042, 20.578], [-100.74888, 20.57826]]]}}, {"id": "712546", "type": "Feature", "properties": {"id": "712546", "CVEGEO": "1100701650048006", "POBTOT": 206.0, "score_nse": 51.6124, "NSE": "C-", "VIVTOT": 58.0, "GRAPROES": 8.56, "_ent": "11", "_mun": "007", "_loc": "0165"}, "geometry": {"type": "Polygon", "coordinates": [[[-100.75052, 20.57799], [-100.75011, 20.57605], [-100.75098, 20.576], [-100.75121, 20.57791], [-100.75052, 20.57799]]]}}, {"id": "712661", "type": "Feature", "properties": {"id": "712661", "CVEGEO": "1100701650387010", "POBTOT": 328.0, "score_nse": 52.7476, "NSE": "C-", "VIVTOT": 74.0, "GRAPROES": 7.82, "_ent": "11", "_mun": "007", "_loc": "0165"}, "geometry": {"type": "Polygon", "coordinates": [[[-100.74611, 20.57854], [-100.74516, 20.57858], [-100.74509, 20.57592], [-100.74607, 20.57595], [-100.74611, 20.57854]]]}}, {"id": "713061", "type": "Feature", "properties": {"id": "713061", "CVEGEO": "1100701652877004", "POBTOT": 7.0, "score_nse": 0.0, "NSE": "ND", "VIVTOT": 3.0, "GRAPROES": 0.0, "_ent": "11", "_mun": "007", "_loc": "0165"}, "geometry": {"type": "Polygon", "coordinates": [[[-100.74383, 20.56648], [-100.74436, 20.56654], [-100.7443, 20.56694], [-100.74376, 20.56689], [-100.74383, 20.56648]]]}}, {"id": "713062", "type": "Feature", "properties": {"id": "713062", "CVEGEO": "1100701652114001", "POBTOT": 16.0, "score_nse": 0.0, "NSE": "ND", "VIVTOT": 5.0, "GRAPROES": 9.0, "_ent": "11", "_mun": "007", "_loc": "0165"}, "geometry": {"type": "Polygon", "coordinates": [[[-100.74159, 20.57638], [-100.7412, 20.57637], [-100.74123, 20.5757], [-100.74164, 20.57571], [-100.74159, 20.57638]]]}}, {"id": "713063", "type": "Feature", "properties": {"id": "713063", "CVEGEO": "1100701650387024", "POBTOT": 68.0, "score_nse": 0.0, "NSE": "ND", "VIVTOT": 15.0, "GRAPROES": 8.53, "_ent": "11", "_mun": "007", "_loc": "0165"}, "geometry": {"type": "Polygon", "coordinates": [[[-100.74233, 20.57476], [-100.74238, 20.57422], [-100.74349, 20.57431], [-100.74345, 20.57483], [-100.74233, 20.57476]]]}}, {"id": "713064", "type": "Feature", "properties": {"id": "713064", "CVEGEO": "1100701650387009", "POBTOT": 305.0, "score_nse": 0.0, "NSE": "ND", "VIVTOT": 72.0, "GRAPROES": 7.93, "_ent": "11", "_mun": "007", "_loc": "0165"}, "geometry": {"type": "Polygon", "coordinates": [[[-100.7471, 20.57849], [-100.74619, 20.57854], [-100.74614, 20.57595], [-100.74707, 20.57596], [-100.7471, 20.57849]]]}}, {"id": "713065", "type": "Feature", "properties": {"id": "713065", "CVEGEO": "1100701650048013", "POBTOT": 164.0, "score_nse": 51.3485, "NSE": "C-", "VIVTOT": 41.0, "GRAPROES": 8.17, "_ent": "11", "_mun": "007", "_loc": "0165"}, "geometry": {"type": "Polygon", "coordinates": [[[-100.75069, 20.57329], [-100.75052, 20.57208], [-100.75134, 20.57201], [-100.75131, 20.5733], [-100.75069, 20.57329]]]}}, {"id": "713066", "type": "Feature", "properties": {"id": "713066", "CVEGEO": "1100701650048026", "POBTOT": 0.0, "score_nse": 10.0, "NSE": "E", "VIVTOT": 2.0, "GRAPROES": 0.0, "_ent": "11", "_mun": "007", "_loc": "0165"}, "geometry": {"type": "Polygon", "coordinates": [[[-100.75356, 20.57317], [-100.7534, 20.57165], [-100.75552, 20.57187], [-100.75569, 20.57317], [-100.75356, 20.57317]]]}}, {"id": "713534", "type": "Feature", "properties": {"id": "713534", "CVEGEO": "1100701650832045", "POBTOT": 19.0, "score_nse": 0.0, "NSE": "ND", "VIVTOT": 4.0, "GRAPROES": 8.3, "_ent": "11", "_mun": "007", "_loc": "0165"}, "geometry": {"type": "Polygon", "coordinates": [[[-100.74603, 20.56951], [-100.74642, 20.56953], [-100.74639, 20.56996], [-100.746, 20.56993], [-100.74603, 20.56951]]]}}, {"id": "713535", "type": "Feature", "properties": {"id": "713535", "CVEGEO": "1100701652114002", "POBTOT": 336.0, "score_nse": 49.639, "NSE": "C-", "VIVTOT": 86.0, "GRAPROES": 9.05, "_ent": "11", "_mun": "007", "_loc": "0165"}, "geometry": {"type": "Polygon", "coordinates": [[[-100.74245, 20.57296], [-100.74235, 20.57415], [-100.74147, 20.57412], [-100.74144, 20.57453], [-100.74152, 20.57415], [-100.74235, 20.57419], [-100.74217, 20.57568], [-100.7417, 20.57566], [-100.74167, 20.57504], [-100.74164, 20.57567], [-100.74125, 20.57566], [-100.74124, 20.57413], [-100.7414, 20.57413], [-100.74144, 20.57373], [-100.74192, 20.57375], [-100.74196, 20.57393], [-100.74204, 20.57296], [-100.74245, 20.57296]]]}}, {"id": "713536", "type": "Feature", "properties": {"id": "713536", "CVEGEO": "1100701652383002", "POBTOT": 115.0, "score_nse": 41.5139, "NSE": "D+", "VIVTOT": 38.0, "GRAPROES": 8.28, "_ent": "11", "_mun": "007", "_loc": "0165"}, "geometry": {"type": "Polygon", "coordinates": [[[-100.7421, 20.57243], [-100.74227, 20.57062], [-100.74267, 20.57063], [-100.7425, 20.57245], [-100.7421, 20.57243]]]}}, {"id": "713537", "type": "Feature", "properties": {"id": "713537", "CVEGEO": "1100701652379003", "POBTOT": 42.0, "score_nse": 0.0, "NSE": "ND", "VIVTOT": 11.0, "GRAPROES": 8.46, "_ent": "11", "_mun": "007", "_loc": "0165"}, "geometry": {"type": "Polygon", "coordinates": [[[-100.74078, 20.57566], [-100.7408, 20.57505], [-100.7412, 20.57505], [-100.74117, 20.57565], [-100.74078, 20.57566]]]}}, {"id": "713538", "type": "Feature", "properties": {"id": "713538", "CVEGEO": "1100701652379002", "POBTOT": 10.0, "score_nse": 0.0, "NSE": "ND", "VIVTOT": 2.0, "GRAPROES": 0.0, "_ent": "11", "_mun": "007", "_loc": "0165"}, "geometry": {"type": "Polygon", "coordinates": [[[-100.74075, 20.57637], [-100.74076, 20.57571], [-100.74117, 20.57571], [-100.74112, 20.57637], [-100.74075, 20.57637]]]}}, {"id": "713539", "type": "Feature", "properties": {"id": "713539", "CVEGEO": "1100701650832014", "POBTOT": 62.0, "score_nse": 0.0, "NSE": "ND", "VIVTOT": 17.0, "GRAPROES": 7.5, "_ent": "11", "_mun": "007", "_loc": "0165"}, "geometry": {"type": "Polygon", "coordinates": [[[-100.74966, 20.56899], [-100.74955, 20.56963], [-100.74912, 20.56959], [-100.74915, 20.56925], [-100.74906, 20.56957], [-100.74874, 20.56953], [-100.74879, 20.56891], [-100.74966, 20.56899]]]}}, {"id": "713540", "type": "Feature", "properties": {"id": "713540", "CVEGEO": "1100701650832013", "POBTOT": 41.0, "score_nse": 0.0, "NSE": "ND", "VIVTOT": 12.0, "GRAPROES": 8.48, "_ent": "11", "_mun": "007", "_loc": "0165"}, "geometry": {"type": "Polygon", "coordinates": [[[-100.75516, 20.57168], [-100.7538, 20.57151], [-100.75386, 20.57093], [-100.75518, 20.57106], [-100.75516, 20.57168]]]}}, {"id": "713541", "type": "Feature", "properties": {"id": "713541", "CVEGEO": "1100701650387035", "POBTOT": 119.0, "score_nse": 0.0, "NSE": "ND", "VIVTOT": 28.0, "GRAPROES": 8.49, "_ent": "11", "_mun": "007", "_loc": "0165"}, "geometry": {"type": "Polygon", "coordinates": [[[-100.7425, 20.57309], [-100.74254, 20.57251], [-100.74365, 20.57259], [-100.74361, 20.57319], [-100.7425, 20.57309]]]}}, {"id": "713542", "type": "Feature", "properties": {"id": "713542", "CVEGEO": "1100701650387034", "POBTOT": 35.0, "score_nse": 0.0, "NSE": "ND", "VIVTOT": 6.0, "GRAPROES": 10.0, "_ent": "11", "_mun": "007", "_loc": "0165"}, "geometry": {"type": "Polygon", "coordinates": [[[-100.7417, 20.57572], [-100.74216, 20.57572], [-100.74209, 20.5764], [-100.74165, 20.57638], [-100.7417, 20.57572]]]}}, {"id": "713543", "type": "Feature", "properties": {"id": "713543", "CVEGEO": "1100701650387007", "POBTOT": 231.0, "score_nse": 52.6032, "NSE": "C-", "VIVTOT": 67.0, "GRAPROES": 9.18, "_ent": "11", "_mun": "007", "_loc": "0165"}, "geometry": {"type": "Polygon", "coordinates": [[[-100.74867, 20.57594], [-100.74713, 20.5759], [-100.74714, 20.57464], [-100.74862, 20.57465], [-100.74867, 20.57594]]]}}, {"id": "713544", "type": "Feature", "properties": {"id": "713544", "CVEGEO": "1100701650387005", "POBTOT": 19.0, "score_nse": 0.0, "NSE": "ND", "VIVTOT": 9.0, "GRAPROES": 6.88, "_ent": "11", "_mun": "007", "_loc": "0165"}, "geometry": {"type": "Polygon", "coordinates": [[[-100.7481, 20.57348], [-100.74855, 20.57348], [-100.7486, 20.57458], [-100.74715, 20.57458], [-100.74716, 20.5738], [-100.74809, 20.57379], [-100.7481, 20.57348]]]}}, {"id": "713545", "type": "Feature", "properties": {"id": "713545", "CVEGEO": "1100701650387003", "POBTOT": 312.0, "score_nse": 48.5443, "NSE": "C-", "VIVTOT": 69.0, "GRAPROES": 7.61, "_ent": "11", "_mun": "007", "_loc": "0165"}, "geometry": {"type": "Polygon", "coordinates": [[[-100.74605, 20.57434], [-100.745, 20.57433], [-100.74496, 20.57256], [-100.74616, 20.57262], [-100.74605, 20.57434]]]}}, {"id": "713546", "type": "Feature", "properties": {"id": "713546", "CVEGEO": "1100701650387002", "POBTOT": 221.0, "score_nse": 49.0636, "NSE": "C-", "VIVTOT": 56.0, "GRAPROES": 8.09, "_ent": "11", "_mun": "007", "_loc": "0165"}, "geometry": {"type": "Polygon", "coordinates": [[[-100.74508, 20.57585], [-100.74501, 20.57439], [-100.74605, 20.57439], [-100.74604, 20.57588], [-100.74508, 20.57585]]]}}, {"id": "713547", "type": "Feature", "properties": {"id": "713547", "CVEGEO": "1100701650048025", "POBTOT": 78.0, "score_nse": 0.0, "NSE": "ND", "VIVTOT": 22.0, "GRAPROES": 7.72, "_ent": "11", "_mun": "007", "_loc": "0165"}, "geometry": {"type": "Polygon", "coordinates": [[[-100.75268, 20.57081], [-100.75115, 20.57067], [-100.75117, 20.57034], [-100.75272, 20.57048], [-100.75268, 20.57081]]]}}, {"id": "713548", "type": "Feature", "properties": {"id": "713548", "CVEGEO": "1100701650048004", "POBTOT": 133.0, "score_nse": 44.1609, "NSE": "C-", "VIVTOT": 44.0, "GRAPROES": 7.92, "_ent": "11", "_mun": "007", "_loc": "0165"}, "geometry": {"type": "Polygon", "coordinates": [[[-100.75208, 20.5738], [-100.75075, 20.57373], [-100.7507, 20.57335], [-100.75208, 20.57335], [-100.75208, 20.5738]]]}}, {"id": "713549", "type": "Feature", "properties": {"id": "713549", "CVEGEO": "1100701650048003", "POBTOT": 177.0, "score_nse": 50.9298, "NSE": "C-", "VIVTOT": 45.0, "GRAPROES": 7.54, "_ent": "11", "_mun": "007", "_loc": "0165"}, "geometry": {"type": "Polygon", "coordinates": [[[-100.75078, 20.57474], [-100.74962, 20.57467], [-100.74933, 20.57402], [-100.7507, 20.57396], [-100.75078, 20.57474]]]}}, {"id": "713550", "type": "Feature", "properties": {"id": "713550", "CVEGEO": "1100701650048002", "POBTOT": 181.0, "score_nse": 61.6975, "NSE": "C", "VIVTOT": 39.0, "GRAPROES": 9.07, "_ent": "11", "_mun": "007", "_loc": "0165"}, "geometry": {"type": "Polygon", "coordinates": [[[-100.75094, 20.57589], [-100.75007, 20.57595], [-100.74964, 20.57473], [-100.75081, 20.57484], [-100.75094, 20.57589]]]}}, {"id": "713551", "type": "Feature", "properties": {"id": "713551", "CVEGEO": "1100701650048001", "POBTOT": 267.0, "score_nse": 49.6332, "NSE": "C-", "VIVTOT": 62.0, "GRAPROES": 7.93, "_ent": "11", "_mun": "007", "_loc": "0165"}, "geometry": {"type": "Polygon", "coordinates": [[[-100.75212, 20.5758], [-100.75181, 20.57583], [-100.7518, 20.57569], [-100.75177, 20.57583], [-100.751, 20.57588], [-100.75075, 20.57381], [-100.7521, 20.57387], [-100.75212, 20.5758]]]}}, {"id": "716048", "type": "Feature", "properties": {"id": "716048", "CVEGEO": "1100701650832040", "POBTOT": 0.0, "score_nse": 0.0, "NSE": "ND", "VIVTOT": 0.0, "GRAPROES": 0.0, "_ent": "11", "_mun": "007", "_loc": "0165"}, "geometry": {"type": "Polygon", "coordinates": [[[-100.74953, 20.56978], [-100.74944, 20.5704], [-100.74645, 20.57016], [-100.74651, 20.56953], [-100.74953, 20.56978]]]}}, {"id": "716049", "type": "Feature", "properties": {"id": "716049", "CVEGEO": "1100701650832039", "POBTOT": 19.0, "score_nse": 0.0, "NSE": "ND", "VIVTOT": 4.0, "GRAPROES": 9.09, "_ent": "11", "_mun": "007", "_loc": "0165"}, "geometry": {"type": "Polygon", "coordinates": [[[-100.75399, 20.56851], [-100.75397, 20.5687], [-100.75294, 20.56863], [-100.75296, 20.56843], [-100.75399, 20.56851]]]}}, {"id": "716050", "type": "Feature", "properties": {"id": "716050", "CVEGEO": "1100701650387018", "POBTOT": 224.0, "score_nse": 51.3026, "NSE": "C-", "VIVTOT": 63.0, "GRAPROES": 8.46, "_ent": "11", "_mun": "007", "_loc": "0165"}, "geometry": {"type": "Polygon", "coordinates": [[[-100.74846, 20.57341], [-100.74808, 20.5734], [-100.74799, 20.57298], [-100.748, 20.5734], [-100.74713, 20.57339], [-100.74712, 20.57259], [-100.74847, 20.57239], [-100.74846, 20.57341]]]}}, {"id": "716124", "type": "Feature", "properties": {"id": "716124", "CVEGEO": "1100701650832024", "POBTOT": 24.0, "score_nse": 0.0, "NSE": "ND", "VIVTOT": 7.0, "GRAPROES": 9.94, "_ent": "11", "_mun": "007", "_loc": "0165"}, "geometry": {"type": "Polygon", "coordinates": [[[-100.75376, 20.57118], [-100.75373, 20.5715], [-100.75265, 20.57136], [-100.75269, 20.57106], [-100.75376, 20.57118]]]}}, {"id": "716125", "type": "Feature", "properties": {"id": "716125", "CVEGEO": "1100701650832027", "POBTOT": 117.0, "score_nse": 0.0, "NSE": "ND", "VIVTOT": 37.0, "GRAPROES": 8.21, "_ent": "11", "_mun": "007", "_loc": "0165"}, "geometry": {"type": "Polygon", "coordinates": [[[-100.75475, 20.56999], [-100.75443, 20.56997], [-100.75455, 20.56855], [-100.7552, 20.56859], [-100.75522, 20.56999], [-100.75482, 20.56999], [-100.75476, 20.56878], [-100.75475, 20.56999]]]}}, {"id": "716126", "type": "Feature", "properties": {"id": "716126", "CVEGEO": "1100701650832005", "POBTOT": 253.0, "score_nse": 45.4185, "NSE": "C-", "VIVTOT": 65.0, "GRAPROES": 8.36, "_ent": "11", "_mun": "007", "_loc": "0165"}, "geometry": {"type": "Polygon", "coordinates": [[[-100.75259, 20.56842], [-100.75251, 20.5698], [-100.75215, 20.56978], [-100.75217, 20.56855], [-100.75207, 20.56977], [-100.75168, 20.56975], [-100.75178, 20.56839], [-100.75259, 20.56842]]]}}, {"id": "716127", "type": "Feature", "properties": {"id": "716127", "CVEGEO": "1100701650832043", "POBTOT": 101.0, "score_nse": 0.0, "NSE": "ND", "VIVTOT": 33.0, "GRAPROES": 8.89, "_ent": "11", "_mun": "007", "_loc": "0165"}, "geometry": {"type": "Polygon", "coordinates": [[[-100.74703, 20.56877], [-100.74663, 20.56875], [-100.74673, 20.56709], [-100.74711, 20.56712], [-100.74703, 20.56877]]]}}, {"id": "716128", "type": "Feature", "properties": {"id": "716128", "CVEGEO": "1100701650832006", "POBTOT": 79.0, "score_nse": 52.8908, "NSE": "C-", "VIVTOT": 17.0, "GRAPROES": 8.47, "_ent": "11", "_mun": "007", "_loc": "0165"}, "geometry": {"type": "Polygon", "coordinates": [[[-100.75257, 20.5698], [-100.75267, 20.56843], [-100.75288, 20.56844], [-100.75276, 20.56981], [-100.75257, 20.5698]]]}}, {"id": "716129", "type": "Feature", "properties": {"id": "716129", "CVEGEO": "1100701650387039", "POBTOT": 13.0, "score_nse": 0.0, "NSE": "ND", "VIVTOT": 6.0, "GRAPROES": 9.57, "_ent": "11", "_mun": "007", "_loc": "0165"}, "geometry": {"type": "Polygon", "coordinates": [[[-100.74345, 20.57752], [-100.74147, 20.5774], [-100.74153, 20.57647], [-100.74216, 20.57651], [-100.74225, 20.57576], [-100.74338, 20.57581], [-100.74345, 20.57752]]]}}, {"id": "716130", "type": "Feature", "properties": {"id": "716130", "CVEGEO": "1100701650387013", "POBTOT": 145.0, "score_nse": 63.3145, "NSE": "C", "VIVTOT": 31.0, "GRAPROES": 9.72, "_ent": "11", "_mun": "007", "_loc": "0165"}, "geometry": {"type": "Polygon", "coordinates": [[[-100.74494, 20.57433], [-100.74358, 20.5743], [-100.74375, 20.57257], [-100.74489, 20.57258], [-100.74494, 20.57433]]]}}, {"id": "716131", "type": "Feature", "properties": {"id": "716131", "CVEGEO": "1100701650387012", "POBTOT": 280.0, "score_nse": 46.713, "NSE": "C-", "VIVTOT": 80.0, "GRAPROES": 8.37, "_ent": "11", "_mun": "007", "_loc": "0165"}, "geometry": {"type": "Polygon", "coordinates": [[[-100.74344, 20.57583], [-100.74351, 20.57507], [-100.74389, 20.5751], [-100.74393, 20.57548], [-100.74396, 20.57437], [-100.74495, 20.57439], [-100.74502, 20.57585], [-100.74344, 20.57583]]]}}, {"id": "716132", "type": "Feature", "properties": {"id": "716132", "CVEGEO": "1100701650048039", "POBTOT": 294.0, "score_nse": 50.8095, "NSE": "C-", "VIVTOT": 71.0, "GRAPROES": 8.58, "_ent": "11", "_mun": "007", "_loc": "0165"}, "geometry": {"type": "Polygon", "coordinates": [[[-100.75352, 20.5739], [-100.75274, 20.57391], [-100.75269, 20.57341], [-100.75268, 20.5739], [-100.75218, 20.57388], [-100.75221, 20.57148], [-100.75279, 20.57156], [-100.75278, 20.57201], [-100.75284, 20.57157], [-100.7533, 20.57164], [-100.75339, 20.57253], [-100.75293, 20.57259], [-100.75339, 20.57258], [-100.75352, 20.5739]]]}}, {"id": "716133", "type": "Feature", "properties": {"id": "716133", "CVEGEO": "1100701650048027", "POBTOT": 87.0, "score_nse": 53.2015, "NSE": "C-", "VIVTOT": 19.0, "GRAPROES": 9.23, "_ent": "11", "_mun": "007", "_loc": "0165"}, "geometry": {"type": "Polygon", "coordinates": [[[-100.75338, 20.57883], [-100.75071, 20.57908], [-100.75056, 20.57807], [-100.75337, 20.57783], [-100.75338, 20.57883]]]}}, {"id": "716142", "type": "Feature", "properties": {"id": "716142", "CVEGEO": "1100701650387028", "POBTOT": 115.0, "score_nse": 47.5812, "NSE": "C-", "VIVTOT": 32.0, "GRAPROES": 8.32, "_ent": "11", "_mun": "007", "_loc": "0165"}, "geometry": {"type": "Polygon", "coordinates": [[[-100.74451, 20.58083], [-100.74448, 20.58066], [-100.74363, 20.58071], [-100.74357, 20.57982], [-100.74287, 20.57988], [-100.74286, 20.57936], [-100.74488, 20.57875], [-100.74479, 20.58008], [-100.74434, 20.5803], [-100.74477, 20.58022], [-100.74478, 20.5808], [-100.74451, 20.58083]]]}}, {"id": "716217", "type": "Feature", "properties": {"id": "716217", "CVEGEO": "1100701650832042", "POBTOT": 59.0, "score_nse": 0.0, "NSE": "ND", "VIVTOT": 15.0, "GRAPROES": 7.78, "_ent": "11", "_mun": "007", "_loc": "0165"}, "geometry": {"type": "Polygon", "coordinates": [[[-100.74667, 20.56626], [-100.74664, 20.56682], [-100.74618, 20.56683], [-100.74609, 20.56698], [-100.74434, 20.56702], [-100.74446, 20.56628], [-100.74475, 20.56629], [-100.74475, 20.56669], [-100.74625, 20.56669], [-100.74627, 20.56626], [-100.74667, 20.56626]]]}}, {"id": "716218", "type": "Feature", "properties": {"id": "716218", "CVEGEO": "1100701650387023", "POBTOT": 166.0, "score_nse": 51.8998, "NSE": "C-", "VIVTOT": 41.0, "GRAPROES": 8.58, "_ent": "11", "_mun": "007", "_loc": "0165"}, "geometry": {"type": "Polygon", "coordinates": [[[-100.74351, 20.57424], [-100.7424, 20.57414], [-100.74244, 20.5737], [-100.74289, 20.57373], [-100.74244, 20.57367], [-100.7425, 20.57316], [-100.74361, 20.57327], [-100.74351, 20.57424]]]}}, {"id": "716219", "type": "Feature", "properties": {"id": "716219", "CVEGEO": "1100701650387021", "POBTOT": 146.0, "score_nse": 49.5171, "NSE": "C-", "VIVTOT": 38.0, "GRAPROES": 8.38, "_ent": "11", "_mun": "007", "_loc": "0165"}, "geometry": {"type": "Polygon", "coordinates": [[[-100.74343, 20.57488], [-100.74337, 20.5757], [-100.74313, 20.57569], [-100.74315, 20.57527], [-100.74228, 20.57524], [-100.74232, 20.57483], [-100.74343, 20.57488]]]}}, {"id": "716222", "type": "Feature", "properties": {"id": "716222", "CVEGEO": "1100701651811002", "POBTOT": 23.0, "score_nse": 0.0, "NSE": "ND", "VIVTOT": 9.0, "GRAPROES": 9.86, "_ent": "11", "_mun": "007", "_loc": "0165"}, "geometry": {"type": "Polygon", "coordinates": [[[-100.742, 20.57296], [-100.74191, 20.5737], [-100.74147, 20.57368], [-100.74153, 20.57295], [-100.742, 20.57296]]]}}, {"id": "716583", "type": "Feature", "properties": {"id": "716583", "CVEGEO": "1100701652877005", "POBTOT": 79.0, "score_nse": 0.0, "NSE": "ND", "VIVTOT": 22.0, "GRAPROES": 8.25, "_ent": "11", "_mun": "007", "_loc": "0165"}, "geometry": {"type": "Polygon", "coordinates": [[[-100.74366, 20.5682], [-100.74375, 20.56699], [-100.74424, 20.56704], [-100.74406, 20.56823], [-100.74366, 20.5682]]]}}, {"id": "716584", "type": "Feature", "properties": {"id": "716584", "CVEGEO": "1100701650832019", "POBTOT": 166.0, "score_nse": 0.0, "NSE": "ND", "VIVTOT": 32.0, "GRAPROES": 7.86, "_ent": "11", "_mun": "007", "_loc": "0165"}, "geometry": {"type": "Polygon", "coordinates": [[[-100.74509, 20.57067], [-100.74381, 20.5706], [-100.74383, 20.57024], [-100.74511, 20.57029], [-100.74509, 20.57067]]]}}, {"id": "716585", "type": "Feature", "properties": {"id": "716585", "CVEGEO": "1100701650832018", "POBTOT": 66.0, "score_nse": 0.0, "NSE": "ND", "VIVTOT": 15.0, "GRAPROES": 7.86, "_ent": "11", "_mun": "007", "_loc": "0165"}, "geometry": {"type": "Polygon", "coordinates": [[[-100.74814, 20.5664], [-100.74811, 20.56713], [-100.74769, 20.56711], [-100.7477, 20.56639], [-100.74814, 20.5664]]]}}, {"id": "716586", "type": "Feature", "properties": {"id": "716586", "CVEGEO": "1100701650832016", "POBTOT": 40.0, "score_nse": 55.4025, "NSE": "C", "VIVTOT": 13.0, "GRAPROES": 9.16, "_ent": "11", "_mun": "007", "_loc": "0165"}, "geometry": {"type": "Polygon", "coordinates": [[[-100.74736, 20.56944], [-100.74706, 20.56941], [-100.74711, 20.56885], [-100.7475, 20.56886], [-100.74736, 20.56944]]]}}, {"id": "716587", "type": "Feature", "properties": {"id": "716587", "CVEGEO": "1100701650387027", "POBTOT": 0.0, "score_nse": 0.0, "NSE": "ND", "VIVTOT": 0.0, "GRAPROES": 0.0, "_ent": "11", "_mun": "007", "_loc": "0165"}, "geometry": {"type": "Polygon", "coordinates": [[[-100.74716, 20.57374], [-100.74716, 20.57346], [-100.74803, 20.57347], [-100.74803, 20.57374], [-100.74716, 20.57374]]]}}, {"id": "716588", "type": "Feature", "properties": {"id": "716588", "CVEGEO": "1100701650387022", "POBTOT": 16.0, "score_nse": 0.0, "NSE": "ND", "VIVTOT": 5.0, "GRAPROES": 9.7, "_ent": "11", "_mun": "007", "_loc": "0165"}, "geometry": {"type": "Polygon", "coordinates": [[[-100.74357, 20.57438], [-100.7439, 20.57438], [-100.74389, 20.57503], [-100.74353, 20.575], [-100.74357, 20.57438]]]}}, {"id": "716589", "type": "Feature", "properties": {"id": "716589", "CVEGEO": "1100701650048016", "POBTOT": 0.0, "score_nse": 0.0, "NSE": "ND", "VIVTOT": 0.0, "GRAPROES": 0.0, "_ent": "11", "_mun": "007", "_loc": "0165"}, "geometry": {"type": "Polygon", "coordinates": [[[-100.75035, 20.57205], [-100.74917, 20.57222], [-100.74937, 20.57123], [-100.75023, 20.57126], [-100.75035, 20.57205]]]}}, {"id": "716590", "type": "Feature", "properties": {"id": "716590", "CVEGEO": "1100701650048015", "POBTOT": 136.0, "score_nse": 0.0, "NSE": "ND", "VIVTOT": 38.0, "GRAPROES": 9.4, "_ent": "11", "_mun": "007", "_loc": "0165"}, "geometry": {"type": "Polygon", "coordinates": [[[-100.74854, 20.57226], [-100.74851, 20.57107], [-100.74925, 20.57115], [-100.74903, 20.57225], [-100.74854, 20.57226]]]}}, {"id": "716591", "type": "Feature", "properties": {"id": "716591", "CVEGEO": "1100701650048014", "POBTOT": 180.0, "score_nse": 47.0765, "NSE": "C-", "VIVTOT": 48.0, "GRAPROES": 7.74, "_ent": "11", "_mun": "007", "_loc": "0165"}, "geometry": {"type": "Polygon", "coordinates": [[[-100.75208, 20.5733], [-100.75141, 20.5733], [-100.75145, 20.572], [-100.7521, 20.57194], [-100.75208, 20.5733]]]}}, {"id": "716884", "type": "Feature", "properties": {"id": "716884", "CVEGEO": "1100701650048018", "POBTOT": 76.0, "score_nse": 0.0, "NSE": "ND", "VIVTOT": 20.0, "GRAPROES": 8.3, "_ent": "11", "_mun": "007", "_loc": "0165"}, "geometry": {"type": "Polygon", "coordinates": [[[-100.7521, 20.5719], [-100.75145, 20.57195], [-100.75146, 20.57138], [-100.75212, 20.57144], [-100.7521, 20.5719]]]}}, {"id": "716984", "type": "Feature", "properties": {"id": "716984", "CVEGEO": "1100701650048019", "POBTOT": 488.0, "score_nse": 53.8666, "NSE": "C-", "VIVTOT": 115.0, "GRAPROES": 8.79, "_ent": "11", "_mun": "007", "_loc": "0165"}, "geometry": {"type": "Polygon", "coordinates": [[[-100.75331, 20.57774], [-100.75128, 20.5779], [-100.75102, 20.57595], [-100.75181, 20.5759], [-100.75183, 20.57661], [-100.75187, 20.57588], [-100.75255, 20.5759], [-100.75255, 20.57638], [-100.75233, 20.57643], [-100.75275, 20.57643], [-100.75262, 20.57638], [-100.75261, 20.5759], [-100.7533, 20.57594], [-100.75331, 20.57774]]]}}, {"id": "716985", "type": "Feature", "properties": {"id": "716985", "CVEGEO": "1100701650048024", "POBTOT": 125.0, "score_nse": 0.0, "NSE": "ND", "VIVTOT": 36.0, "GRAPROES": 8.45, "_ent": "11", "_mun": "007", "_loc": "0165"}, "geometry": {"type": "Polygon", "coordinates": [[[-100.75258, 20.57133], [-100.7511, 20.57117], [-100.75114, 20.57072], [-100.75264, 20.57086], [-100.75258, 20.57133]]]}}, {"id": "717390", "type": "Feature", "properties": {"id": "717390", "CVEGEO": "1100701650832025", "POBTOT": 97.0, "score_nse": 0.0, "NSE": "ND", "VIVTOT": 27.0, "GRAPROES": 8.17, "_ent": "11", "_mun": "007", "_loc": "0165"}, "geometry": {"type": "Polygon", "coordinates": [[[-100.75449, 20.56855], [-100.75434, 20.56989], [-100.75392, 20.56985], [-100.75406, 20.56852], [-100.75449, 20.56855]]]}}, {"id": "717573", "type": "Feature", "properties": {"id": "717573", "CVEGEO": "1100701650832048", "POBTOT": 0.0, "score_nse": 0.0, "NSE": "ND", "VIVTOT": 0.0, "GRAPROES": 0.0, "_ent": "11", "_mun": "007", "_loc": "0165"}, "geometry": {"type": "Polygon", "coordinates": [[[-100.75386, 20.5701], [-100.75381, 20.57059], [-100.75277, 20.57049], [-100.75282, 20.57002], [-100.75386, 20.5701]]]}}, {"id": "717574", "type": "Feature", "properties": {"id": "717574", "CVEGEO": "1100701650832047", "POBTOT": 53.0, "score_nse": 0.0, "NSE": "ND", "VIVTOT": 12.0, "GRAPROES": 9.58, "_ent": "11", "_mun": "007", "_loc": "0165"}, "geometry": {"type": "Polygon", "coordinates": [[[-100.7539, 20.57056], [-100.75521, 20.57067], [-100.75519, 20.57099], [-100.75388, 20.57087], [-100.7539, 20.57056]]]}}, {"id": "717618", "type": "Feature", "properties": {"id": "717618", "CVEGEO": "1100701650048017", "POBTOT": 146.0, "score_nse": 53.116, "NSE": "C-", "VIVTOT": 35.0, "GRAPROES": 8.07, "_ent": "11", "_mun": "007", "_loc": "0165"}, "geometry": {"type": "Polygon", "coordinates": [[[-100.75134, 20.57196], [-100.75051, 20.57201], [-100.75041, 20.57129], [-100.75136, 20.57136], [-100.75134, 20.57196]]]}}, {"id": "717619", "type": "Feature", "properties": {"id": "717619", "CVEGEO": "1100701650832046", "POBTOT": 29.0, "score_nse": 0.0, "NSE": "ND", "VIVTOT": 7.0, "GRAPROES": 10.06, "_ent": "11", "_mun": "007", "_loc": "0165"}, "geometry": {"type": "Polygon", "coordinates": [[[-100.75381, 20.57068], [-100.75376, 20.57112], [-100.7527, 20.571], [-100.75276, 20.57058], [-100.75381, 20.57068]]]}}, {"id": "717688", "type": "Feature", "properties": {"id": "717688", "CVEGEO": "1100701650832017", "POBTOT": 69.0, "score_nse": 0.0, "NSE": "ND", "VIVTOT": 19.0, "GRAPROES": 7.89, "_ent": "11", "_mun": "007", "_loc": "0165"}, "geometry": {"type": "Polygon", "coordinates": [[[-100.74662, 20.56882], [-100.74703, 20.56884], [-100.74699, 20.5694], [-100.74654, 20.56938], [-100.74662, 20.56882]]]}}, {"id": "717709", "type": "Feature", "properties": {"id": "717709", "CVEGEO": "1100701650832011", "POBTOT": 247.0, "score_nse": 48.3673, "NSE": "C-", "VIVTOT": 63.0, "GRAPROES": 8.34, "_ent": "11", "_mun": "007", "_loc": "0165"}, "geometry": {"type": "Polygon", "coordinates": [[[-100.74936, 20.57098], [-100.74641, 20.57073], [-100.74645, 20.57021], [-100.74944, 20.57046], [-100.74936, 20.57098]]]}}, {"id": "717900", "type": "Feature", "properties": {"id": "717900", "CVEGEO": "1100701650387004", "POBTOT": 220.0, "score_nse": 54.1462, "NSE": "C-", "VIVTOT": 57.0, "GRAPROES": 9.36, "_ent": "11", "_mun": "007", "_loc": "0165"}, "geometry": {"type": "Polygon", "coordinates": [[[-100.74611, 20.5743], [-100.74623, 20.57262], [-100.74704, 20.57263], [-100.74707, 20.57434], [-100.74611, 20.5743]]]}}, {"id": "717901", "type": "Feature", "properties": {"id": "717901", "CVEGEO": "1100701650832012", "POBTOT": 38.0, "score_nse": 0.0, "NSE": "ND", "VIVTOT": 9.0, "GRAPROES": 8.83, "_ent": "11", "_mun": "007", "_loc": "0165"}, "geometry": {"type": "Polygon", "coordinates": [[[-100.75391, 20.5705], [-100.75393, 20.57012], [-100.75524, 20.57018], [-100.75522, 20.57061], [-100.75391, 20.5705]]]}}, {"id": "717902", "type": "Feature", "properties": {"id": "717902", "CVEGEO": "1100701650832015", "POBTOT": 52.0, "score_nse": 0.0, "NSE": "ND", "VIVTOT": 10.0, "GRAPROES": 6.97, "_ent": "11", "_mun": "007", "_loc": "0165"}, "geometry": {"type": "Polygon", "coordinates": [[[-100.74779, 20.56887], [-100.74775, 20.56946], [-100.74755, 20.56945], [-100.74756, 20.56886], [-100.74779, 20.56887]]]}}, {"id": "717903", "type": "Feature", "properties": {"id": "717903", "CVEGEO": "1100701652379004", "POBTOT": 4.0, "score_nse": 0.0, "NSE": "ND", "VIVTOT": 3.0, "GRAPROES": 0.0, "_ent": "11", "_mun": "007", "_loc": "0165"}, "geometry": {"type": "Polygon", "coordinates": [[[-100.74034, 20.57688], [-100.74054, 20.57645], [-100.74076, 20.57646], [-100.74051, 20.57698], [-100.74034, 20.57688]]]}}, {"id": "717904", "type": "Feature", "properties": {"id": "717904", "CVEGEO": "1100701652383001", "POBTOT": 113.0, "score_nse": 0.0, "NSE": "ND", "VIVTOT": 31.0, "GRAPROES": 8.59, "_ent": "11", "_mun": "007", "_loc": "0165"}, "geometry": {"type": "Polygon", "coordinates": [[[-100.74091, 20.57284], [-100.74093, 20.57241], [-100.74248, 20.57252], [-100.74245, 20.57291], [-100.74091, 20.57284]]]}}, {"id": "717935", "type": "Feature", "properties": {"id": "717935", "CVEGEO": "1100701652379001", "POBTOT": 60.0, "score_nse": 0.0, "NSE": "ND", "VIVTOT": 17.0, "GRAPROES": 8.19, "_ent": "11", "_mun": "007", "_loc": "0165"}, "geometry": {"type": "Polygon", "coordinates": [[[-100.74063, 20.57687], [-100.74082, 20.57645], [-100.74148, 20.57647], [-100.74142, 20.57734], [-100.74075, 20.57739], [-100.74091, 20.57691], [-100.74063, 20.57687]]]}}, {"id": "717971", "type": "Feature", "properties": {"id": "717971", "CVEGEO": "1100701650387011", "POBTOT": 579.0, "score_nse": 49.5709, "NSE": "C-", "VIVTOT": 128.0, "GRAPROES": 7.92, "_ent": "11", "_mun": "007", "_loc": "0165"}, "geometry": {"type": "Polygon", "coordinates": [[[-100.74507, 20.57861], [-100.7436, 20.57906], [-100.74355, 20.57735], [-100.74416, 20.57731], [-100.74354, 20.57729], [-100.74347, 20.57588], [-100.74502, 20.5759], [-100.74503, 20.57642], [-100.74477, 20.57642], [-100.74504, 20.57645], [-100.74507, 20.57772], [-100.74454, 20.57777], [-100.74507, 20.57777], [-100.74507, 20.57861]]]}}, {"id": "717990", "type": "Feature", "properties": {"id": "717990", "CVEGEO": "1100701650387016", "POBTOT": 239.0, "score_nse": 47.834, "NSE": "C-", "VIVTOT": 57.0, "GRAPROES": 7.72, "_ent": "11", "_mun": "007", "_loc": "0165"}, "geometry": {"type": "Polygon", "coordinates": [[[-100.74625, 20.57256], [-100.74637, 20.57087], [-100.7471, 20.57094], [-100.74704, 20.57256], [-100.74625, 20.57256]]]}}, {"id": "718290", "type": "Feature", "properties": {"id": "718290", "CVEGEO": "1100701650387042", "POBTOT": 22.0, "score_nse": 0.0, "NSE": "ND", "VIVTOT": 13.0, "GRAPROES": 8.53, "_ent": "11", "_mun": "007", "_loc": "0165"}, "geometry": {"type": "Polygon", "coordinates": [[[-100.74722, 20.57857], [-100.74884, 20.57839], [-100.74881, 20.57857], [-100.7477, 20.57872], [-100.74769, 20.57889], [-100.74722, 20.57896], [-100.74722, 20.57857]]]}}, {"id": "718299", "type": "Feature", "properties": {"id": "718299", "CVEGEO": "1100701650387030", "POBTOT": 94.0, "score_nse": 51.1141, "NSE": "C-", "VIVTOT": 23.0, "GRAPROES": 8.54, "_ent": "11", "_mun": "007", "_loc": "0165"}, "geometry": {"type": "Polygon", "coordinates": [[[-100.74516, 20.5787], [-100.74713, 20.57859], [-100.74713, 20.57899], [-100.74519, 20.5791], [-100.74517, 20.57994], [-100.74488, 20.57993], [-100.74494, 20.57884], [-100.74516, 20.5787]]]}}, {"id": "719345", "type": "Feature", "properties": {"id": "719345", "CVEGEO": "1100701650832031", "POBTOT": 50.0, "score_nse": 0.0, "NSE": "ND", "VIVTOT": 13.0, "GRAPROES": 7.09, "_ent": "11", "_mun": "007", "_loc": "0165"}, "geometry": {"type": "Polygon", "coordinates": [[[-100.74955, 20.56647], [-100.74962, 20.5672], [-100.74915, 20.56719], [-100.74916, 20.56645], [-100.74955, 20.56647]]]}}, {"id": "719346", "type": "Feature", "properties": {"id": "719346", "CVEGEO": "1100701650832041", "POBTOT": 447.0, "score_nse": 43.6998, "NSE": "C-", "VIVTOT": 106.0, "GRAPROES": 8.01, "_ent": "11", "_mun": "007", "_loc": "0165"}, "geometry": {"type": "Polygon", "coordinates": [[[-100.74664, 20.56691], [-100.74657, 20.56822], [-100.74618, 20.56822], [-100.74617, 20.56767], [-100.74614, 20.56822], [-100.74417, 20.56823], [-100.74424, 20.56785], [-100.74576, 20.56794], [-100.74422, 20.56781], [-100.74434, 20.56709], [-100.74616, 20.56706], [-100.74624, 20.56688], [-100.74664, 20.56691]]]}}, {"id": "719347", "type": "Feature", "properties": {"id": "719347", "CVEGEO": "1100701650832044", "POBTOT": 166.0, "score_nse": 48.808, "NSE": "C-", "VIVTOT": 40.0, "GRAPROES": 7.98, "_ent": "11", "_mun": "007", "_loc": "0165"}, "geometry": {"type": "Polygon", "coordinates": [[[-100.74657, 20.56826], [-100.74643, 20.56937], [-100.74397, 20.56937], [-100.74414, 20.56832], [-100.74657, 20.56826]]]}}, {"id": "719677", "type": "Feature", "properties": {"id": "719677", "CVEGEO": "1100701650387029", "POBTOT": 57.0, "score_nse": 0.0, "NSE": "ND", "VIVTOT": 15.0, "GRAPROES": 8.63, "_ent": "11", "_mun": "007", "_loc": "0165"}, "geometry": {"type": "Polygon", "coordinates": [[[-100.74276, 20.57925], [-100.74193, 20.57958], [-100.74207, 20.57758], [-100.74266, 20.57758], [-100.74276, 20.57925]]]}}, {"id": "719678", "type": "Feature", "properties": {"id": "719678", "CVEGEO": "1100701650387020", "POBTOT": 36.0, "score_nse": 0.0, "NSE": "ND", "VIVTOT": 10.0, "GRAPROES": 9.68, "_ent": "11", "_mun": "007", "_loc": "0165"}, "geometry": {"type": "Polygon", "coordinates": [[[-100.74349, 20.57908], [-100.74281, 20.57923], [-100.74273, 20.57758], [-100.74346, 20.57758], [-100.74349, 20.57908]]]}}, {"id": "719778", "type": "Feature", "properties": {"id": "719778", "CVEGEO": "1100701652858001", "POBTOT": 85.0, "score_nse": 47.8148, "NSE": "C-", "VIVTOT": 32.0, "GRAPROES": 9.32, "_ent": "11", "_mun": "007", "_loc": "0165"}, "geometry": {"type": "Polygon", "coordinates": [[[-100.75336, 20.57944], [-100.75071, 20.57968], [-100.75072, 20.57915], [-100.75338, 20.5789], [-100.75336, 20.57944]]]}}, {"id": "720165", "type": "Feature", "properties": {"id": "720165", "CVEGEO": "1100701650832004", "POBTOT": 175.0, "score_nse": 0.0, "NSE": "ND", "VIVTOT": 42.0, "GRAPROES": 8.66, "_ent": "11", "_mun": "007", "_loc": "0165"}, "geometry": {"type": "Polygon", "coordinates": [[[-100.74388, 20.56991], [-100.74638, 20.57002], [-100.74632, 20.57074], [-100.74515, 20.57068], [-100.74516, 20.57029], [-100.74552, 20.57027], [-100.74383, 20.5702], [-100.74388, 20.56991]]]}}, {"id": "720166", "type": "Feature", "properties": {"id": "720166", "CVEGEO": "1100701650387040", "POBTOT": 222.0, "score_nse": 46.888, "NSE": "C-", "VIVTOT": 48.0, "GRAPROES": 7.93, "_ent": "11", "_mun": "007", "_loc": "0165"}, "geometry": {"type": "Polygon", "coordinates": [[[-100.74262, 20.57181], [-100.74273, 20.57064], [-100.74377, 20.57072], [-100.74373, 20.57115], [-100.74322, 20.57112], [-100.74315, 20.57181], [-100.74327, 20.57117], [-100.74373, 20.57119], [-100.74369, 20.57188], [-100.74262, 20.57181]]]}}, {"id": "720167", "type": "Feature", "properties": {"id": "720167", "CVEGEO": "1100701650387025", "POBTOT": 111.0, "score_nse": 50.0788, "NSE": "C-", "VIVTOT": 26.0, "GRAPROES": 8.6, "_ent": "11", "_mun": "007", "_loc": "0165"}, "geometry": {"type": "Polygon", "coordinates": [[[-100.74368, 20.57193], [-100.74365, 20.57251], [-100.74255, 20.57244], [-100.74261, 20.57185], [-100.74298, 20.57187], [-100.743, 20.5721], [-100.74303, 20.5719], [-100.74368, 20.57193]]]}}, {"id": "720168", "type": "Feature", "properties": {"id": "720168", "CVEGEO": "1100701650387008", "POBTOT": 429.0, "score_nse": 47.4547, "NSE": "C-", "VIVTOT": 111.0, "GRAPROES": 8.28, "_ent": "11", "_mun": "007", "_loc": "0165"}, "geometry": {"type": "Polygon", "coordinates": [[[-100.74821, 20.57655], [-100.74818, 20.57715], [-100.74822, 20.57682], [-100.74872, 20.57681], [-100.7488, 20.5783], [-100.74717, 20.57849], [-100.74712, 20.57598], [-100.74867, 20.57601], [-100.74872, 20.57676], [-100.74822, 20.57678], [-100.74821, 20.57655]]]}}, {"id": "720227", "type": "Feature", "properties": {"id": "720227", "CVEGEO": "1100701652877002", "POBTOT": 88.0, "score_nse": 49.7422, "NSE": "C-", "VIVTOT": 27.0, "GRAPROES": 9.14, "_ent": "11", "_mun": "007", "_loc": "0165"}, "geometry": {"type": "Polygon", "coordinates": [[[-100.74404, 20.56829], [-100.74382, 20.56986], [-100.7431, 20.56981], [-100.74381, 20.56991], [-100.74376, 20.57018], [-100.74188, 20.57004], [-100.74199, 20.56971], [-100.74365, 20.56941], [-100.74383, 20.56828], [-100.74404, 20.56829]]]}}, {"id": "720236", "type": "Feature", "properties": {"id": "720236", "CVEGEO": "1100701650832049", "POBTOT": 146.0, "score_nse": 0.0, "NSE": "ND", "VIVTOT": 30.0, "GRAPROES": 6.03, "_ent": "11", "_mun": "007", "_loc": "0165"}, "geometry": {"type": "Polygon", "coordinates": [[[-100.74396, 20.56942], [-100.74597, 20.56951], [-100.74595, 20.56993], [-100.74389, 20.56986], [-100.74396, 20.56942]]]}}, {"id": "720403", "type": "Feature", "properties": {"id": "720403", "CVEGEO": "1100701650048012", "POBTOT": 222.0, "score_nse": 61.4003, "NSE": "C", "VIVTOT": 59.0, "GRAPROES": 9.72, "_ent": "11", "_mun": "007", "_loc": "0165"}, "geometry": {"type": "Polygon", "coordinates": [[[-100.75028, 20.57349], [-100.75064, 20.57351], [-100.7507, 20.57389], [-100.7493, 20.57397], [-100.74909, 20.57326], [-100.74913, 20.57231], [-100.75043, 20.57214], [-100.75057, 20.57307], [-100.75006, 20.57319], [-100.75057, 20.57313], [-100.75063, 20.57345], [-100.75028, 20.57349]]]}}, {"id": "720630", "type": "Feature", "properties": {"id": "720630", "CVEGEO": "1100701650048005", "POBTOT": 387.0, "score_nse": 50.0159, "NSE": "C-", "VIVTOT": 79.0, "GRAPROES": 8.03, "_ent": "11", "_mun": "007", "_loc": "0165"}, "geometry": {"type": "Polygon", "coordinates": [[[-100.75359, 20.57434], [-100.7538, 20.57586], [-100.75218, 20.5758], [-100.75218, 20.57531], [-100.75284, 20.57529], [-100.75263, 20.57528], [-100.75268, 20.57488], [-100.75259, 20.57528], [-100.75218, 20.57526], [-100.75219, 20.57396], [-100.75267, 20.57396], [-100.75266, 20.57467], [-100.75272, 20.57434], [-100.75359, 20.57434]]]}}, {"id": "720973", "type": "Feature", "properties": {"id": "720973", "CVEGEO": "1100701650832001", "POBTOT": 337.0, "score_nse": 39.969, "NSE": "D+", "VIVTOT": 86.0, "GRAPROES": 8.21, "_ent": "11", "_mun": "007", "_loc": "0165"}, "geometry": {"type": "Polygon", "coordinates": [[[-100.74967, 20.56751], [-100.74966, 20.56891], [-100.7492, 20.56887], [-100.74925, 20.56751], [-100.74967, 20.56751]]]}}, {"id": "720974", "type": "Feature", "properties": {"id": "720974", "CVEGEO": "1100701650832050", "POBTOT": 0.0, "score_nse": 0.0, "NSE": null, "VIVTOT": 0.0, "GRAPROES": 0.0, "_ent": "11", "_mun": "007", "_loc": "0165"}, "geometry": {"type": "Polygon", "coordinates": [[[-100.74759, 20.5672], [-100.7475, 20.5688], [-100.74711, 20.56878], [-100.74721, 20.56718], [-100.74759, 20.5672]]]}}, {"id": "720975", "type": "Feature", "properties": {"id": "720975", "CVEGEO": "1100701650832051", "POBTOT": 0.0, "score_nse": 0.0, "NSE": null, "VIVTOT": 0.0, "GRAPROES": 0.0, "_ent": "11", "_mun": "007", "_loc": "0165"}, "geometry": {"type": "Polygon", "coordinates": [[[-100.74805, 20.56722], [-100.74795, 20.56882], [-100.74757, 20.5688], [-100.74765, 20.5672], [-100.74805, 20.56722]]]}}, {"id": "720976", "type": "Feature", "properties": {"id": "720976", "CVEGEO": "1100701650832052", "POBTOT": 0.0, "score_nse": 0.0, "NSE": null, "VIVTOT": 0.0, "GRAPROES": 0.0, "_ent": "11", "_mun": "007", "_loc": "0165"}, "geometry": {"type": "Polygon", "coordinates": [[[-100.74831, 20.56726], [-100.74823, 20.56883], [-100.74803, 20.56882], [-100.7481, 20.56725], [-100.74831, 20.56726]]]}}, {"id": "720977", "type": "Feature", "properties": {"id": "720977", "CVEGEO": "1100701650832053", "POBTOT": 0.0, "score_nse": 0.0, "NSE": null, "VIVTOT": 0.0, "GRAPROES": 0.0, "_ent": "11", "_mun": "007", "_loc": "0165"}, "geometry": {"type": "Polygon", "coordinates": [[[-100.74875, 20.56723], [-100.74868, 20.56885], [-100.7483, 20.56883], [-100.74836, 20.56722], [-100.74875, 20.56723]]]}}, {"id": "720978", "type": "Feature", "properties": {"id": "720978", "CVEGEO": "1100701650832054", "POBTOT": 0.0, "score_nse": 0.0, "NSE": null, "VIVTOT": 0.0, "GRAPROES": 0.0, "_ent": "11", "_mun": "007", "_loc": "0165"}, "geometry": {"type": "Polygon", "coordinates": [[[-100.74922, 20.56725], [-100.74912, 20.56886], [-100.74875, 20.56884], [-100.7488, 20.56724], [-100.74922, 20.56725]]]}}, {"id": "720979", "type": "Feature", "properties": {"id": "720979", "CVEGEO": "1100701652858002", "POBTOT": 0.0, "score_nse": 0.0, "NSE": null, "VIVTOT": 0.0, "GRAPROES": 0.0, "_ent": "11", "_mun": "007", "_loc": "0165"}, "geometry": {"type": "Polygon", "coordinates": [[[-100.75331, 20.57982], [-100.75072, 20.58002], [-100.75071, 20.57975], [-100.75331, 20.57954], [-100.75331, 20.57982]]]}}, {"id": "721038", "type": "Feature", "properties": {"id": "721038", "CVEGEO": "1100701652862003", "POBTOT": 9.0, "score_nse": 0.0, "NSE": "ND", "VIVTOT": 5.0, "GRAPROES": 0.0, "_ent": "11", "_mun": "007", "_loc": "0165"}, "geometry": {"type": "Polygon", "coordinates": [[[-100.74018, 20.57471], [-100.74019, 20.57448], [-100.74116, 20.57449], [-100.74115, 20.575], [-100.73954, 20.57488], [-100.73956, 20.57471], [-100.74018, 20.57471]]]}}, {"id": "721039", "type": "Feature", "properties": {"id": "721039", "CVEGEO": "1100701653502001", "POBTOT": 31.0, "score_nse": 0.0, "NSE": "ND", "VIVTOT": 7.0, "GRAPROES": 8.26, "_ent": "11", "_mun": "007", "_loc": "0165"}, "geometry": {"type": "Polygon", "coordinates": [[[-100.7432, 20.567], [-100.74369, 20.56695], [-100.74361, 20.56751], [-100.74339, 20.56749], [-100.74342, 20.56719], [-100.74318, 20.56716], [-100.7432, 20.567]]]}}, {"id": "721040", "type": "Feature", "properties": {"id": "721040", "CVEGEO": "1100701653502002", "POBTOT": 0.0, "score_nse": 0.0, "NSE": null, "VIVTOT": 0.0, "GRAPROES": 0.0, "_ent": "11", "_mun": "007", "_loc": "0165"}, "geometry": {"type": "Polygon", "coordinates": [[[-100.74322, 20.56685], [-100.74329, 20.56638], [-100.74376, 20.56644], [-100.7437, 20.5669], [-100.74322, 20.56685]]]}}, {"id": "721054", "type": "Feature", "properties": {"id": "721054", "CVEGEO": "1100701652862004", "POBTOT": 0.0, "score_nse": 0.0, "NSE": null, "VIVTOT": 0.0, "GRAPROES": 0.0, "_ent": "11", "_mun": "007", "_loc": "0165"}, "geometry": {"type": "Polygon", "coordinates": [[[-100.74027, 20.57593], [-100.74027, 20.5757], [-100.74072, 20.57571], [-100.74071, 20.57593], [-100.74027, 20.57593]]]}}, {"id": "721238", "type": "Feature", "properties": {"id": "721238", "CVEGEO": "1100701650387006", "POBTOT": 0.0, "score_nse": 0.0, "NSE": null, "VIVTOT": 0.0, "GRAPROES": 0.0, "_ent": "11", "_mun": "007", "_loc": "0165"}, "geometry": {"type": "Polygon", "coordinates": [[[-100.74241, 20.58108], [-100.74278, 20.58094], [-100.74283, 20.58276], [-100.74247, 20.58276], [-100.74241, 20.58108]]]}}, {"id": "721239", "type": "Feature", "properties": {"id": "721239", "CVEGEO": "1100701650387041", "POBTOT": 2.0, "score_nse": 0.0, "NSE": "ND", "VIVTOT": 1.0, "GRAPROES": 0.0, "_ent": "11", "_mun": "007", "_loc": "0165"}, "geometry": {"type": "Polygon", "coordinates": [[[-100.74217, 20.58102], [-100.74212, 20.58009], [-100.74125, 20.5804], [-100.74124, 20.58005], [-100.74274, 20.57938], [-100.74275, 20.58085], [-100.74217, 20.58102]]]}}, {"id": "721240", "type": "Feature", "properties": {"id": "721240", "CVEGEO": "1100701652383003", "POBTOT": 101.0, "score_nse": 49.0374, "NSE": "C-", "VIVTOT": 29.0, "GRAPROES": 8.74, "_ent": "11", "_mun": "007", "_loc": "0165"}, "geometry": {"type": "Polygon", "coordinates": [[[-100.7422, 20.57061], [-100.74208, 20.572], [-100.74096, 20.57192], [-100.74104, 20.57107], [-100.7415, 20.5711], [-100.74105, 20.57101], [-100.7411, 20.57053], [-100.7422, 20.57061]]]}}, {"id": "721241", "type": "Feature", "properties": {"id": "721241", "CVEGEO": "1100701652383004", "POBTOT": 0.0, "score_nse": 0.0, "NSE": null, "VIVTOT": 0.0, "GRAPROES": 0.0, "_ent": "11", "_mun": "007", "_loc": "0165"}, "geometry": {"type": "Polygon", "coordinates": [[[-100.74207, 20.57206], [-100.74204, 20.57244], [-100.74091, 20.57235], [-100.74095, 20.57197], [-100.74207, 20.57206]]]}}, {"id": "721265", "type": "Feature", "properties": {"id": "721265", "CVEGEO": "1100701652862001", "POBTOT": 16.0, "score_nse": 0.0, "NSE": "ND", "VIVTOT": 3.0, "GRAPROES": 7.17, "_ent": "11", "_mun": "007", "_loc": "0165"}, "geometry": {"type": "Polygon", "coordinates": [[[-100.74016, 20.57563], [-100.74017, 20.57502], [-100.74075, 20.57506], [-100.74073, 20.57565], [-100.74016, 20.57563]]]}}]}