{"type": "FeatureCollection", "features": [{"id": "712453", "type": "Feature", "properties": {"id": "712453", "CVEGEO": "1100702563199009", "POBTOT": 216.0, "score_nse": 55.2212, "NSE": "C", "VIVTOT": 49.0, "GRAPROES": 8.52, "_ent": "11", "_mun": "007", "_loc": "0256"}, "geometry": {"type": "Polygon", "coordinates": [[[-100.85038, 20.49644], [-100.85023, 20.49755], [-100.8499, 20.49757], [-100.85022, 20.4976], [-100.85013, 20.49809], [-100.84945, 20.49813], [-100.84942, 20.49702], [-100.84977, 20.49705], [-100.84942, 20.49697], [-100.84942, 20.49672], [-100.84956, 20.49672], [-100.84942, 20.49669], [-100.84942, 20.49633], [-100.85038, 20.49644]]]}}, {"id": "713426", "type": "Feature", "properties": {"id": "713426", "CVEGEO": "1100702563199006", "POBTOT": 371.0, "score_nse": 45.8776, "NSE": "C-", "VIVTOT": 103.0, "GRAPROES": 7.69, "_ent": "11", "_mun": "007", "_loc": "0256"}, "geometry": {"type": "Polygon", "coordinates": [[[-100.85835, 20.4964], [-100.85806, 20.4976], [-100.85625, 20.49785], [-100.85613, 20.49746], [-100.8579, 20.49733], [-100.85611, 20.49741], [-100.85514, 20.49724], [-100.85515, 20.49699], [-100.85584, 20.49706], [-100.8556, 20.49699], [-100.85559, 20.49666], [-100.85554, 20.49698], [-100.85517, 20.49694], [-100.85526, 20.49626], [-100.85613, 20.49626], [-100.85622, 20.49677], [-100.8562, 20.49625], [-100.8565, 20.49623], [-100.85651, 20.49706], [-100.85657, 20.49617], [-100.8568, 20.49608], [-100.8572, 20.4961], [-100.85704, 20.49691], [-100.85727, 20.4961], [-100.85808, 20.49631], [-100.85794, 20.49689], [-100.85815, 20.49633], [-100.85835, 20.4964]]]}}, {"id": "713428", "type": "Feature", "properties": {"id": "713428", "CVEGEO": "1100702563199025", "POBTOT": 44.0, "score_nse": 0.0, "NSE": "ND", "VIVTOT": 11.0, "GRAPROES": 8.24, "_ent": "11", "_mun": "007", "_loc": "0256"}, "geometry": {"type": "Polygon", "coordinates": [[[-100.85605, 20.49752], [-100.85554, 20.49768], [-100.8551, 20.4977], [-100.85514, 20.49728], [-100.85608, 20.49736], [-100.85605, 20.49752]]]}}, {"id": "713429", "type": "Feature", "properties": {"id": "713429", "CVEGEO": "1100702563199003", "POBTOT": 28.0, "score_nse": 0.0, "NSE": "ND", "VIVTOT": 8.0, "GRAPROES": 6.0, "_ent": "11", "_mun": "007", "_loc": "0256"}, "geometry": {"type": "Polygon", "coordinates": [[[-100.85216, 20.49672], [-100.85142, 20.49718], [-100.85138, 20.49717], [-100.85148, 20.49659], [-100.85216, 20.49672]]]}}, {"id": "716199", "type": "Feature", "properties": {"id": "716199", "CVEGEO": "1100702563199023", "POBTOT": 11.0, "score_nse": 0.0, "NSE": "ND", "VIVTOT": 5.0, "GRAPROES": 9.86, "_ent": "11", "_mun": "007", "_loc": "0256"}, "geometry": {"type": "Polygon", "coordinates": [[[-100.85928, 20.49769], [-100.8596, 20.49613], [-100.86007, 20.49632], [-100.85978, 20.4976], [-100.85928, 20.49769]]]}}, {"id": "716200", "type": "Feature", "properties": {"id": "716200", "CVEGEO": "1100702563199021", "POBTOT": 86.0, "score_nse": 0.0, "NSE": "ND", "VIVTOT": 28.0, "GRAPROES": 7.63, "_ent": "11", "_mun": "007", "_loc": "0256"}, "geometry": {"type": "Polygon", "coordinates": [[[-100.85977, 20.49611], [-100.85942, 20.49595], [-100.85943, 20.49554], [-100.85891, 20.49507], [-100.85917, 20.49504], [-100.85905, 20.49308], [-100.85964, 20.49307], [-100.85977, 20.49611]]]}}, {"id": "716298", "type": "Feature", "properties": {"id": "716298", "CVEGEO": "1100702563199020", "POBTOT": 8.0, "score_nse": 0.0, "NSE": "ND", "VIVTOT": 3.0, "GRAPROES": 0.0, "_ent": "11", "_mun": "007", "_loc": "0256"}, "geometry": {"type": "Polygon", "coordinates": [[[-100.84985, 20.49465], [-100.84992, 20.49476], [-100.84921, 20.49516], [-100.84907, 20.49471], [-100.84985, 20.49465]]]}}, {"id": "716299", "type": "Feature", "properties": {"id": "716299", "CVEGEO": "1100702563199019", "POBTOT": 39.0, "score_nse": 0.0, "NSE": "ND", "VIVTOT": 10.0, "GRAPROES": 8.37, "_ent": "11", "_mun": "007", "_loc": "0256"}, "geometry": {"type": "Polygon", "coordinates": [[[-100.85012, 20.49814], [-100.84967, 20.49863], [-100.84945, 20.49818], [-100.85012, 20.49814]]]}}, {"id": "716300", "type": "Feature", "properties": {"id": "716300", "CVEGEO": "1100702563199017", "POBTOT": 55.0, "score_nse": 0.0, "NSE": "ND", "VIVTOT": 12.0, "GRAPROES": 6.38, "_ent": "11", "_mun": "007", "_loc": "0256"}, "geometry": {"type": "Polygon", "coordinates": [[[-100.85158, 20.50075], [-100.85119, 20.50078], [-100.85093, 20.49969], [-100.85153, 20.49966], [-100.85158, 20.50075]]]}}, {"id": "717572", "type": "Feature", "properties": {"id": "717572", "CVEGEO": "1100702563748001", "POBTOT": 12.0, "score_nse": 0.0, "NSE": "ND", "VIVTOT": 5.0, "GRAPROES": 8.25, "_ent": "11", "_mun": "007", "_loc": "0256"}, "geometry": {"type": "Polygon", "coordinates": [[[-100.85041, 20.49958], [-100.85018, 20.49964], [-100.84956, 20.49875], [-100.84973, 20.49864], [-100.85041, 20.49958]]]}}, {"id": "717710", "type": "Feature", "properties": {"id": "717710", "CVEGEO": "1100702563269009", "POBTOT": 9.0, "score_nse": 0.0, "NSE": "ND", "VIVTOT": 3.0, "GRAPROES": 0.0, "_ent": "11", "_mun": "007", "_loc": "0256"}, "geometry": {"type": "Polygon", "coordinates": [[[-100.85448, 20.49107], [-100.85435, 20.49105], [-100.8544, 20.49045], [-100.85454, 20.49046], [-100.85448, 20.49107]]]}}, {"id": "717998", "type": "Feature", "properties": {"id": "717998", "CVEGEO": "1100702563269003", "POBTOT": 47.0, "score_nse": 40.5604, "NSE": "D+", "VIVTOT": 38.0, "GRAPROES": 10.13, "_ent": "11", "_mun": "007", "_loc": "0256"}, "geometry": {"type": "Polygon", "coordinates": [[[-100.85644, 20.49118], [-100.85457, 20.49107], [-100.8546, 20.49078], [-100.85647, 20.49089], [-100.85644, 20.49118]]]}}, {"id": "717999", "type": "Feature", "properties": {"id": "717999", "CVEGEO": "1100702563269004", "POBTOT": 62.0, "score_nse": 55.3438, "NSE": "C", "VIVTOT": 19.0, "GRAPROES": 9.79, "_ent": "11", "_mun": "007", "_loc": "0256"}, "geometry": {"type": "Polygon", "coordinates": [[[-100.85461, 20.4907], [-100.85463, 20.49046], [-100.85651, 20.49057], [-100.85649, 20.4908], [-100.85461, 20.4907]]]}}, {"id": "718000", "type": "Feature", "properties": {"id": "718000", "CVEGEO": "1100702563269006", "POBTOT": 9.0, "score_nse": 0.0, "NSE": "ND", "VIVTOT": 13.0, "GRAPROES": 0.0, "_ent": "11", "_mun": "007", "_loc": "0256"}, "geometry": {"type": "Polygon", "coordinates": [[[-100.85668, 20.4928], [-100.85619, 20.4928], [-100.8562, 20.49253], [-100.85649, 20.49253], [-100.85639, 20.49242], [-100.85649, 20.4915], [-100.85681, 20.49153], [-100.85668, 20.4928]]]}}, {"id": "718019", "type": "Feature", "properties": {"id": "718019", "CVEGEO": "1100702563752001", "POBTOT": 0.0, "score_nse": 0.0, "NSE": "ND", "VIVTOT": 0.0, "GRAPROES": 0.0, "_ent": "11", "_mun": "007", "_loc": "0256"}, "geometry": {"type": "Polygon", "coordinates": [[[-100.85486, 20.49945], [-100.85458, 20.49943], [-100.85463, 20.49901], [-100.85488, 20.49902], [-100.85486, 20.49945]]]}}, {"id": "718240", "type": "Feature", "properties": {"id": "718240", "CVEGEO": "1100702563199034", "POBTOT": 256.0, "score_nse": 0.0, "NSE": "ND", "VIVTOT": 66.0, "GRAPROES": 6.98, "_ent": "11", "_mun": "007", "_loc": "0256"}, "geometry": {"type": "Polygon", "coordinates": [[[-100.85218, 20.49927], [-100.85211, 20.49955], [-100.85127, 20.49958], [-100.85117, 20.49922], [-100.8512, 20.49958], [-100.85089, 20.4996], [-100.85087, 20.4991], [-100.85086, 20.49959], [-100.85058, 20.49961], [-100.84995, 20.49892], [-100.8499, 20.49855], [-100.85071, 20.49809], [-100.85106, 20.49889], [-100.85098, 20.49847], [-100.85127, 20.49876], [-100.85164, 20.49883], [-100.85104, 20.49848], [-100.85078, 20.49806], [-100.85113, 20.49805], [-100.85117, 20.49821], [-100.85119, 20.49805], [-100.85218, 20.49801], [-100.85183, 20.49909], [-100.85218, 20.49927]]]}}, {"id": "718241", "type": "Feature", "properties": {"id": "718241", "CVEGEO": "1100702563199014", "POBTOT": 283.0, "score_nse": 52.841, "NSE": "C-", "VIVTOT": 63.0, "GRAPROES": 7.69, "_ent": "11", "_mun": "007", "_loc": "0256"}, "geometry": {"type": "Polygon", "coordinates": [[[-100.85952, 20.49612], [-100.8594, 20.49661], [-100.85909, 20.49652], [-100.85903, 20.49565], [-100.85903, 20.4965], [-100.85843, 20.49633], [-100.85853, 20.49563], [-100.85837, 20.49631], [-100.85725, 20.49602], [-100.85727, 20.49563], [-100.85719, 20.49601], [-100.85659, 20.49608], [-100.85665, 20.49518], [-100.85726, 20.49501], [-100.8578, 20.49543], [-100.85838, 20.49531], [-100.8587, 20.49551], [-100.85906, 20.49541], [-100.8593, 20.49557], [-100.85933, 20.496], [-100.85952, 20.49612]]]}}, {"id": "718600", "type": "Feature", "properties": {"id": "718600", "CVEGEO": "1100702563199028", "POBTOT": 19.0, "score_nse": 0.0, "NSE": "ND", "VIVTOT": 6.0, "GRAPROES": 7.56, "_ent": "11", "_mun": "007", "_loc": "0256"}, "geometry": {"type": "Polygon", "coordinates": [[[-100.85855, 20.49409], [-100.859, 20.49374], [-100.85903, 20.49495], [-100.85859, 20.49491], [-100.85855, 20.49409]]]}}, {"id": "718601", "type": "Feature", "properties": {"id": "718601", "CVEGEO": "1100702563199032", "POBTOT": 13.0, "score_nse": 0.0, "NSE": "ND", "VIVTOT": 4.0, "GRAPROES": 7.75, "_ent": "11", "_mun": "007", "_loc": "0256"}, "geometry": {"type": "Polygon", "coordinates": [[[-100.85388, 20.49833], [-100.85334, 20.49835], [-100.85331, 20.49789], [-100.85311, 20.49781], [-100.85316, 20.49754], [-100.85336, 20.49755], [-100.85383, 20.4972], [-100.85387, 20.49687], [-100.85397, 20.49688], [-100.85384, 20.49731], [-100.85388, 20.49833]]]}}, {"id": "718602", "type": "Feature", "properties": {"id": "718602", "CVEGEO": "1100702563199037", "POBTOT": 47.0, "score_nse": 0.0, "NSE": "ND", "VIVTOT": 12.0, "GRAPROES": 7.72, "_ent": "11", "_mun": "007", "_loc": "0256"}, "geometry": {"type": "Polygon", "coordinates": [[[-100.85499, 20.49521], [-100.85493, 20.49495], [-100.8551, 20.4949], [-100.85657, 20.4949], [-100.85655, 20.49513], [-100.85628, 20.4952], [-100.85499, 20.49521]]]}}, {"id": "718603", "type": "Feature", "properties": {"id": "718603", "CVEGEO": "1100702563199038", "POBTOT": 54.0, "score_nse": 0.0, "NSE": "ND", "VIVTOT": 18.0, "GRAPROES": 7.51, "_ent": "11", "_mun": "007", "_loc": "0256"}, "geometry": {"type": "Polygon", "coordinates": [[[-100.85493, 20.49519], [-100.85445, 20.4954], [-100.85404, 20.49599], [-100.85379, 20.49593], [-100.85431, 20.49524], [-100.85488, 20.49497], [-100.85493, 20.49519]]]}}, {"id": "718604", "type": "Feature", "properties": {"id": "718604", "CVEGEO": "1100702563199036", "POBTOT": 57.0, "score_nse": 0.0, "NSE": "ND", "VIVTOT": 18.0, "GRAPROES": 7.8, "_ent": "11", "_mun": "007", "_loc": "0256"}, "geometry": {"type": "Polygon", "coordinates": [[[-100.85401, 20.49606], [-100.85377, 20.49678], [-100.85246, 20.49663], [-100.85323, 20.49601], [-100.85401, 20.49606]]]}}, {"id": "718605", "type": "Feature", "properties": {"id": "718605", "CVEGEO": "1100702563199040", "POBTOT": 13.0, "score_nse": 33.028, "NSE": "D+", "VIVTOT": 3.0, "GRAPROES": 7.38, "_ent": "11", "_mun": "007", "_loc": "0256"}, "geometry": {"type": "Polygon", "coordinates": [[[-100.85165, 20.5008], [-100.85207, 20.50054], [-100.85206, 20.50105], [-100.85166, 20.50096], [-100.85165, 20.5008]]]}}, {"id": "718610", "type": "Feature", "properties": {"id": "718610", "CVEGEO": "1100702563199035", "POBTOT": 83.0, "score_nse": 46.2009, "NSE": "C-", "VIVTOT": 17.0, "GRAPROES": 7.9, "_ent": "11", "_mun": "007", "_loc": "0256"}, "geometry": {"type": "Polygon", "coordinates": [[[-100.85214, 20.49956], [-100.85316, 20.50007], [-100.85258, 20.50118], [-100.85212, 20.50107], [-100.85216, 20.50043], [-100.85285, 20.50011], [-100.85215, 20.50034], [-100.85214, 20.49956]]]}}, {"id": "718611", "type": "Feature", "properties": {"id": "718611", "CVEGEO": "1100702563199033", "POBTOT": 14.0, "score_nse": 0.0, "NSE": "ND", "VIVTOT": 3.0, "GRAPROES": 8.44, "_ent": "11", "_mun": "007", "_loc": "0256"}, "geometry": {"type": "Polygon", "coordinates": [[[-100.8547, 20.49825], [-100.85498, 20.49821], [-100.8549, 20.49898], [-100.85463, 20.49898], [-100.8547, 20.49825]]]}}, {"id": "718612", "type": "Feature", "properties": {"id": "718612", "CVEGEO": "1100702563199039", "POBTOT": 0.0, "score_nse": 0.0, "NSE": "ND", "VIVTOT": 0.0, "GRAPROES": 0.0, "_ent": "11", "_mun": "007", "_loc": "0256"}, "geometry": {"type": "Polygon", "coordinates": [[[-100.85903, 20.49529], [-100.85871, 20.49541], [-100.85841, 20.49517], [-100.85789, 20.49526], [-100.85737, 20.49499], [-100.85664, 20.49511], [-100.85665, 20.49488], [-100.85877, 20.49503], [-100.85903, 20.49529]]]}}, {"id": "719371", "type": "Feature", "properties": {"id": "719371", "CVEGEO": "1100702563199001", "POBTOT": 53.0, "score_nse": 0.0, "NSE": "ND", "VIVTOT": 18.0, "GRAPROES": 6.69, "_ent": "11", "_mun": "007", "_loc": "0256"}, "geometry": {"type": "Polygon", "coordinates": [[[-100.85508, 20.49699], [-100.85498, 20.49815], [-100.85444, 20.49823], [-100.85441, 20.49795], [-100.85467, 20.49794], [-100.85467, 20.4974], [-100.85401, 20.49732], [-100.85405, 20.49686], [-100.85508, 20.49699]]]}}, {"id": "719372", "type": "Feature", "properties": {"id": "719372", "CVEGEO": "1100702563199002", "POBTOT": 14.0, "score_nse": 0.0, "NSE": "ND", "VIVTOT": 3.0, "GRAPROES": 9.13, "_ent": "11", "_mun": "007", "_loc": "0256"}, "geometry": {"type": "Polygon", "coordinates": [[[-100.85244, 20.50124], [-100.85422, 20.50097], [-100.8532, 20.50354], [-100.85215, 20.50351], [-100.85179, 20.50266], [-100.85211, 20.50195], [-100.85276, 20.50209], [-100.85214, 20.50189], [-100.85244, 20.50124]]]}}, {"id": "719373", "type": "Feature", "properties": {"id": "719373", "CVEGEO": "1100702563199005", "POBTOT": 69.0, "score_nse": 0.0, "NSE": "ND", "VIVTOT": 20.0, "GRAPROES": 7.7, "_ent": "11", "_mun": "007", "_loc": "0256"}, "geometry": {"type": "Polygon", "coordinates": [[[-100.85387, 20.49678], [-100.85411, 20.49608], [-100.85518, 20.49625], [-100.85508, 20.49692], [-100.85387, 20.49678]]]}}, {"id": "719374", "type": "Feature", "properties": {"id": "719374", "CVEGEO": "1100702563199013", "POBTOT": 166.0, "score_nse": 47.6115, "NSE": "C-", "VIVTOT": 41.0, "GRAPROES": 7.57, "_ent": "11", "_mun": "007", "_loc": "0256"}, "geometry": {"type": "Polygon", "coordinates": [[[-100.85655, 20.49525], [-100.8565, 20.49617], [-100.85413, 20.496], [-100.85437, 20.49559], [-100.8548, 20.49528], [-100.85497, 20.49529], [-100.85497, 20.49558], [-100.85502, 20.49529], [-100.85583, 20.49539], [-100.85655, 20.49525]]]}}, {"id": "719375", "type": "Feature", "properties": {"id": "719375", "CVEGEO": "1100702563199016", "POBTOT": 33.0, "score_nse": 0.0, "NSE": "ND", "VIVTOT": 10.0, "GRAPROES": 8.68, "_ent": "11", "_mun": "007", "_loc": "0256"}, "geometry": {"type": "Polygon", "coordinates": [[[-100.85207, 20.50048], [-100.85165, 20.50076], [-100.85161, 20.49966], [-100.85209, 20.49964], [-100.85207, 20.50048]]]}}, {"id": "719376", "type": "Feature", "properties": {"id": "719376", "CVEGEO": "1100702563199027", "POBTOT": 206.0, "score_nse": 48.1715, "NSE": "C-", "VIVTOT": 48.0, "GRAPROES": 7.45, "_ent": "11", "_mun": "007", "_loc": "0256"}, "geometry": {"type": "Polygon", "coordinates": [[[-100.85378, 20.49683], [-100.85374, 20.49715], [-100.85348, 20.49712], [-100.85306, 20.49746], [-100.85229, 20.49767], [-100.8522, 20.49795], [-100.8512, 20.498], [-100.85133, 20.4973], [-100.85148, 20.49723], [-100.85179, 20.4974], [-100.85152, 20.4972], [-100.85189, 20.49699], [-100.85193, 20.49712], [-100.85213, 20.49718], [-100.85192, 20.49697], [-100.85233, 20.49669], [-100.85378, 20.49683]]]}}, {"id": "719706", "type": "Feature", "properties": {"id": "719706", "CVEGEO": "1100702563269010", "POBTOT": 68.0, "score_nse": 0.0, "NSE": "ND", "VIVTOT": 27.0, "GRAPROES": 9.64, "_ent": "11", "_mun": "007", "_loc": "0256"}, "geometry": {"type": "Polygon", "coordinates": [[[-100.85555, 20.49013], [-100.85553, 20.4904], [-100.85444, 20.49036], [-100.85446, 20.49005], [-100.85555, 20.49013]]]}}, {"id": "719953", "type": "Feature", "properties": {"id": "719953", "CVEGEO": "1100702563199011", "POBTOT": 63.0, "score_nse": 0.0, "NSE": "ND", "VIVTOT": 24.0, "GRAPROES": 9.13, "_ent": "11", "_mun": "007", "_loc": "0256"}, "geometry": {"type": "Polygon", "coordinates": [[[-100.85047, 20.49637], [-100.85064, 20.49545], [-100.85136, 20.49565], [-100.8513, 20.49647], [-100.85047, 20.49637]]]}}, {"id": "719954", "type": "Feature", "properties": {"id": "719954", "CVEGEO": "1100702563199010", "POBTOT": 247.0, "score_nse": 52.529, "NSE": "C-", "VIVTOT": 67.0, "GRAPROES": 8.47, "_ent": "11", "_mun": "007", "_loc": "0256"}, "geometry": {"type": "Polygon", "coordinates": [[[-100.85062, 20.49504], [-100.85039, 20.49636], [-100.84942, 20.49625], [-100.84938, 20.49603], [-100.84937, 20.49624], [-100.84767, 20.4961], [-100.84996, 20.49484], [-100.85017, 20.49509], [-100.85062, 20.49504]]]}}, {"id": "719956", "type": "Feature", "properties": {"id": "719956", "CVEGEO": "1100702563199004", "POBTOT": 258.0, "score_nse": 50.9736, "NSE": "C-", "VIVTOT": 57.0, "GRAPROES": 8.32, "_ent": "11", "_mun": "007", "_loc": "0256"}, "geometry": {"type": "Polygon", "coordinates": [[[-100.85137, 20.49648], [-100.85141, 20.49563], [-100.85073, 20.49542], [-100.85063, 20.495], [-100.8502, 20.49505], [-100.85001, 20.49481], [-100.85095, 20.49425], [-100.8515, 20.49492], [-100.85122, 20.49507], [-100.85154, 20.49497], [-100.85237, 20.49653], [-100.85137, 20.49648]]]}}, {"id": "719974", "type": "Feature", "properties": {"id": "719974", "CVEGEO": "1100702563199041", "POBTOT": 34.0, "score_nse": 0.0, "NSE": "ND", "VIVTOT": 9.0, "GRAPROES": 7.79, "_ent": "11", "_mun": "007", "_loc": "0256"}, "geometry": {"type": "Polygon", "coordinates": [[[-100.85462, 20.49791], [-100.85437, 20.49785], [-100.8544, 20.49825], [-100.85395, 20.49832], [-100.85391, 20.49738], [-100.85458, 20.49746], [-100.85462, 20.49791]]]}}, {"id": "720048", "type": "Feature", "properties": {"id": "720048", "CVEGEO": "1100702563733001", "POBTOT": 17.0, "score_nse": 63.9724, "NSE": "C", "VIVTOT": 9.0, "GRAPROES": 10.25, "_ent": "11", "_mun": "007", "_loc": "0256"}, "geometry": {"type": "Polygon", "coordinates": [[[-100.85165, 20.49492], [-100.85353, 20.49441], [-100.85343, 20.49464], [-100.85176, 20.49509], [-100.85165, 20.49492]]]}}, {"id": "720049", "type": "Feature", "properties": {"id": "720049", "CVEGEO": "1100702563199022", "POBTOT": 66.0, "score_nse": 0.0, "NSE": "ND", "VIVTOT": 22.0, "GRAPROES": 7.54, "_ent": "11", "_mun": "007", "_loc": "0256"}, "geometry": {"type": "Polygon", "coordinates": [[[-100.86035, 20.49446], [-100.86048, 20.49642], [-100.85984, 20.49613], [-100.85972, 20.49307], [-100.85991, 20.49307], [-100.86004, 20.49388], [-100.86035, 20.49446]]]}}, {"id": "720050", "type": "Feature", "properties": {"id": "720050", "CVEGEO": "1100702563199015", "POBTOT": 38.0, "score_nse": 0.0, "NSE": "ND", "VIVTOT": 11.0, "GRAPROES": 8.45, "_ent": "11", "_mun": "007", "_loc": "0256"}, "geometry": {"type": "Polygon", "coordinates": [[[-100.85923, 20.49751], [-100.85862, 20.49757], [-100.85883, 20.49653], [-100.85938, 20.49669], [-100.85923, 20.49751]]]}}, {"id": "720087", "type": "Feature", "properties": {"id": "720087", "CVEGEO": "1100702563269002", "POBTOT": 142.0, "score_nse": 45.4138, "NSE": "C-", "VIVTOT": 63.0, "GRAPROES": 9.3, "_ent": "11", "_mun": "007", "_loc": "0256"}, "geometry": {"type": "Polygon", "coordinates": [[[-100.85695, 20.49021], [-100.85681, 20.49145], [-100.8565, 20.49142], [-100.85661, 20.4905], [-100.8557, 20.49044], [-100.85572, 20.49013], [-100.85695, 20.49021]]]}}, {"id": "720164", "type": "Feature", "properties": {"id": "720164", "CVEGEO": "1100702563199043", "POBTOT": 35.0, "score_nse": 0.0, "NSE": "ND", "VIVTOT": 12.0, "GRAPROES": 8.63, "_ent": "11", "_mun": "007", "_loc": "0256"}, "geometry": {"type": "Polygon", "coordinates": [[[-100.85695, 20.49932], [-100.85661, 20.49936], [-100.85655, 20.49789], [-100.85716, 20.4978], [-100.85716, 20.49824], [-100.85693, 20.49826], [-100.85695, 20.49932]]]}}, {"id": "720234", "type": "Feature", "properties": {"id": "720234", "CVEGEO": "1100702563199042", "POBTOT": 43.0, "score_nse": 0.0, "NSE": "ND", "VIVTOT": 13.0, "GRAPROES": 6.5, "_ent": "11", "_mun": "007", "_loc": "0256"}, "geometry": {"type": "Polygon", "coordinates": [[[-100.85626, 20.49942], [-100.85604, 20.49801], [-100.8565, 20.49788], [-100.85654, 20.49941], [-100.85682, 20.49936], [-100.85684, 20.4997], [-100.85601, 20.49973], [-100.856, 20.49947], [-100.85626, 20.49942]]]}}, {"id": "720261", "type": "Feature", "properties": {"id": "720261", "CVEGEO": "1100702563199045", "POBTOT": 4.0, "score_nse": 0.0, "NSE": "ND", "VIVTOT": 3.0, "GRAPROES": 0.0, "_ent": "11", "_mun": "007", "_loc": "0256"}, "geometry": {"type": "Polygon", "coordinates": [[[-100.86068, 20.49309], [-100.86088, 20.49646], [-100.86085, 20.4969], [-100.86053, 20.49646], [-100.86041, 20.49445], [-100.8601, 20.49386], [-100.85997, 20.49307], [-100.86068, 20.49309]]]}}, {"id": "720262", "type": "Feature", "properties": {"id": "720262", "CVEGEO": "1100702563199044", "POBTOT": 14.0, "score_nse": 0.0, "NSE": "ND", "VIVTOT": 4.0, "GRAPROES": 10.2, "_ent": "11", "_mun": "007", "_loc": "0256"}, "geometry": {"type": "Polygon", "coordinates": [[[-100.85856, 20.49758], [-100.85811, 20.4976], [-100.85842, 20.49642], [-100.85877, 20.49651], [-100.85856, 20.49758]]]}}, {"id": "720326", "type": "Feature", "properties": {"id": "720326", "CVEGEO": "1100702563269007", "POBTOT": 5.0, "score_nse": 0.0, "NSE": "ND", "VIVTOT": 4.0, "GRAPROES": 0.0, "_ent": "11", "_mun": "007", "_loc": "0256"}, "geometry": {"type": "Polygon", "coordinates": [[[-100.85595, 20.49245], [-100.85561, 20.49244], [-100.85569, 20.49162], [-100.85604, 20.49164], [-100.85595, 20.49245]]]}}, {"id": "720382", "type": "Feature", "properties": {"id": "720382", "CVEGEO": "1100702563269011", "POBTOT": 0.0, "score_nse": 0.0, "NSE": "ND", "VIVTOT": 0.0, "GRAPROES": 0.0, "_ent": "11", "_mun": "007", "_loc": "0256"}, "geometry": {"type": "Polygon", "coordinates": [[[-100.8564, 20.49167], [-100.85632, 20.49245], [-100.85601, 20.49245], [-100.85609, 20.49165], [-100.8564, 20.49167]]]}}, {"id": "720636", "type": "Feature", "properties": {"id": "720636", "CVEGEO": "1100702563199008", "POBTOT": 243.0, "score_nse": 50.8933, "NSE": "C-", "VIVTOT": 60.0, "GRAPROES": 7.63, "_ent": "11", "_mun": "007", "_loc": "0256"}, "geometry": {"type": "Polygon", "coordinates": [[[-100.85113, 20.49798], [-100.85019, 20.49811], [-100.85046, 20.49645], [-100.85141, 20.49658], [-100.85127, 20.49736], [-100.85059, 20.49724], [-100.85126, 20.49741], [-100.85113, 20.49798]]]}}, {"id": "720637", "type": "Feature", "properties": {"id": "720637", "CVEGEO": "1100702563748002", "POBTOT": 5.0, "score_nse": 0.0, "NSE": "ND", "VIVTOT": 2.0, "GRAPROES": 0.0, "_ent": "11", "_mun": "007", "_loc": "0256"}, "geometry": {"type": "Polygon", "coordinates": [[[-100.85026, 20.49972], [-100.85085, 20.49967], [-100.85109, 20.50067], [-100.85084, 20.50073], [-100.85026, 20.49972]]]}}, {"id": "720848", "type": "Feature", "properties": {"id": "720848", "CVEGEO": "1100702563199007", "POBTOT": 11.0, "score_nse": 0.0, "NSE": "ND", "VIVTOT": 3.0, "GRAPROES": 5.71, "_ent": "11", "_mun": "007", "_loc": "0256"}, "geometry": {"type": "Polygon", "coordinates": [[[-100.85511, 20.49776], [-100.8561, 20.4976], [-100.85621, 20.49789], [-100.85548, 20.49808], [-100.85534, 20.49854], [-100.85504, 20.49854], [-100.85511, 20.49776]]]}}, {"id": "720849", "type": "Feature", "properties": {"id": "720849", "CVEGEO": "1100702563199026", "POBTOT": 37.0, "score_nse": 0.0, "NSE": "ND", "VIVTOT": 8.0, "GRAPROES": 7.38, "_ent": "11", "_mun": "007", "_loc": "0256"}, "geometry": {"type": "Polygon", "coordinates": [[[-100.85503, 20.49862], [-100.85534, 20.49862], [-100.85534, 20.49909], [-100.8552, 20.49909], [-100.85521, 20.49943], [-100.85497, 20.49943], [-100.85503, 20.49862]]]}}, {"id": "720850", "type": "Feature", "properties": {"id": "720850", "CVEGEO": "1100702563269001", "POBTOT": 66.0, "score_nse": 41.9359, "NSE": "D+", "VIVTOT": 59.0, "GRAPROES": 10.89, "_ent": "11", "_mun": "007", "_loc": "0256"}, "geometry": {"type": "Polygon", "coordinates": [[[-100.85431, 20.49142], [-100.85434, 20.49114], [-100.85643, 20.49127], [-100.85641, 20.49155], [-100.85431, 20.49142]]]}}, {"id": "720851", "type": "Feature", "properties": {"id": "720851", "CVEGEO": "1100702563269008", "POBTOT": 0.0, "score_nse": 0.0, "NSE": "ND", "VIVTOT": 0.0, "GRAPROES": 0.0, "_ent": "11", "_mun": "007", "_loc": "0256"}, "geometry": {"type": "Polygon", "coordinates": [[[-100.85421, 20.49254], [-100.85503, 20.4925], [-100.85504, 20.49277], [-100.85415, 20.4928], [-100.85421, 20.49254]]]}}, {"id": "720852", "type": "Feature", "properties": {"id": "720852", "CVEGEO": "1100702563269012", "POBTOT": 0.0, "score_nse": 0.0, "NSE": null, "VIVTOT": 0.0, "GRAPROES": 0.0, "_ent": "11", "_mun": "007", "_loc": "0256"}, "geometry": {"type": "Polygon", "coordinates": [[[-100.85519, 20.49277], [-100.85519, 20.4925], [-100.85607, 20.49254], [-100.85606, 20.49281], [-100.85519, 20.49277]]]}}, {"id": "720853", "type": "Feature", "properties": {"id": "720853", "CVEGEO": "1100702563269013", "POBTOT": 0.0, "score_nse": 0.0, "NSE": null, "VIVTOT": 0.0, "GRAPROES": 0.0, "_ent": "11", "_mun": "007", "_loc": "0256"}, "geometry": {"type": "Polygon", "coordinates": [[[-100.85562, 20.49162], [-100.85554, 20.49245], [-100.85523, 20.49241], [-100.85532, 20.4916], [-100.85562, 20.49162]]]}}, {"id": "720854", "type": "Feature", "properties": {"id": "720854", "CVEGEO": "1100702563269014", "POBTOT": 0.0, "score_nse": 0.0, "NSE": null, "VIVTOT": 0.0, "GRAPROES": 0.0, "_ent": "11", "_mun": "007", "_loc": "0256"}, "geometry": {"type": "Polygon", "coordinates": [[[-100.85421, 20.4924], [-100.85429, 20.49151], [-100.85445, 20.49153], [-100.85435, 20.4924], [-100.85421, 20.4924]]]}}, {"id": "721055", "type": "Feature", "properties": {"id": "721055", "CVEGEO": "1100702563199012", "POBTOT": 250.0, "score_nse": 52.7664, "NSE": "C-", "VIVTOT": 64.0, "GRAPROES": 8.1, "_ent": "11", "_mun": "007", "_loc": "0256"}, "geometry": {"type": "Polygon", "coordinates": [[[-100.85899, 20.49368], [-100.85845, 20.49408], [-100.85848, 20.4949], [-100.85798, 20.49484], [-100.85797, 20.49433], [-100.85708, 20.49435], [-100.85698, 20.49394], [-100.85703, 20.49474], [-100.85502, 20.49485], [-100.85415, 20.49525], [-100.85361, 20.4959], [-100.85312, 20.49597], [-100.85244, 20.4965], [-100.8523, 20.49613], [-100.85274, 20.49587], [-100.85227, 20.49607], [-100.85203, 20.49562], [-100.85318, 20.49524], [-100.85202, 20.49556], [-100.8518, 20.49517], [-100.85255, 20.49496], [-100.85263, 20.49512], [-100.85331, 20.49497], [-100.85358, 20.49442], [-100.85405, 20.4942], [-100.85441, 20.49423], [-100.85523, 20.49475], [-100.85616, 20.49432], [-100.85628, 20.49303], [-100.85896, 20.49307], [-100.85899, 20.49368]]]}}, {"id": "721056", "type": "Feature", "properties": {"id": "721056", "CVEGEO": "1100702563199046", "POBTOT": 0.0, "score_nse": 0.0, "NSE": null, "VIVTOT": 0.0, "GRAPROES": 0.0, "_ent": "11", "_mun": "007", "_loc": "0256"}, "geometry": {"type": "Polygon", "coordinates": [[[-100.85789, 20.49483], [-100.85711, 20.49474], [-100.85709, 20.49444], [-100.85788, 20.49444], [-100.85789, 20.49483]]]}}, {"id": "721095", "type": "Feature", "properties": {"id": "721095", "CVEGEO": "1100702563269015", "POBTOT": 0.0, "score_nse": 0.0, "NSE": null, "VIVTOT": 0.0, "GRAPROES": 0.0, "_ent": "11", "_mun": "007", "_loc": "0256"}, "geometry": {"type": "Polygon", "coordinates": [[[-100.85445, 20.49241], [-100.85456, 20.49152], [-100.85484, 20.49155], [-100.85475, 20.49239], [-100.85445, 20.49241]]]}}, {"id": "721096", "type": "Feature", "properties": {"id": "721096", "CVEGEO": "1100702563269016", "POBTOT": 0.0, "score_nse": 0.0, "NSE": null, "VIVTOT": 0.0, "GRAPROES": 0.0, "_ent": "11", "_mun": "007", "_loc": "0256"}, "geometry": {"type": "Polygon", "coordinates": [[[-100.8549, 20.49155], [-100.85521, 20.49158], [-100.85513, 20.49238], [-100.85481, 20.49239], [-100.8549, 20.49155]]]}}]}