{"type": "FeatureCollection", "features": [{"id": "1296600", "type": "Feature", "properties": {"id": "1296600", "CVEGEO": "1608300310080001", "POBTOT": 0.0, "score_nse": 0.0, "NSE": null, "VIVTOT": 0.0, "GRAPROES": 0.0, "_ent": "16", "_mun": "083", "_loc": "0031"}, "geometry": {"type": "Polygon", "coordinates": [[[-102.33834, 19.24455], [-102.3384, 19.24467], [-102.33778, 19.24546], [-102.33797, 19.24651], [-102.33765, 19.24707], [-102.3379, 19.2475], [-102.33744, 19.24861], [-102.33646, 19.24855], [-102.33659, 19.24772], [-102.33689, 19.2477], [-102.33708, 19.24728], [-102.33684, 19.24764], [-102.3366, 19.24767], [-102.33668, 19.24693], [-102.33651, 19.24598], [-102.33663, 19.24494], [-102.33701, 19.24491], [-102.33663, 19.24488], [-102.33661, 19.24466], [-102.33834, 19.24455]]]}}, {"id": "1296601", "type": "Feature", "properties": {"id": "1296601", "CVEGEO": "1608300310080003", "POBTOT": 0.0, "score_nse": 0.0, "NSE": null, "VIVTOT": 0.0, "GRAPROES": 0.0, "_ent": "16", "_mun": "083", "_loc": "0031"}, "geometry": {"type": "Polygon", "coordinates": [[[-102.33565, 19.24518], [-102.3354, 19.24396], [-102.33585, 19.24342], [-102.33587, 19.24297], [-102.33642, 19.2428], [-102.33715, 19.24189], [-102.33774, 19.24036], [-102.33787, 19.23956], [-102.3383, 19.23917], [-102.3388, 19.23927], [-102.33943, 19.23918], [-102.33951, 19.23929], [-102.33849, 19.24014], [-102.33771, 19.24218], [-102.33665, 19.24377], [-102.3365, 19.24486], [-102.33605, 19.24488], [-102.33565, 19.24518]]]}}, {"id": "1296610", "type": "Feature", "properties": {"id": "1296610", "CVEGEO": "1608300310080002", "POBTOT": 0.0, "score_nse": 0.0, "NSE": null, "VIVTOT": 0.0, "GRAPROES": 0.0, "_ent": "16", "_mun": "083", "_loc": "0031"}, "geometry": {"type": "Polygon", "coordinates": [[[-102.33599, 19.24554], [-102.33611, 19.24494], [-102.3365, 19.24494], [-102.33642, 19.24598], [-102.3366, 19.24717], [-102.3362, 19.24695], [-102.33605, 19.24658], [-102.33599, 19.24554]]]}}, {"id": "1296611", "type": "Feature", "properties": {"id": "1296611", "CVEGEO": "1608300310080010", "POBTOT": 0.0, "score_nse": 0.0, "NSE": null, "VIVTOT": 0.0, "GRAPROES": 0.0, "_ent": "16", "_mun": "083", "_loc": "0031"}, "geometry": {"type": "Polygon", "coordinates": [[[-102.3378, 19.24222], [-102.33829, 19.24083], [-102.33873, 19.24095], [-102.33985, 19.24047], [-102.3396, 19.24044], [-102.33872, 19.24088], [-102.33831, 19.24077], [-102.33857, 19.24019], [-102.33927, 19.23955], [-102.33972, 19.23973], [-102.34018, 19.24051], [-102.34011, 19.2409], [-102.33991, 19.24109], [-102.33889, 19.24155], [-102.33835, 19.24211], [-102.3375, 19.24346], [-102.33887, 19.2428], [-102.33981, 19.2421], [-102.34006, 19.24215], [-102.34057, 19.24272], [-102.33913, 19.244], [-102.33828, 19.24442], [-102.33662, 19.24459], [-102.33674, 19.2438], [-102.3378, 19.24222]]]}}]}