{"type": "FeatureCollection", "features": [{"id": "1670383", "type": "Feature", "properties": {"id": "1670383", "CVEGEO": "2108500310067016", "POBTOT": 0.0, "score_nse": 0.0, "NSE": null, "VIVTOT": 0.0, "GRAPROES": 0.0, "_ent": "21", "_mun": "085", "_loc": "0031"}, "geometry": {"type": "Polygon", "coordinates": [[[-98.42325, 18.5687], [-98.42309, 18.56796], [-98.42324, 18.5677], [-98.42381, 18.56822], [-98.42325, 18.5687]]]}}, {"id": "1670400", "type": "Feature", "properties": {"id": "1670400", "CVEGEO": "2108500310067004", "POBTOT": 0.0, "score_nse": 0.0, "NSE": null, "VIVTOT": 0.0, "GRAPROES": 0.0, "_ent": "21", "_mun": "085", "_loc": "0031"}, "geometry": {"type": "Polygon", "coordinates": [[[-98.42514, 18.56942], [-98.42591, 18.56856], [-98.42624, 18.56886], [-98.42584, 18.57006], [-98.42514, 18.56942]]]}}, {"id": "1670401", "type": "Feature", "properties": {"id": "1670401", "CVEGEO": "2108500310067003", "POBTOT": 0.0, "score_nse": 0.0, "NSE": null, "VIVTOT": 0.0, "GRAPROES": 0.0, "_ent": "21", "_mun": "085", "_loc": "0031"}, "geometry": {"type": "Polygon", "coordinates": [[[-98.42504, 18.56932], [-98.42451, 18.5688], [-98.42528, 18.56804], [-98.42587, 18.56853], [-98.42504, 18.56932]]]}}, {"id": "1670402", "type": "Feature", "properties": {"id": "1670402", "CVEGEO": "2108500310067002", "POBTOT": 0.0, "score_nse": 0.0, "NSE": null, "VIVTOT": 0.0, "GRAPROES": 0.0, "_ent": "21", "_mun": "085", "_loc": "0031"}, "geometry": {"type": "Polygon", "coordinates": [[[-98.42422, 18.57015], [-98.42367, 18.56963], [-98.42447, 18.56884], [-98.42502, 18.56937], [-98.42422, 18.57015]]]}}, {"id": "1670403", "type": "Feature", "properties": {"id": "1670403", "CVEGEO": "2108500310067001", "POBTOT": 0.0, "score_nse": 0.0, "NSE": null, "VIVTOT": 0.0, "GRAPROES": 0.0, "_ent": "21", "_mun": "085", "_loc": "0031"}, "geometry": {"type": "Polygon", "coordinates": [[[-98.4248, 18.57068], [-98.42424, 18.57019], [-98.42506, 18.56942], [-98.42563, 18.56994], [-98.4248, 18.57068]]]}}, {"id": "1670521", "type": "Feature", "properties": {"id": "1670521", "CVEGEO": "2108500310067012", "POBTOT": 0.0, "score_nse": 0.0, "NSE": null, "VIVTOT": 0.0, "GRAPROES": 0.0, "_ent": "21", "_mun": "085", "_loc": "0031"}, "geometry": {"type": "Polygon", "coordinates": [[[-98.42328, 18.56766], [-98.42379, 18.56719], [-98.42436, 18.5677], [-98.42385, 18.56818], [-98.42328, 18.56766]]]}}, {"id": "1670522", "type": "Feature", "properties": {"id": "1670522", "CVEGEO": "2108500310067011", "POBTOT": 0.0, "score_nse": 0.0, "NSE": null, "VIVTOT": 0.0, "GRAPROES": 0.0, "_ent": "21", "_mun": "085", "_loc": "0031"}, "geometry": {"type": "Polygon", "coordinates": [[[-98.42541, 18.57139], [-98.42596, 18.5719], [-98.4258, 18.57207], [-98.42475, 18.57198], [-98.42541, 18.57139]]]}}, {"id": "1670523", "type": "Feature", "properties": {"id": "1670523", "CVEGEO": "2108500310067010", "POBTOT": 0.0, "score_nse": 0.0, "NSE": null, "VIVTOT": 0.0, "GRAPROES": 0.0, "_ent": "21", "_mun": "085", "_loc": "0031"}, "geometry": {"type": "Polygon", "coordinates": [[[-98.42548, 18.57135], [-98.42629, 18.57052], [-98.42689, 18.571], [-98.42601, 18.57187], [-98.42548, 18.57135]]]}}, {"id": "1670524", "type": "Feature", "properties": {"id": "1670524", "CVEGEO": "2108500310067009", "POBTOT": 0.0, "score_nse": 0.0, "NSE": null, "VIVTOT": 0.0, "GRAPROES": 0.0, "_ent": "21", "_mun": "085", "_loc": "0031"}, "geometry": {"type": "Polygon", "coordinates": [[[-98.42597, 18.56854], [-98.42665, 18.5679], [-98.42686, 18.56778], [-98.42626, 18.56881], [-98.42597, 18.56854]]]}}, {"id": "1670641", "type": "Feature", "properties": {"id": "1670641", "CVEGEO": "2108500310067007", "POBTOT": 0.0, "score_nse": 0.0, "NSE": null, "VIVTOT": 0.0, "GRAPROES": 0.0, "_ent": "21", "_mun": "085", "_loc": "0031"}, "geometry": {"type": "Polygon", "coordinates": [[[-98.42363, 18.56956], [-98.42327, 18.56875], [-98.42385, 18.56826], [-98.42443, 18.5688], [-98.42363, 18.56956]]]}}, {"id": "1670642", "type": "Feature", "properties": {"id": "1670642", "CVEGEO": "2108500310067006", "POBTOT": 0.0, "score_nse": 0.0, "NSE": null, "VIVTOT": 0.0, "GRAPROES": 0.0, "_ent": "21", "_mun": "085", "_loc": "0031"}, "geometry": {"type": "Polygon", "coordinates": [[[-98.42467, 18.57197], [-98.4242, 18.57186], [-98.42399, 18.57155], [-98.42483, 18.57078], [-98.42537, 18.57136], [-98.42467, 18.57197]]]}}, {"id": "1670643", "type": "Feature", "properties": {"id": "1670643", "CVEGEO": "2108500310067005", "POBTOT": 0.0, "score_nse": 0.0, "NSE": null, "VIVTOT": 0.0, "GRAPROES": 0.0, "_ent": "21", "_mun": "085", "_loc": "0031"}, "geometry": {"type": "Polygon", "coordinates": [[[-98.42539, 18.57131], [-98.42486, 18.57073], [-98.42567, 18.56998], [-98.42624, 18.57048], [-98.42539, 18.57131]]]}}, {"id": "1671051", "type": "Feature", "properties": {"id": "1671051", "CVEGEO": "2108500310067015", "POBTOT": 0.0, "score_nse": 0.0, "NSE": null, "VIVTOT": 0.0, "GRAPROES": 0.0, "_ent": "21", "_mun": "085", "_loc": "0031"}, "geometry": {"type": "Polygon", "coordinates": [[[-98.4241, 18.5666], [-98.42348, 18.56739], [-98.42295, 18.56668], [-98.42377, 18.56607], [-98.4241, 18.5666]]]}}, {"id": "1671202", "type": "Feature", "properties": {"id": "1671202", "CVEGEO": "2108500310067008", "POBTOT": 0.0, "score_nse": 0.0, "NSE": null, "VIVTOT": 0.0, "GRAPROES": 0.0, "_ent": "21", "_mun": "085", "_loc": "0031"}, "geometry": {"type": "Polygon", "coordinates": [[[-98.42443, 18.56872], [-98.42389, 18.56822], [-98.42441, 18.56773], [-98.42522, 18.56802], [-98.42443, 18.56872]]]}}, {"id": "1671620", "type": "Feature", "properties": {"id": "1671620", "CVEGEO": "2108500310067017", "POBTOT": 0.0, "score_nse": 0.0, "NSE": null, "VIVTOT": 0.0, "GRAPROES": 0.0, "_ent": "21", "_mun": "085", "_loc": "0031"}, "geometry": {"type": "Polygon", "coordinates": [[[-98.4269, 18.56757], [-98.42594, 18.56844], [-98.42526, 18.56793], [-98.42535, 18.56783], [-98.42576, 18.5681], [-98.42604, 18.56803], [-98.42636, 18.56775], [-98.42618, 18.56749], [-98.42638, 18.56732], [-98.4269, 18.56757]]]}}, {"id": "1671625", "type": "Feature", "properties": {"id": "1671625", "CVEGEO": "2108500310067020", "POBTOT": 0.0, "score_nse": 0.0, "NSE": null, "VIVTOT": 0.0, "GRAPROES": 0.0, "_ent": "21", "_mun": "085", "_loc": "0031"}, "geometry": {"type": "Polygon", "coordinates": [[[-98.42581, 18.57247], [-98.42571, 18.57217], [-98.42601, 18.57194], [-98.42602, 18.57233], [-98.42581, 18.57247]]]}}, {"id": "1671626", "type": "Feature", "properties": {"id": "1671626", "CVEGEO": "2108500310067018", "POBTOT": 0.0, "score_nse": 0.0, "NSE": null, "VIVTOT": 0.0, "GRAPROES": 0.0, "_ent": "21", "_mun": "085", "_loc": "0031"}, "geometry": {"type": "Polygon", "coordinates": [[[-98.42421, 18.5702], [-98.42349, 18.57095], [-98.42315, 18.57018], [-98.42365, 18.56965], [-98.42421, 18.5702]]]}}, {"id": "1671627", "type": "Feature", "properties": {"id": "1671627", "CVEGEO": "2108500310067019", "POBTOT": 0.0, "score_nse": 0.0, "NSE": null, "VIVTOT": 0.0, "GRAPROES": 0.0, "_ent": "21", "_mun": "085", "_loc": "0031"}, "geometry": {"type": "Polygon", "coordinates": [[[-98.42412, 18.57186], [-98.42389, 18.57177], [-98.42352, 18.57097], [-98.42423, 18.57024], [-98.42481, 18.57074], [-98.42393, 18.57153], [-98.42412, 18.57186]]]}}, {"id": "1671683", "type": "Feature", "properties": {"id": "1671683", "CVEGEO": "2108500310067014", "POBTOT": 0.0, "score_nse": 0.0, "NSE": null, "VIVTOT": 0.0, "GRAPROES": 0.0, "_ent": "21", "_mun": "085", "_loc": "0031"}, "geometry": {"type": "Polygon", "coordinates": [[[-98.42609, 18.57246], [-98.42605, 18.57191], [-98.42667, 18.57245], [-98.42645, 18.57267], [-98.42609, 18.57246]]]}}, {"id": "1671987", "type": "Feature", "properties": {"id": "1671987", "CVEGEO": "2108500310067013", "POBTOT": 0.0, "score_nse": 0.0, "NSE": null, "VIVTOT": 0.0, "GRAPROES": 0.0, "_ent": "21", "_mun": "085", "_loc": "0031"}, "geometry": {"type": "Polygon", "coordinates": [[[-98.42753, 18.5715], [-98.42679, 18.57233], [-98.42618, 18.57187], [-98.42698, 18.57104], [-98.42753, 18.5715]]]}}, {"id": "1671988", "type": "Feature", "properties": {"id": "1671988", "CVEGEO": "2108500310067021", "POBTOT": 0.0, "score_nse": 0.0, "NSE": null, "VIVTOT": 0.0, "GRAPROES": 0.0, "_ent": "21", "_mun": "085", "_loc": "0031"}, "geometry": {"type": "Polygon", "coordinates": [[[-98.42784, 18.57194], [-98.42763, 18.57199], [-98.42718, 18.57212], [-98.42756, 18.57155], [-98.42784, 18.57194]]]}}]}