{"type": "FeatureCollection", "features": [{"id": "330785", "type": "Feature", "properties": {"id": "330785", "CVEGEO": "0710400820030001", "POBTOT": 0.0, "score_nse": 0.0, "NSE": null, "VIVTOT": 0.0, "GRAPROES": 0.0, "_ent": "07", "_mun": "104", "_loc": "0082"}, "geometry": {"type": "Polygon", "coordinates": [[[-92.25701, 16.15598], [-92.25701, 16.15538], [-92.25756, 16.1554], [-92.25756, 16.15598], [-92.25701, 16.15598]]]}}, {"id": "330863", "type": "Feature", "properties": {"id": "330863", "CVEGEO": "0710400820030014", "POBTOT": 0.0, "score_nse": 0.0, "NSE": null, "VIVTOT": 0.0, "GRAPROES": 0.0, "_ent": "07", "_mun": "104", "_loc": "0082"}, "geometry": {"type": "Polygon", "coordinates": [[[-92.25358, 16.15535], [-92.25408, 16.15467], [-92.2547, 16.15504], [-92.25417, 16.15573], [-92.25358, 16.15535]]]}}, {"id": "330864", "type": "Feature", "properties": {"id": "330864", "CVEGEO": "0710400820030013", "POBTOT": 0.0, "score_nse": 0.0, "NSE": null, "VIVTOT": 0.0, "GRAPROES": 0.0, "_ent": "07", "_mun": "104", "_loc": "0082"}, "geometry": {"type": "Polygon", "coordinates": [[[-92.25353, 16.15647], [-92.25297, 16.15614], [-92.2535, 16.15545], [-92.25409, 16.15582], [-92.25353, 16.15647]]]}}, {"id": "330865", "type": "Feature", "properties": {"id": "330865", "CVEGEO": "0710400820030011", "POBTOT": 0.0, "score_nse": 0.0, "NSE": null, "VIVTOT": 0.0, "GRAPROES": 0.0, "_ent": "07", "_mun": "104", "_loc": "0082"}, "geometry": {"type": "Polygon", "coordinates": [[[-92.25832, 16.1558], [-92.25952, 16.15588], [-92.25952, 16.15678], [-92.25833, 16.15678], [-92.25832, 16.1558]]]}}, {"id": "330935", "type": "Feature", "properties": {"id": "330935", "CVEGEO": "0710400820030008", "POBTOT": 0.0, "score_nse": 0.0, "NSE": null, "VIVTOT": 0.0, "GRAPROES": 0.0, "_ent": "07", "_mun": "104", "_loc": "0082"}, "geometry": {"type": "Polygon", "coordinates": [[[-92.25606, 16.15675], [-92.2558, 16.15675], [-92.25508, 16.15647], [-92.25543, 16.15607], [-92.2557, 16.15607], [-92.25575, 16.15635], [-92.25579, 16.15607], [-92.25605, 16.15607], [-92.25606, 16.15675]]]}}, {"id": "330936", "type": "Feature", "properties": {"id": "330936", "CVEGEO": "0710400820030007", "POBTOT": 0.0, "score_nse": 0.0, "NSE": null, "VIVTOT": 0.0, "GRAPROES": 0.0, "_ent": "07", "_mun": "104", "_loc": "0082"}, "geometry": {"type": "Polygon", "coordinates": [[[-92.25615, 16.15677], [-92.25614, 16.15606], [-92.25689, 16.15607], [-92.25689, 16.15676], [-92.25615, 16.15677]]]}}, {"id": "330937", "type": "Feature", "properties": {"id": "330937", "CVEGEO": "0710400820030004", "POBTOT": 0.0, "score_nse": 0.0, "NSE": null, "VIVTOT": 0.0, "GRAPROES": 0.0, "_ent": "07", "_mun": "104", "_loc": "0082"}, "geometry": {"type": "Polygon", "coordinates": [[[-92.25762, 16.15598], [-92.25763, 16.15539], [-92.25824, 16.1554], [-92.25824, 16.15598], [-92.25762, 16.15598]]]}}, {"id": "330938", "type": "Feature", "properties": {"id": "330938", "CVEGEO": "0710400820030003", "POBTOT": 0.0, "score_nse": 0.0, "NSE": null, "VIVTOT": 0.0, "GRAPROES": 0.0, "_ent": "07", "_mun": "104", "_loc": "0082"}, "geometry": {"type": "Polygon", "coordinates": [[[-92.25575, 16.15459], [-92.25693, 16.15462], [-92.25691, 16.1553], [-92.25575, 16.15526], [-92.25575, 16.15459]]]}}, {"id": "330939", "type": "Feature", "properties": {"id": "330939", "CVEGEO": "0710400820030002", "POBTOT": 0.0, "score_nse": 0.0, "NSE": null, "VIVTOT": 0.0, "GRAPROES": 0.0, "_ent": "07", "_mun": "104", "_loc": "0082"}, "geometry": {"type": "Polygon", "coordinates": [[[-92.25579, 16.15599], [-92.25577, 16.15536], [-92.25693, 16.15537], [-92.2569, 16.15599], [-92.25579, 16.15599]]]}}, {"id": "331053", "type": "Feature", "properties": {"id": "331053", "CVEGEO": "0710400820030006", "POBTOT": 0.0, "score_nse": 0.0, "NSE": null, "VIVTOT": 0.0, "GRAPROES": 0.0, "_ent": "07", "_mun": "104", "_loc": "0082"}, "geometry": {"type": "Polygon", "coordinates": [[[-92.25698, 16.15676], [-92.25698, 16.15605], [-92.25755, 16.15606], [-92.25755, 16.15676], [-92.25698, 16.15676]]]}}, {"id": "331054", "type": "Feature", "properties": {"id": "331054", "CVEGEO": "0710400820030005", "POBTOT": 0.0, "score_nse": 0.0, "NSE": null, "VIVTOT": 0.0, "GRAPROES": 0.0, "_ent": "07", "_mun": "104", "_loc": "0082"}, "geometry": {"type": "Polygon", "coordinates": [[[-92.25764, 16.15677], [-92.25763, 16.15606], [-92.25824, 16.15605], [-92.25825, 16.15678], [-92.25764, 16.15677]]]}}, {"id": "331071", "type": "Feature", "properties": {"id": "331071", "CVEGEO": "0710400820030009", "POBTOT": 0.0, "score_nse": 0.0, "NSE": null, "VIVTOT": 0.0, "GRAPROES": 0.0, "_ent": "07", "_mun": "104", "_loc": "0082"}, "geometry": {"type": "Polygon", "coordinates": [[[-92.25423, 16.15579], [-92.25478, 16.15509], [-92.25564, 16.15535], [-92.25562, 16.15565], [-92.25504, 16.15632], [-92.25423, 16.15579]]]}}, {"id": "331124", "type": "Feature", "properties": {"id": "331124", "CVEGEO": "0710400820030010", "POBTOT": 0.0, "score_nse": 0.0, "NSE": null, "VIVTOT": 0.0, "GRAPROES": 0.0, "_ent": "07", "_mun": "104", "_loc": "0082"}, "geometry": {"type": "Polygon", "coordinates": [[[-92.25527, 16.15524], [-92.25521, 16.15459], [-92.25564, 16.15459], [-92.25564, 16.15524], [-92.25527, 16.15524]]]}}, {"id": "331362", "type": "Feature", "properties": {"id": "331362", "CVEGEO": "0710400820030012", "POBTOT": 0.0, "score_nse": 0.0, "NSE": null, "VIVTOT": 0.0, "GRAPROES": 0.0, "_ent": "07", "_mun": "104", "_loc": "0082"}, "geometry": {"type": "Polygon", "coordinates": [[[-92.25496, 16.15637], [-92.25433, 16.15705], [-92.2536, 16.15653], [-92.25418, 16.15588], [-92.25449, 16.15607], [-92.25427, 16.1564], [-92.25453, 16.1561], [-92.25496, 16.15637]]]}}]}