{"type": "FeatureCollection", "features": [{"id": "1048132", "type": "Feature", "properties": {"id": "1048132", "CVEGEO": "1501000090041008", "POBTOT": 0.0, "score_nse": 0.0, "NSE": null, "VIVTOT": 0.0, "GRAPROES": 0.0, "_ent": "15", "_mun": "010", "_loc": "0009"}, "geometry": {"type": "Polygon", "coordinates": [[[-99.14894, 19.9977], [-99.14855, 19.9976], [-99.14823, 19.99727], [-99.149, 19.99697], [-99.14894, 19.9977]]]}}, {"id": "1048133", "type": "Feature", "properties": {"id": "1048133", "CVEGEO": "1501000090041007", "POBTOT": 0.0, "score_nse": 0.0, "NSE": null, "VIVTOT": 0.0, "GRAPROES": 0.0, "_ent": "15", "_mun": "010", "_loc": "0009"}, "geometry": {"type": "Polygon", "coordinates": [[[-99.14976, 19.99668], [-99.1497, 19.99779], [-99.14903, 19.99772], [-99.14907, 19.99695], [-99.14976, 19.99668]]]}}, {"id": "1048284", "type": "Feature", "properties": {"id": "1048284", "CVEGEO": "1501000090041011", "POBTOT": 0.0, "score_nse": 0.0, "NSE": null, "VIVTOT": 0.0, "GRAPROES": 0.0, "_ent": "15", "_mun": "010", "_loc": "0009"}, "geometry": {"type": "Polygon", "coordinates": [[[-99.14789, 19.99337], [-99.14899, 19.99338], [-99.15058, 19.9943], [-99.1496, 19.99479], [-99.14777, 19.99371], [-99.14789, 19.99337]]]}}, {"id": "1048285", "type": "Feature", "properties": {"id": "1048285", "CVEGEO": "1501000090041010", "POBTOT": 0.0, "score_nse": 0.0, "NSE": null, "VIVTOT": 0.0, "GRAPROES": 0.0, "_ent": "15", "_mun": "010", "_loc": "0009"}, "geometry": {"type": "Polygon", "coordinates": [[[-99.14776, 19.99379], [-99.14949, 19.99484], [-99.14756, 19.99559], [-99.14727, 19.99553], [-99.14776, 19.99379]]]}}, {"id": "1048490", "type": "Feature", "properties": {"id": "1048490", "CVEGEO": "1501000090041019", "POBTOT": 0.0, "score_nse": 0.0, "NSE": null, "VIVTOT": 0.0, "GRAPROES": 0.0, "_ent": "15", "_mun": "010", "_loc": "0009"}, "geometry": {"type": "Polygon", "coordinates": [[[-99.14781, 19.99336], [-99.14765, 19.99381], [-99.14639, 19.99375], [-99.14645, 19.99333], [-99.14781, 19.99336]]]}}, {"id": "1048491", "type": "Feature", "properties": {"id": "1048491", "CVEGEO": "1501000090041018", "POBTOT": 0.0, "score_nse": 0.0, "NSE": null, "VIVTOT": 0.0, "GRAPROES": 0.0, "_ent": "15", "_mun": "010", "_loc": "0009"}, "geometry": {"type": "Polygon", "coordinates": [[[-99.14762, 19.99391], [-99.14753, 19.99426], [-99.14639, 19.9942], [-99.14647, 19.99383], [-99.14762, 19.99391]]]}}, {"id": "1048492", "type": "Feature", "properties": {"id": "1048492", "CVEGEO": "1501000090041017", "POBTOT": 0.0, "score_nse": 0.0, "NSE": null, "VIVTOT": 0.0, "GRAPROES": 0.0, "_ent": "15", "_mun": "010", "_loc": "0009"}, "geometry": {"type": "Polygon", "coordinates": [[[-99.14751, 19.99433], [-99.14742, 19.99467], [-99.14628, 19.9946], [-99.14637, 19.99426], [-99.14751, 19.99433]]]}}, {"id": "1048493", "type": "Feature", "properties": {"id": "1048493", "CVEGEO": "1501000090041016", "POBTOT": 0.0, "score_nse": 0.0, "NSE": null, "VIVTOT": 0.0, "GRAPROES": 0.0, "_ent": "15", "_mun": "010", "_loc": "0009"}, "geometry": {"type": "Polygon", "coordinates": [[[-99.1474, 19.99476], [-99.14731, 19.9951], [-99.14617, 19.99502], [-99.14626, 19.99469], [-99.1474, 19.99476]]]}}, {"id": "1048494", "type": "Feature", "properties": {"id": "1048494", "CVEGEO": "1501000090041015", "POBTOT": 0.0, "score_nse": 0.0, "NSE": null, "VIVTOT": 0.0, "GRAPROES": 0.0, "_ent": "15", "_mun": "010", "_loc": "0009"}, "geometry": {"type": "Polygon", "coordinates": [[[-99.14727, 19.99519], [-99.14719, 19.99553], [-99.14603, 19.99546], [-99.14613, 19.99511], [-99.14727, 19.99519]]]}}, {"id": "1048495", "type": "Feature", "properties": {"id": "1048495", "CVEGEO": "1501000090041006", "POBTOT": 0.0, "score_nse": 0.0, "NSE": null, "VIVTOT": 0.0, "GRAPROES": 0.0, "_ent": "15", "_mun": "010", "_loc": "0009"}, "geometry": {"type": "Polygon", "coordinates": [[[-99.15055, 19.99638], [-99.15033, 19.99784], [-99.14977, 19.99779], [-99.14983, 19.99667], [-99.15055, 19.99638]]]}}, {"id": "1048496", "type": "Feature", "properties": {"id": "1048496", "CVEGEO": "1501000090041004", "POBTOT": 0.0, "score_nse": 0.0, "NSE": null, "VIVTOT": 0.0, "GRAPROES": 0.0, "_ent": "15", "_mun": "010", "_loc": "0009"}, "geometry": {"type": "Polygon", "coordinates": [[[-99.15068, 19.99436], [-99.15053, 19.9963], [-99.14983, 19.99657], [-99.14993, 19.99475], [-99.15068, 19.99436]]]}}, {"id": "1048497", "type": "Feature", "properties": {"id": "1048497", "CVEGEO": "1501000090041003", "POBTOT": 0.0, "score_nse": 0.0, "NSE": null, "VIVTOT": 0.0, "GRAPROES": 0.0, "_ent": "15", "_mun": "010", "_loc": "0009"}, "geometry": {"type": "Polygon", "coordinates": [[[-99.14983, 19.99479], [-99.14978, 19.99586], [-99.14911, 19.99608], [-99.14919, 19.99505], [-99.14983, 19.99479]]]}}, {"id": "1048498", "type": "Feature", "properties": {"id": "1048498", "CVEGEO": "1501000090041002", "POBTOT": 0.0, "score_nse": 0.0, "NSE": null, "VIVTOT": 0.0, "GRAPROES": 0.0, "_ent": "15", "_mun": "010", "_loc": "0009"}, "geometry": {"type": "Polygon", "coordinates": [[[-99.14908, 19.99509], [-99.14898, 19.99689], [-99.14827, 19.99718], [-99.14838, 19.99537], [-99.14908, 19.99509]]]}}, {"id": "1048499", "type": "Feature", "properties": {"id": "1048499", "CVEGEO": "1501000090041001", "POBTOT": 0.0, "score_nse": 0.0, "NSE": null, "VIVTOT": 0.0, "GRAPROES": 0.0, "_ent": "15", "_mun": "010", "_loc": "0009"}, "geometry": {"type": "Polygon", "coordinates": [[[-99.14977, 19.99597], [-99.14976, 19.99659], [-99.14908, 19.99685], [-99.1491, 19.99617], [-99.14977, 19.99597]]]}}, {"id": "1048543", "type": "Feature", "properties": {"id": "1048543", "CVEGEO": "1501000090041020", "POBTOT": 0.0, "score_nse": 0.0, "NSE": null, "VIVTOT": 0.0, "GRAPROES": 0.0, "_ent": "15", "_mun": "010", "_loc": "0009"}, "geometry": {"type": "Polygon", "coordinates": [[[-99.15043, 19.99783], [-99.15065, 19.99594], [-99.15076, 19.99436], [-99.15146, 19.99537], [-99.15134, 19.99728], [-99.15152, 19.99627], [-99.15189, 19.99624], [-99.15184, 19.99706], [-99.15218, 19.99687], [-99.15198, 19.99863], [-99.15043, 19.99783]]]}}, {"id": "1048544", "type": "Feature", "properties": {"id": "1048544", "CVEGEO": "1501000090041021", "POBTOT": 0.0, "score_nse": 0.0, "NSE": null, "VIVTOT": 0.0, "GRAPROES": 0.0, "_ent": "15", "_mun": "010", "_loc": "0009"}, "geometry": {"type": "Polygon", "coordinates": [[[-99.14444, 19.99573], [-99.14461, 19.99547], [-99.14737, 19.99561], [-99.14563, 19.99632], [-99.14444, 19.99573]]]}}, {"id": "1048545", "type": "Feature", "properties": {"id": "1048545", "CVEGEO": "1501000090041022", "POBTOT": 0.0, "score_nse": 0.0, "NSE": null, "VIVTOT": 0.0, "GRAPROES": 0.0, "_ent": "15", "_mun": "010", "_loc": "0009"}, "geometry": {"type": "Polygon", "coordinates": [[[-99.1444, 19.99578], [-99.14549, 19.99635], [-99.14299, 19.99748], [-99.14278, 19.99737], [-99.14391, 19.99668], [-99.1444, 19.99578]]]}}, {"id": "1048546", "type": "Feature", "properties": {"id": "1048546", "CVEGEO": "1501000090041023", "POBTOT": 0.0, "score_nse": 0.0, "NSE": null, "VIVTOT": 0.0, "GRAPROES": 0.0, "_ent": "15", "_mun": "010", "_loc": "0009"}, "geometry": {"type": "Polygon", "coordinates": [[[-99.15318, 19.99148], [-99.15205, 19.99008], [-99.15216, 19.99], [-99.15257, 19.99032], [-99.15332, 19.99009], [-99.15349, 19.99074], [-99.15447, 19.99216], [-99.15374, 19.99253], [-99.15318, 19.99148]]]}}, {"id": "1048630", "type": "Feature", "properties": {"id": "1048630", "CVEGEO": "1501000090041009", "POBTOT": 0.0, "score_nse": 0.0, "NSE": null, "VIVTOT": 0.0, "GRAPROES": 0.0, "_ent": "15", "_mun": "010", "_loc": "0009"}, "geometry": {"type": "Polygon", "coordinates": [[[-99.14827, 19.99538], [-99.14824, 19.99595], [-99.14808, 19.99595], [-99.14824, 19.99596], [-99.14821, 19.9965], [-99.14785, 19.9965], [-99.14821, 19.99653], [-99.14817, 19.99719], [-99.14802, 19.99695], [-99.14801, 19.99713], [-99.14746, 19.99687], [-99.14745, 19.9963], [-99.14742, 19.99686], [-99.14629, 19.99666], [-99.14581, 19.99642], [-99.14827, 19.99538]]]}}, {"id": "1048631", "type": "Feature", "properties": {"id": "1048631", "CVEGEO": "1501000090041024", "POBTOT": 0.0, "score_nse": 0.0, "NSE": null, "VIVTOT": 0.0, "GRAPROES": 0.0, "_ent": "15", "_mun": "010", "_loc": "0009"}, "geometry": {"type": "Polygon", "coordinates": [[[-99.14597, 19.99321], [-99.14659, 19.99197], [-99.1489, 19.9933], [-99.14597, 19.99321]]]}}, {"id": "1048632", "type": "Feature", "properties": {"id": "1048632", "CVEGEO": "1501000090041025", "POBTOT": 0.0, "score_nse": 0.0, "NSE": null, "VIVTOT": 0.0, "GRAPROES": 0.0, "_ent": "15", "_mun": "010", "_loc": "0009"}, "geometry": {"type": "Polygon", "coordinates": [[[-99.1503, 19.99789], [-99.15039, 19.99815], [-99.15009, 19.99809], [-99.1501, 19.99797], [-99.14901, 19.99811], [-99.14853, 19.99793], [-99.14862, 19.99771], [-99.1503, 19.99789]]]}}, {"id": "1048633", "type": "Feature", "properties": {"id": "1048633", "CVEGEO": "1501000090041026", "POBTOT": 0.0, "score_nse": 0.0, "NSE": null, "VIVTOT": 0.0, "GRAPROES": 0.0, "_ent": "15", "_mun": "010", "_loc": "0009"}, "geometry": {"type": "Polygon", "coordinates": [[[-99.14666, 19.99192], [-99.14809, 19.98937], [-99.149, 19.98833], [-99.14963, 19.98796], [-99.15052, 19.9887], [-99.15079, 19.98856], [-99.1532, 19.99168], [-99.15367, 19.99259], [-99.15212, 19.99346], [-99.15078, 19.99214], [-99.15204, 19.9935], [-99.1515, 19.9938], [-99.15093, 19.99328], [-99.15144, 19.99382], [-99.15068, 19.99422], [-99.14666, 19.99192]]]}}, {"id": "1048634", "type": "Feature", "properties": {"id": "1048634", "CVEGEO": "1501000090041027", "POBTOT": 0.0, "score_nse": 0.0, "NSE": null, "VIVTOT": 0.0, "GRAPROES": 0.0, "_ent": "15", "_mun": "010", "_loc": "0009"}, "geometry": {"type": "Polygon", "coordinates": [[[-99.15576, 19.99584], [-99.15484, 19.99575], [-99.15154, 19.99622], [-99.15154, 19.99534], [-99.15074, 19.99428], [-99.15371, 19.99265], [-99.15576, 19.99584]]]}}]}