{"type": "FeatureCollection", "features": [{"id": "1048470", "type": "Feature", "properties": {"id": "1048470", "CVEGEO": "1501000260041006", "POBTOT": 0.0, "score_nse": 0.0, "NSE": null, "VIVTOT": 0.0, "GRAPROES": 0.0, "_ent": "15", "_mun": "010", "_loc": "0026"}, "geometry": {"type": "Polygon", "coordinates": [[[-99.14912, 19.97855], [-99.14905, 19.97812], [-99.14935, 19.97808], [-99.14941, 19.97853], [-99.14912, 19.97855]]]}}, {"id": "1048471", "type": "Feature", "properties": {"id": "1048471", "CVEGEO": "1501000260041005", "POBTOT": 0.0, "score_nse": 0.0, "NSE": null, "VIVTOT": 0.0, "GRAPROES": 0.0, "_ent": "15", "_mun": "010", "_loc": "0026"}, "geometry": {"type": "Polygon", "coordinates": [[[-99.14947, 19.97854], [-99.14941, 19.97805], [-99.14971, 19.97799], [-99.14979, 19.97854], [-99.14947, 19.97854]]]}}, {"id": "1048472", "type": "Feature", "properties": {"id": "1048472", "CVEGEO": "1501000260041004", "POBTOT": 0.0, "score_nse": 0.0, "NSE": null, "VIVTOT": 0.0, "GRAPROES": 0.0, "_ent": "15", "_mun": "010", "_loc": "0026"}, "geometry": {"type": "Polygon", "coordinates": [[[-99.14985, 19.97854], [-99.14976, 19.97798], [-99.15001, 19.97794], [-99.1501, 19.97851], [-99.14985, 19.97854]]]}}, {"id": "1048473", "type": "Feature", "properties": {"id": "1048473", "CVEGEO": "1501000260041003", "POBTOT": 0.0, "score_nse": 0.0, "NSE": null, "VIVTOT": 0.0, "GRAPROES": 0.0, "_ent": "15", "_mun": "010", "_loc": "0026"}, "geometry": {"type": "Polygon", "coordinates": [[[-99.15016, 19.9785], [-99.15005, 19.97793], [-99.15025, 19.97789], [-99.15037, 19.97848], [-99.15016, 19.9785]]]}}, {"id": "1048474", "type": "Feature", "properties": {"id": "1048474", "CVEGEO": "1501000260041002", "POBTOT": 0.0, "score_nse": 0.0, "NSE": null, "VIVTOT": 0.0, "GRAPROES": 0.0, "_ent": "15", "_mun": "010", "_loc": "0026"}, "geometry": {"type": "Polygon", "coordinates": [[[-99.14755, 19.97684], [-99.14861, 19.97662], [-99.14874, 19.97699], [-99.14866, 19.9766], [-99.14983, 19.97637], [-99.14993, 19.97674], [-99.1494, 19.97686], [-99.14973, 19.97684], [-99.14978, 19.9771], [-99.14978, 19.97683], [-99.14995, 19.9768], [-99.15022, 19.97782], [-99.14897, 19.9781], [-99.14906, 19.97856], [-99.14806, 19.97861], [-99.14755, 19.97684]]]}}, {"id": "1048475", "type": "Feature", "properties": {"id": "1048475", "CVEGEO": "1501000260041001", "POBTOT": 0.0, "score_nse": 0.0, "NSE": null, "VIVTOT": 0.0, "GRAPROES": 0.0, "_ent": "15", "_mun": "010", "_loc": "0026"}, "geometry": {"type": "Polygon", "coordinates": [[[-99.14776, 19.97781], [-99.14494, 19.9787], [-99.14477, 19.97779], [-99.14751, 19.97689], [-99.14776, 19.97781]]]}}, {"id": "1048534", "type": "Feature", "properties": {"id": "1048534", "CVEGEO": "1501000260041007", "POBTOT": 0.0, "score_nse": 0.0, "NSE": null, "VIVTOT": 0.0, "GRAPROES": 0.0, "_ent": "15", "_mun": "010", "_loc": "0026"}, "geometry": {"type": "Polygon", "coordinates": [[[-99.15252, 19.97582], [-99.15271, 19.97577], [-99.15282, 19.97646], [-99.15263, 19.97648], [-99.15252, 19.97582]]]}}, {"id": "1048535", "type": "Feature", "properties": {"id": "1048535", "CVEGEO": "1501000260041008", "POBTOT": 0.0, "score_nse": 0.0, "NSE": null, "VIVTOT": 0.0, "GRAPROES": 0.0, "_ent": "15", "_mun": "010", "_loc": "0026"}, "geometry": {"type": "Polygon", "coordinates": [[[-99.15226, 19.97588], [-99.15245, 19.97584], [-99.15256, 19.97648], [-99.15237, 19.9765], [-99.15226, 19.97588]]]}}, {"id": "1048536", "type": "Feature", "properties": {"id": "1048536", "CVEGEO": "1501000260041009", "POBTOT": 0.0, "score_nse": 0.0, "NSE": null, "VIVTOT": 0.0, "GRAPROES": 0.0, "_ent": "15", "_mun": "010", "_loc": "0026"}, "geometry": {"type": "Polygon", "coordinates": [[[-99.15202, 19.97593], [-99.1522, 19.97589], [-99.15232, 19.97649], [-99.15213, 19.97652], [-99.15202, 19.97593]]]}}, {"id": "1048537", "type": "Feature", "properties": {"id": "1048537", "CVEGEO": "1501000260041010", "POBTOT": 0.0, "score_nse": 0.0, "NSE": null, "VIVTOT": 0.0, "GRAPROES": 0.0, "_ent": "15", "_mun": "010", "_loc": "0026"}, "geometry": {"type": "Polygon", "coordinates": [[[-99.15175, 19.976], [-99.15195, 19.97595], [-99.15206, 19.97653], [-99.15182, 19.97657], [-99.15175, 19.976]]]}}, {"id": "1048538", "type": "Feature", "properties": {"id": "1048538", "CVEGEO": "1501000260041011", "POBTOT": 0.0, "score_nse": 0.0, "NSE": null, "VIVTOT": 0.0, "GRAPROES": 0.0, "_ent": "15", "_mun": "010", "_loc": "0026"}, "geometry": {"type": "Polygon", "coordinates": [[[-99.15113, 19.97615], [-99.15166, 19.97604], [-99.15171, 19.97659], [-99.15123, 19.97666], [-99.15113, 19.97615]]]}}, {"id": "1048539", "type": "Feature", "properties": {"id": "1048539", "CVEGEO": "1501000260041012", "POBTOT": 0.0, "score_nse": 0.0, "NSE": null, "VIVTOT": 0.0, "GRAPROES": 0.0, "_ent": "15", "_mun": "010", "_loc": "0026"}, "geometry": {"type": "Polygon", "coordinates": [[[-99.15045, 19.97626], [-99.15105, 19.97613], [-99.15116, 19.97667], [-99.15058, 19.97677], [-99.15045, 19.97626]]]}}, {"id": "1048540", "type": "Feature", "properties": {"id": "1048540", "CVEGEO": "1501000260041013", "POBTOT": 0.0, "score_nse": 0.0, "NSE": null, "VIVTOT": 0.0, "GRAPROES": 0.0, "_ent": "15", "_mun": "010", "_loc": "0026"}, "geometry": {"type": "Polygon", "coordinates": [[[-99.14992, 19.97637], [-99.1504, 19.97628], [-99.15051, 19.97679], [-99.15006, 19.97686], [-99.14992, 19.97637]]]}}, {"id": "1048541", "type": "Feature", "properties": {"id": "1048541", "CVEGEO": "1501000260041014", "POBTOT": 0.0, "score_nse": 0.0, "NSE": null, "VIVTOT": 0.0, "GRAPROES": 0.0, "_ent": "15", "_mun": "010", "_loc": "0026"}, "geometry": {"type": "Polygon", "coordinates": [[[-99.15145, 19.97584], [-99.15307, 19.97534], [-99.15306, 19.97559], [-99.15145, 19.97584]]]}}, {"id": "1048573", "type": "Feature", "properties": {"id": "1048573", "CVEGEO": "1501000260041015", "POBTOT": 0.0, "score_nse": 0.0, "NSE": null, "VIVTOT": 0.0, "GRAPROES": 0.0, "_ent": "15", "_mun": "010", "_loc": "0026"}, "geometry": {"type": "Polygon", "coordinates": [[[-99.15044, 19.97851], [-99.15038, 19.97826], [-99.15094, 19.97822], [-99.15102, 19.97886], [-99.1518, 19.97936], [-99.15067, 19.97939], [-99.1506, 19.9791], [-99.1511, 19.97904], [-99.1506, 19.97905], [-99.15045, 19.97856], [-99.15081, 19.97848], [-99.15044, 19.97851]]]}}, {"id": "1048639", "type": "Feature", "properties": {"id": "1048639", "CVEGEO": "1501000260041016", "POBTOT": 0.0, "score_nse": 0.0, "NSE": null, "VIVTOT": 0.0, "GRAPROES": 0.0, "_ent": "15", "_mun": "010", "_loc": "0026"}, "geometry": {"type": "Polygon", "coordinates": [[[-99.14928, 19.9791], [-99.14918, 19.97862], [-99.15042, 19.97856], [-99.15053, 19.97905], [-99.14928, 19.9791]]]}}, {"id": "1048640", "type": "Feature", "properties": {"id": "1048640", "CVEGEO": "1501000260041017", "POBTOT": 0.0, "score_nse": 0.0, "NSE": null, "VIVTOT": 0.0, "GRAPROES": 0.0, "_ent": "15", "_mun": "010", "_loc": "0026"}, "geometry": {"type": "Polygon", "coordinates": [[[-99.14509, 19.98052], [-99.14505, 19.9796], [-99.14622, 19.97945], [-99.14635, 19.97986], [-99.14713, 19.97971], [-99.14665, 19.97974], [-99.14665, 19.97864], [-99.14635, 19.9783], [-99.14779, 19.97784], [-99.14802, 19.97862], [-99.1475, 19.97866], [-99.14774, 19.97981], [-99.14571, 19.9802], [-99.14598, 19.98086], [-99.14531, 19.98106], [-99.14509, 19.98052]]]}}, {"id": "1048641", "type": "Feature", "properties": {"id": "1048641", "CVEGEO": "1501000260041018", "POBTOT": 0.0, "score_nse": 0.0, "NSE": null, "VIVTOT": 0.0, "GRAPROES": 0.0, "_ent": "15", "_mun": "010", "_loc": "0026"}, "geometry": {"type": "Polygon", "coordinates": [[[-99.14638, 19.97978], [-99.14627, 19.9794], [-99.14503, 19.97955], [-99.14495, 19.97874], [-99.1463, 19.97836], [-99.1466, 19.97866], [-99.14659, 19.97975], [-99.14638, 19.97978]]]}}, {"id": "1048642", "type": "Feature", "properties": {"id": "1048642", "CVEGEO": "1501000260041019", "POBTOT": 0.0, "score_nse": 0.0, "NSE": null, "VIVTOT": 0.0, "GRAPROES": 0.0, "_ent": "15", "_mun": "010", "_loc": "0026"}, "geometry": {"type": "Polygon", "coordinates": [[[-99.15287, 19.97647], [-99.15276, 19.97577], [-99.15305, 19.9757], [-99.15303, 19.97646], [-99.15287, 19.97647]]]}}, {"id": "1048643", "type": "Feature", "properties": {"id": "1048643", "CVEGEO": "1501000260041020", "POBTOT": 0.0, "score_nse": 0.0, "NSE": null, "VIVTOT": 0.0, "GRAPROES": 0.0, "_ent": "15", "_mun": "010", "_loc": "0026"}, "geometry": {"type": "Polygon", "coordinates": [[[-99.14972, 19.97939], [-99.14969, 19.97912], [-99.15055, 19.9791], [-99.1506, 19.97939], [-99.14972, 19.97939]]]}}, {"id": "1048644", "type": "Feature", "properties": {"id": "1048644", "CVEGEO": "1501000260041021", "POBTOT": 0.0, "score_nse": 0.0, "NSE": null, "VIVTOT": 0.0, "GRAPROES": 0.0, "_ent": "15", "_mun": "010", "_loc": "0026"}, "geometry": {"type": "Polygon", "coordinates": [[[-99.15074, 19.97971], [-99.15071, 19.97944], [-99.15184, 19.97951], [-99.15091, 19.97959], [-99.15073, 19.97987], [-99.15021, 19.97986], [-99.15025, 19.97959], [-99.14989, 19.9796], [-99.14988, 19.97945], [-99.15067, 19.97944], [-99.15074, 19.97971]]]}}]}