{"type": "FeatureCollection", "features": [{"id": "1669278", "type": "Feature", "properties": {"id": "1669278", "CVEGEO": "2108100040053005", "POBTOT": 0.0, "score_nse": 0.0, "NSE": null, "VIVTOT": 0.0, "GRAPROES": 0.0, "_ent": "21", "_mun": "081", "_loc": "0004"}, "geometry": {"type": "Polygon", "coordinates": [[[-98.71467, 18.0333], [-98.71428, 18.03271], [-98.715, 18.03221], [-98.71507, 18.03292], [-98.71467, 18.0333]]]}}, {"id": "1669279", "type": "Feature", "properties": {"id": "1669279", "CVEGEO": "2108100040053004", "POBTOT": 0.0, "score_nse": 0.0, "NSE": null, "VIVTOT": 0.0, "GRAPROES": 0.0, "_ent": "21", "_mun": "081", "_loc": "0004"}, "geometry": {"type": "Polygon", "coordinates": [[[-98.71548, 18.0338], [-98.71629, 18.03457], [-98.71634, 18.03475], [-98.71611, 18.03474], [-98.71526, 18.03401], [-98.71548, 18.0338]]]}}, {"id": "1669384", "type": "Feature", "properties": {"id": "1669384", "CVEGEO": "2108100040053003", "POBTOT": 0.0, "score_nse": 0.0, "NSE": null, "VIVTOT": 0.0, "GRAPROES": 0.0, "_ent": "21", "_mun": "081", "_loc": "0004"}, "geometry": {"type": "Polygon", "coordinates": [[[-98.71586, 18.03349], [-98.71652, 18.03411], [-98.71628, 18.03451], [-98.71552, 18.03377], [-98.71586, 18.03349]]]}}, {"id": "1669385", "type": "Feature", "properties": {"id": "1669385", "CVEGEO": "2108100040053002", "POBTOT": 0.0, "score_nse": 0.0, "NSE": null, "VIVTOT": 0.0, "GRAPROES": 0.0, "_ent": "21", "_mun": "081", "_loc": "0004"}, "geometry": {"type": "Polygon", "coordinates": [[[-98.71578, 18.03347], [-98.7152, 18.03395], [-98.71488, 18.03364], [-98.71555, 18.03314], [-98.71578, 18.03347]]]}}, {"id": "1669386", "type": "Feature", "properties": {"id": "1669386", "CVEGEO": "2108100040053001", "POBTOT": 0.0, "score_nse": 0.0, "NSE": null, "VIVTOT": 0.0, "GRAPROES": 0.0, "_ent": "21", "_mun": "081", "_loc": "0004"}, "geometry": {"type": "Polygon", "coordinates": [[[-98.71474, 18.03342], [-98.71512, 18.03297], [-98.71532, 18.03321], [-98.71483, 18.03359], [-98.71474, 18.03342]]]}}, {"id": "1669429", "type": "Feature", "properties": {"id": "1669429", "CVEGEO": "2108100040053007", "POBTOT": 0.0, "score_nse": 0.0, "NSE": null, "VIVTOT": 0.0, "GRAPROES": 0.0, "_ent": "21", "_mun": "081", "_loc": "0004"}, "geometry": {"type": "Polygon", "coordinates": [[[-98.71566, 18.03287], [-98.71541, 18.03312], [-98.71511, 18.03283], [-98.71508, 18.03219], [-98.7152, 18.03207], [-98.71566, 18.03287]]]}}]}