{"type": "FeatureCollection", "features": [{"id": "940753", "type": "Feature", "properties": {"id": "940753", "CVEGEO": "1404301390160031", "POBTOT": 0.0, "score_nse": 0.0, "NSE": null, "VIVTOT": 0.0, "GRAPROES": 0.0, "_ent": "14", "_mun": "043", "_loc": "0139"}, "geometry": {"type": "Polygon", "coordinates": [[[-104.89947, 19.36273], [-104.8987, 19.36231], [-104.89899, 19.3609], [-104.89982, 19.36189], [-104.89947, 19.36273]]]}}, {"id": "940790", "type": "Feature", "properties": {"id": "940790", "CVEGEO": "1404301390160023", "POBTOT": 0.0, "score_nse": 0.0, "NSE": null, "VIVTOT": 0.0, "GRAPROES": 0.0, "_ent": "14", "_mun": "043", "_loc": "0139"}, "geometry": {"type": "Polygon", "coordinates": [[[-104.89529, 19.36288], [-104.89626, 19.36305], [-104.89615, 19.36389], [-104.89516, 19.3637], [-104.89529, 19.36288]]]}}, {"id": "940875", "type": "Feature", "properties": {"id": "940875", "CVEGEO": "1404301390160033", "POBTOT": 0.0, "score_nse": 0.0, "NSE": null, "VIVTOT": 0.0, "GRAPROES": 0.0, "_ent": "14", "_mun": "043", "_loc": "0139"}, "geometry": {"type": "Polygon", "coordinates": [[[-104.89603, 19.36188], [-104.89609, 19.36159], [-104.89646, 19.36166], [-104.89642, 19.36196], [-104.89603, 19.36188]]]}}, {"id": "940876", "type": "Feature", "properties": {"id": "940876", "CVEGEO": "1404301390160022", "POBTOT": 0.0, "score_nse": 0.0, "NSE": null, "VIVTOT": 0.0, "GRAPROES": 0.0, "_ent": "14", "_mun": "043", "_loc": "0139"}, "geometry": {"type": "Polygon", "coordinates": [[[-104.89626, 19.36391], [-104.8964, 19.36306], [-104.89736, 19.36321], [-104.89725, 19.36408], [-104.89626, 19.36391]]]}}, {"id": "940877", "type": "Feature", "properties": {"id": "940877", "CVEGEO": "1404301390160021", "POBTOT": 0.0, "score_nse": 0.0, "NSE": null, "VIVTOT": 0.0, "GRAPROES": 0.0, "_ent": "14", "_mun": "043", "_loc": "0139"}, "geometry": {"type": "Polygon", "coordinates": [[[-104.89841, 19.36343], [-104.89827, 19.36432], [-104.89731, 19.36417], [-104.89747, 19.36321], [-104.89841, 19.36343]]]}}, {"id": "940878", "type": "Feature", "properties": {"id": "940878", "CVEGEO": "1404301390160020", "POBTOT": 0.0, "score_nse": 0.0, "NSE": null, "VIVTOT": 0.0, "GRAPROES": 0.0, "_ent": "14", "_mun": "043", "_loc": "0139"}, "geometry": {"type": "Polygon", "coordinates": [[[-104.8976, 19.36223], [-104.89858, 19.36239], [-104.89845, 19.36334], [-104.89749, 19.36311], [-104.8976, 19.36223]]]}}, {"id": "940879", "type": "Feature", "properties": {"id": "940879", "CVEGEO": "1404301390160019", "POBTOT": 0.0, "score_nse": 0.0, "NSE": null, "VIVTOT": 0.0, "GRAPROES": 0.0, "_ent": "14", "_mun": "043", "_loc": "0139"}, "geometry": {"type": "Polygon", "coordinates": [[[-104.89775, 19.36121], [-104.89878, 19.36139], [-104.89865, 19.36228], [-104.8976, 19.36214], [-104.89775, 19.36121]]]}}, {"id": "940880", "type": "Feature", "properties": {"id": "940880", "CVEGEO": "1404301390160018", "POBTOT": 0.0, "score_nse": 0.0, "NSE": null, "VIVTOT": 0.0, "GRAPROES": 0.0, "_ent": "14", "_mun": "043", "_loc": "0139"}, "geometry": {"type": "Polygon", "coordinates": [[[-104.89847, 19.36024], [-104.89887, 19.36074], [-104.89878, 19.36129], [-104.89778, 19.36113], [-104.89794, 19.36012], [-104.89847, 19.36024]]]}}, {"id": "940980", "type": "Feature", "properties": {"id": "940980", "CVEGEO": "1404301390160032", "POBTOT": 0.0, "score_nse": 0.0, "NSE": null, "VIVTOT": 0.0, "GRAPROES": 0.0, "_ent": "14", "_mun": "043", "_loc": "0139"}, "geometry": {"type": "Polygon", "coordinates": [[[-104.89614, 19.36396], [-104.89593, 19.3651], [-104.895, 19.36497], [-104.89516, 19.36378], [-104.89614, 19.36396]]]}}, {"id": "940981", "type": "Feature", "properties": {"id": "940981", "CVEGEO": "1404301390160030", "POBTOT": 0.0, "score_nse": 0.0, "NSE": null, "VIVTOT": 0.0, "GRAPROES": 0.0, "_ent": "14", "_mun": "043", "_loc": "0139"}, "geometry": {"type": "Polygon", "coordinates": [[[-104.89723, 19.35783], [-104.89799, 19.35844], [-104.89816, 19.35903], [-104.89701, 19.35884], [-104.89723, 19.35783]]]}}, {"id": "940982", "type": "Feature", "properties": {"id": "940982", "CVEGEO": "1404301390160029", "POBTOT": 0.0, "score_nse": 0.0, "NSE": null, "VIVTOT": 0.0, "GRAPROES": 0.0, "_ent": "14", "_mun": "043", "_loc": "0139"}, "geometry": {"type": "Polygon", "coordinates": [[[-104.89673, 19.35749], [-104.89715, 19.35781], [-104.89696, 19.35883], [-104.89649, 19.35875], [-104.89673, 19.35749]]]}}, {"id": "940983", "type": "Feature", "properties": {"id": "940983", "CVEGEO": "1404301390160028", "POBTOT": 0.0, "score_nse": 0.0, "NSE": null, "VIVTOT": 0.0, "GRAPROES": 0.0, "_ent": "14", "_mun": "043", "_loc": "0139"}, "geometry": {"type": "Polygon", "coordinates": [[[-104.89596, 19.35865], [-104.89643, 19.35692], [-104.89663, 19.35735], [-104.89644, 19.35873], [-104.89596, 19.35865]]]}}, {"id": "940984", "type": "Feature", "properties": {"id": "940984", "CVEGEO": "1404301390160027", "POBTOT": 0.0, "score_nse": 0.0, "NSE": null, "VIVTOT": 0.0, "GRAPROES": 0.0, "_ent": "14", "_mun": "043", "_loc": "0139"}, "geometry": {"type": "Polygon", "coordinates": [[[-104.89325, 19.36119], [-104.89237, 19.36072], [-104.89247, 19.36053], [-104.8928, 19.36065], [-104.89296, 19.36032], [-104.89337, 19.3604], [-104.89325, 19.36119]]]}}, {"id": "940985", "type": "Feature", "properties": {"id": "940985", "CVEGEO": "1404301390160024", "POBTOT": 0.0, "score_nse": 0.0, "NSE": null, "VIVTOT": 0.0, "GRAPROES": 0.0, "_ent": "14", "_mun": "043", "_loc": "0139"}, "geometry": {"type": "Polygon", "coordinates": [[[-104.89459, 19.36264], [-104.89515, 19.36285], [-104.89507, 19.36358], [-104.89459, 19.36346], [-104.89459, 19.36264]]]}}, {"id": "940986", "type": "Feature", "properties": {"id": "940986", "CVEGEO": "1404301390160011", "POBTOT": 0.0, "score_nse": 0.0, "NSE": null, "VIVTOT": 0.0, "GRAPROES": 0.0, "_ent": "14", "_mun": "043", "_loc": "0139"}, "geometry": {"type": "Polygon", "coordinates": [[[-104.89434, 19.36165], [-104.89532, 19.36181], [-104.89517, 19.36277], [-104.89424, 19.36246], [-104.89434, 19.36165]]]}}, {"id": "940987", "type": "Feature", "properties": {"id": "940987", "CVEGEO": "1404301390160010", "POBTOT": 0.0, "score_nse": 0.0, "NSE": null, "VIVTOT": 0.0, "GRAPROES": 0.0, "_ent": "14", "_mun": "043", "_loc": "0139"}, "geometry": {"type": "Polygon", "coordinates": [[[-104.89545, 19.36186], [-104.89642, 19.36203], [-104.89629, 19.36296], [-104.8953, 19.36278], [-104.89545, 19.36186]]]}}, {"id": "940988", "type": "Feature", "properties": {"id": "940988", "CVEGEO": "1404301390160009", "POBTOT": 0.0, "score_nse": 0.0, "NSE": null, "VIVTOT": 0.0, "GRAPROES": 0.0, "_ent": "14", "_mun": "043", "_loc": "0139"}, "geometry": {"type": "Polygon", "coordinates": [[[-104.8965, 19.36207], [-104.89749, 19.36221], [-104.89738, 19.36312], [-104.8964, 19.36293], [-104.8965, 19.36207]]]}}, {"id": "940989", "type": "Feature", "properties": {"id": "940989", "CVEGEO": "1404301390160008", "POBTOT": 0.0, "score_nse": 0.0, "NSE": null, "VIVTOT": 0.0, "GRAPROES": 0.0, "_ent": "14", "_mun": "043", "_loc": "0139"}, "geometry": {"type": "Polygon", "coordinates": [[[-104.89662, 19.36099], [-104.89764, 19.36118], [-104.89752, 19.36211], [-104.89652, 19.36196], [-104.89662, 19.36099]]]}}, {"id": "940990", "type": "Feature", "properties": {"id": "940990", "CVEGEO": "1404301390160007", "POBTOT": 0.0, "score_nse": 0.0, "NSE": null, "VIVTOT": 0.0, "GRAPROES": 0.0, "_ent": "14", "_mun": "043", "_loc": "0139"}, "geometry": {"type": "Polygon", "coordinates": [[[-104.89684, 19.35994], [-104.89785, 19.36011], [-104.89768, 19.3611], [-104.89662, 19.36092], [-104.89684, 19.35994]]]}}, {"id": "940991", "type": "Feature", "properties": {"id": "940991", "CVEGEO": "1404301390160006", "POBTOT": 0.0, "score_nse": 0.0, "NSE": null, "VIVTOT": 0.0, "GRAPROES": 0.0, "_ent": "14", "_mun": "043", "_loc": "0139"}, "geometry": {"type": "Polygon", "coordinates": [[[-104.89629, 19.35985], [-104.89676, 19.35994], [-104.89656, 19.3609], [-104.89612, 19.36081], [-104.89629, 19.35985]]]}}, {"id": "940992", "type": "Feature", "properties": {"id": "940992", "CVEGEO": "1404301390160005", "POBTOT": 0.0, "score_nse": 0.0, "NSE": null, "VIVTOT": 0.0, "GRAPROES": 0.0, "_ent": "14", "_mun": "043", "_loc": "0139"}, "geometry": {"type": "Polygon", "coordinates": [[[-104.89575, 19.35977], [-104.89622, 19.35984], [-104.89605, 19.36079], [-104.8956, 19.3607], [-104.89575, 19.35977]]]}}, {"id": "940993", "type": "Feature", "properties": {"id": "940993", "CVEGEO": "1404301390160004", "POBTOT": 0.0, "score_nse": 0.0, "NSE": null, "VIVTOT": 0.0, "GRAPROES": 0.0, "_ent": "14", "_mun": "043", "_loc": "0139"}, "geometry": {"type": "Polygon", "coordinates": [[[-104.89468, 19.35956], [-104.89566, 19.35976], [-104.89552, 19.36069], [-104.89447, 19.36049], [-104.89468, 19.35956]]]}}, {"id": "941052", "type": "Feature", "properties": {"id": "941052", "CVEGEO": "1404301390160017", "POBTOT": 0.0, "score_nse": 0.0, "NSE": null, "VIVTOT": 0.0, "GRAPROES": 0.0, "_ent": "14", "_mun": "043", "_loc": "0139"}, "geometry": {"type": "Polygon", "coordinates": [[[-104.89835, 19.3601], [-104.89808, 19.35975], [-104.8982, 19.36007], [-104.89794, 19.36001], [-104.89789, 19.3597], [-104.89782, 19.36001], [-104.89686, 19.35986], [-104.897, 19.35893], [-104.89818, 19.3591], [-104.89815, 19.35963], [-104.89835, 19.3601]]]}}, {"id": "941053", "type": "Feature", "properties": {"id": "941053", "CVEGEO": "1404301390160016", "POBTOT": 0.0, "score_nse": 0.0, "NSE": null, "VIVTOT": 0.0, "GRAPROES": 0.0, "_ent": "14", "_mun": "043", "_loc": "0139"}, "geometry": {"type": "Polygon", "coordinates": [[[-104.89647, 19.35883], [-104.89693, 19.35891], [-104.89678, 19.35986], [-104.89632, 19.35978], [-104.89647, 19.35883]]]}}, {"id": "941054", "type": "Feature", "properties": {"id": "941054", "CVEGEO": "1404301390160015", "POBTOT": 0.0, "score_nse": 0.0, "NSE": null, "VIVTOT": 0.0, "GRAPROES": 0.0, "_ent": "14", "_mun": "043", "_loc": "0139"}, "geometry": {"type": "Polygon", "coordinates": [[[-104.89596, 19.35876], [-104.89641, 19.35881], [-104.89623, 19.35977], [-104.89577, 19.35968], [-104.89596, 19.35876]]]}}, {"id": "941055", "type": "Feature", "properties": {"id": "941055", "CVEGEO": "1404301390160014", "POBTOT": 0.0, "score_nse": 0.0, "NSE": null, "VIVTOT": 0.0, "GRAPROES": 0.0, "_ent": "14", "_mun": "043", "_loc": "0139"}, "geometry": {"type": "Polygon", "coordinates": [[[-104.89246, 19.35917], [-104.89387, 19.35742], [-104.89555, 19.3583], [-104.89596, 19.35751], [-104.89609, 19.35755], [-104.8959, 19.35869], [-104.89563, 19.35866], [-104.89589, 19.35873], [-104.89568, 19.35969], [-104.89433, 19.35928], [-104.89429, 19.35942], [-104.89458, 19.35951], [-104.89439, 19.36048], [-104.89351, 19.36031], [-104.8935, 19.35989], [-104.89344, 19.36032], [-104.89299, 19.36024], [-104.89326, 19.35974], [-104.89246, 19.35917]]]}}, {"id": "941056", "type": "Feature", "properties": {"id": "941056", "CVEGEO": "1404301390160013", "POBTOT": 0.0, "score_nse": 0.0, "NSE": null, "VIVTOT": 0.0, "GRAPROES": 0.0, "_ent": "14", "_mun": "043", "_loc": "0139"}, "geometry": {"type": "Polygon", "coordinates": [[[-104.89331, 19.36122], [-104.89347, 19.36038], [-104.89439, 19.36056], [-104.89428, 19.36154], [-104.89331, 19.36122]]]}}, {"id": "941057", "type": "Feature", "properties": {"id": "941057", "CVEGEO": "1404301390160034", "POBTOT": 0.0, "score_nse": 0.0, "NSE": null, "VIVTOT": 0.0, "GRAPROES": 0.0, "_ent": "14", "_mun": "043", "_loc": "0139"}, "geometry": {"type": "Polygon", "coordinates": [[[-104.89656, 19.36098], [-104.89647, 19.3616], [-104.8961, 19.36153], [-104.89621, 19.36091], [-104.89656, 19.36098]]]}}, {"id": "941306", "type": "Feature", "properties": {"id": "941306", "CVEGEO": "1404301390160026", "POBTOT": 0.0, "score_nse": 0.0, "NSE": null, "VIVTOT": 0.0, "GRAPROES": 0.0, "_ent": "14", "_mun": "043", "_loc": "0139"}, "geometry": {"type": "Polygon", "coordinates": [[[-104.89194, 19.36103], [-104.892, 19.3607], [-104.89376, 19.36154], [-104.89357, 19.36203], [-104.89219, 19.36147], [-104.89194, 19.36103]]]}}, {"id": "941357", "type": "Feature", "properties": {"id": "941357", "CVEGEO": "1404301390160012", "POBTOT": 0.0, "score_nse": 0.0, "NSE": null, "VIVTOT": 0.0, "GRAPROES": 0.0, "_ent": "14", "_mun": "043", "_loc": "0139"}, "geometry": {"type": "Polygon", "coordinates": [[[-104.89408, 19.36258], [-104.89449, 19.36262], [-104.89448, 19.36294], [-104.89371, 19.36286], [-104.89358, 19.3631], [-104.89209, 19.36246], [-104.89202, 19.36145], [-104.8936, 19.36209], [-104.89384, 19.36156], [-104.89422, 19.36165], [-104.89408, 19.36258]]]}}, {"id": "941358", "type": "Feature", "properties": {"id": "941358", "CVEGEO": "1404301390160003", "POBTOT": 0.0, "score_nse": 0.0, "NSE": null, "VIVTOT": 0.0, "GRAPROES": 0.0, "_ent": "14", "_mun": "043", "_loc": "0139"}, "geometry": {"type": "Polygon", "coordinates": [[[-104.89447, 19.36057], [-104.89551, 19.36077], [-104.89536, 19.36175], [-104.89438, 19.36155], [-104.89447, 19.36057]]]}}, {"id": "941359", "type": "Feature", "properties": {"id": "941359", "CVEGEO": "1404301390160002", "POBTOT": 0.0, "score_nse": 0.0, "NSE": null, "VIVTOT": 0.0, "GRAPROES": 0.0, "_ent": "14", "_mun": "043", "_loc": "0139"}, "geometry": {"type": "Polygon", "coordinates": [[[-104.89548, 19.36146], [-104.89603, 19.36158], [-104.89598, 19.36187], [-104.89543, 19.36177], [-104.89548, 19.36146]]]}}, {"id": "941360", "type": "Feature", "properties": {"id": "941360", "CVEGEO": "1404301390160001", "POBTOT": 0.0, "score_nse": 0.0, "NSE": null, "VIVTOT": 0.0, "GRAPROES": 0.0, "_ent": "14", "_mun": "043", "_loc": "0139"}, "geometry": {"type": "Polygon", "coordinates": [[[-104.89562, 19.36081], [-104.89606, 19.36089], [-104.89604, 19.36148], [-104.89553, 19.36138], [-104.89562, 19.36081]]]}}]}