{"type": "FeatureCollection", "features": [{"id": "2259182", "type": "Feature", "properties": {"id": "2259182", "CVEGEO": "3003800880013003", "POBTOT": 0.0, "score_nse": 0.0, "NSE": null, "VIVTOT": 0.0, "GRAPROES": 0.0, "_ent": "30", "_mun": "038", "_loc": "0088"}, "geometry": {"type": "Polygon", "coordinates": [[[-96.94501, 19.4988], [-96.94494, 19.49889], [-96.94474, 19.4987], [-96.94356, 19.49717], [-96.94326, 19.49666], [-96.94344, 19.49648], [-96.94442, 19.49812], [-96.94501, 19.4988]]]}}, {"id": "2259183", "type": "Feature", "properties": {"id": "2259183", "CVEGEO": "3003800880013002", "POBTOT": 0.0, "score_nse": 0.0, "NSE": null, "VIVTOT": 0.0, "GRAPROES": 0.0, "_ent": "30", "_mun": "038", "_loc": "0088"}, "geometry": {"type": "Polygon", "coordinates": [[[-96.9458, 19.49784], [-96.94504, 19.49879], [-96.94448, 19.49815], [-96.9437, 19.49668], [-96.94395, 19.49677], [-96.94394, 19.49666], [-96.94427, 19.49665], [-96.94428, 19.49688], [-96.94433, 19.49664], [-96.9446, 19.49665], [-96.94467, 19.49687], [-96.94472, 19.49644], [-96.94485, 19.49742], [-96.9458, 19.49784]]]}}, {"id": "2259184", "type": "Feature", "properties": {"id": "2259184", "CVEGEO": "3003800880013001", "POBTOT": 0.0, "score_nse": 0.0, "NSE": null, "VIVTOT": 0.0, "GRAPROES": 0.0, "_ent": "30", "_mun": "038", "_loc": "0088"}, "geometry": {"type": "Polygon", "coordinates": [[[-96.94465, 19.4966], [-96.94363, 19.49661], [-96.94349, 19.49648], [-96.94463, 19.49644], [-96.94465, 19.4966]]]}}, {"id": "2259294", "type": "Feature", "properties": {"id": "2259294", "CVEGEO": "3003800880013005", "POBTOT": 0.0, "score_nse": 0.0, "NSE": null, "VIVTOT": 0.0, "GRAPROES": 0.0, "_ent": "30", "_mun": "038", "_loc": "0088"}, "geometry": {"type": "Polygon", "coordinates": [[[-96.94569, 19.499], [-96.94508, 19.4988], [-96.94526, 19.49858], [-96.94573, 19.49876], [-96.94569, 19.499]]]}}, {"id": "2260019", "type": "Feature", "properties": {"id": "2260019", "CVEGEO": "3003800880013004", "POBTOT": 0.0, "score_nse": 0.0, "NSE": null, "VIVTOT": 0.0, "GRAPROES": 0.0, "_ent": "30", "_mun": "038", "_loc": "0088"}, "geometry": {"type": "Polygon", "coordinates": [[[-96.94472, 19.49577], [-96.94469, 19.49639], [-96.94342, 19.49643], [-96.94329, 19.4961], [-96.94432, 19.49599], [-96.94329, 19.49604], [-96.94324, 19.49583], [-96.94346, 19.49549], [-96.94357, 19.49549], [-96.94356, 19.49573], [-96.94363, 19.49549], [-96.94389, 19.49549], [-96.94388, 19.49572], [-96.94395, 19.4955], [-96.94445, 19.49569], [-96.94444, 19.49593], [-96.94449, 19.49572], [-96.94472, 19.49577]]]}}, {"id": "2260068", "type": "Feature", "properties": {"id": "2260068", "CVEGEO": "3003800880013006", "POBTOT": 0.0, "score_nse": 0.0, "NSE": null, "VIVTOT": 0.0, "GRAPROES": 0.0, "_ent": "30", "_mun": "038", "_loc": "0088"}, "geometry": {"type": "Polygon", "coordinates": [[[-96.94389, 19.49545], [-96.94362, 19.49545], [-96.94362, 19.49504], [-96.9439, 19.49503], [-96.94389, 19.49545]]]}}, {"id": "2260069", "type": "Feature", "properties": {"id": "2260069", "CVEGEO": "3003800880013007", "POBTOT": 0.0, "score_nse": 0.0, "NSE": null, "VIVTOT": 0.0, "GRAPROES": 0.0, "_ent": "30", "_mun": "038", "_loc": "0088"}, "geometry": {"type": "Polygon", "coordinates": [[[-96.94329, 19.49751], [-96.94311, 19.49694], [-96.94323, 19.49679], [-96.94466, 19.4988], [-96.94523, 19.49911], [-96.94634, 19.49927], [-96.94627, 19.49944], [-96.9458, 19.49947], [-96.94357, 19.49899], [-96.94274, 19.49705], [-96.94307, 19.49696], [-96.94329, 19.49751]]]}}, {"id": "2260070", "type": "Feature", "properties": {"id": "2260070", "CVEGEO": "3003800880013008", "POBTOT": 0.0, "score_nse": 0.0, "NSE": null, "VIVTOT": 0.0, "GRAPROES": 0.0, "_ent": "30", "_mun": "038", "_loc": "0088"}, "geometry": {"type": "Polygon", "coordinates": [[[-96.94349, 19.49907], [-96.94214, 19.49948], [-96.94146, 19.49772], [-96.94133, 19.49648], [-96.94211, 19.49464], [-96.94259, 19.49693], [-96.94349, 19.49907]]]}}, {"id": "2260071", "type": "Feature", "properties": {"id": "2260071", "CVEGEO": "3003800880013009", "POBTOT": 0.0, "score_nse": 0.0, "NSE": null, "VIVTOT": 0.0, "GRAPROES": 0.0, "_ent": "30", "_mun": "038", "_loc": "0088"}, "geometry": {"type": "Polygon", "coordinates": [[[-96.94313, 19.49299], [-96.94372, 19.49248], [-96.94488, 19.4925], [-96.94513, 19.49269], [-96.94454, 19.49312], [-96.94388, 19.49449], [-96.94297, 19.49566], [-96.94298, 19.49634], [-96.94322, 19.49667], [-96.94274, 19.49697], [-96.94225, 19.49453], [-96.94313, 19.49299]]]}}]}