{"type": "FeatureCollection", "features": [{"id": "1047276", "type": "Feature", "properties": {"id": "1047276", "CVEGEO": "1500700050050011", "POBTOT": 0.0, "score_nse": 0.0, "NSE": null, "VIVTOT": 0.0, "GRAPROES": 0.0, "_ent": "15", "_mun": "007", "_loc": "0005"}, "geometry": {"type": "Polygon", "coordinates": [[[-99.96087, 19.30416], [-99.96031, 19.30476], [-99.95993, 19.30479], [-99.95914, 19.30391], [-99.96087, 19.30416]]]}}, {"id": "1047277", "type": "Feature", "properties": {"id": "1047277", "CVEGEO": "1500700050050010", "POBTOT": 0.0, "score_nse": 0.0, "NSE": null, "VIVTOT": 0.0, "GRAPROES": 0.0, "_ent": "15", "_mun": "007", "_loc": "0005"}, "geometry": {"type": "Polygon", "coordinates": [[[-99.96212, 19.30427], [-99.95796, 19.30367], [-99.95802, 19.30259], [-99.95989, 19.30314], [-99.96057, 19.30315], [-99.96155, 19.30347], [-99.96197, 19.30342], [-99.96137, 19.30388], [-99.96209, 19.30342], [-99.96212, 19.30427]]]}}, {"id": "1047278", "type": "Feature", "properties": {"id": "1047278", "CVEGEO": "1500700050050008", "POBTOT": 0.0, "score_nse": 0.0, "NSE": null, "VIVTOT": 0.0, "GRAPROES": 0.0, "_ent": "15", "_mun": "007", "_loc": "0005"}, "geometry": {"type": "Polygon", "coordinates": [[[-99.9579, 19.30367], [-99.95698, 19.30324], [-99.95622, 19.30185], [-99.95796, 19.30257], [-99.9579, 19.30367]]]}}, {"id": "1047324", "type": "Feature", "properties": {"id": "1047324", "CVEGEO": "1500700050050009", "POBTOT": 0.0, "score_nse": 0.0, "NSE": null, "VIVTOT": 0.0, "GRAPROES": 0.0, "_ent": "15", "_mun": "007", "_loc": "0005"}, "geometry": {"type": "Polygon", "coordinates": [[[-99.95763, 19.30181], [-99.95777, 19.30244], [-99.95619, 19.3018], [-99.95602, 19.30043], [-99.95665, 19.30108], [-99.95695, 19.30109], [-99.95703, 19.30141], [-99.95718, 19.30146], [-99.95801, 19.30157], [-99.95926, 19.30129], [-99.96095, 19.30136], [-99.9611, 19.3022], [-99.96145, 19.30271], [-99.96216, 19.30299], [-99.9621, 19.30335], [-99.96124, 19.30337], [-99.95803, 19.30254], [-99.95809, 19.30191], [-99.95952, 19.30208], [-99.95808, 19.30185], [-99.95797, 19.30252], [-99.95787, 19.30249], [-99.95778, 19.30198], [-99.9574, 19.30151], [-99.95763, 19.30181]]]}}]}