{"type": "FeatureCollection", "features": [{"id": "1708299", "type": "Feature", "properties": {"id": "1708299", "CVEGEO": "2113200520730001", "POBTOT": 0.0, "score_nse": 0.0, "NSE": null, "VIVTOT": 0.0, "GRAPROES": 0.0, "_ent": "21", "_mun": "132", "_loc": "0052"}, "geometry": {"type": "Polygon", "coordinates": [[[-98.45895, 19.27235], [-98.45883, 19.27126], [-98.459, 19.27117], [-98.45894, 19.27056], [-98.45919, 19.2704], [-98.45928, 19.27222], [-98.45895, 19.27235]]]}}, {"id": "1708818", "type": "Feature", "properties": {"id": "1708818", "CVEGEO": "2113200520730002", "POBTOT": 0.0, "score_nse": 0.0, "NSE": null, "VIVTOT": 0.0, "GRAPROES": 0.0, "_ent": "21", "_mun": "132", "_loc": "0052"}, "geometry": {"type": "Polygon", "coordinates": [[[-98.45719, 19.27338], [-98.4571, 19.27241], [-98.45756, 19.27221], [-98.45785, 19.27118], [-98.45821, 19.27134], [-98.45874, 19.2713], [-98.45888, 19.27272], [-98.45719, 19.27338]]]}}, {"id": "1709082", "type": "Feature", "properties": {"id": "1709082", "CVEGEO": "2113200520730004", "POBTOT": 0.0, "score_nse": 0.0, "NSE": null, "VIVTOT": 0.0, "GRAPROES": 0.0, "_ent": "21", "_mun": "132", "_loc": "0052"}, "geometry": {"type": "Polygon", "coordinates": [[[-98.46106, 19.27148], [-98.46087, 19.26961], [-98.46099, 19.26954], [-98.46121, 19.27136], [-98.46106, 19.27148]]]}}, {"id": "1709401", "type": "Feature", "properties": {"id": "1709401", "CVEGEO": "2113200520730005", "POBTOT": 0.0, "score_nse": 0.0, "NSE": null, "VIVTOT": 0.0, "GRAPROES": 0.0, "_ent": "21", "_mun": "132", "_loc": "0052"}, "geometry": {"type": "Polygon", "coordinates": [[[-98.46047, 19.27194], [-98.4593, 19.27258], [-98.45898, 19.27267], [-98.45896, 19.27242], [-98.46047, 19.27194]]]}}, {"id": "1709402", "type": "Feature", "properties": {"id": "1709402", "CVEGEO": "2113200520730006", "POBTOT": 0.0, "score_nse": 0.0, "NSE": null, "VIVTOT": 0.0, "GRAPROES": 0.0, "_ent": "21", "_mun": "132", "_loc": "0052"}, "geometry": {"type": "Polygon", "coordinates": [[[-98.46189, 19.27087], [-98.46194, 19.2715], [-98.46041, 19.27208], [-98.46189, 19.27087]]]}}, {"id": "1709403", "type": "Feature", "properties": {"id": "1709403", "CVEGEO": "2113200520730008", "POBTOT": 0.0, "score_nse": 0.0, "NSE": null, "VIVTOT": 0.0, "GRAPROES": 0.0, "_ent": "21", "_mun": "132", "_loc": "0052"}, "geometry": {"type": "Polygon", "coordinates": [[[-98.4609, 19.27062], [-98.46026, 19.27074], [-98.46014, 19.26987], [-98.46048, 19.26997], [-98.46075, 19.26971], [-98.4609, 19.27062]]]}}, {"id": "1709404", "type": "Feature", "properties": {"id": "1709404", "CVEGEO": "2113200520730007", "POBTOT": 0.0, "score_nse": 0.0, "NSE": null, "VIVTOT": 0.0, "GRAPROES": 0.0, "_ent": "21", "_mun": "132", "_loc": "0052"}, "geometry": {"type": "Polygon", "coordinates": [[[-98.46022, 19.27075], [-98.45926, 19.27097], [-98.45928, 19.27032], [-98.4599, 19.27034], [-98.4601, 19.26989], [-98.46022, 19.27075]]]}}, {"id": "1709422", "type": "Feature", "properties": {"id": "1709422", "CVEGEO": "2113200520730003", "POBTOT": 0.0, "score_nse": 0.0, "NSE": null, "VIVTOT": 0.0, "GRAPROES": 0.0, "_ent": "21", "_mun": "132", "_loc": "0052"}, "geometry": {"type": "Polygon", "coordinates": [[[-98.46053, 19.27188], [-98.45937, 19.27223], [-98.45929, 19.27105], [-98.46091, 19.27072], [-98.46096, 19.27153], [-98.46053, 19.27188]]]}}]}