{"type": "FeatureCollection", "features": [{"id": "2414031", "type": "Feature", "properties": {"id": "2414031", "CVEGEO": "3021100010025031", "POBTOT": 36.0, "score_nse": 57.012, "NSE": "C", "VIVTOT": 14.0, "GRAPROES": 10.41, "_ent": "30", "_mun": "211", "_loc": "0001"}, "geometry": {"type": "Polygon", "coordinates": [[[-96.87735, 20.19594], [-96.87751, 20.19541], [-96.87823, 20.19564], [-96.87827, 20.19553], [-96.87754, 20.19533], [-96.87763, 20.19501], [-96.87859, 20.19531], [-96.87834, 20.19624], [-96.87735, 20.19594]]]}}, {"id": "2414414", "type": "Feature", "properties": {"id": "2414414", "CVEGEO": "3021100010241003", "POBTOT": 16.0, "score_nse": 54.22, "NSE": "C-", "VIVTOT": 4.0, "GRAPROES": 8.91, "_ent": "30", "_mun": "211", "_loc": "0001"}, "geometry": {"type": "Polygon", "coordinates": [[[-96.86556, 20.17907], [-96.86505, 20.17935], [-96.86487, 20.17896], [-96.86526, 20.17877], [-96.86556, 20.17907]]]}}, {"id": "2414415", "type": "Feature", "properties": {"id": "2414415", "CVEGEO": "3021100010025038", "POBTOT": 14.0, "score_nse": 0.0, "NSE": "ND", "VIVTOT": 6.0, "GRAPROES": 8.73, "_ent": "30", "_mun": "211", "_loc": "0001"}, "geometry": {"type": "Polygon", "coordinates": [[[-96.88028, 20.19604], [-96.88075, 20.19689], [-96.8804, 20.1971], [-96.87986, 20.1962], [-96.88028, 20.19604]]]}}, {"id": "2414416", "type": "Feature", "properties": {"id": "2414416", "CVEGEO": "302110001003A048", "POBTOT": 82.0, "score_nse": 63.4941, "NSE": "C", "VIVTOT": 23.0, "GRAPROES": 10.08, "_ent": "30", "_mun": "211", "_loc": "0001"}, "geometry": {"type": "Polygon", "coordinates": [[[-96.87731, 20.18271], [-96.87779, 20.18357], [-96.87751, 20.18371], [-96.87703, 20.18285], [-96.87731, 20.18271]]]}}, {"id": "2414417", "type": "Feature", "properties": {"id": "2414417", "CVEGEO": "3021100010260002", "POBTOT": 27.0, "score_nse": 0.0, "NSE": "ND", "VIVTOT": 9.0, "GRAPROES": 7.59, "_ent": "30", "_mun": "211", "_loc": "0001"}, "geometry": {"type": "Polygon", "coordinates": [[[-96.86587, 20.17844], [-96.86527, 20.1787], [-96.86499, 20.17842], [-96.86584, 20.17802], [-96.86587, 20.17844]]]}}, {"id": "2414418", "type": "Feature", "properties": {"id": "2414418", "CVEGEO": "3021100010260001", "POBTOT": 17.0, "score_nse": 0.0, "NSE": "ND", "VIVTOT": 5.0, "GRAPROES": 8.33, "_ent": "30", "_mun": "211", "_loc": "0001"}, "geometry": {"type": "Polygon", "coordinates": [[[-96.86586, 20.17896], [-96.86559, 20.17903], [-96.8653, 20.17875], [-96.86587, 20.17849], [-96.86586, 20.17896]]]}}, {"id": "2414419", "type": "Feature", "properties": {"id": "2414419", "CVEGEO": "3021100010260003", "POBTOT": 0.0, "score_nse": 0.0, "NSE": "ND", "VIVTOT": 0.0, "GRAPROES": 0.0, "_ent": "30", "_mun": "211", "_loc": "0001"}, "geometry": {"type": "Polygon", "coordinates": [[[-96.86586, 20.17902], [-96.86585, 20.17929], [-96.86563, 20.17908], [-96.86586, 20.17902]]]}}, {"id": "2414420", "type": "Feature", "properties": {"id": "2414420", "CVEGEO": "3021100010256002", "POBTOT": 10.0, "score_nse": 0.0, "NSE": "ND", "VIVTOT": 3.0, "GRAPROES": 5.6, "_ent": "30", "_mun": "211", "_loc": "0001"}, "geometry": {"type": "Polygon", "coordinates": [[[-96.86479, 20.17894], [-96.8639, 20.17937], [-96.86373, 20.17903], [-96.86461, 20.17861], [-96.86479, 20.17894]]]}}, {"id": "2414421", "type": "Feature", "properties": {"id": "2414421", "CVEGEO": "3021100010256001", "POBTOT": 0.0, "score_nse": 0.0, "NSE": "ND", "VIVTOT": 0.0, "GRAPROES": 0.0, "_ent": "30", "_mun": "211", "_loc": "0001"}, "geometry": {"type": "Polygon", "coordinates": [[[-96.86523, 20.17988], [-96.86448, 20.1804], [-96.86392, 20.17941], [-96.86481, 20.179], [-96.86523, 20.17988]]]}}, {"id": "2414422", "type": "Feature", "properties": {"id": "2414422", "CVEGEO": "3021100010044045", "POBTOT": 25.0, "score_nse": 0.0, "NSE": "ND", "VIVTOT": 8.0, "GRAPROES": 9.53, "_ent": "30", "_mun": "211", "_loc": "0001"}, "geometry": {"type": "Polygon", "coordinates": [[[-96.86407, 20.17979], [-96.86321, 20.18019], [-96.86299, 20.17982], [-96.86388, 20.17943], [-96.86407, 20.17979]]]}}, {"id": "2414423", "type": "Feature", "properties": {"id": "2414423", "CVEGEO": "3021100010044046", "POBTOT": 26.0, "score_nse": 0.0, "NSE": "ND", "VIVTOT": 12.0, "GRAPROES": 10.52, "_ent": "30", "_mun": "211", "_loc": "0001"}, "geometry": {"type": "Polygon", "coordinates": [[[-96.86385, 20.17938], [-96.86298, 20.17977], [-96.8628, 20.17944], [-96.86368, 20.17905], [-96.86385, 20.17938]]]}}, {"id": "2414424", "type": "Feature", "properties": {"id": "2414424", "CVEGEO": "3021100010241002", "POBTOT": 7.0, "score_nse": 0.0, "NSE": "ND", "VIVTOT": 1.0, "GRAPROES": 0.0, "_ent": "30", "_mun": "211", "_loc": "0001"}, "geometry": {"type": "Polygon", "coordinates": [[[-96.86522, 20.17872], [-96.86484, 20.17892], [-96.86464, 20.17859], [-96.86494, 20.17844], [-96.86522, 20.17872]]]}}, {"id": "2414425", "type": "Feature", "properties": {"id": "2414425", "CVEGEO": "3021100010241001", "POBTOT": 3.0, "score_nse": 0.0, "NSE": "ND", "VIVTOT": 2.0, "GRAPROES": 0.0, "_ent": "30", "_mun": "211", "_loc": "0001"}, "geometry": {"type": "Polygon", "coordinates": [[[-96.86583, 20.17932], [-96.86527, 20.17978], [-96.86507, 20.17939], [-96.8656, 20.1791], [-96.86583, 20.17932]]]}}, {"id": "2414426", "type": "Feature", "properties": {"id": "2414426", "CVEGEO": "3021100010237002", "POBTOT": 12.0, "score_nse": 0.0, "NSE": "ND", "VIVTOT": 4.0, "GRAPROES": 11.0, "_ent": "30", "_mun": "211", "_loc": "0001"}, "geometry": {"type": "Polygon", "coordinates": [[[-96.87858, 20.1956], [-96.87866, 20.19536], [-96.87962, 20.19576], [-96.87957, 20.19588], [-96.87858, 20.1956]]]}}, {"id": "2414427", "type": "Feature", "properties": {"id": "2414427", "CVEGEO": "3021100010237001", "POBTOT": 13.0, "score_nse": 74.408, "NSE": "C+", "VIVTOT": 3.0, "GRAPROES": 9.57, "_ent": "30", "_mun": "211", "_loc": "0001"}, "geometry": {"type": "Polygon", "coordinates": [[[-96.87841, 20.19624], [-96.87857, 20.19566], [-96.87954, 20.19594], [-96.87934, 20.19638], [-96.87841, 20.19624]]]}}, {"id": "2414428", "type": "Feature", "properties": {"id": "2414428", "CVEGEO": "3021100010222004", "POBTOT": 26.0, "score_nse": 0.0, "NSE": "ND", "VIVTOT": 11.0, "GRAPROES": 8.42, "_ent": "30", "_mun": "211", "_loc": "0001"}, "geometry": {"type": "Polygon", "coordinates": [[[-96.86734, 20.17962], [-96.86703, 20.17988], [-96.86643, 20.17921], [-96.86677, 20.17898], [-96.86734, 20.17962]]]}}, {"id": "2414429", "type": "Feature", "properties": {"id": "2414429", "CVEGEO": "3021100010222003", "POBTOT": 14.0, "score_nse": 36.15, "NSE": "D+", "VIVTOT": 4.0, "GRAPROES": 5.4, "_ent": "30", "_mun": "211", "_loc": "0001"}, "geometry": {"type": "Polygon", "coordinates": [[[-96.86698, 20.17991], [-96.86667, 20.18015], [-96.86642, 20.17926], [-96.86698, 20.17991]]]}}, {"id": "2414430", "type": "Feature", "properties": {"id": "2414430", "CVEGEO": "3021100010222002", "POBTOT": 41.0, "score_nse": 55.5487, "NSE": "C", "VIVTOT": 12.0, "GRAPROES": 9.0, "_ent": "30", "_mun": "211", "_loc": "0001"}, "geometry": {"type": "Polygon", "coordinates": [[[-96.86765, 20.18069], [-96.86739, 20.181], [-96.8667, 20.18019], [-96.86701, 20.17994], [-96.86765, 20.18069]]]}}, {"id": "2414431", "type": "Feature", "properties": {"id": "2414431", "CVEGEO": "3021100010222001", "POBTOT": 47.0, "score_nse": 0.0, "NSE": "ND", "VIVTOT": 17.0, "GRAPROES": 8.32, "_ent": "30", "_mun": "211", "_loc": "0001"}, "geometry": {"type": "Polygon", "coordinates": [[[-96.86799, 20.18035], [-96.86769, 20.18066], [-96.86705, 20.17991], [-96.86737, 20.17964], [-96.86799, 20.18035]]]}}, {"id": "2414432", "type": "Feature", "properties": {"id": "2414432", "CVEGEO": "3021100010044044", "POBTOT": 40.0, "score_nse": 0.0, "NSE": "ND", "VIVTOT": 15.0, "GRAPROES": 8.9, "_ent": "30", "_mun": "211", "_loc": "0001"}, "geometry": {"type": "Polygon", "coordinates": [[[-96.86293, 20.17979], [-96.86212, 20.18018], [-96.86193, 20.17983], [-96.86274, 20.17947], [-96.86293, 20.17979]]]}}, {"id": "2414433", "type": "Feature", "properties": {"id": "2414433", "CVEGEO": "3021100010044043", "POBTOT": 27.0, "score_nse": 0.0, "NSE": "ND", "VIVTOT": 8.0, "GRAPROES": 7.8, "_ent": "30", "_mun": "211", "_loc": "0001"}, "geometry": {"type": "Polygon", "coordinates": [[[-96.86204, 20.18021], [-96.86128, 20.18057], [-96.8612, 20.18015], [-96.86187, 20.17986], [-96.86204, 20.18021]]]}}, {"id": "2414434", "type": "Feature", "properties": {"id": "2414434", "CVEGEO": "3021100010044041", "POBTOT": 35.0, "score_nse": 61.6566, "NSE": "C", "VIVTOT": 13.0, "GRAPROES": 8.22, "_ent": "30", "_mun": "211", "_loc": "0001"}, "geometry": {"type": "Polygon", "coordinates": [[[-96.86314, 20.18021], [-96.86233, 20.18058], [-96.86215, 20.18024], [-96.86296, 20.17985], [-96.86314, 20.18021]]]}}, {"id": "2414435", "type": "Feature", "properties": {"id": "2414435", "CVEGEO": "3021100010044040", "POBTOT": 21.0, "score_nse": 0.0, "NSE": "ND", "VIVTOT": 10.0, "GRAPROES": 9.06, "_ent": "30", "_mun": "211", "_loc": "0001"}, "geometry": {"type": "Polygon", "coordinates": [[[-96.86226, 20.18061], [-96.86136, 20.18103], [-96.86129, 20.18062], [-96.86208, 20.18027], [-96.86226, 20.18061]]]}}, {"id": "2414436", "type": "Feature", "properties": {"id": "2414436", "CVEGEO": "3021100010044038", "POBTOT": 56.0, "score_nse": 0.0, "NSE": "ND", "VIVTOT": 22.0, "GRAPROES": 6.66, "_ent": "30", "_mun": "211", "_loc": "0001"}, "geometry": {"type": "Polygon", "coordinates": [[[-96.86267, 20.18144], [-96.86157, 20.18194], [-96.86148, 20.18156], [-96.86249, 20.18111], [-96.86267, 20.18144]]]}}, {"id": "2414437", "type": "Feature", "properties": {"id": "2414437", "CVEGEO": "3021100010044037", "POBTOT": 42.0, "score_nse": 0.0, "NSE": "ND", "VIVTOT": 15.0, "GRAPROES": 9.06, "_ent": "30", "_mun": "211", "_loc": "0001"}, "geometry": {"type": "Polygon", "coordinates": [[[-96.86377, 20.1809], [-96.86276, 20.18141], [-96.86257, 20.18107], [-96.86352, 20.18064], [-96.86377, 20.1809]]]}}, {"id": "2414438", "type": "Feature", "properties": {"id": "2414438", "CVEGEO": "3021100010044036", "POBTOT": 40.0, "score_nse": 0.0, "NSE": "ND", "VIVTOT": 14.0, "GRAPROES": 7.26, "_ent": "30", "_mun": "211", "_loc": "0001"}, "geometry": {"type": "Polygon", "coordinates": [[[-96.86346, 20.18058], [-96.86254, 20.18101], [-96.86236, 20.18064], [-96.8632, 20.18028], [-96.86346, 20.18058]]]}}, {"id": "2414439", "type": "Feature", "properties": {"id": "2414439", "CVEGEO": "3021100010044035", "POBTOT": 57.0, "score_nse": 0.0, "NSE": "ND", "VIVTOT": 20.0, "GRAPROES": 7.85, "_ent": "30", "_mun": "211", "_loc": "0001"}, "geometry": {"type": "Polygon", "coordinates": [[[-96.86246, 20.18104], [-96.86146, 20.1815], [-96.86139, 20.1811], [-96.86229, 20.18069], [-96.86246, 20.18104]]]}}, {"id": "2414440", "type": "Feature", "properties": {"id": "2414440", "CVEGEO": "3021100010044034", "POBTOT": 29.0, "score_nse": 0.0, "NSE": "ND", "VIVTOT": 11.0, "GRAPROES": 7.25, "_ent": "30", "_mun": "211", "_loc": "0001"}, "geometry": {"type": "Polygon", "coordinates": [[[-96.86151, 20.18197], [-96.86109, 20.18215], [-96.86092, 20.18128], [-96.86133, 20.18114], [-96.86151, 20.18197]]]}}, {"id": "2414441", "type": "Feature", "properties": {"id": "2414441", "CVEGEO": "3021100010044033", "POBTOT": 39.0, "score_nse": 0.0, "NSE": "ND", "VIVTOT": 13.0, "GRAPROES": 8.18, "_ent": "30", "_mun": "211", "_loc": "0001"}, "geometry": {"type": "Polygon", "coordinates": [[[-96.86259, 20.18223], [-96.86225, 20.18256], [-96.86165, 20.182], [-96.86208, 20.1818], [-96.86259, 20.18223]]]}}, {"id": "2414442", "type": "Feature", "properties": {"id": "2414442", "CVEGEO": "3021100010044032", "POBTOT": 16.0, "score_nse": 0.0, "NSE": "ND", "VIVTOT": 6.0, "GRAPROES": 9.58, "_ent": "30", "_mun": "211", "_loc": "0001"}, "geometry": {"type": "Polygon", "coordinates": [[[-96.86514, 20.18036], [-96.86478, 20.18069], [-96.86449, 20.18041], [-96.86492, 20.18013], [-96.86514, 20.18036]]]}}, {"id": "2414443", "type": "Feature", "properties": {"id": "2414443", "CVEGEO": "3021100010044030", "POBTOT": 12.0, "score_nse": 0.0, "NSE": "ND", "VIVTOT": 6.0, "GRAPROES": 10.0, "_ent": "30", "_mun": "211", "_loc": "0001"}, "geometry": {"type": "Polygon", "coordinates": [[[-96.8642, 20.18132], [-96.86342, 20.18202], [-96.86284, 20.18147], [-96.86382, 20.18095], [-96.8642, 20.18132]]]}}, {"id": "2414444", "type": "Feature", "properties": {"id": "2414444", "CVEGEO": "3021100010044029", "POBTOT": 14.0, "score_nse": 0.0, "NSE": "ND", "VIVTOT": 7.0, "GRAPROES": 9.83, "_ent": "30", "_mun": "211", "_loc": "0001"}, "geometry": {"type": "Polygon", "coordinates": [[[-96.8663, 20.1814], [-96.86592, 20.18103], [-96.86622, 20.18076], [-96.86659, 20.1811], [-96.8663, 20.1814]]]}}, {"id": "2414445", "type": "Feature", "properties": {"id": "2414445", "CVEGEO": "3021100010044028", "POBTOT": 13.0, "score_nse": 0.0, "NSE": "ND", "VIVTOT": 5.0, "GRAPROES": 11.0, "_ent": "30", "_mun": "211", "_loc": "0001"}, "geometry": {"type": "Polygon", "coordinates": [[[-96.8667, 20.18181], [-96.86634, 20.18145], [-96.86663, 20.18115], [-96.86702, 20.18149], [-96.8667, 20.18181]]]}}, {"id": "2414446", "type": "Feature", "properties": {"id": "2414446", "CVEGEO": "3021100010044027", "POBTOT": 38.0, "score_nse": 0.0, "NSE": "ND", "VIVTOT": 11.0, "GRAPROES": 9.1, "_ent": "30", "_mun": "211", "_loc": "0001"}, "geometry": {"type": "Polygon", "coordinates": [[[-96.86218, 20.18435], [-96.86186, 20.18403], [-96.86171, 20.18368], [-96.86182, 20.18358], [-96.8624, 20.1841], [-96.86218, 20.18435]]]}}, {"id": "2414447", "type": "Feature", "properties": {"id": "2414447", "CVEGEO": "3021100010044026", "POBTOT": 50.0, "score_nse": 51.6291, "NSE": "C-", "VIVTOT": 19.0, "GRAPROES": 9.23, "_ent": "30", "_mun": "211", "_loc": "0001"}, "geometry": {"type": "Polygon", "coordinates": [[[-96.86252, 20.18405], [-96.86185, 20.18356], [-96.86218, 20.18327], [-96.86277, 20.18381], [-96.86252, 20.18405]]]}}, {"id": "2414448", "type": "Feature", "properties": {"id": "2414448", "CVEGEO": "3021100010044025", "POBTOT": 80.0, "score_nse": 0.0, "NSE": "ND", "VIVTOT": 21.0, "GRAPROES": 7.41, "_ent": "30", "_mun": "211", "_loc": "0001"}, "geometry": {"type": "Polygon", "coordinates": [[[-96.86216, 20.18322], [-96.86169, 20.18361], [-96.86115, 20.18232], [-96.86117, 20.1823], [-96.86216, 20.18322]]]}}, {"id": "2414449", "type": "Feature", "properties": {"id": "2414449", "CVEGEO": "3021100010044024", "POBTOT": 45.0, "score_nse": 0.0, "NSE": "ND", "VIVTOT": 16.0, "GRAPROES": 7.95, "_ent": "30", "_mun": "211", "_loc": "0001"}, "geometry": {"type": "Polygon", "coordinates": [[[-96.86338, 20.18441], [-96.86321, 20.18474], [-96.86224, 20.18436], [-96.86282, 20.18387], [-96.86338, 20.18441]]]}}, {"id": "2414450", "type": "Feature", "properties": {"id": "2414450", "CVEGEO": "3021100010044023", "POBTOT": 41.0, "score_nse": 0.0, "NSE": "ND", "VIVTOT": 15.0, "GRAPROES": 6.77, "_ent": "30", "_mun": "211", "_loc": "0001"}, "geometry": {"type": "Polygon", "coordinates": [[[-96.86248, 20.18288], [-96.86217, 20.18316], [-96.86119, 20.18221], [-96.86156, 20.18206], [-96.86248, 20.18288]]]}}, {"id": "2414451", "type": "Feature", "properties": {"id": "2414451", "CVEGEO": "3021100010044022", "POBTOT": 50.0, "score_nse": 52.4143, "NSE": "C-", "VIVTOT": 14.0, "GRAPROES": 6.62, "_ent": "30", "_mun": "211", "_loc": "0001"}, "geometry": {"type": "Polygon", "coordinates": [[[-96.86287, 20.18373], [-96.86221, 20.18324], [-96.86253, 20.18293], [-96.86314, 20.18347], [-96.86287, 20.18373]]]}}, {"id": "2414452", "type": "Feature", "properties": {"id": "2414452", "CVEGEO": "3021100010044021", "POBTOT": 57.0, "score_nse": 0.0, "NSE": "ND", "VIVTOT": 17.0, "GRAPROES": 9.73, "_ent": "30", "_mun": "211", "_loc": "0001"}, "geometry": {"type": "Polygon", "coordinates": [[[-96.86388, 20.18425], [-96.86342, 20.1843], [-96.86288, 20.1838], [-96.86318, 20.18354], [-96.86388, 20.18425]]]}}, {"id": "2414453", "type": "Feature", "properties": {"id": "2414453", "CVEGEO": "3021100010044020", "POBTOT": 11.0, "score_nse": 0.0, "NSE": "ND", "VIVTOT": 4.0, "GRAPROES": 7.44, "_ent": "30", "_mun": "211", "_loc": "0001"}, "geometry": {"type": "Polygon", "coordinates": [[[-96.86668, 20.18109], [-96.86705, 20.18077], [-96.86735, 20.18111], [-96.86705, 20.18145], [-96.86668, 20.18109]]]}}, {"id": "2414454", "type": "Feature", "properties": {"id": "2414454", "CVEGEO": "3021100010044019", "POBTOT": 19.0, "score_nse": 0.0, "NSE": "ND", "VIVTOT": 8.0, "GRAPROES": 9.0, "_ent": "30", "_mun": "211", "_loc": "0001"}, "geometry": {"type": "Polygon", "coordinates": [[[-96.86627, 20.18068], [-96.8667, 20.18033], [-96.86696, 20.18066], [-96.86661, 20.181], [-96.86627, 20.18068]]]}}, {"id": "2414455", "type": "Feature", "properties": {"id": "2414455", "CVEGEO": "3021100010044017", "POBTOT": 15.0, "score_nse": 0.0, "NSE": "ND", "VIVTOT": 7.0, "GRAPROES": 7.92, "_ent": "30", "_mun": "211", "_loc": "0001"}, "geometry": {"type": "Polygon", "coordinates": [[[-96.86254, 20.18284], [-96.86229, 20.1826], [-96.86263, 20.18227], [-96.8629, 20.1825], [-96.86254, 20.18284]]]}}, {"id": "2414456", "type": "Feature", "properties": {"id": "2414456", "CVEGEO": "3021100010044016", "POBTOT": 22.0, "score_nse": 0.0, "NSE": "ND", "VIVTOT": 7.0, "GRAPROES": 8.06, "_ent": "30", "_mun": "211", "_loc": "0001"}, "geometry": {"type": "Polygon", "coordinates": [[[-96.86319, 20.18343], [-96.86259, 20.18287], [-96.86296, 20.18256], [-96.86356, 20.1831], [-96.86319, 20.18343]]]}}, {"id": "2414457", "type": "Feature", "properties": {"id": "2414457", "CVEGEO": "3021100010044015", "POBTOT": 54.0, "score_nse": 0.0, "NSE": "ND", "VIVTOT": 15.0, "GRAPROES": 7.74, "_ent": "30", "_mun": "211", "_loc": "0001"}, "geometry": {"type": "Polygon", "coordinates": [[[-96.86432, 20.18383], [-96.86396, 20.18416], [-96.86325, 20.18348], [-96.86359, 20.18317], [-96.86432, 20.18383]]]}}, {"id": "2414458", "type": "Feature", "properties": {"id": "2414458", "CVEGEO": "3021100010044014", "POBTOT": 13.0, "score_nse": 0.0, "NSE": "ND", "VIVTOT": 5.0, "GRAPROES": 8.0, "_ent": "30", "_mun": "211", "_loc": "0001"}, "geometry": {"type": "Polygon", "coordinates": [[[-96.8663, 20.18222], [-96.86592, 20.18182], [-96.86629, 20.18149], [-96.86665, 20.18187], [-96.8663, 20.18222]]]}}, {"id": "2414459", "type": "Feature", "properties": {"id": "2414459", "CVEGEO": "3021100010044013", "POBTOT": 16.0, "score_nse": 0.0, "NSE": "ND", "VIVTOT": 6.0, "GRAPROES": 9.0, "_ent": "30", "_mun": "211", "_loc": "0001"}, "geometry": {"type": "Polygon", "coordinates": [[[-96.86587, 20.18178], [-96.86549, 20.18138], [-96.86586, 20.18107], [-96.86624, 20.18144], [-96.86587, 20.18178]]]}}, {"id": "2414460", "type": "Feature", "properties": {"id": "2414460", "CVEGEO": "3021100010044012", "POBTOT": 40.0, "score_nse": 49.1, "NSE": "C-", "VIVTOT": 10.0, "GRAPROES": 8.15, "_ent": "30", "_mun": "211", "_loc": "0001"}, "geometry": {"type": "Polygon", "coordinates": [[[-96.86582, 20.18103], [-96.86544, 20.18135], [-96.86484, 20.18074], [-96.8652, 20.1804], [-96.86582, 20.18103]]]}}, {"id": "2414461", "type": "Feature", "properties": {"id": "2414461", "CVEGEO": "3021100010044011", "POBTOT": 44.0, "score_nse": 0.0, "NSE": "ND", "VIVTOT": 13.0, "GRAPROES": 6.91, "_ent": "30", "_mun": "211", "_loc": "0001"}, "geometry": {"type": "Polygon", "coordinates": [[[-96.86335, 20.18208], [-96.86297, 20.18246], [-96.86219, 20.18175], [-96.86272, 20.18153], [-96.86335, 20.18208]]]}}, {"id": "2414462", "type": "Feature", "properties": {"id": "2414462", "CVEGEO": "3021100010044010", "POBTOT": 55.0, "score_nse": 0.0, "NSE": "ND", "VIVTOT": 14.0, "GRAPROES": 7.97, "_ent": "30", "_mun": "211", "_loc": "0001"}, "geometry": {"type": "Polygon", "coordinates": [[[-96.8636, 20.18306], [-96.86302, 20.1825], [-96.86344, 20.18215], [-96.86397, 20.18271], [-96.8636, 20.18306]]]}}, {"id": "2414463", "type": "Feature", "properties": {"id": "2414463", "CVEGEO": "3021100010044009", "POBTOT": 9.0, "score_nse": 0.0, "NSE": "ND", "VIVTOT": 7.0, "GRAPROES": 6.17, "_ent": "30", "_mun": "211", "_loc": "0001"}, "geometry": {"type": "Polygon", "coordinates": [[[-96.86473, 20.18343], [-96.86437, 20.18379], [-96.86365, 20.18312], [-96.86401, 20.18277], [-96.86473, 20.18343]]]}}, {"id": "2414464", "type": "Feature", "properties": {"id": "2414464", "CVEGEO": "3021100010044008", "POBTOT": 92.0, "score_nse": 61.2694, "NSE": "C", "VIVTOT": 31.0, "GRAPROES": 9.93, "_ent": "30", "_mun": "211", "_loc": "0001"}, "geometry": {"type": "Polygon", "coordinates": [[[-96.86328, 20.18477], [-96.86349, 20.18435], [-96.86385, 20.18437], [-96.8656, 20.18275], [-96.86594, 20.18307], [-96.86528, 20.18374], [-96.865, 20.18362], [-96.86522, 20.1838], [-96.86472, 20.18429], [-96.86453, 20.18412], [-96.86465, 20.18435], [-96.86399, 20.18501], [-96.86328, 20.18477]]]}}, {"id": "2414465", "type": "Feature", "properties": {"id": "2414465", "CVEGEO": "3021100010044007", "POBTOT": 20.0, "score_nse": 62.12, "NSE": "C", "VIVTOT": 8.0, "GRAPROES": 8.56, "_ent": "30", "_mun": "211", "_loc": "0001"}, "geometry": {"type": "Polygon", "coordinates": [[[-96.86604, 20.18302], [-96.86537, 20.18235], [-96.86584, 20.18189], [-96.86651, 20.1826], [-96.86604, 20.18302]]]}}, {"id": "2414466", "type": "Feature", "properties": {"id": "2414466", "CVEGEO": "3021100010044006", "POBTOT": 45.0, "score_nse": 0.0, "NSE": "ND", "VIVTOT": 14.0, "GRAPROES": 9.34, "_ent": "30", "_mun": "211", "_loc": "0001"}, "geometry": {"type": "Polygon", "coordinates": [[[-96.86533, 20.1823], [-96.86491, 20.18191], [-96.86545, 20.18144], [-96.86582, 20.18181], [-96.86533, 20.1823]]]}}, {"id": "2414467", "type": "Feature", "properties": {"id": "2414467", "CVEGEO": "3021100010044005", "POBTOT": 0.0, "score_nse": 0.0, "NSE": "ND", "VIVTOT": 0.0, "GRAPROES": 0.0, "_ent": "30", "_mun": "211", "_loc": "0001"}, "geometry": {"type": "Polygon", "coordinates": [[[-96.86537, 20.18137], [-96.86481, 20.18183], [-96.86428, 20.18126], [-96.86478, 20.18079], [-96.86537, 20.18137]]]}}, {"id": "2414468", "type": "Feature", "properties": {"id": "2414468", "CVEGEO": "3021100010044004", "POBTOT": 0.0, "score_nse": 0.0, "NSE": "ND", "VIVTOT": 0.0, "GRAPROES": 0.0, "_ent": "30", "_mun": "211", "_loc": "0001"}, "geometry": {"type": "Polygon", "coordinates": [[[-96.86442, 20.18223], [-96.86396, 20.18168], [-96.86425, 20.18141], [-96.86474, 20.18194], [-96.86442, 20.18223]]]}}, {"id": "2414469", "type": "Feature", "properties": {"id": "2414469", "CVEGEO": "3021100010044003", "POBTOT": 48.0, "score_nse": 0.0, "NSE": "ND", "VIVTOT": 19.0, "GRAPROES": 8.72, "_ent": "30", "_mun": "211", "_loc": "0001"}, "geometry": {"type": "Polygon", "coordinates": [[[-96.864, 20.18265], [-96.86349, 20.18211], [-96.86389, 20.18176], [-96.86439, 20.1823], [-96.864, 20.18265]]]}}, {"id": "2414470", "type": "Feature", "properties": {"id": "2414470", "CVEGEO": "3021100010044002", "POBTOT": 42.0, "score_nse": 0.0, "NSE": "ND", "VIVTOT": 13.0, "GRAPROES": 7.65, "_ent": "30", "_mun": "211", "_loc": "0001"}, "geometry": {"type": "Polygon", "coordinates": [[[-96.86479, 20.1834], [-96.86406, 20.18273], [-96.86445, 20.18237], [-96.86515, 20.18304], [-96.86479, 20.1834]]]}}, {"id": "2414471", "type": "Feature", "properties": {"id": "2414471", "CVEGEO": "3021100010044001", "POBTOT": 54.0, "score_nse": 0.0, "NSE": "ND", "VIVTOT": 14.0, "GRAPROES": 8.71, "_ent": "30", "_mun": "211", "_loc": "0001"}, "geometry": {"type": "Polygon", "coordinates": [[[-96.86551, 20.18269], [-96.86517, 20.18298], [-96.8645, 20.18234], [-96.86482, 20.18203], [-96.86551, 20.18269]]]}}, {"id": "2414472", "type": "Feature", "properties": {"id": "2414472", "CVEGEO": "302110001003A047", "POBTOT": 16.0, "score_nse": 0.0, "NSE": "ND", "VIVTOT": 6.0, "GRAPROES": 10.33, "_ent": "30", "_mun": "211", "_loc": "0001"}, "geometry": {"type": "Polygon", "coordinates": [[[-96.8765, 20.18356], [-96.87669, 20.18341], [-96.87647, 20.18351], [-96.8763, 20.18328], [-96.87701, 20.18292], [-96.87749, 20.1838], [-96.87687, 20.18408], [-96.8765, 20.18356]]]}}, {"id": "2414473", "type": "Feature", "properties": {"id": "2414473", "CVEGEO": "302110001003A045", "POBTOT": 13.0, "score_nse": 0.0, "NSE": "ND", "VIVTOT": 3.0, "GRAPROES": 12.8, "_ent": "30", "_mun": "211", "_loc": "0001"}, "geometry": {"type": "Polygon", "coordinates": [[[-96.8737, 20.18331], [-96.87314, 20.18356], [-96.87275, 20.18282], [-96.87326, 20.18258], [-96.8737, 20.18331]]]}}, {"id": "2414474", "type": "Feature", "properties": {"id": "2414474", "CVEGEO": "302110001003A043", "POBTOT": 82.0, "score_nse": 45.4895, "NSE": "C-", "VIVTOT": 27.0, "GRAPROES": 8.25, "_ent": "30", "_mun": "211", "_loc": "0001"}, "geometry": {"type": "Polygon", "coordinates": [[[-96.87631, 20.18321], [-96.87579, 20.18245], [-96.8765, 20.18213], [-96.87699, 20.18289], [-96.87631, 20.18321]]]}}, {"id": "2414475", "type": "Feature", "properties": {"id": "2414475", "CVEGEO": "302110001003A041", "POBTOT": 3.0, "score_nse": 0.0, "NSE": "ND", "VIVTOT": 1.0, "GRAPROES": 0.0, "_ent": "30", "_mun": "211", "_loc": "0001"}, "geometry": {"type": "Polygon", "coordinates": [[[-96.86874, 20.18766], [-96.86843, 20.18801], [-96.86835, 20.18812], [-96.86826, 20.18776], [-96.86874, 20.18766]]]}}, {"id": "2414476", "type": "Feature", "properties": {"id": "2414476", "CVEGEO": "302110001003A039", "POBTOT": 38.0, "score_nse": 0.0, "NSE": "ND", "VIVTOT": 12.0, "GRAPROES": 8.7, "_ent": "30", "_mun": "211", "_loc": "0001"}, "geometry": {"type": "Polygon", "coordinates": [[[-96.87497, 20.18385], [-96.87444, 20.18308], [-96.87503, 20.18279], [-96.87549, 20.18358], [-96.87497, 20.18385]]]}}, {"id": "2414477", "type": "Feature", "properties": {"id": "2414477", "CVEGEO": "302110001003A038", "POBTOT": 22.0, "score_nse": 0.0, "NSE": "ND", "VIVTOT": 9.0, "GRAPROES": 10.47, "_ent": "30", "_mun": "211", "_loc": "0001"}, "geometry": {"type": "Polygon", "coordinates": [[[-96.87551, 20.18468], [-96.87502, 20.1839], [-96.87552, 20.18367], [-96.87602, 20.18442], [-96.87551, 20.18468]]]}}, {"id": "2414478", "type": "Feature", "properties": {"id": "2414478", "CVEGEO": "302110001003A037", "POBTOT": 0.0, "score_nse": 0.0, "NSE": "ND", "VIVTOT": 0.0, "GRAPROES": 0.0, "_ent": "30", "_mun": "211", "_loc": "0001"}, "geometry": {"type": "Polygon", "coordinates": [[[-96.86965, 20.18742], [-96.86997, 20.18738], [-96.87047, 20.18802], [-96.8732, 20.18931], [-96.87369, 20.19007], [-96.87384, 20.19086], [-96.87317, 20.19007], [-96.87087, 20.1892], [-96.86976, 20.18803], [-96.86965, 20.18742]]]}}, {"id": "2414479", "type": "Feature", "properties": {"id": "2414479", "CVEGEO": "302110001003A036", "POBTOT": 7.0, "score_nse": 0.0, "NSE": "ND", "VIVTOT": 1.0, "GRAPROES": 0.0, "_ent": "30", "_mun": "211", "_loc": "0001"}, "geometry": {"type": "Polygon", "coordinates": [[[-96.88112, 20.18324], [-96.88014, 20.18371], [-96.87977, 20.17993], [-96.88071, 20.17977], [-96.88112, 20.18324]]]}}, {"id": "2414480", "type": "Feature", "properties": {"id": "2414480", "CVEGEO": "302110001003A035", "POBTOT": 14.0, "score_nse": 0.0, "NSE": "ND", "VIVTOT": 6.0, "GRAPROES": 10.09, "_ent": "30", "_mun": "211", "_loc": "0001"}, "geometry": {"type": "Polygon", "coordinates": [[[-96.86955, 20.18835], [-96.86932, 20.18748], [-96.86954, 20.18744], [-96.86964, 20.18801], [-96.86987, 20.1883], [-96.86955, 20.18835]]]}}, {"id": "2414481", "type": "Feature", "properties": {"id": "2414481", "CVEGEO": "302110001003A032", "POBTOT": 24.0, "score_nse": 80.4945, "NSE": "C+", "VIVTOT": 11.0, "GRAPROES": 15.0, "_ent": "30", "_mun": "211", "_loc": "0001"}, "geometry": {"type": "Polygon", "coordinates": [[[-96.86576, 20.18422], [-96.86535, 20.18383], [-96.86603, 20.18317], [-96.86651, 20.18366], [-96.86576, 20.18422]]]}}, {"id": "2414482", "type": "Feature", "properties": {"id": "2414482", "CVEGEO": "302110001003A031", "POBTOT": 24.0, "score_nse": 89.032, "NSE": "A/B", "VIVTOT": 10.0, "GRAPROES": 15.14, "_ent": "30", "_mun": "211", "_loc": "0001"}, "geometry": {"type": "Polygon", "coordinates": [[[-96.86627, 20.18473], [-96.86584, 20.1843], [-96.86657, 20.1837], [-96.86708, 20.18425], [-96.86627, 20.18473]]]}}, {"id": "2414483", "type": "Feature", "properties": {"id": "2414483", "CVEGEO": "302110001003A029", "POBTOT": 19.0, "score_nse": 0.0, "NSE": "ND", "VIVTOT": 8.0, "GRAPROES": 11.33, "_ent": "30", "_mun": "211", "_loc": "0001"}, "geometry": {"type": "Polygon", "coordinates": [[[-96.86658, 20.1836], [-96.86609, 20.18311], [-96.86657, 20.18264], [-96.86711, 20.1832], [-96.86658, 20.1836]]]}}, {"id": "2414484", "type": "Feature", "properties": {"id": "2414484", "CVEGEO": "302110001003A028", "POBTOT": 0.0, "score_nse": 0.0, "NSE": "ND", "VIVTOT": 0.0, "GRAPROES": 0.0, "_ent": "30", "_mun": "211", "_loc": "0001"}, "geometry": {"type": "Polygon", "coordinates": [[[-96.86717, 20.18422], [-96.86665, 20.18366], [-96.86717, 20.18326], [-96.86775, 20.18386], [-96.86717, 20.18422]]]}}, {"id": "2414485", "type": "Feature", "properties": {"id": "2414485", "CVEGEO": "302110001003A027", "POBTOT": 26.0, "score_nse": 0.0, "NSE": "ND", "VIVTOT": 11.0, "GRAPROES": 8.37, "_ent": "30", "_mun": "211", "_loc": "0001"}, "geometry": {"type": "Polygon", "coordinates": [[[-96.86641, 20.18523], [-96.86632, 20.1848], [-96.86714, 20.1843], [-96.86728, 20.18482], [-96.86641, 20.18523]]]}}, {"id": "2414486", "type": "Feature", "properties": {"id": "2414486", "CVEGEO": "302110001003A026", "POBTOT": 58.0, "score_nse": 58.712, "NSE": "C", "VIVTOT": 20.0, "GRAPROES": 9.15, "_ent": "30", "_mun": "211", "_loc": "0001"}, "geometry": {"type": "Polygon", "coordinates": [[[-96.86672, 20.18597], [-96.86644, 20.18528], [-96.86729, 20.18487], [-96.86755, 20.18575], [-96.86672, 20.18597]]]}}, {"id": "2414487", "type": "Feature", "properties": {"id": "2414487", "CVEGEO": "302110001003A024", "POBTOT": 30.0, "score_nse": 77.1473, "NSE": "C+", "VIVTOT": 11.0, "GRAPROES": 12.81, "_ent": "30", "_mun": "211", "_loc": "0001"}, "geometry": {"type": "Polygon", "coordinates": [[[-96.86664, 20.18256], [-96.8668, 20.18241], [-96.86657, 20.18249], [-96.86635, 20.18227], [-96.86747, 20.18108], [-96.86766, 20.18136], [-96.86767, 20.18177], [-96.8683, 20.18268], [-96.86827, 20.18353], [-96.86784, 20.1838], [-96.86664, 20.18256]]]}}, {"id": "2414488", "type": "Feature", "properties": {"id": "2414488", "CVEGEO": "302110001003A022", "POBTOT": 27.0, "score_nse": 0.0, "NSE": "ND", "VIVTOT": 10.0, "GRAPROES": 9.39, "_ent": "30", "_mun": "211", "_loc": "0001"}, "geometry": {"type": "Polygon", "coordinates": [[[-96.86838, 20.18472], [-96.86749, 20.18516], [-96.86739, 20.18482], [-96.86846, 20.18434], [-96.86838, 20.18472]]]}}, {"id": "2414489", "type": "Feature", "properties": {"id": "2414489", "CVEGEO": "302110001003A021", "POBTOT": 77.0, "score_nse": 48.0452, "NSE": "C-", "VIVTOT": 29.0, "GRAPROES": 8.88, "_ent": "30", "_mun": "211", "_loc": "0001"}, "geometry": {"type": "Polygon", "coordinates": [[[-96.86782, 20.1857], [-96.86778, 20.18555], [-96.86764, 20.18574], [-96.86752, 20.18519], [-96.86837, 20.18479], [-96.86853, 20.18553], [-96.86782, 20.1857]]]}}, {"id": "2414490", "type": "Feature", "properties": {"id": "2414490", "CVEGEO": "302110001003A019", "POBTOT": 131.0, "score_nse": 52.8459, "NSE": "C-", "VIVTOT": 54.0, "GRAPROES": 9.57, "_ent": "30", "_mun": "211", "_loc": "0001"}, "geometry": {"type": "Polygon", "coordinates": [[[-96.86876, 20.18649], [-96.86796, 20.18672], [-96.86783, 20.18629], [-96.86822, 20.18621], [-96.86781, 20.18626], [-96.86765, 20.18581], [-96.86844, 20.18561], [-96.86876, 20.18649]]]}}, {"id": "2414491", "type": "Feature", "properties": {"id": "2414491", "CVEGEO": "302110001003A018", "POBTOT": 66.0, "score_nse": 63.832, "NSE": "C", "VIVTOT": 25.0, "GRAPROES": 10.79, "_ent": "30", "_mun": "211", "_loc": "0001"}, "geometry": {"type": "Polygon", "coordinates": [[[-96.86911, 20.18745], [-96.86824, 20.18768], [-96.86797, 20.18679], [-96.86879, 20.18658], [-96.86911, 20.18745]]]}}, {"id": "2414492", "type": "Feature", "properties": {"id": "2414492", "CVEGEO": "302110001003A017", "POBTOT": 40.0, "score_nse": 38.4386, "NSE": "D+", "VIVTOT": 17.0, "GRAPROES": 8.1, "_ent": "30", "_mun": "211", "_loc": "0001"}, "geometry": {"type": "Polygon", "coordinates": [[[-96.86921, 20.18739], [-96.86891, 20.18653], [-96.86915, 20.1865], [-96.86925, 20.18668], [-96.86938, 20.18735], [-96.86921, 20.18739]]]}}, {"id": "2414493", "type": "Feature", "properties": {"id": "2414493", "CVEGEO": "302110001003A015", "POBTOT": 16.0, "score_nse": 66.88, "NSE": "C", "VIVTOT": 5.0, "GRAPROES": 8.18, "_ent": "30", "_mun": "211", "_loc": "0001"}, "geometry": {"type": "Polygon", "coordinates": [[[-96.87698, 20.18532], [-96.88117, 20.18335], [-96.88152, 20.18643], [-96.88104, 20.18728], [-96.87326, 20.18929], [-96.87049, 20.18797], [-96.87005, 20.18749], [-96.87003, 20.18734], [-96.87383, 20.18666], [-96.87692, 20.18535], [-96.87767, 20.18669], [-96.87698, 20.18532]]]}}, {"id": "2414494", "type": "Feature", "properties": {"id": "2414494", "CVEGEO": "302110001003A046", "POBTOT": 9.0, "score_nse": 0.0, "NSE": "ND", "VIVTOT": 3.0, "GRAPROES": 0.0, "_ent": "30", "_mun": "211", "_loc": "0001"}, "geometry": {"type": "Polygon", "coordinates": [[[-96.86893, 20.18646], [-96.86881, 20.18611], [-96.86874, 20.18593], [-96.86908, 20.18644], [-96.86893, 20.18646]]]}}, {"id": "2414496", "type": "Feature", "properties": {"id": "2414496", "CVEGEO": "3021100010025033", "POBTOT": 11.0, "score_nse": 0.0, "NSE": "ND", "VIVTOT": 4.0, "GRAPROES": 12.6, "_ent": "30", "_mun": "211", "_loc": "0001"}, "geometry": {"type": "Polygon", "coordinates": [[[-96.87751, 20.19497], [-96.8773, 20.19593], [-96.87683, 20.1958], [-96.87713, 20.19485], [-96.87751, 20.19497]]]}}, {"id": "2414497", "type": "Feature", "properties": {"id": "2414497", "CVEGEO": "3021100010025030", "POBTOT": 67.0, "score_nse": 50.2545, "NSE": "C-", "VIVTOT": 22.0, "GRAPROES": 8.82, "_ent": "30", "_mun": "211", "_loc": "0001"}, "geometry": {"type": "Polygon", "coordinates": [[[-96.87791, 20.19322], [-96.87637, 20.193], [-96.87642, 20.19279], [-96.87797, 20.19295], [-96.87791, 20.19322]]]}}, {"id": "2414498", "type": "Feature", "properties": {"id": "2414498", "CVEGEO": "3021100010025026", "POBTOT": 57.0, "score_nse": 0.0, "NSE": "ND", "VIVTOT": 22.0, "GRAPROES": 6.84, "_ent": "30", "_mun": "211", "_loc": "0001"}, "geometry": {"type": "Polygon", "coordinates": [[[-96.87379, 20.1917], [-96.87463, 20.192], [-96.8745, 20.19251], [-96.87361, 20.19223], [-96.87379, 20.1917]]]}}, {"id": "2414499", "type": "Feature", "properties": {"id": "2414499", "CVEGEO": "3021100010025024", "POBTOT": 28.0, "score_nse": 0.0, "NSE": "ND", "VIVTOT": 8.0, "GRAPROES": 7.85, "_ent": "30", "_mun": "211", "_loc": "0001"}, "geometry": {"type": "Polygon", "coordinates": [[[-96.87873, 20.19437], [-96.87829, 20.19425], [-96.87843, 20.19371], [-96.87873, 20.19437]]]}}, {"id": "2414500", "type": "Feature", "properties": {"id": "2414500", "CVEGEO": "3021100010025023", "POBTOT": 40.0, "score_nse": 0.0, "NSE": "ND", "VIVTOT": 13.0, "GRAPROES": 8.3, "_ent": "30", "_mun": "211", "_loc": "0001"}, "geometry": {"type": "Polygon", "coordinates": [[[-96.87825, 20.19425], [-96.87787, 20.19414], [-96.87804, 20.19343], [-96.8784, 20.19358], [-96.87825, 20.19425]]]}}, {"id": "2414501", "type": "Feature", "properties": {"id": "2414501", "CVEGEO": "3021100010025022", "POBTOT": 63.0, "score_nse": 55.0311, "NSE": "C", "VIVTOT": 18.0, "GRAPROES": 9.16, "_ent": "30", "_mun": "211", "_loc": "0001"}, "geometry": {"type": "Polygon", "coordinates": [[[-96.87743, 20.194], [-96.87761, 20.19333], [-96.87799, 20.19343], [-96.87781, 20.19411], [-96.87743, 20.194]]]}}, {"id": "2414502", "type": "Feature", "properties": {"id": "2414502", "CVEGEO": "3021100010025021", "POBTOT": 42.0, "score_nse": 54.6067, "NSE": "C-", "VIVTOT": 15.0, "GRAPROES": 8.13, "_ent": "30", "_mun": "211", "_loc": "0001"}, "geometry": {"type": "Polygon", "coordinates": [[[-96.87707, 20.19391], [-96.87719, 20.19325], [-96.87754, 20.19331], [-96.87739, 20.19399], [-96.87707, 20.19391]]]}}, {"id": "2414503", "type": "Feature", "properties": {"id": "2414503", "CVEGEO": "3021100010025020", "POBTOT": 44.0, "score_nse": 60.9403, "NSE": "C", "VIVTOT": 13.0, "GRAPROES": 9.3, "_ent": "30", "_mun": "211", "_loc": "0001"}, "geometry": {"type": "Polygon", "coordinates": [[[-96.87657, 20.19376], [-96.87671, 20.19316], [-96.87711, 20.19323], [-96.87695, 20.19388], [-96.87657, 20.19376]]]}}, {"id": "2414504", "type": "Feature", "properties": {"id": "2414504", "CVEGEO": "3021100010025019", "POBTOT": 15.0, "score_nse": 0.0, "NSE": "ND", "VIVTOT": 8.0, "GRAPROES": 7.75, "_ent": "30", "_mun": "211", "_loc": "0001"}, "geometry": {"type": "Polygon", "coordinates": [[[-96.8762, 20.19363], [-96.87633, 20.19313], [-96.87653, 20.19309], [-96.87642, 20.19367], [-96.8762, 20.19363]]]}}, {"id": "2414505", "type": "Feature", "properties": {"id": "2414505", "CVEGEO": "3021100010025018", "POBTOT": 20.0, "score_nse": 0.0, "NSE": "ND", "VIVTOT": 12.0, "GRAPROES": 10.41, "_ent": "30", "_mun": "211", "_loc": "0001"}, "geometry": {"type": "Polygon", "coordinates": [[[-96.87581, 20.19349], [-96.87596, 20.19302], [-96.87627, 20.19311], [-96.87615, 20.19359], [-96.87581, 20.19349]]]}}, {"id": "2414506", "type": "Feature", "properties": {"id": "2414506", "CVEGEO": "3021100010025017", "POBTOT": 39.0, "score_nse": 65.0831, "NSE": "C", "VIVTOT": 13.0, "GRAPROES": 10.23, "_ent": "30", "_mun": "211", "_loc": "0001"}, "geometry": {"type": "Polygon", "coordinates": [[[-96.87544, 20.19341], [-96.87559, 20.19291], [-96.87588, 20.193], [-96.87572, 20.19347], [-96.87544, 20.19341]]]}}, {"id": "2414507", "type": "Feature", "properties": {"id": "2414507", "CVEGEO": "3021100010025016", "POBTOT": 36.0, "score_nse": 0.0, "NSE": "ND", "VIVTOT": 13.0, "GRAPROES": 9.57, "_ent": "30", "_mun": "211", "_loc": "0001"}, "geometry": {"type": "Polygon", "coordinates": [[[-96.87593, 20.19441], [-96.87609, 20.19369], [-96.87653, 20.19383], [-96.87632, 20.19453], [-96.87593, 20.19441]]]}}, {"id": "2414508", "type": "Feature", "properties": {"id": "2414508", "CVEGEO": "3021100010025015", "POBTOT": 59.0, "score_nse": 55.3207, "NSE": "C", "VIVTOT": 22.0, "GRAPROES": 9.68, "_ent": "30", "_mun": "211", "_loc": "0001"}, "geometry": {"type": "Polygon", "coordinates": [[[-96.87681, 20.19469], [-96.87702, 20.19398], [-96.87735, 20.19407], [-96.87716, 20.19479], [-96.87681, 20.19469]]]}}, {"id": "2414509", "type": "Feature", "properties": {"id": "2414509", "CVEGEO": "3021100010025014", "POBTOT": 34.0, "score_nse": 0.0, "NSE": "ND", "VIVTOT": 17.0, "GRAPROES": 9.55, "_ent": "30", "_mun": "211", "_loc": "0001"}, "geometry": {"type": "Polygon", "coordinates": [[[-96.87804, 20.19506], [-96.87764, 20.19494], [-96.87785, 20.1942], [-96.87824, 20.19434], [-96.87804, 20.19506]]]}}, {"id": "2414510", "type": "Feature", "properties": {"id": "2414510", "CVEGEO": "3021100010025013", "POBTOT": 0.0, "score_nse": 0.0, "NSE": "ND", "VIVTOT": 0.0, "GRAPROES": 0.0, "_ent": "30", "_mun": "211", "_loc": "0001"}, "geometry": {"type": "Polygon", "coordinates": [[[-96.87823, 20.18819], [-96.87798, 20.19265], [-96.87736, 20.19244], [-96.87636, 20.19182], [-96.87423, 20.19135], [-96.87411, 20.19117], [-96.87472, 20.19093], [-96.87469, 20.1908], [-96.87402, 20.19105], [-96.87381, 20.19003], [-96.87342, 20.18938], [-96.87823, 20.18819]]]}}, {"id": "2414511", "type": "Feature", "properties": {"id": "2414511", "CVEGEO": "3021100010025012", "POBTOT": 8.0, "score_nse": 0.0, "NSE": "ND", "VIVTOT": 5.0, "GRAPROES": 5.0, "_ent": "30", "_mun": "211", "_loc": "0001"}, "geometry": {"type": "Polygon", "coordinates": [[[-96.87894, 20.19457], [-96.87906, 20.19537], [-96.87867, 20.19524], [-96.87879, 20.1945], [-96.87894, 20.19457]]]}}, {"id": "2414512", "type": "Feature", "properties": {"id": "2414512", "CVEGEO": "3021100010025011", "POBTOT": 48.0, "score_nse": 0.0, "NSE": "ND", "VIVTOT": 17.0, "GRAPROES": 7.94, "_ent": "30", "_mun": "211", "_loc": "0001"}, "geometry": {"type": "Polygon", "coordinates": [[[-96.87842, 20.19517], [-96.87863, 20.19446], [-96.87876, 20.19451], [-96.87863, 20.19524], [-96.87842, 20.19517]]]}}, {"id": "2414513", "type": "Feature", "properties": {"id": "2414513", "CVEGEO": "3021100010025010", "POBTOT": 0.0, "score_nse": 0.0, "NSE": "ND", "VIVTOT": 0.0, "GRAPROES": 0.0, "_ent": "30", "_mun": "211", "_loc": "0001"}, "geometry": {"type": "Polygon", "coordinates": [[[-96.87637, 20.19244], [-96.87503, 20.1921], [-96.87448, 20.19155], [-96.87617, 20.19191], [-96.87725, 20.19246], [-96.87637, 20.19244]]]}}, {"id": "2414514", "type": "Feature", "properties": {"id": "2414514", "CVEGEO": "3021100010025008", "POBTOT": 62.0, "score_nse": 0.0, "NSE": "ND", "VIVTOT": 20.0, "GRAPROES": 8.35, "_ent": "30", "_mun": "211", "_loc": "0001"}, "geometry": {"type": "Polygon", "coordinates": [[[-96.87809, 20.19507], [-96.87828, 20.19435], [-96.87859, 20.19445], [-96.87837, 20.19516], [-96.87809, 20.19507]]]}}, {"id": "2414515", "type": "Feature", "properties": {"id": "2414515", "CVEGEO": "3021100010025007", "POBTOT": 41.0, "score_nse": 35.4775, "NSE": "D+", "VIVTOT": 13.0, "GRAPROES": 7.42, "_ent": "30", "_mun": "211", "_loc": "0001"}, "geometry": {"type": "Polygon", "coordinates": [[[-96.87893, 20.19438], [-96.87843, 20.1935], [-96.87806, 20.1933], [-96.87816, 20.19304], [-96.87849, 20.19318], [-96.87909, 20.19424], [-96.87893, 20.19438]]]}}, {"id": "2414516", "type": "Feature", "properties": {"id": "2414516", "CVEGEO": "3021100010025003", "POBTOT": 58.0, "score_nse": 54.408, "NSE": "C-", "VIVTOT": 20.0, "GRAPROES": 9.63, "_ent": "30", "_mun": "211", "_loc": "0001"}, "geometry": {"type": "Polygon", "coordinates": [[[-96.87639, 20.19275], [-96.87633, 20.19302], [-96.87461, 20.19252], [-96.87472, 20.19204], [-96.87544, 20.19247], [-96.87639, 20.19275]]]}}, {"id": "2414517", "type": "Feature", "properties": {"id": "2414517", "CVEGEO": "3021100010025002", "POBTOT": 42.0, "score_nse": 0.0, "NSE": "ND", "VIVTOT": 14.0, "GRAPROES": 8.39, "_ent": "30", "_mun": "211", "_loc": "0001"}, "geometry": {"type": "Polygon", "coordinates": [[[-96.87589, 20.1944], [-96.87553, 20.19429], [-96.87573, 20.19358], [-96.87605, 20.19371], [-96.87589, 20.1944]]]}}, {"id": "2414518", "type": "Feature", "properties": {"id": "2414518", "CVEGEO": "3021100010025001", "POBTOT": 49.0, "score_nse": 0.0, "NSE": "ND", "VIVTOT": 17.0, "GRAPROES": 10.33, "_ent": "30", "_mun": "211", "_loc": "0001"}, "geometry": {"type": "Polygon", "coordinates": [[[-96.87637, 20.19455], [-96.87656, 20.19384], [-96.87694, 20.19395], [-96.87675, 20.19466], [-96.87637, 20.19455]]]}}, {"id": "2414519", "type": "Feature", "properties": {"id": "2414519", "CVEGEO": "3021100010010058", "POBTOT": 7.0, "score_nse": 0.0, "NSE": "ND", "VIVTOT": 4.0, "GRAPROES": 9.67, "_ent": "30", "_mun": "211", "_loc": "0001"}, "geometry": {"type": "Polygon", "coordinates": [[[-96.8733, 20.19289], [-96.87305, 20.19353], [-96.87215, 20.19326], [-96.87234, 20.19253], [-96.8733, 20.19289]]]}}, {"id": "2414520", "type": "Feature", "properties": {"id": "2414520", "CVEGEO": "3021100010010057", "POBTOT": 13.0, "score_nse": 0.0, "NSE": "ND", "VIVTOT": 4.0, "GRAPROES": 8.25, "_ent": "30", "_mun": "211", "_loc": "0001"}, "geometry": {"type": "Polygon", "coordinates": [[[-96.87534, 20.19347], [-96.87506, 20.19416], [-96.87418, 20.19389], [-96.87441, 20.19318], [-96.87534, 20.19347]]]}}, {"id": "2414521", "type": "Feature", "properties": {"id": "2414521", "CVEGEO": "3021100010010056", "POBTOT": 0.0, "score_nse": 0.0, "NSE": "ND", "VIVTOT": 0.0, "GRAPROES": 0.0, "_ent": "30", "_mun": "211", "_loc": "0001"}, "geometry": {"type": "Polygon", "coordinates": [[[-96.87538, 20.19338], [-96.87446, 20.19312], [-96.87459, 20.19264], [-96.87553, 20.19291], [-96.87538, 20.19338]]]}}, {"id": "2414522", "type": "Feature", "properties": {"id": "2414522", "CVEGEO": "3021100010010055", "POBTOT": 30.0, "score_nse": 0.0, "NSE": "ND", "VIVTOT": 9.0, "GRAPROES": 10.68, "_ent": "30", "_mun": "211", "_loc": "0001"}, "geometry": {"type": "Polygon", "coordinates": [[[-96.87222, 20.1905], [-96.87205, 20.1911], [-96.87118, 20.19073], [-96.87152, 20.19028], [-96.87222, 20.1905]]]}}, {"id": "2414523", "type": "Feature", "properties": {"id": "2414523", "CVEGEO": "3021100010010054", "POBTOT": 13.0, "score_nse": 59.3667, "NSE": "C", "VIVTOT": 6.0, "GRAPROES": 8.75, "_ent": "30", "_mun": "211", "_loc": "0001"}, "geometry": {"type": "Polygon", "coordinates": [[[-96.86456, 20.18713], [-96.8643, 20.18693], [-96.86555, 20.18641], [-96.86567, 20.18684], [-96.86456, 20.18713]]]}}, {"id": "2414557", "type": "Feature", "properties": {"id": "2414557", "CVEGEO": "3021100010010052", "POBTOT": 15.0, "score_nse": 79.32, "NSE": "C+", "VIVTOT": 5.0, "GRAPROES": 10.46, "_ent": "30", "_mun": "211", "_loc": "0001"}, "geometry": {"type": "Polygon", "coordinates": [[[-96.86896, 20.18799], [-96.86878, 20.18774], [-96.86923, 20.18752], [-96.86932, 20.18794], [-96.86896, 20.18799]]]}}, {"id": "2414558", "type": "Feature", "properties": {"id": "2414558", "CVEGEO": "3021100010010051", "POBTOT": 28.0, "score_nse": 79.136, "NSE": "C+", "VIVTOT": 10.0, "GRAPROES": 12.74, "_ent": "30", "_mun": "211", "_loc": "0001"}, "geometry": {"type": "Polygon", "coordinates": [[[-96.86557, 20.18511], [-96.86477, 20.18439], [-96.86528, 20.18389], [-96.86615, 20.18479], [-96.86557, 20.18511]]]}}, {"id": "2414559", "type": "Feature", "properties": {"id": "2414559", "CVEGEO": "3021100010010050", "POBTOT": 6.0, "score_nse": 0.0, "NSE": "ND", "VIVTOT": 2.0, "GRAPROES": 0.0, "_ent": "30", "_mun": "211", "_loc": "0001"}, "geometry": {"type": "Polygon", "coordinates": [[[-96.86835, 20.19084], [-96.86863, 20.19218], [-96.86841, 20.19212], [-96.86804, 20.19091], [-96.86835, 20.19084]]]}}, {"id": "2414560", "type": "Feature", "properties": {"id": "2414560", "CVEGEO": "3021100010010049", "POBTOT": 72.0, "score_nse": 55.758, "NSE": "C", "VIVTOT": 28.0, "GRAPROES": 9.58, "_ent": "30", "_mun": "211", "_loc": "0001"}, "geometry": {"type": "Polygon", "coordinates": [[[-96.87335, 20.19279], [-96.87237, 20.19248], [-96.87256, 20.192], [-96.87352, 20.1923], [-96.87335, 20.19279]]]}}, {"id": "2414561", "type": "Feature", "properties": {"id": "2414561", "CVEGEO": "3021100010010048", "POBTOT": 89.0, "score_nse": 52.3568, "NSE": "C-", "VIVTOT": 51.0, "GRAPROES": 10.18, "_ent": "30", "_mun": "211", "_loc": "0001"}, "geometry": {"type": "Polygon", "coordinates": [[[-96.87135, 20.1902], [-96.87023, 20.18936], [-96.86983, 20.18935], [-96.86957, 20.1884], [-96.86992, 20.18835], [-96.87021, 20.18882], [-96.87095, 20.18939], [-96.8714, 20.1894], [-96.87314, 20.19022], [-96.87468, 20.19192], [-96.8728, 20.1913], [-96.87293, 20.19097], [-96.87274, 20.19129], [-96.87211, 20.19112], [-96.87228, 20.19045], [-96.8715, 20.1902], [-96.87144, 20.19003], [-96.87135, 20.1902]]]}}, {"id": "2414562", "type": "Feature", "properties": {"id": "2414562", "CVEGEO": "3021100010010047", "POBTOT": 40.0, "score_nse": 79.41, "NSE": "C+", "VIVTOT": 12.0, "GRAPROES": 13.38, "_ent": "30", "_mun": "211", "_loc": "0001"}, "geometry": {"type": "Polygon", "coordinates": [[[-96.87388, 20.19344], [-96.87374, 20.19375], [-96.87309, 20.19355], [-96.87336, 20.19286], [-96.87434, 20.19316], [-96.87413, 20.19386], [-96.8738, 20.19376], [-96.87388, 20.19344]]]}}, {"id": "2414564", "type": "Feature", "properties": {"id": "2414564", "CVEGEO": "3021100010010046", "POBTOT": 81.0, "score_nse": 0.0, "NSE": "ND", "VIVTOT": 25.0, "GRAPROES": 8.28, "_ent": "30", "_mun": "211", "_loc": "0001"}, "geometry": {"type": "Polygon", "coordinates": [[[-96.87448, 20.19262], [-96.87432, 20.1931], [-96.87339, 20.19281], [-96.87357, 20.19232], [-96.87448, 20.19262]]]}}, {"id": "2414565", "type": "Feature", "properties": {"id": "2414565", "CVEGEO": "3021100010010045", "POBTOT": 100.0, "score_nse": 51.2451, "NSE": "C-", "VIVTOT": 35.0, "GRAPROES": 9.32, "_ent": "30", "_mun": "211", "_loc": "0001"}, "geometry": {"type": "Polygon", "coordinates": [[[-96.87353, 20.19221], [-96.87261, 20.19191], [-96.87279, 20.19137], [-96.87373, 20.19168], [-96.87353, 20.19221]]]}}, {"id": "2414566", "type": "Feature", "properties": {"id": "2414566", "CVEGEO": "3021100010010044", "POBTOT": 24.0, "score_nse": 65.7, "NSE": "C", "VIVTOT": 10.0, "GRAPROES": 11.25, "_ent": "30", "_mun": "211", "_loc": "0001"}, "geometry": {"type": "Polygon", "coordinates": [[[-96.87227, 20.1926], [-96.8721, 20.19325], [-96.87147, 20.19306], [-96.87171, 20.19234], [-96.87227, 20.1926]]]}}, {"id": "2414567", "type": "Feature", "properties": {"id": "2414567", "CVEGEO": "3021100010010043", "POBTOT": 78.0, "score_nse": 0.0, "NSE": "ND", "VIVTOT": 29.0, "GRAPROES": 8.88, "_ent": "30", "_mun": "211", "_loc": "0001"}, "geometry": {"type": "Polygon", "coordinates": [[[-96.87228, 20.19247], [-96.87172, 20.19231], [-96.8719, 20.19181], [-96.8725, 20.19198], [-96.87228, 20.19247]]]}}, {"id": "2414568", "type": "Feature", "properties": {"id": "2414568", "CVEGEO": "3021100010010042", "POBTOT": 30.0, "score_nse": 0.0, "NSE": "ND", "VIVTOT": 10.0, "GRAPROES": 11.04, "_ent": "30", "_mun": "211", "_loc": "0001"}, "geometry": {"type": "Polygon", "coordinates": [[[-96.87248, 20.19189], [-96.87194, 20.19171], [-96.87209, 20.19118], [-96.87272, 20.19136], [-96.87248, 20.19189]]]}}, {"id": "2414569", "type": "Feature", "properties": {"id": "2414569", "CVEGEO": "3021100010010041", "POBTOT": 90.0, "score_nse": 64.7644, "NSE": "C", "VIVTOT": 36.0, "GRAPROES": 11.28, "_ent": "30", "_mun": "211", "_loc": "0001"}, "geometry": {"type": "Polygon", "coordinates": [[[-96.86839, 20.1974], [-96.86912, 20.19494], [-96.86888, 20.1926], [-96.86904, 20.19244], [-96.86952, 20.19255], [-96.86999, 20.19409], [-96.86966, 20.1926], [-96.87385, 20.19386], [-96.87364, 20.1947], [-96.87393, 20.19389], [-96.87502, 20.19422], [-96.87479, 20.19504], [-96.87509, 20.19424], [-96.87571, 20.19444], [-96.87546, 20.19525], [-96.87578, 20.19445], [-96.87619, 20.19458], [-96.87591, 20.19554], [-96.87418, 20.19501], [-96.87389, 20.19589], [-96.86966, 20.19466], [-96.86893, 20.1977], [-96.86839, 20.1974]]]}}, {"id": "2414570", "type": "Feature", "properties": {"id": "2414570", "CVEGEO": "3021100010025005", "POBTOT": 25.0, "score_nse": 0.0, "NSE": "ND", "VIVTOT": 14.0, "GRAPROES": 8.48, "_ent": "30", "_mun": "211", "_loc": "0001"}, "geometry": {"type": "Polygon", "coordinates": [[[-96.87547, 20.19427], [-96.87512, 20.19417], [-96.87537, 20.19347], [-96.87568, 20.19357], [-96.87547, 20.19427]]]}}, {"id": "2414572", "type": "Feature", "properties": {"id": "2414572", "CVEGEO": "3021100010010040", "POBTOT": 33.0, "score_nse": 85.4, "NSE": "A/B", "VIVTOT": 10.0, "GRAPROES": 12.81, "_ent": "30", "_mun": "211", "_loc": "0001"}, "geometry": {"type": "Polygon", "coordinates": [[[-96.87137, 20.19304], [-96.87075, 20.19283], [-96.87057, 20.19203], [-96.87158, 20.19235], [-96.87137, 20.19304]]]}}, {"id": "2414573", "type": "Feature", "properties": {"id": "2414573", "CVEGEO": "3021100010010039", "POBTOT": 129.0, "score_nse": 51.8225, "NSE": "C-", "VIVTOT": 54.0, "GRAPROES": 9.7, "_ent": "30", "_mun": "211", "_loc": "0001"}, "geometry": {"type": "Polygon", "coordinates": [[[-96.87163, 20.19227], [-96.87056, 20.19197], [-96.87039, 20.19136], [-96.87115, 20.19145], [-96.87182, 20.19179], [-96.87163, 20.19227]]]}}, {"id": "2414574", "type": "Feature", "properties": {"id": "2414574", "CVEGEO": "3021100010010038", "POBTOT": 112.0, "score_nse": 56.0306, "NSE": "C", "VIVTOT": 47.0, "GRAPROES": 9.82, "_ent": "30", "_mun": "211", "_loc": "0001"}, "geometry": {"type": "Polygon", "coordinates": [[[-96.87117, 20.19136], [-96.87037, 20.19129], [-96.87013, 20.19044], [-96.87108, 20.19011], [-96.87121, 20.19014], [-96.87052, 20.19092], [-96.87082, 20.19097], [-96.87102, 20.19076], [-96.87202, 20.19119], [-96.87186, 20.19168], [-96.87117, 20.19136]]]}}, {"id": "2414575", "type": "Feature", "properties": {"id": "2414575", "CVEGEO": "3021100010010036", "POBTOT": 99.0, "score_nse": 55.4086, "NSE": "C", "VIVTOT": 43.0, "GRAPROES": 10.62, "_ent": "30", "_mun": "211", "_loc": "0001"}, "geometry": {"type": "Polygon", "coordinates": [[[-96.86523, 20.18569], [-96.86554, 20.18633], [-96.86424, 20.1869], [-96.86371, 20.18636], [-96.86523, 20.18569]]]}}, {"id": "2414576", "type": "Feature", "properties": {"id": "2414576", "CVEGEO": "3021100010010035", "POBTOT": 47.0, "score_nse": 83.5729, "NSE": "C+", "VIVTOT": 18.0, "GRAPROES": 11.68, "_ent": "30", "_mun": "211", "_loc": "0001"}, "geometry": {"type": "Polygon", "coordinates": [[[-96.86505, 20.18542], [-96.86442, 20.18517], [-96.86406, 20.18505], [-96.86471, 20.18443], [-96.86548, 20.18518], [-96.86505, 20.18542]]]}}, {"id": "2414577", "type": "Feature", "properties": {"id": "2414577", "CVEGEO": "3021100010010034", "POBTOT": 35.0, "score_nse": 76.4749, "NSE": "C+", "VIVTOT": 14.0, "GRAPROES": 12.5, "_ent": "30", "_mun": "211", "_loc": "0001"}, "geometry": {"type": "Polygon", "coordinates": [[[-96.86425, 20.18601], [-96.86368, 20.18545], [-96.86398, 20.18515], [-96.86509, 20.18562], [-96.86425, 20.18601]]]}}, {"id": "2414578", "type": "Feature", "properties": {"id": "2414578", "CVEGEO": "3021100010010033", "POBTOT": 11.0, "score_nse": 52.6458, "NSE": "C-", "VIVTOT": 9.0, "GRAPROES": 7.8, "_ent": "30", "_mun": "211", "_loc": "0001"}, "geometry": {"type": "Polygon", "coordinates": [[[-96.86364, 20.18631], [-96.86227, 20.18482], [-96.86208, 20.18438], [-96.86386, 20.18509], [-96.86357, 20.18536], [-96.86341, 20.1852], [-96.86333, 20.1853], [-96.86415, 20.18605], [-96.86364, 20.18631]]]}}, {"id": "2414579", "type": "Feature", "properties": {"id": "2414579", "CVEGEO": "3021100010010031", "POBTOT": 20.0, "score_nse": 50.42, "NSE": "C-", "VIVTOT": 13.0, "GRAPROES": 9.11, "_ent": "30", "_mun": "211", "_loc": "0001"}, "geometry": {"type": "Polygon", "coordinates": [[[-96.86654, 20.18601], [-96.86564, 20.18629], [-96.86541, 20.18577], [-96.86509, 20.18549], [-96.8662, 20.18487], [-96.86654, 20.18601]]]}}, {"id": "2414580", "type": "Feature", "properties": {"id": "2414580", "CVEGEO": "3021100010010030", "POBTOT": 40.0, "score_nse": 56.6716, "NSE": "C", "VIVTOT": 18.0, "GRAPROES": 10.88, "_ent": "30", "_mun": "211", "_loc": "0001"}, "geometry": {"type": "Polygon", "coordinates": [[[-96.86571, 20.1873], [-96.86503, 20.18745], [-96.8646, 20.18716], [-96.86568, 20.18689], [-96.86571, 20.1873]]]}}, {"id": "2414581", "type": "Feature", "properties": {"id": "2414581", "CVEGEO": "3021100010010029", "POBTOT": 82.0, "score_nse": 44.95, "NSE": "C-", "VIVTOT": 44.0, "GRAPROES": 8.13, "_ent": "30", "_mun": "211", "_loc": "0001"}, "geometry": {"type": "Polygon", "coordinates": [[[-96.8659, 20.18914], [-96.86675, 20.19135], [-96.86557, 20.18907], [-96.86444, 20.18773], [-96.86417, 20.18709], [-96.86353, 20.18645], [-96.86354, 20.18627], [-96.86497, 20.18748], [-96.86461, 20.18758], [-96.8659, 20.18914]]]}}, {"id": "2414582", "type": "Feature", "properties": {"id": "2414582", "CVEGEO": "3021100010010028", "POBTOT": 33.0, "score_nse": 67.8314, "NSE": "C", "VIVTOT": 14.0, "GRAPROES": 10.93, "_ent": "30", "_mun": "211", "_loc": "0001"}, "geometry": {"type": "Polygon", "coordinates": [[[-96.86869, 20.19232], [-96.86896, 20.19379], [-96.86727, 20.19333], [-96.86701, 20.19182], [-96.86807, 20.19212], [-96.86808, 20.19262], [-96.86813, 20.19213], [-96.86869, 20.19232]]]}}, {"id": "2414583", "type": "Feature", "properties": {"id": "2414583", "CVEGEO": "3021100010010027", "POBTOT": 84.0, "score_nse": 47.0593, "NSE": "C-", "VIVTOT": 46.0, "GRAPROES": 9.55, "_ent": "30", "_mun": "211", "_loc": "0001"}, "geometry": {"type": "Polygon", "coordinates": [[[-96.86784, 20.18673], [-96.86692, 20.18698], [-96.86666, 20.18607], [-96.86758, 20.18584], [-96.86784, 20.18673]]]}}, {"id": "2414584", "type": "Feature", "properties": {"id": "2414584", "CVEGEO": "3021100010010026", "POBTOT": 56.0, "score_nse": 57.34, "NSE": "C", "VIVTOT": 24.0, "GRAPROES": 10.23, "_ent": "30", "_mun": "211", "_loc": "0001"}, "geometry": {"type": "Polygon", "coordinates": [[[-96.86684, 20.18704], [-96.8659, 20.18728], [-96.86565, 20.18635], [-96.86658, 20.18611], [-96.86684, 20.18704]]]}}, {"id": "2414585", "type": "Feature", "properties": {"id": "2414585", "CVEGEO": "3021100010010025", "POBTOT": 86.0, "score_nse": 62.276, "NSE": "C", "VIVTOT": 25.0, "GRAPROES": 10.24, "_ent": "30", "_mun": "211", "_loc": "0001"}, "geometry": {"type": "Polygon", "coordinates": [[[-96.86927, 20.1913], [-96.8703, 20.19134], [-96.8705, 20.19211], [-96.87017, 20.19212], [-96.87052, 20.19218], [-96.87069, 20.1928], [-96.86961, 20.19251], [-96.86927, 20.1913]]]}}, {"id": "2414586", "type": "Feature", "properties": {"id": "2414586", "CVEGEO": "3021100010010023", "POBTOT": 0.0, "score_nse": 0.0, "NSE": "ND", "VIVTOT": 0.0, "GRAPROES": 0.0, "_ent": "30", "_mun": "211", "_loc": "0001"}, "geometry": {"type": "Polygon", "coordinates": [[[-96.86814, 20.18773], [-96.8672, 20.18795], [-96.86695, 20.18707], [-96.86786, 20.18682], [-96.86814, 20.18773]]]}}, {"id": "2414587", "type": "Feature", "properties": {"id": "2414587", "CVEGEO": "3021100010010022", "POBTOT": 94.0, "score_nse": 57.8858, "NSE": "C", "VIVTOT": 44.0, "GRAPROES": 10.11, "_ent": "30", "_mun": "211", "_loc": "0001"}, "geometry": {"type": "Polygon", "coordinates": [[[-96.86709, 20.18799], [-96.86618, 20.18825], [-96.86591, 20.18735], [-96.86686, 20.18709], [-96.86709, 20.18799]]]}}, {"id": "2414588", "type": "Feature", "properties": {"id": "2414588", "CVEGEO": "3021100010025004", "POBTOT": 39.0, "score_nse": 0.0, "NSE": "ND", "VIVTOT": 16.0, "GRAPROES": 9.86, "_ent": "30", "_mun": "211", "_loc": "0001"}, "geometry": {"type": "Polygon", "coordinates": [[[-96.87758, 20.19493], [-96.8772, 20.1948], [-96.8774, 20.19408], [-96.87778, 20.19419], [-96.87758, 20.19493]]]}}, {"id": "2414590", "type": "Feature", "properties": {"id": "2414590", "CVEGEO": "3021100010010021", "POBTOT": 74.0, "score_nse": 56.8019, "NSE": "C", "VIVTOT": 42.0, "GRAPROES": 10.42, "_ent": "30", "_mun": "211", "_loc": "0001"}, "geometry": {"type": "Polygon", "coordinates": [[[-96.86606, 20.18827], [-96.86536, 20.18846], [-96.86474, 20.18763], [-96.86582, 20.18736], [-96.86606, 20.18827]]]}}, {"id": "2414591", "type": "Feature", "properties": {"id": "2414591", "CVEGEO": "3021100010010020", "POBTOT": 5.0, "score_nse": 38.032, "NSE": "D+", "VIVTOT": 4.0, "GRAPROES": 10.6, "_ent": "30", "_mun": "211", "_loc": "0001"}, "geometry": {"type": "Polygon", "coordinates": [[[-96.86611, 20.18842], [-96.8663, 20.18911], [-96.86602, 20.18919], [-96.8655, 20.18852], [-96.86611, 20.18842]]]}}, {"id": "2414592", "type": "Feature", "properties": {"id": "2414592", "CVEGEO": "3021100010010018", "POBTOT": 17.0, "score_nse": 0.0, "NSE": "ND", "VIVTOT": 10.0, "GRAPROES": 9.07, "_ent": "30", "_mun": "211", "_loc": "0001"}, "geometry": {"type": "Polygon", "coordinates": [[[-96.86794, 20.19092], [-96.86828, 20.19207], [-96.86695, 20.19171], [-96.86681, 20.19122], [-96.86794, 20.19092]]]}}, {"id": "2414593", "type": "Feature", "properties": {"id": "2414593", "CVEGEO": "3021100010010017", "POBTOT": 14.0, "score_nse": 64.0756, "NSE": "C", "VIVTOT": 9.0, "GRAPROES": 13.82, "_ent": "30", "_mun": "211", "_loc": "0001"}, "geometry": {"type": "Polygon", "coordinates": [[[-96.86903, 20.19071], [-96.86926, 20.19164], [-96.86952, 20.19247], [-96.86873, 20.19204], [-96.86847, 20.19084], [-96.86903, 20.19071]]]}}, {"id": "2414594", "type": "Feature", "properties": {"id": "2414594", "CVEGEO": "3021100010010013", "POBTOT": 44.0, "score_nse": 58.2676, "NSE": "C", "VIVTOT": 22.0, "GRAPROES": 10.97, "_ent": "30", "_mun": "211", "_loc": "0001"}, "geometry": {"type": "Polygon", "coordinates": [[[-96.86851, 20.18865], [-96.86836, 20.18822], [-96.86876, 20.18776], [-96.86894, 20.18802], [-96.86933, 20.18797], [-96.86946, 20.18841], [-96.86851, 20.18865]]]}}, {"id": "2414595", "type": "Feature", "properties": {"id": "2414595", "CVEGEO": "3021100010010012", "POBTOT": 28.0, "score_nse": 63.3378, "NSE": "C", "VIVTOT": 18.0, "GRAPROES": 12.04, "_ent": "30", "_mun": "211", "_loc": "0001"}, "geometry": {"type": "Polygon", "coordinates": [[[-96.86748, 20.18891], [-96.86721, 20.18803], [-96.86817, 20.18779], [-96.86826, 20.18815], [-96.86803, 20.18856], [-96.86748, 20.18891]]]}}, {"id": "2414596", "type": "Feature", "properties": {"id": "2414596", "CVEGEO": "3021100010010011", "POBTOT": 33.0, "score_nse": 60.5964, "NSE": "C", "VIVTOT": 22.0, "GRAPROES": 11.67, "_ent": "30", "_mun": "211", "_loc": "0001"}, "geometry": {"type": "Polygon", "coordinates": [[[-96.86736, 20.18891], [-96.86643, 20.18918], [-96.86619, 20.18833], [-96.86711, 20.18804], [-96.86736, 20.18891]]]}}, {"id": "2414597", "type": "Feature", "properties": {"id": "2414597", "CVEGEO": "3021100010010032", "POBTOT": 50.0, "score_nse": 47.9332, "NSE": "C-", "VIVTOT": 23.0, "GRAPROES": 8.74, "_ent": "30", "_mun": "211", "_loc": "0001"}, "geometry": {"type": "Polygon", "coordinates": [[[-96.8689, 20.19549], [-96.86861, 20.1964], [-96.8672, 20.19581], [-96.86729, 20.19487], [-96.8689, 20.19549]]]}}, {"id": "2414599", "type": "Feature", "properties": {"id": "2414599", "CVEGEO": "3021100010010009", "POBTOT": 43.0, "score_nse": 64.366, "NSE": "C", "VIVTOT": 24.0, "GRAPROES": 11.26, "_ent": "30", "_mun": "211", "_loc": "0001"}, "geometry": {"type": "Polygon", "coordinates": [[[-96.86681, 20.19111], [-96.86654, 20.19031], [-96.86769, 20.19003], [-96.86792, 20.19083], [-96.86681, 20.19111]]]}}, {"id": "2414600", "type": "Feature", "properties": {"id": "2414600", "CVEGEO": "3021100010010008", "POBTOT": 8.0, "score_nse": 0.0, "NSE": "ND", "VIVTOT": 3.0, "GRAPROES": 12.57, "_ent": "30", "_mun": "211", "_loc": "0001"}, "geometry": {"type": "Polygon", "coordinates": [[[-96.86814, 20.1899], [-96.86835, 20.19073], [-96.86804, 20.19081], [-96.8678, 20.18999], [-96.86814, 20.1899]]]}}, {"id": "2414601", "type": "Feature", "properties": {"id": "2414601", "CVEGEO": "3021100010010007", "POBTOT": 12.0, "score_nse": 0.0, "NSE": "ND", "VIVTOT": 6.0, "GRAPROES": 7.82, "_ent": "30", "_mun": "211", "_loc": "0001"}, "geometry": {"type": "Polygon", "coordinates": [[[-96.86874, 20.18975], [-96.86899, 20.19065], [-96.86846, 20.19078], [-96.86827, 20.18986], [-96.86874, 20.18975]]]}}, {"id": "2414602", "type": "Feature", "properties": {"id": "2414602", "CVEGEO": "3021100010010006", "POBTOT": 113.0, "score_nse": 56.072, "NSE": "C", "VIVTOT": 50.0, "GRAPROES": 9.98, "_ent": "30", "_mun": "211", "_loc": "0001"}, "geometry": {"type": "Polygon", "coordinates": [[[-96.87001, 20.19038], [-96.86908, 20.19064], [-96.86883, 20.18973], [-96.86978, 20.18948], [-96.87001, 20.19038]]]}}, {"id": "2414603", "type": "Feature", "properties": {"id": "2414603", "CVEGEO": "3021100010010005", "POBTOT": 56.0, "score_nse": 56.7, "NSE": "C", "VIVTOT": 25.0, "GRAPROES": 10.06, "_ent": "30", "_mun": "211", "_loc": "0001"}, "geometry": {"type": "Polygon", "coordinates": [[[-96.86973, 20.1894], [-96.86879, 20.18967], [-96.86853, 20.18873], [-96.86947, 20.18847], [-96.86973, 20.1894]]]}}, {"id": "2414604", "type": "Feature", "properties": {"id": "2414604", "CVEGEO": "3021100010010004", "POBTOT": 0.0, "score_nse": 0.0, "NSE": "ND", "VIVTOT": 0.0, "GRAPROES": 0.0, "_ent": "30", "_mun": "211", "_loc": "0001"}, "geometry": {"type": "Polygon", "coordinates": [[[-96.86841, 20.18868], [-96.86821, 20.18871], [-96.86835, 20.18841], [-96.86841, 20.18868]]]}}, {"id": "2414605", "type": "Feature", "properties": {"id": "2414605", "CVEGEO": "3021100010010002", "POBTOT": 25.0, "score_nse": 62.0034, "NSE": "C", "VIVTOT": 7.0, "GRAPROES": 10.55, "_ent": "30", "_mun": "211", "_loc": "0001"}, "geometry": {"type": "Polygon", "coordinates": [[[-96.86778, 20.18989], [-96.86753, 20.18907], [-96.86751, 20.18902], [-96.868, 20.1893], [-96.86812, 20.18982], [-96.86778, 20.18989]]]}}, {"id": "2414606", "type": "Feature", "properties": {"id": "2414606", "CVEGEO": "3021100010010001", "POBTOT": 14.0, "score_nse": 68.448, "NSE": "C", "VIVTOT": 9.0, "GRAPROES": 12.69, "_ent": "30", "_mun": "211", "_loc": "0001"}, "geometry": {"type": "Polygon", "coordinates": [[[-96.86826, 20.18978], [-96.86818, 20.1888], [-96.86843, 20.18875], [-96.86871, 20.18969], [-96.86826, 20.18978]]]}}, {"id": "2414627", "type": "Feature", "properties": {"id": "2414627", "CVEGEO": "302110001003A014", "POBTOT": 37.0, "score_nse": 53.7575, "NSE": "C-", "VIVTOT": 13.0, "GRAPROES": 8.82, "_ent": "30", "_mun": "211", "_loc": "0001"}, "geometry": {"type": "Polygon", "coordinates": [[[-96.87786, 20.1836], [-96.87735, 20.18266], [-96.87701, 20.18282], [-96.87651, 20.18209], [-96.87981, 20.18059], [-96.88007, 20.18374], [-96.87748, 20.18495], [-96.8769, 20.18413], [-96.87786, 20.1836]]]}}, {"id": "2414628", "type": "Feature", "properties": {"id": "2414628", "CVEGEO": "302110001003A013", "POBTOT": 110.0, "score_nse": 0.0, "NSE": "ND", "VIVTOT": 39.0, "GRAPROES": 8.42, "_ent": "30", "_mun": "211", "_loc": "0001"}, "geometry": {"type": "Polygon", "coordinates": [[[-96.87646, 20.182], [-96.87524, 20.18259], [-96.87506, 20.18218], [-96.8752, 20.18261], [-96.87376, 20.18329], [-96.87328, 20.18251], [-96.87272, 20.18277], [-96.87247, 20.18233], [-96.87595, 20.18068], [-96.87646, 20.182]]]}}, {"id": "2414629", "type": "Feature", "properties": {"id": "2414629", "CVEGEO": "302110001003A009", "POBTOT": 116.0, "score_nse": 53.3037, "NSE": "C-", "VIVTOT": 39.0, "GRAPROES": 8.68, "_ent": "30", "_mun": "211", "_loc": "0001"}, "geometry": {"type": "Polygon", "coordinates": [[[-96.8731, 20.18366], [-96.87423, 20.18531], [-96.87399, 20.18547], [-96.87427, 20.18537], [-96.87478, 20.18617], [-96.87139, 20.18695], [-96.87128, 20.18651], [-96.86956, 20.18684], [-96.86939, 20.1855], [-96.86858, 20.18515], [-96.86849, 20.18466], [-96.86858, 20.18413], [-96.87238, 20.18235], [-96.87306, 20.18359], [-96.87296, 20.18373], [-96.8731, 20.18366]]]}}, {"id": "2414631", "type": "Feature", "properties": {"id": "2414631", "CVEGEO": "302110001003A008", "POBTOT": 44.0, "score_nse": 0.0, "NSE": "ND", "VIVTOT": 17.0, "GRAPROES": 9.31, "_ent": "30", "_mun": "211", "_loc": "0001"}, "geometry": {"type": "Polygon", "coordinates": [[[-96.87604, 20.18563], [-96.8749, 20.18614], [-96.87465, 20.18576], [-96.87524, 20.18546], [-96.87462, 20.18571], [-96.87436, 20.18532], [-96.87549, 20.18476], [-96.87604, 20.18563]]]}}, {"id": "2414632", "type": "Feature", "properties": {"id": "2414632", "CVEGEO": "302110001003A007", "POBTOT": 38.0, "score_nse": 64.24, "NSE": "C", "VIVTOT": 15.0, "GRAPROES": 12.78, "_ent": "30", "_mun": "211", "_loc": "0001"}, "geometry": {"type": "Polygon", "coordinates": [[[-96.87554, 20.18475], [-96.87681, 20.18416], [-96.87734, 20.18498], [-96.87663, 20.18534], [-96.87639, 20.18501], [-96.87657, 20.18538], [-96.87612, 20.18559], [-96.87554, 20.18475]]]}}, {"id": "2414633", "type": "Feature", "properties": {"id": "2414633", "CVEGEO": "302110001003A006", "POBTOT": 50.0, "score_nse": 53.4534, "NSE": "C-", "VIVTOT": 17.0, "GRAPROES": 9.05, "_ent": "30", "_mun": "211", "_loc": "0001"}, "geometry": {"type": "Polygon", "coordinates": [[[-96.87675, 20.18408], [-96.87609, 20.18439], [-96.8756, 20.18362], [-96.87622, 20.18331], [-96.87675, 20.18408]]]}}, {"id": "2414634", "type": "Feature", "properties": {"id": "2414634", "CVEGEO": "302110001003A005", "POBTOT": 88.0, "score_nse": 54.6357, "NSE": "C-", "VIVTOT": 31.0, "GRAPROES": 9.01, "_ent": "30", "_mun": "211", "_loc": "0001"}, "geometry": {"type": "Polygon", "coordinates": [[[-96.87508, 20.18276], [-96.87571, 20.18248], [-96.87582, 20.1827], [-96.87562, 20.18285], [-96.87584, 20.18274], [-96.8762, 20.18325], [-96.87555, 20.18356], [-96.87508, 20.18276]]]}}, {"id": "2414636", "type": "Feature", "properties": {"id": "2414636", "CVEGEO": "302110001003A004", "POBTOT": 48.0, "score_nse": 0.0, "NSE": "ND", "VIVTOT": 18.0, "GRAPROES": 8.91, "_ent": "30", "_mun": "211", "_loc": "0001"}, "geometry": {"type": "Polygon", "coordinates": [[[-96.87438, 20.18413], [-96.87381, 20.18334], [-96.87438, 20.1831], [-96.87491, 20.18387], [-96.87438, 20.18413]]]}}, {"id": "2414637", "type": "Feature", "properties": {"id": "2414637", "CVEGEO": "302110001003A002", "POBTOT": 22.0, "score_nse": 0.0, "NSE": "ND", "VIVTOT": 9.0, "GRAPROES": 9.06, "_ent": "30", "_mun": "211", "_loc": "0001"}, "geometry": {"type": "Polygon", "coordinates": [[[-96.8749, 20.18499], [-96.87432, 20.18527], [-96.87377, 20.18447], [-96.87437, 20.18418], [-96.8749, 20.18499]]]}}, {"id": "2414638", "type": "Feature", "properties": {"id": "2414638", "CVEGEO": "302110001003A001", "POBTOT": 62.0, "score_nse": 57.21, "NSE": "C", "VIVTOT": 24.0, "GRAPROES": 10.35, "_ent": "30", "_mun": "211", "_loc": "0001"}, "geometry": {"type": "Polygon", "coordinates": [[[-96.87495, 20.18497], [-96.87442, 20.18417], [-96.87496, 20.18391], [-96.87545, 20.18471], [-96.87495, 20.18497]]]}}, {"id": "2414639", "type": "Feature", "properties": {"id": "2414639", "CVEGEO": "3021100010025037", "POBTOT": 0.0, "score_nse": 10.0, "NSE": "E", "VIVTOT": 1.0, "GRAPROES": 0.0, "_ent": "30", "_mun": "211", "_loc": "0001"}, "geometry": {"type": "Polygon", "coordinates": [[[-96.87969, 20.19576], [-96.87915, 20.19537], [-96.87898, 20.19455], [-96.87917, 20.19445], [-96.88014, 20.196], [-96.87985, 20.19611], [-96.87969, 20.19576]]]}}, {"id": "2414640", "type": "Feature", "properties": {"id": "2414640", "CVEGEO": "302110001003A023", "POBTOT": 40.0, "score_nse": 52.068, "NSE": "C-", "VIVTOT": 15.0, "GRAPROES": 7.5, "_ent": "30", "_mun": "211", "_loc": "0001"}, "geometry": {"type": "Polygon", "coordinates": [[[-96.86739, 20.18476], [-96.86723, 20.18428], [-96.8683, 20.1836], [-96.86849, 20.18427], [-96.86739, 20.18476]]]}}, {"id": "2414641", "type": "Feature", "properties": {"id": "2414641", "CVEGEO": "3021100010025036", "POBTOT": 16.0, "score_nse": 0.0, "NSE": "ND", "VIVTOT": 5.0, "GRAPROES": 12.45, "_ent": "30", "_mun": "211", "_loc": "0001"}, "geometry": {"type": "Polygon", "coordinates": [[[-96.87601, 20.19556], [-96.8763, 20.19462], [-96.87677, 20.19474], [-96.8765, 20.19571], [-96.87601, 20.19556]]]}}, {"id": "2414642", "type": "Feature", "properties": {"id": "2414642", "CVEGEO": "3021100010025035", "POBTOT": 44.0, "score_nse": 60.3306, "NSE": "C", "VIVTOT": 23.0, "GRAPROES": 11.36, "_ent": "30", "_mun": "211", "_loc": "0001"}, "geometry": {"type": "Polygon", "coordinates": [[[-96.87656, 20.19573], [-96.87685, 20.19477], [-96.87706, 20.19483], [-96.87678, 20.19579], [-96.87656, 20.19573]]]}}, {"id": "2414677", "type": "Feature", "properties": {"id": "2414677", "CVEGEO": "3021100010010016", "POBTOT": 77.0, "score_nse": 60.3933, "NSE": "C", "VIVTOT": 30.0, "GRAPROES": 9.05, "_ent": "30", "_mun": "211", "_loc": "0001"}, "geometry": {"type": "Polygon", "coordinates": [[[-96.86927, 20.19121], [-96.86912, 20.1907], [-96.87003, 20.19046], [-96.87015, 20.1909], [-96.86984, 20.19093], [-96.87017, 20.19095], [-96.87025, 20.19126], [-96.86927, 20.19121]]]}}, {"id": "2414678", "type": "Feature", "properties": {"id": "2414678", "CVEGEO": "3021100010010015", "POBTOT": 15.0, "score_nse": 88.4297, "NSE": "A/B", "VIVTOT": 7.0, "GRAPROES": 13.5, "_ent": "30", "_mun": "211", "_loc": "0001"}, "geometry": {"type": "Polygon", "coordinates": [[[-96.8701, 20.19035], [-96.86986, 20.18946], [-96.87013, 20.18942], [-96.87103, 20.19008], [-96.8701, 20.19035]]]}}, {"id": "2414681", "type": "Feature", "properties": {"id": "2414681", "CVEGEO": "3021100010010003", "POBTOT": 9.0, "score_nse": 0.0, "NSE": "ND", "VIVTOT": 3.0, "GRAPROES": 11.71, "_ent": "30", "_mun": "211", "_loc": "0001"}, "geometry": {"type": "Polygon", "coordinates": [[[-96.86859, 20.19645], [-96.86831, 20.19716], [-96.86696, 20.19656], [-96.86711, 20.19584], [-96.86859, 20.19645]]]}}, {"id": "2414682", "type": "Feature", "properties": {"id": "2414682", "CVEGEO": "3021100010044039", "POBTOT": 28.0, "score_nse": 0.0, "NSE": "ND", "VIVTOT": 11.0, "GRAPROES": 8.23, "_ent": "30", "_mun": "211", "_loc": "0001"}, "geometry": {"type": "Polygon", "coordinates": [[[-96.86131, 20.18105], [-96.8609, 20.18122], [-96.86073, 20.18026], [-96.86111, 20.18012], [-96.86131, 20.18105]]]}}, {"id": "2414683", "type": "Feature", "properties": {"id": "2414683", "CVEGEO": "302110001003A040", "POBTOT": 112.0, "score_nse": 45.6335, "NSE": "C-", "VIVTOT": 38.0, "GRAPROES": 8.08, "_ent": "30", "_mun": "211", "_loc": "0001"}, "geometry": {"type": "Polygon", "coordinates": [[[-96.87371, 20.1844], [-96.87319, 20.18362], [-96.87374, 20.18337], [-96.87428, 20.18413], [-96.87371, 20.1844]]]}}, {"id": "2414684", "type": "Feature", "properties": {"id": "2414684", "CVEGEO": "3021100010010037", "POBTOT": 74.0, "score_nse": 55.3862, "NSE": "C", "VIVTOT": 32.0, "GRAPROES": 9.56, "_ent": "30", "_mun": "211", "_loc": "0001"}, "geometry": {"type": "Polygon", "coordinates": [[[-96.86895, 20.19383], [-96.86895, 20.1953], [-96.86733, 20.19478], [-96.86729, 20.19339], [-96.86895, 20.19383]]]}}, {"id": "2414685", "type": "Feature", "properties": {"id": "2414685", "CVEGEO": "3021100010010010", "POBTOT": 73.0, "score_nse": 59.7049, "NSE": "C", "VIVTOT": 36.0, "GRAPROES": 11.1, "_ent": "30", "_mun": "211", "_loc": "0001"}, "geometry": {"type": "Polygon", "coordinates": [[[-96.86651, 20.19025], [-96.86636, 20.18926], [-96.8674, 20.18901], [-96.86748, 20.1893], [-96.86729, 20.18934], [-96.86749, 20.18934], [-96.86767, 20.18995], [-96.86651, 20.19025]]]}}, {"id": "2414686", "type": "Feature", "properties": {"id": "2414686", "CVEGEO": "3021100010044018", "POBTOT": 0.0, "score_nse": 0.0, "NSE": "ND", "VIVTOT": 0.0, "GRAPROES": 0.0, "_ent": "30", "_mun": "211", "_loc": "0001"}, "geometry": {"type": "Polygon", "coordinates": [[[-96.86665, 20.18023], [-96.86586, 20.18099], [-96.86503, 20.18011], [-96.86593, 20.17933], [-96.86637, 20.17923], [-96.86641, 20.17974], [-96.86665, 20.18023]]]}}, {"id": "2414687", "type": "Feature", "properties": {"id": "2414687", "CVEGEO": "3021100010044031", "POBTOT": 18.0, "score_nse": 54.36, "NSE": "C-", "VIVTOT": 5.0, "GRAPROES": 8.3, "_ent": "30", "_mun": "211", "_loc": "0001"}, "geometry": {"type": "Polygon", "coordinates": [[[-96.86473, 20.18073], [-96.86422, 20.18119], [-96.86328, 20.18025], [-96.8641, 20.17989], [-96.86473, 20.18073]]]}}]}