{"type": "FeatureCollection", "features": [{"id": "880596", "type": "Feature", "properties": {"id": "880596", "CVEGEO": "1306900090016007", "POBTOT": 0.0, "score_nse": 0.0, "NSE": null, "VIVTOT": 0.0, "GRAPROES": 0.0, "_ent": "13", "_mun": "069", "_loc": "0009"}, "geometry": {"type": "Polygon", "coordinates": [[[-98.90753, 19.85913], [-98.90867, 19.85737], [-98.90974, 19.85847], [-98.90842, 19.85944], [-98.90746, 19.86039], [-98.90753, 19.85913]]]}}, {"id": "881167", "type": "Feature", "properties": {"id": "881167", "CVEGEO": "1306900090016003", "POBTOT": 0.0, "score_nse": 0.0, "NSE": null, "VIVTOT": 0.0, "GRAPROES": 0.0, "_ent": "13", "_mun": "069", "_loc": "0009"}, "geometry": {"type": "Polygon", "coordinates": [[[-98.9079, 19.86161], [-98.90714, 19.86128], [-98.90764, 19.86111], [-98.9081, 19.8612], [-98.9079, 19.86161]]]}}, {"id": "881168", "type": "Feature", "properties": {"id": "881168", "CVEGEO": "1306900090016002", "POBTOT": 0.0, "score_nse": 0.0, "NSE": null, "VIVTOT": 0.0, "GRAPROES": 0.0, "_ent": "13", "_mun": "069", "_loc": "0009"}, "geometry": {"type": "Polygon", "coordinates": [[[-98.90693, 19.86126], [-98.90775, 19.86174], [-98.90661, 19.86422], [-98.90534, 19.86347], [-98.90693, 19.86126]]]}}, {"id": "881469", "type": "Feature", "properties": {"id": "881469", "CVEGEO": "1306900090016004", "POBTOT": 0.0, "score_nse": 0.0, "NSE": null, "VIVTOT": 0.0, "GRAPROES": 0.0, "_ent": "13", "_mun": "069", "_loc": "0009"}, "geometry": {"type": "Polygon", "coordinates": [[[-98.9097, 19.86404], [-98.91076, 19.86465], [-98.91019, 19.86418], [-98.9103, 19.86403], [-98.9121, 19.86535], [-98.91219, 19.86615], [-98.91171, 19.86621], [-98.90878, 19.86539], [-98.9097, 19.86404]]]}}, {"id": "881470", "type": "Feature", "properties": {"id": "881470", "CVEGEO": "1306900090016008", "POBTOT": 0.0, "score_nse": 0.0, "NSE": null, "VIVTOT": 0.0, "GRAPROES": 0.0, "_ent": "13", "_mun": "069", "_loc": "0009"}, "geometry": {"type": "Polygon", "coordinates": [[[-98.90695, 19.8612], [-98.90935, 19.85882], [-98.91086, 19.86041], [-98.91044, 19.86097], [-98.90909, 19.86084], [-98.90853, 19.86098], [-98.90835, 19.86119], [-98.90791, 19.86105], [-98.90709, 19.86125], [-98.90695, 19.8612]]]}}, {"id": "881477", "type": "Feature", "properties": {"id": "881477", "CVEGEO": "1306900090016005", "POBTOT": 0.0, "score_nse": 0.0, "NSE": null, "VIVTOT": 0.0, "GRAPROES": 0.0, "_ent": "13", "_mun": "069", "_loc": "0009"}, "geometry": {"type": "Polygon", "coordinates": [[[-98.9101, 19.86414], [-98.90974, 19.86395], [-98.90989, 19.86373], [-98.90797, 19.86171], [-98.90821, 19.86125], [-98.90903, 19.86095], [-98.91026, 19.86098], [-98.91189, 19.86158], [-98.91412, 19.86194], [-98.91348, 19.86329], [-98.91061, 19.8632], [-98.9101, 19.86414]]]}}, {"id": "881478", "type": "Feature", "properties": {"id": "881478", "CVEGEO": "1306900090016001", "POBTOT": 0.0, "score_nse": 0.0, "NSE": null, "VIVTOT": 0.0, "GRAPROES": 0.0, "_ent": "13", "_mun": "069", "_loc": "0009"}, "geometry": {"type": "Polygon", "coordinates": [[[-98.90667, 19.86428], [-98.90782, 19.86178], [-98.90976, 19.86368], [-98.90867, 19.86536], [-98.90789, 19.86496], [-98.90814, 19.86449], [-98.90781, 19.86491], [-98.90667, 19.86428]]]}}]}