{"type": "FeatureCollection", "features": [{"id": "1536193", "type": "Feature", "properties": {"id": "1536193", "CVEGEO": "2017100190024001", "POBTOT": 0.0, "score_nse": 0.0, "NSE": null, "VIVTOT": 0.0, "GRAPROES": 0.0, "_ent": "20", "_mun": "171", "_loc": "0019"}, "geometry": {"type": "Polygon", "coordinates": [[[-96.74779, 18.22707], [-96.74823, 18.22651], [-96.74911, 18.22706], [-96.74903, 18.22729], [-96.74879, 18.22737], [-96.74779, 18.22707]]]}}, {"id": "1536194", "type": "Feature", "properties": {"id": "1536194", "CVEGEO": "2017100190024008", "POBTOT": 0.0, "score_nse": 0.0, "NSE": null, "VIVTOT": 0.0, "GRAPROES": 0.0, "_ent": "20", "_mun": "171", "_loc": "0019"}, "geometry": {"type": "Polygon", "coordinates": [[[-96.74776, 18.22732], [-96.74711, 18.22721], [-96.74707, 18.22737], [-96.74662, 18.22716], [-96.7463, 18.22711], [-96.74704, 18.2274], [-96.74626, 18.22752], [-96.74534, 18.22824], [-96.74514, 18.22795], [-96.74538, 18.22764], [-96.74541, 18.22683], [-96.74494, 18.22631], [-96.74566, 18.22599], [-96.74715, 18.22695], [-96.74774, 18.22712], [-96.74776, 18.22732]]]}}, {"id": "1536195", "type": "Feature", "properties": {"id": "1536195", "CVEGEO": "2017100190024002", "POBTOT": 0.0, "score_nse": 0.0, "NSE": null, "VIVTOT": 0.0, "GRAPROES": 0.0, "_ent": "20", "_mun": "171", "_loc": "0019"}, "geometry": {"type": "Polygon", "coordinates": [[[-96.74719, 18.22693], [-96.74665, 18.22548], [-96.74735, 18.22637], [-96.74793, 18.22615], [-96.74821, 18.22651], [-96.74776, 18.22705], [-96.74719, 18.22693]]]}}, {"id": "1536198", "type": "Feature", "properties": {"id": "1536198", "CVEGEO": "2017100190024009", "POBTOT": 0.0, "score_nse": 0.0, "NSE": null, "VIVTOT": 0.0, "GRAPROES": 0.0, "_ent": "20", "_mun": "171", "_loc": "0019"}, "geometry": {"type": "Polygon", "coordinates": [[[-96.74552, 18.22248], [-96.74595, 18.22119], [-96.74546, 18.21993], [-96.7459, 18.21944], [-96.7461, 18.22], [-96.74642, 18.21991], [-96.74632, 18.22024], [-96.74669, 18.22024], [-96.74646, 18.22052], [-96.74685, 18.22069], [-96.74698, 18.22094], [-96.74709, 18.22212], [-96.74656, 18.22319], [-96.74583, 18.22388], [-96.74543, 18.22334], [-96.74552, 18.22248]]]}}, {"id": "1536201", "type": "Feature", "properties": {"id": "1536201", "CVEGEO": "2017100190024007", "POBTOT": 0.0, "score_nse": 0.0, "NSE": null, "VIVTOT": 0.0, "GRAPROES": 0.0, "_ent": "20", "_mun": "171", "_loc": "0019"}, "geometry": {"type": "Polygon", "coordinates": [[[-96.7478, 18.22732], [-96.74776, 18.22713], [-96.74866, 18.22739], [-96.7478, 18.22732]]]}}]}