{"type": "FeatureCollection", "features": [{"id": "262292", "type": "Feature", "properties": {"id": "262292", "CVEGEO": "0703401390049003", "POBTOT": 0.0, "score_nse": 0.0, "NSE": null, "VIVTOT": 0.0, "GRAPROES": 0.0, "_ent": "07", "_mun": "034", "_loc": "0139"}, "geometry": {"type": "Polygon", "coordinates": [[[-91.97863, 15.8123], [-91.97931, 15.8119], [-91.9797, 15.81257], [-91.97902, 15.81293], [-91.97863, 15.8123]]]}}, {"id": "262293", "type": "Feature", "properties": {"id": "262293", "CVEGEO": "0703401390049009", "POBTOT": 0.0, "score_nse": 0.0, "NSE": null, "VIVTOT": 0.0, "GRAPROES": 0.0, "_ent": "07", "_mun": "034", "_loc": "0139"}, "geometry": {"type": "Polygon", "coordinates": [[[-91.97707, 15.81169], [-91.97753, 15.81145], [-91.97772, 15.81178], [-91.97727, 15.81202], [-91.97707, 15.81169]]]}}, {"id": "263833", "type": "Feature", "properties": {"id": "263833", "CVEGEO": "0703401390049004", "POBTOT": 0.0, "score_nse": 0.0, "NSE": null, "VIVTOT": 0.0, "GRAPROES": 0.0, "_ent": "07", "_mun": "034", "_loc": "0139"}, "geometry": {"type": "Polygon", "coordinates": [[[-91.97805, 15.81333], [-91.97772, 15.8128], [-91.97856, 15.81231], [-91.97895, 15.81297], [-91.97805, 15.81333]]]}}, {"id": "263834", "type": "Feature", "properties": {"id": "263834", "CVEGEO": "0703401390049005", "POBTOT": 0.0, "score_nse": 0.0, "NSE": null, "VIVTOT": 0.0, "GRAPROES": 0.0, "_ent": "07", "_mun": "034", "_loc": "0139"}, "geometry": {"type": "Polygon", "coordinates": [[[-91.97851, 15.8114], [-91.97889, 15.81118], [-91.97928, 15.81185], [-91.9789, 15.81205], [-91.97851, 15.8114]]]}}, {"id": "263835", "type": "Feature", "properties": {"id": "263835", "CVEGEO": "0703401390049006", "POBTOT": 0.0, "score_nse": 0.0, "NSE": null, "VIVTOT": 0.0, "GRAPROES": 0.0, "_ent": "07", "_mun": "034", "_loc": "0139"}, "geometry": {"type": "Polygon", "coordinates": [[[-91.97782, 15.81179], [-91.97848, 15.81142], [-91.97887, 15.81209], [-91.97819, 15.81245], [-91.97782, 15.81179]]]}}, {"id": "263836", "type": "Feature", "properties": {"id": "263836", "CVEGEO": "0703401390049007", "POBTOT": 0.0, "score_nse": 0.0, "NSE": null, "VIVTOT": 0.0, "GRAPROES": 0.0, "_ent": "07", "_mun": "034", "_loc": "0139"}, "geometry": {"type": "Polygon", "coordinates": [[[-91.97731, 15.81207], [-91.97776, 15.81182], [-91.97815, 15.81249], [-91.97767, 15.81274], [-91.97731, 15.81207]]]}}, {"id": "263837", "type": "Feature", "properties": {"id": "263837", "CVEGEO": "0703401390049008", "POBTOT": 0.0, "score_nse": 0.0, "NSE": null, "VIVTOT": 0.0, "GRAPROES": 0.0, "_ent": "07", "_mun": "034", "_loc": "0139"}, "geometry": {"type": "Polygon", "coordinates": [[[-91.97759, 15.81142], [-91.97822, 15.81103], [-91.97843, 15.81139], [-91.97777, 15.81174], [-91.97759, 15.81142]]]}}, {"id": "264207", "type": "Feature", "properties": {"id": "264207", "CVEGEO": "0703401390049001", "POBTOT": 0.0, "score_nse": 0.0, "NSE": null, "VIVTOT": 0.0, "GRAPROES": 0.0, "_ent": "07", "_mun": "034", "_loc": "0139"}, "geometry": {"type": "Polygon", "coordinates": [[[-91.98006, 15.81318], [-91.9797, 15.81339], [-91.97934, 15.81282], [-91.97971, 15.81262], [-91.98006, 15.81318]]]}}, {"id": "264209", "type": "Feature", "properties": {"id": "264209", "CVEGEO": "0703401390049002", "POBTOT": 0.0, "score_nse": 0.0, "NSE": null, "VIVTOT": 0.0, "GRAPROES": 0.0, "_ent": "07", "_mun": "034", "_loc": "0139"}, "geometry": {"type": "Polygon", "coordinates": [[[-91.97966, 15.81341], [-91.97853, 15.81406], [-91.97808, 15.81338], [-91.97929, 15.81285], [-91.97966, 15.81341]]]}}, {"id": "264471", "type": "Feature", "properties": {"id": "264471", "CVEGEO": "0703401390049010", "POBTOT": 0.0, "score_nse": 0.0, "NSE": null, "VIVTOT": 0.0, "GRAPROES": 0.0, "_ent": "07", "_mun": "034", "_loc": "0139"}, "geometry": {"type": "Polygon", "coordinates": [[[-91.97884, 15.81113], [-91.9785, 15.81132], [-91.97831, 15.81098], [-91.97865, 15.81076], [-91.97884, 15.81113]]]}}]}