{"type": "FeatureCollection", "features": [{"id": "2160048", "type": "Feature", "properties": {"id": "2160048", "CVEGEO": "2802600030212006", "POBTOT": 0.0, "score_nse": 0.0, "NSE": null, "VIVTOT": 0.0, "GRAPROES": 0.0, "_ent": "28", "_mun": "026", "_loc": "0003"}, "geometry": {"type": "Polygon", "coordinates": [[[-99.62747, 23.4572], [-99.62795, 23.45693], [-99.62823, 23.45734], [-99.6277, 23.45755], [-99.62747, 23.4572]]]}}, {"id": "2160060", "type": "Feature", "properties": {"id": "2160060", "CVEGEO": "2802600030212015", "POBTOT": 0.0, "score_nse": 0.0, "NSE": null, "VIVTOT": 0.0, "GRAPROES": 0.0, "_ent": "28", "_mun": "026", "_loc": "0003"}, "geometry": {"type": "Polygon", "coordinates": [[[-99.62806, 23.45537], [-99.62844, 23.45516], [-99.62864, 23.45543], [-99.62825, 23.45564], [-99.62806, 23.45537]]]}}, {"id": "2160061", "type": "Feature", "properties": {"id": "2160061", "CVEGEO": "2802600030212016", "POBTOT": 0.0, "score_nse": 0.0, "NSE": null, "VIVTOT": 0.0, "GRAPROES": 0.0, "_ent": "28", "_mun": "026", "_loc": "0003"}, "geometry": {"type": "Polygon", "coordinates": [[[-99.62748, 23.45543], [-99.62785, 23.45524], [-99.62817, 23.45567], [-99.62781, 23.45586], [-99.62748, 23.45543]]]}}, {"id": "2160062", "type": "Feature", "properties": {"id": "2160062", "CVEGEO": "2802600030212003", "POBTOT": 0.0, "score_nse": 0.0, "NSE": null, "VIVTOT": 0.0, "GRAPROES": 0.0, "_ent": "28", "_mun": "026", "_loc": "0003"}, "geometry": {"type": "Polygon", "coordinates": [[[-99.62842, 23.45666], [-99.62919, 23.45626], [-99.62949, 23.45691], [-99.62876, 23.45714], [-99.62842, 23.45666]]]}}, {"id": "2160063", "type": "Feature", "properties": {"id": "2160063", "CVEGEO": "2802600030212017", "POBTOT": 0.0, "score_nse": 0.0, "NSE": null, "VIVTOT": 0.0, "GRAPROES": 0.0, "_ent": "28", "_mun": "026", "_loc": "0003"}, "geometry": {"type": "Polygon", "coordinates": [[[-99.62611, 23.45519], [-99.62645, 23.45521], [-99.62672, 23.45484], [-99.62698, 23.45483], [-99.62749, 23.45557], [-99.62672, 23.45607], [-99.62611, 23.45519]]]}}, {"id": "2160095", "type": "Feature", "properties": {"id": "2160095", "CVEGEO": "2802600030212036", "POBTOT": 0.0, "score_nse": 0.0, "NSE": null, "VIVTOT": 0.0, "GRAPROES": 0.0, "_ent": "28", "_mun": "026", "_loc": "0003"}, "geometry": {"type": "Polygon", "coordinates": [[[-99.62669, 23.45712], [-99.6271, 23.45691], [-99.62727, 23.4572], [-99.62687, 23.45741], [-99.62669, 23.45712]]]}}, {"id": "2160096", "type": "Feature", "properties": {"id": "2160096", "CVEGEO": "2802600030212035", "POBTOT": 0.0, "score_nse": 0.0, "NSE": null, "VIVTOT": 0.0, "GRAPROES": 0.0, "_ent": "28", "_mun": "026", "_loc": "0003"}, "geometry": {"type": "Polygon", "coordinates": [[[-99.62689, 23.45748], [-99.62729, 23.45727], [-99.62749, 23.4576], [-99.62708, 23.45781], [-99.62689, 23.45748]]]}}, {"id": "2160097", "type": "Feature", "properties": {"id": "2160097", "CVEGEO": "2802600030212029", "POBTOT": 0.0, "score_nse": 0.0, "NSE": null, "VIVTOT": 0.0, "GRAPROES": 0.0, "_ent": "28", "_mun": "026", "_loc": "0003"}, "geometry": {"type": "Polygon", "coordinates": [[[-99.627, 23.45466], [-99.6269, 23.4537], [-99.62726, 23.45339], [-99.62771, 23.45388], [-99.62793, 23.45456], [-99.627, 23.45466]]]}}, {"id": "2160098", "type": "Feature", "properties": {"id": "2160098", "CVEGEO": "2802600030212022", "POBTOT": 0.0, "score_nse": 0.0, "NSE": null, "VIVTOT": 0.0, "GRAPROES": 0.0, "_ent": "28", "_mun": "026", "_loc": "0003"}, "geometry": {"type": "Polygon", "coordinates": [[[-99.62729, 23.45517], [-99.62768, 23.45496], [-99.62783, 23.45518], [-99.62744, 23.45538], [-99.62729, 23.45517]]]}}, {"id": "2160099", "type": "Feature", "properties": {"id": "2160099", "CVEGEO": "2802600030212026", "POBTOT": 0.0, "score_nse": 0.0, "NSE": null, "VIVTOT": 0.0, "GRAPROES": 0.0, "_ent": "28", "_mun": "026", "_loc": "0003"}, "geometry": {"type": "Polygon", "coordinates": [[[-99.62705, 23.45478], [-99.62755, 23.4547], [-99.62765, 23.45491], [-99.62725, 23.45511], [-99.62705, 23.45478]]]}}, {"id": "2160100", "type": "Feature", "properties": {"id": "2160100", "CVEGEO": "2802600030212014", "POBTOT": 0.0, "score_nse": 0.0, "NSE": null, "VIVTOT": 0.0, "GRAPROES": 0.0, "_ent": "28", "_mun": "026", "_loc": "0003"}, "geometry": {"type": "Polygon", "coordinates": [[[-99.62995, 23.45526], [-99.62942, 23.45555], [-99.62922, 23.45547], [-99.62914, 23.45511], [-99.6298, 23.45483], [-99.62995, 23.45526]]]}}, {"id": "2160101", "type": "Feature", "properties": {"id": "2160101", "CVEGEO": "2802600030212019", "POBTOT": 0.0, "score_nse": 0.0, "NSE": null, "VIVTOT": 0.0, "GRAPROES": 0.0, "_ent": "28", "_mun": "026", "_loc": "0003"}, "geometry": {"type": "Polygon", "coordinates": [[[-99.62891, 23.45455], [-99.62934, 23.45419], [-99.62976, 23.45476], [-99.62917, 23.45495], [-99.62891, 23.45455]]]}}, {"id": "2160102", "type": "Feature", "properties": {"id": "2160102", "CVEGEO": "2802600030212031", "POBTOT": 0.0, "score_nse": 0.0, "NSE": null, "VIVTOT": 0.0, "GRAPROES": 0.0, "_ent": "28", "_mun": "026", "_loc": "0003"}, "geometry": {"type": "Polygon", "coordinates": [[[-99.62679, 23.45611], [-99.62754, 23.45563], [-99.62774, 23.45589], [-99.62698, 23.45637], [-99.62679, 23.45611]]]}}, {"id": "2160123", "type": "Feature", "properties": {"id": "2160123", "CVEGEO": "2802600030212038", "POBTOT": 0.0, "score_nse": 0.0, "NSE": null, "VIVTOT": 0.0, "GRAPROES": 0.0, "_ent": "28", "_mun": "026", "_loc": "0003"}, "geometry": {"type": "Polygon", "coordinates": [[[-99.62636, 23.45516], [-99.62599, 23.4551], [-99.62593, 23.45463], [-99.62611, 23.45461], [-99.62613, 23.45433], [-99.62663, 23.45435], [-99.62636, 23.45516]]]}}, {"id": "2160124", "type": "Feature", "properties": {"id": "2160124", "CVEGEO": "2802600030212037", "POBTOT": 0.0, "score_nse": 0.0, "NSE": null, "VIVTOT": 0.0, "GRAPROES": 0.0, "_ent": "28", "_mun": "026", "_loc": "0003"}, "geometry": {"type": "Polygon", "coordinates": [[[-99.62989, 23.4548], [-99.63041, 23.45462], [-99.63056, 23.45488], [-99.63004, 23.4551], [-99.62989, 23.4548]]]}}, {"id": "2160125", "type": "Feature", "properties": {"id": "2160125", "CVEGEO": "2802600030212008", "POBTOT": 0.0, "score_nse": 0.0, "NSE": null, "VIVTOT": 0.0, "GRAPROES": 0.0, "_ent": "28", "_mun": "026", "_loc": "0003"}, "geometry": {"type": "Polygon", "coordinates": [[[-99.6281, 23.45624], [-99.62843, 23.45605], [-99.62869, 23.45643], [-99.62839, 23.4566], [-99.6281, 23.45624]]]}}, {"id": "2160126", "type": "Feature", "properties": {"id": "2160126", "CVEGEO": "2802600030212009", "POBTOT": 0.0, "score_nse": 0.0, "NSE": null, "VIVTOT": 0.0, "GRAPROES": 0.0, "_ent": "28", "_mun": "026", "_loc": "0003"}, "geometry": {"type": "Polygon", "coordinates": [[[-99.62748, 23.45655], [-99.62803, 23.45627], [-99.62831, 23.45664], [-99.62775, 23.45694], [-99.62748, 23.45655]]]}}, {"id": "2160127", "type": "Feature", "properties": {"id": "2160127", "CVEGEO": "2802600030212007", "POBTOT": 0.0, "score_nse": 0.0, "NSE": null, "VIVTOT": 0.0, "GRAPROES": 0.0, "_ent": "28", "_mun": "026", "_loc": "0003"}, "geometry": {"type": "Polygon", "coordinates": [[[-99.6285, 23.45602], [-99.62888, 23.45581], [-99.62912, 23.45617], [-99.62875, 23.45639], [-99.6285, 23.45602]]]}}, {"id": "2160128", "type": "Feature", "properties": {"id": "2160128", "CVEGEO": "2802600030212010", "POBTOT": 0.0, "score_nse": 0.0, "NSE": null, "VIVTOT": 0.0, "GRAPROES": 0.0, "_ent": "28", "_mun": "026", "_loc": "0003"}, "geometry": {"type": "Polygon", "coordinates": [[[-99.62716, 23.4568], [-99.62743, 23.45663], [-99.6277, 23.45698], [-99.62739, 23.45714], [-99.62716, 23.4568]]]}}, {"id": "2160129", "type": "Feature", "properties": {"id": "2160129", "CVEGEO": "2802600030212012", "POBTOT": 0.0, "score_nse": 0.0, "NSE": null, "VIVTOT": 0.0, "GRAPROES": 0.0, "_ent": "28", "_mun": "026", "_loc": "0003"}, "geometry": {"type": "Polygon", "coordinates": [[[-99.62786, 23.45592], [-99.62822, 23.45573], [-99.62838, 23.45597], [-99.62804, 23.45617], [-99.62786, 23.45592]]]}}, {"id": "2160130", "type": "Feature", "properties": {"id": "2160130", "CVEGEO": "2802600030212013", "POBTOT": 0.0, "score_nse": 0.0, "NSE": null, "VIVTOT": 0.0, "GRAPROES": 0.0, "_ent": "28", "_mun": "026", "_loc": "0003"}, "geometry": {"type": "Polygon", "coordinates": [[[-99.62727, 23.45627], [-99.6278, 23.45594], [-99.62799, 23.45619], [-99.62744, 23.45649], [-99.62727, 23.45627]]]}}, {"id": "2160131", "type": "Feature", "properties": {"id": "2160131", "CVEGEO": "2802600030212011", "POBTOT": 0.0, "score_nse": 0.0, "NSE": null, "VIVTOT": 0.0, "GRAPROES": 0.0, "_ent": "28", "_mun": "026", "_loc": "0003"}, "geometry": {"type": "Polygon", "coordinates": [[[-99.62828, 23.4557], [-99.62868, 23.45549], [-99.62882, 23.45574], [-99.62845, 23.45594], [-99.62828, 23.4557]]]}}, {"id": "2160132", "type": "Feature", "properties": {"id": "2160132", "CVEGEO": "2802600030212024", "POBTOT": 0.0, "score_nse": 0.0, "NSE": null, "VIVTOT": 0.0, "GRAPROES": 0.0, "_ent": "28", "_mun": "026", "_loc": "0003"}, "geometry": {"type": "Polygon", "coordinates": [[[-99.62881, 23.45449], [-99.62856, 23.45412], [-99.6288, 23.45383], [-99.62924, 23.45415], [-99.62881, 23.45449]]]}}, {"id": "2160133", "type": "Feature", "properties": {"id": "2160133", "CVEGEO": "2802600030212028", "POBTOT": 0.0, "score_nse": 0.0, "NSE": null, "VIVTOT": 0.0, "GRAPROES": 0.0, "_ent": "28", "_mun": "026", "_loc": "0003"}, "geometry": {"type": "Polygon", "coordinates": [[[-99.62833, 23.45396], [-99.62853, 23.45362], [-99.62875, 23.4538], [-99.6285, 23.45409], [-99.62833, 23.45396]]]}}, {"id": "2160134", "type": "Feature", "properties": {"id": "2160134", "CVEGEO": "2802600030212030", "POBTOT": 0.0, "score_nse": 0.0, "NSE": null, "VIVTOT": 0.0, "GRAPROES": 0.0, "_ent": "28", "_mun": "026", "_loc": "0003"}, "geometry": {"type": "Polygon", "coordinates": [[[-99.6283, 23.45393], [-99.62741, 23.45339], [-99.62768, 23.45302], [-99.62849, 23.45358], [-99.6283, 23.45393]]]}}, {"id": "2160135", "type": "Feature", "properties": {"id": "2160135", "CVEGEO": "2802600030212018", "POBTOT": 0.0, "score_nse": 0.0, "NSE": null, "VIVTOT": 0.0, "GRAPROES": 0.0, "_ent": "28", "_mun": "026", "_loc": "0003"}, "geometry": {"type": "Polygon", "coordinates": [[[-99.62977, 23.45466], [-99.62967, 23.45437], [-99.62991, 23.45416], [-99.6304, 23.45455], [-99.62977, 23.45466]]]}}, {"id": "2160136", "type": "Feature", "properties": {"id": "2160136", "CVEGEO": "2802600030212021", "POBTOT": 0.0, "score_nse": 0.0, "NSE": null, "VIVTOT": 0.0, "GRAPROES": 0.0, "_ent": "28", "_mun": "026", "_loc": "0003"}, "geometry": {"type": "Polygon", "coordinates": [[[-99.62941, 23.45414], [-99.62964, 23.45393], [-99.62988, 23.45413], [-99.62965, 23.45433], [-99.62941, 23.45414]]]}}, {"id": "2160137", "type": "Feature", "properties": {"id": "2160137", "CVEGEO": "2802600030212023", "POBTOT": 0.0, "score_nse": 0.0, "NSE": null, "VIVTOT": 0.0, "GRAPROES": 0.0, "_ent": "28", "_mun": "026", "_loc": "0003"}, "geometry": {"type": "Polygon", "coordinates": [[[-99.62886, 23.45376], [-99.62906, 23.45353], [-99.62957, 23.45389], [-99.62934, 23.4541], [-99.62886, 23.45376]]]}}, {"id": "2160138", "type": "Feature", "properties": {"id": "2160138", "CVEGEO": "2802600030212027", "POBTOT": 0.0, "score_nse": 0.0, "NSE": null, "VIVTOT": 0.0, "GRAPROES": 0.0, "_ent": "28", "_mun": "026", "_loc": "0003"}, "geometry": {"type": "Polygon", "coordinates": [[[-99.62794, 23.45311], [-99.62814, 23.45289], [-99.62879, 23.45332], [-99.62855, 23.45355], [-99.62794, 23.45311]]]}}, {"id": "2160255", "type": "Feature", "properties": {"id": "2160255", "CVEGEO": "2802600030212034", "POBTOT": 0.0, "score_nse": 0.0, "NSE": null, "VIVTOT": 0.0, "GRAPROES": 0.0, "_ent": "28", "_mun": "026", "_loc": "0003"}, "geometry": {"type": "Polygon", "coordinates": [[[-99.6271, 23.45786], [-99.62751, 23.45766], [-99.6277, 23.45797], [-99.62725, 23.45814], [-99.6271, 23.45786]]]}}, {"id": "2160256", "type": "Feature", "properties": {"id": "2160256", "CVEGEO": "2802600030212032", "POBTOT": 0.0, "score_nse": 0.0, "NSE": null, "VIVTOT": 0.0, "GRAPROES": 0.0, "_ent": "28", "_mun": "026", "_loc": "0003"}, "geometry": {"type": "Polygon", "coordinates": [[[-99.62714, 23.45823], [-99.62774, 23.45801], [-99.62797, 23.4584], [-99.62734, 23.45859], [-99.62714, 23.45823]]]}}, {"id": "2160257", "type": "Feature", "properties": {"id": "2160257", "CVEGEO": "2802600030212001", "POBTOT": 0.0, "score_nse": 0.0, "NSE": null, "VIVTOT": 0.0, "GRAPROES": 0.0, "_ent": "28", "_mun": "026", "_loc": "0003"}, "geometry": {"type": "Polygon", "coordinates": [[[-99.6288, 23.45719], [-99.62951, 23.45697], [-99.62974, 23.45737], [-99.62903, 23.45836], [-99.6288, 23.45719]]]}}, {"id": "2160258", "type": "Feature", "properties": {"id": "2160258", "CVEGEO": "2802600030212005", "POBTOT": 0.0, "score_nse": 0.0, "NSE": null, "VIVTOT": 0.0, "GRAPROES": 0.0, "_ent": "28", "_mun": "026", "_loc": "0003"}, "geometry": {"type": "Polygon", "coordinates": [[[-99.62801, 23.45691], [-99.62836, 23.4567], [-99.62869, 23.45715], [-99.6283, 23.45731], [-99.62801, 23.45691]]]}}, {"id": "2160607", "type": "Feature", "properties": {"id": "2160607", "CVEGEO": "2802600030212002", "POBTOT": 0.0, "score_nse": 0.0, "NSE": null, "VIVTOT": 0.0, "GRAPROES": 0.0, "_ent": "28", "_mun": "026", "_loc": "0003"}, "geometry": {"type": "Polygon", "coordinates": [[[-99.62793, 23.45793], [-99.62839, 23.45775], [-99.62851, 23.45818], [-99.62813, 23.45829], [-99.62793, 23.45793]]]}}, {"id": "2160608", "type": "Feature", "properties": {"id": "2160608", "CVEGEO": "2802600030212033", "POBTOT": 0.0, "score_nse": 0.0, "NSE": null, "VIVTOT": 0.0, "GRAPROES": 0.0, "_ent": "28", "_mun": "026", "_loc": "0003"}, "geometry": {"type": "Polygon", "coordinates": [[[-99.62773, 23.45759], [-99.62824, 23.45738], [-99.62836, 23.45769], [-99.6279, 23.45789], [-99.62773, 23.45759]]]}}, {"id": "2160609", "type": "Feature", "properties": {"id": "2160609", "CVEGEO": "2802600030212039", "POBTOT": 0.0, "score_nse": 0.0, "NSE": null, "VIVTOT": 0.0, "GRAPROES": 0.0, "_ent": "28", "_mun": "026", "_loc": "0003"}, "geometry": {"type": "Polygon", "coordinates": [[[-99.62738, 23.45652], [-99.62708, 23.45667], [-99.62694, 23.45646], [-99.62722, 23.4563], [-99.62738, 23.45652]]]}}, {"id": "2160610", "type": "Feature", "properties": {"id": "2160610", "CVEGEO": "2802600030212020", "POBTOT": 0.0, "score_nse": 0.0, "NSE": null, "VIVTOT": 0.0, "GRAPROES": 0.0, "_ent": "28", "_mun": "026", "_loc": "0003"}, "geometry": {"type": "Polygon", "coordinates": [[[-99.62758, 23.45468], [-99.62795, 23.4546], [-99.62839, 23.4551], [-99.62802, 23.4553], [-99.62758, 23.45468]]]}}, {"id": "2160611", "type": "Feature", "properties": {"id": "2160611", "CVEGEO": "2802600030212040", "POBTOT": 0.0, "score_nse": 0.0, "NSE": null, "VIVTOT": 0.0, "GRAPROES": 0.0, "_ent": "28", "_mun": "026", "_loc": "0003"}, "geometry": {"type": "Polygon", "coordinates": [[[-99.62887, 23.45521], [-99.62864, 23.45532], [-99.62837, 23.45497], [-99.62872, 23.45486], [-99.62887, 23.45521]]]}}]}