{"type": "FeatureCollection", "features": [{"id": "1962556", "type": "Feature", "properties": {"id": "1962556", "CVEGEO": "2501102281093013", "POBTOT": 0.0, "score_nse": 0.0, "NSE": null, "VIVTOT": 0.0, "GRAPROES": 0.0, "_ent": "25", "_mun": "011", "_loc": "0228"}, "geometry": {"type": "Polygon", "coordinates": [[[-108.62753, 25.42689], [-108.62834, 25.42728], [-108.62794, 25.42795], [-108.62711, 25.42756], [-108.62753, 25.42689]]]}}, {"id": "1962557", "type": "Feature", "properties": {"id": "1962557", "CVEGEO": "2501102281093012", "POBTOT": 0.0, "score_nse": 0.0, "NSE": null, "VIVTOT": 0.0, "GRAPROES": 0.0, "_ent": "25", "_mun": "011", "_loc": "0228"}, "geometry": {"type": "Polygon", "coordinates": [[[-108.62802, 25.42799], [-108.62844, 25.42735], [-108.62919, 25.42776], [-108.6288, 25.42836], [-108.62802, 25.42799]]]}}, {"id": "1962558", "type": "Feature", "properties": {"id": "1962558", "CVEGEO": "2501102281093009", "POBTOT": 0.0, "score_nse": 0.0, "NSE": null, "VIVTOT": 0.0, "GRAPROES": 0.0, "_ent": "25", "_mun": "011", "_loc": "0228"}, "geometry": {"type": "Polygon", "coordinates": [[[-108.63067, 25.42744], [-108.63143, 25.42784], [-108.63098, 25.42858], [-108.63018, 25.42818], [-108.63067, 25.42744]]]}}, {"id": "1962559", "type": "Feature", "properties": {"id": "1962559", "CVEGEO": "2501102281093008", "POBTOT": 0.0, "score_nse": 0.0, "NSE": null, "VIVTOT": 0.0, "GRAPROES": 0.0, "_ent": "25", "_mun": "011", "_loc": "0228"}, "geometry": {"type": "Polygon", "coordinates": [[[-108.63117, 25.42667], [-108.63194, 25.42707], [-108.63148, 25.42778], [-108.63071, 25.42737], [-108.63117, 25.42667]]]}}, {"id": "1962560", "type": "Feature", "properties": {"id": "1962560", "CVEGEO": "2501102281093007", "POBTOT": 0.0, "score_nse": 0.0, "NSE": null, "VIVTOT": 0.0, "GRAPROES": 0.0, "_ent": "25", "_mun": "011", "_loc": "0228"}, "geometry": {"type": "Polygon", "coordinates": [[[-108.63168, 25.42587], [-108.63248, 25.42628], [-108.63201, 25.42698], [-108.63122, 25.42658], [-108.63168, 25.42587]]]}}, {"id": "1962561", "type": "Feature", "properties": {"id": "1962561", "CVEGEO": "2501102281093006", "POBTOT": 0.0, "score_nse": 0.0, "NSE": null, "VIVTOT": 0.0, "GRAPROES": 0.0, "_ent": "25", "_mun": "011", "_loc": "0228"}, "geometry": {"type": "Polygon", "coordinates": [[[-108.6308, 25.42542], [-108.63161, 25.42584], [-108.63114, 25.42654], [-108.63036, 25.42614], [-108.6308, 25.42542]]]}}, {"id": "1963851", "type": "Feature", "properties": {"id": "1963851", "CVEGEO": "2501102281093023", "POBTOT": 0.0, "score_nse": 0.0, "NSE": null, "VIVTOT": 0.0, "GRAPROES": 0.0, "_ent": "25", "_mun": "011", "_loc": "0228"}, "geometry": {"type": "Polygon", "coordinates": [[[-108.63202, 25.42713], [-108.63278, 25.42753], [-108.63231, 25.42823], [-108.63158, 25.42782], [-108.63202, 25.42713]]]}}, {"id": "1963852", "type": "Feature", "properties": {"id": "1963852", "CVEGEO": "2501102281093022", "POBTOT": 0.0, "score_nse": 0.0, "NSE": null, "VIVTOT": 0.0, "GRAPROES": 0.0, "_ent": "25", "_mun": "011", "_loc": "0228"}, "geometry": {"type": "Polygon", "coordinates": [[[-108.63284, 25.42744], [-108.63209, 25.42704], [-108.63256, 25.42632], [-108.63328, 25.4267], [-108.63284, 25.42744]]]}}, {"id": "1963853", "type": "Feature", "properties": {"id": "1963853", "CVEGEO": "2501102281093021", "POBTOT": 0.0, "score_nse": 0.0, "NSE": null, "VIVTOT": 0.0, "GRAPROES": 0.0, "_ent": "25", "_mun": "011", "_loc": "0228"}, "geometry": {"type": "Polygon", "coordinates": [[[-108.63285, 25.42584], [-108.63335, 25.42657], [-108.63331, 25.42662], [-108.6326, 25.42622], [-108.63285, 25.42584]]]}}, {"id": "1963854", "type": "Feature", "properties": {"id": "1963854", "CVEGEO": "2501102281093020", "POBTOT": 0.0, "score_nse": 0.0, "NSE": null, "VIVTOT": 0.0, "GRAPROES": 0.0, "_ent": "25", "_mun": "011", "_loc": "0228"}, "geometry": {"type": "Polygon", "coordinates": [[[-108.6322, 25.42511], [-108.63277, 25.42575], [-108.63251, 25.4262], [-108.63173, 25.42581], [-108.6322, 25.42511]]]}}, {"id": "1963855", "type": "Feature", "properties": {"id": "1963855", "CVEGEO": "2501102281093019", "POBTOT": 0.0, "score_nse": 0.0, "NSE": null, "VIVTOT": 0.0, "GRAPROES": 0.0, "_ent": "25", "_mun": "011", "_loc": "0228"}, "geometry": {"type": "Polygon", "coordinates": [[[-108.63128, 25.42466], [-108.63209, 25.42507], [-108.63165, 25.42578], [-108.63084, 25.42537], [-108.63128, 25.42466]]]}}, {"id": "1963856", "type": "Feature", "properties": {"id": "1963856", "CVEGEO": "2501102281093018", "POBTOT": 0.0, "score_nse": 0.0, "NSE": null, "VIVTOT": 0.0, "GRAPROES": 0.0, "_ent": "25", "_mun": "011", "_loc": "0228"}, "geometry": {"type": "Polygon", "coordinates": [[[-108.63043, 25.42422], [-108.63119, 25.42462], [-108.63074, 25.42527], [-108.63002, 25.42489], [-108.63043, 25.42422]]]}}, {"id": "1963857", "type": "Feature", "properties": {"id": "1963857", "CVEGEO": "2501102281093017", "POBTOT": 0.0, "score_nse": 0.0, "NSE": null, "VIVTOT": 0.0, "GRAPROES": 0.0, "_ent": "25", "_mun": "011", "_loc": "0228"}, "geometry": {"type": "Polygon", "coordinates": [[[-108.62951, 25.42373], [-108.63032, 25.42415], [-108.6299, 25.42484], [-108.62909, 25.42443], [-108.62951, 25.42373]]]}}, {"id": "1963858", "type": "Feature", "properties": {"id": "1963858", "CVEGEO": "2501102281093016", "POBTOT": 0.0, "score_nse": 0.0, "NSE": null, "VIVTOT": 0.0, "GRAPROES": 0.0, "_ent": "25", "_mun": "011", "_loc": "0228"}, "geometry": {"type": "Polygon", "coordinates": [[[-108.62902, 25.42452], [-108.62985, 25.42493], [-108.6294, 25.42561], [-108.62861, 25.42521], [-108.62902, 25.42452]]]}}, {"id": "1963859", "type": "Feature", "properties": {"id": "1963859", "CVEGEO": "2501102281093003", "POBTOT": 0.0, "score_nse": 0.0, "NSE": null, "VIVTOT": 0.0, "GRAPROES": 0.0, "_ent": "25", "_mun": "011", "_loc": "0228"}, "geometry": {"type": "Polygon", "coordinates": [[[-108.62969, 25.42696], [-108.62924, 25.42766], [-108.62851, 25.42725], [-108.62895, 25.42656], [-108.62969, 25.42696]]]}}, {"id": "1963860", "type": "Feature", "properties": {"id": "1963860", "CVEGEO": "2501102281093002", "POBTOT": 0.0, "score_nse": 0.0, "NSE": null, "VIVTOT": 0.0, "GRAPROES": 0.0, "_ent": "25", "_mun": "011", "_loc": "0228"}, "geometry": {"type": "Polygon", "coordinates": [[[-108.6298, 25.427], [-108.63059, 25.42742], [-108.6301, 25.42813], [-108.62934, 25.42772], [-108.6298, 25.427]]]}}, {"id": "1963861", "type": "Feature", "properties": {"id": "1963861", "CVEGEO": "2501102281093001", "POBTOT": 0.0, "score_nse": 0.0, "NSE": null, "VIVTOT": 0.0, "GRAPROES": 0.0, "_ent": "25", "_mun": "011", "_loc": "0228"}, "geometry": {"type": "Polygon", "coordinates": [[[-108.63029, 25.42622], [-108.63108, 25.42663], [-108.63063, 25.42732], [-108.62987, 25.42691], [-108.63029, 25.42622]]]}}, {"id": "1965348", "type": "Feature", "properties": {"id": "1965348", "CVEGEO": "2501102281093005", "POBTOT": 0.0, "score_nse": 0.0, "NSE": null, "VIVTOT": 0.0, "GRAPROES": 0.0, "_ent": "25", "_mun": "011", "_loc": "0228"}, "geometry": {"type": "Polygon", "coordinates": [[[-108.62997, 25.42499], [-108.63072, 25.42537], [-108.63026, 25.42609], [-108.62951, 25.42569], [-108.62997, 25.42499]]]}}, {"id": "1965708", "type": "Feature", "properties": {"id": "1965708", "CVEGEO": "2501102281093030", "POBTOT": 0.0, "score_nse": 0.0, "NSE": null, "VIVTOT": 0.0, "GRAPROES": 0.0, "_ent": "25", "_mun": "011", "_loc": "0228"}, "geometry": {"type": "Polygon", "coordinates": [[[-108.6329, 25.42755], [-108.63366, 25.42794], [-108.63321, 25.4287], [-108.63243, 25.4283], [-108.6329, 25.42755]]]}}, {"id": "1965709", "type": "Feature", "properties": {"id": "1965709", "CVEGEO": "2501102281093029", "POBTOT": 0.0, "score_nse": 0.0, "NSE": null, "VIVTOT": 0.0, "GRAPROES": 0.0, "_ent": "25", "_mun": "011", "_loc": "0228"}, "geometry": {"type": "Polygon", "coordinates": [[[-108.63296, 25.42747], [-108.63339, 25.42679], [-108.63409, 25.42772], [-108.63316, 25.42754], [-108.63296, 25.42747]]]}}, {"id": "1966221", "type": "Feature", "properties": {"id": "1966221", "CVEGEO": "2501102281093028", "POBTOT": 0.0, "score_nse": 0.0, "NSE": null, "VIVTOT": 0.0, "GRAPROES": 0.0, "_ent": "25", "_mun": "011", "_loc": "0228"}, "geometry": {"type": "Polygon", "coordinates": [[[-108.63174, 25.42414], [-108.63227, 25.42486], [-108.63215, 25.42501], [-108.63133, 25.42458], [-108.63174, 25.42414]]]}}, {"id": "1966222", "type": "Feature", "properties": {"id": "1966222", "CVEGEO": "2501102281093027", "POBTOT": 0.0, "score_nse": 0.0, "NSE": null, "VIVTOT": 0.0, "GRAPROES": 0.0, "_ent": "25", "_mun": "011", "_loc": "0228"}, "geometry": {"type": "Polygon", "coordinates": [[[-108.63106, 25.42321], [-108.6316, 25.42398], [-108.63123, 25.42454], [-108.63049, 25.42413], [-108.63106, 25.42321]]]}}, {"id": "1966223", "type": "Feature", "properties": {"id": "1966223", "CVEGEO": "2501102281093026", "POBTOT": 0.0, "score_nse": 0.0, "NSE": null, "VIVTOT": 0.0, "GRAPROES": 0.0, "_ent": "25", "_mun": "011", "_loc": "0228"}, "geometry": {"type": "Polygon", "coordinates": [[[-108.63032, 25.42245], [-108.63096, 25.42312], [-108.63037, 25.42408], [-108.62962, 25.42366], [-108.63032, 25.42245]]]}}, {"id": "1966224", "type": "Feature", "properties": {"id": "1966224", "CVEGEO": "2501102281093025", "POBTOT": 0.0, "score_nse": 0.0, "NSE": null, "VIVTOT": 0.0, "GRAPROES": 0.0, "_ent": "25", "_mun": "011", "_loc": "0228"}, "geometry": {"type": "Polygon", "coordinates": [[[-108.63153, 25.4296], [-108.63074, 25.42921], [-108.63103, 25.4287], [-108.6318, 25.4291], [-108.63153, 25.4296]]]}}, {"id": "1966225", "type": "Feature", "properties": {"id": "1966225", "CVEGEO": "2501102281093024", "POBTOT": 0.0, "score_nse": 0.0, "NSE": null, "VIVTOT": 0.0, "GRAPROES": 0.0, "_ent": "25", "_mun": "011", "_loc": "0228"}, "geometry": {"type": "Polygon", "coordinates": [[[-108.63108, 25.42863], [-108.63153, 25.42791], [-108.63226, 25.42832], [-108.63184, 25.42903], [-108.63108, 25.42863]]]}}, {"id": "1966226", "type": "Feature", "properties": {"id": "1966226", "CVEGEO": "2501102281093015", "POBTOT": 0.0, "score_nse": 0.0, "NSE": null, "VIVTOT": 0.0, "GRAPROES": 0.0, "_ent": "25", "_mun": "011", "_loc": "0228"}, "geometry": {"type": "Polygon", "coordinates": [[[-108.62852, 25.4253], [-108.62933, 25.42572], [-108.6289, 25.42641], [-108.62812, 25.426], [-108.62852, 25.4253]]]}}, {"id": "1966858", "type": "Feature", "properties": {"id": "1966858", "CVEGEO": "2501102281093004", "POBTOT": 0.0, "score_nse": 0.0, "NSE": null, "VIVTOT": 0.0, "GRAPROES": 0.0, "_ent": "25", "_mun": "011", "_loc": "0228"}, "geometry": {"type": "Polygon", "coordinates": [[[-108.62945, 25.42577], [-108.63022, 25.42616], [-108.62976, 25.42687], [-108.629, 25.42647], [-108.62945, 25.42577]]]}}, {"id": "1967196", "type": "Feature", "properties": {"id": "1967196", "CVEGEO": "2501102281093032", "POBTOT": 0.0, "score_nse": 0.0, "NSE": null, "VIVTOT": 0.0, "GRAPROES": 0.0, "_ent": "25", "_mun": "011", "_loc": "0228"}, "geometry": {"type": "Polygon", "coordinates": [[[-108.63315, 25.42763], [-108.63379, 25.42772], [-108.63369, 25.42789], [-108.63315, 25.42763]]]}}, {"id": "1967197", "type": "Feature", "properties": {"id": "1967197", "CVEGEO": "2501102281093014", "POBTOT": 0.0, "score_nse": 0.0, "NSE": null, "VIVTOT": 0.0, "GRAPROES": 0.0, "_ent": "25", "_mun": "011", "_loc": "0228"}, "geometry": {"type": "Polygon", "coordinates": [[[-108.62806, 25.42611], [-108.62883, 25.4265], [-108.62838, 25.42721], [-108.6276, 25.42682], [-108.62806, 25.42611]]]}}, {"id": "1967866", "type": "Feature", "properties": {"id": "1967866", "CVEGEO": "2501102281093011", "POBTOT": 0.0, "score_nse": 0.0, "NSE": null, "VIVTOT": 0.0, "GRAPROES": 0.0, "_ent": "25", "_mun": "011", "_loc": "0228"}, "geometry": {"type": "Polygon", "coordinates": [[[-108.62974, 25.4286], [-108.62942, 25.42866], [-108.62892, 25.42842], [-108.62928, 25.4278], [-108.63005, 25.42821], [-108.62974, 25.4286]]]}}, {"id": "1967867", "type": "Feature", "properties": {"id": "1967867", "CVEGEO": "2501102281093010", "POBTOT": 0.0, "score_nse": 0.0, "NSE": null, "VIVTOT": 0.0, "GRAPROES": 0.0, "_ent": "25", "_mun": "011", "_loc": "0228"}, "geometry": {"type": "Polygon", "coordinates": [[[-108.6296, 25.42869], [-108.63013, 25.42824], [-108.63094, 25.42866], [-108.63064, 25.42916], [-108.6296, 25.42869]]]}}, {"id": "1967903", "type": "Feature", "properties": {"id": "1967903", "CVEGEO": "2501102281093031", "POBTOT": 0.0, "score_nse": 0.0, "NSE": null, "VIVTOT": 0.0, "GRAPROES": 0.0, "_ent": "25", "_mun": "011", "_loc": "0228"}, "geometry": {"type": "Polygon", "coordinates": [[[-108.63318, 25.42876], [-108.63245, 25.42994], [-108.63163, 25.42958], [-108.63239, 25.42836], [-108.63318, 25.42876]]]}}]}