{"type": "FeatureCollection", "features": [{"id": "399329", "type": "Feature", "properties": {"id": "399329", "CVEGEO": "0806300460647008", "POBTOT": 0.0, "score_nse": 0.0, "NSE": null, "VIVTOT": 0.0, "GRAPROES": 0.0, "_ent": "08", "_mun": "063", "_loc": "0046"}, "geometry": {"type": "Polygon", "coordinates": [[[-107.77937, 28.94778], [-107.77892, 28.94777], [-107.77893, 28.94735], [-107.7794, 28.94738], [-107.77937, 28.94778]]]}}, {"id": "399330", "type": "Feature", "properties": {"id": "399330", "CVEGEO": "0806300460647012", "POBTOT": 0.0, "score_nse": 0.0, "NSE": null, "VIVTOT": 0.0, "GRAPROES": 0.0, "_ent": "08", "_mun": "063", "_loc": "0046"}, "geometry": {"type": "Polygon", "coordinates": [[[-107.77769, 28.94843], [-107.77764, 28.94908], [-107.77729, 28.94915], [-107.77685, 28.94883], [-107.77694, 28.94838], [-107.77769, 28.94843]]]}}, {"id": "399331", "type": "Feature", "properties": {"id": "399331", "CVEGEO": "0806300460647015", "POBTOT": 0.0, "score_nse": 0.0, "NSE": null, "VIVTOT": 0.0, "GRAPROES": 0.0, "_ent": "08", "_mun": "063", "_loc": "0046"}, "geometry": {"type": "Polygon", "coordinates": [[[-107.78075, 28.94786], [-107.77991, 28.94781], [-107.77994, 28.94701], [-107.78077, 28.94704], [-107.78075, 28.94786]]]}}, {"id": "399332", "type": "Feature", "properties": {"id": "399332", "CVEGEO": "0806300460647016", "POBTOT": 0.0, "score_nse": 0.0, "NSE": null, "VIVTOT": 0.0, "GRAPROES": 0.0, "_ent": "08", "_mun": "063", "_loc": "0046"}, "geometry": {"type": "Polygon", "coordinates": [[[-107.78075, 28.94835], [-107.7799, 28.94831], [-107.77992, 28.94792], [-107.78075, 28.94794], [-107.78075, 28.94835]]]}}, {"id": "399333", "type": "Feature", "properties": {"id": "399333", "CVEGEO": "0806300460647019", "POBTOT": 0.0, "score_nse": 0.0, "NSE": null, "VIVTOT": 0.0, "GRAPROES": 0.0, "_ent": "08", "_mun": "063", "_loc": "0046"}, "geometry": {"type": "Polygon", "coordinates": [[[-107.77694, 28.9477], [-107.77652, 28.94771], [-107.77655, 28.94719], [-107.777, 28.9472], [-107.77694, 28.9477]]]}}, {"id": "399334", "type": "Feature", "properties": {"id": "399334", "CVEGEO": "0806300460647020", "POBTOT": 0.0, "score_nse": 0.0, "NSE": null, "VIVTOT": 0.0, "GRAPROES": 0.0, "_ent": "08", "_mun": "063", "_loc": "0046"}, "geometry": {"type": "Polygon", "coordinates": [[[-107.78084, 28.95085], [-107.78007, 28.95076], [-107.78023, 28.95014], [-107.78093, 28.95041], [-107.78084, 28.95085]]]}}, {"id": "399335", "type": "Feature", "properties": {"id": "399335", "CVEGEO": "0806300460647002", "POBTOT": 0.0, "score_nse": 0.0, "NSE": null, "VIVTOT": 0.0, "GRAPROES": 0.0, "_ent": "08", "_mun": "063", "_loc": "0046"}, "geometry": {"type": "Polygon", "coordinates": [[[-107.77932, 28.94852], [-107.77928, 28.94917], [-107.77887, 28.94908], [-107.77888, 28.94849], [-107.77932, 28.94852]]]}}, {"id": "399336", "type": "Feature", "properties": {"id": "399336", "CVEGEO": "0806300460647003", "POBTOT": 0.0, "score_nse": 0.0, "NSE": null, "VIVTOT": 0.0, "GRAPROES": 0.0, "_ent": "08", "_mun": "063", "_loc": "0046"}, "geometry": {"type": "Polygon", "coordinates": [[[-107.77882, 28.94849], [-107.77872, 28.94897], [-107.77832, 28.94906], [-107.77835, 28.94848], [-107.77882, 28.94849]]]}}, {"id": "399337", "type": "Feature", "properties": {"id": "399337", "CVEGEO": "0806300460647004", "POBTOT": 0.0, "score_nse": 0.0, "NSE": null, "VIVTOT": 0.0, "GRAPROES": 0.0, "_ent": "08", "_mun": "063", "_loc": "0046"}, "geometry": {"type": "Polygon", "coordinates": [[[-107.77827, 28.94846], [-107.77823, 28.94904], [-107.77773, 28.94906], [-107.77776, 28.94842], [-107.77827, 28.94846]]]}}, {"id": "399338", "type": "Feature", "properties": {"id": "399338", "CVEGEO": "0806300460647001", "POBTOT": 0.0, "score_nse": 0.0, "NSE": null, "VIVTOT": 0.0, "GRAPROES": 0.0, "_ent": "08", "_mun": "063", "_loc": "0046"}, "geometry": {"type": "Polygon", "coordinates": [[[-107.77934, 28.9483], [-107.77835, 28.94823], [-107.77839, 28.94784], [-107.77936, 28.94789], [-107.77934, 28.9483]]]}}, {"id": "399339", "type": "Feature", "properties": {"id": "399339", "CVEGEO": "0806300460647006", "POBTOT": 0.0, "score_nse": 0.0, "NSE": null, "VIVTOT": 0.0, "GRAPROES": 0.0, "_ent": "08", "_mun": "063", "_loc": "0046"}, "geometry": {"type": "Polygon", "coordinates": [[[-107.77836, 28.94734], [-107.77834, 28.94775], [-107.77794, 28.94773], [-107.778, 28.94732], [-107.77836, 28.94734]]]}}, {"id": "399340", "type": "Feature", "properties": {"id": "399340", "CVEGEO": "0806300460647007", "POBTOT": 0.0, "score_nse": 0.0, "NSE": null, "VIVTOT": 0.0, "GRAPROES": 0.0, "_ent": "08", "_mun": "063", "_loc": "0046"}, "geometry": {"type": "Polygon", "coordinates": [[[-107.77884, 28.94737], [-107.77883, 28.94776], [-107.77842, 28.94774], [-107.77845, 28.94734], [-107.77884, 28.94737]]]}}, {"id": "399341", "type": "Feature", "properties": {"id": "399341", "CVEGEO": "0806300460647011", "POBTOT": 0.0, "score_nse": 0.0, "NSE": null, "VIVTOT": 0.0, "GRAPROES": 0.0, "_ent": "08", "_mun": "063", "_loc": "0046"}, "geometry": {"type": "Polygon", "coordinates": [[[-107.77958, 28.94992], [-107.77899, 28.94977], [-107.77909, 28.94923], [-107.77969, 28.94937], [-107.77958, 28.94992]]]}}, {"id": "399342", "type": "Feature", "properties": {"id": "399342", "CVEGEO": "0806300460647014", "POBTOT": 0.0, "score_nse": 0.0, "NSE": null, "VIVTOT": 0.0, "GRAPROES": 0.0, "_ent": "08", "_mun": "063", "_loc": "0046"}, "geometry": {"type": "Polygon", "coordinates": [[[-107.77785, 28.94773], [-107.77712, 28.94769], [-107.77724, 28.94727], [-107.77757, 28.9472], [-107.77765, 28.94703], [-107.778, 28.94704], [-107.77785, 28.94773]]]}}, {"id": "399343", "type": "Feature", "properties": {"id": "399343", "CVEGEO": "0806300460647018", "POBTOT": 0.0, "score_nse": 0.0, "NSE": null, "VIVTOT": 0.0, "GRAPROES": 0.0, "_ent": "08", "_mun": "063", "_loc": "0046"}, "geometry": {"type": "Polygon", "coordinates": [[[-107.78, 28.95074], [-107.77955, 28.95068], [-107.77968, 28.95001], [-107.78017, 28.95012], [-107.78, 28.95074]]]}}, {"id": "399347", "type": "Feature", "properties": {"id": "399347", "CVEGEO": "0806300460647010", "POBTOT": 0.0, "score_nse": 0.0, "NSE": null, "VIVTOT": 0.0, "GRAPROES": 0.0, "_ent": "08", "_mun": "063", "_loc": "0046"}, "geometry": {"type": "Polygon", "coordinates": [[[-107.78069, 28.94899], [-107.77939, 28.94885], [-107.77942, 28.94852], [-107.78073, 28.94859], [-107.78069, 28.94899]]]}}, {"id": "399348", "type": "Feature", "properties": {"id": "399348", "CVEGEO": "0806300460647017", "POBTOT": 0.0, "score_nse": 0.0, "NSE": null, "VIVTOT": 0.0, "GRAPROES": 0.0, "_ent": "08", "_mun": "063", "_loc": "0046"}, "geometry": {"type": "Polygon", "coordinates": [[[-107.78143, 28.94842], [-107.78086, 28.94835], [-107.78087, 28.94796], [-107.78135, 28.94799], [-107.78143, 28.94842]]]}}, {"id": "399356", "type": "Feature", "properties": {"id": "399356", "CVEGEO": "0806300460647005", "POBTOT": 0.0, "score_nse": 0.0, "NSE": null, "VIVTOT": 0.0, "GRAPROES": 0.0, "_ent": "08", "_mun": "063", "_loc": "0046"}, "geometry": {"type": "Polygon", "coordinates": [[[-107.77832, 28.94785], [-107.77828, 28.94823], [-107.77784, 28.9482], [-107.7779, 28.94783], [-107.77832, 28.94785]]]}}, {"id": "399357", "type": "Feature", "properties": {"id": "399357", "CVEGEO": "0806300460647009", "POBTOT": 0.0, "score_nse": 0.0, "NSE": null, "VIVTOT": 0.0, "GRAPROES": 0.0, "_ent": "08", "_mun": "063", "_loc": "0046"}, "geometry": {"type": "Polygon", "coordinates": [[[-107.77986, 28.94831], [-107.77942, 28.94829], [-107.77943, 28.9479], [-107.77987, 28.94792], [-107.77986, 28.94831]]]}}, {"id": "399358", "type": "Feature", "properties": {"id": "399358", "CVEGEO": "0806300460647013", "POBTOT": 0.0, "score_nse": 0.0, "NSE": null, "VIVTOT": 0.0, "GRAPROES": 0.0, "_ent": "08", "_mun": "063", "_loc": "0046"}, "geometry": {"type": "Polygon", "coordinates": [[[-107.77778, 28.9482], [-107.77699, 28.94814], [-107.77692, 28.94781], [-107.77785, 28.94781], [-107.77778, 28.9482]]]}}]}