{"type": "FeatureCollection", "features": [{"id": "810234", "type": "Feature", "properties": {"id": "810234", "CVEGEO": "1206800340442010", "POBTOT": 0.0, "score_nse": 0.0, "NSE": null, "VIVTOT": 0.0, "GRAPROES": 0.0, "_ent": "12", "_mun": "068", "_loc": "0034"}, "geometry": {"type": "Polygon", "coordinates": [[[-101.97189, 18.01903], [-101.9714, 18.01878], [-101.97151, 18.01857], [-101.97212, 18.0186], [-101.97189, 18.01903]]]}}, {"id": "810235", "type": "Feature", "properties": {"id": "810235", "CVEGEO": "1206800340442009", "POBTOT": 0.0, "score_nse": 0.0, "NSE": null, "VIVTOT": 0.0, "GRAPROES": 0.0, "_ent": "12", "_mun": "068", "_loc": "0034"}, "geometry": {"type": "Polygon", "coordinates": [[[-101.97278, 18.01909], [-101.97218, 18.01979], [-101.97169, 18.0194], [-101.97233, 18.01814], [-101.97278, 18.01821], [-101.97278, 18.01909]]]}}, {"id": "810251", "type": "Feature", "properties": {"id": "810251", "CVEGEO": "1206800340442015", "POBTOT": 0.0, "score_nse": 0.0, "NSE": null, "VIVTOT": 0.0, "GRAPROES": 0.0, "_ent": "12", "_mun": "068", "_loc": "0034"}, "geometry": {"type": "Polygon", "coordinates": [[[-101.97332, 18.01835], [-101.97299, 18.01871], [-101.97285, 18.01889], [-101.97284, 18.01823], [-101.97332, 18.01835]]]}}, {"id": "810296", "type": "Feature", "properties": {"id": "810296", "CVEGEO": "1206800340442028", "POBTOT": 0.0, "score_nse": 0.0, "NSE": null, "VIVTOT": 0.0, "GRAPROES": 0.0, "_ent": "12", "_mun": "068", "_loc": "0034"}, "geometry": {"type": "Polygon", "coordinates": [[[-101.97257, 18.02002], [-101.97222, 18.01981], [-101.9728, 18.01919], [-101.97284, 18.01972], [-101.97257, 18.02002]]]}}, {"id": "810384", "type": "Feature", "properties": {"id": "810384", "CVEGEO": "1206800340442014", "POBTOT": 0.0, "score_nse": 0.0, "NSE": null, "VIVTOT": 0.0, "GRAPROES": 0.0, "_ent": "12", "_mun": "068", "_loc": "0034"}, "geometry": {"type": "Polygon", "coordinates": [[[-101.97374, 18.01787], [-101.97335, 18.0183], [-101.97283, 18.01819], [-101.97284, 18.01772], [-101.97374, 18.01787]]]}}, {"id": "810470", "type": "Feature", "properties": {"id": "810470", "CVEGEO": "1206800340442002", "POBTOT": 0.0, "score_nse": 0.0, "NSE": null, "VIVTOT": 0.0, "GRAPROES": 0.0, "_ent": "12", "_mun": "068", "_loc": "0034"}, "geometry": {"type": "Polygon", "coordinates": [[[-101.97223, 18.01845], [-101.97151, 18.01852], [-101.97146, 18.01724], [-101.97227, 18.01726], [-101.97223, 18.01845]]]}}, {"id": "810471", "type": "Feature", "properties": {"id": "810471", "CVEGEO": "1206800340442001", "POBTOT": 0.0, "score_nse": 0.0, "NSE": null, "VIVTOT": 0.0, "GRAPROES": 0.0, "_ent": "12", "_mun": "068", "_loc": "0034"}, "geometry": {"type": "Polygon", "coordinates": [[[-101.97277, 18.01786], [-101.97236, 18.01778], [-101.97236, 18.01727], [-101.97278, 18.01732], [-101.97277, 18.01786]]]}}, {"id": "810496", "type": "Feature", "properties": {"id": "810496", "CVEGEO": "1206800340442005", "POBTOT": 0.0, "score_nse": 0.0, "NSE": null, "VIVTOT": 0.0, "GRAPROES": 0.0, "_ent": "12", "_mun": "068", "_loc": "0034"}, "geometry": {"type": "Polygon", "coordinates": [[[-101.97278, 18.01818], [-101.97234, 18.0181], [-101.97234, 18.01791], [-101.97277, 18.0179], [-101.97278, 18.01818]]]}}, {"id": "810561", "type": "Feature", "properties": {"id": "810561", "CVEGEO": "1206800340442012", "POBTOT": 0.0, "score_nse": 0.0, "NSE": null, "VIVTOT": 0.0, "GRAPROES": 0.0, "_ent": "12", "_mun": "068", "_loc": "0034"}, "geometry": {"type": "Polygon", "coordinates": [[[-101.97179, 18.01617], [-101.97173, 18.01577], [-101.97228, 18.01579], [-101.97243, 18.01624], [-101.97179, 18.01617]]]}}, {"id": "810700", "type": "Feature", "properties": {"id": "810700", "CVEGEO": "1206800340442013", "POBTOT": 0.0, "score_nse": 0.0, "NSE": null, "VIVTOT": 0.0, "GRAPROES": 0.0, "_ent": "12", "_mun": "068", "_loc": "0034"}, "geometry": {"type": "Polygon", "coordinates": [[[-101.97285, 18.01724], [-101.97286, 18.01646], [-101.9732, 18.01664], [-101.97271, 18.01632], [-101.97294, 18.01594], [-101.97268, 18.0163], [-101.97242, 18.0161], [-101.97234, 18.01578], [-101.97243, 18.01581], [-101.97255, 18.01576], [-101.97233, 18.01573], [-101.97207, 18.01471], [-101.97391, 18.01573], [-101.97431, 18.01579], [-101.97442, 18.01598], [-101.97437, 18.01641], [-101.97409, 18.0165], [-101.97402, 18.01663], [-101.97436, 18.01646], [-101.97448, 18.01721], [-101.97417, 18.01751], [-101.97405, 18.01726], [-101.9739, 18.01727], [-101.97415, 18.01754], [-101.97388, 18.01779], [-101.97286, 18.01769], [-101.97285, 18.01728], [-101.97302, 18.01724], [-101.97285, 18.01724]]]}}, {"id": "810701", "type": "Feature", "properties": {"id": "810701", "CVEGEO": "1206800340442003", "POBTOT": 0.0, "score_nse": 0.0, "NSE": null, "VIVTOT": 0.0, "GRAPROES": 0.0, "_ent": "12", "_mun": "068", "_loc": "0034"}, "geometry": {"type": "Polygon", "coordinates": [[[-101.97282, 18.01691], [-101.9728, 18.01725], [-101.97232, 18.01721], [-101.97228, 18.01705], [-101.97228, 18.0172], [-101.97146, 18.0172], [-101.97128, 18.01687], [-101.97181, 18.01623], [-101.97247, 18.01631], [-101.97241, 18.01674], [-101.97253, 18.01633], [-101.97276, 18.01641], [-101.97283, 18.01683], [-101.97262, 18.01687], [-101.97282, 18.01691]]]}}, {"id": "810732", "type": "Feature", "properties": {"id": "810732", "CVEGEO": "1206800340442022", "POBTOT": 0.0, "score_nse": 0.0, "NSE": null, "VIVTOT": 0.0, "GRAPROES": 0.0, "_ent": "12", "_mun": "068", "_loc": "0034"}, "geometry": {"type": "Polygon", "coordinates": [[[-101.97167, 18.01577], [-101.97173, 18.01637], [-101.9712, 18.01633], [-101.97118, 18.01583], [-101.97167, 18.01577]]]}}, {"id": "810810", "type": "Feature", "properties": {"id": "810810", "CVEGEO": "1206800340442029", "POBTOT": 0.0, "score_nse": 0.0, "NSE": null, "VIVTOT": 0.0, "GRAPROES": 0.0, "_ent": "12", "_mun": "068", "_loc": "0034"}, "geometry": {"type": "Polygon", "coordinates": [[[-101.97178, 18.01573], [-101.97084, 18.01578], [-101.97052, 18.01555], [-101.97093, 18.01519], [-101.97162, 18.01504], [-101.97178, 18.01573]]]}}, {"id": "810811", "type": "Feature", "properties": {"id": "810811", "CVEGEO": "1206800340442030", "POBTOT": 0.0, "score_nse": 0.0, "NSE": null, "VIVTOT": 0.0, "GRAPROES": 0.0, "_ent": "12", "_mun": "068", "_loc": "0034"}, "geometry": {"type": "Polygon", "coordinates": [[[-101.97202, 18.01491], [-101.97103, 18.01505], [-101.9705, 18.01535], [-101.97039, 18.0153], [-101.97041, 18.01446], [-101.97064, 18.01427], [-101.97182, 18.01419], [-101.97202, 18.01491]]]}}, {"id": "810812", "type": "Feature", "properties": {"id": "810812", "CVEGEO": "1206800340442031", "POBTOT": 0.0, "score_nse": 0.0, "NSE": null, "VIVTOT": 0.0, "GRAPROES": 0.0, "_ent": "12", "_mun": "068", "_loc": "0034"}, "geometry": {"type": "Polygon", "coordinates": [[[-101.97225, 18.01573], [-101.97185, 18.01573], [-101.97169, 18.01502], [-101.97204, 18.01496], [-101.97225, 18.01573]]]}}]}