{"type": "FeatureCollection", "features": [{"id": "1705955", "type": "Feature", "properties": {"id": "1705955", "CVEGEO": "2112100030012025", "POBTOT": 0.0, "score_nse": 0.0, "NSE": null, "VIVTOT": 0.0, "GRAPROES": 0.0, "_ent": "21", "_mun": "121", "_loc": "0003"}, "geometry": {"type": "Polygon", "coordinates": [[[-98.25657, 18.82497], [-98.25744, 18.82499], [-98.25743, 18.82557], [-98.25655, 18.82556], [-98.25657, 18.82497]]]}}, {"id": "1705962", "type": "Feature", "properties": {"id": "1705962", "CVEGEO": "2112100030012020", "POBTOT": 0.0, "score_nse": 0.0, "NSE": null, "VIVTOT": 0.0, "GRAPROES": 0.0, "_ent": "21", "_mun": "121", "_loc": "0003"}, "geometry": {"type": "Polygon", "coordinates": [[[-98.2596, 18.82813], [-98.25962, 18.82759], [-98.26057, 18.82761], [-98.26056, 18.82816], [-98.2596, 18.82813]]]}}, {"id": "1705963", "type": "Feature", "properties": {"id": "1705963", "CVEGEO": "2112100030012019", "POBTOT": 0.0, "score_nse": 0.0, "NSE": null, "VIVTOT": 0.0, "GRAPROES": 0.0, "_ent": "21", "_mun": "121", "_loc": "0003"}, "geometry": {"type": "Polygon", "coordinates": [[[-98.25965, 18.82696], [-98.26057, 18.82698], [-98.26057, 18.82748], [-98.25963, 18.82746], [-98.25965, 18.82696]]]}}, {"id": "1705964", "type": "Feature", "properties": {"id": "1705964", "CVEGEO": "2112100030012018", "POBTOT": 0.0, "score_nse": 0.0, "NSE": null, "VIVTOT": 0.0, "GRAPROES": 0.0, "_ent": "21", "_mun": "121", "_loc": "0003"}, "geometry": {"type": "Polygon", "coordinates": [[[-98.25966, 18.82683], [-98.25968, 18.82633], [-98.26058, 18.82634], [-98.26057, 18.82685], [-98.25966, 18.82683]]]}}, {"id": "1705965", "type": "Feature", "properties": {"id": "1705965", "CVEGEO": "2112100030012017", "POBTOT": 0.0, "score_nse": 0.0, "NSE": null, "VIVTOT": 0.0, "GRAPROES": 0.0, "_ent": "21", "_mun": "121", "_loc": "0003"}, "geometry": {"type": "Polygon", "coordinates": [[[-98.25971, 18.82573], [-98.26059, 18.82574], [-98.26058, 18.82621], [-98.25969, 18.8262], [-98.25971, 18.82573]]]}}, {"id": "1705971", "type": "Feature", "properties": {"id": "1705971", "CVEGEO": "2112100030012008", "POBTOT": 0.0, "score_nse": 0.0, "NSE": null, "VIVTOT": 0.0, "GRAPROES": 0.0, "_ent": "21", "_mun": "121", "_loc": "0003"}, "geometry": {"type": "Polygon", "coordinates": [[[-98.25753, 18.82806], [-98.25754, 18.82757], [-98.25845, 18.82758], [-98.25844, 18.82809], [-98.25753, 18.82806]]]}}, {"id": "1705972", "type": "Feature", "properties": {"id": "1705972", "CVEGEO": "2112100030012005", "POBTOT": 0.0, "score_nse": 0.0, "NSE": null, "VIVTOT": 0.0, "GRAPROES": 0.0, "_ent": "21", "_mun": "121", "_loc": "0003"}, "geometry": {"type": "Polygon", "coordinates": [[[-98.25861, 18.82681], [-98.25862, 18.82631], [-98.25955, 18.82633], [-98.25952, 18.82683], [-98.25861, 18.82681]]]}}, {"id": "1705973", "type": "Feature", "properties": {"id": "1705973", "CVEGEO": "2112100030012003", "POBTOT": 0.0, "score_nse": 0.0, "NSE": null, "VIVTOT": 0.0, "GRAPROES": 0.0, "_ent": "21", "_mun": "121", "_loc": "0003"}, "geometry": {"type": "Polygon", "coordinates": [[[-98.25651, 18.82675], [-98.25653, 18.82629], [-98.25742, 18.8263], [-98.25741, 18.82678], [-98.25651, 18.82675]]]}}, {"id": "1705974", "type": "Feature", "properties": {"id": "1705974", "CVEGEO": "2112100030012031", "POBTOT": 0.0, "score_nse": 0.0, "NSE": null, "VIVTOT": 0.0, "GRAPROES": 0.0, "_ent": "21", "_mun": "121", "_loc": "0003"}, "geometry": {"type": "Polygon", "coordinates": [[[-98.26073, 18.82446], [-98.26067, 18.82502], [-98.25971, 18.825], [-98.25974, 18.82445], [-98.26073, 18.82446]]]}}, {"id": "1705975", "type": "Feature", "properties": {"id": "1705975", "CVEGEO": "2112100030012030", "POBTOT": 0.0, "score_nse": 0.0, "NSE": null, "VIVTOT": 0.0, "GRAPROES": 0.0, "_ent": "21", "_mun": "121", "_loc": "0003"}, "geometry": {"type": "Polygon", "coordinates": [[[-98.25965, 18.82445], [-98.25963, 18.825], [-98.25871, 18.82498], [-98.2589, 18.82447], [-98.25965, 18.82445]]]}}, {"id": "1705976", "type": "Feature", "properties": {"id": "1705976", "CVEGEO": "2112100030012016", "POBTOT": 0.0, "score_nse": 0.0, "NSE": null, "VIVTOT": 0.0, "GRAPROES": 0.0, "_ent": "21", "_mun": "121", "_loc": "0003"}, "geometry": {"type": "Polygon", "coordinates": [[[-98.25864, 18.82571], [-98.25958, 18.82572], [-98.25955, 18.8262], [-98.25862, 18.82618], [-98.25864, 18.82571]]]}}, {"id": "1705977", "type": "Feature", "properties": {"id": "1705977", "CVEGEO": "2112100030012015", "POBTOT": 0.0, "score_nse": 0.0, "NSE": null, "VIVTOT": 0.0, "GRAPROES": 0.0, "_ent": "21", "_mun": "121", "_loc": "0003"}, "geometry": {"type": "Polygon", "coordinates": [[[-98.25757, 18.8257], [-98.2585, 18.82571], [-98.25849, 18.82618], [-98.25756, 18.82617], [-98.25757, 18.8257]]]}}, {"id": "1705978", "type": "Feature", "properties": {"id": "1705978", "CVEGEO": "2112100030012014", "POBTOT": 0.0, "score_nse": 0.0, "NSE": null, "VIVTOT": 0.0, "GRAPROES": 0.0, "_ent": "21", "_mun": "121", "_loc": "0003"}, "geometry": {"type": "Polygon", "coordinates": [[[-98.25654, 18.82569], [-98.25743, 18.8257], [-98.25742, 18.82617], [-98.25653, 18.82616], [-98.25654, 18.82569]]]}}, {"id": "1705979", "type": "Feature", "properties": {"id": "1705979", "CVEGEO": "2112100030012013", "POBTOT": 0.0, "score_nse": 0.0, "NSE": null, "VIVTOT": 0.0, "GRAPROES": 0.0, "_ent": "21", "_mun": "121", "_loc": "0003"}, "geometry": {"type": "Polygon", "coordinates": [[[-98.25641, 18.82569], [-98.25639, 18.82616], [-98.25548, 18.82615], [-98.25548, 18.82568], [-98.25641, 18.82569]]]}}, {"id": "1705980", "type": "Feature", "properties": {"id": "1705980", "CVEGEO": "2112100030012009", "POBTOT": 0.0, "score_nse": 0.0, "NSE": null, "VIVTOT": 0.0, "GRAPROES": 0.0, "_ent": "21", "_mun": "121", "_loc": "0003"}, "geometry": {"type": "Polygon", "coordinates": [[[-98.25647, 18.82803], [-98.25649, 18.82755], [-98.2574, 18.82756], [-98.25739, 18.82806], [-98.25647, 18.82803]]]}}, {"id": "1705991", "type": "Feature", "properties": {"id": "1705991", "CVEGEO": "2112100030012026", "POBTOT": 0.0, "score_nse": 0.0, "NSE": null, "VIVTOT": 0.0, "GRAPROES": 0.0, "_ent": "21", "_mun": "121", "_loc": "0003"}, "geometry": {"type": "Polygon", "coordinates": [[[-98.25758, 18.82499], [-98.25852, 18.82501], [-98.2585, 18.82558], [-98.25757, 18.82557], [-98.25758, 18.82499]]]}}, {"id": "1705993", "type": "Feature", "properties": {"id": "1705993", "CVEGEO": "2112100030012002", "POBTOT": 0.0, "score_nse": 0.0, "NSE": null, "VIVTOT": 0.0, "GRAPROES": 0.0, "_ent": "21", "_mun": "121", "_loc": "0003"}, "geometry": {"type": "Polygon", "coordinates": [[[-98.25651, 18.82688], [-98.25741, 18.82691], [-98.2574, 18.82744], [-98.25649, 18.82742], [-98.25651, 18.82688]]]}}, {"id": "1705998", "type": "Feature", "properties": {"id": "1705998", "CVEGEO": "2112100030012001", "POBTOT": 0.0, "score_nse": 0.0, "NSE": null, "VIVTOT": 0.0, "GRAPROES": 0.0, "_ent": "21", "_mun": "121", "_loc": "0003"}, "geometry": {"type": "Polygon", "coordinates": [[[-98.25755, 18.82691], [-98.25847, 18.82693], [-98.25846, 18.82745], [-98.25754, 18.82744], [-98.25755, 18.82691]]]}}, {"id": "1705999", "type": "Feature", "properties": {"id": "1705999", "CVEGEO": "2112100030012006", "POBTOT": 0.0, "score_nse": 0.0, "NSE": null, "VIVTOT": 0.0, "GRAPROES": 0.0, "_ent": "21", "_mun": "121", "_loc": "0003"}, "geometry": {"type": "Polygon", "coordinates": [[[-98.25861, 18.82694], [-98.25952, 18.82696], [-98.25949, 18.82746], [-98.25859, 18.82745], [-98.25861, 18.82694]]]}}, {"id": "1706000", "type": "Feature", "properties": {"id": "1706000", "CVEGEO": "2112100030012004", "POBTOT": 0.0, "score_nse": 0.0, "NSE": null, "VIVTOT": 0.0, "GRAPROES": 0.0, "_ent": "21", "_mun": "121", "_loc": "0003"}, "geometry": {"type": "Polygon", "coordinates": [[[-98.25755, 18.82678], [-98.25756, 18.8263], [-98.25849, 18.82631], [-98.25847, 18.8268], [-98.25755, 18.82678]]]}}, {"id": "1706001", "type": "Feature", "properties": {"id": "1706001", "CVEGEO": "2112100030012022", "POBTOT": 0.0, "score_nse": 0.0, "NSE": null, "VIVTOT": 0.0, "GRAPROES": 0.0, "_ent": "21", "_mun": "121", "_loc": "0003"}, "geometry": {"type": "Polygon", "coordinates": [[[-98.25851, 18.82828], [-98.2585, 18.82883], [-98.25749, 18.82874], [-98.25751, 18.82826], [-98.25851, 18.82828]]]}}, {"id": "1706002", "type": "Feature", "properties": {"id": "1706002", "CVEGEO": "2112100030012021", "POBTOT": 0.0, "score_nse": 0.0, "NSE": null, "VIVTOT": 0.0, "GRAPROES": 0.0, "_ent": "21", "_mun": "121", "_loc": "0003"}, "geometry": {"type": "Polygon", "coordinates": [[[-98.25957, 18.82831], [-98.25954, 18.82883], [-98.25859, 18.82883], [-98.25862, 18.82827], [-98.25957, 18.82831]]]}}, {"id": "1706003", "type": "Feature", "properties": {"id": "1706003", "CVEGEO": "2112100030012035", "POBTOT": 0.0, "score_nse": 0.0, "NSE": null, "VIVTOT": 0.0, "GRAPROES": 0.0, "_ent": "21", "_mun": "121", "_loc": "0003"}, "geometry": {"type": "Polygon", "coordinates": [[[-98.25971, 18.8256], [-98.25972, 18.82511], [-98.2606, 18.82512], [-98.26059, 18.82562], [-98.25971, 18.8256]]]}}, {"id": "1706004", "type": "Feature", "properties": {"id": "1706004", "CVEGEO": "2112100030012027", "POBTOT": 0.0, "score_nse": 0.0, "NSE": null, "VIVTOT": 0.0, "GRAPROES": 0.0, "_ent": "21", "_mun": "121", "_loc": "0003"}, "geometry": {"type": "Polygon", "coordinates": [[[-98.25865, 18.82508], [-98.25958, 18.8251], [-98.25957, 18.82559], [-98.25864, 18.82558], [-98.25865, 18.82508]]]}}, {"id": "1706005", "type": "Feature", "properties": {"id": "1706005", "CVEGEO": "2112100030012007", "POBTOT": 0.0, "score_nse": 0.0, "NSE": null, "VIVTOT": 0.0, "GRAPROES": 0.0, "_ent": "21", "_mun": "121", "_loc": "0003"}, "geometry": {"type": "Polygon", "coordinates": [[[-98.25858, 18.8281], [-98.25859, 18.82758], [-98.25949, 18.82759], [-98.25946, 18.82812], [-98.25858, 18.8281]]]}}, {"id": "1706018", "type": "Feature", "properties": {"id": "1706018", "CVEGEO": "2112100030012036", "POBTOT": 0.0, "score_nse": 0.0, "NSE": null, "VIVTOT": 0.0, "GRAPROES": 0.0, "_ent": "21", "_mun": "121", "_loc": "0003"}, "geometry": {"type": "Polygon", "coordinates": [[[-98.26128, 18.82711], [-98.26122, 18.82749], [-98.2607, 18.82748], [-98.26071, 18.82699], [-98.26128, 18.82711]]]}}, {"id": "1706019", "type": "Feature", "properties": {"id": "1706019", "CVEGEO": "2112100030012012", "POBTOT": 0.0, "score_nse": 0.0, "NSE": null, "VIVTOT": 0.0, "GRAPROES": 0.0, "_ent": "21", "_mun": "121", "_loc": "0003"}, "geometry": {"type": "Polygon", "coordinates": [[[-98.25591, 18.82674], [-98.25592, 18.82628], [-98.25639, 18.82629], [-98.25638, 18.82675], [-98.25591, 18.82674]]]}}, {"id": "1706023", "type": "Feature", "properties": {"id": "1706023", "CVEGEO": "2112100030012011", "POBTOT": 0.0, "score_nse": 0.0, "NSE": null, "VIVTOT": 0.0, "GRAPROES": 0.0, "_ent": "21", "_mun": "121", "_loc": "0003"}, "geometry": {"type": "Polygon", "coordinates": [[[-98.25591, 18.82687], [-98.25637, 18.82688], [-98.25635, 18.82742], [-98.25591, 18.82741], [-98.25591, 18.82687]]]}}, {"id": "1706024", "type": "Feature", "properties": {"id": "1706024", "CVEGEO": "2112100030012037", "POBTOT": 0.0, "score_nse": 0.0, "NSE": null, "VIVTOT": 0.0, "GRAPROES": 0.0, "_ent": "21", "_mun": "121", "_loc": "0003"}, "geometry": {"type": "Polygon", "coordinates": [[[-98.26176, 18.82821], [-98.2607, 18.82816], [-98.2607, 18.82761], [-98.26161, 18.82763], [-98.26176, 18.82821]]]}}, {"id": "1706026", "type": "Feature", "properties": {"id": "1706026", "CVEGEO": "2112100030012023", "POBTOT": 0.0, "score_nse": 0.0, "NSE": null, "VIVTOT": 0.0, "GRAPROES": 0.0, "_ent": "21", "_mun": "121", "_loc": "0003"}, "geometry": {"type": "Polygon", "coordinates": [[[-98.25645, 18.82934], [-98.25646, 18.82824], [-98.25742, 18.82827], [-98.25742, 18.82873], [-98.25723, 18.82905], [-98.25645, 18.82934]]]}}, {"id": "1706027", "type": "Feature", "properties": {"id": "1706027", "CVEGEO": "2112100030012039", "POBTOT": 0.0, "score_nse": 0.0, "NSE": null, "VIVTOT": 0.0, "GRAPROES": 0.0, "_ent": "21", "_mun": "121", "_loc": "0003"}, "geometry": {"type": "Polygon", "coordinates": [[[-98.26093, 18.82324], [-98.26075, 18.82439], [-98.25972, 18.82439], [-98.25971, 18.82352], [-98.25919, 18.82345], [-98.25907, 18.82312], [-98.2591, 18.82291], [-98.25949, 18.8229], [-98.2597, 18.82233], [-98.25994, 18.82277], [-98.2604, 18.82309], [-98.26059, 18.82294], [-98.26093, 18.82324]]]}}, {"id": "1706028", "type": "Feature", "properties": {"id": "1706028", "CVEGEO": "2112100030012040", "POBTOT": 0.0, "score_nse": 0.0, "NSE": null, "VIVTOT": 0.0, "GRAPROES": 0.0, "_ent": "21", "_mun": "121", "_loc": "0003"}, "geometry": {"type": "Polygon", "coordinates": [[[-98.2606, 18.82831], [-98.26059, 18.82865], [-98.26042, 18.82876], [-98.25964, 18.82883], [-98.25965, 18.82829], [-98.2606, 18.82831]]]}}, {"id": "1706029", "type": "Feature", "properties": {"id": "1706029", "CVEGEO": "2112100030012041", "POBTOT": 0.0, "score_nse": 0.0, "NSE": null, "VIVTOT": 0.0, "GRAPROES": 0.0, "_ent": "21", "_mun": "121", "_loc": "0003"}, "geometry": {"type": "Polygon", "coordinates": [[[-98.26074, 18.82499], [-98.26092, 18.82373], [-98.2613, 18.82413], [-98.26197, 18.82419], [-98.26217, 18.82499], [-98.26198, 18.82502], [-98.2616, 18.82456], [-98.26135, 18.82489], [-98.26074, 18.82499]]]}}, {"id": "1706030", "type": "Feature", "properties": {"id": "1706030", "CVEGEO": "2112100030012042", "POBTOT": 0.0, "score_nse": 0.0, "NSE": null, "VIVTOT": 0.0, "GRAPROES": 0.0, "_ent": "21", "_mun": "121", "_loc": "0003"}, "geometry": {"type": "Polygon", "coordinates": [[[-98.26344, 18.82845], [-98.26353, 18.82869], [-98.26334, 18.82901], [-98.26244, 18.8289], [-98.26229, 18.82866], [-98.2623, 18.82838], [-98.26344, 18.82845]]]}}, {"id": "1706031", "type": "Feature", "properties": {"id": "1706031", "CVEGEO": "2112100030012043", "POBTOT": 0.0, "score_nse": 0.0, "NSE": null, "VIVTOT": 0.0, "GRAPROES": 0.0, "_ent": "21", "_mun": "121", "_loc": "0003"}, "geometry": {"type": "Polygon", "coordinates": [[[-98.26347, 18.82837], [-98.26229, 18.82831], [-98.2624, 18.82771], [-98.26323, 18.82808], [-98.26347, 18.82837]]]}}, {"id": "1706032", "type": "Feature", "properties": {"id": "1706032", "CVEGEO": "2112100030012044", "POBTOT": 0.0, "score_nse": 0.0, "NSE": null, "VIVTOT": 0.0, "GRAPROES": 0.0, "_ent": "21", "_mun": "121", "_loc": "0003"}, "geometry": {"type": "Polygon", "coordinates": [[[-98.25965, 18.82358], [-98.25966, 18.82439], [-98.25892, 18.82443], [-98.25902, 18.82402], [-98.25886, 18.82382], [-98.2591, 18.82379], [-98.25928, 18.82353], [-98.25965, 18.82358]]]}}]}