{"type": "FeatureCollection", "features": [{"id": "684558", "type": "Feature", "properties": {"id": "684558", "CVEGEO": "1102901340098009", "POBTOT": 0.0, "score_nse": 0.0, "NSE": null, "VIVTOT": 0.0, "GRAPROES": 0.0, "_ent": "11", "_mun": "029", "_loc": "0134"}, "geometry": {"type": "Polygon", "coordinates": [[[-100.87543, 21.45063], [-100.87559, 21.44925], [-100.87618, 21.44931], [-100.87582, 21.45059], [-100.87543, 21.45063]]]}}, {"id": "684559", "type": "Feature", "properties": {"id": "684559", "CVEGEO": "1102901340098013", "POBTOT": 0.0, "score_nse": 0.0, "NSE": null, "VIVTOT": 0.0, "GRAPROES": 0.0, "_ent": "11", "_mun": "029", "_loc": "0134"}, "geometry": {"type": "Polygon", "coordinates": [[[-100.86923, 21.4479], [-100.86858, 21.44746], [-100.86908, 21.44642], [-100.86969, 21.44684], [-100.86923, 21.4479]]]}}, {"id": "684560", "type": "Feature", "properties": {"id": "684560", "CVEGEO": "1102901340098012", "POBTOT": 0.0, "score_nse": 0.0, "NSE": null, "VIVTOT": 0.0, "GRAPROES": 0.0, "_ent": "11", "_mun": "029", "_loc": "0134"}, "geometry": {"type": "Polygon", "coordinates": [[[-100.87048, 21.44735], [-100.86997, 21.4484], [-100.8693, 21.44797], [-100.86978, 21.44691], [-100.87048, 21.44735]]]}}, {"id": "684561", "type": "Feature", "properties": {"id": "684561", "CVEGEO": "1102901340098011", "POBTOT": 0.0, "score_nse": 0.0, "NSE": null, "VIVTOT": 0.0, "GRAPROES": 0.0, "_ent": "11", "_mun": "029", "_loc": "0134"}, "geometry": {"type": "Polygon", "coordinates": [[[-100.87205, 21.44827], [-100.8719, 21.44895], [-100.87099, 21.44902], [-100.87133, 21.44835], [-100.87205, 21.44827]]]}}, {"id": "684562", "type": "Feature", "properties": {"id": "684562", "CVEGEO": "1102901340098010", "POBTOT": 0.0, "score_nse": 0.0, "NSE": null, "VIVTOT": 0.0, "GRAPROES": 0.0, "_ent": "11", "_mun": "029", "_loc": "0134"}, "geometry": {"type": "Polygon", "coordinates": [[[-100.8719, 21.449], [-100.87289, 21.44873], [-100.87268, 21.44942], [-100.87184, 21.45005], [-100.8719, 21.449]]]}}, {"id": "684563", "type": "Feature", "properties": {"id": "684563", "CVEGEO": "1102901340098005", "POBTOT": 0.0, "score_nse": 0.0, "NSE": null, "VIVTOT": 0.0, "GRAPROES": 0.0, "_ent": "11", "_mun": "029", "_loc": "0134"}, "geometry": {"type": "Polygon", "coordinates": [[[-100.87179, 21.44907], [-100.87175, 21.45011], [-100.87038, 21.45027], [-100.87099, 21.44908], [-100.87179, 21.44907]]]}}, {"id": "684564", "type": "Feature", "properties": {"id": "684564", "CVEGEO": "1102901340098007", "POBTOT": 0.0, "score_nse": 0.0, "NSE": null, "VIVTOT": 0.0, "GRAPROES": 0.0, "_ent": "11", "_mun": "029", "_loc": "0134"}, "geometry": {"type": "Polygon", "coordinates": [[[-100.87406, 21.45055], [-100.87185, 21.45071], [-100.87186, 21.45014], [-100.87266, 21.44952], [-100.87364, 21.44994], [-100.87413, 21.45043], [-100.87406, 21.45055]]]}}, {"id": "684565", "type": "Feature", "properties": {"id": "684565", "CVEGEO": "1102901340098004", "POBTOT": 0.0, "score_nse": 0.0, "NSE": null, "VIVTOT": 0.0, "GRAPROES": 0.0, "_ent": "11", "_mun": "029", "_loc": "0134"}, "geometry": {"type": "Polygon", "coordinates": [[[-100.87124, 21.44783], [-100.87066, 21.44895], [-100.87002, 21.44847], [-100.87056, 21.44724], [-100.87124, 21.44783]]]}}, {"id": "684566", "type": "Feature", "properties": {"id": "684566", "CVEGEO": "1102901340098003", "POBTOT": 0.0, "score_nse": 0.0, "NSE": null, "VIVTOT": 0.0, "GRAPROES": 0.0, "_ent": "11", "_mun": "029", "_loc": "0134"}, "geometry": {"type": "Polygon", "coordinates": [[[-100.87429, 21.45045], [-100.87446, 21.45007], [-100.87538, 21.45037], [-100.87539, 21.4507], [-100.87429, 21.45045]]]}}, {"id": "684567", "type": "Feature", "properties": {"id": "684567", "CVEGEO": "1102901340098002", "POBTOT": 0.0, "score_nse": 0.0, "NSE": null, "VIVTOT": 0.0, "GRAPROES": 0.0, "_ent": "11", "_mun": "029", "_loc": "0134"}, "geometry": {"type": "Polygon", "coordinates": [[[-100.87538, 21.45031], [-100.87432, 21.44999], [-100.87393, 21.45015], [-100.87372, 21.44994], [-100.87372, 21.44943], [-100.87482, 21.44884], [-100.87495, 21.44919], [-100.87465, 21.44938], [-100.87498, 21.44926], [-100.87537, 21.44971], [-100.87538, 21.45031]]]}}, {"id": "684569", "type": "Feature", "properties": {"id": "684569", "CVEGEO": "1102901340098001", "POBTOT": 0.0, "score_nse": 0.0, "NSE": null, "VIVTOT": 0.0, "GRAPROES": 0.0, "_ent": "11", "_mun": "029", "_loc": "0134"}, "geometry": {"type": "Polygon", "coordinates": [[[-100.87401, 21.45025], [-100.87409, 21.45014], [-100.87441, 21.45008], [-100.87422, 21.45041], [-100.87401, 21.45025]]]}}, {"id": "684570", "type": "Feature", "properties": {"id": "684570", "CVEGEO": "1102901340098006", "POBTOT": 0.0, "score_nse": 0.0, "NSE": null, "VIVTOT": 0.0, "GRAPROES": 0.0, "_ent": "11", "_mun": "029", "_loc": "0134"}, "geometry": {"type": "Polygon", "coordinates": [[[-100.87178, 21.45067], [-100.87109, 21.45066], [-100.87024, 21.45055], [-100.87033, 21.45034], [-100.87178, 21.45017], [-100.87178, 21.45067]]]}}, {"id": "684673", "type": "Feature", "properties": {"id": "684673", "CVEGEO": "1102901340098008", "POBTOT": 0.0, "score_nse": 0.0, "NSE": null, "VIVTOT": 0.0, "GRAPROES": 0.0, "_ent": "11", "_mun": "029", "_loc": "0134"}, "geometry": {"type": "Polygon", "coordinates": [[[-100.87416, 21.45045], [-100.87451, 21.45061], [-100.87409, 21.45057], [-100.87416, 21.45045]]]}}]}