{"type": "FeatureCollection", "features": [{"id": "683960", "type": "Feature", "properties": {"id": "683960", "CVEGEO": "1102902070100004", "POBTOT": 0.0, "score_nse": 0.0, "NSE": null, "VIVTOT": 0.0, "GRAPROES": 0.0, "_ent": "11", "_mun": "029", "_loc": "0207"}, "geometry": {"type": "Polygon", "coordinates": [[[-100.72817, 21.32643], [-100.72801, 21.32467], [-100.72825, 21.32464], [-100.7286, 21.3257], [-100.72865, 21.32608], [-100.72854, 21.32614], [-100.72883, 21.32616], [-100.72873, 21.32645], [-100.72817, 21.32643]]]}}, {"id": "683961", "type": "Feature", "properties": {"id": "683961", "CVEGEO": "1102902070100002", "POBTOT": 0.0, "score_nse": 0.0, "NSE": null, "VIVTOT": 0.0, "GRAPROES": 0.0, "_ent": "11", "_mun": "029", "_loc": "0207"}, "geometry": {"type": "Polygon", "coordinates": [[[-100.73041, 21.32414], [-100.73057, 21.32458], [-100.72969, 21.32482], [-100.72959, 21.32434], [-100.73041, 21.32414]]]}}, {"id": "683962", "type": "Feature", "properties": {"id": "683962", "CVEGEO": "1102902070100001", "POBTOT": 0.0, "score_nse": 0.0, "NSE": null, "VIVTOT": 0.0, "GRAPROES": 0.0, "_ent": "11", "_mun": "029", "_loc": "0207"}, "geometry": {"type": "Polygon", "coordinates": [[[-100.73108, 21.32611], [-100.73017, 21.32639], [-100.73014, 21.3267], [-100.72985, 21.3267], [-100.72967, 21.32653], [-100.72967, 21.32532], [-100.72981, 21.32489], [-100.73061, 21.32469], [-100.73082, 21.32534], [-100.73064, 21.32544], [-100.73084, 21.32539], [-100.73091, 21.32559], [-100.73075, 21.32567], [-100.73092, 21.32564], [-100.73108, 21.32611]]]}}, {"id": "684498", "type": "Feature", "properties": {"id": "684498", "CVEGEO": "1102902070100003", "POBTOT": 0.0, "score_nse": 0.0, "NSE": null, "VIVTOT": 0.0, "GRAPROES": 0.0, "_ent": "11", "_mun": "029", "_loc": "0207"}, "geometry": {"type": "Polygon", "coordinates": [[[-100.72961, 21.32484], [-100.72929, 21.32483], [-100.72898, 21.32567], [-100.72918, 21.32568], [-100.72937, 21.32491], [-100.72959, 21.32488], [-100.72961, 21.32534], [-100.72944, 21.32538], [-100.72962, 21.32539], [-100.72966, 21.32566], [-100.72962, 21.32676], [-100.72941, 21.32676], [-100.72938, 21.32649], [-100.72934, 21.32675], [-100.72879, 21.32672], [-100.729, 21.32589], [-100.72874, 21.3261], [-100.72829, 21.32464], [-100.72952, 21.32435], [-100.72961, 21.32484]]]}}]}