{"type": "FeatureCollection", "features": [{"id": "2213133", "type": "Feature", "properties": {"id": "2213133", "CVEGEO": "2804200080305014", "POBTOT": 0.0, "score_nse": 0.0, "NSE": null, "VIVTOT": 0.0, "GRAPROES": 0.0, "_ent": "28", "_mun": "042", "_loc": "0008"}, "geometry": {"type": "Polygon", "coordinates": [[[-99.42083, 24.44529], [-99.41986, 24.44522], [-99.4199, 24.44428], [-99.42077, 24.44427], [-99.42083, 24.44529]]]}}, {"id": "2213134", "type": "Feature", "properties": {"id": "2213134", "CVEGEO": "2804200080305013", "POBTOT": 0.0, "score_nse": 0.0, "NSE": null, "VIVTOT": 0.0, "GRAPROES": 0.0, "_ent": "28", "_mun": "042", "_loc": "0008"}, "geometry": {"type": "Polygon", "coordinates": [[[-99.42154, 24.4453], [-99.42087, 24.44529], [-99.42081, 24.44431], [-99.4216, 24.4443], [-99.42154, 24.4453]]]}}, {"id": "2213135", "type": "Feature", "properties": {"id": "2213135", "CVEGEO": "2804200080305002", "POBTOT": 0.0, "score_nse": 0.0, "NSE": null, "VIVTOT": 0.0, "GRAPROES": 0.0, "_ent": "28", "_mun": "042", "_loc": "0008"}, "geometry": {"type": "Polygon", "coordinates": [[[-99.42227, 24.44685], [-99.42173, 24.44716], [-99.42181, 24.44623], [-99.4223, 24.44622], [-99.42227, 24.44685]]]}}, {"id": "2213136", "type": "Feature", "properties": {"id": "2213136", "CVEGEO": "2804200080305004", "POBTOT": 0.0, "score_nse": 0.0, "NSE": null, "VIVTOT": 0.0, "GRAPROES": 0.0, "_ent": "28", "_mun": "042", "_loc": "0008"}, "geometry": {"type": "Polygon", "coordinates": [[[-99.42164, 24.44673], [-99.42064, 24.44689], [-99.42066, 24.44626], [-99.42172, 24.44623], [-99.42164, 24.44673]]]}}, {"id": "2213137", "type": "Feature", "properties": {"id": "2213137", "CVEGEO": "2804200080305009", "POBTOT": 0.0, "score_nse": 0.0, "NSE": null, "VIVTOT": 0.0, "GRAPROES": 0.0, "_ent": "28", "_mun": "042", "_loc": "0008"}, "geometry": {"type": "Polygon", "coordinates": [[[-99.42173, 24.44617], [-99.42066, 24.44621], [-99.42066, 24.44537], [-99.42171, 24.4454], [-99.42173, 24.44617]]]}}, {"id": "2213138", "type": "Feature", "properties": {"id": "2213138", "CVEGEO": "2804200080305008", "POBTOT": 0.0, "score_nse": 0.0, "NSE": null, "VIVTOT": 0.0, "GRAPROES": 0.0, "_ent": "28", "_mun": "042", "_loc": "0008"}, "geometry": {"type": "Polygon", "coordinates": [[[-99.42229, 24.44567], [-99.42187, 24.44568], [-99.42186, 24.4454], [-99.4223, 24.44543], [-99.42229, 24.44567]]]}}, {"id": "2213139", "type": "Feature", "properties": {"id": "2213139", "CVEGEO": "2804200080305007", "POBTOT": 0.0, "score_nse": 0.0, "NSE": null, "VIVTOT": 0.0, "GRAPROES": 0.0, "_ent": "28", "_mun": "042", "_loc": "0008"}, "geometry": {"type": "Polygon", "coordinates": [[[-99.4223, 24.44617], [-99.42184, 24.44618], [-99.42187, 24.44573], [-99.4223, 24.44573], [-99.4223, 24.44617]]]}}, {"id": "2213140", "type": "Feature", "properties": {"id": "2213140", "CVEGEO": "2804200080305006", "POBTOT": 0.0, "score_nse": 0.0, "NSE": null, "VIVTOT": 0.0, "GRAPROES": 0.0, "_ent": "28", "_mun": "042", "_loc": "0008"}, "geometry": {"type": "Polygon", "coordinates": [[[-99.42276, 24.44615], [-99.42237, 24.44616], [-99.4225, 24.44546], [-99.42277, 24.44551], [-99.42276, 24.44615]]]}}, {"id": "2213141", "type": "Feature", "properties": {"id": "2213141", "CVEGEO": "2804200080305011", "POBTOT": 0.0, "score_nse": 0.0, "NSE": null, "VIVTOT": 0.0, "GRAPROES": 0.0, "_ent": "28", "_mun": "042", "_loc": "0008"}, "geometry": {"type": "Polygon", "coordinates": [[[-99.42347, 24.44556], [-99.42251, 24.44536], [-99.42269, 24.4446], [-99.42351, 24.44526], [-99.42347, 24.44556]]]}}, {"id": "2213145", "type": "Feature", "properties": {"id": "2213145", "CVEGEO": "2804200080305010", "POBTOT": 0.0, "score_nse": 0.0, "NSE": null, "VIVTOT": 0.0, "GRAPROES": 0.0, "_ent": "28", "_mun": "042", "_loc": "0008"}, "geometry": {"type": "Polygon", "coordinates": [[[-99.42058, 24.44621], [-99.4198, 24.44622], [-99.41984, 24.44535], [-99.42058, 24.44537], [-99.42058, 24.44621]]]}}, {"id": "2213146", "type": "Feature", "properties": {"id": "2213146", "CVEGEO": "2804200080305005", "POBTOT": 0.0, "score_nse": 0.0, "NSE": null, "VIVTOT": 0.0, "GRAPROES": 0.0, "_ent": "28", "_mun": "042", "_loc": "0008"}, "geometry": {"type": "Polygon", "coordinates": [[[-99.42056, 24.4469], [-99.41978, 24.44697], [-99.4198, 24.44628], [-99.42058, 24.44626], [-99.42056, 24.4469]]]}}, {"id": "2213274", "type": "Feature", "properties": {"id": "2213274", "CVEGEO": "2804200080305003", "POBTOT": 0.0, "score_nse": 0.0, "NSE": null, "VIVTOT": 0.0, "GRAPROES": 0.0, "_ent": "28", "_mun": "042", "_loc": "0008"}, "geometry": {"type": "Polygon", "coordinates": [[[-99.42169, 24.44723], [-99.42103, 24.44767], [-99.42056, 24.44785], [-99.42055, 24.44697], [-99.42112, 24.44688], [-99.42112, 24.44725], [-99.42117, 24.44687], [-99.42164, 24.44678], [-99.42169, 24.44723]]]}}, {"id": "2213275", "type": "Feature", "properties": {"id": "2213275", "CVEGEO": "2804200080305001", "POBTOT": 0.0, "score_nse": 0.0, "NSE": null, "VIVTOT": 0.0, "GRAPROES": 0.0, "_ent": "28", "_mun": "042", "_loc": "0008"}, "geometry": {"type": "Polygon", "coordinates": [[[-99.42276, 24.44686], [-99.42234, 24.44687], [-99.42237, 24.44622], [-99.42276, 24.44621], [-99.42276, 24.44686]]]}}, {"id": "2213276", "type": "Feature", "properties": {"id": "2213276", "CVEGEO": "2804200080305012", "POBTOT": 0.0, "score_nse": 0.0, "NSE": null, "VIVTOT": 0.0, "GRAPROES": 0.0, "_ent": "28", "_mun": "042", "_loc": "0008"}, "geometry": {"type": "Polygon", "coordinates": [[[-99.42243, 24.4453], [-99.42162, 24.44529], [-99.42186, 24.44395], [-99.4226, 24.44454], [-99.42243, 24.4453]]]}}]}