{"type": "FeatureCollection", "features": [{"id": "1014251", "type": "Feature", "properties": {"id": "1014251", "CVEGEO": "1410500050061015", "POBTOT": 0.0, "score_nse": 0.0, "NSE": null, "VIVTOT": 0.0, "GRAPROES": 0.0, "_ent": "14", "_mun": "105", "_loc": "0005"}, "geometry": {"type": "Polygon", "coordinates": [[[-102.73393, 20.48572], [-102.73484, 20.4856], [-102.7358, 20.48488], [-102.73605, 20.48523], [-102.73489, 20.48584], [-102.735, 20.48742], [-102.73416, 20.4875], [-102.73393, 20.48572]]]}}, {"id": "1014331", "type": "Feature", "properties": {"id": "1014331", "CVEGEO": "1410500050061008", "POBTOT": 0.0, "score_nse": 0.0, "NSE": null, "VIVTOT": 0.0, "GRAPROES": 0.0, "_ent": "14", "_mun": "105", "_loc": "0005"}, "geometry": {"type": "Polygon", "coordinates": [[[-102.73291, 20.48452], [-102.73286, 20.48422], [-102.73322, 20.48417], [-102.73325, 20.4845], [-102.73291, 20.48452]]]}}, {"id": "1014344", "type": "Feature", "properties": {"id": "1014344", "CVEGEO": "1410500050061013", "POBTOT": 0.0, "score_nse": 0.0, "NSE": null, "VIVTOT": 0.0, "GRAPROES": 0.0, "_ent": "14", "_mun": "105", "_loc": "0005"}, "geometry": {"type": "Polygon", "coordinates": [[[-102.73395, 20.48565], [-102.73367, 20.48544], [-102.73357, 20.48408], [-102.73382, 20.48406], [-102.73395, 20.48565]]]}}, {"id": "1014345", "type": "Feature", "properties": {"id": "1014345", "CVEGEO": "1410500050061010", "POBTOT": 0.0, "score_nse": 0.0, "NSE": null, "VIVTOT": 0.0, "GRAPROES": 0.0, "_ent": "14", "_mun": "105", "_loc": "0005"}, "geometry": {"type": "Polygon", "coordinates": [[[-102.73342, 20.48514], [-102.73337, 20.48466], [-102.73359, 20.48465], [-102.7336, 20.48513], [-102.73342, 20.48514]]]}}, {"id": "1014346", "type": "Feature", "properties": {"id": "1014346", "CVEGEO": "1410500050061007", "POBTOT": 0.0, "score_nse": 0.0, "NSE": null, "VIVTOT": 0.0, "GRAPROES": 0.0, "_ent": "14", "_mun": "105", "_loc": "0005"}, "geometry": {"type": "Polygon", "coordinates": [[[-102.7322, 20.48561], [-102.73307, 20.48557], [-102.7332, 20.48553], [-102.73315, 20.48536], [-102.73342, 20.48534], [-102.73374, 20.48565], [-102.73199, 20.4858], [-102.73193, 20.48546], [-102.73238, 20.48544], [-102.7324, 20.48559], [-102.7322, 20.48561]]]}}, {"id": "1014347", "type": "Feature", "properties": {"id": "1014347", "CVEGEO": "1410500050061003", "POBTOT": 0.0, "score_nse": 0.0, "NSE": null, "VIVTOT": 0.0, "GRAPROES": 0.0, "_ent": "14", "_mun": "105", "_loc": "0005"}, "geometry": {"type": "Polygon", "coordinates": [[[-102.73308, 20.48512], [-102.73291, 20.48465], [-102.73332, 20.48456], [-102.73335, 20.4851], [-102.73308, 20.48512]]]}}, {"id": "1014348", "type": "Feature", "properties": {"id": "1014348", "CVEGEO": "1410500050061009", "POBTOT": 0.0, "score_nse": 0.0, "NSE": null, "VIVTOT": 0.0, "GRAPROES": 0.0, "_ent": "14", "_mun": "105", "_loc": "0005"}, "geometry": {"type": "Polygon", "coordinates": [[[-102.73335, 20.48462], [-102.73329, 20.4841], [-102.73353, 20.48407], [-102.73356, 20.4846], [-102.73335, 20.48462]]]}}, {"id": "1014349", "type": "Feature", "properties": {"id": "1014349", "CVEGEO": "1410500050061011", "POBTOT": 0.0, "score_nse": 0.0, "NSE": null, "VIVTOT": 0.0, "GRAPROES": 0.0, "_ent": "14", "_mun": "105", "_loc": "0005"}, "geometry": {"type": "Polygon", "coordinates": [[[-102.73363, 20.48539], [-102.73342, 20.48517], [-102.73361, 20.48518], [-102.73363, 20.48539]]]}}, {"id": "1014350", "type": "Feature", "properties": {"id": "1014350", "CVEGEO": "1410500050061004", "POBTOT": 0.0, "score_nse": 0.0, "NSE": null, "VIVTOT": 0.0, "GRAPROES": 0.0, "_ent": "14", "_mun": "105", "_loc": "0005"}, "geometry": {"type": "Polygon", "coordinates": [[[-102.73338, 20.4853], [-102.73316, 20.48532], [-102.73311, 20.48515], [-102.73335, 20.48515], [-102.73338, 20.4853]]]}}, {"id": "1014351", "type": "Feature", "properties": {"id": "1014351", "CVEGEO": "1410500050061005", "POBTOT": 0.0, "score_nse": 0.0, "NSE": null, "VIVTOT": 0.0, "GRAPROES": 0.0, "_ent": "14", "_mun": "105", "_loc": "0005"}, "geometry": {"type": "Polygon", "coordinates": [[[-102.73285, 20.48541], [-102.7331, 20.48539], [-102.73313, 20.48548], [-102.73288, 20.48554], [-102.73285, 20.48541]]]}}, {"id": "1014352", "type": "Feature", "properties": {"id": "1014352", "CVEGEO": "1410500050061006", "POBTOT": 0.0, "score_nse": 0.0, "NSE": null, "VIVTOT": 0.0, "GRAPROES": 0.0, "_ent": "14", "_mun": "105", "_loc": "0005"}, "geometry": {"type": "Polygon", "coordinates": [[[-102.73245, 20.48559], [-102.73243, 20.48544], [-102.73281, 20.48541], [-102.73284, 20.48555], [-102.73245, 20.48559]]]}}, {"id": "1014353", "type": "Feature", "properties": {"id": "1014353", "CVEGEO": "1410500050061001", "POBTOT": 0.0, "score_nse": 0.0, "NSE": null, "VIVTOT": 0.0, "GRAPROES": 0.0, "_ent": "14", "_mun": "105", "_loc": "0005"}, "geometry": {"type": "Polygon", "coordinates": [[[-102.73311, 20.48534], [-102.73293, 20.48517], [-102.73304, 20.48515], [-102.73311, 20.48534]]]}}, {"id": "1014354", "type": "Feature", "properties": {"id": "1014354", "CVEGEO": "1410500050061018", "POBTOT": 0.0, "score_nse": 0.0, "NSE": null, "VIVTOT": 0.0, "GRAPROES": 0.0, "_ent": "14", "_mun": "105", "_loc": "0005"}, "geometry": {"type": "Polygon", "coordinates": [[[-102.73155, 20.48371], [-102.73196, 20.4858], [-102.73169, 20.48583], [-102.73056, 20.48275], [-102.73211, 20.48253], [-102.73214, 20.48358], [-102.73155, 20.48371]]]}}, {"id": "1014355", "type": "Feature", "properties": {"id": "1014355", "CVEGEO": "1410500050061017", "POBTOT": 0.0, "score_nse": 0.0, "NSE": null, "VIVTOT": 0.0, "GRAPROES": 0.0, "_ent": "14", "_mun": "105", "_loc": "0005"}, "geometry": {"type": "Polygon", "coordinates": [[[-102.73478, 20.48507], [-102.73435, 20.48498], [-102.73428, 20.48423], [-102.7347, 20.48424], [-102.73478, 20.48507]]]}}, {"id": "1014432", "type": "Feature", "properties": {"id": "1014432", "CVEGEO": "1410500050061002", "POBTOT": 0.0, "score_nse": 0.0, "NSE": null, "VIVTOT": 0.0, "GRAPROES": 0.0, "_ent": "14", "_mun": "105", "_loc": "0005"}, "geometry": {"type": "Polygon", "coordinates": [[[-102.73387, 20.48259], [-102.73372, 20.48262], [-102.73383, 20.48402], [-102.73261, 20.48412], [-102.73281, 20.48437], [-102.73267, 20.48454], [-102.73281, 20.4845], [-102.73302, 20.48512], [-102.73284, 20.48493], [-102.73294, 20.48533], [-102.73194, 20.48541], [-102.73163, 20.48377], [-102.73219, 20.48366], [-102.73215, 20.48252], [-102.73385, 20.48227], [-102.73387, 20.48259]]]}}, {"id": "1014433", "type": "Feature", "properties": {"id": "1014433", "CVEGEO": "1410500050061016", "POBTOT": 0.0, "score_nse": 0.0, "NSE": null, "VIVTOT": 0.0, "GRAPROES": 0.0, "_ent": "14", "_mun": "105", "_loc": "0005"}, "geometry": {"type": "Polygon", "coordinates": [[[-102.73535, 20.48514], [-102.73487, 20.48552], [-102.73474, 20.48424], [-102.73517, 20.48421], [-102.73535, 20.48514]]]}}, {"id": "1014437", "type": "Feature", "properties": {"id": "1014437", "CVEGEO": "1410500050061023", "POBTOT": 0.0, "score_nse": 0.0, "NSE": null, "VIVTOT": 0.0, "GRAPROES": 0.0, "_ent": "14", "_mun": "105", "_loc": "0005"}, "geometry": {"type": "Polygon", "coordinates": [[[-102.73482, 20.48555], [-102.73399, 20.48564], [-102.7338, 20.48267], [-102.73416, 20.48301], [-102.73433, 20.48512], [-102.73478, 20.4851], [-102.73482, 20.48555]]]}}, {"id": "1014438", "type": "Feature", "properties": {"id": "1014438", "CVEGEO": "1410500050061021", "POBTOT": 0.0, "score_nse": 0.0, "NSE": null, "VIVTOT": 0.0, "GRAPROES": 0.0, "_ent": "14", "_mun": "105", "_loc": "0005"}, "geometry": {"type": "Polygon", "coordinates": [[[-102.73473, 20.48419], [-102.73468, 20.48365], [-102.73515, 20.48417], [-102.73473, 20.48419]]]}}, {"id": "1014439", "type": "Feature", "properties": {"id": "1014439", "CVEGEO": "1410500050061022", "POBTOT": 0.0, "score_nse": 0.0, "NSE": null, "VIVTOT": 0.0, "GRAPROES": 0.0, "_ent": "14", "_mun": "105", "_loc": "0005"}, "geometry": {"type": "Polygon", "coordinates": [[[-102.73468, 20.4842], [-102.73429, 20.4842], [-102.73426, 20.48315], [-102.73463, 20.48366], [-102.73468, 20.4842]]]}}, {"id": "1014440", "type": "Feature", "properties": {"id": "1014440", "CVEGEO": "1410500050061020", "POBTOT": 0.0, "score_nse": 0.0, "NSE": null, "VIVTOT": 0.0, "GRAPROES": 0.0, "_ent": "14", "_mun": "105", "_loc": "0005"}, "geometry": {"type": "Polygon", "coordinates": [[[-102.73572, 20.48485], [-102.73538, 20.48512], [-102.73523, 20.48425], [-102.73572, 20.48485]]]}}, {"id": "1014460", "type": "Feature", "properties": {"id": "1014460", "CVEGEO": "1410500050061014", "POBTOT": 0.0, "score_nse": 0.0, "NSE": null, "VIVTOT": 0.0, "GRAPROES": 0.0, "_ent": "14", "_mun": "105", "_loc": "0005"}, "geometry": {"type": "Polygon", "coordinates": [[[-102.73388, 20.48571], [-102.73401, 20.48665], [-102.73333, 20.48679], [-102.734, 20.48671], [-102.73406, 20.48748], [-102.73235, 20.48777], [-102.73213, 20.48692], [-102.73241, 20.48686], [-102.73257, 20.48762], [-102.73245, 20.48685], [-102.73283, 20.48678], [-102.733, 20.48732], [-102.73288, 20.48671], [-102.73245, 20.48678], [-102.7323, 20.4861], [-102.73287, 20.48599], [-102.73285, 20.48581], [-102.73388, 20.48571]]]}}, {"id": "1014461", "type": "Feature", "properties": {"id": "1014461", "CVEGEO": "1410500050061019", "POBTOT": 0.0, "score_nse": 0.0, "NSE": null, "VIVTOT": 0.0, "GRAPROES": 0.0, "_ent": "14", "_mun": "105", "_loc": "0005"}, "geometry": {"type": "Polygon", "coordinates": [[[-102.73279, 20.4858], [-102.73281, 20.48594], [-102.73222, 20.48604], [-102.73228, 20.4863], [-102.73212, 20.48634], [-102.73207, 20.48589], [-102.73279, 20.4858]]]}}, {"id": "1014462", "type": "Feature", "properties": {"id": "1014462", "CVEGEO": "1410500050061024", "POBTOT": 0.0, "score_nse": 0.0, "NSE": null, "VIVTOT": 0.0, "GRAPROES": 0.0, "_ent": "14", "_mun": "105", "_loc": "0005"}, "geometry": {"type": "Polygon", "coordinates": [[[-102.73221, 20.48676], [-102.73215, 20.48639], [-102.73229, 20.48635], [-102.7324, 20.48679], [-102.73204, 20.48687], [-102.73173, 20.48597], [-102.73204, 20.4859], [-102.73221, 20.48676]]]}}]}