{"type": "FeatureCollection", "features": [{"id": "1245600", "type": "Feature", "properties": {"id": "1245600", "CVEGEO": "1604700120027009", "POBTOT": 0.0, "score_nse": 0.0, "NSE": null, "VIVTOT": 0.0, "GRAPROES": 0.0, "_ent": "16", "_mun": "047", "_loc": "0012"}, "geometry": {"type": "Polygon", "coordinates": [[[-100.47386, 19.48421], [-100.47418, 19.48431], [-100.47416, 19.48473], [-100.47458, 19.48562], [-100.47462, 19.4861], [-100.47448, 19.48616], [-100.47382, 19.48549], [-100.47386, 19.48421]]]}}, {"id": "1245602", "type": "Feature", "properties": {"id": "1245602", "CVEGEO": "1604700120027007", "POBTOT": 0.0, "score_nse": 0.0, "NSE": null, "VIVTOT": 0.0, "GRAPROES": 0.0, "_ent": "16", "_mun": "047", "_loc": "0012"}, "geometry": {"type": "Polygon", "coordinates": [[[-100.47294, 19.4871], [-100.47381, 19.48555], [-100.47441, 19.48623], [-100.47464, 19.48617], [-100.47501, 19.487], [-100.47487, 19.48724], [-100.47496, 19.48857], [-100.47255, 19.48732], [-100.47294, 19.4871]]]}}, {"id": "1245603", "type": "Feature", "properties": {"id": "1245603", "CVEGEO": "1604700120027005", "POBTOT": 0.0, "score_nse": 0.0, "NSE": null, "VIVTOT": 0.0, "GRAPROES": 0.0, "_ent": "16", "_mun": "047", "_loc": "0012"}, "geometry": {"type": "Polygon", "coordinates": [[[-100.46811, 19.48799], [-100.46824, 19.48688], [-100.46993, 19.48734], [-100.46975, 19.48759], [-100.46856, 19.48767], [-100.46811, 19.48799]]]}}, {"id": "1245648", "type": "Feature", "properties": {"id": "1245648", "CVEGEO": "1604700120027003", "POBTOT": 0.0, "score_nse": 0.0, "NSE": null, "VIVTOT": 0.0, "GRAPROES": 0.0, "_ent": "16", "_mun": "047", "_loc": "0012"}, "geometry": {"type": "Polygon", "coordinates": [[[-100.47189, 19.48735], [-100.47249, 19.48735], [-100.47257, 19.48766], [-100.47211, 19.48792], [-100.47189, 19.48735]]]}}, {"id": "1245684", "type": "Feature", "properties": {"id": "1245684", "CVEGEO": "1604700120027013", "POBTOT": 0.0, "score_nse": 0.0, "NSE": null, "VIVTOT": 0.0, "GRAPROES": 0.0, "_ent": "16", "_mun": "047", "_loc": "0012"}, "geometry": {"type": "Polygon", "coordinates": [[[-100.47182, 19.48732], [-100.47205, 19.48792], [-100.47223, 19.48884], [-100.47185, 19.4879], [-100.47182, 19.48732]]]}}, {"id": "1245712", "type": "Feature", "properties": {"id": "1245712", "CVEGEO": "1604700120027004", "POBTOT": 0.0, "score_nse": 0.0, "NSE": null, "VIVTOT": 0.0, "GRAPROES": 0.0, "_ent": "16", "_mun": "047", "_loc": "0012"}, "geometry": {"type": "Polygon", "coordinates": [[[-100.47188, 19.48885], [-100.47193, 19.48856], [-100.47096, 19.48783], [-100.47116, 19.48736], [-100.47172, 19.48734], [-100.47175, 19.48786], [-100.47216, 19.48888], [-100.47188, 19.48885]]]}}, {"id": "1245745", "type": "Feature", "properties": {"id": "1245745", "CVEGEO": "1604700120027014", "POBTOT": 0.0, "score_nse": 0.0, "NSE": null, "VIVTOT": 0.0, "GRAPROES": 0.0, "_ent": "16", "_mun": "047", "_loc": "0012"}, "geometry": {"type": "Polygon", "coordinates": [[[-100.46572, 19.48612], [-100.46629, 19.48672], [-100.46551, 19.48734], [-100.46509, 19.48737], [-100.46572, 19.48612]]]}}, {"id": "1245789", "type": "Feature", "properties": {"id": "1245789", "CVEGEO": "1604700120027016", "POBTOT": 0.0, "score_nse": 0.0, "NSE": null, "VIVTOT": 0.0, "GRAPROES": 0.0, "_ent": "16", "_mun": "047", "_loc": "0012"}, "geometry": {"type": "Polygon", "coordinates": [[[-100.46327, 19.48296], [-100.46317, 19.48334], [-100.46181, 19.48277], [-100.46194, 19.4824], [-100.46327, 19.48296]]]}}, {"id": "1245790", "type": "Feature", "properties": {"id": "1245790", "CVEGEO": "1604700120027015", "POBTOT": 0.0, "score_nse": 0.0, "NSE": null, "VIVTOT": 0.0, "GRAPROES": 0.0, "_ent": "16", "_mun": "047", "_loc": "0012"}, "geometry": {"type": "Polygon", "coordinates": [[[-100.46401, 19.48299], [-100.46396, 19.48317], [-100.46291, 19.48274], [-100.46297, 19.48255], [-100.46401, 19.48299]]]}}, {"id": "1245791", "type": "Feature", "properties": {"id": "1245791", "CVEGEO": "1604700120027022", "POBTOT": 0.0, "score_nse": 0.0, "NSE": null, "VIVTOT": 0.0, "GRAPROES": 0.0, "_ent": "16", "_mun": "047", "_loc": "0012"}, "geometry": {"type": "Polygon", "coordinates": [[[-100.46611, 19.48576], [-100.46647, 19.48626], [-100.46714, 19.48594], [-100.46715, 19.48626], [-100.46621, 19.48649], [-100.46581, 19.48598], [-100.46611, 19.48576]]]}}, {"id": "1245792", "type": "Feature", "properties": {"id": "1245792", "CVEGEO": "1604700120027017", "POBTOT": 0.0, "score_nse": 0.0, "NSE": null, "VIVTOT": 0.0, "GRAPROES": 0.0, "_ent": "16", "_mun": "047", "_loc": "0012"}, "geometry": {"type": "Polygon", "coordinates": [[[-100.46394, 19.48325], [-100.46386, 19.48365], [-100.46323, 19.48336], [-100.46334, 19.48299], [-100.46394, 19.48325]]]}}, {"id": "1245793", "type": "Feature", "properties": {"id": "1245793", "CVEGEO": "1604700120027020", "POBTOT": 0.0, "score_nse": 0.0, "NSE": null, "VIVTOT": 0.0, "GRAPROES": 0.0, "_ent": "16", "_mun": "047", "_loc": "0012"}, "geometry": {"type": "Polygon", "coordinates": [[[-100.46514, 19.48584], [-100.4654, 19.48565], [-100.46571, 19.48607], [-100.46553, 19.48643], [-100.46514, 19.48584]]]}}, {"id": "1245794", "type": "Feature", "properties": {"id": "1245794", "CVEGEO": "1604700120027021", "POBTOT": 0.0, "score_nse": 0.0, "NSE": null, "VIVTOT": 0.0, "GRAPROES": 0.0, "_ent": "16", "_mun": "047", "_loc": "0012"}, "geometry": {"type": "Polygon", "coordinates": [[[-100.46578, 19.48594], [-100.46543, 19.48544], [-100.46569, 19.48527], [-100.46587, 19.48566], [-100.46609, 19.48567], [-100.46578, 19.48594]]]}}, {"id": "1245795", "type": "Feature", "properties": {"id": "1245795", "CVEGEO": "1604700120027018", "POBTOT": 0.0, "score_nse": 0.0, "NSE": null, "VIVTOT": 0.0, "GRAPROES": 0.0, "_ent": "16", "_mun": "047", "_loc": "0012"}, "geometry": {"type": "Polygon", "coordinates": [[[-100.46168, 19.48288], [-100.46273, 19.48328], [-100.46222, 19.48343], [-100.46184, 19.48421], [-100.46119, 19.48396], [-100.46168, 19.48288]]]}}, {"id": "1245796", "type": "Feature", "properties": {"id": "1245796", "CVEGEO": "1604700120027019", "POBTOT": 0.0, "score_nse": 0.0, "NSE": null, "VIVTOT": 0.0, "GRAPROES": 0.0, "_ent": "16", "_mun": "047", "_loc": "0012"}, "geometry": {"type": "Polygon", "coordinates": [[[-100.46421, 19.48409], [-100.46537, 19.48561], [-100.46521, 19.48574], [-100.46458, 19.48575], [-100.4643, 19.48528], [-100.4635, 19.48542], [-100.46421, 19.48409]]]}}, {"id": "1245797", "type": "Feature", "properties": {"id": "1245797", "CVEGEO": "1604700120027024", "POBTOT": 0.0, "score_nse": 0.0, "NSE": null, "VIVTOT": 0.0, "GRAPROES": 0.0, "_ent": "16", "_mun": "047", "_loc": "0012"}, "geometry": {"type": "Polygon", "coordinates": [[[-100.4695, 19.48564], [-100.46914, 19.48698], [-100.46861, 19.48682], [-100.46902, 19.48552], [-100.4695, 19.48564]]]}}, {"id": "1245798", "type": "Feature", "properties": {"id": "1245798", "CVEGEO": "1604700120027027", "POBTOT": 0.0, "score_nse": 0.0, "NSE": null, "VIVTOT": 0.0, "GRAPROES": 0.0, "_ent": "16", "_mun": "047", "_loc": "0012"}, "geometry": {"type": "Polygon", "coordinates": [[[-100.46744, 19.48693], [-100.46818, 19.48688], [-100.46805, 19.48801], [-100.4677, 19.488], [-100.46806, 19.48806], [-100.46782, 19.48832], [-100.46697, 19.48873], [-100.46728, 19.48803], [-100.46715, 19.48787], [-100.46744, 19.48693]]]}}, {"id": "1245799", "type": "Feature", "properties": {"id": "1245799", "CVEGEO": "1604700120027025", "POBTOT": 0.0, "score_nse": 0.0, "NSE": null, "VIVTOT": 0.0, "GRAPROES": 0.0, "_ent": "16", "_mun": "047", "_loc": "0012"}, "geometry": {"type": "Polygon", "coordinates": [[[-100.4701, 19.48575], [-100.46985, 19.48687], [-100.46964, 19.48716], [-100.46919, 19.487], [-100.46955, 19.48569], [-100.4701, 19.48575]]]}}, {"id": "1245800", "type": "Feature", "properties": {"id": "1245800", "CVEGEO": "1604700120027026", "POBTOT": 0.0, "score_nse": 0.0, "NSE": null, "VIVTOT": 0.0, "GRAPROES": 0.0, "_ent": "16", "_mun": "047", "_loc": "0012"}, "geometry": {"type": "Polygon", "coordinates": [[[-100.47027, 19.4873], [-100.46968, 19.48719], [-100.4701, 19.48599], [-100.47027, 19.48591], [-100.47027, 19.4873]]]}}, {"id": "1245801", "type": "Feature", "properties": {"id": "1245801", "CVEGEO": "1604700120027012", "POBTOT": 0.0, "score_nse": 0.0, "NSE": null, "VIVTOT": 0.0, "GRAPROES": 0.0, "_ent": "16", "_mun": "047", "_loc": "0012"}, "geometry": {"type": "Polygon", "coordinates": [[[-100.4658, 19.48721], [-100.46639, 19.4868], [-100.46736, 19.48693], [-100.46719, 19.48772], [-100.4658, 19.48721]]]}}, {"id": "1245802", "type": "Feature", "properties": {"id": "1245802", "CVEGEO": "1604700120027028", "POBTOT": 0.0, "score_nse": 0.0, "NSE": null, "VIVTOT": 0.0, "GRAPROES": 0.0, "_ent": "16", "_mun": "047", "_loc": "0012"}, "geometry": {"type": "Polygon", "coordinates": [[[-100.47375, 19.4847], [-100.47372, 19.48522], [-100.47342, 19.48527], [-100.47325, 19.48487], [-100.47375, 19.4847]]]}}, {"id": "1245803", "type": "Feature", "properties": {"id": "1245803", "CVEGEO": "1604700120027002", "POBTOT": 0.0, "score_nse": 0.0, "NSE": null, "VIVTOT": 0.0, "GRAPROES": 0.0, "_ent": "16", "_mun": "047", "_loc": "0012"}, "geometry": {"type": "Polygon", "coordinates": [[[-100.47177, 19.48648], [-100.4713, 19.48566], [-100.47127, 19.485], [-100.47017, 19.4843], [-100.46966, 19.48427], [-100.46987, 19.48381], [-100.47022, 19.48366], [-100.47203, 19.48381], [-100.47201, 19.48471], [-100.47253, 19.48536], [-100.47305, 19.48509], [-100.47337, 19.48533], [-100.47376, 19.48527], [-100.47371, 19.48571], [-100.47336, 19.4864], [-100.47312, 19.48628], [-100.47291, 19.48637], [-100.47332, 19.48646], [-100.47283, 19.48713], [-100.47191, 19.48727], [-100.47177, 19.48648]]]}}, {"id": "1245804", "type": "Feature", "properties": {"id": "1245804", "CVEGEO": "1604700120027011", "POBTOT": 0.0, "score_nse": 0.0, "NSE": null, "VIVTOT": 0.0, "GRAPROES": 0.0, "_ent": "16", "_mun": "047", "_loc": "0012"}, "geometry": {"type": "Polygon", "coordinates": [[[-100.46966, 19.48953], [-100.46949, 19.48943], [-100.47001, 19.4886], [-100.46973, 19.48817], [-100.47001, 19.48736], [-100.47111, 19.48737], [-100.47062, 19.48845], [-100.47036, 19.4886], [-100.47065, 19.48849], [-100.47097, 19.48793], [-100.47167, 19.4885], [-100.47095, 19.48889], [-100.47172, 19.48854], [-100.47181, 19.48884], [-100.47054, 19.48927], [-100.47041, 19.48916], [-100.46966, 19.48953]]]}}, {"id": "1245805", "type": "Feature", "properties": {"id": "1245805", "CVEGEO": "1604700120027029", "POBTOT": 0.0, "score_nse": 0.0, "NSE": null, "VIVTOT": 0.0, "GRAPROES": 0.0, "_ent": "16", "_mun": "047", "_loc": "0012"}, "geometry": {"type": "Polygon", "coordinates": [[[-100.46978, 19.48768], [-100.46967, 19.48821], [-100.46992, 19.48863], [-100.46953, 19.48932], [-100.4691, 19.48904], [-100.46952, 19.48821], [-100.46928, 19.48775], [-100.46978, 19.48768]]]}}, {"id": "1245806", "type": "Feature", "properties": {"id": "1245806", "CVEGEO": "1604700120027008", "POBTOT": 0.0, "score_nse": 0.0, "NSE": null, "VIVTOT": 0.0, "GRAPROES": 0.0, "_ent": "16", "_mun": "047", "_loc": "0012"}, "geometry": {"type": "Polygon", "coordinates": [[[-100.47323, 19.48843], [-100.47248, 19.48915], [-100.47214, 19.488], [-100.47255, 19.48841], [-100.47231, 19.48796], [-100.47267, 19.48748], [-100.47303, 19.48761], [-100.47351, 19.48788], [-100.47323, 19.48843]]]}}, {"id": "1245807", "type": "Feature", "properties": {"id": "1245807", "CVEGEO": "1604700120027023", "POBTOT": 0.0, "score_nse": 0.0, "NSE": null, "VIVTOT": 0.0, "GRAPROES": 0.0, "_ent": "16", "_mun": "047", "_loc": "0012"}, "geometry": {"type": "Polygon", "coordinates": [[[-100.46855, 19.4868], [-100.46789, 19.48677], [-100.4679, 19.48661], [-100.46784, 19.48677], [-100.46687, 19.48683], [-100.4665, 19.48665], [-100.46764, 19.48626], [-100.46856, 19.48539], [-100.46894, 19.48569], [-100.46855, 19.4868]]]}}, {"id": "1245910", "type": "Feature", "properties": {"id": "1245910", "CVEGEO": "1604700120027001", "POBTOT": 0.0, "score_nse": 0.0, "NSE": null, "VIVTOT": 0.0, "GRAPROES": 0.0, "_ent": "16", "_mun": "047", "_loc": "0012"}, "geometry": {"type": "Polygon", "coordinates": [[[-100.47174, 19.48727], [-100.47031, 19.48732], [-100.47033, 19.48589], [-100.47066, 19.48553], [-100.47114, 19.48561], [-100.47166, 19.48659], [-100.47174, 19.48727]]]}}]}