{"type": "FeatureCollection", "features": [{"id": "329229", "type": "Feature", "properties": {"id": "329229", "CVEGEO": "0710200220036013", "POBTOT": 0.0, "score_nse": 0.0, "NSE": null, "VIVTOT": 0.0, "GRAPROES": 0.0, "_ent": "07", "_mun": "102", "_loc": "0022"}, "geometry": {"type": "Polygon", "coordinates": [[[-92.24358, 14.86686], [-92.24272, 14.86943], [-92.24257, 14.87027], [-92.24244, 14.86752], [-92.24253, 14.86665], [-92.24287, 14.86554], [-92.24358, 14.86686]]]}}, {"id": "329230", "type": "Feature", "properties": {"id": "329230", "CVEGEO": "0710200220036012", "POBTOT": 0.0, "score_nse": 0.0, "NSE": null, "VIVTOT": 0.0, "GRAPROES": 0.0, "_ent": "07", "_mun": "102", "_loc": "0022"}, "geometry": {"type": "Polygon", "coordinates": [[[-92.22977, 14.87423], [-92.22716, 14.8726], [-92.23055, 14.8684], [-92.22911, 14.86728], [-92.23058, 14.86545], [-92.23062, 14.86512], [-92.22984, 14.86444], [-92.23043, 14.86333], [-92.2338, 14.86567], [-92.2353, 14.86447], [-92.23626, 14.86511], [-92.23558, 14.8659], [-92.23532, 14.8666], [-92.23431, 14.86812], [-92.23391, 14.86903], [-92.23364, 14.87027], [-92.23329, 14.87096], [-92.23364, 14.87223], [-92.23345, 14.87232], [-92.23174, 14.87186], [-92.22977, 14.87423]]]}}, {"id": "329231", "type": "Feature", "properties": {"id": "329231", "CVEGEO": "0710200220036011", "POBTOT": 0.0, "score_nse": 0.0, "NSE": null, "VIVTOT": 0.0, "GRAPROES": 0.0, "_ent": "07", "_mun": "102", "_loc": "0022"}, "geometry": {"type": "Polygon", "coordinates": [[[-92.21866, 14.86943], [-92.21721, 14.86825], [-92.22089, 14.86236], [-92.2236, 14.85953], [-92.22529, 14.86093], [-92.22523, 14.86121], [-92.22393, 14.86247], [-92.22328, 14.86374], [-92.22208, 14.86494], [-92.22161, 14.86759], [-92.21975, 14.86864], [-92.21951, 14.86986], [-92.21866, 14.86943]]]}}, {"id": "329232", "type": "Feature", "properties": {"id": "329232", "CVEGEO": "0710200220036010", "POBTOT": 0.0, "score_nse": 0.0, "NSE": null, "VIVTOT": 0.0, "GRAPROES": 0.0, "_ent": "07", "_mun": "102", "_loc": "0022"}, "geometry": {"type": "Polygon", "coordinates": [[[-92.21901, 14.87661], [-92.21827, 14.8788], [-92.21735, 14.88051], [-92.21585, 14.87996], [-92.21768, 14.87761], [-92.21823, 14.87652], [-92.21858, 14.87524], [-92.21928, 14.87438], [-92.21976, 14.87108], [-92.21977, 14.87011], [-92.22216, 14.87111], [-92.22134, 14.87405], [-92.22089, 14.87494], [-92.21951, 14.87596], [-92.21901, 14.87661]]]}}, {"id": "329233", "type": "Feature", "properties": {"id": "329233", "CVEGEO": "0710200220036009", "POBTOT": 0.0, "score_nse": 0.0, "NSE": null, "VIVTOT": 0.0, "GRAPROES": 0.0, "_ent": "07", "_mun": "102", "_loc": "0022"}, "geometry": {"type": "Polygon", "coordinates": [[[-92.22769, 14.89032], [-92.22504, 14.88847], [-92.22648, 14.88592], [-92.22711, 14.88633], [-92.22788, 14.88754], [-92.22853, 14.88814], [-92.22942, 14.89002], [-92.22953, 14.89082], [-92.22809, 14.89017], [-92.22769, 14.89032]]]}}, {"id": "329234", "type": "Feature", "properties": {"id": "329234", "CVEGEO": "0710200220036007", "POBTOT": 0.0, "score_nse": 0.0, "NSE": null, "VIVTOT": 0.0, "GRAPROES": 0.0, "_ent": "07", "_mun": "102", "_loc": "0022"}, "geometry": {"type": "Polygon", "coordinates": [[[-92.23041, 14.86847], [-92.22702, 14.8725], [-92.22607, 14.87206], [-92.22383, 14.87155], [-92.21978, 14.86999], [-92.21984, 14.86932], [-92.22006, 14.86883], [-92.22153, 14.86797], [-92.22206, 14.86749], [-92.22242, 14.86521], [-92.22298, 14.86434], [-92.22346, 14.86403], [-92.22431, 14.86237], [-92.22519, 14.86145], [-92.2254, 14.86103], [-92.23052, 14.86524], [-92.22896, 14.86738], [-92.23033, 14.86823], [-92.23041, 14.86847]]]}}, {"id": "329540", "type": "Feature", "properties": {"id": "329540", "CVEGEO": "0710200220036004", "POBTOT": 0.0, "score_nse": 0.0, "NSE": null, "VIVTOT": 0.0, "GRAPROES": 0.0, "_ent": "07", "_mun": "102", "_loc": "0022"}, "geometry": {"type": "Polygon", "coordinates": [[[-92.23001, 14.87439], [-92.2319, 14.87231], [-92.23343, 14.87245], [-92.23376, 14.87234], [-92.23387, 14.87212], [-92.23357, 14.87119], [-92.23448, 14.86845], [-92.23552, 14.86684], [-92.23618, 14.86627], [-92.23648, 14.86527], [-92.24228, 14.86908], [-92.24243, 14.87212], [-92.2423, 14.87332], [-92.23953, 14.87933], [-92.23764, 14.87953], [-92.23615, 14.87877], [-92.23342, 14.87646], [-92.23254, 14.8752], [-92.23201, 14.87471], [-92.23001, 14.87439]]]}}, {"id": "329604", "type": "Feature", "properties": {"id": "329604", "CVEGEO": "0710200220036005", "POBTOT": 0.0, "score_nse": 0.0, "NSE": null, "VIVTOT": 0.0, "GRAPROES": 0.0, "_ent": "07", "_mun": "102", "_loc": "0022"}, "geometry": {"type": "Polygon", "coordinates": [[[-92.22365, 14.8963], [-92.23668, 14.88833], [-92.23731, 14.88803], [-92.23774, 14.88802], [-92.23802, 14.88824], [-92.23802, 14.88903], [-92.23717, 14.89054], [-92.2372, 14.89099], [-92.23892, 14.89346], [-92.23653, 14.89548], [-92.23553, 14.89598], [-92.23514, 14.89638], [-92.23526, 14.89747], [-92.23508, 14.89802], [-92.23467, 14.89814], [-92.23417, 14.89888], [-92.23378, 14.90011], [-92.23385, 14.90204], [-92.23423, 14.90322], [-92.23516, 14.9051], [-92.23526, 14.90626], [-92.23492, 14.90664], [-92.23446, 14.90663], [-92.2338, 14.90623], [-92.23363, 14.90542], [-92.23364, 14.9045], [-92.23309, 14.90368], [-92.23201, 14.90309], [-92.23106, 14.90192], [-92.22997, 14.90195], [-92.22876, 14.9024], [-92.22871, 14.90184], [-92.22804, 14.90134], [-92.2277, 14.9002], [-92.22777, 14.9001], [-92.22854, 14.90024], [-92.22918, 14.90057], [-92.22907, 14.9], [-92.22848, 14.89871], [-92.22635, 14.89928], [-92.22544, 14.89805], [-92.22365, 14.8963]]]}}, {"id": "329657", "type": "Feature", "properties": {"id": "329657", "CVEGEO": "0710200220036002", "POBTOT": 0.0, "score_nse": 0.0, "NSE": null, "VIVTOT": 0.0, "GRAPROES": 0.0, "_ent": "07", "_mun": "102", "_loc": "0022"}, "geometry": {"type": "Polygon", "coordinates": [[[-92.22964, 14.89111], [-92.22977, 14.89117], [-92.22955, 14.89169], [-92.22868, 14.89281], [-92.22347, 14.89611], [-92.22097, 14.8951], [-92.21892, 14.89351], [-92.21846, 14.89276], [-92.21822, 14.8927], [-92.21975, 14.89008], [-92.21926, 14.88952], [-92.2218, 14.88696], [-92.2226, 14.88464], [-92.22415, 14.88538], [-92.2264, 14.88585], [-92.22359, 14.89064], [-92.22369, 14.89071], [-92.22502, 14.88856], [-92.2277, 14.89039], [-92.22798, 14.89022], [-92.22964, 14.89104], [-92.22937, 14.89137], [-92.22868, 14.89104], [-92.22831, 14.89095], [-92.2281, 14.89155], [-92.22835, 14.89099], [-92.22932, 14.89142], [-92.2292, 14.89162], [-92.22964, 14.89111]]]}}, {"id": "330056", "type": "Feature", "properties": {"id": "330056", "CVEGEO": "0710200220036003", "POBTOT": 0.0, "score_nse": 0.0, "NSE": null, "VIVTOT": 0.0, "GRAPROES": 0.0, "_ent": "07", "_mun": "102", "_loc": "0022"}, "geometry": {"type": "Polygon", "coordinates": [[[-92.23248, 14.88047], [-92.23144, 14.87985], [-92.23207, 14.87917], [-92.23138, 14.87982], [-92.23124, 14.87973], [-92.23176, 14.87916], [-92.23117, 14.87974], [-92.23461, 14.88198], [-92.23256, 14.88396], [-92.23129, 14.88324], [-92.23251, 14.884], [-92.23216, 14.88434], [-92.23082, 14.88356], [-92.2321, 14.88438], [-92.2315, 14.88493], [-92.23082, 14.88695], [-92.22912, 14.88907], [-92.22857, 14.88803], [-92.22785, 14.88731], [-92.22737, 14.88645], [-92.22802, 14.88554], [-92.22862, 14.88582], [-92.22883, 14.88489], [-92.22864, 14.88524], [-92.22801, 14.88496], [-92.22827, 14.88404], [-92.22785, 14.88523], [-92.22794, 14.88552], [-92.22731, 14.88638], [-92.22626, 14.88566], [-92.22788, 14.8836], [-92.22619, 14.88564], [-92.22546, 14.88544], [-92.22714, 14.88319], [-92.22599, 14.88467], [-92.22548, 14.88454], [-92.22594, 14.88472], [-92.22539, 14.88542], [-92.22464, 14.88529], [-92.22504, 14.88503], [-92.2254, 14.88399], [-92.22544, 14.88274], [-92.22608, 14.88128], [-92.22581, 14.87946], [-92.22612, 14.87886], [-92.22568, 14.87754], [-92.22576, 14.87705], [-92.22617, 14.87679], [-92.2268, 14.87671], [-92.22876, 14.87799], [-92.2322, 14.87495], [-92.23318, 14.87636], [-92.2352, 14.87819], [-92.23248, 14.88047]]]}}, {"id": "330057", "type": "Feature", "properties": {"id": "330057", "CVEGEO": "0710200220036014", "POBTOT": 0.0, "score_nse": 0.0, "NSE": null, "VIVTOT": 0.0, "GRAPROES": 0.0, "_ent": "07", "_mun": "102", "_loc": "0022"}, "geometry": {"type": "Polygon", "coordinates": [[[-92.222, 14.87195], [-92.22235, 14.87106], [-92.22321, 14.87138], [-92.22304, 14.87199], [-92.22326, 14.8714], [-92.22347, 14.87147], [-92.22308, 14.87243], [-92.222, 14.87195]]]}}, {"id": "330058", "type": "Feature", "properties": {"id": "330058", "CVEGEO": "0710200220036015", "POBTOT": 0.0, "score_nse": 0.0, "NSE": null, "VIVTOT": 0.0, "GRAPROES": 0.0, "_ent": "07", "_mun": "102", "_loc": "0022"}, "geometry": {"type": "Polygon", "coordinates": [[[-92.22861, 14.88532], [-92.22848, 14.88567], [-92.22799, 14.88548], [-92.2279, 14.88528], [-92.22801, 14.88503], [-92.22861, 14.88532]]]}}, {"id": "330059", "type": "Feature", "properties": {"id": "330059", "CVEGEO": "0710200220036016", "POBTOT": 0.0, "score_nse": 0.0, "NSE": null, "VIVTOT": 0.0, "GRAPROES": 0.0, "_ent": "07", "_mun": "102", "_loc": "0022"}, "geometry": {"type": "Polygon", "coordinates": [[[-92.23754, 14.87959], [-92.23581, 14.88103], [-92.23527, 14.88054], [-92.23598, 14.87957], [-92.23522, 14.8805], [-92.23496, 14.88013], [-92.23553, 14.87931], [-92.23493, 14.88009], [-92.23419, 14.87914], [-92.23527, 14.8782], [-92.23638, 14.879], [-92.23754, 14.87959]]]}}, {"id": "330060", "type": "Feature", "properties": {"id": "330060", "CVEGEO": "0710200220036017", "POBTOT": 0.0, "score_nse": 0.0, "NSE": null, "VIVTOT": 0.0, "GRAPROES": 0.0, "_ent": "07", "_mun": "102", "_loc": "0022"}, "geometry": {"type": "Polygon", "coordinates": [[[-92.23386, 14.88146], [-92.23251, 14.88052], [-92.23416, 14.87916], [-92.23506, 14.88042], [-92.23574, 14.88102], [-92.23523, 14.88147], [-92.23364, 14.88045], [-92.23445, 14.881], [-92.23386, 14.88146]]]}}, {"id": "330061", "type": "Feature", "properties": {"id": "330061", "CVEGEO": "0710200220036018", "POBTOT": 0.0, "score_nse": 0.0, "NSE": null, "VIVTOT": 0.0, "GRAPROES": 0.0, "_ent": "07", "_mun": "102", "_loc": "0022"}, "geometry": {"type": "Polygon", "coordinates": [[[-92.23521, 14.88148], [-92.23467, 14.88195], [-92.23391, 14.8815], [-92.23451, 14.88102], [-92.23521, 14.88148]]]}}, {"id": "330062", "type": "Feature", "properties": {"id": "330062", "CVEGEO": "0710200220036019", "POBTOT": 0.0, "score_nse": 0.0, "NSE": null, "VIVTOT": 0.0, "GRAPROES": 0.0, "_ent": "07", "_mun": "102", "_loc": "0022"}, "geometry": {"type": "Polygon", "coordinates": [[[-92.22686, 14.8767], [-92.22806, 14.87604], [-92.22986, 14.87439], [-92.2302, 14.87455], [-92.2318, 14.87472], [-92.23215, 14.87493], [-92.22877, 14.87792], [-92.22686, 14.8767]]]}}, {"id": "330063", "type": "Feature", "properties": {"id": "330063", "CVEGEO": "0710200220036006", "POBTOT": 0.0, "score_nse": 0.0, "NSE": null, "VIVTOT": 0.0, "GRAPROES": 0.0, "_ent": "07", "_mun": "102", "_loc": "0022"}, "geometry": {"type": "Polygon", "coordinates": [[[-92.21994, 14.87567], [-92.22089, 14.875], [-92.22143, 14.87521], [-92.22136, 14.87576], [-92.22152, 14.8752], [-92.22092, 14.87497], [-92.2213, 14.87421], [-92.2225, 14.87468], [-92.22371, 14.87504], [-92.22132, 14.87416], [-92.22166, 14.87311], [-92.22359, 14.87396], [-92.22166, 14.87303], [-92.22198, 14.872], [-92.22415, 14.87293], [-92.22376, 14.8727], [-92.22412, 14.87169], [-92.22501, 14.87188], [-92.2249, 14.87257], [-92.2251, 14.87189], [-92.22559, 14.872], [-92.22499, 14.87402], [-92.22565, 14.87201], [-92.22666, 14.8724], [-92.22975, 14.87431], [-92.22897, 14.87488], [-92.22793, 14.87596], [-92.22739, 14.87618], [-92.22708, 14.87653], [-92.22672, 14.87661], [-92.22551, 14.87588], [-92.22667, 14.87664], [-92.22572, 14.87685], [-92.22555, 14.87724], [-92.22552, 14.87756], [-92.22592, 14.87878], [-92.22564, 14.87946], [-92.22589, 14.88123], [-92.22529, 14.88271], [-92.22526, 14.88398], [-92.22498, 14.88444], [-92.22486, 14.88509], [-92.22456, 14.88528], [-92.22435, 14.88525], [-92.22456, 14.88486], [-92.22428, 14.88524], [-92.2241, 14.8852], [-92.22243, 14.88441], [-92.2221, 14.88404], [-92.22169, 14.88337], [-92.22246, 14.8822], [-92.22167, 14.88332], [-92.2214, 14.88281], [-92.22277, 14.88044], [-92.22138, 14.88276], [-92.2202, 14.88212], [-92.2206, 14.88136], [-92.22015, 14.8821], [-92.21936, 14.88164], [-92.21981, 14.88078], [-92.21932, 14.88162], [-92.21752, 14.8805], [-92.21835, 14.87884], [-92.21909, 14.87662], [-92.21994, 14.87567]]]}}, {"id": "330064", "type": "Feature", "properties": {"id": "330064", "CVEGEO": "0710200220036020", "POBTOT": 0.0, "score_nse": 0.0, "NSE": null, "VIVTOT": 0.0, "GRAPROES": 0.0, "_ent": "07", "_mun": "102", "_loc": "0022"}, "geometry": {"type": "Polygon", "coordinates": [[[-92.22352, 14.87149], [-92.22404, 14.87167], [-92.22369, 14.87267], [-92.22313, 14.87244], [-92.22352, 14.87149]]]}}]}