{"type": "FeatureCollection", "features": [{"id": "1986093", "type": "Feature", "properties": {"id": "1986093", "CVEGEO": "250150005061A007", "POBTOT": 0.0, "score_nse": 0.0, "NSE": null, "VIVTOT": 0.0, "GRAPROES": 0.0, "_ent": "25", "_mun": "015", "_loc": "0005"}, "geometry": {"type": "Polygon", "coordinates": [[[-107.91118, 25.31155], [-107.91109, 25.31029], [-107.91177, 25.31033], [-107.9121, 25.31007], [-107.91261, 25.31107], [-107.91118, 25.31155]]]}}, {"id": "1986094", "type": "Feature", "properties": {"id": "1986094", "CVEGEO": "250150005061A006", "POBTOT": 0.0, "score_nse": 0.0, "NSE": null, "VIVTOT": 0.0, "GRAPROES": 0.0, "_ent": "25", "_mun": "015", "_loc": "0005"}, "geometry": {"type": "Polygon", "coordinates": [[[-107.91292, 25.30924], [-107.91295, 25.31078], [-107.91263, 25.31087], [-107.91185, 25.3097], [-107.91175, 25.30918], [-107.91292, 25.30924]]]}}, {"id": "1986710", "type": "Feature", "properties": {"id": "1986710", "CVEGEO": "250150005061A011", "POBTOT": 0.0, "score_nse": 0.0, "NSE": null, "VIVTOT": 0.0, "GRAPROES": 0.0, "_ent": "25", "_mun": "015", "_loc": "0005"}, "geometry": {"type": "Polygon", "coordinates": [[[-107.91088, 25.30874], [-107.91029, 25.30857], [-107.9107, 25.30749], [-107.91119, 25.30733], [-107.91135, 25.30762], [-107.91114, 25.30783], [-107.91088, 25.30874]]]}}, {"id": "1986711", "type": "Feature", "properties": {"id": "1986711", "CVEGEO": "250150005061A001", "POBTOT": 0.0, "score_nse": 0.0, "NSE": null, "VIVTOT": 0.0, "GRAPROES": 0.0, "_ent": "25", "_mun": "015", "_loc": "0005"}, "geometry": {"type": "Polygon", "coordinates": [[[-107.91172, 25.31017], [-107.91104, 25.31009], [-107.91078, 25.30956], [-107.91093, 25.30889], [-107.91163, 25.30899], [-107.91172, 25.30963], [-107.91202, 25.30993], [-107.91172, 25.31017]]]}}, {"id": "1986712", "type": "Feature", "properties": {"id": "1986712", "CVEGEO": "250150005061A002", "POBTOT": 0.0, "score_nse": 0.0, "NSE": null, "VIVTOT": 0.0, "GRAPROES": 0.0, "_ent": "25", "_mun": "015", "_loc": "0005"}, "geometry": {"type": "Polygon", "coordinates": [[[-107.91061, 25.30964], [-107.91078, 25.30967], [-107.91092, 25.31007], [-107.9105, 25.31004], [-107.91061, 25.30964]]]}}, {"id": "1986713", "type": "Feature", "properties": {"id": "1986713", "CVEGEO": "250150005061A004", "POBTOT": 0.0, "score_nse": 0.0, "NSE": null, "VIVTOT": 0.0, "GRAPROES": 0.0, "_ent": "25", "_mun": "015", "_loc": "0005"}, "geometry": {"type": "Polygon", "coordinates": [[[-107.91085, 25.30883], [-107.91079, 25.30913], [-107.91003, 25.30893], [-107.9101, 25.30864], [-107.91085, 25.30883]]]}}, {"id": "1986714", "type": "Feature", "properties": {"id": "1986714", "CVEGEO": "250150005061A008", "POBTOT": 0.0, "score_nse": 0.0, "NSE": null, "VIVTOT": 0.0, "GRAPROES": 0.0, "_ent": "25", "_mun": "015", "_loc": "0005"}, "geometry": {"type": "Polygon", "coordinates": [[[-107.91103, 25.3115], [-107.91002, 25.31169], [-107.91055, 25.31015], [-107.91094, 25.31018], [-107.91103, 25.3115]]]}}, {"id": "1986715", "type": "Feature", "properties": {"id": "1986715", "CVEGEO": "250150005061A003", "POBTOT": 0.0, "score_nse": 0.0, "NSE": null, "VIVTOT": 0.0, "GRAPROES": 0.0, "_ent": "25", "_mun": "015", "_loc": "0005"}, "geometry": {"type": "Polygon", "coordinates": [[[-107.91057, 25.3096], [-107.91007, 25.30957], [-107.91051, 25.30967], [-107.91039, 25.31011], [-107.9105, 25.31018], [-107.91004, 25.31153], [-107.9096, 25.3118], [-107.90989, 25.30993], [-107.90954, 25.30993], [-107.9096, 25.30849], [-107.91004, 25.30861], [-107.90996, 25.30898], [-107.91078, 25.30918], [-107.91057, 25.3096]]]}}, {"id": "1986782", "type": "Feature", "properties": {"id": "1986782", "CVEGEO": "250150005061A016", "POBTOT": 0.0, "score_nse": 0.0, "NSE": null, "VIVTOT": 0.0, "GRAPROES": 0.0, "_ent": "25", "_mun": "015", "_loc": "0005"}, "geometry": {"type": "Polygon", "coordinates": [[[-107.91199, 25.30788], [-107.91241, 25.30814], [-107.9125, 25.30857], [-107.91225, 25.30895], [-107.91183, 25.30888], [-107.91199, 25.30788]]]}}, {"id": "1986783", "type": "Feature", "properties": {"id": "1986783", "CVEGEO": "250150005061A012", "POBTOT": 0.0, "score_nse": 0.0, "NSE": null, "VIVTOT": 0.0, "GRAPROES": 0.0, "_ent": "25", "_mun": "015", "_loc": "0005"}, "geometry": {"type": "Polygon", "coordinates": [[[-107.91137, 25.30837], [-107.91124, 25.30881], [-107.91093, 25.30875], [-107.91142, 25.30769], [-107.91139, 25.30714], [-107.91172, 25.30712], [-107.91176, 25.30768], [-107.91193, 25.30785], [-107.91176, 25.30887], [-107.91131, 25.30882], [-107.91137, 25.30837]]]}}, {"id": "1986784", "type": "Feature", "properties": {"id": "1986784", "CVEGEO": "250150005061A010", "POBTOT": 0.0, "score_nse": 0.0, "NSE": null, "VIVTOT": 0.0, "GRAPROES": 0.0, "_ent": "25", "_mun": "015", "_loc": "0005"}, "geometry": {"type": "Polygon", "coordinates": [[[-107.91022, 25.30854], [-107.90855, 25.30839], [-107.90845, 25.30759], [-107.90846, 25.3074], [-107.90936, 25.30638], [-107.91142, 25.30633], [-107.91135, 25.30725], [-107.91087, 25.30729], [-107.91091, 25.30683], [-107.91077, 25.30727], [-107.90993, 25.30723], [-107.90956, 25.30704], [-107.90992, 25.30728], [-107.91071, 25.30733], [-107.91022, 25.30854]]]}}]}