{"type": "FeatureCollection", "features": [{"id": "2353393", "type": "Feature", "properties": {"id": "2353393", "CVEGEO": "3014100400086015", "POBTOT": 0.0, "score_nse": 0.0, "NSE": null, "VIVTOT": 0.0, "GRAPROES": 0.0, "_ent": "30", "_mun": "141", "_loc": "0040"}, "geometry": {"type": "Polygon", "coordinates": [[[-95.17921, 18.38903], [-95.1793, 18.38952], [-95.17881, 18.38955], [-95.17872, 18.38907], [-95.17921, 18.38903]]]}}, {"id": "2353484", "type": "Feature", "properties": {"id": "2353484", "CVEGEO": "3014100400086035", "POBTOT": 0.0, "score_nse": 0.0, "NSE": null, "VIVTOT": 0.0, "GRAPROES": 0.0, "_ent": "30", "_mun": "141", "_loc": "0040"}, "geometry": {"type": "Polygon", "coordinates": [[[-95.17785, 18.38796], [-95.17712, 18.38801], [-95.17705, 18.38746], [-95.17775, 18.38739], [-95.17785, 18.38796]]]}}, {"id": "2353485", "type": "Feature", "properties": {"id": "2353485", "CVEGEO": "3014100400086044", "POBTOT": 0.0, "score_nse": 0.0, "NSE": null, "VIVTOT": 0.0, "GRAPROES": 0.0, "_ent": "30", "_mun": "141", "_loc": "0040"}, "geometry": {"type": "Polygon", "coordinates": [[[-95.17865, 18.38556], [-95.17853, 18.38476], [-95.17877, 18.38476], [-95.17888, 18.38554], [-95.17865, 18.38556]]]}}, {"id": "2353486", "type": "Feature", "properties": {"id": "2353486", "CVEGEO": "3014100400086033", "POBTOT": 0.0, "score_nse": 0.0, "NSE": null, "VIVTOT": 0.0, "GRAPROES": 0.0, "_ent": "30", "_mun": "141", "_loc": "0040"}, "geometry": {"type": "Polygon", "coordinates": [[[-95.17915, 18.38621], [-95.17924, 18.38671], [-95.17887, 18.38674], [-95.17879, 18.38623], [-95.17915, 18.38621]]]}}, {"id": "2353942", "type": "Feature", "properties": {"id": "2353942", "CVEGEO": "3014100400086028", "POBTOT": 0.0, "score_nse": 0.0, "NSE": null, "VIVTOT": 0.0, "GRAPROES": 0.0, "_ent": "30", "_mun": "141", "_loc": "0040"}, "geometry": {"type": "Polygon", "coordinates": [[[-95.17807, 18.38536], [-95.17838, 18.38466], [-95.17844, 18.38466], [-95.17861, 18.38566], [-95.17813, 18.38574], [-95.17807, 18.38536]]]}}, {"id": "2353943", "type": "Feature", "properties": {"id": "2353943", "CVEGEO": "3014100400086006", "POBTOT": 0.0, "score_nse": 0.0, "NSE": null, "VIVTOT": 0.0, "GRAPROES": 0.0, "_ent": "30", "_mun": "141", "_loc": "0040"}, "geometry": {"type": "Polygon", "coordinates": [[[-95.17919, 18.38841], [-95.17909, 18.38788], [-95.17943, 18.38785], [-95.17957, 18.3884], [-95.17919, 18.38841]]]}}, {"id": "2353944", "type": "Feature", "properties": {"id": "2353944", "CVEGEO": "3014100400086003", "POBTOT": 0.0, "score_nse": 0.0, "NSE": null, "VIVTOT": 0.0, "GRAPROES": 0.0, "_ent": "30", "_mun": "141", "_loc": "0040"}, "geometry": {"type": "Polygon", "coordinates": [[[-95.17881, 18.3868], [-95.1789, 18.38727], [-95.17842, 18.3873], [-95.17832, 18.38683], [-95.17881, 18.3868]]]}}, {"id": "2354010", "type": "Feature", "properties": {"id": "2354010", "CVEGEO": "3014100400086013", "POBTOT": 0.0, "score_nse": 0.0, "NSE": null, "VIVTOT": 0.0, "GRAPROES": 0.0, "_ent": "30", "_mun": "141", "_loc": "0040"}, "geometry": {"type": "Polygon", "coordinates": [[[-95.17939, 18.38726], [-95.17976, 18.38717], [-95.18004, 18.38823], [-95.17962, 18.38825], [-95.17939, 18.38726]]]}}, {"id": "2354011", "type": "Feature", "properties": {"id": "2354011", "CVEGEO": "3014100400086012", "POBTOT": 0.0, "score_nse": 0.0, "NSE": null, "VIVTOT": 0.0, "GRAPROES": 0.0, "_ent": "30", "_mun": "141", "_loc": "0040"}, "geometry": {"type": "Polygon", "coordinates": [[[-95.17931, 18.38675], [-95.17967, 18.38673], [-95.17974, 18.38713], [-95.17938, 18.3872], [-95.17931, 18.38675]]]}}, {"id": "2354012", "type": "Feature", "properties": {"id": "2354012", "CVEGEO": "3014100400086011", "POBTOT": 0.0, "score_nse": 0.0, "NSE": null, "VIVTOT": 0.0, "GRAPROES": 0.0, "_ent": "30", "_mun": "141", "_loc": "0040"}, "geometry": {"type": "Polygon", "coordinates": [[[-95.17831, 18.38676], [-95.17821, 18.38627], [-95.17872, 18.38624], [-95.1788, 18.38673], [-95.17831, 18.38676]]]}}, {"id": "2354014", "type": "Feature", "properties": {"id": "2354014", "CVEGEO": "3014100400086036", "POBTOT": 0.0, "score_nse": 0.0, "NSE": null, "VIVTOT": 0.0, "GRAPROES": 0.0, "_ent": "30", "_mun": "141", "_loc": "0040"}, "geometry": {"type": "Polygon", "coordinates": [[[-95.17786, 18.38762], [-95.17783, 18.38739], [-95.17834, 18.38737], [-95.17836, 18.3876], [-95.17786, 18.38762]]]}}, {"id": "2354216", "type": "Feature", "properties": {"id": "2354216", "CVEGEO": "3014100400086039", "POBTOT": 0.0, "score_nse": 0.0, "NSE": null, "VIVTOT": 0.0, "GRAPROES": 0.0, "_ent": "30", "_mun": "141", "_loc": "0040"}, "geometry": {"type": "Polygon", "coordinates": [[[-95.17743, 18.38526], [-95.17721, 18.38506], [-95.17732, 18.38488], [-95.17755, 18.38508], [-95.17743, 18.38526]]]}}, {"id": "2354217", "type": "Feature", "properties": {"id": "2354217", "CVEGEO": "3014100400086042", "POBTOT": 0.0, "score_nse": 0.0, "NSE": null, "VIVTOT": 0.0, "GRAPROES": 0.0, "_ent": "30", "_mun": "141", "_loc": "0040"}, "geometry": {"type": "Polygon", "coordinates": [[[-95.17798, 18.38532], [-95.17765, 18.38505], [-95.17812, 18.3843], [-95.17835, 18.38456], [-95.17798, 18.38532]]]}}, {"id": "2354218", "type": "Feature", "properties": {"id": "2354218", "CVEGEO": "3014100400086023", "POBTOT": 0.0, "score_nse": 0.0, "NSE": null, "VIVTOT": 0.0, "GRAPROES": 0.0, "_ent": "30", "_mun": "141", "_loc": "0040"}, "geometry": {"type": "Polygon", "coordinates": [[[-95.17894, 18.39036], [-95.17882, 18.38962], [-95.17934, 18.38959], [-95.17958, 18.39034], [-95.17894, 18.39036]]]}}, {"id": "2354219", "type": "Feature", "properties": {"id": "2354219", "CVEGEO": "3014100400086019", "POBTOT": 0.0, "score_nse": 0.0, "NSE": null, "VIVTOT": 0.0, "GRAPROES": 0.0, "_ent": "30", "_mun": "141", "_loc": "0040"}, "geometry": {"type": "Polygon", "coordinates": [[[-95.17767, 18.38842], [-95.17762, 18.3881], [-95.17724, 18.38805], [-95.17784, 18.388], [-95.17795, 18.38849], [-95.17767, 18.38842]]]}}, {"id": "2354283", "type": "Feature", "properties": {"id": "2354283", "CVEGEO": "3014100400086041", "POBTOT": 0.0, "score_nse": 0.0, "NSE": null, "VIVTOT": 0.0, "GRAPROES": 0.0, "_ent": "30", "_mun": "141", "_loc": "0040"}, "geometry": {"type": "Polygon", "coordinates": [[[-95.17735, 18.38483], [-95.17779, 18.38415], [-95.17804, 18.38427], [-95.1776, 18.38501], [-95.17735, 18.38483]]]}}, {"id": "2354385", "type": "Feature", "properties": {"id": "2354385", "CVEGEO": "3014100400086038", "POBTOT": 0.0, "score_nse": 0.0, "NSE": null, "VIVTOT": 0.0, "GRAPROES": 0.0, "_ent": "30", "_mun": "141", "_loc": "0040"}, "geometry": {"type": "Polygon", "coordinates": [[[-95.17776, 18.38572], [-95.17762, 18.38623], [-95.17744, 18.38623], [-95.17748, 18.38585], [-95.17707, 18.3853], [-95.17719, 18.38511], [-95.17776, 18.38572]]]}}, {"id": "2354386", "type": "Feature", "properties": {"id": "2354386", "CVEGEO": "3014100400086017", "POBTOT": 0.0, "score_nse": 0.0, "NSE": null, "VIVTOT": 0.0, "GRAPROES": 0.0, "_ent": "30", "_mun": "141", "_loc": "0040"}, "geometry": {"type": "Polygon", "coordinates": [[[-95.17814, 18.38958], [-95.17707, 18.38959], [-95.17727, 18.38917], [-95.17806, 18.3891], [-95.17814, 18.38958]]]}}, {"id": "2354387", "type": "Feature", "properties": {"id": "2354387", "CVEGEO": "3014100400086007", "POBTOT": 0.0, "score_nse": 0.0, "NSE": null, "VIVTOT": 0.0, "GRAPROES": 0.0, "_ent": "30", "_mun": "141", "_loc": "0040"}, "geometry": {"type": "Polygon", "coordinates": [[[-95.17958, 18.38845], [-95.17969, 18.38892], [-95.17928, 18.38895], [-95.1792, 18.38848], [-95.17958, 18.38845]]]}}, {"id": "2354388", "type": "Feature", "properties": {"id": "2354388", "CVEGEO": "3014100400086005", "POBTOT": 0.0, "score_nse": 0.0, "NSE": null, "VIVTOT": 0.0, "GRAPROES": 0.0, "_ent": "30", "_mun": "141", "_loc": "0040"}, "geometry": {"type": "Polygon", "coordinates": [[[-95.17909, 18.38782], [-95.17899, 18.38732], [-95.17934, 18.38727], [-95.17941, 18.3878], [-95.17909, 18.38782]]]}}, {"id": "2354492", "type": "Feature", "properties": {"id": "2354492", "CVEGEO": "3014100400086043", "POBTOT": 0.0, "score_nse": 0.0, "NSE": null, "VIVTOT": 0.0, "GRAPROES": 0.0, "_ent": "30", "_mun": "141", "_loc": "0040"}, "geometry": {"type": "Polygon", "coordinates": [[[-95.17852, 18.38472], [-95.17835, 18.38439], [-95.17809, 18.38421], [-95.17893, 18.38423], [-95.17893, 18.38473], [-95.17852, 18.38472]]]}}, {"id": "2354493", "type": "Feature", "properties": {"id": "2354493", "CVEGEO": "3014100400086040", "POBTOT": 0.0, "score_nse": 0.0, "NSE": null, "VIVTOT": 0.0, "GRAPROES": 0.0, "_ent": "30", "_mun": "141", "_loc": "0040"}, "geometry": {"type": "Polygon", "coordinates": [[[-95.17778, 18.38567], [-95.17748, 18.38532], [-95.17761, 18.38513], [-95.17793, 18.38541], [-95.17778, 18.38567]]]}}, {"id": "2354494", "type": "Feature", "properties": {"id": "2354494", "CVEGEO": "3014100400086008", "POBTOT": 0.0, "score_nse": 0.0, "NSE": null, "VIVTOT": 0.0, "GRAPROES": 0.0, "_ent": "30", "_mun": "141", "_loc": "0040"}, "geometry": {"type": "Polygon", "coordinates": [[[-95.1787, 18.38899], [-95.17862, 18.38853], [-95.17912, 18.38849], [-95.1792, 18.38896], [-95.1787, 18.38899]]]}}, {"id": "2354495", "type": "Feature", "properties": {"id": "2354495", "CVEGEO": "3014100400086010", "POBTOT": 0.0, "score_nse": 0.0, "NSE": null, "VIVTOT": 0.0, "GRAPROES": 0.0, "_ent": "30", "_mun": "141", "_loc": "0040"}, "geometry": {"type": "Polygon", "coordinates": [[[-95.17772, 18.38679], [-95.17764, 18.3863], [-95.17812, 18.38627], [-95.17822, 18.38676], [-95.17772, 18.38679]]]}}, {"id": "2355215", "type": "Feature", "properties": {"id": "2355215", "CVEGEO": "3014100400086030", "POBTOT": 0.0, "score_nse": 0.0, "NSE": null, "VIVTOT": 0.0, "GRAPROES": 0.0, "_ent": "30", "_mun": "141", "_loc": "0040"}, "geometry": {"type": "Polygon", "coordinates": [[[-95.18113, 18.39039], [-95.17997, 18.39041], [-95.17991, 18.39008], [-95.18111, 18.39003], [-95.18113, 18.39039]]]}}, {"id": "2355216", "type": "Feature", "properties": {"id": "2355216", "CVEGEO": "3014100400086027", "POBTOT": 0.0, "score_nse": 0.0, "NSE": null, "VIVTOT": 0.0, "GRAPROES": 0.0, "_ent": "30", "_mun": "141", "_loc": "0040"}, "geometry": {"type": "Polygon", "coordinates": [[[-95.178, 18.38546], [-95.17804, 18.38576], [-95.17777, 18.38584], [-95.178, 18.38546]]]}}, {"id": "2355279", "type": "Feature", "properties": {"id": "2355279", "CVEGEO": "3014100400086018", "POBTOT": 0.0, "score_nse": 0.0, "NSE": null, "VIVTOT": 0.0, "GRAPROES": 0.0, "_ent": "30", "_mun": "141", "_loc": "0040"}, "geometry": {"type": "Polygon", "coordinates": [[[-95.17737, 18.38909], [-95.17763, 18.38854], [-95.17796, 18.38858], [-95.17804, 18.38904], [-95.17737, 18.38909]]]}}, {"id": "2355280", "type": "Feature", "properties": {"id": "2355280", "CVEGEO": "3014100400086016", "POBTOT": 0.0, "score_nse": 0.0, "NSE": null, "VIVTOT": 0.0, "GRAPROES": 0.0, "_ent": "30", "_mun": "141", "_loc": "0040"}, "geometry": {"type": "Polygon", "coordinates": [[[-95.17873, 18.38955], [-95.17823, 18.38958], [-95.17814, 18.3891], [-95.17866, 18.38907], [-95.17873, 18.38955]]]}}, {"id": "2355281", "type": "Feature", "properties": {"id": "2355281", "CVEGEO": "3014100400086014", "POBTOT": 0.0, "score_nse": 0.0, "NSE": null, "VIVTOT": 0.0, "GRAPROES": 0.0, "_ent": "30", "_mun": "141", "_loc": "0040"}, "geometry": {"type": "Polygon", "coordinates": [[[-95.17971, 18.38901], [-95.17979, 18.38951], [-95.17939, 18.38952], [-95.1793, 18.38904], [-95.17971, 18.38901]]]}}, {"id": "2355282", "type": "Feature", "properties": {"id": "2355282", "CVEGEO": "3014100400086004", "POBTOT": 0.0, "score_nse": 0.0, "NSE": null, "VIVTOT": 0.0, "GRAPROES": 0.0, "_ent": "30", "_mun": "141", "_loc": "0040"}, "geometry": {"type": "Polygon", "coordinates": [[[-95.17934, 18.38721], [-95.17897, 18.38725], [-95.17888, 18.38679], [-95.17925, 18.38676], [-95.17934, 18.38721]]]}}, {"id": "2355675", "type": "Feature", "properties": {"id": "2355675", "CVEGEO": "3014100400086037", "POBTOT": 0.0, "score_nse": 0.0, "NSE": null, "VIVTOT": 0.0, "GRAPROES": 0.0, "_ent": "30", "_mun": "141", "_loc": "0040"}, "geometry": {"type": "Polygon", "coordinates": [[[-95.17846, 18.3876], [-95.17842, 18.38737], [-95.17891, 18.38734], [-95.17895, 18.38757], [-95.17846, 18.3876]]]}}, {"id": "2356052", "type": "Feature", "properties": {"id": "2356052", "CVEGEO": "3014100400086034", "POBTOT": 0.0, "score_nse": 0.0, "NSE": null, "VIVTOT": 0.0, "GRAPROES": 0.0, "_ent": "30", "_mun": "141", "_loc": "0040"}, "geometry": {"type": "Polygon", "coordinates": [[[-95.1793, 18.38671], [-95.1792, 18.38614], [-95.17877, 18.38617], [-95.17867, 18.38563], [-95.17889, 18.3856], [-95.17894, 18.38597], [-95.17954, 18.38595], [-95.17963, 18.3867], [-95.1793, 18.38671]]]}}, {"id": "2356053", "type": "Feature", "properties": {"id": "2356053", "CVEGEO": "3014100400086026", "POBTOT": 0.0, "score_nse": 0.0, "NSE": null, "VIVTOT": 0.0, "GRAPROES": 0.0, "_ent": "30", "_mun": "141", "_loc": "0040"}, "geometry": {"type": "Polygon", "coordinates": [[[-95.17774, 18.38733], [-95.17705, 18.3874], [-95.17742, 18.38631], [-95.17754, 18.38632], [-95.17774, 18.38733]]]}}, {"id": "2356054", "type": "Feature", "properties": {"id": "2356054", "CVEGEO": "3014100400086024", "POBTOT": 0.0, "score_nse": 0.0, "NSE": null, "VIVTOT": 0.0, "GRAPROES": 0.0, "_ent": "30", "_mun": "141", "_loc": "0040"}, "geometry": {"type": "Polygon", "coordinates": [[[-95.17887, 18.39036], [-95.17834, 18.39041], [-95.17823, 18.38964], [-95.17875, 18.38962], [-95.17887, 18.39036]]]}}, {"id": "2356055", "type": "Feature", "properties": {"id": "2356055", "CVEGEO": "3014100400086022", "POBTOT": 0.0, "score_nse": 0.0, "NSE": null, "VIVTOT": 0.0, "GRAPROES": 0.0, "_ent": "30", "_mun": "141", "_loc": "0040"}, "geometry": {"type": "Polygon", "coordinates": [[[-95.17979, 18.38956], [-95.17991, 18.39032], [-95.17966, 18.39034], [-95.1794, 18.38959], [-95.17979, 18.38956]]]}}, {"id": "2356057", "type": "Feature", "properties": {"id": "2356057", "CVEGEO": "3014100400086002", "POBTOT": 0.0, "score_nse": 0.0, "NSE": null, "VIVTOT": 0.0, "GRAPROES": 0.0, "_ent": "30", "_mun": "141", "_loc": "0040"}, "geometry": {"type": "Polygon", "coordinates": [[[-95.17781, 18.38733], [-95.17773, 18.38685], [-95.17824, 18.38682], [-95.17833, 18.38731], [-95.17781, 18.38733]]]}}, {"id": "2356509", "type": "Feature", "properties": {"id": "2356509", "CVEGEO": "3014100400086025", "POBTOT": 0.0, "score_nse": 0.0, "NSE": null, "VIVTOT": 0.0, "GRAPROES": 0.0, "_ent": "30", "_mun": "141", "_loc": "0040"}, "geometry": {"type": "Polygon", "coordinates": [[[-95.17827, 18.39042], [-95.17785, 18.39044], [-95.17773, 18.38965], [-95.17815, 18.38964], [-95.17827, 18.39042]]]}}, {"id": "2356510", "type": "Feature", "properties": {"id": "2356510", "CVEGEO": "3014100400086021", "POBTOT": 0.0, "score_nse": 0.0, "NSE": null, "VIVTOT": 0.0, "GRAPROES": 0.0, "_ent": "30", "_mun": "141", "_loc": "0040"}, "geometry": {"type": "Polygon", "coordinates": [[[-95.17863, 18.38574], [-95.1787, 18.38617], [-95.1782, 18.38621], [-95.17814, 18.38582], [-95.17863, 18.38574]]]}}, {"id": "2356511", "type": "Feature", "properties": {"id": "2356511", "CVEGEO": "3014100400086020", "POBTOT": 0.0, "score_nse": 0.0, "NSE": null, "VIVTOT": 0.0, "GRAPROES": 0.0, "_ent": "30", "_mun": "141", "_loc": "0040"}, "geometry": {"type": "Polygon", "coordinates": [[[-95.1777, 18.38624], [-95.17776, 18.38589], [-95.17805, 18.38584], [-95.17811, 18.38622], [-95.1777, 18.38624]]]}}, {"id": "2356512", "type": "Feature", "properties": {"id": "2356512", "CVEGEO": "3014100400086009", "POBTOT": 0.0, "score_nse": 0.0, "NSE": null, "VIVTOT": 0.0, "GRAPROES": 0.0, "_ent": "30", "_mun": "141", "_loc": "0040"}, "geometry": {"type": "Polygon", "coordinates": [[[-95.17856, 18.38853], [-95.17864, 18.38899], [-95.17813, 18.38903], [-95.17806, 18.38857], [-95.17856, 18.38853]]]}}, {"id": "2356610", "type": "Feature", "properties": {"id": "2356610", "CVEGEO": "3014100400086001", "POBTOT": 0.0, "score_nse": 0.0, "NSE": null, "VIVTOT": 0.0, "GRAPROES": 0.0, "_ent": "30", "_mun": "141", "_loc": "0040"}, "geometry": {"type": "Polygon", "coordinates": [[[-95.1791, 18.3884], [-95.17805, 18.3885], [-95.17789, 18.38768], [-95.17896, 18.3876], [-95.1791, 18.3884]]]}}, {"id": "2357105", "type": "Feature", "properties": {"id": "2357105", "CVEGEO": "3014100400086029", "POBTOT": 0.0, "score_nse": 0.0, "NSE": null, "VIVTOT": 0.0, "GRAPROES": 0.0, "_ent": "30", "_mun": "141", "_loc": "0040"}, "geometry": {"type": "Polygon", "coordinates": [[[-95.1811, 18.38999], [-95.17988, 18.39004], [-95.17984, 18.38937], [-95.18018, 18.38936], [-95.18024, 18.38984], [-95.18022, 18.38936], [-95.18063, 18.38934], [-95.18074, 18.38985], [-95.18068, 18.38934], [-95.18105, 18.38933], [-95.1811, 18.38999]]]}}]}