{"type": "FeatureCollection", "features": [{"id": "1888458", "type": "Feature", "properties": {"id": "1888458", "CVEGEO": "2405000640031001", "POBTOT": 0.0, "score_nse": 0.0, "NSE": null, "VIVTOT": 0.0, "GRAPROES": 0.0, "_ent": "24", "_mun": "050", "_loc": "0064"}, "geometry": {"type": "Polygon", "coordinates": [[[-100.90427, 21.89557], [-100.90397, 21.89533], [-100.90451, 21.89343], [-100.90529, 21.89359], [-100.90427, 21.89557]]]}}, {"id": "1888459", "type": "Feature", "properties": {"id": "1888459", "CVEGEO": "2405000640031002", "POBTOT": 0.0, "score_nse": 0.0, "NSE": null, "VIVTOT": 0.0, "GRAPROES": 0.0, "_ent": "24", "_mun": "050", "_loc": "0064"}, "geometry": {"type": "Polygon", "coordinates": [[[-100.90473, 21.89492], [-100.9052, 21.89386], [-100.9062, 21.89408], [-100.90604, 21.89453], [-100.90496, 21.89506], [-100.90473, 21.89492]]]}}, {"id": "1888460", "type": "Feature", "properties": {"id": "1888460", "CVEGEO": "2405000640031003", "POBTOT": 0.0, "score_nse": 0.0, "NSE": null, "VIVTOT": 0.0, "GRAPROES": 0.0, "_ent": "24", "_mun": "050", "_loc": "0064"}, "geometry": {"type": "Polygon", "coordinates": [[[-100.90435, 21.89646], [-100.90508, 21.89505], [-100.90566, 21.89474], [-100.90597, 21.89464], [-100.90668, 21.89535], [-100.90614, 21.89579], [-100.90638, 21.89672], [-100.90585, 21.89684], [-100.90435, 21.89646]]]}}, {"id": "1888461", "type": "Feature", "properties": {"id": "1888461", "CVEGEO": "2405000640031004", "POBTOT": 0.0, "score_nse": 0.0, "NSE": null, "VIVTOT": 0.0, "GRAPROES": 0.0, "_ent": "24", "_mun": "050", "_loc": "0064"}, "geometry": {"type": "Polygon", "coordinates": [[[-100.90385, 21.8972], [-100.90429, 21.89652], [-100.9058, 21.89692], [-100.90554, 21.89757], [-100.90385, 21.8972]]]}}, {"id": "1888462", "type": "Feature", "properties": {"id": "1888462", "CVEGEO": "2405000640031005", "POBTOT": 0.0, "score_nse": 0.0, "NSE": null, "VIVTOT": 0.0, "GRAPROES": 0.0, "_ent": "24", "_mun": "050", "_loc": "0064"}, "geometry": {"type": "Polygon", "coordinates": [[[-100.90376, 21.89715], [-100.90344, 21.89598], [-100.90394, 21.89537], [-100.90426, 21.89564], [-100.90442, 21.89618], [-100.90376, 21.89715]]]}}, {"id": "1888463", "type": "Feature", "properties": {"id": "1888463", "CVEGEO": "2405000640031006", "POBTOT": 0.0, "score_nse": 0.0, "NSE": null, "VIVTOT": 0.0, "GRAPROES": 0.0, "_ent": "24", "_mun": "050", "_loc": "0064"}, "geometry": {"type": "Polygon", "coordinates": [[[-100.90437, 21.89593], [-100.90438, 21.89536], [-100.90473, 21.89499], [-100.90492, 21.89522], [-100.90482, 21.8956], [-100.90456, 21.89599], [-100.90437, 21.89593]]]}}]}