{"type": "FeatureCollection", "features": [{"id": "2140620", "type": "Feature", "properties": {"id": "2140620", "CVEGEO": "2801800580333002", "POBTOT": 0.0, "score_nse": 0.0, "NSE": null, "VIVTOT": 0.0, "GRAPROES": 0.0, "_ent": "28", "_mun": "018", "_loc": "0058"}, "geometry": {"type": "Polygon", "coordinates": [[[-98.41942, 24.34141], [-98.41993, 24.34064], [-98.42054, 24.34086], [-98.42009, 24.34162], [-98.41942, 24.34141]]]}}, {"id": "2140621", "type": "Feature", "properties": {"id": "2140621", "CVEGEO": "2801800580333001", "POBTOT": 0.0, "score_nse": 0.0, "NSE": null, "VIVTOT": 0.0, "GRAPROES": 0.0, "_ent": "28", "_mun": "018", "_loc": "0058"}, "geometry": {"type": "Polygon", "coordinates": [[[-98.41901, 24.34201], [-98.41935, 24.34152], [-98.42002, 24.34171], [-98.41969, 24.34222], [-98.41901, 24.34201]]]}}, {"id": "2140644", "type": "Feature", "properties": {"id": "2140644", "CVEGEO": "2801800580333003", "POBTOT": 0.0, "score_nse": 0.0, "NSE": null, "VIVTOT": 0.0, "GRAPROES": 0.0, "_ent": "28", "_mun": "018", "_loc": "0058"}, "geometry": {"type": "Polygon", "coordinates": [[[-98.41836, 24.34105], [-98.4189, 24.34028], [-98.41981, 24.34059], [-98.4193, 24.34135], [-98.41836, 24.34105]]]}}, {"id": "2140732", "type": "Feature", "properties": {"id": "2140732", "CVEGEO": "2801800580333017", "POBTOT": 0.0, "score_nse": 0.0, "NSE": null, "VIVTOT": 0.0, "GRAPROES": 0.0, "_ent": "28", "_mun": "018", "_loc": "0058"}, "geometry": {"type": "Polygon", "coordinates": [[[-98.41862, 24.33703], [-98.41952, 24.33734], [-98.41897, 24.33811], [-98.4181, 24.33784], [-98.41862, 24.33703]]]}}, {"id": "2140733", "type": "Feature", "properties": {"id": "2140733", "CVEGEO": "2801800580333015", "POBTOT": 0.0, "score_nse": 0.0, "NSE": null, "VIVTOT": 0.0, "GRAPROES": 0.0, "_ent": "28", "_mun": "018", "_loc": "0058"}, "geometry": {"type": "Polygon", "coordinates": [[[-98.42171, 24.338], [-98.42222, 24.33817], [-98.4217, 24.33894], [-98.42118, 24.33878], [-98.42171, 24.338]]]}}, {"id": "2140734", "type": "Feature", "properties": {"id": "2140734", "CVEGEO": "2801800580333014", "POBTOT": 0.0, "score_nse": 0.0, "NSE": null, "VIVTOT": 0.0, "GRAPROES": 0.0, "_ent": "28", "_mun": "018", "_loc": "0058"}, "geometry": {"type": "Polygon", "coordinates": [[[-98.41804, 24.33791], [-98.41892, 24.33818], [-98.4184, 24.33897], [-98.4175, 24.33867], [-98.41804, 24.33791]]]}}, {"id": "2140735", "type": "Feature", "properties": {"id": "2140735", "CVEGEO": "2801800580333013", "POBTOT": 0.0, "score_nse": 0.0, "NSE": null, "VIVTOT": 0.0, "GRAPROES": 0.0, "_ent": "28", "_mun": "018", "_loc": "0058"}, "geometry": {"type": "Polygon", "coordinates": [[[-98.41903, 24.33823], [-98.41995, 24.33853], [-98.41942, 24.33931], [-98.41852, 24.33902], [-98.41903, 24.33823]]]}}, {"id": "2140736", "type": "Feature", "properties": {"id": "2140736", "CVEGEO": "2801800580333012", "POBTOT": 0.0, "score_nse": 0.0, "NSE": null, "VIVTOT": 0.0, "GRAPROES": 0.0, "_ent": "28", "_mun": "018", "_loc": "0058"}, "geometry": {"type": "Polygon", "coordinates": [[[-98.42005, 24.33856], [-98.42101, 24.33884], [-98.42046, 24.33963], [-98.41952, 24.33935], [-98.42005, 24.33856]]]}}, {"id": "2140900", "type": "Feature", "properties": {"id": "2140900", "CVEGEO": "2801800580333011", "POBTOT": 0.0, "score_nse": 0.0, "NSE": null, "VIVTOT": 0.0, "GRAPROES": 0.0, "_ent": "28", "_mun": "018", "_loc": "0058"}, "geometry": {"type": "Polygon", "coordinates": [[[-98.42113, 24.33887], [-98.42163, 24.33904], [-98.42111, 24.33983], [-98.42057, 24.33967], [-98.42113, 24.33887]]]}}, {"id": "2140901", "type": "Feature", "properties": {"id": "2140901", "CVEGEO": "2801800580333010", "POBTOT": 0.0, "score_nse": 0.0, "NSE": null, "VIVTOT": 0.0, "GRAPROES": 0.0, "_ent": "28", "_mun": "018", "_loc": "0058"}, "geometry": {"type": "Polygon", "coordinates": [[[-98.41692, 24.33951], [-98.41742, 24.33877], [-98.41833, 24.33906], [-98.41782, 24.33981], [-98.41692, 24.33951]]]}}, {"id": "2140902", "type": "Feature", "properties": {"id": "2140902", "CVEGEO": "2801800580333009", "POBTOT": 0.0, "score_nse": 0.0, "NSE": null, "VIVTOT": 0.0, "GRAPROES": 0.0, "_ent": "28", "_mun": "018", "_loc": "0058"}, "geometry": {"type": "Polygon", "coordinates": [[[-98.41792, 24.33987], [-98.41843, 24.33911], [-98.41935, 24.33939], [-98.41884, 24.34015], [-98.41792, 24.33987]]]}}, {"id": "2140903", "type": "Feature", "properties": {"id": "2140903", "CVEGEO": "2801800580333008", "POBTOT": 0.0, "score_nse": 0.0, "NSE": null, "VIVTOT": 0.0, "GRAPROES": 0.0, "_ent": "28", "_mun": "018", "_loc": "0058"}, "geometry": {"type": "Polygon", "coordinates": [[[-98.41895, 24.34021], [-98.41947, 24.33943], [-98.4204, 24.33972], [-98.41988, 24.34049], [-98.41895, 24.34021]]]}}, {"id": "2140904", "type": "Feature", "properties": {"id": "2140904", "CVEGEO": "2801800580333007", "POBTOT": 0.0, "score_nse": 0.0, "NSE": null, "VIVTOT": 0.0, "GRAPROES": 0.0, "_ent": "28", "_mun": "018", "_loc": "0058"}, "geometry": {"type": "Polygon", "coordinates": [[[-98.42104, 24.33993], [-98.42055, 24.34071], [-98.41999, 24.34053], [-98.42052, 24.33976], [-98.42104, 24.33993]]]}}, {"id": "2140905", "type": "Feature", "properties": {"id": "2140905", "CVEGEO": "2801800580333006", "POBTOT": 0.0, "score_nse": 0.0, "NSE": null, "VIVTOT": 0.0, "GRAPROES": 0.0, "_ent": "28", "_mun": "018", "_loc": "0058"}, "geometry": {"type": "Polygon", "coordinates": [[[-98.41573, 24.34012], [-98.41626, 24.33937], [-98.41673, 24.33953], [-98.41617, 24.34031], [-98.41573, 24.34012]]]}}, {"id": "2140906", "type": "Feature", "properties": {"id": "2140906", "CVEGEO": "2801800580333005", "POBTOT": 0.0, "score_nse": 0.0, "NSE": null, "VIVTOT": 0.0, "GRAPROES": 0.0, "_ent": "28", "_mun": "018", "_loc": "0058"}, "geometry": {"type": "Polygon", "coordinates": [[[-98.41627, 24.34036], [-98.41684, 24.33957], [-98.41776, 24.33988], [-98.4172, 24.34069], [-98.41627, 24.34036]]]}}, {"id": "2140907", "type": "Feature", "properties": {"id": "2140907", "CVEGEO": "2801800580333004", "POBTOT": 0.0, "score_nse": 0.0, "NSE": null, "VIVTOT": 0.0, "GRAPROES": 0.0, "_ent": "28", "_mun": "018", "_loc": "0058"}, "geometry": {"type": "Polygon", "coordinates": [[[-98.41735, 24.34074], [-98.41786, 24.33994], [-98.41875, 24.34025], [-98.41825, 24.34103], [-98.41735, 24.34074]]]}}, {"id": "2141209", "type": "Feature", "properties": {"id": "2141209", "CVEGEO": "2801800580333016", "POBTOT": 0.0, "score_nse": 0.0, "NSE": null, "VIVTOT": 0.0, "GRAPROES": 0.0, "_ent": "28", "_mun": "018", "_loc": "0058"}, "geometry": {"type": "Polygon", "coordinates": [[[-98.42161, 24.33795], [-98.42107, 24.33874], [-98.42008, 24.33845], [-98.4206, 24.33767], [-98.42161, 24.33795]]]}}, {"id": "2141210", "type": "Feature", "properties": {"id": "2141210", "CVEGEO": "2801800580333018", "POBTOT": 0.0, "score_nse": 0.0, "NSE": null, "VIVTOT": 0.0, "GRAPROES": 0.0, "_ent": "28", "_mun": "018", "_loc": "0058"}, "geometry": {"type": "Polygon", "coordinates": [[[-98.41961, 24.33736], [-98.42051, 24.33765], [-98.42002, 24.33843], [-98.41908, 24.33814], [-98.41961, 24.33736]]]}}]}