{"type": "FeatureCollection", "features": [{"id": "917275", "type": "Feature", "properties": {"id": "917275", "CVEGEO": "1402300280026002", "POBTOT": 0.0, "score_nse": 0.0, "NSE": null, "VIVTOT": 0.0, "GRAPROES": 0.0, "_ent": "14", "_mun": "023", "_loc": "0028"}, "geometry": {"type": "Polygon", "coordinates": [[[-103.45694, 19.76747], [-103.45705, 19.77158], [-103.45489, 19.77204], [-103.45457, 19.77112], [-103.45557, 19.77092], [-103.45592, 19.77063], [-103.45611, 19.76995], [-103.45596, 19.76899], [-103.45605, 19.76784], [-103.45632, 19.76739], [-103.45678, 19.76731], [-103.45694, 19.76747]]]}}, {"id": "917276", "type": "Feature", "properties": {"id": "917276", "CVEGEO": "1402300280026004", "POBTOT": 0.0, "score_nse": 0.0, "NSE": null, "VIVTOT": 0.0, "GRAPROES": 0.0, "_ent": "14", "_mun": "023", "_loc": "0028"}, "geometry": {"type": "Polygon", "coordinates": [[[-103.46108, 19.77039], [-103.46036, 19.7705], [-103.45963, 19.77014], [-103.45918, 19.76946], [-103.45884, 19.76956], [-103.45871, 19.76907], [-103.45872, 19.76841], [-103.45928, 19.76739], [-103.46035, 19.76685], [-103.46057, 19.76715], [-103.46036, 19.76788], [-103.46042, 19.76882], [-103.46008, 19.76967], [-103.46012, 19.76998], [-103.46108, 19.77039]]]}}, {"id": "917277", "type": "Feature", "properties": {"id": "917277", "CVEGEO": "1402300280026005", "POBTOT": 0.0, "score_nse": 0.0, "NSE": null, "VIVTOT": 0.0, "GRAPROES": 0.0, "_ent": "14", "_mun": "023", "_loc": "0028"}, "geometry": {"type": "Polygon", "coordinates": [[[-103.46163, 19.77103], [-103.4613, 19.7708], [-103.45949, 19.77094], [-103.45814, 19.77145], [-103.45897, 19.76952], [-103.45938, 19.76971], [-103.45962, 19.7702], [-103.46025, 19.77049], [-103.46147, 19.77053], [-103.4617, 19.77084], [-103.46163, 19.77103]]]}}, {"id": "917278", "type": "Feature", "properties": {"id": "917278", "CVEGEO": "1402300280026006", "POBTOT": 0.0, "score_nse": 0.0, "NSE": null, "VIVTOT": 0.0, "GRAPROES": 0.0, "_ent": "14", "_mun": "023", "_loc": "0028"}, "geometry": {"type": "Polygon", "coordinates": [[[-103.46157, 19.77106], [-103.46123, 19.7713], [-103.45826, 19.77198], [-103.45514, 19.77249], [-103.45502, 19.77201], [-103.45697, 19.77162], [-103.45782, 19.77164], [-103.45949, 19.771], [-103.46132, 19.77084], [-103.46157, 19.77106]]]}}, {"id": "917290", "type": "Feature", "properties": {"id": "917290", "CVEGEO": "1402300280026003", "POBTOT": 0.0, "score_nse": 0.0, "NSE": null, "VIVTOT": 0.0, "GRAPROES": 0.0, "_ent": "14", "_mun": "023", "_loc": "0028"}, "geometry": {"type": "Polygon", "coordinates": [[[-103.45388, 19.77037], [-103.45363, 19.76976], [-103.45469, 19.76966], [-103.45461, 19.76908], [-103.45478, 19.76898], [-103.45476, 19.76874], [-103.45521, 19.76865], [-103.45559, 19.76696], [-103.45747, 19.76639], [-103.45774, 19.76594], [-103.45779, 19.7655], [-103.45825, 19.76539], [-103.45856, 19.76509], [-103.45781, 19.76649], [-103.45723, 19.76664], [-103.45633, 19.76716], [-103.45591, 19.76853], [-103.45599, 19.7698], [-103.45388, 19.77037]]]}}, {"id": "917291", "type": "Feature", "properties": {"id": "917291", "CVEGEO": "1402300280026007", "POBTOT": 0.0, "score_nse": 0.0, "NSE": null, "VIVTOT": 0.0, "GRAPROES": 0.0, "_ent": "14", "_mun": "023", "_loc": "0028"}, "geometry": {"type": "Polygon", "coordinates": [[[-103.45603, 19.76983], [-103.45588, 19.77063], [-103.45553, 19.7709], [-103.45495, 19.771], [-103.4546, 19.77019], [-103.45603, 19.76983]]]}}, {"id": "917292", "type": "Feature", "properties": {"id": "917292", "CVEGEO": "1402300280026001", "POBTOT": 0.0, "score_nse": 0.0, "NSE": null, "VIVTOT": 0.0, "GRAPROES": 0.0, "_ent": "14", "_mun": "023", "_loc": "0028"}, "geometry": {"type": "Polygon", "coordinates": [[[-103.45808, 19.7715], [-103.45779, 19.77163], [-103.45716, 19.77142], [-103.45697, 19.76875], [-103.45707, 19.76764], [-103.45689, 19.7673], [-103.45643, 19.76738], [-103.45634, 19.76726], [-103.45745, 19.76658], [-103.45782, 19.76654], [-103.45861, 19.76506], [-103.45804, 19.76683], [-103.45762, 19.76748], [-103.45752, 19.76774], [-103.45742, 19.7688], [-103.45749, 19.76914], [-103.45755, 19.76775], [-103.45793, 19.7672], [-103.45868, 19.76512], [-103.46031, 19.76683], [-103.45941, 19.76714], [-103.45869, 19.76835], [-103.45845, 19.76932], [-103.45868, 19.76867], [-103.45879, 19.76957], [-103.45851, 19.77076], [-103.45808, 19.7715]]]}}]}