{"type": "FeatureCollection", "features": [{"id": "1434979", "type": "Feature", "properties": {"id": "1434979", "CVEGEO": "1901700110799051", "POBTOT": 0.0, "score_nse": 0.0, "NSE": null, "VIVTOT": 0.0, "GRAPROES": 0.0, "_ent": "19", "_mun": "017", "_loc": "0011"}, "geometry": {"type": "Polygon", "coordinates": [[[-100.50378, 25.05975], [-100.50376, 25.05929], [-100.5042, 25.05925], [-100.50421, 25.05974], [-100.50378, 25.05975]]]}}, {"id": "1435062", "type": "Feature", "properties": {"id": "1435062", "CVEGEO": "1901700110799118", "POBTOT": 0.0, "score_nse": 0.0, "NSE": null, "VIVTOT": 0.0, "GRAPROES": 0.0, "_ent": "19", "_mun": "017", "_loc": "0011"}, "geometry": {"type": "Polygon", "coordinates": [[[-100.50539, 25.06032], [-100.5048, 25.0603], [-100.50477, 25.05974], [-100.50531, 25.05969], [-100.50539, 25.06032]]]}}, {"id": "1435063", "type": "Feature", "properties": {"id": "1435063", "CVEGEO": "1901700110799109", "POBTOT": 0.0, "score_nse": 0.0, "NSE": null, "VIVTOT": 0.0, "GRAPROES": 0.0, "_ent": "19", "_mun": "017", "_loc": "0011"}, "geometry": {"type": "Polygon", "coordinates": [[[-100.49889, 25.05932], [-100.49886, 25.05903], [-100.49939, 25.05879], [-100.49946, 25.05924], [-100.49889, 25.05932]]]}}, {"id": "1435064", "type": "Feature", "properties": {"id": "1435064", "CVEGEO": "1901700110799089", "POBTOT": 0.0, "score_nse": 0.0, "NSE": null, "VIVTOT": 0.0, "GRAPROES": 0.0, "_ent": "19", "_mun": "017", "_loc": "0011"}, "geometry": {"type": "Polygon", "coordinates": [[[-100.50022, 25.05648], [-100.4997, 25.05628], [-100.49997, 25.05568], [-100.50015, 25.05589], [-100.50022, 25.05648]]]}}, {"id": "1435065", "type": "Feature", "properties": {"id": "1435065", "CVEGEO": "1901700110799055", "POBTOT": 0.0, "score_nse": 0.0, "NSE": null, "VIVTOT": 0.0, "GRAPROES": 0.0, "_ent": "19", "_mun": "017", "_loc": "0011"}, "geometry": {"type": "Polygon", "coordinates": [[[-100.50224, 25.05954], [-100.50174, 25.05955], [-100.50162, 25.059], [-100.50221, 25.05893], [-100.50224, 25.05954]]]}}, {"id": "1435066", "type": "Feature", "properties": {"id": "1435066", "CVEGEO": "1901700110799054", "POBTOT": 0.0, "score_nse": 0.0, "NSE": null, "VIVTOT": 0.0, "GRAPROES": 0.0, "_ent": "19", "_mun": "017", "_loc": "0011"}, "geometry": {"type": "Polygon", "coordinates": [[[-100.50276, 25.05974], [-100.5023, 25.05978], [-100.50229, 25.05935], [-100.50272, 25.05931], [-100.50276, 25.05974]]]}}, {"id": "1435067", "type": "Feature", "properties": {"id": "1435067", "CVEGEO": "1901700110799019", "POBTOT": 0.0, "score_nse": 0.0, "NSE": null, "VIVTOT": 0.0, "GRAPROES": 0.0, "_ent": "19", "_mun": "017", "_loc": "0011"}, "geometry": {"type": "Polygon", "coordinates": [[[-100.50191, 25.06132], [-100.50188, 25.06205], [-100.50092, 25.06205], [-100.50086, 25.06151], [-100.50191, 25.06132]]]}}, {"id": "1435068", "type": "Feature", "properties": {"id": "1435068", "CVEGEO": "1901700110799017", "POBTOT": 0.0, "score_nse": 0.0, "NSE": null, "VIVTOT": 0.0, "GRAPROES": 0.0, "_ent": "19", "_mun": "017", "_loc": "0011"}, "geometry": {"type": "Polygon", "coordinates": [[[-100.50251, 25.06202], [-100.50249, 25.06165], [-100.50317, 25.06159], [-100.50316, 25.06198], [-100.50251, 25.06202]]]}}, {"id": "1435071", "type": "Feature", "properties": {"id": "1435071", "CVEGEO": "1901700110799069", "POBTOT": 0.0, "score_nse": 0.0, "NSE": null, "VIVTOT": 0.0, "GRAPROES": 0.0, "_ent": "19", "_mun": "017", "_loc": "0011"}, "geometry": {"type": "Polygon", "coordinates": [[[-100.50056, 25.05881], [-100.50025, 25.05838], [-100.5009, 25.05839], [-100.50099, 25.05865], [-100.50056, 25.05881]]]}}, {"id": "1435072", "type": "Feature", "properties": {"id": "1435072", "CVEGEO": "1901700110799031", "POBTOT": 0.0, "score_nse": 0.0, "NSE": null, "VIVTOT": 0.0, "GRAPROES": 0.0, "_ent": "19", "_mun": "017", "_loc": "0011"}, "geometry": {"type": "Polygon", "coordinates": [[[-100.5038, 25.06085], [-100.50381, 25.06029], [-100.50425, 25.06031], [-100.50425, 25.06089], [-100.5038, 25.06085]]]}}, {"id": "1435073", "type": "Feature", "properties": {"id": "1435073", "CVEGEO": "1901700110799117", "POBTOT": 0.0, "score_nse": 0.0, "NSE": null, "VIVTOT": 0.0, "GRAPROES": 0.0, "_ent": "19", "_mun": "017", "_loc": "0011"}, "geometry": {"type": "Polygon", "coordinates": [[[-100.50606, 25.06037], [-100.50543, 25.06032], [-100.50538, 25.05968], [-100.50602, 25.05965], [-100.50606, 25.06037]]]}}, {"id": "1435222", "type": "Feature", "properties": {"id": "1435222", "CVEGEO": "1901700110799116", "POBTOT": 0.0, "score_nse": 0.0, "NSE": null, "VIVTOT": 0.0, "GRAPROES": 0.0, "_ent": "19", "_mun": "017", "_loc": "0011"}, "geometry": {"type": "Polygon", "coordinates": [[[-100.50545, 25.06087], [-100.50483, 25.06091], [-100.5048, 25.06033], [-100.50538, 25.06037], [-100.50545, 25.06087]]]}}, {"id": "1435223", "type": "Feature", "properties": {"id": "1435223", "CVEGEO": "1901700110799115", "POBTOT": 0.0, "score_nse": 0.0, "NSE": null, "VIVTOT": 0.0, "GRAPROES": 0.0, "_ent": "19", "_mun": "017", "_loc": "0011"}, "geometry": {"type": "Polygon", "coordinates": [[[-100.50606, 25.0604], [-100.5061, 25.06089], [-100.5055, 25.06088], [-100.50544, 25.06037], [-100.50606, 25.0604]]]}}, {"id": "1435224", "type": "Feature", "properties": {"id": "1435224", "CVEGEO": "1901700110799114", "POBTOT": 0.0, "score_nse": 0.0, "NSE": null, "VIVTOT": 0.0, "GRAPROES": 0.0, "_ent": "19", "_mun": "017", "_loc": "0011"}, "geometry": {"type": "Polygon", "coordinates": [[[-100.50482, 25.06152], [-100.5043, 25.06138], [-100.5043, 25.06092], [-100.5048, 25.06096], [-100.50482, 25.06152]]]}}, {"id": "1435225", "type": "Feature", "properties": {"id": "1435225", "CVEGEO": "1901700110799113", "POBTOT": 0.0, "score_nse": 0.0, "NSE": null, "VIVTOT": 0.0, "GRAPROES": 0.0, "_ent": "19", "_mun": "017", "_loc": "0011"}, "geometry": {"type": "Polygon", "coordinates": [[[-100.50547, 25.06164], [-100.50486, 25.06151], [-100.50484, 25.06094], [-100.50546, 25.06091], [-100.50547, 25.06164]]]}}, {"id": "1435226", "type": "Feature", "properties": {"id": "1435226", "CVEGEO": "1901700110799112", "POBTOT": 0.0, "score_nse": 0.0, "NSE": null, "VIVTOT": 0.0, "GRAPROES": 0.0, "_ent": "19", "_mun": "017", "_loc": "0011"}, "geometry": {"type": "Polygon", "coordinates": [[[-100.5061, 25.06093], [-100.50613, 25.06183], [-100.50558, 25.0617], [-100.5055, 25.06092], [-100.5061, 25.06093]]]}}, {"id": "1435227", "type": "Feature", "properties": {"id": "1435227", "CVEGEO": "1901700110799110", "POBTOT": 0.0, "score_nse": 0.0, "NSE": null, "VIVTOT": 0.0, "GRAPROES": 0.0, "_ent": "19", "_mun": "017", "_loc": "0011"}, "geometry": {"type": "Polygon", "coordinates": [[[-100.49933, 25.05829], [-100.50002, 25.05801], [-100.49985, 25.05856], [-100.49942, 25.05874], [-100.49933, 25.05829]]]}}, {"id": "1435228", "type": "Feature", "properties": {"id": "1435228", "CVEGEO": "1901700110799079", "POBTOT": 0.0, "score_nse": 0.0, "NSE": null, "VIVTOT": 0.0, "GRAPROES": 0.0, "_ent": "19", "_mun": "017", "_loc": "0011"}, "geometry": {"type": "Polygon", "coordinates": [[[-100.50173, 25.05745], [-100.50211, 25.05748], [-100.50214, 25.05789], [-100.5016, 25.05773], [-100.50173, 25.05745]]]}}, {"id": "1435229", "type": "Feature", "properties": {"id": "1435229", "CVEGEO": "1901700110799078", "POBTOT": 0.0, "score_nse": 0.0, "NSE": null, "VIVTOT": 0.0, "GRAPROES": 0.0, "_ent": "19", "_mun": "017", "_loc": "0011"}, "geometry": {"type": "Polygon", "coordinates": [[[-100.50217, 25.05792], [-100.50216, 25.05748], [-100.50315, 25.05752], [-100.50319, 25.05787], [-100.50217, 25.05792]]]}}, {"id": "1435230", "type": "Feature", "properties": {"id": "1435230", "CVEGEO": "1901700110799076", "POBTOT": 0.0, "score_nse": 0.0, "NSE": null, "VIVTOT": 0.0, "GRAPROES": 0.0, "_ent": "19", "_mun": "017", "_loc": "0011"}, "geometry": {"type": "Polygon", "coordinates": [[[-100.50089, 25.05835], [-100.50009, 25.05834], [-100.50013, 25.05789], [-100.50082, 25.0581], [-100.50089, 25.05835]]]}}, {"id": "1435231", "type": "Feature", "properties": {"id": "1435231", "CVEGEO": "1901700110799075", "POBTOT": 0.0, "score_nse": 0.0, "NSE": null, "VIVTOT": 0.0, "GRAPROES": 0.0, "_ent": "19", "_mun": "017", "_loc": "0011"}, "geometry": {"type": "Polygon", "coordinates": [[[-100.50099, 25.05823], [-100.50081, 25.0577], [-100.5009, 25.05758], [-100.50128, 25.05822], [-100.50099, 25.05823]]]}}, {"id": "1435232", "type": "Feature", "properties": {"id": "1435232", "CVEGEO": "1901700110799074", "POBTOT": 0.0, "score_nse": 0.0, "NSE": null, "VIVTOT": 0.0, "GRAPROES": 0.0, "_ent": "19", "_mun": "017", "_loc": "0011"}, "geometry": {"type": "Polygon", "coordinates": [[[-100.50215, 25.05828], [-100.50151, 25.05824], [-100.50158, 25.05775], [-100.50214, 25.05793], [-100.50215, 25.05828]]]}}, {"id": "1435233", "type": "Feature", "properties": {"id": "1435233", "CVEGEO": "1901700110799073", "POBTOT": 0.0, "score_nse": 0.0, "NSE": null, "VIVTOT": 0.0, "GRAPROES": 0.0, "_ent": "19", "_mun": "017", "_loc": "0011"}, "geometry": {"type": "Polygon", "coordinates": [[[-100.50222, 25.05844], [-100.50217, 25.05796], [-100.50264, 25.05799], [-100.50267, 25.05838], [-100.50222, 25.05844]]]}}, {"id": "1435234", "type": "Feature", "properties": {"id": "1435234", "CVEGEO": "1901700110799052", "POBTOT": 0.0, "score_nse": 0.0, "NSE": null, "VIVTOT": 0.0, "GRAPROES": 0.0, "_ent": "19", "_mun": "017", "_loc": "0011"}, "geometry": {"type": "Polygon", "coordinates": [[[-100.50373, 25.05974], [-100.50328, 25.05975], [-100.50328, 25.0593], [-100.50372, 25.0593], [-100.50373, 25.05974]]]}}, {"id": "1435235", "type": "Feature", "properties": {"id": "1435235", "CVEGEO": "1901700110799042", "POBTOT": 0.0, "score_nse": 0.0, "NSE": null, "VIVTOT": 0.0, "GRAPROES": 0.0, "_ent": "19", "_mun": "017", "_loc": "0011"}, "geometry": {"type": "Polygon", "coordinates": [[[-100.50328, 25.0602], [-100.50328, 25.05979], [-100.50375, 25.0598], [-100.50376, 25.06024], [-100.50328, 25.0602]]]}}, {"id": "1435236", "type": "Feature", "properties": {"id": "1435236", "CVEGEO": "1901700110799041", "POBTOT": 0.0, "score_nse": 0.0, "NSE": null, "VIVTOT": 0.0, "GRAPROES": 0.0, "_ent": "19", "_mun": "017", "_loc": "0011"}, "geometry": {"type": "Polygon", "coordinates": [[[-100.5038, 25.06025], [-100.50378, 25.05978], [-100.50422, 25.05978], [-100.50423, 25.06027], [-100.5038, 25.06025]]]}}, {"id": "1435237", "type": "Feature", "properties": {"id": "1435237", "CVEGEO": "1901700110799040", "POBTOT": 0.0, "score_nse": 0.0, "NSE": null, "VIVTOT": 0.0, "GRAPROES": 0.0, "_ent": "19", "_mun": "017", "_loc": "0011"}, "geometry": {"type": "Polygon", "coordinates": [[[-100.50426, 25.05977], [-100.50474, 25.05975], [-100.50476, 25.0603], [-100.50428, 25.06028], [-100.50426, 25.05977]]]}}, {"id": "1435238", "type": "Feature", "properties": {"id": "1435238", "CVEGEO": "1901700110799039", "POBTOT": 0.0, "score_nse": 0.0, "NSE": null, "VIVTOT": 0.0, "GRAPROES": 0.0, "_ent": "19", "_mun": "017", "_loc": "0011"}, "geometry": {"type": "Polygon", "coordinates": [[[-100.50176, 25.06005], [-100.50188, 25.0607], [-100.50161, 25.0606], [-100.5013, 25.06018], [-100.50176, 25.06005]]]}}, {"id": "1435239", "type": "Feature", "properties": {"id": "1435239", "CVEGEO": "1901700110799038", "POBTOT": 0.0, "score_nse": 0.0, "NSE": null, "VIVTOT": 0.0, "GRAPROES": 0.0, "_ent": "19", "_mun": "017", "_loc": "0011"}, "geometry": {"type": "Polygon", "coordinates": [[[-100.50119, 25.06011], [-100.50113, 25.06065], [-100.50076, 25.06075], [-100.50061, 25.06057], [-100.50065, 25.06006], [-100.50119, 25.06011]]]}}, {"id": "1435240", "type": "Feature", "properties": {"id": "1435240", "CVEGEO": "1901700110799037", "POBTOT": 0.0, "score_nse": 0.0, "NSE": null, "VIVTOT": 0.0, "GRAPROES": 0.0, "_ent": "19", "_mun": "017", "_loc": "0011"}, "geometry": {"type": "Polygon", "coordinates": [[[-100.50167, 25.06067], [-100.50137, 25.06069], [-100.50111, 25.06072], [-100.50123, 25.06039], [-100.50167, 25.06067]]]}}, {"id": "1435241", "type": "Feature", "properties": {"id": "1435241", "CVEGEO": "1901700110799015", "POBTOT": 0.0, "score_nse": 0.0, "NSE": null, "VIVTOT": 0.0, "GRAPROES": 0.0, "_ent": "19", "_mun": "017", "_loc": "0011"}, "geometry": {"type": "Polygon", "coordinates": [[[-100.50047, 25.06209], [-100.50115, 25.0621], [-100.50109, 25.06275], [-100.50044, 25.06265], [-100.50047, 25.06209]]]}}, {"id": "1435242", "type": "Feature", "properties": {"id": "1435242", "CVEGEO": "1901700110799014", "POBTOT": 0.0, "score_nse": 0.0, "NSE": null, "VIVTOT": 0.0, "GRAPROES": 0.0, "_ent": "19", "_mun": "017", "_loc": "0011"}, "geometry": {"type": "Polygon", "coordinates": [[[-100.50197, 25.0621], [-100.50195, 25.06289], [-100.5015, 25.0628], [-100.50162, 25.06212], [-100.50197, 25.0621]]]}}, {"id": "1435243", "type": "Feature", "properties": {"id": "1435243", "CVEGEO": "1901700110799004", "POBTOT": 0.0, "score_nse": 0.0, "NSE": null, "VIVTOT": 0.0, "GRAPROES": 0.0, "_ent": "19", "_mun": "017", "_loc": "0011"}, "geometry": {"type": "Polygon", "coordinates": [[[-100.50044, 25.06341], [-100.50116, 25.06344], [-100.50111, 25.06422], [-100.5004, 25.06416], [-100.50044, 25.06341]]]}}, {"id": "1435244", "type": "Feature", "properties": {"id": "1435244", "CVEGEO": "1901700110799003", "POBTOT": 0.0, "score_nse": 0.0, "NSE": null, "VIVTOT": 0.0, "GRAPROES": 0.0, "_ent": "19", "_mun": "017", "_loc": "0011"}, "geometry": {"type": "Polygon", "coordinates": [[[-100.50171, 25.06363], [-100.50115, 25.0642], [-100.50133, 25.06284], [-100.50188, 25.06293], [-100.50171, 25.06363]]]}}, {"id": "1435245", "type": "Feature", "properties": {"id": "1435245", "CVEGEO": "1901700110799002", "POBTOT": 0.0, "score_nse": 0.0, "NSE": null, "VIVTOT": 0.0, "GRAPROES": 0.0, "_ent": "19", "_mun": "017", "_loc": "0011"}, "geometry": {"type": "Polygon", "coordinates": [[[-100.50109, 25.06463], [-100.50038, 25.06459], [-100.50037, 25.06422], [-100.50111, 25.06425], [-100.50109, 25.06463]]]}}, {"id": "1435246", "type": "Feature", "properties": {"id": "1435246", "CVEGEO": "1901700110799001", "POBTOT": 0.0, "score_nse": 0.0, "NSE": null, "VIVTOT": 0.0, "GRAPROES": 0.0, "_ent": "19", "_mun": "017", "_loc": "0011"}, "geometry": {"type": "Polygon", "coordinates": [[[-100.50262, 25.06413], [-100.50212, 25.06423], [-100.50203, 25.06355], [-100.50257, 25.06353], [-100.50262, 25.06413]]]}}, {"id": "1435416", "type": "Feature", "properties": {"id": "1435416", "CVEGEO": "1901700110799010", "POBTOT": 0.0, "score_nse": 0.0, "NSE": null, "VIVTOT": 0.0, "GRAPROES": 0.0, "_ent": "19", "_mun": "017", "_loc": "0011"}, "geometry": {"type": "Polygon", "coordinates": [[[-100.49955, 25.06334], [-100.49961, 25.06261], [-100.50039, 25.06272], [-100.50039, 25.06338], [-100.49955, 25.06334]]]}}, {"id": "1435417", "type": "Feature", "properties": {"id": "1435417", "CVEGEO": "1901700110799009", "POBTOT": 0.0, "score_nse": 0.0, "NSE": null, "VIVTOT": 0.0, "GRAPROES": 0.0, "_ent": "19", "_mun": "017", "_loc": "0011"}, "geometry": {"type": "Polygon", "coordinates": [[[-100.50115, 25.06339], [-100.50044, 25.06337], [-100.50044, 25.06271], [-100.50119, 25.06282], [-100.50115, 25.06339]]]}}, {"id": "1435418", "type": "Feature", "properties": {"id": "1435418", "CVEGEO": "1901700110799007", "POBTOT": 0.0, "score_nse": 0.0, "NSE": null, "VIVTOT": 0.0, "GRAPROES": 0.0, "_ent": "19", "_mun": "017", "_loc": "0011"}, "geometry": {"type": "Polygon", "coordinates": [[[-100.50193, 25.06295], [-100.50253, 25.06295], [-100.50256, 25.0635], [-100.50178, 25.06352], [-100.50193, 25.06295]]]}}, {"id": "1435419", "type": "Feature", "properties": {"id": "1435419", "CVEGEO": "1901700110799006", "POBTOT": 0.0, "score_nse": 0.0, "NSE": null, "VIVTOT": 0.0, "GRAPROES": 0.0, "_ent": "19", "_mun": "017", "_loc": "0011"}, "geometry": {"type": "Polygon", "coordinates": [[[-100.50262, 25.06351], [-100.50257, 25.06295], [-100.50315, 25.06294], [-100.50314, 25.06354], [-100.50262, 25.06351]]]}}, {"id": "1435420", "type": "Feature", "properties": {"id": "1435420", "CVEGEO": "1901700110799005", "POBTOT": 0.0, "score_nse": 0.0, "NSE": null, "VIVTOT": 0.0, "GRAPROES": 0.0, "_ent": "19", "_mun": "017", "_loc": "0011"}, "geometry": {"type": "Polygon", "coordinates": [[[-100.50319, 25.06353], [-100.50319, 25.06294], [-100.50393, 25.06295], [-100.50403, 25.06354], [-100.50319, 25.06353]]]}}, {"id": "1435444", "type": "Feature", "properties": {"id": "1435444", "CVEGEO": "1901700110799016", "POBTOT": 0.0, "score_nse": 0.0, "NSE": null, "VIVTOT": 0.0, "GRAPROES": 0.0, "_ent": "19", "_mun": "017", "_loc": "0011"}, "geometry": {"type": "Polygon", "coordinates": [[[-100.5004, 25.06267], [-100.49973, 25.06257], [-100.49979, 25.0621], [-100.50044, 25.06209], [-100.5004, 25.06267]]]}}, {"id": "1435464", "type": "Feature", "properties": {"id": "1435464", "CVEGEO": "1901700110799128", "POBTOT": 0.0, "score_nse": 0.0, "NSE": null, "VIVTOT": 0.0, "GRAPROES": 0.0, "_ent": "19", "_mun": "017", "_loc": "0011"}, "geometry": {"type": "Polygon", "coordinates": [[[-100.50037, 25.06505], [-100.50038, 25.06464], [-100.5011, 25.06467], [-100.50107, 25.06508], [-100.50037, 25.06505]]]}}, {"id": "1435465", "type": "Feature", "properties": {"id": "1435465", "CVEGEO": "1901700110799124", "POBTOT": 0.0, "score_nse": 0.0, "NSE": null, "VIVTOT": 0.0, "GRAPROES": 0.0, "_ent": "19", "_mun": "017", "_loc": "0011"}, "geometry": {"type": "Polygon", "coordinates": [[[-100.5006, 25.05409], [-100.50155, 25.05555], [-100.50103, 25.05611], [-100.50028, 25.05615], [-100.49988, 25.0543], [-100.5006, 25.05409]]]}}, {"id": "1435466", "type": "Feature", "properties": {"id": "1435466", "CVEGEO": "1901700110799123", "POBTOT": 0.0, "score_nse": 0.0, "NSE": null, "VIVTOT": 0.0, "GRAPROES": 0.0, "_ent": "19", "_mun": "017", "_loc": "0011"}, "geometry": {"type": "Polygon", "coordinates": [[[-100.49952, 25.05734], [-100.50007, 25.05744], [-100.50001, 25.05797], [-100.49946, 25.05818], [-100.49952, 25.05734]]]}}, {"id": "1435467", "type": "Feature", "properties": {"id": "1435467", "CVEGEO": "1901700110799119", "POBTOT": 0.0, "score_nse": 0.0, "NSE": null, "VIVTOT": 0.0, "GRAPROES": 0.0, "_ent": "19", "_mun": "017", "_loc": "0011"}, "geometry": {"type": "Polygon", "coordinates": [[[-100.50601, 25.05914], [-100.50597, 25.05963], [-100.50538, 25.05965], [-100.50537, 25.05914], [-100.50601, 25.05914]]]}}, {"id": "1435468", "type": "Feature", "properties": {"id": "1435468", "CVEGEO": "1901700110799107", "POBTOT": 0.0, "score_nse": 0.0, "NSE": null, "VIVTOT": 0.0, "GRAPROES": 0.0, "_ent": "19", "_mun": "017", "_loc": "0011"}, "geometry": {"type": "Polygon", "coordinates": [[[-100.50051, 25.05886], [-100.50001, 25.05907], [-100.49996, 25.0583], [-100.50025, 25.05862], [-100.50051, 25.05886]]]}}, {"id": "1435469", "type": "Feature", "properties": {"id": "1435469", "CVEGEO": "1901700110799106", "POBTOT": 0.0, "score_nse": 0.0, "NSE": null, "VIVTOT": 0.0, "GRAPROES": 0.0, "_ent": "19", "_mun": "017", "_loc": "0011"}, "geometry": {"type": "Polygon", "coordinates": [[[-100.49949, 25.05951], [-100.49894, 25.05959], [-100.4989, 25.05935], [-100.49947, 25.05929], [-100.49949, 25.05951]]]}}, {"id": "1435470", "type": "Feature", "properties": {"id": "1435470", "CVEGEO": "1901700110799105", "POBTOT": 0.0, "score_nse": 0.0, "NSE": null, "VIVTOT": 0.0, "GRAPROES": 0.0, "_ent": "19", "_mun": "017", "_loc": "0011"}, "geometry": {"type": "Polygon", "coordinates": [[[-100.49953, 25.0595], [-100.49951, 25.05927], [-100.49997, 25.05911], [-100.50003, 25.05944], [-100.49953, 25.0595]]]}}, {"id": "1435471", "type": "Feature", "properties": {"id": "1435471", "CVEGEO": "1901700110799103", "POBTOT": 0.0, "score_nse": 0.0, "NSE": null, "VIVTOT": 0.0, "GRAPROES": 0.0, "_ent": "19", "_mun": "017", "_loc": "0011"}, "geometry": {"type": "Polygon", "coordinates": [[[-100.49896, 25.05987], [-100.49893, 25.05962], [-100.49949, 25.05954], [-100.49952, 25.05987], [-100.49896, 25.05987]]]}}, {"id": "1435472", "type": "Feature", "properties": {"id": "1435472", "CVEGEO": "1901700110799102", "POBTOT": 0.0, "score_nse": 0.0, "NSE": null, "VIVTOT": 0.0, "GRAPROES": 0.0, "_ent": "19", "_mun": "017", "_loc": "0011"}, "geometry": {"type": "Polygon", "coordinates": [[[-100.49957, 25.05987], [-100.49954, 25.05954], [-100.50004, 25.05948], [-100.50011, 25.05987], [-100.49957, 25.05987]]]}}, {"id": "1435473", "type": "Feature", "properties": {"id": "1435473", "CVEGEO": "1901700110799087", "POBTOT": 0.0, "score_nse": 0.0, "NSE": null, "VIVTOT": 0.0, "GRAPROES": 0.0, "_ent": "19", "_mun": "017", "_loc": "0011"}, "geometry": {"type": "Polygon", "coordinates": [[[-100.50029, 25.05671], [-100.50053, 25.05717], [-100.50027, 25.05709], [-100.50029, 25.05671]]]}}, {"id": "1435474", "type": "Feature", "properties": {"id": "1435474", "CVEGEO": "1901700110799086", "POBTOT": 0.0, "score_nse": 0.0, "NSE": null, "VIVTOT": 0.0, "GRAPROES": 0.0, "_ent": "19", "_mun": "017", "_loc": "0011"}, "geometry": {"type": "Polygon", "coordinates": [[[-100.50186, 25.05742], [-100.50079, 25.05739], [-100.50041, 25.05674], [-100.50033, 25.05619], [-100.50126, 25.05616], [-100.50194, 25.05647], [-100.50186, 25.05742]]]}}, {"id": "1435475", "type": "Feature", "properties": {"id": "1435475", "CVEGEO": "1901700110799085", "POBTOT": 0.0, "score_nse": 0.0, "NSE": null, "VIVTOT": 0.0, "GRAPROES": 0.0, "_ent": "19", "_mun": "017", "_loc": "0011"}, "geometry": {"type": "Polygon", "coordinates": [[[-100.50162, 25.05554], [-100.50296, 25.05655], [-100.503, 25.05749], [-100.5019, 25.05741], [-100.502, 25.05646], [-100.50108, 25.0561], [-100.50162, 25.05554]]]}}, {"id": "1435476", "type": "Feature", "properties": {"id": "1435476", "CVEGEO": "1901700110799082", "POBTOT": 0.0, "score_nse": 0.0, "NSE": null, "VIVTOT": 0.0, "GRAPROES": 0.0, "_ent": "19", "_mun": "017", "_loc": "0011"}, "geometry": {"type": "Polygon", "coordinates": [[[-100.50024, 25.05787], [-100.5002, 25.05714], [-100.50058, 25.05723], [-100.50076, 25.05769], [-100.50024, 25.05787]]]}}, {"id": "1435477", "type": "Feature", "properties": {"id": "1435477", "CVEGEO": "1901700110799081", "POBTOT": 0.0, "score_nse": 0.0, "NSE": null, "VIVTOT": 0.0, "GRAPROES": 0.0, "_ent": "19", "_mun": "017", "_loc": "0011"}, "geometry": {"type": "Polygon", "coordinates": [[[-100.50081, 25.05805], [-100.50043, 25.05799], [-100.50028, 25.0579], [-100.50073, 25.05774], [-100.50081, 25.05805]]]}}, {"id": "1435478", "type": "Feature", "properties": {"id": "1435478", "CVEGEO": "1901700110799080", "POBTOT": 0.0, "score_nse": 0.0, "NSE": null, "VIVTOT": 0.0, "GRAPROES": 0.0, "_ent": "19", "_mun": "017", "_loc": "0011"}, "geometry": {"type": "Polygon", "coordinates": [[[-100.50134, 25.05814], [-100.50103, 25.05777], [-100.50124, 25.05741], [-100.50159, 25.05758], [-100.50134, 25.05814]]]}}, {"id": "1435479", "type": "Feature", "properties": {"id": "1435479", "CVEGEO": "1901700110799068", "POBTOT": 0.0, "score_nse": 0.0, "NSE": null, "VIVTOT": 0.0, "GRAPROES": 0.0, "_ent": "19", "_mun": "017", "_loc": "0011"}, "geometry": {"type": "Polygon", "coordinates": [[[-100.50076, 25.05914], [-100.50061, 25.05887], [-100.50101, 25.05871], [-100.50112, 25.05908], [-100.50076, 25.05914]]]}}, {"id": "1435480", "type": "Feature", "properties": {"id": "1435480", "CVEGEO": "1901700110799067", "POBTOT": 0.0, "score_nse": 0.0, "NSE": null, "VIVTOT": 0.0, "GRAPROES": 0.0, "_ent": "19", "_mun": "017", "_loc": "0011"}, "geometry": {"type": "Polygon", "coordinates": [[[-100.50159, 25.05897], [-100.50109, 25.05881], [-100.50095, 25.05828], [-100.50143, 25.05827], [-100.50159, 25.05897]]]}}, {"id": "1435481", "type": "Feature", "properties": {"id": "1435481", "CVEGEO": "1901700110799066", "POBTOT": 0.0, "score_nse": 0.0, "NSE": null, "VIVTOT": 0.0, "GRAPROES": 0.0, "_ent": "19", "_mun": "017", "_loc": "0011"}, "geometry": {"type": "Polygon", "coordinates": [[[-100.50216, 25.05831], [-100.50221, 25.05888], [-100.50162, 25.05897], [-100.50149, 25.05828], [-100.50216, 25.05831]]]}}, {"id": "1435482", "type": "Feature", "properties": {"id": "1435482", "CVEGEO": "1901700110799065", "POBTOT": 0.0, "score_nse": 0.0, "NSE": null, "VIVTOT": 0.0, "GRAPROES": 0.0, "_ent": "19", "_mun": "017", "_loc": "0011"}, "geometry": {"type": "Polygon", "coordinates": [[[-100.50226, 25.05887], [-100.50223, 25.05846], [-100.50263, 25.05842], [-100.50267, 25.05889], [-100.50226, 25.05887]]]}}, {"id": "1435483", "type": "Feature", "properties": {"id": "1435483", "CVEGEO": "1901700110799064", "POBTOT": 0.0, "score_nse": 0.0, "NSE": null, "VIVTOT": 0.0, "GRAPROES": 0.0, "_ent": "19", "_mun": "017", "_loc": "0011"}, "geometry": {"type": "Polygon", "coordinates": [[[-100.50324, 25.05896], [-100.50272, 25.0589], [-100.5027, 25.05843], [-100.50324, 25.05833], [-100.50324, 25.05896]]]}}, {"id": "1435484", "type": "Feature", "properties": {"id": "1435484", "CVEGEO": "1901700110799063", "POBTOT": 0.0, "score_nse": 0.0, "NSE": null, "VIVTOT": 0.0, "GRAPROES": 0.0, "_ent": "19", "_mun": "017", "_loc": "0011"}, "geometry": {"type": "Polygon", "coordinates": [[[-100.5027, 25.05926], [-100.50229, 25.0593], [-100.50226, 25.05892], [-100.50268, 25.05895], [-100.5027, 25.05926]]]}}, {"id": "1435485", "type": "Feature", "properties": {"id": "1435485", "CVEGEO": "1901700110799050", "POBTOT": 0.0, "score_nse": 0.0, "NSE": null, "VIVTOT": 0.0, "GRAPROES": 0.0, "_ent": "19", "_mun": "017", "_loc": "0011"}, "geometry": {"type": "Polygon", "coordinates": [[[-100.50533, 25.05965], [-100.50426, 25.05973], [-100.50425, 25.05927], [-100.50531, 25.05915], [-100.50533, 25.05965]]]}}, {"id": "1435486", "type": "Feature", "properties": {"id": "1435486", "CVEGEO": "1901700110799049", "POBTOT": 0.0, "score_nse": 0.0, "NSE": null, "VIVTOT": 0.0, "GRAPROES": 0.0, "_ent": "19", "_mun": "017", "_loc": "0011"}, "geometry": {"type": "Polygon", "coordinates": [[[-100.50226, 25.05982], [-100.50185, 25.05993], [-100.50174, 25.05958], [-100.50224, 25.05957], [-100.50226, 25.05982]]]}}, {"id": "1435487", "type": "Feature", "properties": {"id": "1435487", "CVEGEO": "1901700110799048", "POBTOT": 0.0, "score_nse": 0.0, "NSE": null, "VIVTOT": 0.0, "GRAPROES": 0.0, "_ent": "19", "_mun": "017", "_loc": "0011"}, "geometry": {"type": "Polygon", "coordinates": [[[-100.50056, 25.0595], [-100.50084, 25.05952], [-100.50119, 25.06008], [-100.50065, 25.06003], [-100.50056, 25.0595]]]}}, {"id": "1435488", "type": "Feature", "properties": {"id": "1435488", "CVEGEO": "1901700110799047", "POBTOT": 0.0, "score_nse": 0.0, "NSE": null, "VIVTOT": 0.0, "GRAPROES": 0.0, "_ent": "19", "_mun": "017", "_loc": "0011"}, "geometry": {"type": "Polygon", "coordinates": [[[-100.50126, 25.06011], [-100.50117, 25.0596], [-100.5017, 25.0596], [-100.50179, 25.06], [-100.50126, 25.06011]]]}}, {"id": "1435489", "type": "Feature", "properties": {"id": "1435489", "CVEGEO": "1901700110799045", "POBTOT": 0.0, "score_nse": 0.0, "NSE": null, "VIVTOT": 0.0, "GRAPROES": 0.0, "_ent": "19", "_mun": "017", "_loc": "0011"}, "geometry": {"type": "Polygon", "coordinates": [[[-100.50229, 25.06017], [-100.50191, 25.05999], [-100.50227, 25.05986], [-100.50229, 25.06017]]]}}, {"id": "1435490", "type": "Feature", "properties": {"id": "1435490", "CVEGEO": "1901700110799044", "POBTOT": 0.0, "score_nse": 0.0, "NSE": null, "VIVTOT": 0.0, "GRAPROES": 0.0, "_ent": "19", "_mun": "017", "_loc": "0011"}, "geometry": {"type": "Polygon", "coordinates": [[[-100.5028, 25.06015], [-100.50236, 25.06012], [-100.50234, 25.05984], [-100.50277, 25.05981], [-100.5028, 25.06015]]]}}, {"id": "1435491", "type": "Feature", "properties": {"id": "1435491", "CVEGEO": "1901700110799043", "POBTOT": 0.0, "score_nse": 0.0, "NSE": null, "VIVTOT": 0.0, "GRAPROES": 0.0, "_ent": "19", "_mun": "017", "_loc": "0011"}, "geometry": {"type": "Polygon", "coordinates": [[[-100.50285, 25.06016], [-100.50283, 25.05981], [-100.50323, 25.05978], [-100.50323, 25.06019], [-100.50285, 25.06016]]]}}, {"id": "1435492", "type": "Feature", "properties": {"id": "1435492", "CVEGEO": "1901700110799030", "POBTOT": 0.0, "score_nse": 0.0, "NSE": null, "VIVTOT": 0.0, "GRAPROES": 0.0, "_ent": "19", "_mun": "017", "_loc": "0011"}, "geometry": {"type": "Polygon", "coordinates": [[[-100.50479, 25.06092], [-100.50429, 25.06089], [-100.50428, 25.06033], [-100.50476, 25.06035], [-100.50479, 25.06092]]]}}, {"id": "1435493", "type": "Feature", "properties": {"id": "1435493", "CVEGEO": "1901700110799029", "POBTOT": 0.0, "score_nse": 0.0, "NSE": null, "VIVTOT": 0.0, "GRAPROES": 0.0, "_ent": "19", "_mun": "017", "_loc": "0011"}, "geometry": {"type": "Polygon", "coordinates": [[[-100.5032, 25.06082], [-100.50318, 25.0611], [-100.50242, 25.06091], [-100.50242, 25.06044], [-100.5032, 25.06082]]]}}, {"id": "1435494", "type": "Feature", "properties": {"id": "1435494", "CVEGEO": "1901700110799028", "POBTOT": 0.0, "score_nse": 0.0, "NSE": null, "VIVTOT": 0.0, "GRAPROES": 0.0, "_ent": "19", "_mun": "017", "_loc": "0011"}, "geometry": {"type": "Polygon", "coordinates": [[[-100.49831, 25.06148], [-100.49842, 25.0609], [-100.49922, 25.06087], [-100.49922, 25.06175], [-100.49831, 25.06148]]]}}, {"id": "1435495", "type": "Feature", "properties": {"id": "1435495", "CVEGEO": "1901700110799027", "POBTOT": 0.0, "score_nse": 0.0, "NSE": null, "VIVTOT": 0.0, "GRAPROES": 0.0, "_ent": "19", "_mun": "017", "_loc": "0011"}, "geometry": {"type": "Polygon", "coordinates": [[[-100.49927, 25.06163], [-100.49927, 25.06085], [-100.49997, 25.06083], [-100.49984, 25.06166], [-100.49927, 25.06163]]]}}, {"id": "1435496", "type": "Feature", "properties": {"id": "1435496", "CVEGEO": "1901700110799026", "POBTOT": 0.0, "score_nse": 0.0, "NSE": null, "VIVTOT": 0.0, "GRAPROES": 0.0, "_ent": "19", "_mun": "017", "_loc": "0011"}, "geometry": {"type": "Polygon", "coordinates": [[[-100.50076, 25.06123], [-100.49995, 25.06121], [-100.50008, 25.06083], [-100.50075, 25.06083], [-100.50076, 25.06123]]]}}, {"id": "1435497", "type": "Feature", "properties": {"id": "1435497", "CVEGEO": "1901700110799025", "POBTOT": 0.0, "score_nse": 0.0, "NSE": null, "VIVTOT": 0.0, "GRAPROES": 0.0, "_ent": "19", "_mun": "017", "_loc": "0011"}, "geometry": {"type": "Polygon", "coordinates": [[[-100.50172, 25.06073], [-100.5019, 25.06129], [-100.50086, 25.06148], [-100.50079, 25.06082], [-100.50172, 25.06073]]]}}, {"id": "1435498", "type": "Feature", "properties": {"id": "1435498", "CVEGEO": "1901700110799024", "POBTOT": 0.0, "score_nse": 0.0, "NSE": null, "VIVTOT": 0.0, "GRAPROES": 0.0, "_ent": "19", "_mun": "017", "_loc": "0011"}, "geometry": {"type": "Polygon", "coordinates": [[[-100.50243, 25.06159], [-100.50201, 25.0616], [-100.50196, 25.06082], [-100.5024, 25.06103], [-100.50243, 25.06159]]]}}, {"id": "1435499", "type": "Feature", "properties": {"id": "1435499", "CVEGEO": "1901700110799012", "POBTOT": 0.0, "score_nse": 0.0, "NSE": null, "VIVTOT": 0.0, "GRAPROES": 0.0, "_ent": "19", "_mun": "017", "_loc": "0011"}, "geometry": {"type": "Polygon", "coordinates": [[[-100.50258, 25.0629], [-100.50253, 25.06207], [-100.50316, 25.06204], [-100.50315, 25.0629], [-100.50258, 25.0629]]]}}, {"id": "1435500", "type": "Feature", "properties": {"id": "1435500", "CVEGEO": "1901700110799011", "POBTOT": 0.0, "score_nse": 0.0, "NSE": null, "VIVTOT": 0.0, "GRAPROES": 0.0, "_ent": "19", "_mun": "017", "_loc": "0011"}, "geometry": {"type": "Polygon", "coordinates": [[[-100.50393, 25.06292], [-100.50319, 25.0629], [-100.50321, 25.06155], [-100.50347, 25.06155], [-100.50399, 25.06217], [-100.50393, 25.06292]]]}}, {"id": "1435549", "type": "Feature", "properties": {"id": "1435549", "CVEGEO": "1901700110799094", "POBTOT": 0.0, "score_nse": 0.0, "NSE": null, "VIVTOT": 0.0, "GRAPROES": 0.0, "_ent": "19", "_mun": "017", "_loc": "0011"}, "geometry": {"type": "Polygon", "coordinates": [[[-100.50532, 25.05879], [-100.50533, 25.05911], [-100.50482, 25.05911], [-100.50478, 25.05879], [-100.50532, 25.05879]]]}}, {"id": "1435591", "type": "Feature", "properties": {"id": "1435591", "CVEGEO": "1901700110799133", "POBTOT": 0.0, "score_nse": 0.0, "NSE": null, "VIVTOT": 0.0, "GRAPROES": 0.0, "_ent": "19", "_mun": "017", "_loc": "0011"}, "geometry": {"type": "Polygon", "coordinates": [[[-100.50566, 25.06238], [-100.50559, 25.06178], [-100.50616, 25.06192], [-100.50617, 25.06252], [-100.50566, 25.06238]]]}}, {"id": "1435592", "type": "Feature", "properties": {"id": "1435592", "CVEGEO": "1901700110799134", "POBTOT": 0.0, "score_nse": 0.0, "NSE": null, "VIVTOT": 0.0, "GRAPROES": 0.0, "_ent": "19", "_mun": "017", "_loc": "0011"}, "geometry": {"type": "Polygon", "coordinates": [[[-100.50489, 25.06218], [-100.50487, 25.0616], [-100.50554, 25.06176], [-100.50561, 25.06236], [-100.50489, 25.06218]]]}}, {"id": "1435593", "type": "Feature", "properties": {"id": "1435593", "CVEGEO": "1901700110799129", "POBTOT": 0.0, "score_nse": 0.0, "NSE": null, "VIVTOT": 0.0, "GRAPROES": 0.0, "_ent": "19", "_mun": "017", "_loc": "0011"}, "geometry": {"type": "Polygon", "coordinates": [[[-100.50316, 25.06412], [-100.50316, 25.0646], [-100.5027, 25.06462], [-100.50267, 25.06415], [-100.50316, 25.06412]]]}}, {"id": "1435594", "type": "Feature", "properties": {"id": "1435594", "CVEGEO": "1901700110799132", "POBTOT": 0.0, "score_nse": 0.0, "NSE": null, "VIVTOT": 0.0, "GRAPROES": 0.0, "_ent": "19", "_mun": "017", "_loc": "0011"}, "geometry": {"type": "Polygon", "coordinates": [[[-100.50315, 25.06357], [-100.50315, 25.06409], [-100.50267, 25.06411], [-100.50263, 25.06356], [-100.50315, 25.06357]]]}}, {"id": "1435595", "type": "Feature", "properties": {"id": "1435595", "CVEGEO": "1901700110799098", "POBTOT": 0.0, "score_nse": 0.0, "NSE": null, "VIVTOT": 0.0, "GRAPROES": 0.0, "_ent": "19", "_mun": "017", "_loc": "0011"}, "geometry": {"type": "Polygon", "coordinates": [[[-100.50209, 25.06423], [-100.5018, 25.06429], [-100.50119, 25.0642], [-100.50198, 25.06355], [-100.50209, 25.06423]]]}}, {"id": "1435596", "type": "Feature", "properties": {"id": "1435596", "CVEGEO": "1901700110799097", "POBTOT": 0.0, "score_nse": 0.0, "NSE": null, "VIVTOT": 0.0, "GRAPROES": 0.0, "_ent": "19", "_mun": "017", "_loc": "0011"}, "geometry": {"type": "Polygon", "coordinates": [[[-100.49996, 25.0534], [-100.50051, 25.0538], [-100.50059, 25.05405], [-100.49988, 25.05427], [-100.49976, 25.0535], [-100.49996, 25.0534]]]}}, {"id": "1435597", "type": "Feature", "properties": {"id": "1435597", "CVEGEO": "1901700110799096", "POBTOT": 0.0, "score_nse": 0.0, "NSE": null, "VIVTOT": 0.0, "GRAPROES": 0.0, "_ent": "19", "_mun": "017", "_loc": "0011"}, "geometry": {"type": "Polygon", "coordinates": [[[-100.50534, 25.05816], [-100.50532, 25.05875], [-100.50426, 25.05873], [-100.50427, 25.05807], [-100.50534, 25.05816]]]}}, {"id": "1435598", "type": "Feature", "properties": {"id": "1435598", "CVEGEO": "1901700110799095", "POBTOT": 0.0, "score_nse": 0.0, "NSE": null, "VIVTOT": 0.0, "GRAPROES": 0.0, "_ent": "19", "_mun": "017", "_loc": "0011"}, "geometry": {"type": "Polygon", "coordinates": [[[-100.50425, 25.05922], [-100.50426, 25.05878], [-100.50474, 25.05878], [-100.50478, 25.05911], [-100.50425, 25.05922]]]}}, {"id": "1435599", "type": "Feature", "properties": {"id": "1435599", "CVEGEO": "1901700110799090", "POBTOT": 0.0, "score_nse": 0.0, "NSE": null, "VIVTOT": 0.0, "GRAPROES": 0.0, "_ent": "19", "_mun": "017", "_loc": "0011"}, "geometry": {"type": "Polygon", "coordinates": [[[-100.50426, 25.06137], [-100.50379, 25.06125], [-100.50379, 25.0609], [-100.50426, 25.06093], [-100.50426, 25.06137]]]}}, {"id": "1435600", "type": "Feature", "properties": {"id": "1435600", "CVEGEO": "1901700110799070", "POBTOT": 0.0, "score_nse": 0.0, "NSE": null, "VIVTOT": 0.0, "GRAPROES": 0.0, "_ent": "19", "_mun": "017", "_loc": "0011"}, "geometry": {"type": "Polygon", "coordinates": [[[-100.50423, 25.05809], [-100.50423, 25.05874], [-100.50373, 25.05872], [-100.50371, 25.0581], [-100.50423, 25.05809]]]}}, {"id": "1435601", "type": "Feature", "properties": {"id": "1435601", "CVEGEO": "1901700110799061", "POBTOT": 0.0, "score_nse": 0.0, "NSE": null, "VIVTOT": 0.0, "GRAPROES": 0.0, "_ent": "19", "_mun": "017", "_loc": "0011"}, "geometry": {"type": "Polygon", "coordinates": [[[-100.5037, 25.05876], [-100.50372, 25.05926], [-100.50328, 25.05926], [-100.5033, 25.05875], [-100.5037, 25.05876]]]}}, {"id": "1435602", "type": "Feature", "properties": {"id": "1435602", "CVEGEO": "1901700110799060", "POBTOT": 0.0, "score_nse": 0.0, "NSE": null, "VIVTOT": 0.0, "GRAPROES": 0.0, "_ent": "19", "_mun": "017", "_loc": "0011"}, "geometry": {"type": "Polygon", "coordinates": [[[-100.50421, 25.0592], [-100.50375, 25.05927], [-100.50373, 25.05876], [-100.50421, 25.05878], [-100.50421, 25.0592]]]}}, {"id": "1435603", "type": "Feature", "properties": {"id": "1435603", "CVEGEO": "1901700110799059", "POBTOT": 0.0, "score_nse": 0.0, "NSE": null, "VIVTOT": 0.0, "GRAPROES": 0.0, "_ent": "19", "_mun": "017", "_loc": "0011"}, "geometry": {"type": "Polygon", "coordinates": [[[-100.50018, 25.05987], [-100.5001, 25.05946], [-100.50048, 25.05939], [-100.50058, 25.05978], [-100.50018, 25.05987]]]}}, {"id": "1435604", "type": "Feature", "properties": {"id": "1435604", "CVEGEO": "1901700110799058", "POBTOT": 0.0, "score_nse": 0.0, "NSE": null, "VIVTOT": 0.0, "GRAPROES": 0.0, "_ent": "19", "_mun": "017", "_loc": "0011"}, "geometry": {"type": "Polygon", "coordinates": [[[-100.5008, 25.05944], [-100.50055, 25.05947], [-100.50037, 25.05895], [-100.50054, 25.05888], [-100.5008, 25.05944]]]}}, {"id": "1435605", "type": "Feature", "properties": {"id": "1435605", "CVEGEO": "1901700110799057", "POBTOT": 0.0, "score_nse": 0.0, "NSE": null, "VIVTOT": 0.0, "GRAPROES": 0.0, "_ent": "19", "_mun": "017", "_loc": "0011"}, "geometry": {"type": "Polygon", "coordinates": [[[-100.50076, 25.05918], [-100.50112, 25.05911], [-100.50116, 25.05957], [-100.50093, 25.05956], [-100.50076, 25.05918]]]}}, {"id": "1435606", "type": "Feature", "properties": {"id": "1435606", "CVEGEO": "1901700110799056", "POBTOT": 0.0, "score_nse": 0.0, "NSE": null, "VIVTOT": 0.0, "GRAPROES": 0.0, "_ent": "19", "_mun": "017", "_loc": "0011"}, "geometry": {"type": "Polygon", "coordinates": [[[-100.50128, 25.05956], [-100.50115, 25.05906], [-100.50159, 25.05903], [-100.50168, 25.05956], [-100.50128, 25.05956]]]}}, {"id": "1435607", "type": "Feature", "properties": {"id": "1435607", "CVEGEO": "1901700110799035", "POBTOT": 0.0, "score_nse": 0.0, "NSE": null, "VIVTOT": 0.0, "GRAPROES": 0.0, "_ent": "19", "_mun": "017", "_loc": "0011"}, "geometry": {"type": "Polygon", "coordinates": [[[-100.50282, 25.06018], [-100.50281, 25.06061], [-100.50238, 25.06036], [-100.50237, 25.06014], [-100.50282, 25.06018]]]}}, {"id": "1435608", "type": "Feature", "properties": {"id": "1435608", "CVEGEO": "1901700110799034", "POBTOT": 0.0, "score_nse": 0.0, "NSE": null, "VIVTOT": 0.0, "GRAPROES": 0.0, "_ent": "19", "_mun": "017", "_loc": "0011"}, "geometry": {"type": "Polygon", "coordinates": [[[-100.50232, 25.06032], [-100.50237, 25.06089], [-100.50195, 25.06071], [-100.50187, 25.06002], [-100.50232, 25.06032]]]}}, {"id": "1435609", "type": "Feature", "properties": {"id": "1435609", "CVEGEO": "1901700110799033", "POBTOT": 0.0, "score_nse": 0.0, "NSE": null, "VIVTOT": 0.0, "GRAPROES": 0.0, "_ent": "19", "_mun": "017", "_loc": "0011"}, "geometry": {"type": "Polygon", "coordinates": [[[-100.50324, 25.06023], [-100.50322, 25.06078], [-100.50286, 25.06064], [-100.50286, 25.06019], [-100.50324, 25.06023]]]}}, {"id": "1435610", "type": "Feature", "properties": {"id": "1435610", "CVEGEO": "1901700110799032", "POBTOT": 0.0, "score_nse": 0.0, "NSE": null, "VIVTOT": 0.0, "GRAPROES": 0.0, "_ent": "19", "_mun": "017", "_loc": "0011"}, "geometry": {"type": "Polygon", "coordinates": [[[-100.50325, 25.06078], [-100.50327, 25.06024], [-100.50377, 25.06028], [-100.50377, 25.06086], [-100.50325, 25.06078]]]}}, {"id": "1435611", "type": "Feature", "properties": {"id": "1435611", "CVEGEO": "1901700110799023", "POBTOT": 0.0, "score_nse": 0.0, "NSE": null, "VIVTOT": 0.0, "GRAPROES": 0.0, "_ent": "19", "_mun": "017", "_loc": "0011"}, "geometry": {"type": "Polygon", "coordinates": [[[-100.5025, 25.06161], [-100.50246, 25.06109], [-100.50316, 25.0612], [-100.50317, 25.06155], [-100.5025, 25.06161]]]}}, {"id": "1435612", "type": "Feature", "properties": {"id": "1435612", "CVEGEO": "1901700110799022", "POBTOT": 0.0, "score_nse": 0.0, "NSE": null, "VIVTOT": 0.0, "GRAPROES": 0.0, "_ent": "19", "_mun": "017", "_loc": "0011"}, "geometry": {"type": "Polygon", "coordinates": [[[-100.50321, 25.06126], [-100.50343, 25.06151], [-100.50321, 25.06151], [-100.50321, 25.06126]]]}}, {"id": "1435613", "type": "Feature", "properties": {"id": "1435613", "CVEGEO": "1901700110799021", "POBTOT": 0.0, "score_nse": 0.0, "NSE": null, "VIVTOT": 0.0, "GRAPROES": 0.0, "_ent": "19", "_mun": "017", "_loc": "0011"}, "geometry": {"type": "Polygon", "coordinates": [[[-100.50427, 25.06147], [-100.50426, 25.06237], [-100.5033, 25.06122], [-100.50427, 25.06147]]]}}, {"id": "1435643", "type": "Feature", "properties": {"id": "1435643", "CVEGEO": "1901700110799072", "POBTOT": 0.0, "score_nse": 0.0, "NSE": null, "VIVTOT": 0.0, "GRAPROES": 0.0, "_ent": "19", "_mun": "017", "_loc": "0011"}, "geometry": {"type": "Polygon", "coordinates": [[[-100.50325, 25.05829], [-100.5027, 25.05839], [-100.50267, 25.05799], [-100.5032, 25.0579], [-100.50325, 25.05829]]]}}, {"id": "1435647", "type": "Feature", "properties": {"id": "1435647", "CVEGEO": "1901700110799071", "POBTOT": 0.0, "score_nse": 0.0, "NSE": null, "VIVTOT": 0.0, "GRAPROES": 0.0, "_ent": "19", "_mun": "017", "_loc": "0011"}, "geometry": {"type": "Polygon", "coordinates": [[[-100.5037, 25.05871], [-100.5033, 25.05871], [-100.50331, 25.05812], [-100.50367, 25.0581], [-100.5037, 25.05871]]]}}, {"id": "1435648", "type": "Feature", "properties": {"id": "1435648", "CVEGEO": "1901700110799108", "POBTOT": 0.0, "score_nse": 0.0, "NSE": null, "VIVTOT": 0.0, "GRAPROES": 0.0, "_ent": "19", "_mun": "017", "_loc": "0011"}, "geometry": {"type": "Polygon", "coordinates": [[[-100.49949, 25.05923], [-100.49944, 25.05878], [-100.49986, 25.05861], [-100.49996, 25.05908], [-100.49949, 25.05923]]]}}, {"id": "1435649", "type": "Feature", "properties": {"id": "1435649", "CVEGEO": "1901700110799013", "POBTOT": 0.0, "score_nse": 0.0, "NSE": null, "VIVTOT": 0.0, "GRAPROES": 0.0, "_ent": "19", "_mun": "017", "_loc": "0011"}, "geometry": {"type": "Polygon", "coordinates": [[[-100.50253, 25.0629], [-100.50203, 25.06289], [-100.50204, 25.06207], [-100.50249, 25.06207], [-100.50253, 25.0629]]]}}, {"id": "1435651", "type": "Feature", "properties": {"id": "1435651", "CVEGEO": "1901700110799020", "POBTOT": 0.0, "score_nse": 0.0, "NSE": null, "VIVTOT": 0.0, "GRAPROES": 0.0, "_ent": "19", "_mun": "017", "_loc": "0011"}, "geometry": {"type": "Polygon", "coordinates": [[[-100.49994, 25.06126], [-100.50078, 25.06128], [-100.50084, 25.06202], [-100.49981, 25.06206], [-100.49994, 25.06126]]]}}, {"id": "1435652", "type": "Feature", "properties": {"id": "1435652", "CVEGEO": "1901700110799018", "POBTOT": 0.0, "score_nse": 0.0, "NSE": null, "VIVTOT": 0.0, "GRAPROES": 0.0, "_ent": "19", "_mun": "017", "_loc": "0011"}, "geometry": {"type": "Polygon", "coordinates": [[[-100.50202, 25.06165], [-100.50244, 25.06164], [-100.50247, 25.06203], [-100.50203, 25.06203], [-100.50202, 25.06165]]]}}, {"id": "1435656", "type": "Feature", "properties": {"id": "1435656", "CVEGEO": "1901700110799062", "POBTOT": 0.0, "score_nse": 0.0, "NSE": null, "VIVTOT": 0.0, "GRAPROES": 0.0, "_ent": "19", "_mun": "017", "_loc": "0011"}, "geometry": {"type": "Polygon", "coordinates": [[[-100.50323, 25.05924], [-100.50274, 25.05926], [-100.50272, 25.05895], [-100.50323, 25.059], [-100.50323, 25.05924]]]}}, {"id": "1437635", "type": "Feature", "properties": {"id": "1437635", "CVEGEO": "1901700110799077", "POBTOT": 0.0, "score_nse": 0.0, "NSE": null, "VIVTOT": 0.0, "GRAPROES": 0.0, "_ent": "19", "_mun": "017", "_loc": "0011"}, "geometry": {"type": "Polygon", "coordinates": [[[-100.50427, 25.05804], [-100.50328, 25.05807], [-100.50323, 25.05752], [-100.50381, 25.05752], [-100.50418, 25.05777], [-100.50427, 25.05804]]]}}, {"id": "1437727", "type": "Feature", "properties": {"id": "1437727", "CVEGEO": "1901700110799092", "POBTOT": 0.0, "score_nse": 0.0, "NSE": null, "VIVTOT": 0.0, "GRAPROES": 0.0, "_ent": "19", "_mun": "017", "_loc": "0011"}, "geometry": {"type": "Polygon", "coordinates": [[[-100.50426, 25.06409], [-100.50322, 25.0641], [-100.50321, 25.06357], [-100.50407, 25.06359], [-100.50426, 25.06409]]]}}, {"id": "1438233", "type": "Feature", "properties": {"id": "1438233", "CVEGEO": "1901700110799125", "POBTOT": 0.0, "score_nse": 0.0, "NSE": null, "VIVTOT": 0.0, "GRAPROES": 0.0, "_ent": "19", "_mun": "017", "_loc": "0011"}, "geometry": {"type": "Polygon", "coordinates": [[[-100.50275, 25.06563], [-100.50224, 25.06568], [-100.50221, 25.0652], [-100.50271, 25.06516], [-100.50275, 25.06563]]]}}, {"id": "1438234", "type": "Feature", "properties": {"id": "1438234", "CVEGEO": "1901700110799135", "POBTOT": 0.0, "score_nse": 0.0, "NSE": null, "VIVTOT": 0.0, "GRAPROES": 0.0, "_ent": "19", "_mun": "017", "_loc": "0011"}, "geometry": {"type": "Polygon", "coordinates": [[[-100.50279, 25.06561], [-100.50276, 25.06515], [-100.50324, 25.06512], [-100.50326, 25.06556], [-100.50279, 25.06561]]]}}, {"id": "1438235", "type": "Feature", "properties": {"id": "1438235", "CVEGEO": "1901700110799130", "POBTOT": 0.0, "score_nse": 0.0, "NSE": null, "VIVTOT": 0.0, "GRAPROES": 0.0, "_ent": "19", "_mun": "017", "_loc": "0011"}, "geometry": {"type": "Polygon", "coordinates": [[[-100.50269, 25.06463], [-100.50217, 25.06473], [-100.50217, 25.06425], [-100.50266, 25.06417], [-100.50269, 25.06463]]]}}, {"id": "1438236", "type": "Feature", "properties": {"id": "1438236", "CVEGEO": "1901700110799127", "POBTOT": 0.0, "score_nse": 0.0, "NSE": null, "VIVTOT": 0.0, "GRAPROES": 0.0, "_ent": "19", "_mun": "017", "_loc": "0011"}, "geometry": {"type": "Polygon", "coordinates": [[[-100.50271, 25.06512], [-100.50221, 25.06517], [-100.50218, 25.06478], [-100.50269, 25.06466], [-100.50271, 25.06512]]]}}, {"id": "1438237", "type": "Feature", "properties": {"id": "1438237", "CVEGEO": "1901700110799126", "POBTOT": 0.0, "score_nse": 0.0, "NSE": null, "VIVTOT": 0.0, "GRAPROES": 0.0, "_ent": "19", "_mun": "017", "_loc": "0011"}, "geometry": {"type": "Polygon", "coordinates": [[[-100.50322, 25.06508], [-100.50276, 25.06512], [-100.50272, 25.06466], [-100.5032, 25.06464], [-100.50322, 25.06508]]]}}, {"id": "1438485", "type": "Feature", "properties": {"id": "1438485", "CVEGEO": "1901700110799088", "POBTOT": 0.0, "score_nse": 0.0, "NSE": null, "VIVTOT": 0.0, "GRAPROES": 0.0, "_ent": "19", "_mun": "017", "_loc": "0011"}, "geometry": {"type": "Polygon", "coordinates": [[[-100.50025, 25.05698], [-100.49995, 25.05713], [-100.4996, 25.05699], [-100.49969, 25.05632], [-100.50022, 25.05654], [-100.50025, 25.05698]]]}}, {"id": "1438486", "type": "Feature", "properties": {"id": "1438486", "CVEGEO": "1901700110799136", "POBTOT": 0.0, "score_nse": 0.0, "NSE": null, "VIVTOT": 0.0, "GRAPROES": 0.0, "_ent": "19", "_mun": "017", "_loc": "0011"}, "geometry": {"type": "Polygon", "coordinates": [[[-100.50012, 25.05716], [-100.50008, 25.0574], [-100.49976, 25.05735], [-100.4998, 25.05715], [-100.50012, 25.05716]]]}}, {"id": "1438498", "type": "Feature", "properties": {"id": "1438498", "CVEGEO": "1901700110799131", "POBTOT": 0.0, "score_nse": 0.0, "NSE": null, "VIVTOT": 0.0, "GRAPROES": 0.0, "_ent": "19", "_mun": "017", "_loc": "0011"}, "geometry": {"type": "Polygon", "coordinates": [[[-100.50173, 25.06468], [-100.50114, 25.06466], [-100.50116, 25.06425], [-100.50171, 25.06431], [-100.50173, 25.06468]]]}}, {"id": "1438499", "type": "Feature", "properties": {"id": "1438499", "CVEGEO": "1901700110799137", "POBTOT": 0.0, "score_nse": 0.0, "NSE": null, "VIVTOT": 0.0, "GRAPROES": 0.0, "_ent": "19", "_mun": "017", "_loc": "0011"}, "geometry": {"type": "Polygon", "coordinates": [[[-100.50176, 25.06469], [-100.50175, 25.06434], [-100.50212, 25.06431], [-100.50213, 25.0647], [-100.50176, 25.06469]]]}}]}