{"type": "FeatureCollection", "features": [{"id": "279443", "type": "Feature", "properties": {"id": "279443", "CVEGEO": "0705701600043001", "POBTOT": 0.0, "score_nse": 0.0, "NSE": null, "VIVTOT": 0.0, "GRAPROES": 0.0, "_ent": "07", "_mun": "057", "_loc": "0160"}, "geometry": {"type": "Polygon", "coordinates": [[[-92.41204, 15.34109], [-92.41221, 15.3409], [-92.41283, 15.34134], [-92.41269, 15.34151], [-92.41204, 15.34109]]]}}, {"id": "279444", "type": "Feature", "properties": {"id": "279444", "CVEGEO": "0705701600043002", "POBTOT": 0.0, "score_nse": 0.0, "NSE": null, "VIVTOT": 0.0, "GRAPROES": 0.0, "_ent": "07", "_mun": "057", "_loc": "0160"}, "geometry": {"type": "Polygon", "coordinates": [[[-92.41198, 15.34111], [-92.4119, 15.34075], [-92.41218, 15.34088], [-92.41198, 15.34111]]]}}, {"id": "279445", "type": "Feature", "properties": {"id": "279445", "CVEGEO": "0705701600043003", "POBTOT": 0.0, "score_nse": 0.0, "NSE": null, "VIVTOT": 0.0, "GRAPROES": 0.0, "_ent": "07", "_mun": "057", "_loc": "0160"}, "geometry": {"type": "Polygon", "coordinates": [[[-92.41252, 15.34172], [-92.41219, 15.34158], [-92.41202, 15.34111], [-92.41266, 15.34154], [-92.41252, 15.34172]]]}}]}