{"type": "FeatureCollection", "features": [{"id": "1293921", "type": "Feature", "properties": {"id": "1293921", "CVEGEO": "160790037004A001", "POBTOT": 0.0, "score_nse": 0.0, "NSE": null, "VIVTOT": 0.0, "GRAPROES": 0.0, "_ent": "16", "_mun": "079", "_loc": "0037"}, "geometry": {"type": "Polygon", "coordinates": [[[-101.75099, 19.30967], [-101.75241, 19.30819], [-101.7532, 19.30869], [-101.75453, 19.30872], [-101.75456, 19.30895], [-101.75458, 19.30871], [-101.75636, 19.3087], [-101.75556, 19.30898], [-101.75437, 19.30976], [-101.75496, 19.30939], [-101.75485, 19.30975], [-101.75389, 19.31054], [-101.75312, 19.31154], [-101.75291, 19.31058], [-101.75261, 19.31032], [-101.75286, 19.31063], [-101.75307, 19.31148], [-101.75285, 19.31184], [-101.7527, 19.31132], [-101.75187, 19.31016], [-101.75084, 19.31016], [-101.75099, 19.30967]]]}}, {"id": "1293922", "type": "Feature", "properties": {"id": "1293922", "CVEGEO": "160790037004A002", "POBTOT": 0.0, "score_nse": 0.0, "NSE": null, "VIVTOT": 0.0, "GRAPROES": 0.0, "_ent": "16", "_mun": "079", "_loc": "0037"}, "geometry": {"type": "Polygon", "coordinates": [[[-101.75264, 19.30823], [-101.75165, 19.30731], [-101.75182, 19.30721], [-101.75239, 19.30735], [-101.75295, 19.30803], [-101.75351, 19.30794], [-101.75438, 19.30809], [-101.75569, 19.30841], [-101.75592, 19.30866], [-101.7535, 19.30866], [-101.75264, 19.30823]]]}}]}