{"type": "FeatureCollection", "features": [{"id": "1318364", "type": "Feature", "properties": {"id": "1318364", "CVEGEO": "1610800071268038", "POBTOT": 0.0, "score_nse": 0.0, "NSE": "ND", "VIVTOT": 0.0, "GRAPROES": 0.0, "_ent": "16", "_mun": "108", "_loc": "0007"}, "geometry": {"type": "Polygon", "coordinates": [[[-102.25333, 19.9563], [-102.25228, 19.95555], [-102.25369, 19.9549], [-102.25443, 19.95584], [-102.25333, 19.9563]]]}}, {"id": "1318365", "type": "Feature", "properties": {"id": "1318365", "CVEGEO": "1610800071268021", "POBTOT": 61.0, "score_nse": 0.0, "NSE": "ND", "VIVTOT": 24.0, "GRAPROES": 6.66, "_ent": "16", "_mun": "108", "_loc": "0007"}, "geometry": {"type": "Polygon", "coordinates": [[[-102.25662, 19.95665], [-102.25676, 19.95651], [-102.25769, 19.95707], [-102.25739, 19.95739], [-102.25662, 19.95665]]]}}, {"id": "1318366", "type": "Feature", "properties": {"id": "1318366", "CVEGEO": "1610800071268020", "POBTOT": 105.0, "score_nse": 0.0, "NSE": "ND", "VIVTOT": 31.0, "GRAPROES": 8.04, "_ent": "16", "_mun": "108", "_loc": "0007"}, "geometry": {"type": "Polygon", "coordinates": [[[-102.25765, 19.95719], [-102.25772, 19.95708], [-102.25889, 19.95787], [-102.25873, 19.95821], [-102.25765, 19.95719]]]}}, {"id": "1318367", "type": "Feature", "properties": {"id": "1318367", "CVEGEO": "1610800071268019", "POBTOT": 53.0, "score_nse": 67.8973, "NSE": "C", "VIVTOT": 18.0, "GRAPROES": 11.79, "_ent": "16", "_mun": "108", "_loc": "0007"}, "geometry": {"type": "Polygon", "coordinates": [[[-102.25855, 19.95752], [-102.25885, 19.95711], [-102.25905, 19.95725], [-102.25876, 19.95766], [-102.25855, 19.95752]]]}}, {"id": "1318447", "type": "Feature", "properties": {"id": "1318447", "CVEGEO": "1610800071253018", "POBTOT": 60.0, "score_nse": 45.8329, "NSE": "C-", "VIVTOT": 26.0, "GRAPROES": 6.95, "_ent": "16", "_mun": "108", "_loc": "0007"}, "geometry": {"type": "Polygon", "coordinates": [[[-102.26311, 19.96109], [-102.26341, 19.9603], [-102.26415, 19.96055], [-102.26368, 19.96128], [-102.26311, 19.96109]]]}}, {"id": "1318448", "type": "Feature", "properties": {"id": "1318448", "CVEGEO": "1610800071253017", "POBTOT": 145.0, "score_nse": 51.7734, "NSE": "C-", "VIVTOT": 51.0, "GRAPROES": 7.33, "_ent": "16", "_mun": "108", "_loc": "0007"}, "geometry": {"type": "Polygon", "coordinates": [[[-102.26257, 19.95986], [-102.26283, 19.95917], [-102.26379, 19.95965], [-102.26373, 19.95979], [-102.26389, 19.95957], [-102.26285, 19.95912], [-102.26317, 19.95806], [-102.2635, 19.95817], [-102.26323, 19.95918], [-102.26393, 19.95957], [-102.26404, 19.95942], [-102.26429, 19.95952], [-102.26428, 19.9597], [-102.26469, 19.95993], [-102.26426, 19.96049], [-102.26257, 19.95986]]]}}, {"id": "1318449", "type": "Feature", "properties": {"id": "1318449", "CVEGEO": "1610800071253016", "POBTOT": 23.0, "score_nse": 0.0, "NSE": "ND", "VIVTOT": 15.0, "GRAPROES": 7.68, "_ent": "16", "_mun": "108", "_loc": "0007"}, "geometry": {"type": "Polygon", "coordinates": [[[-102.26156, 19.95949], [-102.26183, 19.9588], [-102.26273, 19.95915], [-102.26248, 19.95984], [-102.26156, 19.95949]]]}}, {"id": "1318450", "type": "Feature", "properties": {"id": "1318450", "CVEGEO": "1610800071253015", "POBTOT": 10.0, "score_nse": 0.0, "NSE": "ND", "VIVTOT": 3.0, "GRAPROES": 6.63, "_ent": "16", "_mun": "108", "_loc": "0007"}, "geometry": {"type": "Polygon", "coordinates": [[[-102.26073, 19.95916], [-102.261, 19.95845], [-102.26173, 19.95877], [-102.26149, 19.95943], [-102.26073, 19.95916]]]}}, {"id": "1318451", "type": "Feature", "properties": {"id": "1318451", "CVEGEO": "1610800071253013", "POBTOT": 28.0, "score_nse": 66.23, "NSE": "C", "VIVTOT": 12.0, "GRAPROES": 11.05, "_ent": "16", "_mun": "108", "_loc": "0007"}, "geometry": {"type": "Polygon", "coordinates": [[[-102.25957, 19.95965], [-102.25983, 19.95901], [-102.26059, 19.95925], [-102.26031, 19.95994], [-102.25957, 19.95965]]]}}, {"id": "1318452", "type": "Feature", "properties": {"id": "1318452", "CVEGEO": "1610800071253012", "POBTOT": 0.0, "score_nse": 0.0, "NSE": "ND", "VIVTOT": 0.0, "GRAPROES": 0.0, "_ent": "16", "_mun": "108", "_loc": "0007"}, "geometry": {"type": "Polygon", "coordinates": [[[-102.25926, 19.96042], [-102.25954, 19.95974], [-102.26022, 19.95999], [-102.25996, 19.96065], [-102.25926, 19.96042]]]}}, {"id": "1318482", "type": "Feature", "properties": {"id": "1318482", "CVEGEO": "1610800071253014", "POBTOT": 27.0, "score_nse": 0.0, "NSE": "ND", "VIVTOT": 11.0, "GRAPROES": 7.79, "_ent": "16", "_mun": "108", "_loc": "0007"}, "geometry": {"type": "Polygon", "coordinates": [[[-102.25984, 19.95887], [-102.26015, 19.95815], [-102.26091, 19.95842], [-102.26065, 19.95913], [-102.25984, 19.95887]]]}}, {"id": "1318583", "type": "Feature", "properties": {"id": "1318583", "CVEGEO": "1610800071268037", "POBTOT": 0.0, "score_nse": 0.0, "NSE": "ND", "VIVTOT": 0.0, "GRAPROES": 0.0, "_ent": "16", "_mun": "108", "_loc": "0007"}, "geometry": {"type": "Polygon", "coordinates": [[[-102.25498, 19.95744], [-102.25388, 19.95671], [-102.25106, 19.9578], [-102.25089, 19.9574], [-102.25451, 19.95592], [-102.25547, 19.95719], [-102.25498, 19.95744]]]}}, {"id": "1318584", "type": "Feature", "properties": {"id": "1318584", "CVEGEO": "1610800071268034", "POBTOT": 0.0, "score_nse": 0.0, "NSE": "ND", "VIVTOT": 0.0, "GRAPROES": 0.0, "_ent": "16", "_mun": "108", "_loc": "0007"}, "geometry": {"type": "Polygon", "coordinates": [[[-102.25704, 19.95867], [-102.2576, 19.95807], [-102.25777, 19.95824], [-102.25722, 19.9589], [-102.25704, 19.95867]]]}}, {"id": "1318585", "type": "Feature", "properties": {"id": "1318585", "CVEGEO": "1610800071268033", "POBTOT": 8.0, "score_nse": 0.0, "NSE": "ND", "VIVTOT": 7.0, "GRAPROES": 0.0, "_ent": "16", "_mun": "108", "_loc": "0007"}, "geometry": {"type": "Polygon", "coordinates": [[[-102.25381, 19.95462], [-102.25405, 19.95446], [-102.25423, 19.9546], [-102.25467, 19.95407], [-102.2552, 19.95438], [-102.25494, 19.95479], [-102.256, 19.95548], [-102.25578, 19.9558], [-102.25666, 19.95646], [-102.25602, 19.95718], [-102.25381, 19.95462]]]}}, {"id": "1318586", "type": "Feature", "properties": {"id": "1318586", "CVEGEO": "1610800071268032", "POBTOT": 31.0, "score_nse": 54.268, "NSE": "C-", "VIVTOT": 11.0, "GRAPROES": 9.52, "_ent": "16", "_mun": "108", "_loc": "0007"}, "geometry": {"type": "Polygon", "coordinates": [[[-102.25663, 19.95814], [-102.25732, 19.95745], [-102.25773, 19.95785], [-102.25701, 19.95863], [-102.25663, 19.95814]]]}}, {"id": "1318587", "type": "Feature", "properties": {"id": "1318587", "CVEGEO": "1610800071268031", "POBTOT": 9.0, "score_nse": 0.0, "NSE": "ND", "VIVTOT": 3.0, "GRAPROES": 0.0, "_ent": "16", "_mun": "108", "_loc": "0007"}, "geometry": {"type": "Polygon", "coordinates": [[[-102.25764, 19.95804], [-102.25777, 19.95789], [-102.25793, 19.95805], [-102.25781, 19.95819], [-102.25764, 19.95804]]]}}, {"id": "1318588", "type": "Feature", "properties": {"id": "1318588", "CVEGEO": "1610800071268030", "POBTOT": 26.0, "score_nse": 61.236, "NSE": "C", "VIVTOT": 10.0, "GRAPROES": 8.71, "_ent": "16", "_mun": "108", "_loc": "0007"}, "geometry": {"type": "Polygon", "coordinates": [[[-102.25726, 19.95895], [-102.25798, 19.95809], [-102.25817, 19.95828], [-102.25758, 19.95936], [-102.25726, 19.95895]]]}}, {"id": "1318589", "type": "Feature", "properties": {"id": "1318589", "CVEGEO": "1610800071253034", "POBTOT": 4.0, "score_nse": 0.0, "NSE": "ND", "VIVTOT": 1.0, "GRAPROES": 0.0, "_ent": "16", "_mun": "108", "_loc": "0007"}, "geometry": {"type": "Polygon", "coordinates": [[[-102.25917, 19.96805], [-102.2587, 19.96527], [-102.25864, 19.96432], [-102.25931, 19.96433], [-102.2595, 19.96563], [-102.26027, 19.96749], [-102.25917, 19.96805]]]}}, {"id": "1318590", "type": "Feature", "properties": {"id": "1318590", "CVEGEO": "1610800071253033", "POBTOT": 74.0, "score_nse": 38.7649, "NSE": "D+", "VIVTOT": 39.0, "GRAPROES": 5.96, "_ent": "16", "_mun": "108", "_loc": "0007"}, "geometry": {"type": "Polygon", "coordinates": [[[-102.26053, 19.95729], [-102.26066, 19.95695], [-102.26312, 19.95802], [-102.26303, 19.95829], [-102.26053, 19.95729]]]}}, {"id": "1318591", "type": "Feature", "properties": {"id": "1318591", "CVEGEO": "1610800071253032", "POBTOT": 6.0, "score_nse": 0.0, "NSE": "ND", "VIVTOT": 3.0, "GRAPROES": 0.0, "_ent": "16", "_mun": "108", "_loc": "0007"}, "geometry": {"type": "Polygon", "coordinates": [[[-102.2594, 19.96366], [-102.25954, 19.96333], [-102.25999, 19.96317], [-102.26046, 19.96334], [-102.26079, 19.96371], [-102.26054, 19.96397], [-102.26031, 19.96388], [-102.26051, 19.96402], [-102.26023, 19.96444], [-102.26018, 19.96524], [-102.25952, 19.96527], [-102.2594, 19.96366]]]}}, {"id": "1318592", "type": "Feature", "properties": {"id": "1318592", "CVEGEO": "1610800071253031", "POBTOT": 0.0, "score_nse": 0.0, "NSE": "ND", "VIVTOT": 0.0, "GRAPROES": 0.0, "_ent": "16", "_mun": "108", "_loc": "0007"}, "geometry": {"type": "Polygon", "coordinates": [[[-102.26031, 19.96442], [-102.26084, 19.96377], [-102.26154, 19.96455], [-102.26129, 19.96491], [-102.2604, 19.96466], [-102.26031, 19.96442]]]}}, {"id": "1318593", "type": "Feature", "properties": {"id": "1318593", "CVEGEO": "1610800071253030", "POBTOT": 5.0, "score_nse": 0.0, "NSE": "ND", "VIVTOT": 2.0, "GRAPROES": 0.0, "_ent": "16", "_mun": "108", "_loc": "0007"}, "geometry": {"type": "Polygon", "coordinates": [[[-102.26317, 19.96671], [-102.26298, 19.96675], [-102.26165, 19.96562], [-102.26131, 19.96493], [-102.26155, 19.96465], [-102.26317, 19.96671]]]}}, {"id": "1318594", "type": "Feature", "properties": {"id": "1318594", "CVEGEO": "1610800071253028", "POBTOT": 15.0, "score_nse": 0.0, "NSE": "ND", "VIVTOT": 7.0, "GRAPROES": 5.25, "_ent": "16", "_mun": "108", "_loc": "0007"}, "geometry": {"type": "Polygon", "coordinates": [[[-102.26522, 19.96156], [-102.26439, 19.96094], [-102.26548, 19.96022], [-102.26569, 19.95985], [-102.26589, 19.95998], [-102.26589, 19.96051], [-102.26562, 19.9607], [-102.26576, 19.96095], [-102.26522, 19.96156]]]}}, {"id": "1318595", "type": "Feature", "properties": {"id": "1318595", "CVEGEO": "1610800071253010", "POBTOT": 0.0, "score_nse": 0.0, "NSE": "ND", "VIVTOT": 0.0, "GRAPROES": 0.0, "_ent": "16", "_mun": "108", "_loc": "0007"}, "geometry": {"type": "Polygon", "coordinates": [[[-102.25999, 19.96221], [-102.26083, 19.96238], [-102.26066, 19.96308], [-102.26035, 19.96268], [-102.25999, 19.96221]]]}}, {"id": "1318596", "type": "Feature", "properties": {"id": "1318596", "CVEGEO": "1610800071253009", "POBTOT": 11.0, "score_nse": 0.0, "NSE": "ND", "VIVTOT": 5.0, "GRAPROES": 9.5, "_ent": "16", "_mun": "108", "_loc": "0007"}, "geometry": {"type": "Polygon", "coordinates": [[[-102.26074, 19.96311], [-102.26092, 19.96236], [-102.26161, 19.9625], [-102.26136, 19.96326], [-102.26074, 19.96311]]]}}, {"id": "1319280", "type": "Feature", "properties": {"id": "1319280", "CVEGEO": "1610800071268035", "POBTOT": 10.0, "score_nse": 0.0, "NSE": "ND", "VIVTOT": 8.0, "GRAPROES": 7.25, "_ent": "16", "_mun": "108", "_loc": "0007"}, "geometry": {"type": "Polygon", "coordinates": [[[-102.25843, 19.96027], [-102.25911, 19.96049], [-102.25891, 19.96091], [-102.25843, 19.96027]]]}}, {"id": "1319281", "type": "Feature", "properties": {"id": "1319281", "CVEGEO": "1610800071268029", "POBTOT": 40.0, "score_nse": 67.4713, "NSE": "C", "VIVTOT": 12.0, "GRAPROES": 9.11, "_ent": "16", "_mun": "108", "_loc": "0007"}, "geometry": {"type": "Polygon", "coordinates": [[[-102.25763, 19.95942], [-102.25823, 19.95834], [-102.2585, 19.95847], [-102.25784, 19.95967], [-102.25763, 19.95942]]]}}, {"id": "1319282", "type": "Feature", "properties": {"id": "1319282", "CVEGEO": "1610800071268028", "POBTOT": 0.0, "score_nse": 0.0, "NSE": "ND", "VIVTOT": 0.0, "GRAPROES": 0.0, "_ent": "16", "_mun": "108", "_loc": "0007"}, "geometry": {"type": "Polygon", "coordinates": [[[-102.25823, 19.96008], [-102.25791, 19.9597], [-102.25856, 19.9585], [-102.2597, 19.95893], [-102.25916, 19.96039], [-102.25823, 19.96008]]]}}, {"id": "1319283", "type": "Feature", "properties": {"id": "1319283", "CVEGEO": "1610800071268027", "POBTOT": 6.0, "score_nse": 0.0, "NSE": "ND", "VIVTOT": 3.0, "GRAPROES": 5.33, "_ent": "16", "_mun": "108", "_loc": "0007"}, "geometry": {"type": "Polygon", "coordinates": [[[-102.25908, 19.95858], [-102.25937, 19.95784], [-102.26008, 19.95811], [-102.25977, 19.95883], [-102.25908, 19.95858]]]}}, {"id": "1319284", "type": "Feature", "properties": {"id": "1319284", "CVEGEO": "1610800071268026", "POBTOT": 30.0, "score_nse": 0.0, "NSE": "ND", "VIVTOT": 17.0, "GRAPROES": 5.36, "_ent": "16", "_mun": "108", "_loc": "0007"}, "geometry": {"type": "Polygon", "coordinates": [[[-102.25943, 19.95774], [-102.25973, 19.95706], [-102.26042, 19.95734], [-102.26011, 19.95802], [-102.25943, 19.95774]]]}}, {"id": "1319285", "type": "Feature", "properties": {"id": "1319285", "CVEGEO": "1610800071268025", "POBTOT": 18.0, "score_nse": 0.0, "NSE": "ND", "VIVTOT": 8.0, "GRAPROES": 6.75, "_ent": "16", "_mun": "108", "_loc": "0007"}, "geometry": {"type": "Polygon", "coordinates": [[[-102.25975, 19.95698], [-102.25996, 19.95648], [-102.2606, 19.95691], [-102.26047, 19.95727], [-102.25975, 19.95698]]]}}, {"id": "1319286", "type": "Feature", "properties": {"id": "1319286", "CVEGEO": "1610800071268024", "POBTOT": 96.0, "score_nse": 54.184, "NSE": "C-", "VIVTOT": 30.0, "GRAPROES": 8.08, "_ent": "16", "_mun": "108", "_loc": "0007"}, "geometry": {"type": "Polygon", "coordinates": [[[-102.25827, 19.95828], [-102.25742, 19.95742], [-102.25761, 19.95723], [-102.25869, 19.95828], [-102.25861, 19.95842], [-102.25827, 19.95828]]]}}, {"id": "1319570", "type": "Feature", "properties": {"id": "1319570", "CVEGEO": "1610800071268023", "POBTOT": 20.0, "score_nse": 0.0, "NSE": "ND", "VIVTOT": 8.0, "GRAPROES": 8.64, "_ent": "16", "_mun": "108", "_loc": "0007"}, "geometry": {"type": "Polygon", "coordinates": [[[-102.25869, 19.95841], [-102.25897, 19.95786], [-102.25891, 19.95764], [-102.25931, 19.95782], [-102.25902, 19.95855], [-102.25869, 19.95841]]]}}, {"id": "1319571", "type": "Feature", "properties": {"id": "1319571", "CVEGEO": "1610800071268011", "POBTOT": 40.0, "score_nse": 66.6071, "NSE": "C", "VIVTOT": 18.0, "GRAPROES": 11.32, "_ent": "16", "_mun": "108", "_loc": "0007"}, "geometry": {"type": "Polygon", "coordinates": [[[-102.2577, 19.95701], [-102.25749, 19.95687], [-102.25779, 19.95645], [-102.25802, 19.95658], [-102.2577, 19.95701]]]}}, {"id": "1319572", "type": "Feature", "properties": {"id": "1319572", "CVEGEO": "1610800071268010", "POBTOT": 40.0, "score_nse": 63.4828, "NSE": "C", "VIVTOT": 17.0, "GRAPROES": 12.44, "_ent": "16", "_mun": "108", "_loc": "0007"}, "geometry": {"type": "Polygon", "coordinates": [[[-102.25774, 19.95703], [-102.25806, 19.95662], [-102.25829, 19.95677], [-102.25797, 19.95718], [-102.25774, 19.95703]]]}}, {"id": "1319573", "type": "Feature", "properties": {"id": "1319573", "CVEGEO": "1610800071268009", "POBTOT": 41.0, "score_nse": 65.1591, "NSE": "C", "VIVTOT": 18.0, "GRAPROES": 10.86, "_ent": "16", "_mun": "108", "_loc": "0007"}, "geometry": {"type": "Polygon", "coordinates": [[[-102.25802, 19.9572], [-102.25832, 19.95679], [-102.25852, 19.95692], [-102.25823, 19.95734], [-102.25802, 19.9572]]]}}, {"id": "1319574", "type": "Feature", "properties": {"id": "1319574", "CVEGEO": "1610800071268008", "POBTOT": 55.0, "score_nse": 53.5591, "NSE": "C-", "VIVTOT": 18.0, "GRAPROES": 8.26, "_ent": "16", "_mun": "108", "_loc": "0007"}, "geometry": {"type": "Polygon", "coordinates": [[[-102.25828, 19.95737], [-102.25856, 19.95694], [-102.25878, 19.95707], [-102.2585, 19.95751], [-102.25828, 19.95737]]]}}, {"id": "1319575", "type": "Feature", "properties": {"id": "1319575", "CVEGEO": "1610800071268007", "POBTOT": 73.0, "score_nse": 67.203, "NSE": "C", "VIVTOT": 29.0, "GRAPROES": 11.27, "_ent": "16", "_mun": "108", "_loc": "0007"}, "geometry": {"type": "Polygon", "coordinates": [[[-102.25861, 19.95687], [-102.25908, 19.95621], [-102.2593, 19.95635], [-102.25883, 19.95702], [-102.25861, 19.95687]]]}}, {"id": "1319576", "type": "Feature", "properties": {"id": "1319576", "CVEGEO": "1610800071268006", "POBTOT": 32.0, "score_nse": 60.391, "NSE": "C", "VIVTOT": 16.0, "GRAPROES": 10.59, "_ent": "16", "_mun": "108", "_loc": "0007"}, "geometry": {"type": "Polygon", "coordinates": [[[-102.25857, 19.95641], [-102.25881, 19.95606], [-102.25904, 19.95619], [-102.2588, 19.95655], [-102.25857, 19.95641]]]}}, {"id": "1319577", "type": "Feature", "properties": {"id": "1319577", "CVEGEO": "1610800071268005", "POBTOT": 38.0, "score_nse": 55.395, "NSE": "C", "VIVTOT": 16.0, "GRAPROES": 9.2, "_ent": "16", "_mun": "108", "_loc": "0007"}, "geometry": {"type": "Polygon", "coordinates": [[[-102.25831, 19.95625], [-102.25856, 19.95588], [-102.25877, 19.95602], [-102.25853, 19.95638], [-102.25831, 19.95625]]]}}, {"id": "1319578", "type": "Feature", "properties": {"id": "1319578", "CVEGEO": "1610800071268004", "POBTOT": 41.0, "score_nse": 63.758, "NSE": "C", "VIVTOT": 16.0, "GRAPROES": 10.84, "_ent": "16", "_mun": "108", "_loc": "0007"}, "geometry": {"type": "Polygon", "coordinates": [[[-102.25805, 19.95608], [-102.25829, 19.95573], [-102.25851, 19.95586], [-102.25826, 19.95623], [-102.25805, 19.95608]]]}}, {"id": "1319579", "type": "Feature", "properties": {"id": "1319579", "CVEGEO": "1610800071268003", "POBTOT": 44.0, "score_nse": 57.667, "NSE": "C", "VIVTOT": 16.0, "GRAPROES": 10.88, "_ent": "16", "_mun": "108", "_loc": "0007"}, "geometry": {"type": "Polygon", "coordinates": [[[-102.25779, 19.95592], [-102.25805, 19.95557], [-102.25824, 19.95569], [-102.25799, 19.95605], [-102.25779, 19.95592]]]}}, {"id": "1319580", "type": "Feature", "properties": {"id": "1319580", "CVEGEO": "1610800071253029", "POBTOT": 0.0, "score_nse": 0.0, "NSE": "ND", "VIVTOT": 0.0, "GRAPROES": 0.0, "_ent": "16", "_mun": "108", "_loc": "0007"}, "geometry": {"type": "Polygon", "coordinates": [[[-102.26429, 19.96357], [-102.26371, 19.96354], [-102.26383, 19.96333], [-102.26417, 19.96337], [-102.26429, 19.96357]]]}}, {"id": "1319581", "type": "Feature", "properties": {"id": "1319581", "CVEGEO": "1610800071253026", "POBTOT": 92.0, "score_nse": 50.7765, "NSE": "C-", "VIVTOT": 32.0, "GRAPROES": 6.94, "_ent": "16", "_mun": "108", "_loc": "0007"}, "geometry": {"type": "Polygon", "coordinates": [[[-102.26185, 19.95871], [-102.2621, 19.958], [-102.26301, 19.95835], [-102.26278, 19.95907], [-102.26185, 19.95871]]]}}, {"id": "1319582", "type": "Feature", "properties": {"id": "1319582", "CVEGEO": "1610800071253025", "POBTOT": 20.0, "score_nse": 55.7967, "NSE": "C", "VIVTOT": 12.0, "GRAPROES": 9.19, "_ent": "16", "_mun": "108", "_loc": "0007"}, "geometry": {"type": "Polygon", "coordinates": [[[-102.26102, 19.95837], [-102.26129, 19.9577], [-102.26204, 19.95796], [-102.26179, 19.95867], [-102.26102, 19.95837]]]}}, {"id": "1319583", "type": "Feature", "properties": {"id": "1319583", "CVEGEO": "1610800071253024", "POBTOT": 36.0, "score_nse": 47.96, "NSE": "C-", "VIVTOT": 15.0, "GRAPROES": 9.38, "_ent": "16", "_mun": "108", "_loc": "0007"}, "geometry": {"type": "Polygon", "coordinates": [[[-102.26019, 19.95806], [-102.26051, 19.95737], [-102.26122, 19.95767], [-102.26094, 19.95834], [-102.26019, 19.95806]]]}}, {"id": "1319584", "type": "Feature", "properties": {"id": "1319584", "CVEGEO": "1610800071253023", "POBTOT": 7.0, "score_nse": 0.0, "NSE": "ND", "VIVTOT": 2.0, "GRAPROES": 0.0, "_ent": "16", "_mun": "108", "_loc": "0007"}, "geometry": {"type": "Polygon", "coordinates": [[[-102.2608, 19.96322], [-102.26133, 19.96335], [-102.2612, 19.96375], [-102.2608, 19.96322]]]}}, {"id": "1319585", "type": "Feature", "properties": {"id": "1319585", "CVEGEO": "1610800071253022", "POBTOT": 23.0, "score_nse": 0.0, "NSE": "ND", "VIVTOT": 17.0, "GRAPROES": 8.13, "_ent": "16", "_mun": "108", "_loc": "0007"}, "geometry": {"type": "Polygon", "coordinates": [[[-102.26126, 19.96383], [-102.26141, 19.96338], [-102.26212, 19.96354], [-102.26165, 19.96434], [-102.26126, 19.96383]]]}}, {"id": "1319586", "type": "Feature", "properties": {"id": "1319586", "CVEGEO": "1610800071253021", "POBTOT": 19.0, "score_nse": 0.0, "NSE": "ND", "VIVTOT": 10.0, "GRAPROES": 5.64, "_ent": "16", "_mun": "108", "_loc": "0007"}, "geometry": {"type": "Polygon", "coordinates": [[[-102.26178, 19.96438], [-102.26223, 19.96356], [-102.26317, 19.96379], [-102.26255, 19.96431], [-102.26178, 19.96438]]]}}, {"id": "1319587", "type": "Feature", "properties": {"id": "1319587", "CVEGEO": "1610800071253020", "POBTOT": 37.0, "score_nse": 46.415, "NSE": "C-", "VIVTOT": 16.0, "GRAPROES": 7.26, "_ent": "16", "_mun": "108", "_loc": "0007"}, "geometry": {"type": "Polygon", "coordinates": [[[-102.26228, 19.96348], [-102.26256, 19.96268], [-102.26361, 19.9629], [-102.26364, 19.96323], [-102.26326, 19.96374], [-102.26228, 19.96348]]]}}, {"id": "1319588", "type": "Feature", "properties": {"id": "1319588", "CVEGEO": "1610800071253008", "POBTOT": 26.0, "score_nse": 45.8533, "NSE": "C-", "VIVTOT": 15.0, "GRAPROES": 6.88, "_ent": "16", "_mun": "108", "_loc": "0007"}, "geometry": {"type": "Polygon", "coordinates": [[[-102.26141, 19.96328], [-102.26167, 19.96255], [-102.26246, 19.96267], [-102.26222, 19.96346], [-102.26141, 19.96328]]]}}, {"id": "1319589", "type": "Feature", "properties": {"id": "1319589", "CVEGEO": "1610800071253007", "POBTOT": 89.0, "score_nse": 0.0, "NSE": "ND", "VIVTOT": 32.0, "GRAPROES": 6.97, "_ent": "16", "_mun": "108", "_loc": "0007"}, "geometry": {"type": "Polygon", "coordinates": [[[-102.26172, 19.96245], [-102.26228, 19.96085], [-102.26299, 19.96116], [-102.26251, 19.96259], [-102.26172, 19.96245]]]}}, {"id": "1319590", "type": "Feature", "properties": {"id": "1319590", "CVEGEO": "1610800071253006", "POBTOT": 49.0, "score_nse": 48.6382, "NSE": "C-", "VIVTOT": 27.0, "GRAPROES": 8.32, "_ent": "16", "_mun": "108", "_loc": "0007"}, "geometry": {"type": "Polygon", "coordinates": [[[-102.2623, 19.96072], [-102.26255, 19.95999], [-102.26334, 19.96027], [-102.26304, 19.96106], [-102.2623, 19.96072]]]}}, {"id": "1319591", "type": "Feature", "properties": {"id": "1319591", "CVEGEO": "1610800071253005", "POBTOT": 58.0, "score_nse": 53.2345, "NSE": "C-", "VIVTOT": 19.0, "GRAPROES": 8.84, "_ent": "16", "_mun": "108", "_loc": "0007"}, "geometry": {"type": "Polygon", "coordinates": [[[-102.26142, 19.96034], [-102.2616, 19.95962], [-102.26244, 19.95994], [-102.2622, 19.96068], [-102.26142, 19.96034]]]}}, {"id": "1319592", "type": "Feature", "properties": {"id": "1319592", "CVEGEO": "1610800071253004", "POBTOT": 63.0, "score_nse": 48.2436, "NSE": "C-", "VIVTOT": 22.0, "GRAPROES": 7.64, "_ent": "16", "_mun": "108", "_loc": "0007"}, "geometry": {"type": "Polygon", "coordinates": [[[-102.26042, 19.95998], [-102.26067, 19.95929], [-102.26152, 19.95957], [-102.26134, 19.96032], [-102.26042, 19.95998]]]}}, {"id": "1319593", "type": "Feature", "properties": {"id": "1319593", "CVEGEO": "1610800071253003", "POBTOT": 61.0, "score_nse": 45.9918, "NSE": "C-", "VIVTOT": 23.0, "GRAPROES": 6.54, "_ent": "16", "_mun": "108", "_loc": "0007"}, "geometry": {"type": "Polygon", "coordinates": [[[-102.26008, 19.96074], [-102.26037, 19.96005], [-102.26133, 19.9604], [-102.26112, 19.96111], [-102.26008, 19.96074]]]}}, {"id": "1319594", "type": "Feature", "properties": {"id": "1319594", "CVEGEO": "1610800071253002", "POBTOT": 98.0, "score_nse": 43.3379, "NSE": "C-", "VIVTOT": 42.0, "GRAPROES": 6.67, "_ent": "16", "_mun": "108", "_loc": "0007"}, "geometry": {"type": "Polygon", "coordinates": [[[-102.25982, 19.96206], [-102.25962, 19.96175], [-102.25999, 19.9608], [-102.26112, 19.96119], [-102.26083, 19.96225], [-102.25982, 19.96206]]]}}, {"id": "1319595", "type": "Feature", "properties": {"id": "1319595", "CVEGEO": "1610800071253001", "POBTOT": 115.0, "score_nse": 54.9019, "NSE": "C-", "VIVTOT": 46.0, "GRAPROES": 8.06, "_ent": "16", "_mun": "108", "_loc": "0007"}, "geometry": {"type": "Polygon", "coordinates": [[[-102.26092, 19.96228], [-102.26141, 19.96046], [-102.26219, 19.96081], [-102.26165, 19.96242], [-102.26092, 19.96228]]]}}, {"id": "1320279", "type": "Feature", "properties": {"id": "1320279", "CVEGEO": "1610800071268014", "POBTOT": 30.0, "score_nse": 53.4067, "NSE": "C-", "VIVTOT": 15.0, "GRAPROES": 9.87, "_ent": "16", "_mun": "108", "_loc": "0007"}, "geometry": {"type": "Polygon", "coordinates": [[[-102.25679, 19.95644], [-102.25697, 19.95595], [-102.2572, 19.95609], [-102.25692, 19.95652], [-102.25679, 19.95644]]]}}, {"id": "1320280", "type": "Feature", "properties": {"id": "1320280", "CVEGEO": "1610800071268013", "POBTOT": 65.0, "score_nse": 60.2152, "NSE": "C", "VIVTOT": 19.0, "GRAPROES": 9.74, "_ent": "16", "_mun": "108", "_loc": "0007"}, "geometry": {"type": "Polygon", "coordinates": [[[-102.25697, 19.95655], [-102.25726, 19.95612], [-102.25749, 19.95625], [-102.25718, 19.95668], [-102.25697, 19.95655]]]}}, {"id": "1320281", "type": "Feature", "properties": {"id": "1320281", "CVEGEO": "1610800071268012", "POBTOT": 49.0, "score_nse": 60.4876, "NSE": "C", "VIVTOT": 18.0, "GRAPROES": 10.97, "_ent": "16", "_mun": "108", "_loc": "0007"}, "geometry": {"type": "Polygon", "coordinates": [[[-102.25723, 19.95671], [-102.25754, 19.95628], [-102.25774, 19.95642], [-102.25745, 19.95685], [-102.25723, 19.95671]]]}}, {"id": "1320282", "type": "Feature", "properties": {"id": "1320282", "CVEGEO": "1610800071268002", "POBTOT": 48.0, "score_nse": 56.272, "NSE": "C", "VIVTOT": 30.0, "GRAPROES": 11.5, "_ent": "16", "_mun": "108", "_loc": "0007"}, "geometry": {"type": "Polygon", "coordinates": [[[-102.25731, 19.95607], [-102.25778, 19.95539], [-102.258, 19.95553], [-102.25752, 19.9562], [-102.25731, 19.95607]]]}}, {"id": "1320283", "type": "Feature", "properties": {"id": "1320283", "CVEGEO": "1610800071268001", "POBTOT": 0.0, "score_nse": 0.0, "NSE": "ND", "VIVTOT": 0.0, "GRAPROES": 0.0, "_ent": "16", "_mun": "108", "_loc": "0007"}, "geometry": {"type": "Polygon", "coordinates": [[[-102.25757, 19.95623], [-102.25775, 19.95598], [-102.25873, 19.95658], [-102.25855, 19.95684], [-102.25757, 19.95623]]]}}, {"id": "1320284", "type": "Feature", "properties": {"id": "1320284", "CVEGEO": "1610800071253027", "POBTOT": 46.0, "score_nse": 0.0, "NSE": "ND", "VIVTOT": 12.0, "GRAPROES": 7.31, "_ent": "16", "_mun": "108", "_loc": "0007"}, "geometry": {"type": "Polygon", "coordinates": [[[-102.26415, 19.96071], [-102.26461, 19.96017], [-102.2649, 19.9595], [-102.2648, 19.95855], [-102.2651, 19.95771], [-102.26523, 19.95777], [-102.26522, 19.95861], [-102.26547, 19.95968], [-102.26472, 19.96054], [-102.26429, 19.96087], [-102.26415, 19.96071]]]}}, {"id": "1320285", "type": "Feature", "properties": {"id": "1320285", "CVEGEO": "1610800071253019", "POBTOT": 32.0, "score_nse": 49.8483, "NSE": "C-", "VIVTOT": 13.0, "GRAPROES": 7.29, "_ent": "16", "_mun": "108", "_loc": "0007"}, "geometry": {"type": "Polygon", "coordinates": [[[-102.26264, 19.9626], [-102.26309, 19.96118], [-102.26366, 19.9614], [-102.2641, 19.96078], [-102.26351, 19.96201], [-102.26365, 19.96282], [-102.26264, 19.9626]]]}}, {"id": "1320572", "type": "Feature", "properties": {"id": "1320572", "CVEGEO": "1610800071268018", "POBTOT": 67.0, "score_nse": 62.3373, "NSE": "C", "VIVTOT": 30.0, "GRAPROES": 11.59, "_ent": "16", "_mun": "108", "_loc": "0007"}, "geometry": {"type": "Polygon", "coordinates": [[[-102.25887, 19.95705], [-102.25934, 19.95637], [-102.25958, 19.95651], [-102.2591, 19.95719], [-102.25887, 19.95705]]]}}, {"id": "1320573", "type": "Feature", "properties": {"id": "1320573", "CVEGEO": "1610800071268017", "POBTOT": 20.0, "score_nse": 56.776, "NSE": "C", "VIVTOT": 15.0, "GRAPROES": 13.06, "_ent": "16", "_mun": "108", "_loc": "0007"}, "geometry": {"type": "Polygon", "coordinates": [[[-102.25859, 19.95583], [-102.25866, 19.95572], [-102.25942, 19.95618], [-102.25934, 19.95629], [-102.25859, 19.95583]]]}}, {"id": "1320574", "type": "Feature", "properties": {"id": "1320574", "CVEGEO": "1610800071268016", "POBTOT": 52.0, "score_nse": 63.6035, "NSE": "C", "VIVTOT": 17.0, "GRAPROES": 10.54, "_ent": "16", "_mun": "108", "_loc": "0007"}, "geometry": {"type": "Polygon", "coordinates": [[[-102.25782, 19.95536], [-102.2579, 19.95524], [-102.25863, 19.95571], [-102.25856, 19.95581], [-102.25782, 19.95536]]]}}, {"id": "1320575", "type": "Feature", "properties": {"id": "1320575", "CVEGEO": "1610800071268015", "POBTOT": 98.0, "score_nse": 60.072, "NSE": "C", "VIVTOT": 35.0, "GRAPROES": 10.52, "_ent": "16", "_mun": "108", "_loc": "0007"}, "geometry": {"type": "Polygon", "coordinates": [[[-102.25702, 19.95588], [-102.25761, 19.95507], [-102.25783, 19.95522], [-102.25725, 19.95604], [-102.25702, 19.95588]]]}}, {"id": "1320576", "type": "Feature", "properties": {"id": "1320576", "CVEGEO": "1610800071253011", "POBTOT": 25.0, "score_nse": 0.0, "NSE": "ND", "VIVTOT": 7.0, "GRAPROES": 7.06, "_ent": "16", "_mun": "108", "_loc": "0007"}, "geometry": {"type": "Polygon", "coordinates": [[[-102.25896, 19.96097], [-102.25919, 19.96052], [-102.25992, 19.96075], [-102.25954, 19.96168], [-102.25896, 19.96097]]]}}, {"id": "1321238", "type": "Feature", "properties": {"id": "1321238", "CVEGEO": "1610800071268022", "POBTOT": 31.0, "score_nse": 51.2324, "NSE": "C-", "VIVTOT": 9.0, "GRAPROES": 6.17, "_ent": "16", "_mun": "108", "_loc": "0007"}, "geometry": {"type": "Polygon", "coordinates": [[[-102.25898, 19.95759], [-102.25965, 19.95649], [-102.25938, 19.95631], [-102.25947, 19.9562], [-102.25989, 19.95645], [-102.25934, 19.95774], [-102.25898, 19.95759]]]}}, {"id": "1321656", "type": "Feature", "properties": {"id": "1321656", "CVEGEO": "1610800071268036", "POBTOT": 49.0, "score_nse": 0.0, "NSE": "ND", "VIVTOT": 22.0, "GRAPROES": 5.43, "_ent": "16", "_mun": "108", "_loc": "0007"}, "geometry": {"type": "Polygon", "coordinates": [[[-102.25573, 19.96], [-102.25586, 19.95996], [-102.25627, 19.96046], [-102.25642, 19.96041], [-102.25614, 19.95995], [-102.25737, 19.95958], [-102.25759, 19.95987], [-102.25672, 19.9607], [-102.25612, 19.96058], [-102.25617, 19.96087], [-102.2559, 19.96085], [-102.25573, 19.96]]]}}, {"id": "1321657", "type": "Feature", "properties": {"id": "1321657", "CVEGEO": "1610800071268039", "POBTOT": 0.0, "score_nse": 0.0, "NSE": null, "VIVTOT": 0.0, "GRAPROES": 0.0, "_ent": "16", "_mun": "108", "_loc": "0007"}, "geometry": {"type": "Polygon", "coordinates": [[[-102.25557, 19.95982], [-102.25568, 19.95979], [-102.25495, 19.95884], [-102.25642, 19.95838], [-102.25729, 19.95949], [-102.25644, 19.95975], [-102.25571, 19.95875], [-102.25637, 19.95977], [-102.2557, 19.95998], [-102.25557, 19.95982]]]}}, {"id": "1321658", "type": "Feature", "properties": {"id": "1321658", "CVEGEO": "1610800071268040", "POBTOT": 0.0, "score_nse": 0.0, "NSE": null, "VIVTOT": 0.0, "GRAPROES": 0.0, "_ent": "16", "_mun": "108", "_loc": "0007"}, "geometry": {"type": "Polygon", "coordinates": [[[-102.25682, 19.96073], [-102.25765, 19.95994], [-102.25836, 19.96082], [-102.25813, 19.96099], [-102.25682, 19.96073]]]}}, {"id": "1321659", "type": "Feature", "properties": {"id": "1321659", "CVEGEO": "1610800071268041", "POBTOT": 0.0, "score_nse": 0.0, "NSE": null, "VIVTOT": 0.0, "GRAPROES": 0.0, "_ent": "16", "_mun": "108", "_loc": "0007"}, "geometry": {"type": "Polygon", "coordinates": [[[-102.25681, 19.96122], [-102.25634, 19.9613], [-102.25623, 19.96068], [-102.25674, 19.96079], [-102.25681, 19.96122]]]}}]}