{"type": "FeatureCollection", "features": [{"id": "392283", "type": "Feature", "properties": {"id": "392283", "CVEGEO": "0801101222045093", "POBTOT": 0.0, "score_nse": 0.0, "NSE": null, "VIVTOT": 0.0, "GRAPROES": 0.0, "_ent": "08", "_mun": "011", "_loc": "0122"}, "geometry": {"type": "Polygon", "coordinates": [[[-104.55149, 28.30889], [-104.552, 28.30847], [-104.55233, 28.3088], [-104.55183, 28.30921], [-104.55149, 28.30889]]]}}, {"id": "392284", "type": "Feature", "properties": {"id": "392284", "CVEGEO": "0801101222045092", "POBTOT": 0.0, "score_nse": 0.0, "NSE": null, "VIVTOT": 0.0, "GRAPROES": 0.0, "_ent": "08", "_mun": "011", "_loc": "0122"}, "geometry": {"type": "Polygon", "coordinates": [[[-104.55217, 28.30827], [-104.55301, 28.30757], [-104.55357, 28.30745], [-104.55392, 28.30786], [-104.55386, 28.30821], [-104.55352, 28.30854], [-104.55312, 28.30818], [-104.55253, 28.30861], [-104.55217, 28.30827]]]}}, {"id": "392285", "type": "Feature", "properties": {"id": "392285", "CVEGEO": "0801101222045081", "POBTOT": 0.0, "score_nse": 0.0, "NSE": null, "VIVTOT": 0.0, "GRAPROES": 0.0, "_ent": "08", "_mun": "011", "_loc": "0122"}, "geometry": {"type": "Polygon", "coordinates": [[[-104.55126, 28.30987], [-104.54952, 28.30875], [-104.54972, 28.30855], [-104.55138, 28.30975], [-104.55126, 28.30987]]]}}, {"id": "392286", "type": "Feature", "properties": {"id": "392286", "CVEGEO": "0801101222045020", "POBTOT": 0.0, "score_nse": 0.0, "NSE": null, "VIVTOT": 0.0, "GRAPROES": 0.0, "_ent": "08", "_mun": "011", "_loc": "0122"}, "geometry": {"type": "Polygon", "coordinates": [[[-104.55068, 28.30477], [-104.55189, 28.30371], [-104.55207, 28.30385], [-104.55083, 28.3049], [-104.55068, 28.30477]]]}}, {"id": "392287", "type": "Feature", "properties": {"id": "392287", "CVEGEO": "0801101222045019", "POBTOT": 0.0, "score_nse": 0.0, "NSE": null, "VIVTOT": 0.0, "GRAPROES": 0.0, "_ent": "08", "_mun": "011", "_loc": "0122"}, "geometry": {"type": "Polygon", "coordinates": [[[-104.55045, 28.30455], [-104.55163, 28.30357], [-104.55182, 28.30366], [-104.55062, 28.30471], [-104.55045, 28.30455]]]}}, {"id": "392288", "type": "Feature", "properties": {"id": "392288", "CVEGEO": "0801101222045018", "POBTOT": 0.0, "score_nse": 0.0, "NSE": null, "VIVTOT": 0.0, "GRAPROES": 0.0, "_ent": "08", "_mun": "011", "_loc": "0122"}, "geometry": {"type": "Polygon", "coordinates": [[[-104.55018, 28.30429], [-104.55096, 28.30362], [-104.55113, 28.30378], [-104.55035, 28.30443], [-104.55018, 28.30429]]]}}, {"id": "392289", "type": "Feature", "properties": {"id": "392289", "CVEGEO": "0801101222045006", "POBTOT": 0.0, "score_nse": 0.0, "NSE": null, "VIVTOT": 0.0, "GRAPROES": 0.0, "_ent": "08", "_mun": "011", "_loc": "0122"}, "geometry": {"type": "Polygon", "coordinates": [[[-104.54924, 28.30554], [-104.55039, 28.30464], [-104.55052, 28.30478], [-104.54938, 28.30569], [-104.54924, 28.30554]]]}}, {"id": "392457", "type": "Feature", "properties": {"id": "392457", "CVEGEO": "0801101222045007", "POBTOT": 0.0, "score_nse": 0.0, "NSE": null, "VIVTOT": 0.0, "GRAPROES": 0.0, "_ent": "08", "_mun": "011", "_loc": "0122"}, "geometry": {"type": "Polygon", "coordinates": [[[-104.548, 28.30661], [-104.54916, 28.30569], [-104.5493, 28.30581], [-104.54815, 28.30675], [-104.548, 28.30661]]]}}, {"id": "392460", "type": "Feature", "properties": {"id": "392460", "CVEGEO": "0801101222045037", "POBTOT": 0.0, "score_nse": 0.0, "NSE": null, "VIVTOT": 0.0, "GRAPROES": 0.0, "_ent": "08", "_mun": "011", "_loc": "0122"}, "geometry": {"type": "Polygon", "coordinates": [[[-104.55156, 28.30558], [-104.55208, 28.30515], [-104.55238, 28.30544], [-104.55214, 28.30508], [-104.55258, 28.30471], [-104.55274, 28.30486], [-104.55284, 28.30453], [-104.55324, 28.30437], [-104.55347, 28.30462], [-104.55365, 28.30554], [-104.55313, 28.30507], [-104.55234, 28.30577], [-104.55312, 28.30649], [-104.55284, 28.30675], [-104.55156, 28.30558]]]}}, {"id": "392461", "type": "Feature", "properties": {"id": "392461", "CVEGEO": "0801101222045009", "POBTOT": 0.0, "score_nse": 0.0, "NSE": null, "VIVTOT": 0.0, "GRAPROES": 0.0, "_ent": "08", "_mun": "011", "_loc": "0122"}, "geometry": {"type": "Polygon", "coordinates": [[[-104.54589, 28.30787], [-104.54763, 28.30645], [-104.54774, 28.30658], [-104.5463, 28.3078], [-104.54589, 28.30787]]]}}, {"id": "392650", "type": "Feature", "properties": {"id": "392650", "CVEGEO": "0801101222045053", "POBTOT": 0.0, "score_nse": 0.0, "NSE": null, "VIVTOT": 0.0, "GRAPROES": 0.0, "_ent": "08", "_mun": "011", "_loc": "0122"}, "geometry": {"type": "Polygon", "coordinates": [[[-104.55034, 28.30778], [-104.55089, 28.30731], [-104.55103, 28.30745], [-104.55047, 28.30791], [-104.55034, 28.30778]]]}}, {"id": "392651", "type": "Feature", "properties": {"id": "392651", "CVEGEO": "0801101222045052", "POBTOT": 0.0, "score_nse": 0.0, "NSE": null, "VIVTOT": 0.0, "GRAPROES": 0.0, "_ent": "08", "_mun": "011", "_loc": "0122"}, "geometry": {"type": "Polygon", "coordinates": [[[-104.55102, 28.30719], [-104.55215, 28.30626], [-104.55227, 28.30641], [-104.55116, 28.30733], [-104.55102, 28.30719]]]}}, {"id": "392676", "type": "Feature", "properties": {"id": "392676", "CVEGEO": "0801101222045095", "POBTOT": 0.0, "score_nse": 0.0, "NSE": null, "VIVTOT": 0.0, "GRAPROES": 0.0, "_ent": "08", "_mun": "011", "_loc": "0122"}, "geometry": {"type": "Polygon", "coordinates": [[[-104.55256, 28.3087], [-104.5531, 28.30826], [-104.55319, 28.30837], [-104.55268, 28.3088], [-104.55256, 28.3087]]]}}, {"id": "392706", "type": "Feature", "properties": {"id": "392706", "CVEGEO": "0801101222045048", "POBTOT": 0.0, "score_nse": 0.0, "NSE": null, "VIVTOT": 0.0, "GRAPROES": 0.0, "_ent": "08", "_mun": "011", "_loc": "0122"}, "geometry": {"type": "Polygon", "coordinates": [[[-104.54949, 28.30808], [-104.55, 28.30769], [-104.55014, 28.30782], [-104.54972, 28.30817], [-104.54949, 28.30808]]]}}, {"id": "392707", "type": "Feature", "properties": {"id": "392707", "CVEGEO": "0801101222045047", "POBTOT": 0.0, "score_nse": 0.0, "NSE": null, "VIVTOT": 0.0, "GRAPROES": 0.0, "_ent": "08", "_mun": "011", "_loc": "0122"}, "geometry": {"type": "Polygon", "coordinates": [[[-104.55009, 28.30756], [-104.55067, 28.30711], [-104.55082, 28.30726], [-104.55024, 28.30771], [-104.55009, 28.30756]]]}}, {"id": "392722", "type": "Feature", "properties": {"id": "392722", "CVEGEO": "0801101222045123", "POBTOT": 0.0, "score_nse": 0.0, "NSE": null, "VIVTOT": 0.0, "GRAPROES": 0.0, "_ent": "08", "_mun": "011", "_loc": "0122"}, "geometry": {"type": "Polygon", "coordinates": [[[-104.54754, 28.30406], [-104.54776, 28.3039], [-104.54785, 28.30401], [-104.54763, 28.30416], [-104.54754, 28.30406]]]}}, {"id": "392723", "type": "Feature", "properties": {"id": "392723", "CVEGEO": "0801101222045079", "POBTOT": 0.0, "score_nse": 0.0, "NSE": null, "VIVTOT": 0.0, "GRAPROES": 0.0, "_ent": "08", "_mun": "011", "_loc": "0122"}, "geometry": {"type": "Polygon", "coordinates": [[[-104.55024, 28.30832], [-104.55046, 28.30812], [-104.55191, 28.30942], [-104.55177, 28.30953], [-104.55024, 28.30832]]]}}, {"id": "392724", "type": "Feature", "properties": {"id": "392724", "CVEGEO": "0801101222045078", "POBTOT": 0.0, "score_nse": 0.0, "NSE": null, "VIVTOT": 0.0, "GRAPROES": 0.0, "_ent": "08", "_mun": "011", "_loc": "0122"}, "geometry": {"type": "Polygon", "coordinates": [[[-104.55101, 28.3084], [-104.55154, 28.30797], [-104.55194, 28.30835], [-104.55141, 28.30881], [-104.55101, 28.3084]]]}}, {"id": "392725", "type": "Feature", "properties": {"id": "392725", "CVEGEO": "0801101222045077", "POBTOT": 0.0, "score_nse": 0.0, "NSE": null, "VIVTOT": 0.0, "GRAPROES": 0.0, "_ent": "08", "_mun": "011", "_loc": "0122"}, "geometry": {"type": "Polygon", "coordinates": [[[-104.55209, 28.30821], [-104.55172, 28.30784], [-104.5525, 28.30722], [-104.55276, 28.30729], [-104.55306, 28.30707], [-104.55318, 28.30723], [-104.55209, 28.30821]]]}}, {"id": "392726", "type": "Feature", "properties": {"id": "392726", "CVEGEO": "0801101222045066", "POBTOT": 0.0, "score_nse": 0.0, "NSE": null, "VIVTOT": 0.0, "GRAPROES": 0.0, "_ent": "08", "_mun": "011", "_loc": "0122"}, "geometry": {"type": "Polygon", "coordinates": [[[-104.55058, 28.30801], [-104.55111, 28.30759], [-104.55144, 28.30792], [-104.55094, 28.30833], [-104.55058, 28.30801]]]}}, {"id": "392727", "type": "Feature", "properties": {"id": "392727", "CVEGEO": "0801101222045065", "POBTOT": 0.0, "score_nse": 0.0, "NSE": null, "VIVTOT": 0.0, "GRAPROES": 0.0, "_ent": "08", "_mun": "011", "_loc": "0122"}, "geometry": {"type": "Polygon", "coordinates": [[[-104.55148, 28.30762], [-104.55225, 28.307], [-104.55238, 28.30715], [-104.55163, 28.30777], [-104.55148, 28.30762]]]}}, {"id": "392728", "type": "Feature", "properties": {"id": "392728", "CVEGEO": "0801101222045064", "POBTOT": 0.0, "score_nse": 0.0, "NSE": null, "VIVTOT": 0.0, "GRAPROES": 0.0, "_ent": "08", "_mun": "011", "_loc": "0122"}, "geometry": {"type": "Polygon", "coordinates": [[[-104.55255, 28.30665], [-104.55121, 28.3075], [-104.55239, 28.3065], [-104.55255, 28.30665]]]}}, {"id": "392729", "type": "Feature", "properties": {"id": "392729", "CVEGEO": "0801101222045030", "POBTOT": 0.0, "score_nse": 0.0, "NSE": null, "VIVTOT": 0.0, "GRAPROES": 0.0, "_ent": "08", "_mun": "011", "_loc": "0122"}, "geometry": {"type": "Polygon", "coordinates": [[[-104.54981, 28.30605], [-104.55027, 28.30565], [-104.55068, 28.30604], [-104.55022, 28.30642], [-104.54981, 28.30605]]]}}, {"id": "392730", "type": "Feature", "properties": {"id": "392730", "CVEGEO": "0801101222045029", "POBTOT": 0.0, "score_nse": 0.0, "NSE": null, "VIVTOT": 0.0, "GRAPROES": 0.0, "_ent": "08", "_mun": "011", "_loc": "0122"}, "geometry": {"type": "Polygon", "coordinates": [[[-104.55037, 28.30561], [-104.55086, 28.30521], [-104.55126, 28.30557], [-104.55075, 28.30597], [-104.55037, 28.30561]]]}}, {"id": "392731", "type": "Feature", "properties": {"id": "392731", "CVEGEO": "0801101222045028", "POBTOT": 0.0, "score_nse": 0.0, "NSE": null, "VIVTOT": 0.0, "GRAPROES": 0.0, "_ent": "08", "_mun": "011", "_loc": "0122"}, "geometry": {"type": "Polygon", "coordinates": [[[-104.551, 28.30506], [-104.55227, 28.30393], [-104.55248, 28.30404], [-104.55118, 28.30521], [-104.551, 28.30506]]]}}, {"id": "392732", "type": "Feature", "properties": {"id": "392732", "CVEGEO": "0801101222045017", "POBTOT": 0.0, "score_nse": 0.0, "NSE": null, "VIVTOT": 0.0, "GRAPROES": 0.0, "_ent": "08", "_mun": "011", "_loc": "0122"}, "geometry": {"type": "Polygon", "coordinates": [[[-104.54994, 28.30406], [-104.55072, 28.30341], [-104.55088, 28.30357], [-104.55011, 28.30422], [-104.54994, 28.30406]]]}}, {"id": "392733", "type": "Feature", "properties": {"id": "392733", "CVEGEO": "0801101222045016", "POBTOT": 0.0, "score_nse": 0.0, "NSE": null, "VIVTOT": 0.0, "GRAPROES": 0.0, "_ent": "08", "_mun": "011", "_loc": "0122"}, "geometry": {"type": "Polygon", "coordinates": [[[-104.5497, 28.30384], [-104.55026, 28.30338], [-104.55042, 28.30352], [-104.54985, 28.30399], [-104.5497, 28.30384]]]}}, {"id": "392734", "type": "Feature", "properties": {"id": "392734", "CVEGEO": "0801101222045015", "POBTOT": 0.0, "score_nse": 0.0, "NSE": null, "VIVTOT": 0.0, "GRAPROES": 0.0, "_ent": "08", "_mun": "011", "_loc": "0122"}, "geometry": {"type": "Polygon", "coordinates": [[[-104.54949, 28.30363], [-104.55001, 28.3032], [-104.55015, 28.30333], [-104.54964, 28.30377], [-104.54949, 28.30363]]]}}, {"id": "392735", "type": "Feature", "properties": {"id": "392735", "CVEGEO": "0801101222045014", "POBTOT": 0.0, "score_nse": 0.0, "NSE": null, "VIVTOT": 0.0, "GRAPROES": 0.0, "_ent": "08", "_mun": "011", "_loc": "0122"}, "geometry": {"type": "Polygon", "coordinates": [[[-104.54829, 28.30464], [-104.5494, 28.30374], [-104.54955, 28.30388], [-104.54843, 28.30478], [-104.54829, 28.30464]]]}}, {"id": "392736", "type": "Feature", "properties": {"id": "392736", "CVEGEO": "0801101222045013", "POBTOT": 0.0, "score_nse": 0.0, "NSE": null, "VIVTOT": 0.0, "GRAPROES": 0.0, "_ent": "08", "_mun": "011", "_loc": "0122"}, "geometry": {"type": "Polygon", "coordinates": [[[-104.54704, 28.30569], [-104.54816, 28.30477], [-104.54829, 28.30491], [-104.54717, 28.30583], [-104.54704, 28.30569]]]}}, {"id": "392983", "type": "Feature", "properties": {"id": "392983", "CVEGEO": "0801101222045054", "POBTOT": 0.0, "score_nse": 0.0, "NSE": null, "VIVTOT": 0.0, "GRAPROES": 0.0, "_ent": "08", "_mun": "011", "_loc": "0122"}, "geometry": {"type": "Polygon", "coordinates": [[[-104.54983, 28.30817], [-104.55019, 28.30789], [-104.55035, 28.30802], [-104.55004, 28.30827], [-104.54983, 28.30817]]]}}, {"id": "392984", "type": "Feature", "properties": {"id": "392984", "CVEGEO": "0801101222045049", "POBTOT": 0.0, "score_nse": 0.0, "NSE": null, "VIVTOT": 0.0, "GRAPROES": 0.0, "_ent": "08", "_mun": "011", "_loc": "0122"}, "geometry": {"type": "Polygon", "coordinates": [[[-104.548, 28.30858], [-104.54895, 28.30772], [-104.54908, 28.30784], [-104.54815, 28.30868], [-104.548, 28.30858]]]}}, {"id": "392985", "type": "Feature", "properties": {"id": "392985", "CVEGEO": "0801101222045038", "POBTOT": 0.0, "score_nse": 0.0, "NSE": null, "VIVTOT": 0.0, "GRAPROES": 0.0, "_ent": "08", "_mun": "011", "_loc": "0122"}, "geometry": {"type": "Polygon", "coordinates": [[[-104.55104, 28.30597], [-104.55146, 28.30562], [-104.55178, 28.30593], [-104.55137, 28.30628], [-104.55104, 28.30597]]]}}, {"id": "392986", "type": "Feature", "properties": {"id": "392986", "CVEGEO": "0801101222045036", "POBTOT": 0.0, "score_nse": 0.0, "NSE": null, "VIVTOT": 0.0, "GRAPROES": 0.0, "_ent": "08", "_mun": "011", "_loc": "0122"}, "geometry": {"type": "Polygon", "coordinates": [[[-104.55124, 28.30525], [-104.55256, 28.30412], [-104.55271, 28.30425], [-104.55139, 28.3054], [-104.55124, 28.30525]]]}}, {"id": "392987", "type": "Feature", "properties": {"id": "392987", "CVEGEO": "0801101222045034", "POBTOT": 0.0, "score_nse": 0.0, "NSE": null, "VIVTOT": 0.0, "GRAPROES": 0.0, "_ent": "08", "_mun": "011", "_loc": "0122"}, "geometry": {"type": "Polygon", "coordinates": [[[-104.54661, 28.3053], [-104.54775, 28.30438], [-104.54788, 28.3045], [-104.54676, 28.30544], [-104.54661, 28.3053]]]}}, {"id": "392988", "type": "Feature", "properties": {"id": "392988", "CVEGEO": "0801101222045032", "POBTOT": 0.0, "score_nse": 0.0, "NSE": null, "VIVTOT": 0.0, "GRAPROES": 0.0, "_ent": "08", "_mun": "011", "_loc": "0122"}, "geometry": {"type": "Polygon", "coordinates": [[[-104.54789, 28.3077], [-104.54842, 28.30726], [-104.54851, 28.30736], [-104.54799, 28.3078], [-104.54789, 28.3077]]]}}, {"id": "392989", "type": "Feature", "properties": {"id": "392989", "CVEGEO": "0801101222045011", "POBTOT": 0.0, "score_nse": 0.0, "NSE": null, "VIVTOT": 0.0, "GRAPROES": 0.0, "_ent": "08", "_mun": "011", "_loc": "0122"}, "geometry": {"type": "Polygon", "coordinates": [[[-104.54538, 28.30753], [-104.54714, 28.30604], [-104.54726, 28.30615], [-104.54548, 28.30763], [-104.54538, 28.30753]]]}}, {"id": "392990", "type": "Feature", "properties": {"id": "392990", "CVEGEO": "0801101222045010", "POBTOT": 0.0, "score_nse": 0.0, "NSE": null, "VIVTOT": 0.0, "GRAPROES": 0.0, "_ent": "08", "_mun": "011", "_loc": "0122"}, "geometry": {"type": "Polygon", "coordinates": [[[-104.54561, 28.30774], [-104.5474, 28.30625], [-104.5475, 28.30635], [-104.54572, 28.30785], [-104.54561, 28.30774]]]}}, {"id": "392991", "type": "Feature", "properties": {"id": "392991", "CVEGEO": "0801101222045008", "POBTOT": 0.0, "score_nse": 0.0, "NSE": null, "VIVTOT": 0.0, "GRAPROES": 0.0, "_ent": "08", "_mun": "011", "_loc": "0122"}, "geometry": {"type": "Polygon", "coordinates": [[[-104.54657, 28.3078], [-104.5479, 28.30674], [-104.54804, 28.30687], [-104.54683, 28.30782], [-104.54657, 28.3078]]]}}, {"id": "393063", "type": "Feature", "properties": {"id": "393063", "CVEGEO": "0801101222045097", "POBTOT": 0.0, "score_nse": 0.0, "NSE": null, "VIVTOT": 0.0, "GRAPROES": 0.0, "_ent": "08", "_mun": "011", "_loc": "0122"}, "geometry": {"type": "Polygon", "coordinates": [[[-104.55304, 28.30857], [-104.55325, 28.3084], [-104.55336, 28.30851], [-104.55315, 28.30867], [-104.55304, 28.30857]]]}}, {"id": "393064", "type": "Feature", "properties": {"id": "393064", "CVEGEO": "0801101222045096", "POBTOT": 0.0, "score_nse": 0.0, "NSE": null, "VIVTOT": 0.0, "GRAPROES": 0.0, "_ent": "08", "_mun": "011", "_loc": "0122"}, "geometry": {"type": "Polygon", "coordinates": [[[-104.55194, 28.30924], [-104.55247, 28.30879], [-104.55258, 28.30889], [-104.55206, 28.30934], [-104.55194, 28.30924]]]}}, {"id": "393065", "type": "Feature", "properties": {"id": "393065", "CVEGEO": "0801101222045045", "POBTOT": 0.0, "score_nse": 0.0, "NSE": null, "VIVTOT": 0.0, "GRAPROES": 0.0, "_ent": "08", "_mun": "011", "_loc": "0122"}, "geometry": {"type": "Polygon", "coordinates": [[[-104.54639, 28.3051], [-104.54717, 28.30446], [-104.54729, 28.30458], [-104.54651, 28.30521], [-104.54639, 28.3051]]]}}, {"id": "393066", "type": "Feature", "properties": {"id": "393066", "CVEGEO": "0801101222045043", "POBTOT": 0.0, "score_nse": 0.0, "NSE": null, "VIVTOT": 0.0, "GRAPROES": 0.0, "_ent": "08", "_mun": "011", "_loc": "0122"}, "geometry": {"type": "Polygon", "coordinates": [[[-104.54774, 28.30821], [-104.54863, 28.30745], [-104.54874, 28.30757], [-104.54786, 28.30832], [-104.54774, 28.30821]]]}}, {"id": "393067", "type": "Feature", "properties": {"id": "393067", "CVEGEO": "0801101222045042", "POBTOT": 0.0, "score_nse": 0.0, "NSE": null, "VIVTOT": 0.0, "GRAPROES": 0.0, "_ent": "08", "_mun": "011", "_loc": "0122"}, "geometry": {"type": "Polygon", "coordinates": [[[-104.54854, 28.30714], [-104.54901, 28.30665], [-104.54934, 28.30683], [-104.54993, 28.3064], [-104.55003, 28.3065], [-104.5489, 28.30745], [-104.54854, 28.30714]]]}}, {"id": "393068", "type": "Feature", "properties": {"id": "393068", "CVEGEO": "0801101222045041", "POBTOT": 0.0, "score_nse": 0.0, "NSE": null, "VIVTOT": 0.0, "GRAPROES": 0.0, "_ent": "08", "_mun": "011", "_loc": "0122"}, "geometry": {"type": "Polygon", "coordinates": [[[-104.5493, 28.30782], [-104.54983, 28.30738], [-104.54972, 28.30727], [-104.5492, 28.30773], [-104.54908, 28.30761], [-104.55022, 28.30668], [-104.55058, 28.30703], [-104.54943, 28.30795], [-104.5493, 28.30782]]]}}, {"id": "393069", "type": "Feature", "properties": {"id": "393069", "CVEGEO": "0801101222045040", "POBTOT": 0.0, "score_nse": 0.0, "NSE": null, "VIVTOT": 0.0, "GRAPROES": 0.0, "_ent": "08", "_mun": "011", "_loc": "0122"}, "geometry": {"type": "Polygon", "coordinates": [[[-104.55032, 28.30654], [-104.55071, 28.30621], [-104.55107, 28.30652], [-104.55068, 28.30685], [-104.55032, 28.30654]]]}}, {"id": "393070", "type": "Feature", "properties": {"id": "393070", "CVEGEO": "0801101222045039", "POBTOT": 0.0, "score_nse": 0.0, "NSE": null, "VIVTOT": 0.0, "GRAPROES": 0.0, "_ent": "08", "_mun": "011", "_loc": "0122"}, "geometry": {"type": "Polygon", "coordinates": [[[-104.55084, 28.30612], [-104.55096, 28.30602], [-104.55132, 28.30634], [-104.55118, 28.30644], [-104.55084, 28.30612]]]}}, {"id": "393071", "type": "Feature", "properties": {"id": "393071", "CVEGEO": "0801101222045005", "POBTOT": 0.0, "score_nse": 0.0, "NSE": null, "VIVTOT": 0.0, "GRAPROES": 0.0, "_ent": "08", "_mun": "011", "_loc": "0122"}, "geometry": {"type": "Polygon", "coordinates": [[[-104.54899, 28.30528], [-104.55011, 28.30439], [-104.55023, 28.30452], [-104.54914, 28.30542], [-104.54899, 28.30528]]]}}, {"id": "393072", "type": "Feature", "properties": {"id": "393072", "CVEGEO": "0801101222045004", "POBTOT": 0.0, "score_nse": 0.0, "NSE": null, "VIVTOT": 0.0, "GRAPROES": 0.0, "_ent": "08", "_mun": "011", "_loc": "0122"}, "geometry": {"type": "Polygon", "coordinates": [[[-104.54875, 28.30508], [-104.54984, 28.30416], [-104.54997, 28.30428], [-104.54888, 28.3052], [-104.54875, 28.30508]]]}}, {"id": "393073", "type": "Feature", "properties": {"id": "393073", "CVEGEO": "0801101222045003", "POBTOT": 0.0, "score_nse": 0.0, "NSE": null, "VIVTOT": 0.0, "GRAPROES": 0.0, "_ent": "08", "_mun": "011", "_loc": "0122"}, "geometry": {"type": "Polygon", "coordinates": [[[-104.54851, 28.30484], [-104.54962, 28.30395], [-104.54975, 28.30406], [-104.54865, 28.30498], [-104.54851, 28.30484]]]}}, {"id": "393074", "type": "Feature", "properties": {"id": "393074", "CVEGEO": "0801101222045002", "POBTOT": 0.0, "score_nse": 0.0, "NSE": null, "VIVTOT": 0.0, "GRAPROES": 0.0, "_ent": "08", "_mun": "011", "_loc": "0122"}, "geometry": {"type": "Polygon", "coordinates": [[[-104.54726, 28.30591], [-104.54839, 28.305], [-104.54851, 28.30512], [-104.54738, 28.30603], [-104.54726, 28.30591]]]}}, {"id": "393075", "type": "Feature", "properties": {"id": "393075", "CVEGEO": "0801101222045001", "POBTOT": 0.0, "score_nse": 0.0, "NSE": null, "VIVTOT": 0.0, "GRAPROES": 0.0, "_ent": "08", "_mun": "011", "_loc": "0122"}, "geometry": {"type": "Polygon", "coordinates": [[[-104.5475, 28.30614], [-104.54862, 28.30522], [-104.549, 28.30557], [-104.54788, 28.3065], [-104.5475, 28.30614]]]}}, {"id": "393079", "type": "Feature", "properties": {"id": "393079", "CVEGEO": "0801101222045098", "POBTOT": 0.0, "score_nse": 0.0, "NSE": null, "VIVTOT": 0.0, "GRAPROES": 0.0, "_ent": "08", "_mun": "011", "_loc": "0122"}, "geometry": {"type": "Polygon", "coordinates": [[[-104.552, 28.30945], [-104.55295, 28.30868], [-104.55306, 28.3088], [-104.55211, 28.30957], [-104.552, 28.30945]]]}}, {"id": "393171", "type": "Feature", "properties": {"id": "393171", "CVEGEO": "0801101222045080", "POBTOT": 0.0, "score_nse": 0.0, "NSE": null, "VIVTOT": 0.0, "GRAPROES": 0.0, "_ent": "08", "_mun": "011", "_loc": "0122"}, "geometry": {"type": "Polygon", "coordinates": [[[-104.5501, 28.30867], [-104.55023, 28.30854], [-104.55169, 28.30961], [-104.55156, 28.30973], [-104.5501, 28.30867]]]}}, {"id": "393172", "type": "Feature", "properties": {"id": "393172", "CVEGEO": "0801101222045046", "POBTOT": 0.0, "score_nse": 0.0, "NSE": null, "VIVTOT": 0.0, "GRAPROES": 0.0, "_ent": "08", "_mun": "011", "_loc": "0122"}, "geometry": {"type": "Polygon", "coordinates": [[[-104.55081, 28.30697], [-104.55191, 28.30604], [-104.5521, 28.3062], [-104.55094, 28.30712], [-104.55081, 28.30697]]]}}, {"id": "393173", "type": "Feature", "properties": {"id": "393173", "CVEGEO": "0801101222045025", "POBTOT": 0.0, "score_nse": 0.0, "NSE": null, "VIVTOT": 0.0, "GRAPROES": 0.0, "_ent": "08", "_mun": "011", "_loc": "0122"}, "geometry": {"type": "Polygon", "coordinates": [[[-104.54683, 28.3055], [-104.54795, 28.30458], [-104.54807, 28.3047], [-104.54697, 28.30563], [-104.54683, 28.3055]]]}}, {"id": "393174", "type": "Feature", "properties": {"id": "393174", "CVEGEO": "0801101222045023", "POBTOT": 0.0, "score_nse": 0.0, "NSE": null, "VIVTOT": 0.0, "GRAPROES": 0.0, "_ent": "08", "_mun": "011", "_loc": "0122"}, "geometry": {"type": "Polygon", "coordinates": [[[-104.54709, 28.3078], [-104.54814, 28.30695], [-104.54824, 28.30707], [-104.54736, 28.30779], [-104.54709, 28.3078]]]}}, {"id": "393175", "type": "Feature", "properties": {"id": "393175", "CVEGEO": "0801101222045022", "POBTOT": 0.0, "score_nse": 0.0, "NSE": null, "VIVTOT": 0.0, "GRAPROES": 0.0, "_ent": "08", "_mun": "011", "_loc": "0122"}, "geometry": {"type": "Polygon", "coordinates": [[[-104.54824, 28.30681], [-104.54938, 28.30591], [-104.54954, 28.30605], [-104.54839, 28.30697], [-104.54824, 28.30681]]]}}, {"id": "393176", "type": "Feature", "properties": {"id": "393176", "CVEGEO": "0801101222045021", "POBTOT": 0.0, "score_nse": 0.0, "NSE": null, "VIVTOT": 0.0, "GRAPROES": 0.0, "_ent": "08", "_mun": "011", "_loc": "0122"}, "geometry": {"type": "Polygon", "coordinates": [[[-104.54948, 28.30577], [-104.55059, 28.30484], [-104.55074, 28.30499], [-104.54965, 28.30593], [-104.54948, 28.30577]]]}}, {"id": "393464", "type": "Feature", "properties": {"id": "393464", "CVEGEO": "0801101222045031", "POBTOT": 0.0, "score_nse": 0.0, "NSE": null, "VIVTOT": 0.0, "GRAPROES": 0.0, "_ent": "08", "_mun": "011", "_loc": "0122"}, "geometry": {"type": "Polygon", "coordinates": [[[-104.54922, 28.30656], [-104.54967, 28.30619], [-104.54981, 28.30632], [-104.54936, 28.30669], [-104.54922, 28.30656]]]}}, {"id": "393465", "type": "Feature", "properties": {"id": "393465", "CVEGEO": "0801101222045012", "POBTOT": 0.0, "score_nse": 0.0, "NSE": null, "VIVTOT": 0.0, "GRAPROES": 0.0, "_ent": "08", "_mun": "011", "_loc": "0122"}, "geometry": {"type": "Polygon", "coordinates": [[[-104.54513, 28.3073], [-104.54691, 28.30584], [-104.54703, 28.30595], [-104.54525, 28.30741], [-104.54513, 28.3073]]]}}, {"id": "393508", "type": "Feature", "properties": {"id": "393508", "CVEGEO": "0801101222045027", "POBTOT": 0.0, "score_nse": 0.0, "NSE": null, "VIVTOT": 0.0, "GRAPROES": 0.0, "_ent": "08", "_mun": "011", "_loc": "0122"}, "geometry": {"type": "Polygon", "coordinates": [[[-104.54909, 28.30328], [-104.54922, 28.30317], [-104.54939, 28.30334], [-104.54981, 28.303], [-104.54994, 28.30312], [-104.5494, 28.30358], [-104.54909, 28.30328]]]}}, {"id": "393838", "type": "Feature", "properties": {"id": "393838", "CVEGEO": "0801101222045026", "POBTOT": 0.0, "score_nse": 0.0, "NSE": null, "VIVTOT": 0.0, "GRAPROES": 0.0, "_ent": "08", "_mun": "011", "_loc": "0122"}, "geometry": {"type": "Polygon", "coordinates": [[[-104.54933, 28.30363], [-104.54819, 28.30461], [-104.54797, 28.30442], [-104.54883, 28.30378], [-104.54827, 28.30417], [-104.54813, 28.30406], [-104.54901, 28.30333], [-104.54933, 28.30363]]]}}]}