{"type": "FeatureCollection", "features": [{"id": "1054720", "type": "Feature", "properties": {"id": "1054720", "CVEGEO": "1501400470163001", "POBTOT": 48.0, "score_nse": 0.0, "NSE": "ND", "VIVTOT": 18.0, "GRAPROES": 11.27, "_ent": "15", "_mun": "014", "_loc": "0047"}, "geometry": {"type": "Polygon", "coordinates": [[[-99.91354, 19.86157], [-99.91481, 19.86211], [-99.91447, 19.86279], [-99.91416, 19.86267], [-99.91424, 19.8625], [-99.91362, 19.86228], [-99.91415, 19.86256], [-99.91379, 19.86307], [-99.91289, 19.86327], [-99.91354, 19.86157]]]}}, {"id": "1054887", "type": "Feature", "properties": {"id": "1054887", "CVEGEO": "1501400470163020", "POBTOT": 52.0, "score_nse": 0.0, "NSE": "ND", "VIVTOT": 19.0, "GRAPROES": 11.48, "_ent": "15", "_mun": "014", "_loc": "0047"}, "geometry": {"type": "Polygon", "coordinates": [[[-99.91273, 19.85884], [-99.91222, 19.86015], [-99.91196, 19.86001], [-99.91208, 19.85972], [-99.91029, 19.85888], [-99.91105, 19.85749], [-99.91273, 19.85884]]]}}, {"id": "1054888", "type": "Feature", "properties": {"id": "1054888", "CVEGEO": "1501400470163014", "POBTOT": 93.0, "score_nse": 0.0, "NSE": "ND", "VIVTOT": 19.0, "GRAPROES": 8.82, "_ent": "15", "_mun": "014", "_loc": "0047"}, "geometry": {"type": "Polygon", "coordinates": [[[-99.91288, 19.86871], [-99.91252, 19.8682], [-99.91308, 19.86789], [-99.91337, 19.86751], [-99.91353, 19.86792], [-99.91288, 19.86871]]]}}, {"id": "1054889", "type": "Feature", "properties": {"id": "1054889", "CVEGEO": "1501400470163013", "POBTOT": 89.0, "score_nse": 51.8345, "NSE": "C-", "VIVTOT": 22.0, "GRAPROES": 10.08, "_ent": "15", "_mun": "014", "_loc": "0047"}, "geometry": {"type": "Polygon", "coordinates": [[[-99.9097, 19.85972], [-99.90709, 19.85859], [-99.90718, 19.85836], [-99.90823, 19.85837], [-99.90938, 19.85766], [-99.91044, 19.85737], [-99.91094, 19.85746], [-99.9097, 19.85972]]]}}, {"id": "1054900", "type": "Feature", "properties": {"id": "1054900", "CVEGEO": "1501400470163002", "POBTOT": 66.0, "score_nse": 50.52, "NSE": "C-", "VIVTOT": 16.0, "GRAPROES": 9.89, "_ent": "15", "_mun": "014", "_loc": "0047"}, "geometry": {"type": "Polygon", "coordinates": [[[-99.91183, 19.86203], [-99.91226, 19.861], [-99.91346, 19.86154], [-99.91281, 19.8633], [-99.91252, 19.86336], [-99.91187, 19.86289], [-99.91196, 19.86244], [-99.91183, 19.86203]]]}}, {"id": "1055299", "type": "Feature", "properties": {"id": "1055299", "CVEGEO": "1501400470163027", "POBTOT": 75.0, "score_nse": 0.0, "NSE": "ND", "VIVTOT": 15.0, "GRAPROES": 7.35, "_ent": "15", "_mun": "014", "_loc": "0047"}, "geometry": {"type": "Polygon", "coordinates": [[[-99.91445, 19.87202], [-99.91373, 19.8723], [-99.91351, 19.87165], [-99.91431, 19.87135], [-99.91445, 19.87202]]]}}, {"id": "1055310", "type": "Feature", "properties": {"id": "1055310", "CVEGEO": "1501400470163029", "POBTOT": 10.0, "score_nse": 0.0, "NSE": "ND", "VIVTOT": 5.0, "GRAPROES": 11.56, "_ent": "15", "_mun": "014", "_loc": "0047"}, "geometry": {"type": "Polygon", "coordinates": [[[-99.92169, 19.86742], [-99.92157, 19.86804], [-99.92114, 19.86784], [-99.92068, 19.86896], [-99.92064, 19.86969], [-99.92021, 19.87047], [-99.91945, 19.87034], [-99.92077, 19.86738], [-99.92062, 19.86688], [-99.9207, 19.86656], [-99.92169, 19.86742]]]}}, {"id": "1055311", "type": "Feature", "properties": {"id": "1055311", "CVEGEO": "1501400470163030", "POBTOT": 90.0, "score_nse": 0.0, "NSE": "ND", "VIVTOT": 28.0, "GRAPROES": 9.04, "_ent": "15", "_mun": "014", "_loc": "0047"}, "geometry": {"type": "Polygon", "coordinates": [[[-99.91634, 19.86786], [-99.91611, 19.86792], [-99.916, 19.86812], [-99.91551, 19.86786], [-99.91341, 19.86615], [-99.91306, 19.86442], [-99.91672, 19.86564], [-99.91728, 19.86556], [-99.91769, 19.86573], [-99.91764, 19.86596], [-99.91895, 19.86657], [-99.9175, 19.86902], [-99.91604, 19.86833], [-99.91614, 19.86796], [-99.91634, 19.86786]]]}}, {"id": "1055312", "type": "Feature", "properties": {"id": "1055312", "CVEGEO": "1501400470163028", "POBTOT": 168.0, "score_nse": 51.1964, "NSE": "C-", "VIVTOT": 44.0, "GRAPROES": 9.35, "_ent": "15", "_mun": "014", "_loc": "0047"}, "geometry": {"type": "Polygon", "coordinates": [[[-99.91414, 19.86996], [-99.91389, 19.86816], [-99.91326, 19.86698], [-99.91337, 19.86627], [-99.91593, 19.86816], [-99.91601, 19.86839], [-99.91671, 19.86874], [-99.91645, 19.86934], [-99.91591, 19.86918], [-99.91649, 19.8694], [-99.91677, 19.86877], [-99.91745, 19.86908], [-99.91711, 19.86974], [-99.91571, 19.86967], [-99.91501, 19.8699], [-99.91414, 19.86996]]]}}, {"id": "1055313", "type": "Feature", "properties": {"id": "1055313", "CVEGEO": "1501400470163012", "POBTOT": 123.0, "score_nse": 47.8213, "NSE": "C-", "VIVTOT": 30.0, "GRAPROES": 9.02, "_ent": "15", "_mun": "014", "_loc": "0047"}, "geometry": {"type": "Polygon", "coordinates": [[[-99.92065, 19.86533], [-99.92134, 19.86431], [-99.92156, 19.86442], [-99.92232, 19.86309], [-99.92267, 19.86317], [-99.92326, 19.86367], [-99.92342, 19.86411], [-99.92328, 19.86478], [-99.92386, 19.86557], [-99.9233, 19.86782], [-99.92276, 19.86782], [-99.92222, 19.86761], [-99.92044, 19.86614], [-99.92065, 19.86533]]]}}, {"id": "1055314", "type": "Feature", "properties": {"id": "1055314", "CVEGEO": "1501400470163008", "POBTOT": 80.0, "score_nse": 62.4684, "NSE": "C", "VIVTOT": 18.0, "GRAPROES": 10.65, "_ent": "15", "_mun": "014", "_loc": "0047"}, "geometry": {"type": "Polygon", "coordinates": [[[-99.914, 19.86163], [-99.91202, 19.86074], [-99.91278, 19.8589], [-99.9131, 19.85919], [-99.91465, 19.85968], [-99.914, 19.86163]]]}}, {"id": "1055315", "type": "Feature", "properties": {"id": "1055315", "CVEGEO": "1501400470163031", "POBTOT": 169.0, "score_nse": 0.0, "NSE": "ND", "VIVTOT": 40.0, "GRAPROES": 8.2, "_ent": "15", "_mun": "014", "_loc": "0047"}, "geometry": {"type": "Polygon", "coordinates": [[[-99.91684, 19.87173], [-99.91703, 19.87052], [-99.91504, 19.87108], [-99.91539, 19.87211], [-99.91468, 19.8724], [-99.91416, 19.86998], [-99.91499, 19.86996], [-99.91566, 19.86972], [-99.91715, 19.86978], [-99.91901, 19.86661], [-99.91995, 19.86645], [-99.92054, 19.86664], [-99.92071, 19.86739], [-99.91964, 19.86959], [-99.91899, 19.87136], [-99.91865, 19.87179], [-99.91845, 19.87258], [-99.91795, 19.87262], [-99.91795, 19.87242], [-99.91699, 19.87237], [-99.91699, 19.87182], [-99.91684, 19.87173]]]}}, {"id": "1055316", "type": "Feature", "properties": {"id": "1055316", "CVEGEO": "1501400470163003", "POBTOT": 121.0, "score_nse": 59.6878, "NSE": "C", "VIVTOT": 38.0, "GRAPROES": 10.27, "_ent": "15", "_mun": "014", "_loc": "0047"}, "geometry": {"type": "Polygon", "coordinates": [[[-99.91412, 19.8616], [-99.91463, 19.86025], [-99.9156, 19.86069], [-99.91465, 19.8602], [-99.91477, 19.85972], [-99.91543, 19.85996], [-99.9169, 19.86106], [-99.91593, 19.8621], [-99.91539, 19.86193], [-99.91548, 19.86163], [-99.91526, 19.86191], [-99.91412, 19.8616]]]}}, {"id": "1055423", "type": "Feature", "properties": {"id": "1055423", "CVEGEO": "1501400470163005", "POBTOT": 41.0, "score_nse": 0.0, "NSE": "ND", "VIVTOT": 12.0, "GRAPROES": 11.81, "_ent": "15", "_mun": "014", "_loc": "0047"}, "geometry": {"type": "Polygon", "coordinates": [[[-99.91428, 19.86176], [-99.91594, 19.86218], [-99.91656, 19.86252], [-99.9172, 19.8626], [-99.91696, 19.86313], [-99.91645, 19.86271], [-99.91428, 19.86176]]]}}, {"id": "1055424", "type": "Feature", "properties": {"id": "1055424", "CVEGEO": "1501400470163011", "POBTOT": 67.0, "score_nse": 47.284, "NSE": "C-", "VIVTOT": 20.0, "GRAPROES": 10.48, "_ent": "15", "_mun": "014", "_loc": "0047"}, "geometry": {"type": "Polygon", "coordinates": [[[-99.91197, 19.86072], [-99.90979, 19.85974], [-99.91025, 19.85893], [-99.91203, 19.85974], [-99.91191, 19.86004], [-99.9122, 19.86026], [-99.91197, 19.86072]]]}}, {"id": "1055426", "type": "Feature", "properties": {"id": "1055426", "CVEGEO": "1501400470163024", "POBTOT": 36.0, "score_nse": 0.0, "NSE": "ND", "VIVTOT": 15.0, "GRAPROES": 6.91, "_ent": "15", "_mun": "014", "_loc": "0047"}, "geometry": {"type": "Polygon", "coordinates": [[[-99.91032, 19.87092], [-99.90961, 19.87182], [-99.90892, 19.87022], [-99.90904, 19.8696], [-99.91033, 19.86892], [-99.91021, 19.86824], [-99.91062, 19.86806], [-99.91151, 19.8695], [-99.91174, 19.87046], [-99.91123, 19.87112], [-99.91032, 19.87092]]]}}, {"id": "1055427", "type": "Feature", "properties": {"id": "1055427", "CVEGEO": "1501400470163025", "POBTOT": 6.0, "score_nse": 0.0, "NSE": "ND", "VIVTOT": 1.0, "GRAPROES": 0.0, "_ent": "15", "_mun": "014", "_loc": "0047"}, "geometry": {"type": "Polygon", "coordinates": [[[-99.91182, 19.86297], [-99.91241, 19.86339], [-99.91161, 19.86359], [-99.91182, 19.86297]]]}}, {"id": "1055472", "type": "Feature", "properties": {"id": "1055472", "CVEGEO": "1501400470163019", "POBTOT": 22.0, "score_nse": 0.0, "NSE": "ND", "VIVTOT": 9.0, "GRAPROES": 11.39, "_ent": "15", "_mun": "014", "_loc": "0047"}, "geometry": {"type": "Polygon", "coordinates": [[[-99.92014, 19.86456], [-99.92099, 19.86485], [-99.92044, 19.86555], [-99.92035, 19.86608], [-99.91968, 19.86551], [-99.92014, 19.86456]]]}}, {"id": "1055473", "type": "Feature", "properties": {"id": "1055473", "CVEGEO": "1501400470163015", "POBTOT": 54.0, "score_nse": 60.9227, "NSE": "C", "VIVTOT": 12.0, "GRAPROES": 11.36, "_ent": "15", "_mun": "014", "_loc": "0047"}, "geometry": {"type": "Polygon", "coordinates": [[[-99.91282, 19.86873], [-99.91164, 19.86912], [-99.91149, 19.86933], [-99.91126, 19.86886], [-99.91242, 19.86819], [-99.91282, 19.86873]]]}}, {"id": "1055488", "type": "Feature", "properties": {"id": "1055488", "CVEGEO": "1501400470163007", "POBTOT": 37.0, "score_nse": 0.0, "NSE": "ND", "VIVTOT": 17.0, "GRAPROES": 10.68, "_ent": "15", "_mun": "014", "_loc": "0047"}, "geometry": {"type": "Polygon", "coordinates": [[[-99.91248, 19.86525], [-99.9132, 19.86571], [-99.91321, 19.86719], [-99.91227, 19.8667], [-99.91165, 19.86704], [-99.91176, 19.8675], [-99.91059, 19.86794], [-99.91011, 19.86707], [-99.91072, 19.8668], [-99.91085, 19.86655], [-99.91151, 19.86615], [-99.91175, 19.86536], [-99.91248, 19.86525]]]}}, {"id": "1055489", "type": "Feature", "properties": {"id": "1055489", "CVEGEO": "1501400470163009", "POBTOT": 125.0, "score_nse": 48.3231, "NSE": "C-", "VIVTOT": 31.0, "GRAPROES": 8.93, "_ent": "15", "_mun": "014", "_loc": "0047"}, "geometry": {"type": "Polygon", "coordinates": [[[-99.91702, 19.86318], [-99.9173, 19.86258], [-99.9204, 19.86387], [-99.92012, 19.86449], [-99.91855, 19.86377], [-99.91832, 19.86432], [-99.91702, 19.86318]]]}}, {"id": "1055490", "type": "Feature", "properties": {"id": "1055490", "CVEGEO": "1501400470163026", "POBTOT": 99.0, "score_nse": 0.0, "NSE": "ND", "VIVTOT": 19.0, "GRAPROES": 11.05, "_ent": "15", "_mun": "014", "_loc": "0047"}, "geometry": {"type": "Polygon", "coordinates": [[[-99.91333, 19.86743], [-99.91309, 19.86784], [-99.91109, 19.86861], [-99.91067, 19.86797], [-99.91184, 19.86753], [-99.91172, 19.86707], [-99.91232, 19.86676], [-99.91323, 19.86724], [-99.91333, 19.86743]]]}}, {"id": "1055499", "type": "Feature", "properties": {"id": "1055499", "CVEGEO": "1501400470163033", "POBTOT": 6.0, "score_nse": 0.0, "NSE": "ND", "VIVTOT": 1.0, "GRAPROES": 0.0, "_ent": "15", "_mun": "014", "_loc": "0047"}, "geometry": {"type": "Polygon", "coordinates": [[[-99.91121, 19.86881], [-99.91115, 19.86866], [-99.91161, 19.86851], [-99.91166, 19.86865], [-99.91121, 19.86881]]]}}, {"id": "1055500", "type": "Feature", "properties": {"id": "1055500", "CVEGEO": "1501400470163034", "POBTOT": 14.0, "score_nse": 0.0, "NSE": "ND", "VIVTOT": 5.0, "GRAPROES": 7.67, "_ent": "15", "_mun": "014", "_loc": "0047"}, "geometry": {"type": "Polygon", "coordinates": [[[-99.92016, 19.86451], [-99.92046, 19.8639], [-99.9213, 19.86425], [-99.92102, 19.86481], [-99.92016, 19.86451]]]}}, {"id": "1055501", "type": "Feature", "properties": {"id": "1055501", "CVEGEO": "1501400470163035", "POBTOT": 44.0, "score_nse": 55.4228, "NSE": "C", "VIVTOT": 13.0, "GRAPROES": 9.83, "_ent": "15", "_mun": "014", "_loc": "0047"}, "geometry": {"type": "Polygon", "coordinates": [[[-99.92009, 19.86453], [-99.91961, 19.86546], [-99.91838, 19.86438], [-99.9186, 19.86387], [-99.92009, 19.86453]]]}}, {"id": "1055621", "type": "Feature", "properties": {"id": "1055621", "CVEGEO": "1501400470163036", "POBTOT": 59.0, "score_nse": 0.0, "NSE": "ND", "VIVTOT": 10.0, "GRAPROES": 8.09, "_ent": "15", "_mun": "014", "_loc": "0047"}, "geometry": {"type": "Polygon", "coordinates": [[[-99.9187, 19.8722], [-99.91932, 19.87247], [-99.91968, 19.87292], [-99.91942, 19.8734], [-99.91836, 19.8729], [-99.9187, 19.8722]]]}}, {"id": "1055622", "type": "Feature", "properties": {"id": "1055622", "CVEGEO": "1501400470163004", "POBTOT": 71.0, "score_nse": 47.2535, "NSE": "C-", "VIVTOT": 21.0, "GRAPROES": 9.51, "_ent": "15", "_mun": "014", "_loc": "0047"}, "geometry": {"type": "Polygon", "coordinates": [[[-99.91602, 19.86213], [-99.91695, 19.86109], [-99.91814, 19.86147], [-99.92013, 19.86242], [-99.91956, 19.86342], [-99.91733, 19.86251], [-99.91742, 19.86224], [-99.91726, 19.86251], [-99.91626, 19.8623], [-99.91602, 19.86213]]]}}, {"id": "1055623", "type": "Feature", "properties": {"id": "1055623", "CVEGEO": "1501400470163037", "POBTOT": 83.0, "score_nse": 0.0, "NSE": "ND", "VIVTOT": 23.0, "GRAPROES": 6.77, "_ent": "15", "_mun": "014", "_loc": "0047"}, "geometry": {"type": "Polygon", "coordinates": [[[-99.92019, 19.86243], [-99.92223, 19.86307], [-99.92153, 19.86428], [-99.91959, 19.86343], [-99.91988, 19.86276], [-99.92019, 19.86243]]]}}, {"id": "1055722", "type": "Feature", "properties": {"id": "1055722", "CVEGEO": "1501400470163006", "POBTOT": 271.0, "score_nse": 0.0, "NSE": "ND", "VIVTOT": 93.0, "GRAPROES": 9.4, "_ent": "15", "_mun": "014", "_loc": "0047"}, "geometry": {"type": "Polygon", "coordinates": [[[-99.92063, 19.86648], [-99.92057, 19.86659], [-99.91992, 19.86641], [-99.91909, 19.86657], [-99.91773, 19.86593], [-99.91775, 19.86571], [-99.91728, 19.86551], [-99.91671, 19.86558], [-99.91298, 19.86436], [-99.91267, 19.86415], [-99.91258, 19.86344], [-99.91384, 19.86316], [-99.91413, 19.86274], [-99.91605, 19.86373], [-99.91586, 19.86414], [-99.91592, 19.86429], [-99.9161, 19.8637], [-99.91454, 19.86293], [-99.91487, 19.86215], [-99.91635, 19.86282], [-99.92063, 19.86648]]]}}, {"id": "1055793", "type": "Feature", "properties": {"id": "1055793", "CVEGEO": "1501400470163023", "POBTOT": 40.0, "score_nse": 0.0, "NSE": "ND", "VIVTOT": 9.0, "GRAPROES": 10.9, "_ent": "15", "_mun": "014", "_loc": "0047"}, "geometry": {"type": "Polygon", "coordinates": [[[-99.9118, 19.87044], [-99.91156, 19.86941], [-99.91176, 19.86917], [-99.91285, 19.86881], [-99.91306, 19.86859], [-99.91345, 19.8701], [-99.9118, 19.87044]]]}}, {"id": "1055794", "type": "Feature", "properties": {"id": "1055794", "CVEGEO": "1501400470163017", "POBTOT": 59.0, "score_nse": 0.0, "NSE": "ND", "VIVTOT": 14.0, "GRAPROES": 10.08, "_ent": "15", "_mun": "014", "_loc": "0047"}, "geometry": {"type": "Polygon", "coordinates": [[[-99.90912, 19.86791], [-99.91001, 19.86707], [-99.91055, 19.86801], [-99.91018, 19.86818], [-99.90994, 19.86808], [-99.90932, 19.86819], [-99.90912, 19.86791]]]}}, {"id": "1055803", "type": "Feature", "properties": {"id": "1055803", "CVEGEO": "1501400470163039", "POBTOT": 66.0, "score_nse": 0.0, "NSE": "ND", "VIVTOT": 12.0, "GRAPROES": 7.87, "_ent": "15", "_mun": "014", "_loc": "0047"}, "geometry": {"type": "Polygon", "coordinates": [[[-99.91383, 19.86831], [-99.91405, 19.86993], [-99.9135, 19.87008], [-99.91311, 19.86854], [-99.91361, 19.86792], [-99.91383, 19.86831]]]}}, {"id": "1055804", "type": "Feature", "properties": {"id": "1055804", "CVEGEO": "1501400470163038", "POBTOT": 26.0, "score_nse": 0.0, "NSE": "ND", "VIVTOT": 7.0, "GRAPROES": 10.88, "_ent": "15", "_mun": "014", "_loc": "0047"}, "geometry": {"type": "Polygon", "coordinates": [[[-99.91032, 19.86881], [-99.90965, 19.8691], [-99.90929, 19.86828], [-99.90985, 19.86814], [-99.91017, 19.86824], [-99.91032, 19.86881]]]}}, {"id": "1055890", "type": "Feature", "properties": {"id": "1055890", "CVEGEO": "1501400470163021", "POBTOT": 15.0, "score_nse": 0.0, "NSE": "ND", "VIVTOT": 4.0, "GRAPROES": 12.22, "_ent": "15", "_mun": "014", "_loc": "0047"}, "geometry": {"type": "Polygon", "coordinates": [[[-99.90543, 19.85713], [-99.90573, 19.8578], [-99.90708, 19.85831], [-99.90699, 19.85855], [-99.9057, 19.85792], [-99.90543, 19.85713]]]}}, {"id": "1055891", "type": "Feature", "properties": {"id": "1055891", "CVEGEO": "1501400470163040", "POBTOT": 0.0, "score_nse": 0.0, "NSE": null, "VIVTOT": 0.0, "GRAPROES": 0.0, "_ent": "15", "_mun": "014", "_loc": "0047"}, "geometry": {"type": "Polygon", "coordinates": [[[-99.90617, 19.85656], [-99.90658, 19.85712], [-99.9068, 19.85718], [-99.90737, 19.85683], [-99.90904, 19.85643], [-99.90932, 19.85654], [-99.9096, 19.85716], [-99.90793, 19.858], [-99.90723, 19.85807], [-99.90714, 19.85766], [-99.9072, 19.85815], [-99.90686, 19.8582], [-99.90578, 19.85763], [-99.90568, 19.85705], [-99.90617, 19.85656]]]}}, {"id": "1055892", "type": "Feature", "properties": {"id": "1055892", "CVEGEO": "1501400470163041", "POBTOT": 0.0, "score_nse": 0.0, "NSE": null, "VIVTOT": 0.0, "GRAPROES": 0.0, "_ent": "15", "_mun": "014", "_loc": "0047"}, "geometry": {"type": "Polygon", "coordinates": [[[-99.90845, 19.85775], [-99.90834, 19.85822], [-99.90722, 19.85823], [-99.90728, 19.8581], [-99.90798, 19.85804], [-99.90845, 19.85775]]]}}, {"id": "1056181", "type": "Feature", "properties": {"id": "1056181", "CVEGEO": "1501400470163022", "POBTOT": 139.0, "score_nse": 0.0, "NSE": "ND", "VIVTOT": 32.0, "GRAPROES": 7.05, "_ent": "15", "_mun": "014", "_loc": "0047"}, "geometry": {"type": "Polygon", "coordinates": [[[-99.91303, 19.87281], [-99.91112, 19.87318], [-99.90986, 19.87404], [-99.90918, 19.87425], [-99.90903, 19.87331], [-99.91142, 19.8725], [-99.91164, 19.8726], [-99.9118, 19.87241], [-99.91136, 19.87098], [-99.91165, 19.8706], [-99.91407, 19.87001], [-99.91415, 19.87063], [-99.91252, 19.87128], [-99.91417, 19.87071], [-99.9143, 19.87128], [-99.91344, 19.8716], [-99.91368, 19.87233], [-99.91303, 19.87281]]]}}, {"id": "1056182", "type": "Feature", "properties": {"id": "1056182", "CVEGEO": "1501400470163042", "POBTOT": 0.0, "score_nse": 0.0, "NSE": null, "VIVTOT": 0.0, "GRAPROES": 0.0, "_ent": "15", "_mun": "014", "_loc": "0047"}, "geometry": {"type": "Polygon", "coordinates": [[[-99.91135, 19.87103], [-99.91175, 19.8724], [-99.91162, 19.87257], [-99.91122, 19.8725], [-99.90903, 19.87328], [-99.9092, 19.87239], [-99.90912, 19.87195], [-99.90937, 19.8712], [-99.9096, 19.87187], [-99.90981, 19.87177], [-99.91033, 19.87097], [-99.91052, 19.87091], [-99.91113, 19.87118], [-99.91135, 19.87103]]]}}, {"id": "1056183", "type": "Feature", "properties": {"id": "1056183", "CVEGEO": "1501400470163043", "POBTOT": 0.0, "score_nse": 0.0, "NSE": null, "VIVTOT": 0.0, "GRAPROES": 0.0, "_ent": "15", "_mun": "014", "_loc": "0047"}, "geometry": {"type": "Polygon", "coordinates": [[[-99.91571, 19.85814], [-99.91719, 19.8587], [-99.91776, 19.85877], [-99.91776, 19.85973], [-99.91746, 19.85993], [-99.91696, 19.86094], [-99.91541, 19.85982], [-99.91322, 19.85913], [-99.91282, 19.85876], [-99.91301, 19.85843], [-99.91276, 19.85812], [-99.91331, 19.85722], [-99.91471, 19.85746], [-99.91571, 19.85814]]]}}]}