{"type": "FeatureCollection", "features": [{"id": "1238347", "type": "Feature", "properties": {"id": "1238347", "CVEGEO": "1603800620189009", "POBTOT": 0.0, "score_nse": 0.0, "NSE": null, "VIVTOT": 0.0, "GRAPROES": 0.0, "_ent": "16", "_mun": "038", "_loc": "0062"}, "geometry": {"type": "Polygon", "coordinates": [[[-101.03716, 18.56129], [-101.03725, 18.55995], [-101.03775, 18.55979], [-101.03795, 18.56036], [-101.03775, 18.56034], [-101.0378, 18.5606], [-101.03788, 18.56041], [-101.03801, 18.56054], [-101.038, 18.56125], [-101.03752, 18.56146], [-101.03716, 18.56129]]]}}, {"id": "1238348", "type": "Feature", "properties": {"id": "1238348", "CVEGEO": "1603800620189007", "POBTOT": 0.0, "score_nse": 0.0, "NSE": null, "VIVTOT": 0.0, "GRAPROES": 0.0, "_ent": "16", "_mun": "038", "_loc": "0062"}, "geometry": {"type": "Polygon", "coordinates": [[[-101.03833, 18.56023], [-101.03797, 18.55987], [-101.03826, 18.55992], [-101.03824, 18.55965], [-101.03861, 18.55965], [-101.03864, 18.56018], [-101.03833, 18.56023]]]}}, {"id": "1239085", "type": "Feature", "properties": {"id": "1239085", "CVEGEO": "1603800620189066", "POBTOT": 0.0, "score_nse": 0.0, "NSE": null, "VIVTOT": 0.0, "GRAPROES": 0.0, "_ent": "16", "_mun": "038", "_loc": "0062"}, "geometry": {"type": "Polygon", "coordinates": [[[-101.03939, 18.55992], [-101.04022, 18.55973], [-101.03994, 18.56092], [-101.03946, 18.5607], [-101.03939, 18.55992]]]}}, {"id": "1239150", "type": "Feature", "properties": {"id": "1239150", "CVEGEO": "1603800620189032", "POBTOT": 0.0, "score_nse": 0.0, "NSE": null, "VIVTOT": 0.0, "GRAPROES": 0.0, "_ent": "16", "_mun": "038", "_loc": "0062"}, "geometry": {"type": "Polygon", "coordinates": [[[-101.03905, 18.5601], [-101.03924, 18.55998], [-101.03946, 18.56028], [-101.03937, 18.56063], [-101.03961, 18.56084], [-101.03938, 18.56107], [-101.03888, 18.56063], [-101.03905, 18.5601]]]}}, {"id": "1239372", "type": "Feature", "properties": {"id": "1239372", "CVEGEO": "1603800620189058", "POBTOT": 0.0, "score_nse": 0.0, "NSE": null, "VIVTOT": 0.0, "GRAPROES": 0.0, "_ent": "16", "_mun": "038", "_loc": "0062"}, "geometry": {"type": "Polygon", "coordinates": [[[-101.0391, 18.56386], [-101.03854, 18.56251], [-101.03901, 18.56213], [-101.03959, 18.56289], [-101.0391, 18.56386]]]}}, {"id": "1239373", "type": "Feature", "properties": {"id": "1239373", "CVEGEO": "1603800620189056", "POBTOT": 0.0, "score_nse": 0.0, "NSE": null, "VIVTOT": 0.0, "GRAPROES": 0.0, "_ent": "16", "_mun": "038", "_loc": "0062"}, "geometry": {"type": "Polygon", "coordinates": [[[-101.03845, 18.56193], [-101.03822, 18.56158], [-101.03836, 18.56148], [-101.03864, 18.56168], [-101.03907, 18.56159], [-101.03924, 18.56137], [-101.03955, 18.56142], [-101.03929, 18.56189], [-101.03889, 18.56205], [-101.03845, 18.56193]]]}}, {"id": "1239374", "type": "Feature", "properties": {"id": "1239374", "CVEGEO": "1603800620189013", "POBTOT": 0.0, "score_nse": 0.0, "NSE": null, "VIVTOT": 0.0, "GRAPROES": 0.0, "_ent": "16", "_mun": "038", "_loc": "0062"}, "geometry": {"type": "Polygon", "coordinates": [[[-101.03865, 18.55966], [-101.03891, 18.55961], [-101.03921, 18.55992], [-101.03869, 18.56018], [-101.03865, 18.55966]]]}}, {"id": "1239443", "type": "Feature", "properties": {"id": "1239443", "CVEGEO": "1603800620189057", "POBTOT": 0.0, "score_nse": 0.0, "NSE": null, "VIVTOT": 0.0, "GRAPROES": 0.0, "_ent": "16", "_mun": "038", "_loc": "0062"}, "geometry": {"type": "Polygon", "coordinates": [[[-101.03961, 18.56279], [-101.03932, 18.56244], [-101.03908, 18.5621], [-101.03957, 18.56222], [-101.03961, 18.56279]]]}}, {"id": "1239533", "type": "Feature", "properties": {"id": "1239533", "CVEGEO": "1603800620189044", "POBTOT": 0.0, "score_nse": 0.0, "NSE": null, "VIVTOT": 0.0, "GRAPROES": 0.0, "_ent": "16", "_mun": "038", "_loc": "0062"}, "geometry": {"type": "Polygon", "coordinates": [[[-101.03941, 18.5611], [-101.03967, 18.56086], [-101.0399, 18.56098], [-101.03961, 18.56131], [-101.03941, 18.5611]]]}}, {"id": "1239534", "type": "Feature", "properties": {"id": "1239534", "CVEGEO": "1603800620189024", "POBTOT": 0.0, "score_nse": 0.0, "NSE": null, "VIVTOT": 0.0, "GRAPROES": 0.0, "_ent": "16", "_mun": "038", "_loc": "0062"}, "geometry": {"type": "Polygon", "coordinates": [[[-101.03806, 18.56048], [-101.03806, 18.56017], [-101.0385, 18.56047], [-101.03806, 18.56048]]]}}, {"id": "1239535", "type": "Feature", "properties": {"id": "1239535", "CVEGEO": "1603800620189023", "POBTOT": 0.0, "score_nse": 0.0, "NSE": null, "VIVTOT": 0.0, "GRAPROES": 0.0, "_ent": "16", "_mun": "038", "_loc": "0062"}, "geometry": {"type": "Polygon", "coordinates": [[[-101.03846, 18.56032], [-101.03898, 18.56015], [-101.039, 18.5602], [-101.03882, 18.56059], [-101.03846, 18.56032]]]}}, {"id": "1239536", "type": "Feature", "properties": {"id": "1239536", "CVEGEO": "1603800620189002", "POBTOT": 0.0, "score_nse": 0.0, "NSE": null, "VIVTOT": 0.0, "GRAPROES": 0.0, "_ent": "16", "_mun": "038", "_loc": "0062"}, "geometry": {"type": "Polygon", "coordinates": [[[-101.03793, 18.55968], [-101.0382, 18.55966], [-101.03821, 18.55983], [-101.03796, 18.55984], [-101.03793, 18.55968]]]}}, {"id": "1239909", "type": "Feature", "properties": {"id": "1239909", "CVEGEO": "1603800620189061", "POBTOT": 0.0, "score_nse": 0.0, "NSE": null, "VIVTOT": 0.0, "GRAPROES": 0.0, "_ent": "16", "_mun": "038", "_loc": "0062"}, "geometry": {"type": "Polygon", "coordinates": [[[-101.03706, 18.56224], [-101.03691, 18.56199], [-101.03713, 18.56135], [-101.03753, 18.5615], [-101.03802, 18.5613], [-101.03818, 18.56178], [-101.03773, 18.56191], [-101.0382, 18.56183], [-101.03833, 18.56219], [-101.03706, 18.56224]]]}}, {"id": "1240425", "type": "Feature", "properties": {"id": "1240425", "CVEGEO": "1603800620189026", "POBTOT": 0.0, "score_nse": 0.0, "NSE": null, "VIVTOT": 0.0, "GRAPROES": 0.0, "_ent": "16", "_mun": "038", "_loc": "0062"}, "geometry": {"type": "Polygon", "coordinates": [[[-101.03714, 18.55982], [-101.03714, 18.56057], [-101.03696, 18.56115], [-101.03599, 18.55993], [-101.03714, 18.55982]]]}}, {"id": "1240426", "type": "Feature", "properties": {"id": "1240426", "CVEGEO": "1603800620189028", "POBTOT": 0.0, "score_nse": 0.0, "NSE": null, "VIVTOT": 0.0, "GRAPROES": 0.0, "_ent": "16", "_mun": "038", "_loc": "0062"}, "geometry": {"type": "Polygon", "coordinates": [[[-101.03667, 18.55976], [-101.03604, 18.55979], [-101.03604, 18.55937], [-101.03646, 18.55949], [-101.03667, 18.55976]]]}}, {"id": "1240427", "type": "Feature", "properties": {"id": "1240427", "CVEGEO": "1603800620189006", "POBTOT": 0.0, "score_nse": 0.0, "NSE": null, "VIVTOT": 0.0, "GRAPROES": 0.0, "_ent": "16", "_mun": "038", "_loc": "0062"}, "geometry": {"type": "Polygon", "coordinates": [[[-101.03866, 18.55958], [-101.03843, 18.55959], [-101.03834, 18.55927], [-101.03863, 18.55928], [-101.03866, 18.55958]]]}}, {"id": "1240428", "type": "Feature", "properties": {"id": "1240428", "CVEGEO": "1603800620189005", "POBTOT": 0.0, "score_nse": 0.0, "NSE": null, "VIVTOT": 0.0, "GRAPROES": 0.0, "_ent": "16", "_mun": "038", "_loc": "0062"}, "geometry": {"type": "Polygon", "coordinates": [[[-101.03866, 18.55922], [-101.03833, 18.55922], [-101.03824, 18.55886], [-101.03853, 18.55894], [-101.03866, 18.55922]]]}}, {"id": "1240429", "type": "Feature", "properties": {"id": "1240429", "CVEGEO": "1603800620189001", "POBTOT": 0.0, "score_nse": 0.0, "NSE": null, "VIVTOT": 0.0, "GRAPROES": 0.0, "_ent": "16", "_mun": "038", "_loc": "0062"}, "geometry": {"type": "Polygon", "coordinates": [[[-101.03837, 18.55957], [-101.03784, 18.55963], [-101.03778, 18.55935], [-101.03828, 18.55926], [-101.03837, 18.55957]]]}}, {"id": "1240430", "type": "Feature", "properties": {"id": "1240430", "CVEGEO": "1603800620189003", "POBTOT": 0.0, "score_nse": 0.0, "NSE": null, "VIVTOT": 0.0, "GRAPROES": 0.0, "_ent": "16", "_mun": "038", "_loc": "0062"}, "geometry": {"type": "Polygon", "coordinates": [[[-101.03775, 18.55972], [-101.03726, 18.55984], [-101.03717, 18.55921], [-101.03762, 18.55915], [-101.03775, 18.55972]]]}}, {"id": "1240431", "type": "Feature", "properties": {"id": "1240431", "CVEGEO": "1603800620189010", "POBTOT": 0.0, "score_nse": 0.0, "NSE": null, "VIVTOT": 0.0, "GRAPROES": 0.0, "_ent": "16", "_mun": "038", "_loc": "0062"}, "geometry": {"type": "Polygon", "coordinates": [[[-101.03761, 18.5591], [-101.03717, 18.55917], [-101.03755, 18.55885], [-101.03761, 18.5591]]]}}, {"id": "1240432", "type": "Feature", "properties": {"id": "1240432", "CVEGEO": "1603800620189011", "POBTOT": 0.0, "score_nse": 0.0, "NSE": null, "VIVTOT": 0.0, "GRAPROES": 0.0, "_ent": "16", "_mun": "038", "_loc": "0062"}, "geometry": {"type": "Polygon", "coordinates": [[[-101.03753, 18.55881], [-101.03715, 18.55903], [-101.03701, 18.55854], [-101.03743, 18.55855], [-101.03753, 18.55881]]]}}, {"id": "1240433", "type": "Feature", "properties": {"id": "1240433", "CVEGEO": "1603800620189063", "POBTOT": 0.0, "score_nse": 0.0, "NSE": null, "VIVTOT": 0.0, "GRAPROES": 0.0, "_ent": "16", "_mun": "038", "_loc": "0062"}, "geometry": {"type": "Polygon", "coordinates": [[[-101.0388, 18.55887], [-101.03843, 18.55889], [-101.03855, 18.55846], [-101.03879, 18.55841], [-101.0388, 18.55887]]]}}, {"id": "1240434", "type": "Feature", "properties": {"id": "1240434", "CVEGEO": "1603800620189004", "POBTOT": 0.0, "score_nse": 0.0, "NSE": null, "VIVTOT": 0.0, "GRAPROES": 0.0, "_ent": "16", "_mun": "038", "_loc": "0062"}, "geometry": {"type": "Polygon", "coordinates": [[[-101.03844, 18.55832], [-101.03838, 18.55861], [-101.0382, 18.55859], [-101.03823, 18.55922], [-101.03775, 18.55931], [-101.03751, 18.55849], [-101.03774, 18.55847], [-101.03776, 18.55808], [-101.03805, 18.55809], [-101.03806, 18.55841], [-101.03814, 18.55821], [-101.03844, 18.55832]]]}}, {"id": "1240435", "type": "Feature", "properties": {"id": "1240435", "CVEGEO": "1603800620189062", "POBTOT": 0.0, "score_nse": 0.0, "NSE": null, "VIVTOT": 0.0, "GRAPROES": 0.0, "_ent": "16", "_mun": "038", "_loc": "0062"}, "geometry": {"type": "Polygon", "coordinates": [[[-101.03891, 18.55822], [-101.03857, 18.55829], [-101.03816, 18.55813], [-101.0382, 18.55792], [-101.03888, 18.5579], [-101.03891, 18.55822]]]}}, {"id": "1240436", "type": "Feature", "properties": {"id": "1240436", "CVEGEO": "1603800620189065", "POBTOT": 0.0, "score_nse": 0.0, "NSE": null, "VIVTOT": 0.0, "GRAPROES": 0.0, "_ent": "16", "_mun": "038", "_loc": "0062"}, "geometry": {"type": "Polygon", "coordinates": [[[-101.03524, 18.5599], [-101.03559, 18.55982], [-101.03571, 18.56042], [-101.03524, 18.56049], [-101.03524, 18.5599]]]}}, {"id": "1240437", "type": "Feature", "properties": {"id": "1240437", "CVEGEO": "1603800620189064", "POBTOT": 0.0, "score_nse": 0.0, "NSE": null, "VIVTOT": 0.0, "GRAPROES": 0.0, "_ent": "16", "_mun": "038", "_loc": "0062"}, "geometry": {"type": "Polygon", "coordinates": [[[-101.03613, 18.56032], [-101.03577, 18.5604], [-101.03568, 18.55981], [-101.03587, 18.55986], [-101.03613, 18.56032]]]}}, {"id": "1240438", "type": "Feature", "properties": {"id": "1240438", "CVEGEO": "1603800620189015", "POBTOT": 0.0, "score_nse": 0.0, "NSE": null, "VIVTOT": 0.0, "GRAPROES": 0.0, "_ent": "16", "_mun": "038", "_loc": "0062"}, "geometry": {"type": "Polygon", "coordinates": [[[-101.03713, 18.55976], [-101.03678, 18.55977], [-101.03659, 18.55952], [-101.03707, 18.55955], [-101.03713, 18.55976]]]}}, {"id": "1240439", "type": "Feature", "properties": {"id": "1240439", "CVEGEO": "1603800620189067", "POBTOT": 0.0, "score_nse": 0.0, "NSE": null, "VIVTOT": 0.0, "GRAPROES": 0.0, "_ent": "16", "_mun": "038", "_loc": "0062"}, "geometry": {"type": "Polygon", "coordinates": [[[-101.0356, 18.55862], [-101.03523, 18.55962], [-101.03492, 18.55957], [-101.03527, 18.5585], [-101.0356, 18.55862]]]}}, {"id": "1240440", "type": "Feature", "properties": {"id": "1240440", "CVEGEO": "1603800620189037", "POBTOT": 0.0, "score_nse": 0.0, "NSE": null, "VIVTOT": 0.0, "GRAPROES": 0.0, "_ent": "16", "_mun": "038", "_loc": "0062"}, "geometry": {"type": "Polygon", "coordinates": [[[-101.03601, 18.55921], [-101.03589, 18.55952], [-101.03527, 18.55973], [-101.03546, 18.55921], [-101.03601, 18.55921]]]}}, {"id": "1240441", "type": "Feature", "properties": {"id": "1240441", "CVEGEO": "1603800620189038", "POBTOT": 0.0, "score_nse": 0.0, "NSE": null, "VIVTOT": 0.0, "GRAPROES": 0.0, "_ent": "16", "_mun": "038", "_loc": "0062"}, "geometry": {"type": "Polygon", "coordinates": [[[-101.03606, 18.55908], [-101.03548, 18.55917], [-101.03566, 18.55851], [-101.0358, 18.55855], [-101.03606, 18.55908]]]}}, {"id": "1240442", "type": "Feature", "properties": {"id": "1240442", "CVEGEO": "1603800620189016", "POBTOT": 0.0, "score_nse": 0.0, "NSE": null, "VIVTOT": 0.0, "GRAPROES": 0.0, "_ent": "16", "_mun": "038", "_loc": "0062"}, "geometry": {"type": "Polygon", "coordinates": [[[-101.03705, 18.55929], [-101.03623, 18.55924], [-101.03635, 18.55882], [-101.03688, 18.55858], [-101.03705, 18.55929]]]}}, {"id": "1240443", "type": "Feature", "properties": {"id": "1240443", "CVEGEO": "1603800620189040", "POBTOT": 0.0, "score_nse": 0.0, "NSE": null, "VIVTOT": 0.0, "GRAPROES": 0.0, "_ent": "16", "_mun": "038", "_loc": "0062"}, "geometry": {"type": "Polygon", "coordinates": [[[-101.03686, 18.55851], [-101.03643, 18.55865], [-101.03613, 18.55912], [-101.03582, 18.55838], [-101.03625, 18.55782], [-101.03666, 18.55774], [-101.03686, 18.55851]]]}}, {"id": "1240444", "type": "Feature", "properties": {"id": "1240444", "CVEGEO": "1603800620189017", "POBTOT": 0.0, "score_nse": 0.0, "NSE": null, "VIVTOT": 0.0, "GRAPROES": 0.0, "_ent": "16", "_mun": "038", "_loc": "0062"}, "geometry": {"type": "Polygon", "coordinates": [[[-101.03741, 18.55847], [-101.03699, 18.55848], [-101.03677, 18.55762], [-101.03708, 18.55758], [-101.03741, 18.55847]]]}}, {"id": "1240445", "type": "Feature", "properties": {"id": "1240445", "CVEGEO": "1603800620189018", "POBTOT": 0.0, "score_nse": 0.0, "NSE": null, "VIVTOT": 0.0, "GRAPROES": 0.0, "_ent": "16", "_mun": "038", "_loc": "0062"}, "geometry": {"type": "Polygon", "coordinates": [[[-101.03753, 18.55743], [-101.03769, 18.55842], [-101.03749, 18.55845], [-101.03718, 18.55748], [-101.03753, 18.55743]]]}}, {"id": "1240446", "type": "Feature", "properties": {"id": "1240446", "CVEGEO": "1603800620189030", "POBTOT": 0.0, "score_nse": 0.0, "NSE": null, "VIVTOT": 0.0, "GRAPROES": 0.0, "_ent": "16", "_mun": "038", "_loc": "0062"}, "geometry": {"type": "Polygon", "coordinates": [[[-101.03826, 18.55778], [-101.03777, 18.55796], [-101.03765, 18.55743], [-101.03809, 18.55739], [-101.03826, 18.55778]]]}}, {"id": "1240447", "type": "Feature", "properties": {"id": "1240447", "CVEGEO": "1603800620189043", "POBTOT": 0.0, "score_nse": 0.0, "NSE": null, "VIVTOT": 0.0, "GRAPROES": 0.0, "_ent": "16", "_mun": "038", "_loc": "0062"}, "geometry": {"type": "Polygon", "coordinates": [[[-101.03844, 18.55679], [-101.03824, 18.55737], [-101.03759, 18.55732], [-101.03789, 18.55645], [-101.03819, 18.55639], [-101.03844, 18.55679]]]}}, {"id": "1240448", "type": "Feature", "properties": {"id": "1240448", "CVEGEO": "1603800620189029", "POBTOT": 0.0, "score_nse": 0.0, "NSE": null, "VIVTOT": 0.0, "GRAPROES": 0.0, "_ent": "16", "_mun": "038", "_loc": "0062"}, "geometry": {"type": "Polygon", "coordinates": [[[-101.03705, 18.55745], [-101.03673, 18.55754], [-101.03642, 18.55665], [-101.0367, 18.55649], [-101.03693, 18.55649], [-101.03705, 18.55745]]]}}, {"id": "1240449", "type": "Feature", "properties": {"id": "1240449", "CVEGEO": "1603800620189042", "POBTOT": 0.0, "score_nse": 0.0, "NSE": null, "VIVTOT": 0.0, "GRAPROES": 0.0, "_ent": "16", "_mun": "038", "_loc": "0062"}, "geometry": {"type": "Polygon", "coordinates": [[[-101.0375, 18.55734], [-101.03713, 18.5574], [-101.03703, 18.5565], [-101.03744, 18.55641], [-101.0375, 18.55734]]]}}, {"id": "1240450", "type": "Feature", "properties": {"id": "1240450", "CVEGEO": "1603800620189041", "POBTOT": 0.0, "score_nse": 0.0, "NSE": null, "VIVTOT": 0.0, "GRAPROES": 0.0, "_ent": "16", "_mun": "038", "_loc": "0062"}, "geometry": {"type": "Polygon", "coordinates": [[[-101.03693, 18.55645], [-101.03639, 18.5566], [-101.03605, 18.55577], [-101.03641, 18.55594], [-101.0369, 18.55587], [-101.03693, 18.55645]]]}}, {"id": "1240451", "type": "Feature", "properties": {"id": "1240451", "CVEGEO": "1603800620189049", "POBTOT": 0.0, "score_nse": 0.0, "NSE": null, "VIVTOT": 0.0, "GRAPROES": 0.0, "_ent": "16", "_mun": "038", "_loc": "0062"}, "geometry": {"type": "Polygon", "coordinates": [[[-101.03646, 18.5558], [-101.03566, 18.55524], [-101.03645, 18.55545], [-101.03687, 18.55537], [-101.03694, 18.55577], [-101.03646, 18.5558]]]}}, {"id": "1240452", "type": "Feature", "properties": {"id": "1240452", "CVEGEO": "1603800620189052", "POBTOT": 0.0, "score_nse": 0.0, "NSE": null, "VIVTOT": 0.0, "GRAPROES": 0.0, "_ent": "16", "_mun": "038", "_loc": "0062"}, "geometry": {"type": "Polygon", "coordinates": [[[-101.03705, 18.55538], [-101.03754, 18.55541], [-101.03794, 18.55577], [-101.03762, 18.55589], [-101.03748, 18.55569], [-101.03705, 18.55561], [-101.03705, 18.55538]]]}}, {"id": "1240453", "type": "Feature", "properties": {"id": "1240453", "CVEGEO": "1603800620189050", "POBTOT": 0.0, "score_nse": 0.0, "NSE": null, "VIVTOT": 0.0, "GRAPROES": 0.0, "_ent": "16", "_mun": "038", "_loc": "0062"}, "geometry": {"type": "Polygon", "coordinates": [[[-101.03738, 18.55577], [-101.03745, 18.55636], [-101.03701, 18.55643], [-101.03704, 18.55565], [-101.03738, 18.55577]]]}}, {"id": "1240454", "type": "Feature", "properties": {"id": "1240454", "CVEGEO": "1603800620189051", "POBTOT": 0.0, "score_nse": 0.0, "NSE": null, "VIVTOT": 0.0, "GRAPROES": 0.0, "_ent": "16", "_mun": "038", "_loc": "0062"}, "geometry": {"type": "Polygon", "coordinates": [[[-101.03816, 18.55632], [-101.03758, 18.5566], [-101.03755, 18.55596], [-101.03796, 18.55588], [-101.03816, 18.55632]]]}}, {"id": "1240468", "type": "Feature", "properties": {"id": "1240468", "CVEGEO": "1603800620189068", "POBTOT": 0.0, "score_nse": 0.0, "NSE": null, "VIVTOT": 0.0, "GRAPROES": 0.0, "_ent": "16", "_mun": "038", "_loc": "0062"}, "geometry": {"type": "Polygon", "coordinates": [[[-101.03707, 18.55937], [-101.03706, 18.55949], [-101.03635, 18.5594], [-101.03637, 18.55936], [-101.03707, 18.55937]]]}}, {"id": "1240606", "type": "Feature", "properties": {"id": "1240606", "CVEGEO": "1603800620189034", "POBTOT": 0.0, "score_nse": 0.0, "NSE": null, "VIVTOT": 0.0, "GRAPROES": 0.0, "_ent": "16", "_mun": "038", "_loc": "0062"}, "geometry": {"type": "Polygon", "coordinates": [[[-101.03947, 18.56129], [-101.03918, 18.56134], [-101.03897, 18.56158], [-101.03864, 18.56163], [-101.03836, 18.56143], [-101.0382, 18.56154], [-101.03799, 18.56092], [-101.03808, 18.56053], [-101.03855, 18.56051], [-101.03947, 18.56129]]]}}]}