{"type": "FeatureCollection", "features": [{"id": "1238178", "type": "Feature", "properties": {"id": "1238178", "CVEGEO": "160380152023A042", "POBTOT": 0.0, "score_nse": 0.0, "NSE": null, "VIVTOT": 0.0, "GRAPROES": 0.0, "_ent": "16", "_mun": "038", "_loc": "0152"}, "geometry": {"type": "Polygon", "coordinates": [[[-100.85892, 18.50061], [-100.85907, 18.49985], [-100.85968, 18.5002], [-100.86025, 18.50028], [-100.85997, 18.50016], [-100.85987, 18.4996], [-100.86064, 18.49963], [-100.86056, 18.49982], [-100.86036, 18.49982], [-100.86056, 18.49992], [-100.86075, 18.49966], [-100.86118, 18.49967], [-100.86119, 18.50028], [-100.86066, 18.50049], [-100.86026, 18.50113], [-100.85989, 18.50136], [-100.85946, 18.50149], [-100.85892, 18.50061]]]}}, {"id": "1238179", "type": "Feature", "properties": {"id": "1238179", "CVEGEO": "160380152023A028", "POBTOT": 0.0, "score_nse": 0.0, "NSE": null, "VIVTOT": 0.0, "GRAPROES": 0.0, "_ent": "16", "_mun": "038", "_loc": "0152"}, "geometry": {"type": "Polygon", "coordinates": [[[-100.86203, 18.49758], [-100.86203, 18.49724], [-100.86242, 18.49672], [-100.86314, 18.49628], [-100.8633, 18.49649], [-100.86268, 18.49677], [-100.86221, 18.49759], [-100.86203, 18.49758]]]}}, {"id": "1238180", "type": "Feature", "properties": {"id": "1238180", "CVEGEO": "160380152023A027", "POBTOT": 0.0, "score_nse": 0.0, "NSE": null, "VIVTOT": 0.0, "GRAPROES": 0.0, "_ent": "16", "_mun": "038", "_loc": "0152"}, "geometry": {"type": "Polygon", "coordinates": [[[-100.86101, 18.49618], [-100.86018, 18.49589], [-100.86036, 18.49559], [-100.86064, 18.49551], [-100.86121, 18.49575], [-100.86101, 18.49618]]]}}, {"id": "1238545", "type": "Feature", "properties": {"id": "1238545", "CVEGEO": "160380152023A044", "POBTOT": 0.0, "score_nse": 0.0, "NSE": null, "VIVTOT": 0.0, "GRAPROES": 0.0, "_ent": "16", "_mun": "038", "_loc": "0152"}, "geometry": {"type": "Polygon", "coordinates": [[[-100.86164, 18.49486], [-100.86126, 18.4942], [-100.86198, 18.49452], [-100.86183, 18.49488], [-100.86164, 18.49486]]]}}, {"id": "1238546", "type": "Feature", "properties": {"id": "1238546", "CVEGEO": "160380152023A041", "POBTOT": 0.0, "score_nse": 0.0, "NSE": null, "VIVTOT": 0.0, "GRAPROES": 0.0, "_ent": "16", "_mun": "038", "_loc": "0152"}, "geometry": {"type": "Polygon", "coordinates": [[[-100.86156, 18.49553], [-100.86166, 18.4954], [-100.86214, 18.49555], [-100.86238, 18.496], [-100.86211, 18.49627], [-100.86199, 18.49621], [-100.8617, 18.49602], [-100.86168, 18.49561], [-100.86156, 18.49553]]]}}, {"id": "1238547", "type": "Feature", "properties": {"id": "1238547", "CVEGEO": "160380152023A040", "POBTOT": 0.0, "score_nse": 0.0, "NSE": null, "VIVTOT": 0.0, "GRAPROES": 0.0, "_ent": "16", "_mun": "038", "_loc": "0152"}, "geometry": {"type": "Polygon", "coordinates": [[[-100.86138, 18.49579], [-100.86151, 18.4956], [-100.86165, 18.49565], [-100.86164, 18.49599], [-100.86138, 18.49579]]]}}, {"id": "1238548", "type": "Feature", "properties": {"id": "1238548", "CVEGEO": "160380152023A031", "POBTOT": 0.0, "score_nse": 0.0, "NSE": null, "VIVTOT": 0.0, "GRAPROES": 0.0, "_ent": "16", "_mun": "038", "_loc": "0152"}, "geometry": {"type": "Polygon", "coordinates": [[[-100.85985, 18.49957], [-100.85963, 18.4988], [-100.8604, 18.49911], [-100.86122, 18.49912], [-100.8612, 18.49959], [-100.85985, 18.49957]]]}}, {"id": "1238549", "type": "Feature", "properties": {"id": "1238549", "CVEGEO": "160380152023A030", "POBTOT": 0.0, "score_nse": 0.0, "NSE": null, "VIVTOT": 0.0, "GRAPROES": 0.0, "_ent": "16", "_mun": "038", "_loc": "0152"}, "geometry": {"type": "Polygon", "coordinates": [[[-100.86136, 18.4991], [-100.86217, 18.49896], [-100.8625, 18.49938], [-100.8613, 18.50021], [-100.86136, 18.4991]]]}}, {"id": "1238550", "type": "Feature", "properties": {"id": "1238550", "CVEGEO": "160380152023A029", "POBTOT": 0.0, "score_nse": 0.0, "NSE": null, "VIVTOT": 0.0, "GRAPROES": 0.0, "_ent": "16", "_mun": "038", "_loc": "0152"}, "geometry": {"type": "Polygon", "coordinates": [[[-100.86202, 18.49765], [-100.86274, 18.49754], [-100.86277, 18.49869], [-100.86256, 18.49876], [-100.86224, 18.49819], [-100.86202, 18.49765]]]}}, {"id": "1238551", "type": "Feature", "properties": {"id": "1238551", "CVEGEO": "160380152023A006", "POBTOT": 0.0, "score_nse": 0.0, "NSE": null, "VIVTOT": 0.0, "GRAPROES": 0.0, "_ent": "16", "_mun": "038", "_loc": "0152"}, "geometry": {"type": "Polygon", "coordinates": [[[-100.86073, 18.49738], [-100.86085, 18.49689], [-100.86113, 18.49695], [-100.86087, 18.49685], [-100.86093, 18.49665], [-100.86188, 18.49679], [-100.86165, 18.49745], [-100.86073, 18.49738]]]}}, {"id": "1238552", "type": "Feature", "properties": {"id": "1238552", "CVEGEO": "160380152023A005", "POBTOT": 0.0, "score_nse": 0.0, "NSE": null, "VIVTOT": 0.0, "GRAPROES": 0.0, "_ent": "16", "_mun": "038", "_loc": "0152"}, "geometry": {"type": "Polygon", "coordinates": [[[-100.86038, 18.4972], [-100.8604, 18.49665], [-100.86086, 18.49665], [-100.86063, 18.49729], [-100.86038, 18.4972]]]}}, {"id": "1238553", "type": "Feature", "properties": {"id": "1238553", "CVEGEO": "160380152023A004", "POBTOT": 0.0, "score_nse": 0.0, "NSE": null, "VIVTOT": 0.0, "GRAPROES": 0.0, "_ent": "16", "_mun": "038", "_loc": "0152"}, "geometry": {"type": "Polygon", "coordinates": [[[-100.86004, 18.49733], [-100.86029, 18.49714], [-100.86041, 18.49732], [-100.86004, 18.49733]]]}}, {"id": "1238554", "type": "Feature", "properties": {"id": "1238554", "CVEGEO": "160380152023A003", "POBTOT": 0.0, "score_nse": 0.0, "NSE": null, "VIVTOT": 0.0, "GRAPROES": 0.0, "_ent": "16", "_mun": "038", "_loc": "0152"}, "geometry": {"type": "Polygon", "coordinates": [[[-100.85951, 18.49717], [-100.85959, 18.49694], [-100.86009, 18.49706], [-100.85998, 18.49731], [-100.85951, 18.49717]]]}}, {"id": "1238555", "type": "Feature", "properties": {"id": "1238555", "CVEGEO": "160380152023A014", "POBTOT": 0.0, "score_nse": 0.0, "NSE": null, "VIVTOT": 0.0, "GRAPROES": 0.0, "_ent": "16", "_mun": "038", "_loc": "0152"}, "geometry": {"type": "Polygon", "coordinates": [[[-100.85986, 18.49629], [-100.8603, 18.4965], [-100.86029, 18.49707], [-100.85965, 18.4969], [-100.85986, 18.49629]]]}}, {"id": "1238719", "type": "Feature", "properties": {"id": "1238719", "CVEGEO": "160380152023A002", "POBTOT": 0.0, "score_nse": 0.0, "NSE": null, "VIVTOT": 0.0, "GRAPROES": 0.0, "_ent": "16", "_mun": "038", "_loc": "0152"}, "geometry": {"type": "Polygon", "coordinates": [[[-100.85961, 18.49758], [-100.85958, 18.4973], [-100.85991, 18.49735], [-100.85984, 18.49759], [-100.85961, 18.49758]]]}}, {"id": "1238774", "type": "Feature", "properties": {"id": "1238774", "CVEGEO": "160380152023A054", "POBTOT": 0.0, "score_nse": 0.0, "NSE": null, "VIVTOT": 0.0, "GRAPROES": 0.0, "_ent": "16", "_mun": "038", "_loc": "0152"}, "geometry": {"type": "Polygon", "coordinates": [[[-100.85901, 18.49425], [-100.85972, 18.49416], [-100.85976, 18.49461], [-100.85914, 18.4947], [-100.85901, 18.49425]]]}}, {"id": "1238775", "type": "Feature", "properties": {"id": "1238775", "CVEGEO": "160380152023A053", "POBTOT": 0.0, "score_nse": 0.0, "NSE": null, "VIVTOT": 0.0, "GRAPROES": 0.0, "_ent": "16", "_mun": "038", "_loc": "0152"}, "geometry": {"type": "Polygon", "coordinates": [[[-100.85979, 18.49415], [-100.86032, 18.49408], [-100.86045, 18.49452], [-100.85983, 18.4946], [-100.85979, 18.49415]]]}}, {"id": "1238776", "type": "Feature", "properties": {"id": "1238776", "CVEGEO": "160380152023A033", "POBTOT": 0.0, "score_nse": 0.0, "NSE": null, "VIVTOT": 0.0, "GRAPROES": 0.0, "_ent": "16", "_mun": "038", "_loc": "0152"}, "geometry": {"type": "Polygon", "coordinates": [[[-100.85902, 18.49947], [-100.85934, 18.49869], [-100.8595, 18.49873], [-100.85991, 18.50016], [-100.85945, 18.50001], [-100.85902, 18.49947]]]}}, {"id": "1238777", "type": "Feature", "properties": {"id": "1238777", "CVEGEO": "160380152023A017", "POBTOT": 0.0, "score_nse": 0.0, "NSE": null, "VIVTOT": 0.0, "GRAPROES": 0.0, "_ent": "16", "_mun": "038", "_loc": "0152"}, "geometry": {"type": "Polygon", "coordinates": [[[-100.85867, 18.49804], [-100.8587, 18.49779], [-100.85958, 18.49791], [-100.85937, 18.49856], [-100.85867, 18.49804]]]}}, {"id": "1238778", "type": "Feature", "properties": {"id": "1238778", "CVEGEO": "160380152023A016", "POBTOT": 0.0, "score_nse": 0.0, "NSE": null, "VIVTOT": 0.0, "GRAPROES": 0.0, "_ent": "16", "_mun": "038", "_loc": "0152"}, "geometry": {"type": "Polygon", "coordinates": [[[-100.86048, 18.49904], [-100.85943, 18.49859], [-100.8595, 18.49831], [-100.85977, 18.49837], [-100.85951, 18.49829], [-100.85962, 18.49796], [-100.85996, 18.49805], [-100.85996, 18.49819], [-100.86, 18.49805], [-100.86076, 18.49804], [-100.86101, 18.49864], [-100.86051, 18.49867], [-100.86039, 18.4985], [-100.86039, 18.49864], [-100.86061, 18.49871], [-100.86103, 18.49867], [-100.86109, 18.49902], [-100.86048, 18.49904]]]}}, {"id": "1239014", "type": "Feature", "properties": {"id": "1239014", "CVEGEO": "160380152023A007", "POBTOT": 0.0, "score_nse": 0.0, "NSE": null, "VIVTOT": 0.0, "GRAPROES": 0.0, "_ent": "16", "_mun": "038", "_loc": "0152"}, "geometry": {"type": "Polygon", "coordinates": [[[-100.86075, 18.49789], [-100.86118, 18.49796], [-100.86125, 18.49859], [-100.86106, 18.49859], [-100.86075, 18.49789]]]}}, {"id": "1239030", "type": "Feature", "properties": {"id": "1239030", "CVEGEO": "160380152023A051", "POBTOT": 0.0, "score_nse": 0.0, "NSE": null, "VIVTOT": 0.0, "GRAPROES": 0.0, "_ent": "16", "_mun": "038", "_loc": "0152"}, "geometry": {"type": "Polygon", "coordinates": [[[-100.85767, 18.49713], [-100.85766, 18.49673], [-100.85861, 18.49693], [-100.85836, 18.49757], [-100.85767, 18.49713]]]}}, {"id": "1239031", "type": "Feature", "properties": {"id": "1239031", "CVEGEO": "160380152023A048", "POBTOT": 0.0, "score_nse": 0.0, "NSE": null, "VIVTOT": 0.0, "GRAPROES": 0.0, "_ent": "16", "_mun": "038", "_loc": "0152"}, "geometry": {"type": "Polygon", "coordinates": [[[-100.86073, 18.49784], [-100.86073, 18.49743], [-100.86148, 18.49749], [-100.86143, 18.49782], [-100.86073, 18.49784]]]}}, {"id": "1239032", "type": "Feature", "properties": {"id": "1239032", "CVEGEO": "160380152023A043", "POBTOT": 0.0, "score_nse": 0.0, "NSE": null, "VIVTOT": 0.0, "GRAPROES": 0.0, "_ent": "16", "_mun": "038", "_loc": "0152"}, "geometry": {"type": "Polygon", "coordinates": [[[-100.85918, 18.4998], [-100.85796, 18.49968], [-100.85798, 18.49935], [-100.85849, 18.49865], [-100.85918, 18.4998]]]}}, {"id": "1239033", "type": "Feature", "properties": {"id": "1239033", "CVEGEO": "160380152023A009", "POBTOT": 0.0, "score_nse": 0.0, "NSE": null, "VIVTOT": 0.0, "GRAPROES": 0.0, "_ent": "16", "_mun": "038", "_loc": "0152"}, "geometry": {"type": "Polygon", "coordinates": [[[-100.85962, 18.49785], [-100.85962, 18.49761], [-100.85983, 18.49762], [-100.85979, 18.49787], [-100.85962, 18.49785]]]}}, {"id": "1239034", "type": "Feature", "properties": {"id": "1239034", "CVEGEO": "160380152023A008", "POBTOT": 0.0, "score_nse": 0.0, "NSE": null, "VIVTOT": 0.0, "GRAPROES": 0.0, "_ent": "16", "_mun": "038", "_loc": "0152"}, "geometry": {"type": "Polygon", "coordinates": [[[-100.85983, 18.49797], [-100.85986, 18.49775], [-100.86059, 18.49765], [-100.8605, 18.49804], [-100.85983, 18.49797]]]}}, {"id": "1239339", "type": "Feature", "properties": {"id": "1239339", "CVEGEO": "160380152023A026", "POBTOT": 0.0, "score_nse": 0.0, "NSE": null, "VIVTOT": 0.0, "GRAPROES": 0.0, "_ent": "16", "_mun": "038", "_loc": "0152"}, "geometry": {"type": "Polygon", "coordinates": [[[-100.86015, 18.49627], [-100.86018, 18.49592], [-100.86047, 18.49592], [-100.86033, 18.49638], [-100.86015, 18.49627]]]}}, {"id": "1239343", "type": "Feature", "properties": {"id": "1239343", "CVEGEO": "160380152023A013", "POBTOT": 0.0, "score_nse": 0.0, "NSE": null, "VIVTOT": 0.0, "GRAPROES": 0.0, "_ent": "16", "_mun": "038", "_loc": "0152"}, "geometry": {"type": "Polygon", "coordinates": [[[-100.85949, 18.49623], [-100.85984, 18.49622], [-100.85959, 18.49689], [-100.85886, 18.49663], [-100.85949, 18.49623]]]}}, {"id": "1239645", "type": "Feature", "properties": {"id": "1239645", "CVEGEO": "160380152023A039", "POBTOT": 0.0, "score_nse": 0.0, "NSE": null, "VIVTOT": 0.0, "GRAPROES": 0.0, "_ent": "16", "_mun": "038", "_loc": "0152"}, "geometry": {"type": "Polygon", "coordinates": [[[-100.86129, 18.49572], [-100.86124, 18.49534], [-100.86155, 18.49539], [-100.86129, 18.49572]]]}}, {"id": "1239646", "type": "Feature", "properties": {"id": "1239646", "CVEGEO": "160380152023A023", "POBTOT": 0.0, "score_nse": 0.0, "NSE": null, "VIVTOT": 0.0, "GRAPROES": 0.0, "_ent": "16", "_mun": "038", "_loc": "0152"}, "geometry": {"type": "Polygon", "coordinates": [[[-100.86122, 18.49901], [-100.86112, 18.49862], [-100.86137, 18.49864], [-100.86136, 18.499], [-100.86122, 18.49901]]]}}, {"id": "1239695", "type": "Feature", "properties": {"id": "1239695", "CVEGEO": "160380152023A038", "POBTOT": 0.0, "score_nse": 0.0, "NSE": null, "VIVTOT": 0.0, "GRAPROES": 0.0, "_ent": "16", "_mun": "038", "_loc": "0152"}, "geometry": {"type": "Polygon", "coordinates": [[[-100.86079, 18.49548], [-100.86082, 18.49531], [-100.86118, 18.49533], [-100.86115, 18.49564], [-100.86079, 18.49548]]]}}, {"id": "1239696", "type": "Feature", "properties": {"id": "1239696", "CVEGEO": "160380152023A037", "POBTOT": 0.0, "score_nse": 0.0, "NSE": null, "VIVTOT": 0.0, "GRAPROES": 0.0, "_ent": "16", "_mun": "038", "_loc": "0152"}, "geometry": {"type": "Polygon", "coordinates": [[[-100.85966, 18.49546], [-100.85943, 18.49532], [-100.85917, 18.49475], [-100.8605, 18.49459], [-100.8606, 18.49518], [-100.86072, 18.49521], [-100.86066, 18.49546], [-100.86035, 18.49555], [-100.86015, 18.49539], [-100.86033, 18.49557], [-100.86007, 18.49606], [-100.85994, 18.49605], [-100.85966, 18.49546]]]}}, {"id": "1239697", "type": "Feature", "properties": {"id": "1239697", "CVEGEO": "160380152023A034", "POBTOT": 0.0, "score_nse": 0.0, "NSE": null, "VIVTOT": 0.0, "GRAPROES": 0.0, "_ent": "16", "_mun": "038", "_loc": "0152"}, "geometry": {"type": "Polygon", "coordinates": [[[-100.85877, 18.49886], [-100.85897, 18.49841], [-100.85932, 18.49862], [-100.85896, 18.49933], [-100.85877, 18.49886]]]}}, {"id": "1239698", "type": "Feature", "properties": {"id": "1239698", "CVEGEO": "160380152023A021", "POBTOT": 0.0, "score_nse": 0.0, "NSE": null, "VIVTOT": 0.0, "GRAPROES": 0.0, "_ent": "16", "_mun": "038", "_loc": "0152"}, "geometry": {"type": "Polygon", "coordinates": [[[-100.8614, 18.49859], [-100.86113, 18.49786], [-100.86174, 18.49781], [-100.86202, 18.49868], [-100.8614, 18.49859]]]}}, {"id": "1239699", "type": "Feature", "properties": {"id": "1239699", "CVEGEO": "160380152023A020", "POBTOT": 0.0, "score_nse": 0.0, "NSE": null, "VIVTOT": 0.0, "GRAPROES": 0.0, "_ent": "16", "_mun": "038", "_loc": "0152"}, "geometry": {"type": "Polygon", "coordinates": [[[-100.86094, 18.49659], [-100.86105, 18.4963], [-100.86123, 18.49638], [-100.8614, 18.49629], [-100.86107, 18.49626], [-100.86125, 18.4959], [-100.86204, 18.49633], [-100.86178, 18.49669], [-100.86094, 18.49659]]]}}, {"id": "1239700", "type": "Feature", "properties": {"id": "1239700", "CVEGEO": "160380152023A019", "POBTOT": 0.0, "score_nse": 0.0, "NSE": null, "VIVTOT": 0.0, "GRAPROES": 0.0, "_ent": "16", "_mun": "038", "_loc": "0152"}, "geometry": {"type": "Polygon", "coordinates": [[[-100.86035, 18.49647], [-100.86036, 18.49628], [-100.861, 18.49623], [-100.86088, 18.49659], [-100.86035, 18.49647]]]}}, {"id": "1239701", "type": "Feature", "properties": {"id": "1239701", "CVEGEO": "160380152023A001", "POBTOT": 0.0, "score_nse": 0.0, "NSE": null, "VIVTOT": 0.0, "GRAPROES": 0.0, "_ent": "16", "_mun": "038", "_loc": "0152"}, "geometry": {"type": "Polygon", "coordinates": [[[-100.85996, 18.49738], [-100.86063, 18.49733], [-100.86059, 18.49761], [-100.85988, 18.49768], [-100.85996, 18.49738]]]}}, {"id": "1239712", "type": "Feature", "properties": {"id": "1239712", "CVEGEO": "160380152023A022", "POBTOT": 0.0, "score_nse": 0.0, "NSE": null, "VIVTOT": 0.0, "GRAPROES": 0.0, "_ent": "16", "_mun": "038", "_loc": "0152"}, "geometry": {"type": "Polygon", "coordinates": [[[-100.8614, 18.49895], [-100.86142, 18.49865], [-100.86189, 18.49874], [-100.86187, 18.49897], [-100.8614, 18.49895]]]}}, {"id": "1239716", "type": "Feature", "properties": {"id": "1239716", "CVEGEO": "160380152023A035", "POBTOT": 0.0, "score_nse": 0.0, "NSE": null, "VIVTOT": 0.0, "GRAPROES": 0.0, "_ent": "16", "_mun": "038", "_loc": "0152"}, "geometry": {"type": "Polygon", "coordinates": [[[-100.85855, 18.49857], [-100.85869, 18.49826], [-100.85891, 18.49837], [-100.85873, 18.49878], [-100.85855, 18.49857]]]}}, {"id": "1239876", "type": "Feature", "properties": {"id": "1239876", "CVEGEO": "160380152023A012", "POBTOT": 0.0, "score_nse": 0.0, "NSE": null, "VIVTOT": 0.0, "GRAPROES": 0.0, "_ent": "16", "_mun": "038", "_loc": "0152"}, "geometry": {"type": "Polygon", "coordinates": [[[-100.85947, 18.49716], [-100.8587, 18.4969], [-100.85883, 18.49666], [-100.85954, 18.49692], [-100.85947, 18.49716]]]}}, {"id": "1239877", "type": "Feature", "properties": {"id": "1239877", "CVEGEO": "160380152023A011", "POBTOT": 0.0, "score_nse": 0.0, "NSE": null, "VIVTOT": 0.0, "GRAPROES": 0.0, "_ent": "16", "_mun": "038", "_loc": "0152"}, "geometry": {"type": "Polygon", "coordinates": [[[-100.85845, 18.49763], [-100.85868, 18.49693], [-100.85947, 18.4972], [-100.85954, 18.49757], [-100.85929, 18.49779], [-100.85845, 18.49763]]]}}, {"id": "1240112", "type": "Feature", "properties": {"id": "1240112", "CVEGEO": "160380152023A010", "POBTOT": 0.0, "score_nse": 0.0, "NSE": null, "VIVTOT": 0.0, "GRAPROES": 0.0, "_ent": "16", "_mun": "038", "_loc": "0152"}, "geometry": {"type": "Polygon", "coordinates": [[[-100.85934, 18.4978], [-100.85942, 18.49761], [-100.85957, 18.49761], [-100.85958, 18.49784], [-100.85934, 18.4978]]]}}, {"id": "1240354", "type": "Feature", "properties": {"id": "1240354", "CVEGEO": "160380152023A056", "POBTOT": 0.0, "score_nse": 0.0, "NSE": null, "VIVTOT": 0.0, "GRAPROES": 0.0, "_ent": "16", "_mun": "038", "_loc": "0152"}, "geometry": {"type": "Polygon", "coordinates": [[[-100.85883, 18.49315], [-100.85868, 18.49252], [-100.85954, 18.49278], [-100.85957, 18.49312], [-100.85883, 18.49315]]]}}, {"id": "1240355", "type": "Feature", "properties": {"id": "1240355", "CVEGEO": "160380152023A055", "POBTOT": 0.0, "score_nse": 0.0, "NSE": null, "VIVTOT": 0.0, "GRAPROES": 0.0, "_ent": "16", "_mun": "038", "_loc": "0152"}, "geometry": {"type": "Polygon", "coordinates": [[[-100.85893, 18.49373], [-100.85966, 18.49365], [-100.85972, 18.4941], [-100.859, 18.49419], [-100.85893, 18.49373]]]}}, {"id": "1240366", "type": "Feature", "properties": {"id": "1240366", "CVEGEO": "160380152023A059", "POBTOT": 0.0, "score_nse": 0.0, "NSE": null, "VIVTOT": 0.0, "GRAPROES": 0.0, "_ent": "16", "_mun": "038", "_loc": "0152"}, "geometry": {"type": "Polygon", "coordinates": [[[-100.85962, 18.4936], [-100.85893, 18.49369], [-100.85885, 18.49321], [-100.85958, 18.49317], [-100.85962, 18.4936]]]}}, {"id": "1240367", "type": "Feature", "properties": {"id": "1240367", "CVEGEO": "160380152023A058", "POBTOT": 0.0, "score_nse": 0.0, "NSE": null, "VIVTOT": 0.0, "GRAPROES": 0.0, "_ent": "16", "_mun": "038", "_loc": "0152"}, "geometry": {"type": "Polygon", "coordinates": [[[-100.86006, 18.49355], [-100.85967, 18.4936], [-100.85963, 18.49317], [-100.85987, 18.49317], [-100.86006, 18.49355]]]}}, {"id": "1240368", "type": "Feature", "properties": {"id": "1240368", "CVEGEO": "160380152023A057", "POBTOT": 0.0, "score_nse": 0.0, "NSE": null, "VIVTOT": 0.0, "GRAPROES": 0.0, "_ent": "16", "_mun": "038", "_loc": "0152"}, "geometry": {"type": "Polygon", "coordinates": [[[-100.86029, 18.49384], [-100.85991, 18.49314], [-100.85963, 18.49312], [-100.8596, 18.49279], [-100.86075, 18.49362], [-100.86168, 18.49499], [-100.8616, 18.49534], [-100.86065, 18.4951], [-100.86029, 18.49384]]]}}, {"id": "1240369", "type": "Feature", "properties": {"id": "1240369", "CVEGEO": "160380152023A032", "POBTOT": 0.0, "score_nse": 0.0, "NSE": null, "VIVTOT": 0.0, "GRAPROES": 0.0, "_ent": "16", "_mun": "038", "_loc": "0152"}, "geometry": {"type": "Polygon", "coordinates": [[[-100.85971, 18.49364], [-100.86009, 18.4936], [-100.86029, 18.49403], [-100.85977, 18.49409], [-100.85971, 18.49364]]]}}, {"id": "1240786", "type": "Feature", "properties": {"id": "1240786", "CVEGEO": "160380152023A024", "POBTOT": 0.0, "score_nse": 0.0, "NSE": null, "VIVTOT": 0.0, "GRAPROES": 0.0, "_ent": "16", "_mun": "038", "_loc": "0152"}, "geometry": {"type": "Polygon", "coordinates": [[[-100.85769, 18.4967], [-100.85763, 18.4971], [-100.85687, 18.49645], [-100.85612, 18.49611], [-100.85673, 18.49466], [-100.8573, 18.49527], [-100.8584, 18.49574], [-100.85874, 18.49458], [-100.85891, 18.49443], [-100.85931, 18.49531], [-100.85863, 18.4969], [-100.85769, 18.4967]]]}}, {"id": "1240787", "type": "Feature", "properties": {"id": "1240787", "CVEGEO": "160380152023A025", "POBTOT": 0.0, "score_nse": 0.0, "NSE": null, "VIVTOT": 0.0, "GRAPROES": 0.0, "_ent": "16", "_mun": "038", "_loc": "0152"}, "geometry": {"type": "Polygon", "coordinates": [[[-100.85988, 18.49616], [-100.85944, 18.49619], [-100.85893, 18.49644], [-100.85941, 18.49537], [-100.85986, 18.49588], [-100.85988, 18.49616]]]}}, {"id": "1240788", "type": "Feature", "properties": {"id": "1240788", "CVEGEO": "160380152023A036", "POBTOT": 0.0, "score_nse": 0.0, "NSE": null, "VIVTOT": 0.0, "GRAPROES": 0.0, "_ent": "16", "_mun": "038", "_loc": "0152"}, "geometry": {"type": "Polygon", "coordinates": [[[-100.85677, 18.49845], [-100.857, 18.49765], [-100.85502, 18.49746], [-100.85502, 18.49732], [-100.85598, 18.49732], [-100.85637, 18.49636], [-100.85855, 18.49779], [-100.85846, 18.49856], [-100.85677, 18.49845]]]}}, {"id": "1240789", "type": "Feature", "properties": {"id": "1240789", "CVEGEO": "160380152023A045", "POBTOT": 0.0, "score_nse": 0.0, "NSE": null, "VIVTOT": 0.0, "GRAPROES": 0.0, "_ent": "16", "_mun": "038", "_loc": "0152"}, "geometry": {"type": "Polygon", "coordinates": [[[-100.86377, 18.49528], [-100.86291, 18.49581], [-100.86282, 18.49537], [-100.86286, 18.49583], [-100.86252, 18.496], [-100.86217, 18.4955], [-100.86168, 18.49535], [-100.86216, 18.49433], [-100.86258, 18.49438], [-100.86217, 18.49428], [-100.86223, 18.49409], [-100.86375, 18.49436], [-100.86345, 18.49483], [-100.86377, 18.49528]]]}}, {"id": "1240790", "type": "Feature", "properties": {"id": "1240790", "CVEGEO": "160380152023A060", "POBTOT": 0.0, "score_nse": 0.0, "NSE": null, "VIVTOT": 0.0, "GRAPROES": 0.0, "_ent": "16", "_mun": "038", "_loc": "0152"}, "geometry": {"type": "Polygon", "coordinates": [[[-100.85838, 18.49862], [-100.85801, 18.49925], [-100.85696, 18.49922], [-100.85699, 18.49901], [-100.85769, 18.49905], [-100.85747, 18.499], [-100.85751, 18.49855], [-100.85838, 18.49862]]]}}, {"id": "1240791", "type": "Feature", "properties": {"id": "1240791", "CVEGEO": "160380152023A061", "POBTOT": 0.0, "score_nse": 0.0, "NSE": null, "VIVTOT": 0.0, "GRAPROES": 0.0, "_ent": "16", "_mun": "038", "_loc": "0152"}, "geometry": {"type": "Polygon", "coordinates": [[[-100.85747, 18.49855], [-100.85742, 18.499], [-100.85695, 18.49897], [-100.85692, 18.49922], [-100.85661, 18.49919], [-100.85669, 18.49852], [-100.85747, 18.49855]]]}}]}