{"type": "FeatureCollection", "features": [{"id": "1238176", "type": "Feature", "properties": {"id": "1238176", "CVEGEO": "1603801560013008", "POBTOT": 0.0, "score_nse": 0.0, "NSE": null, "VIVTOT": 0.0, "GRAPROES": 0.0, "_ent": "16", "_mun": "038", "_loc": "0156"}, "geometry": {"type": "Polygon", "coordinates": [[[-101.0879, 18.84122], [-101.08804, 18.84082], [-101.08842, 18.84089], [-101.08836, 18.84104], [-101.0879, 18.84122]]]}}, {"id": "1238177", "type": "Feature", "properties": {"id": "1238177", "CVEGEO": "1603801560013007", "POBTOT": 0.0, "score_nse": 0.0, "NSE": null, "VIVTOT": 0.0, "GRAPROES": 0.0, "_ent": "16", "_mun": "038", "_loc": "0156"}, "geometry": {"type": "Polygon", "coordinates": [[[-101.08856, 18.84035], [-101.08845, 18.8408], [-101.08807, 18.84073], [-101.08831, 18.84033], [-101.08856, 18.84035]]]}}, {"id": "1238541", "type": "Feature", "properties": {"id": "1238541", "CVEGEO": "1603801560013013", "POBTOT": 0.0, "score_nse": 0.0, "NSE": null, "VIVTOT": 0.0, "GRAPROES": 0.0, "_ent": "16", "_mun": "038", "_loc": "0156"}, "geometry": {"type": "Polygon", "coordinates": [[[-101.08733, 18.8414], [-101.08778, 18.83925], [-101.08766, 18.83904], [-101.08739, 18.83911], [-101.08727, 18.83874], [-101.08806, 18.83856], [-101.08791, 18.84038], [-101.0876, 18.84158], [-101.08733, 18.8414]]]}}, {"id": "1238542", "type": "Feature", "properties": {"id": "1238542", "CVEGEO": "1603801560013012", "POBTOT": 0.0, "score_nse": 0.0, "NSE": null, "VIVTOT": 0.0, "GRAPROES": 0.0, "_ent": "16", "_mun": "038", "_loc": "0156"}, "geometry": {"type": "Polygon", "coordinates": [[[-101.08905, 18.83742], [-101.08807, 18.83848], [-101.08706, 18.83871], [-101.08718, 18.83833], [-101.08818, 18.83804], [-101.08829, 18.83767], [-101.08862, 18.8376], [-101.0889, 18.83726], [-101.08905, 18.83742]]]}}, {"id": "1238543", "type": "Feature", "properties": {"id": "1238543", "CVEGEO": "1603801560013011", "POBTOT": 0.0, "score_nse": 0.0, "NSE": null, "VIVTOT": 0.0, "GRAPROES": 0.0, "_ent": "16", "_mun": "038", "_loc": "0156"}, "geometry": {"type": "Polygon", "coordinates": [[[-101.08854, 18.84117], [-101.08868, 18.84086], [-101.08893, 18.84097], [-101.08882, 18.84124], [-101.08854, 18.84117]]]}}, {"id": "1238544", "type": "Feature", "properties": {"id": "1238544", "CVEGEO": "1603801560013010", "POBTOT": 0.0, "score_nse": 0.0, "NSE": null, "VIVTOT": 0.0, "GRAPROES": 0.0, "_ent": "16", "_mun": "038", "_loc": "0156"}, "geometry": {"type": "Polygon", "coordinates": [[[-101.0882, 18.84186], [-101.08789, 18.84154], [-101.08822, 18.84156], [-101.0882, 18.84186]]]}}, {"id": "1239029", "type": "Feature", "properties": {"id": "1239029", "CVEGEO": "1603801560013006", "POBTOT": 0.0, "score_nse": 0.0, "NSE": null, "VIVTOT": 0.0, "GRAPROES": 0.0, "_ent": "16", "_mun": "038", "_loc": "0156"}, "geometry": {"type": "Polygon", "coordinates": [[[-101.08864, 18.84017], [-101.08837, 18.84021], [-101.08814, 18.84043], [-101.08819, 18.83986], [-101.08865, 18.83979], [-101.08864, 18.84017]]]}}, {"id": "1239644", "type": "Feature", "properties": {"id": "1239644", "CVEGEO": "1603801560013004", "POBTOT": 0.0, "score_nse": 0.0, "NSE": null, "VIVTOT": 0.0, "GRAPROES": 0.0, "_ent": "16", "_mun": "038", "_loc": "0156"}, "geometry": {"type": "Polygon", "coordinates": [[[-101.08883, 18.83925], [-101.08902, 18.83902], [-101.0892, 18.8392], [-101.08902, 18.83938], [-101.08883, 18.83925]]]}}, {"id": "1239692", "type": "Feature", "properties": {"id": "1239692", "CVEGEO": "1603801560013018", "POBTOT": 0.0, "score_nse": 0.0, "NSE": null, "VIVTOT": 0.0, "GRAPROES": 0.0, "_ent": "16", "_mun": "038", "_loc": "0156"}, "geometry": {"type": "Polygon", "coordinates": [[[-101.09051, 18.83733], [-101.09073, 18.83767], [-101.09068, 18.838], [-101.09003, 18.8379], [-101.09018, 18.83747], [-101.09051, 18.83733]]]}}, {"id": "1239693", "type": "Feature", "properties": {"id": "1239693", "CVEGEO": "1603801560013016", "POBTOT": 0.0, "score_nse": 0.0, "NSE": null, "VIVTOT": 0.0, "GRAPROES": 0.0, "_ent": "16", "_mun": "038", "_loc": "0156"}, "geometry": {"type": "Polygon", "coordinates": [[[-101.08887, 18.8398], [-101.08944, 18.84119], [-101.08926, 18.84127], [-101.08865, 18.84072], [-101.08887, 18.8398]]]}}, {"id": "1239694", "type": "Feature", "properties": {"id": "1239694", "CVEGEO": "1603801560013002", "POBTOT": 0.0, "score_nse": 0.0, "NSE": null, "VIVTOT": 0.0, "GRAPROES": 0.0, "_ent": "16", "_mun": "038", "_loc": "0156"}, "geometry": {"type": "Polygon", "coordinates": [[[-101.08855, 18.83829], [-101.08852, 18.83809], [-101.08908, 18.83746], [-101.08954, 18.83783], [-101.08855, 18.83829]]]}}, {"id": "1240792", "type": "Feature", "properties": {"id": "1240792", "CVEGEO": "1603801560013001", "POBTOT": 0.0, "score_nse": 0.0, "NSE": null, "VIVTOT": 0.0, "GRAPROES": 0.0, "_ent": "16", "_mun": "038", "_loc": "0156"}, "geometry": {"type": "Polygon", "coordinates": [[[-101.08898, 18.83895], [-101.08878, 18.83922], [-101.08859, 18.83922], [-101.08888, 18.83942], [-101.08879, 18.83973], [-101.08858, 18.83956], [-101.08863, 18.83974], [-101.08818, 18.83982], [-101.08836, 18.83864], [-101.08857, 18.83847], [-101.08898, 18.83895]]]}}, {"id": "1240793", "type": "Feature", "properties": {"id": "1240793", "CVEGEO": "1603801560013003", "POBTOT": 0.0, "score_nse": 0.0, "NSE": null, "VIVTOT": 0.0, "GRAPROES": 0.0, "_ent": "16", "_mun": "038", "_loc": "0156"}, "geometry": {"type": "Polygon", "coordinates": [[[-101.08868, 18.83842], [-101.08937, 18.83802], [-101.0897, 18.83821], [-101.08951, 18.83871], [-101.08927, 18.83866], [-101.089, 18.83887], [-101.08868, 18.83842]]]}}, {"id": "1240794", "type": "Feature", "properties": {"id": "1240794", "CVEGEO": "1603801560013009", "POBTOT": 0.0, "score_nse": 0.0, "NSE": null, "VIVTOT": 0.0, "GRAPROES": 0.0, "_ent": "16", "_mun": "038", "_loc": "0156"}, "geometry": {"type": "Polygon", "coordinates": [[[-101.08819, 18.84111], [-101.08842, 18.84112], [-101.08829, 18.84151], [-101.08791, 18.8415], [-101.08819, 18.84111]]]}}, {"id": "1240795", "type": "Feature", "properties": {"id": "1240795", "CVEGEO": "1603801560013014", "POBTOT": 0.0, "score_nse": 0.0, "NSE": null, "VIVTOT": 0.0, "GRAPROES": 0.0, "_ent": "16", "_mun": "038", "_loc": "0156"}, "geometry": {"type": "Polygon", "coordinates": [[[-101.08829, 18.84167], [-101.08852, 18.84127], [-101.08879, 18.84132], [-101.08876, 18.84171], [-101.08829, 18.84167]]]}}, {"id": "1240796", "type": "Feature", "properties": {"id": "1240796", "CVEGEO": "1603801560013015", "POBTOT": 0.0, "score_nse": 0.0, "NSE": null, "VIVTOT": 0.0, "GRAPROES": 0.0, "_ent": "16", "_mun": "038", "_loc": "0156"}, "geometry": {"type": "Polygon", "coordinates": [[[-101.08892, 18.83973], [-101.08914, 18.83932], [-101.0897, 18.83976], [-101.08941, 18.84091], [-101.08892, 18.83973]]]}}, {"id": "1240797", "type": "Feature", "properties": {"id": "1240797", "CVEGEO": "1603801560013017", "POBTOT": 0.0, "score_nse": 0.0, "NSE": null, "VIVTOT": 0.0, "GRAPROES": 0.0, "_ent": "16", "_mun": "038", "_loc": "0156"}, "geometry": {"type": "Polygon", "coordinates": [[[-101.09043, 18.83812], [-101.09032, 18.83853], [-101.08954, 18.83957], [-101.0892, 18.83928], [-101.0897, 18.83858], [-101.08979, 18.838], [-101.09043, 18.83812]]]}}]}