{"type": "FeatureCollection", "features": [{"id": "1294677", "type": "Feature", "properties": {"id": "1294677", "CVEGEO": "1608200960083028", "POBTOT": 0.0, "score_nse": 0.0, "NSE": null, "VIVTOT": 0.0, "GRAPROES": 0.0, "_ent": "16", "_mun": "082", "_loc": "0096"}, "geometry": {"type": "Polygon", "coordinates": [[[-101.5082, 19.21244], [-101.50867, 19.2126], [-101.50846, 19.21337], [-101.50796, 19.21318], [-101.5082, 19.21244]]]}}, {"id": "1294678", "type": "Feature", "properties": {"id": "1294678", "CVEGEO": "1608200960083016", "POBTOT": 0.0, "score_nse": 0.0, "NSE": null, "VIVTOT": 0.0, "GRAPROES": 0.0, "_ent": "16", "_mun": "082", "_loc": "0096"}, "geometry": {"type": "Polygon", "coordinates": [[[-101.50561, 19.21353], [-101.50586, 19.2127], [-101.5068, 19.21305], [-101.5064, 19.21422], [-101.50586, 19.2139], [-101.50561, 19.21353]]]}}, {"id": "1294680", "type": "Feature", "properties": {"id": "1294680", "CVEGEO": "1608200960083013", "POBTOT": 0.0, "score_nse": 0.0, "NSE": null, "VIVTOT": 0.0, "GRAPROES": 0.0, "_ent": "16", "_mun": "082", "_loc": "0096"}, "geometry": {"type": "Polygon", "coordinates": [[[-101.50605, 19.20846], [-101.50687, 19.20877], [-101.50666, 19.20961], [-101.50579, 19.20935], [-101.50605, 19.20846]]]}}, {"id": "1294683", "type": "Feature", "properties": {"id": "1294683", "CVEGEO": "1608200960083001", "POBTOT": 0.0, "score_nse": 0.0, "NSE": null, "VIVTOT": 0.0, "GRAPROES": 0.0, "_ent": "16", "_mun": "082", "_loc": "0096"}, "geometry": {"type": "Polygon", "coordinates": [[[-101.50647, 19.21075], [-101.50738, 19.21108], [-101.50712, 19.21198], [-101.50618, 19.21167], [-101.50647, 19.21075]]]}}, {"id": "1294832", "type": "Feature", "properties": {"id": "1294832", "CVEGEO": "1608200960083005", "POBTOT": 0.0, "score_nse": 0.0, "NSE": null, "VIVTOT": 0.0, "GRAPROES": 0.0, "_ent": "16", "_mun": "082", "_loc": "0096"}, "geometry": {"type": "Polygon", "coordinates": [[[-101.50751, 19.21102], [-101.5076, 19.21027], [-101.50872, 19.21017], [-101.509, 19.2116], [-101.50751, 19.21102]]]}}, {"id": "1294849", "type": "Feature", "properties": {"id": "1294849", "CVEGEO": "1608200960083007", "POBTOT": 0.0, "score_nse": 0.0, "NSE": null, "VIVTOT": 0.0, "GRAPROES": 0.0, "_ent": "16", "_mun": "082", "_loc": "0096"}, "geometry": {"type": "Polygon", "coordinates": [[[-101.50616, 19.21174], [-101.5071, 19.21206], [-101.50682, 19.21299], [-101.50588, 19.21264], [-101.50616, 19.21174]]]}}, {"id": "1294866", "type": "Feature", "properties": {"id": "1294866", "CVEGEO": "1608200960083004", "POBTOT": 0.0, "score_nse": 0.0, "NSE": null, "VIVTOT": 0.0, "GRAPROES": 0.0, "_ent": "16", "_mun": "082", "_loc": "0096"}, "geometry": {"type": "Polygon", "coordinates": [[[-101.50648, 19.21067], [-101.50672, 19.20972], [-101.50758, 19.21009], [-101.50741, 19.21099], [-101.50648, 19.21067]]]}}, {"id": "1294874", "type": "Feature", "properties": {"id": "1294874", "CVEGEO": "1608200960083027", "POBTOT": 0.0, "score_nse": 0.0, "NSE": null, "VIVTOT": 0.0, "GRAPROES": 0.0, "_ent": "16", "_mun": "082", "_loc": "0096"}, "geometry": {"type": "Polygon", "coordinates": [[[-101.50794, 19.21325], [-101.50844, 19.21344], [-101.50812, 19.21449], [-101.50762, 19.21438], [-101.50794, 19.21325]]]}}, {"id": "1295037", "type": "Feature", "properties": {"id": "1295037", "CVEGEO": "1608200960083017", "POBTOT": 0.0, "score_nse": 0.0, "NSE": null, "VIVTOT": 0.0, "GRAPROES": 0.0, "_ent": "16", "_mun": "082", "_loc": "0096"}, "geometry": {"type": "Polygon", "coordinates": [[[-101.50484, 19.21232], [-101.50578, 19.21267], [-101.50555, 19.21344], [-101.5046, 19.21306], [-101.50484, 19.21232]]]}}, {"id": "1295135", "type": "Feature", "properties": {"id": "1295135", "CVEGEO": "1608200960083024", "POBTOT": 0.0, "score_nse": 0.0, "NSE": null, "VIVTOT": 0.0, "GRAPROES": 0.0, "_ent": "16", "_mun": "082", "_loc": "0096"}, "geometry": {"type": "Polygon", "coordinates": [[[-101.50674, 19.21466], [-101.50646, 19.21432], [-101.50654, 19.21409], [-101.50752, 19.21443], [-101.50731, 19.21521], [-101.50746, 19.21558], [-101.5072, 19.21577], [-101.50685, 19.21543], [-101.50674, 19.21466]]]}}, {"id": "1295136", "type": "Feature", "properties": {"id": "1295136", "CVEGEO": "1608200960083023", "POBTOT": 0.0, "score_nse": 0.0, "NSE": null, "VIVTOT": 0.0, "GRAPROES": 0.0, "_ent": "16", "_mun": "082", "_loc": "0096"}, "geometry": {"type": "Polygon", "coordinates": [[[-101.50687, 19.2131], [-101.50786, 19.21323], [-101.50754, 19.21435], [-101.50656, 19.21403], [-101.50687, 19.2131]]]}}, {"id": "1295137", "type": "Feature", "properties": {"id": "1295137", "CVEGEO": "1608200960083021", "POBTOT": 0.0, "score_nse": 0.0, "NSE": null, "VIVTOT": 0.0, "GRAPROES": 0.0, "_ent": "16", "_mun": "082", "_loc": "0096"}, "geometry": {"type": "Polygon", "coordinates": [[[-101.50748, 19.21112], [-101.50843, 19.21149], [-101.50815, 19.21235], [-101.5072, 19.21202], [-101.50748, 19.21112]]]}}, {"id": "1295139", "type": "Feature", "properties": {"id": "1295139", "CVEGEO": "1608200960083019", "POBTOT": 0.0, "score_nse": 0.0, "NSE": null, "VIVTOT": 0.0, "GRAPROES": 0.0, "_ent": "16", "_mun": "082", "_loc": "0096"}, "geometry": {"type": "Polygon", "coordinates": [[[-101.50145, 19.21212], [-101.50136, 19.21173], [-101.50189, 19.2118], [-101.50171, 19.2124], [-101.50145, 19.21212]]]}}, {"id": "1295140", "type": "Feature", "properties": {"id": "1295140", "CVEGEO": "1608200960083003", "POBTOT": 0.0, "score_nse": 0.0, "NSE": null, "VIVTOT": 0.0, "GRAPROES": 0.0, "_ent": "16", "_mun": "082", "_loc": "0096"}, "geometry": {"type": "Polygon", "coordinates": [[[-101.50575, 19.20944], [-101.50662, 19.20972], [-101.50639, 19.21065], [-101.50549, 19.21026], [-101.50575, 19.20944]]]}}, {"id": "1295184", "type": "Feature", "properties": {"id": "1295184", "CVEGEO": "1608200960083026", "POBTOT": 0.0, "score_nse": 0.0, "NSE": null, "VIVTOT": 0.0, "GRAPROES": 0.0, "_ent": "16", "_mun": "082", "_loc": "0096"}, "geometry": {"type": "Polygon", "coordinates": [[[-101.50851, 19.21345], [-101.509, 19.21356], [-101.50852, 19.21502], [-101.50792, 19.21541], [-101.50851, 19.21345]]]}}, {"id": "1295185", "type": "Feature", "properties": {"id": "1295185", "CVEGEO": "1608200960083025", "POBTOT": 0.0, "score_nse": 0.0, "NSE": null, "VIVTOT": 0.0, "GRAPROES": 0.0, "_ent": "16", "_mun": "082", "_loc": "0096"}, "geometry": {"type": "Polygon", "coordinates": [[[-101.50761, 19.21444], [-101.5081, 19.21454], [-101.50783, 19.21542], [-101.50756, 19.21556], [-101.5074, 19.21518], [-101.50761, 19.21444]]]}}, {"id": "1295186", "type": "Feature", "properties": {"id": "1295186", "CVEGEO": "1608200960083018", "POBTOT": 0.0, "score_nse": 0.0, "NSE": null, "VIVTOT": 0.0, "GRAPROES": 0.0, "_ent": "16", "_mun": "082", "_loc": "0096"}, "geometry": {"type": "Polygon", "coordinates": [[[-101.50209, 19.21134], [-101.50476, 19.21228], [-101.50452, 19.21303], [-101.50311, 19.21247], [-101.50184, 19.21259], [-101.50209, 19.21134]]]}}, {"id": "1295187", "type": "Feature", "properties": {"id": "1295187", "CVEGEO": "1608200960083010", "POBTOT": 0.0, "score_nse": 0.0, "NSE": null, "VIVTOT": 0.0, "GRAPROES": 0.0, "_ent": "16", "_mun": "082", "_loc": "0096"}, "geometry": {"type": "Polygon", "coordinates": [[[-101.50449, 19.21003], [-101.50539, 19.21033], [-101.50508, 19.21126], [-101.50421, 19.21093], [-101.50449, 19.21003]]]}}, {"id": "1295188", "type": "Feature", "properties": {"id": "1295188", "CVEGEO": "1608200960083009", "POBTOT": 0.0, "score_nse": 0.0, "NSE": null, "VIVTOT": 0.0, "GRAPROES": 0.0, "_ent": "16", "_mun": "082", "_loc": "0096"}, "geometry": {"type": "Polygon", "coordinates": [[[-101.50417, 19.21103], [-101.50504, 19.21135], [-101.50477, 19.21222], [-101.5039, 19.21192], [-101.50417, 19.21103]]]}}, {"id": "1295189", "type": "Feature", "properties": {"id": "1295189", "CVEGEO": "1608200960083008", "POBTOT": 0.0, "score_nse": 0.0, "NSE": null, "VIVTOT": 0.0, "GRAPROES": 0.0, "_ent": "16", "_mun": "082", "_loc": "0096"}, "geometry": {"type": "Polygon", "coordinates": [[[-101.50513, 19.21139], [-101.50607, 19.21172], [-101.5058, 19.2126], [-101.50487, 19.21225], [-101.50513, 19.21139]]]}}, {"id": "1295368", "type": "Feature", "properties": {"id": "1295368", "CVEGEO": "1608200960083002", "POBTOT": 0.0, "score_nse": 0.0, "NSE": null, "VIVTOT": 0.0, "GRAPROES": 0.0, "_ent": "16", "_mun": "082", "_loc": "0096"}, "geometry": {"type": "Polygon", "coordinates": [[[-101.50547, 19.21035], [-101.50638, 19.21073], [-101.50611, 19.21164], [-101.50517, 19.21129], [-101.50547, 19.21035]]]}}, {"id": "1295815", "type": "Feature", "properties": {"id": "1295815", "CVEGEO": "1608200960083031", "POBTOT": 0.0, "score_nse": 0.0, "NSE": null, "VIVTOT": 0.0, "GRAPROES": 0.0, "_ent": "16", "_mun": "082", "_loc": "0096"}, "geometry": {"type": "Polygon", "coordinates": [[[-101.50946, 19.21438], [-101.50893, 19.21487], [-101.50861, 19.21497], [-101.50907, 19.21357], [-101.50963, 19.21369], [-101.50946, 19.21438]]]}}, {"id": "1295816", "type": "Feature", "properties": {"id": "1295816", "CVEGEO": "1608200960083006", "POBTOT": 0.0, "score_nse": 0.0, "NSE": null, "VIVTOT": 0.0, "GRAPROES": 0.0, "_ent": "16", "_mun": "082", "_loc": "0096"}, "geometry": {"type": "Polygon", "coordinates": [[[-101.5085, 19.21152], [-101.50903, 19.21172], [-101.50971, 19.21267], [-101.50822, 19.21237], [-101.5085, 19.21152]]]}}, {"id": "1295823", "type": "Feature", "properties": {"id": "1295823", "CVEGEO": "1608200960083022", "POBTOT": 0.0, "score_nse": 0.0, "NSE": null, "VIVTOT": 0.0, "GRAPROES": 0.0, "_ent": "16", "_mun": "082", "_loc": "0096"}, "geometry": {"type": "Polygon", "coordinates": [[[-101.50769, 19.21227], [-101.50813, 19.21242], [-101.50789, 19.21316], [-101.50752, 19.21308], [-101.50769, 19.21227]]]}}, {"id": "1295824", "type": "Feature", "properties": {"id": "1295824", "CVEGEO": "1608200960083030", "POBTOT": 0.0, "score_nse": 0.0, "NSE": null, "VIVTOT": 0.0, "GRAPROES": 0.0, "_ent": "16", "_mun": "082", "_loc": "0096"}, "geometry": {"type": "Polygon", "coordinates": [[[-101.50719, 19.2121], [-101.50762, 19.21225], [-101.50735, 19.21316], [-101.50693, 19.21304], [-101.50719, 19.2121]]]}}, {"id": "1295825", "type": "Feature", "properties": {"id": "1295825", "CVEGEO": "1608200960083029", "POBTOT": 0.0, "score_nse": 0.0, "NSE": null, "VIVTOT": 0.0, "GRAPROES": 0.0, "_ent": "16", "_mun": "082", "_loc": "0096"}, "geometry": {"type": "Polygon", "coordinates": [[[-101.5036, 19.21077], [-101.50411, 19.211], [-101.50383, 19.21188], [-101.50211, 19.21127], [-101.50221, 19.21105], [-101.5032, 19.21133], [-101.5036, 19.21077]]]}}, {"id": "1295826", "type": "Feature", "properties": {"id": "1295826", "CVEGEO": "1608200960083020", "POBTOT": 0.0, "score_nse": 0.0, "NSE": null, "VIVTOT": 0.0, "GRAPROES": 0.0, "_ent": "16", "_mun": "082", "_loc": "0096"}, "geometry": {"type": "Polygon", "coordinates": [[[-101.50403, 19.20982], [-101.50442, 19.20999], [-101.50413, 19.21093], [-101.5036, 19.21068], [-101.50403, 19.20982]]]}}, {"id": "1295827", "type": "Feature", "properties": {"id": "1295827", "CVEGEO": "1608200960083035", "POBTOT": 0.0, "score_nse": 0.0, "NSE": null, "VIVTOT": 0.0, "GRAPROES": 0.0, "_ent": "16", "_mun": "082", "_loc": "0096"}, "geometry": {"type": "Polygon", "coordinates": [[[-101.50386, 19.20965], [-101.504, 19.20941], [-101.50427, 19.20941], [-101.50441, 19.2091], [-101.50468, 19.20914], [-101.50444, 19.20988], [-101.50386, 19.20965]]]}}, {"id": "1295828", "type": "Feature", "properties": {"id": "1295828", "CVEGEO": "1608200960083034", "POBTOT": 0.0, "score_nse": 0.0, "NSE": null, "VIVTOT": 0.0, "GRAPROES": 0.0, "_ent": "16", "_mun": "082", "_loc": "0096"}, "geometry": {"type": "Polygon", "coordinates": [[[-101.50928, 19.21268], [-101.50902, 19.21349], [-101.50853, 19.21339], [-101.50876, 19.2126], [-101.50928, 19.21268]]]}}, {"id": "1295829", "type": "Feature", "properties": {"id": "1295829", "CVEGEO": "1608200960083012", "POBTOT": 0.0, "score_nse": 0.0, "NSE": null, "VIVTOT": 0.0, "GRAPROES": 0.0, "_ent": "16", "_mun": "082", "_loc": "0096"}, "geometry": {"type": "Polygon", "coordinates": [[[-101.50507, 19.20811], [-101.50599, 19.20844], [-101.50571, 19.20933], [-101.50481, 19.20905], [-101.50507, 19.20811]]]}}, {"id": "1295830", "type": "Feature", "properties": {"id": "1295830", "CVEGEO": "1608200960083038", "POBTOT": 0.0, "score_nse": 0.0, "NSE": null, "VIVTOT": 0.0, "GRAPROES": 0.0, "_ent": "16", "_mun": "082", "_loc": "0096"}, "geometry": {"type": "Polygon", "coordinates": [[[-101.50446, 19.2079], [-101.50499, 19.20808], [-101.50473, 19.20903], [-101.50442, 19.20901], [-101.5041, 19.20867], [-101.50438, 19.20834], [-101.50446, 19.2079]]]}}, {"id": "1295831", "type": "Feature", "properties": {"id": "1295831", "CVEGEO": "1608200960083011", "POBTOT": 0.0, "score_nse": 0.0, "NSE": null, "VIVTOT": 0.0, "GRAPROES": 0.0, "_ent": "16", "_mun": "082", "_loc": "0096"}, "geometry": {"type": "Polygon", "coordinates": [[[-101.5048, 19.20914], [-101.50567, 19.20941], [-101.50541, 19.21023], [-101.50452, 19.20993], [-101.5048, 19.20914]]]}}, {"id": "1295832", "type": "Feature", "properties": {"id": "1295832", "CVEGEO": "1608200960083037", "POBTOT": 0.0, "score_nse": 0.0, "NSE": null, "VIVTOT": 0.0, "GRAPROES": 0.0, "_ent": "16", "_mun": "082", "_loc": "0096"}, "geometry": {"type": "Polygon", "coordinates": [[[-101.50599, 19.20835], [-101.50508, 19.208], [-101.50527, 19.20757], [-101.50613, 19.20791], [-101.50599, 19.20835]]]}}, {"id": "1295833", "type": "Feature", "properties": {"id": "1295833", "CVEGEO": "1608200960083036", "POBTOT": 0.0, "score_nse": 0.0, "NSE": null, "VIVTOT": 0.0, "GRAPROES": 0.0, "_ent": "16", "_mun": "082", "_loc": "0096"}, "geometry": {"type": "Polygon", "coordinates": [[[-101.50405, 19.20862], [-101.50367, 19.20784], [-101.50415, 19.20706], [-101.5052, 19.20753], [-101.50501, 19.20798], [-101.50443, 19.20776], [-101.50432, 19.20831], [-101.50405, 19.20862]]]}}, {"id": "1295834", "type": "Feature", "properties": {"id": "1295834", "CVEGEO": "1608200960083033", "POBTOT": 0.0, "score_nse": 0.0, "NSE": null, "VIVTOT": 0.0, "GRAPROES": 0.0, "_ent": "16", "_mun": "082", "_loc": "0096"}, "geometry": {"type": "Polygon", "coordinates": [[[-101.50973, 19.21274], [-101.50968, 19.21359], [-101.50911, 19.2135], [-101.50935, 19.21269], [-101.50973, 19.21274]]]}}, {"id": "1295944", "type": "Feature", "properties": {"id": "1295944", "CVEGEO": "1608200960083015", "POBTOT": 0.0, "score_nse": 0.0, "NSE": null, "VIVTOT": 0.0, "GRAPROES": 0.0, "_ent": "16", "_mun": "082", "_loc": "0096"}, "geometry": {"type": "Polygon", "coordinates": [[[-101.50763, 19.21019], [-101.5082, 19.20934], [-101.50881, 19.21013], [-101.50763, 19.21019]]]}}, {"id": "1295945", "type": "Feature", "properties": {"id": "1295945", "CVEGEO": "1608200960083014", "POBTOT": 0.0, "score_nse": 0.0, "NSE": null, "VIVTOT": 0.0, "GRAPROES": 0.0, "_ent": "16", "_mun": "082", "_loc": "0096"}, "geometry": {"type": "Polygon", "coordinates": [[[-101.50697, 19.20874], [-101.50608, 19.2084], [-101.50621, 19.20788], [-101.50422, 19.207], [-101.50487, 19.2056], [-101.50537, 19.20645], [-101.50585, 19.20667], [-101.50595, 19.20739], [-101.50666, 19.20763], [-101.50711, 19.20846], [-101.50809, 19.20931], [-101.50765, 19.21002], [-101.50675, 19.20964], [-101.50697, 19.20874]]]}}]}