{"type": "FeatureCollection", "features": [{"id": "976794", "type": "Feature", "properties": {"id": "976794", "CVEGEO": "1408501740156010", "POBTOT": 0.0, "score_nse": 0.0, "NSE": null, "VIVTOT": 0.0, "GRAPROES": 0.0, "_ent": "14", "_mun": "085", "_loc": "0174"}, "geometry": {"type": "Polygon", "coordinates": [[[-103.22851, 19.61073], [-103.22788, 19.61052], [-103.22791, 19.61039], [-103.22816, 19.61048], [-103.22795, 19.61022], [-103.2292, 19.61078], [-103.22902, 19.61103], [-103.22862, 19.61099], [-103.22851, 19.61073]]]}}, {"id": "976795", "type": "Feature", "properties": {"id": "976795", "CVEGEO": "1408501740156009", "POBTOT": 0.0, "score_nse": 0.0, "NSE": null, "VIVTOT": 0.0, "GRAPROES": 0.0, "_ent": "14", "_mun": "085", "_loc": "0174"}, "geometry": {"type": "Polygon", "coordinates": [[[-103.22615, 19.61157], [-103.22577, 19.61211], [-103.22465, 19.61135], [-103.2249, 19.61083], [-103.22615, 19.61157]]]}}, {"id": "976946", "type": "Feature", "properties": {"id": "976946", "CVEGEO": "1408501740156008", "POBTOT": 0.0, "score_nse": 0.0, "NSE": null, "VIVTOT": 0.0, "GRAPROES": 0.0, "_ent": "14", "_mun": "085", "_loc": "0174"}, "geometry": {"type": "Polygon", "coordinates": [[[-103.22829, 19.60871], [-103.22844, 19.60948], [-103.22783, 19.60926], [-103.22829, 19.60871]]]}}, {"id": "976976", "type": "Feature", "properties": {"id": "976976", "CVEGEO": "1408501740156004", "POBTOT": 0.0, "score_nse": 0.0, "NSE": null, "VIVTOT": 0.0, "GRAPROES": 0.0, "_ent": "14", "_mun": "085", "_loc": "0174"}, "geometry": {"type": "Polygon", "coordinates": [[[-103.22679, 19.60942], [-103.22727, 19.60963], [-103.22796, 19.60862], [-103.22819, 19.60868], [-103.22728, 19.6099], [-103.22655, 19.60961], [-103.22673, 19.60923], [-103.22679, 19.60942]]]}}, {"id": "977231", "type": "Feature", "properties": {"id": "977231", "CVEGEO": "1408501740156006", "POBTOT": 0.0, "score_nse": 0.0, "NSE": null, "VIVTOT": 0.0, "GRAPROES": 0.0, "_ent": "14", "_mun": "085", "_loc": "0174"}, "geometry": {"type": "Polygon", "coordinates": [[[-103.22787, 19.61018], [-103.22769, 19.61054], [-103.22697, 19.61019], [-103.22696, 19.60995], [-103.22787, 19.61018]]]}}, {"id": "977232", "type": "Feature", "properties": {"id": "977232", "CVEGEO": "1408501740156005", "POBTOT": 0.0, "score_nse": 0.0, "NSE": null, "VIVTOT": 0.0, "GRAPROES": 0.0, "_ent": "14", "_mun": "085", "_loc": "0174"}, "geometry": {"type": "Polygon", "coordinates": [[[-103.22879, 19.60972], [-103.22866, 19.60997], [-103.22876, 19.61043], [-103.22735, 19.60996], [-103.22752, 19.60971], [-103.22818, 19.60995], [-103.22755, 19.60963], [-103.22778, 19.60932], [-103.22879, 19.60972]]]}}, {"id": "977233", "type": "Feature", "properties": {"id": "977233", "CVEGEO": "1408501740156003", "POBTOT": 0.0, "score_nse": 0.0, "NSE": null, "VIVTOT": 0.0, "GRAPROES": 0.0, "_ent": "14", "_mun": "085", "_loc": "0174"}, "geometry": {"type": "Polygon", "coordinates": [[[-103.22373, 19.60779], [-103.22483, 19.60853], [-103.22615, 19.60915], [-103.22627, 19.60905], [-103.22664, 19.6092], [-103.22647, 19.60959], [-103.22566, 19.60933], [-103.22355, 19.60793], [-103.22236, 19.60661], [-103.22259, 19.60646], [-103.22288, 19.60698], [-103.22373, 19.60779]]]}}, {"id": "977234", "type": "Feature", "properties": {"id": "977234", "CVEGEO": "1408501740156002", "POBTOT": 0.0, "score_nse": 0.0, "NSE": null, "VIVTOT": 0.0, "GRAPROES": 0.0, "_ent": "14", "_mun": "085", "_loc": "0174"}, "geometry": {"type": "Polygon", "coordinates": [[[-103.22537, 19.61096], [-103.22372, 19.60992], [-103.22337, 19.60953], [-103.22399, 19.6088], [-103.22425, 19.60888], [-103.22399, 19.60872], [-103.22331, 19.60946], [-103.22193, 19.6077], [-103.22265, 19.60718], [-103.22378, 19.60814], [-103.22555, 19.60933], [-103.22539, 19.60956], [-103.2252, 19.60947], [-103.22534, 19.60968], [-103.22556, 19.60969], [-103.22543, 19.60958], [-103.22558, 19.60936], [-103.2263, 19.60961], [-103.22624, 19.61013], [-103.22589, 19.61031], [-103.22537, 19.61096]]]}}, {"id": "977235", "type": "Feature", "properties": {"id": "977235", "CVEGEO": "1408501740156001", "POBTOT": 0.0, "score_nse": 0.0, "NSE": null, "VIVTOT": 0.0, "GRAPROES": 0.0, "_ent": "14", "_mun": "085", "_loc": "0174"}, "geometry": {"type": "Polygon", "coordinates": [[[-103.22848, 19.61076], [-103.22858, 19.61099], [-103.22842, 19.61105], [-103.22689, 19.61081], [-103.22678, 19.611], [-103.22654, 19.61102], [-103.22628, 19.61146], [-103.22549, 19.61102], [-103.22598, 19.61037], [-103.22681, 19.61055], [-103.22621, 19.61029], [-103.22646, 19.60965], [-103.22683, 19.60976], [-103.22689, 19.61021], [-103.22721, 19.61033], [-103.22712, 19.61056], [-103.22726, 19.61035], [-103.22765, 19.61056], [-103.22759, 19.61063], [-103.22765, 19.61078], [-103.22779, 19.61056], [-103.22848, 19.61076]]]}}]}