{"type": "FeatureCollection", "features": [{"id": "2288617", "type": "Feature", "properties": {"id": "2288617", "CVEGEO": "3006600310056006", "POBTOT": 0.0, "score_nse": 0.0, "NSE": null, "VIVTOT": 0.0, "GRAPROES": 0.0, "_ent": "30", "_mun": "066", "_loc": "0031"}, "geometry": {"type": "Polygon", "coordinates": [[[-97.47804, 20.19107], [-97.47839, 20.19051], [-97.47872, 20.19069], [-97.47836, 20.19097], [-97.47804, 20.19107]]]}}, {"id": "2288618", "type": "Feature", "properties": {"id": "2288618", "CVEGEO": "3006600310056005", "POBTOT": 0.0, "score_nse": 0.0, "NSE": null, "VIVTOT": 0.0, "GRAPROES": 0.0, "_ent": "30", "_mun": "066", "_loc": "0031"}, "geometry": {"type": "Polygon", "coordinates": [[[-97.47876, 20.19065], [-97.47842, 20.19048], [-97.47876, 20.18998], [-97.47918, 20.19023], [-97.47876, 20.19065]]]}}, {"id": "2288619", "type": "Feature", "properties": {"id": "2288619", "CVEGEO": "3006600310056004", "POBTOT": 0.0, "score_nse": 0.0, "NSE": null, "VIVTOT": 0.0, "GRAPROES": 0.0, "_ent": "30", "_mun": "066", "_loc": "0031"}, "geometry": {"type": "Polygon", "coordinates": [[[-97.47837, 20.19046], [-97.47791, 20.19024], [-97.47819, 20.18962], [-97.47872, 20.18994], [-97.47837, 20.19046]]]}}, {"id": "2288620", "type": "Feature", "properties": {"id": "2288620", "CVEGEO": "3006600310056003", "POBTOT": 0.0, "score_nse": 0.0, "NSE": null, "VIVTOT": 0.0, "GRAPROES": 0.0, "_ent": "30", "_mun": "066", "_loc": "0031"}, "geometry": {"type": "Polygon", "coordinates": [[[-97.47788, 20.19021], [-97.47733, 20.18995], [-97.47749, 20.18949], [-97.47814, 20.18959], [-97.47788, 20.19021]]]}}, {"id": "2288621", "type": "Feature", "properties": {"id": "2288621", "CVEGEO": "3006600310056001", "POBTOT": 0.0, "score_nse": 0.0, "NSE": null, "VIVTOT": 0.0, "GRAPROES": 0.0, "_ent": "30", "_mun": "066", "_loc": "0031"}, "geometry": {"type": "Polygon", "coordinates": [[[-97.47811, 20.19084], [-97.47769, 20.19073], [-97.47789, 20.19029], [-97.47834, 20.1905], [-97.47811, 20.19084]]]}}, {"id": "2288622", "type": "Feature", "properties": {"id": "2288622", "CVEGEO": "3006600310056002", "POBTOT": 0.0, "score_nse": 0.0, "NSE": null, "VIVTOT": 0.0, "GRAPROES": 0.0, "_ent": "30", "_mun": "066", "_loc": "0031"}, "geometry": {"type": "Polygon", "coordinates": [[[-97.47765, 20.19071], [-97.47707, 20.19055], [-97.47731, 20.19001], [-97.47784, 20.19026], [-97.47765, 20.19071]]]}}, {"id": "2288632", "type": "Feature", "properties": {"id": "2288632", "CVEGEO": "3006600310056008", "POBTOT": 0.0, "score_nse": 0.0, "NSE": null, "VIVTOT": 0.0, "GRAPROES": 0.0, "_ent": "30", "_mun": "066", "_loc": "0031"}, "geometry": {"type": "Polygon", "coordinates": [[[-97.47923, 20.19016], [-97.4788, 20.1899], [-97.47906, 20.1895], [-97.47948, 20.18978], [-97.47923, 20.19016]]]}}, {"id": "2288633", "type": "Feature", "properties": {"id": "2288633", "CVEGEO": "3006600310056007", "POBTOT": 0.0, "score_nse": 0.0, "NSE": null, "VIVTOT": 0.0, "GRAPROES": 0.0, "_ent": "30", "_mun": "066", "_loc": "0031"}, "geometry": {"type": "Polygon", "coordinates": [[[-97.47874, 20.18985], [-97.47824, 20.18954], [-97.47832, 20.18941], [-97.47897, 20.18948], [-97.47874, 20.18985]]]}}]}