{"type": "FeatureCollection", "features": [{"id": "669519", "type": "Feature", "properties": {"id": "669519", "CVEGEO": "1102202360063006", "POBTOT": 0.0, "score_nse": 0.0, "NSE": null, "VIVTOT": 0.0, "GRAPROES": 0.0, "_ent": "11", "_mun": "022", "_loc": "0236"}, "geometry": {"type": "Polygon", "coordinates": [[[-101.46658, 21.6548], [-101.46669, 21.65451], [-101.46779, 21.6549], [-101.46769, 21.65518], [-101.46658, 21.6548]]]}}, {"id": "669520", "type": "Feature", "properties": {"id": "669520", "CVEGEO": "1102202360063005", "POBTOT": 0.0, "score_nse": 0.0, "NSE": null, "VIVTOT": 0.0, "GRAPROES": 0.0, "_ent": "11", "_mun": "022", "_loc": "0236"}, "geometry": {"type": "Polygon", "coordinates": [[[-101.46592, 21.65652], [-101.46605, 21.65621], [-101.46714, 21.65659], [-101.46702, 21.6569], [-101.46592, 21.65652]]]}}, {"id": "669521", "type": "Feature", "properties": {"id": "669521", "CVEGEO": "1102202360063003", "POBTOT": 0.0, "score_nse": 0.0, "NSE": null, "VIVTOT": 0.0, "GRAPROES": 0.0, "_ent": "11", "_mun": "022", "_loc": "0236"}, "geometry": {"type": "Polygon", "coordinates": [[[-101.46607, 21.65614], [-101.46618, 21.65586], [-101.46728, 21.65624], [-101.46717, 21.65652], [-101.46607, 21.65614]]]}}, {"id": "669522", "type": "Feature", "properties": {"id": "669522", "CVEGEO": "1102202360063002", "POBTOT": 0.0, "score_nse": 0.0, "NSE": null, "VIVTOT": 0.0, "GRAPROES": 0.0, "_ent": "11", "_mun": "022", "_loc": "0236"}, "geometry": {"type": "Polygon", "coordinates": [[[-101.46632, 21.65548], [-101.46643, 21.65519], [-101.46753, 21.65557], [-101.46741, 21.65586], [-101.46632, 21.65548]]]}}, {"id": "669523", "type": "Feature", "properties": {"id": "669523", "CVEGEO": "1102202360063001", "POBTOT": 0.0, "score_nse": 0.0, "NSE": null, "VIVTOT": 0.0, "GRAPROES": 0.0, "_ent": "11", "_mun": "022", "_loc": "0236"}, "geometry": {"type": "Polygon", "coordinates": [[[-101.4662, 21.65581], [-101.4663, 21.65554], [-101.4674, 21.65592], [-101.46729, 21.6562], [-101.4662, 21.65581]]]}}, {"id": "669602", "type": "Feature", "properties": {"id": "669602", "CVEGEO": "1102202360063004", "POBTOT": 0.0, "score_nse": 0.0, "NSE": null, "VIVTOT": 0.0, "GRAPROES": 0.0, "_ent": "11", "_mun": "022", "_loc": "0236"}, "geometry": {"type": "Polygon", "coordinates": [[[-101.46645, 21.65515], [-101.46656, 21.65486], [-101.46766, 21.65525], [-101.46756, 21.65553], [-101.46645, 21.65515]]]}}, {"id": "669735", "type": "Feature", "properties": {"id": "669735", "CVEGEO": "1102202360063007", "POBTOT": 0.0, "score_nse": 0.0, "NSE": null, "VIVTOT": 0.0, "GRAPROES": 0.0, "_ent": "11", "_mun": "022", "_loc": "0236"}, "geometry": {"type": "Polygon", "coordinates": [[[-101.46579, 21.65686], [-101.4659, 21.65659], [-101.467, 21.65696], [-101.46689, 21.65722], [-101.46579, 21.65686]]]}}, {"id": "669844", "type": "Feature", "properties": {"id": "669844", "CVEGEO": "1102202360063010", "POBTOT": 0.0, "score_nse": 0.0, "NSE": null, "VIVTOT": 0.0, "GRAPROES": 0.0, "_ent": "11", "_mun": "022", "_loc": "0236"}, "geometry": {"type": "Polygon", "coordinates": [[[-101.46566, 21.65721], [-101.46577, 21.65691], [-101.46688, 21.65726], [-101.46675, 21.65756], [-101.46566, 21.65721]]]}}, {"id": "670019", "type": "Feature", "properties": {"id": "670019", "CVEGEO": "1102202360063008", "POBTOT": 0.0, "score_nse": 0.0, "NSE": null, "VIVTOT": 0.0, "GRAPROES": 0.0, "_ent": "11", "_mun": "022", "_loc": "0236"}, "geometry": {"type": "Polygon", "coordinates": [[[-101.46671, 21.65446], [-101.46684, 21.65414], [-101.46796, 21.65435], [-101.46781, 21.65485], [-101.46671, 21.65446]]]}}, {"id": "670020", "type": "Feature", "properties": {"id": "670020", "CVEGEO": "1102202360063009", "POBTOT": 0.0, "score_nse": 0.0, "NSE": null, "VIVTOT": 0.0, "GRAPROES": 0.0, "_ent": "11", "_mun": "022", "_loc": "0236"}, "geometry": {"type": "Polygon", "coordinates": [[[-101.46686, 21.65759], [-101.46805, 21.65438], [-101.46824, 21.65441], [-101.46697, 21.65763], [-101.46686, 21.65759]]]}}, {"id": "670053", "type": "Feature", "properties": {"id": "670053", "CVEGEO": "1102202360063018", "POBTOT": 0.0, "score_nse": 0.0, "NSE": null, "VIVTOT": 0.0, "GRAPROES": 0.0, "_ent": "11", "_mun": "022", "_loc": "0236"}, "geometry": {"type": "Polygon", "coordinates": [[[-101.46623, 21.65553], [-101.46618, 21.65566], [-101.46456, 21.6551], [-101.46462, 21.65494], [-101.46623, 21.65553]]]}}, {"id": "670054", "type": "Feature", "properties": {"id": "670054", "CVEGEO": "1102202360063021", "POBTOT": 0.0, "score_nse": 0.0, "NSE": null, "VIVTOT": 0.0, "GRAPROES": 0.0, "_ent": "11", "_mun": "022", "_loc": "0236"}, "geometry": {"type": "Polygon", "coordinates": [[[-101.46524, 21.65543], [-101.46512, 21.65577], [-101.4644, 21.65551], [-101.46453, 21.65518], [-101.46524, 21.65543]]]}}, {"id": "670055", "type": "Feature", "properties": {"id": "670055", "CVEGEO": "1102202360063020", "POBTOT": 0.0, "score_nse": 0.0, "NSE": null, "VIVTOT": 0.0, "GRAPROES": 0.0, "_ent": "11", "_mun": "022", "_loc": "0236"}, "geometry": {"type": "Polygon", "coordinates": [[[-101.46507, 21.65585], [-101.46498, 21.65612], [-101.46427, 21.65587], [-101.46437, 21.65561], [-101.46507, 21.65585]]]}}, {"id": "670056", "type": "Feature", "properties": {"id": "670056", "CVEGEO": "1102202360063013", "POBTOT": 0.0, "score_nse": 0.0, "NSE": null, "VIVTOT": 0.0, "GRAPROES": 0.0, "_ent": "11", "_mun": "022", "_loc": "0236"}, "geometry": {"type": "Polygon", "coordinates": [[[-101.46494, 21.6562], [-101.46485, 21.65647], [-101.46414, 21.65623], [-101.46424, 21.65596], [-101.46494, 21.6562]]]}}, {"id": "670057", "type": "Feature", "properties": {"id": "670057", "CVEGEO": "1102202360063012", "POBTOT": 0.0, "score_nse": 0.0, "NSE": null, "VIVTOT": 0.0, "GRAPROES": 0.0, "_ent": "11", "_mun": "022", "_loc": "0236"}, "geometry": {"type": "Polygon", "coordinates": [[[-101.46533, 21.6567], [-101.46523, 21.65696], [-101.46402, 21.65654], [-101.46412, 21.65628], [-101.46533, 21.6567]]]}}, {"id": "670058", "type": "Feature", "properties": {"id": "670058", "CVEGEO": "1102202360063014", "POBTOT": 0.0, "score_nse": 0.0, "NSE": null, "VIVTOT": 0.0, "GRAPROES": 0.0, "_ent": "11", "_mun": "022", "_loc": "0236"}, "geometry": {"type": "Polygon", "coordinates": [[[-101.46536, 21.65663], [-101.46492, 21.65648], [-101.46529, 21.65544], [-101.46574, 21.65561], [-101.46536, 21.65663]]]}}, {"id": "670059", "type": "Feature", "properties": {"id": "670059", "CVEGEO": "1102202360063019", "POBTOT": 0.0, "score_nse": 0.0, "NSE": null, "VIVTOT": 0.0, "GRAPROES": 0.0, "_ent": "11", "_mun": "022", "_loc": "0236"}, "geometry": {"type": "Polygon", "coordinates": [[[-101.46616, 21.65575], [-101.46576, 21.65677], [-101.46544, 21.65666], [-101.46581, 21.65563], [-101.46616, 21.65575]]]}}, {"id": "670060", "type": "Feature", "properties": {"id": "670060", "CVEGEO": "1102202360063016", "POBTOT": 0.0, "score_nse": 0.0, "NSE": null, "VIVTOT": 0.0, "GRAPROES": 0.0, "_ent": "11", "_mun": "022", "_loc": "0236"}, "geometry": {"type": "Polygon", "coordinates": [[[-101.46513, 21.65733], [-101.46388, 21.65692], [-101.46399, 21.65661], [-101.46521, 21.65703], [-101.46513, 21.65733]]]}}, {"id": "670061", "type": "Feature", "properties": {"id": "670061", "CVEGEO": "1102202360063015", "POBTOT": 0.0, "score_nse": 0.0, "NSE": null, "VIVTOT": 0.0, "GRAPROES": 0.0, "_ent": "11", "_mun": "022", "_loc": "0236"}, "geometry": {"type": "Polygon", "coordinates": [[[-101.46573, 21.65682], [-101.46551, 21.65747], [-101.4652, 21.65736], [-101.46541, 21.65672], [-101.46573, 21.65682]]]}}, {"id": "670062", "type": "Feature", "properties": {"id": "670062", "CVEGEO": "1102202360063017", "POBTOT": 0.0, "score_nse": 0.0, "NSE": null, "VIVTOT": 0.0, "GRAPROES": 0.0, "_ent": "11", "_mun": "022", "_loc": "0236"}, "geometry": {"type": "Polygon", "coordinates": [[[-101.46548, 21.65753], [-101.46541, 21.65768], [-101.46379, 21.65716], [-101.46385, 21.65699], [-101.46548, 21.65753]]]}}]}