{"type": "FeatureCollection", "features": [{"id": "1738815", "type": "Feature", "properties": {"id": "1738815", "CVEGEO": "2118900110038001", "POBTOT": 0.0, "score_nse": 0.0, "NSE": null, "VIVTOT": 0.0, "GRAPROES": 0.0, "_ent": "21", "_mun": "189", "_loc": "0011"}, "geometry": {"type": "Polygon", "coordinates": [[[-97.81018, 18.8601], [-97.81098, 18.86049], [-97.81071, 18.86111], [-97.80988, 18.86076], [-97.81018, 18.8601]]]}}, {"id": "1738816", "type": "Feature", "properties": {"id": "1738816", "CVEGEO": "2118900110038003", "POBTOT": 0.0, "score_nse": 0.0, "NSE": null, "VIVTOT": 0.0, "GRAPROES": 0.0, "_ent": "21", "_mun": "189", "_loc": "0011"}, "geometry": {"type": "Polygon", "coordinates": [[[-97.80853, 18.85866], [-97.81051, 18.85926], [-97.81014, 18.85999], [-97.80815, 18.85929], [-97.80853, 18.85866]]]}}, {"id": "1738817", "type": "Feature", "properties": {"id": "1738817", "CVEGEO": "2118900110038002", "POBTOT": 0.0, "score_nse": 0.0, "NSE": null, "VIVTOT": 0.0, "GRAPROES": 0.0, "_ent": "21", "_mun": "189", "_loc": "0011"}, "geometry": {"type": "Polygon", "coordinates": [[[-97.80814, 18.85933], [-97.81014, 18.86003], [-97.80975, 18.86095], [-97.80765, 18.86021], [-97.80814, 18.85933]]]}}, {"id": "1738818", "type": "Feature", "properties": {"id": "1738818", "CVEGEO": "2118900110038004", "POBTOT": 0.0, "score_nse": 0.0, "NSE": null, "VIVTOT": 0.0, "GRAPROES": 0.0, "_ent": "21", "_mun": "189", "_loc": "0011"}, "geometry": {"type": "Polygon", "coordinates": [[[-97.81142, 18.85958], [-97.811, 18.8604], [-97.8102, 18.86002], [-97.81054, 18.85928], [-97.81142, 18.85958]]]}}, {"id": "1738819", "type": "Feature", "properties": {"id": "1738819", "CVEGEO": "2118900110038005", "POBTOT": 0.0, "score_nse": 0.0, "NSE": null, "VIVTOT": 0.0, "GRAPROES": 0.0, "_ent": "21", "_mun": "189", "_loc": "0011"}, "geometry": {"type": "Polygon", "coordinates": [[[-97.81067, 18.86113], [-97.81035, 18.86177], [-97.80953, 18.86144], [-97.80987, 18.86081], [-97.81067, 18.86113]]]}}, {"id": "1738836", "type": "Feature", "properties": {"id": "1738836", "CVEGEO": "2118900110038006", "POBTOT": 0.0, "score_nse": 0.0, "NSE": null, "VIVTOT": 0.0, "GRAPROES": 0.0, "_ent": "21", "_mun": "189", "_loc": "0011"}, "geometry": {"type": "Polygon", "coordinates": [[[-97.80939, 18.85886], [-97.80928, 18.85883], [-97.80934, 18.85843], [-97.80922, 18.85882], [-97.8086, 18.85863], [-97.80912, 18.85682], [-97.80975, 18.85708], [-97.80938, 18.85819], [-97.80959, 18.85826], [-97.80939, 18.85886]]]}}]}