{"type": "FeatureCollection", "features": [{"id": "721280", "type": "Feature", "properties": {"id": "721280", "CVEGEO": "1101300320030001", "POBTOT": 0.0, "score_nse": 0.0, "NSE": null, "VIVTOT": 0.0, "GRAPROES": 0.0, "_ent": "11", "_mun": "013", "_loc": "0032"}, "geometry": {"type": "Polygon", "coordinates": [[[-100.34748, 21.09315], [-100.34894, 21.09324], [-100.34975, 21.09329], [-100.34937, 21.09417], [-100.34916, 21.09414], [-100.34923, 21.09396], [-100.34743, 21.09368], [-100.34748, 21.09315]]]}}, {"id": "721315", "type": "Feature", "properties": {"id": "721315", "CVEGEO": "1101300320030010", "POBTOT": 0.0, "score_nse": 0.0, "NSE": null, "VIVTOT": 0.0, "GRAPROES": 0.0, "_ent": "11", "_mun": "013", "_loc": "0032"}, "geometry": {"type": "Polygon", "coordinates": [[[-100.34824, 21.09189], [-100.34729, 21.09102], [-100.34743, 21.09088], [-100.3478, 21.09119], [-100.3483, 21.09081], [-100.34856, 21.09108], [-100.34873, 21.09097], [-100.34886, 21.09108], [-100.34928, 21.09081], [-100.34963, 21.09123], [-100.34824, 21.09189]]]}}, {"id": "721354", "type": "Feature", "properties": {"id": "721354", "CVEGEO": "1101300320030008", "POBTOT": 0.0, "score_nse": 0.0, "NSE": null, "VIVTOT": 0.0, "GRAPROES": 0.0, "_ent": "11", "_mun": "013", "_loc": "0032"}, "geometry": {"type": "Polygon", "coordinates": [[[-100.34627, 21.09296], [-100.34651, 21.0927], [-100.34669, 21.093], [-100.34627, 21.09296]]]}}, {"id": "721355", "type": "Feature", "properties": {"id": "721355", "CVEGEO": "1101300320030006", "POBTOT": 0.0, "score_nse": 0.0, "NSE": null, "VIVTOT": 0.0, "GRAPROES": 0.0, "_ent": "11", "_mun": "013", "_loc": "0032"}, "geometry": {"type": "Polygon", "coordinates": [[[-100.35407, 21.09381], [-100.3535, 21.09492], [-100.35147, 21.0935], [-100.35407, 21.09381]]]}}, {"id": "721356", "type": "Feature", "properties": {"id": "721356", "CVEGEO": "1101300320030005", "POBTOT": 0.0, "score_nse": 0.0, "NSE": null, "VIVTOT": 0.0, "GRAPROES": 0.0, "_ent": "11", "_mun": "013", "_loc": "0032"}, "geometry": {"type": "Polygon", "coordinates": [[[-100.35263, 21.09358], [-100.35262, 21.09299], [-100.35381, 21.09308], [-100.3538, 21.0937], [-100.35263, 21.09358]]]}}, {"id": "721357", "type": "Feature", "properties": {"id": "721357", "CVEGEO": "1101300320030003", "POBTOT": 0.0, "score_nse": 0.0, "NSE": null, "VIVTOT": 0.0, "GRAPROES": 0.0, "_ent": "11", "_mun": "013", "_loc": "0032"}, "geometry": {"type": "Polygon", "coordinates": [[[-100.34653, 21.09269], [-100.34769, 21.09217], [-100.34818, 21.0931], [-100.34673, 21.093], [-100.34653, 21.09269]]]}}, {"id": "721483", "type": "Feature", "properties": {"id": "721483", "CVEGEO": "1101300320030019", "POBTOT": 0.0, "score_nse": 0.0, "NSE": null, "VIVTOT": 0.0, "GRAPROES": 0.0, "_ent": "11", "_mun": "013", "_loc": "0032"}, "geometry": {"type": "Polygon", "coordinates": [[[-100.341, 21.09235], [-100.34134, 21.09191], [-100.34122, 21.09175], [-100.34167, 21.09073], [-100.34142, 21.09069], [-100.3415, 21.09028], [-100.3413, 21.09016], [-100.34121, 21.08986], [-100.34232, 21.09007], [-100.34258, 21.08963], [-100.34237, 21.08953], [-100.34311, 21.08933], [-100.34141, 21.0919], [-100.34137, 21.09239], [-100.341, 21.09235]]]}}, {"id": "721484", "type": "Feature", "properties": {"id": "721484", "CVEGEO": "1101300320030017", "POBTOT": 0.0, "score_nse": 0.0, "NSE": null, "VIVTOT": 0.0, "GRAPROES": 0.0, "_ent": "11", "_mun": "013", "_loc": "0032"}, "geometry": {"type": "Polygon", "coordinates": [[[-100.34547, 21.09166], [-100.3463, 21.09022], [-100.3465, 21.09041], [-100.34567, 21.09183], [-100.34547, 21.09166]]]}}, {"id": "721485", "type": "Feature", "properties": {"id": "721485", "CVEGEO": "1101300320030016", "POBTOT": 0.0, "score_nse": 0.0, "NSE": null, "VIVTOT": 0.0, "GRAPROES": 0.0, "_ent": "11", "_mun": "013", "_loc": "0032"}, "geometry": {"type": "Polygon", "coordinates": [[[-100.34571, 21.09187], [-100.34655, 21.09045], [-100.34688, 21.09084], [-100.34606, 21.09218], [-100.34571, 21.09187]]]}}, {"id": "721486", "type": "Feature", "properties": {"id": "721486", "CVEGEO": "1101300320030014", "POBTOT": 0.0, "score_nse": 0.0, "NSE": null, "VIVTOT": 0.0, "GRAPROES": 0.0, "_ent": "11", "_mun": "013", "_loc": "0032"}, "geometry": {"type": "Polygon", "coordinates": [[[-100.34528, 21.09349], [-100.34495, 21.09345], [-100.34508, 21.0929], [-100.34558, 21.09295], [-100.34528, 21.09349]]]}}, {"id": "721487", "type": "Feature", "properties": {"id": "721487", "CVEGEO": "1101300320030013", "POBTOT": 0.0, "score_nse": 0.0, "NSE": null, "VIVTOT": 0.0, "GRAPROES": 0.0, "_ent": "11", "_mun": "013", "_loc": "0032"}, "geometry": {"type": "Polygon", "coordinates": [[[-100.34612, 21.09299], [-100.34499, 21.09424], [-100.34496, 21.09423], [-100.34569, 21.09295], [-100.34612, 21.09299]]]}}, {"id": "721716", "type": "Feature", "properties": {"id": "721716", "CVEGEO": "1101300320030015", "POBTOT": 0.0, "score_nse": 0.0, "NSE": null, "VIVTOT": 0.0, "GRAPROES": 0.0, "_ent": "11", "_mun": "013", "_loc": "0032"}, "geometry": {"type": "Polygon", "coordinates": [[[-100.35377, 21.09143], [-100.35339, 21.09149], [-100.35148, 21.08998], [-100.3517, 21.08995], [-100.35318, 21.09113], [-100.35351, 21.09079], [-100.35313, 21.09049], [-100.35326, 21.09035], [-100.35302, 21.09017], [-100.3532, 21.09004], [-100.3534, 21.09023], [-100.35361, 21.09005], [-100.35376, 21.09013], [-100.35377, 21.09143]]]}}, {"id": "721720", "type": "Feature", "properties": {"id": "721720", "CVEGEO": "1101300320030004", "POBTOT": 0.0, "score_nse": 0.0, "NSE": null, "VIVTOT": 0.0, "GRAPROES": 0.0, "_ent": "11", "_mun": "013", "_loc": "0032"}, "geometry": {"type": "Polygon", "coordinates": [[[-100.34984, 21.09119], [-100.35006, 21.09187], [-100.35122, 21.09342], [-100.34824, 21.09311], [-100.34773, 21.09217], [-100.34822, 21.09195], [-100.34854, 21.09221], [-100.34826, 21.09194], [-100.34984, 21.09119]]]}}, {"id": "721731", "type": "Feature", "properties": {"id": "721731", "CVEGEO": "1101300320030020", "POBTOT": 0.0, "score_nse": 0.0, "NSE": null, "VIVTOT": 0.0, "GRAPROES": 0.0, "_ent": "11", "_mun": "013", "_loc": "0032"}, "geometry": {"type": "Polygon", "coordinates": [[[-100.35329, 21.0915], [-100.35263, 21.09161], [-100.3528, 21.09134], [-100.35189, 21.0907], [-100.35204, 21.09052], [-100.35329, 21.0915]]]}}, {"id": "721830", "type": "Feature", "properties": {"id": "721830", "CVEGEO": "1101300320030018", "POBTOT": 0.0, "score_nse": 0.0, "NSE": null, "VIVTOT": 0.0, "GRAPROES": 0.0, "_ent": "11", "_mun": "013", "_loc": "0032"}, "geometry": {"type": "Polygon", "coordinates": [[[-100.34727, 21.09021], [-100.34695, 21.09074], [-100.34641, 21.09025], [-100.34693, 21.0898], [-100.34727, 21.09021]]]}}, {"id": "721831", "type": "Feature", "properties": {"id": "721831", "CVEGEO": "1101300320030012", "POBTOT": 0.0, "score_nse": 0.0, "NSE": null, "VIVTOT": 0.0, "GRAPROES": 0.0, "_ent": "11", "_mun": "013", "_loc": "0032"}, "geometry": {"type": "Polygon", "coordinates": [[[-100.35613, 21.09407], [-100.35606, 21.09445], [-100.35548, 21.09438], [-100.35526, 21.09521], [-100.35375, 21.0946], [-100.3541, 21.09381], [-100.3551, 21.09394], [-100.35489, 21.09458], [-100.35516, 21.09395], [-100.35553, 21.09399], [-100.35544, 21.09431], [-100.35509, 21.09457], [-100.35505, 21.09483], [-100.35549, 21.09434], [-100.35558, 21.094], [-100.35613, 21.09407]]]}}, {"id": "721832", "type": "Feature", "properties": {"id": "721832", "CVEGEO": "1101300320030011", "POBTOT": 0.0, "score_nse": 0.0, "NSE": null, "VIVTOT": 0.0, "GRAPROES": 0.0, "_ent": "11", "_mun": "013", "_loc": "0032"}, "geometry": {"type": "Polygon", "coordinates": [[[-100.35386, 21.09372], [-100.35385, 21.0931], [-100.35441, 21.09339], [-100.35565, 21.09356], [-100.3555, 21.0939], [-100.3544, 21.09378], [-100.3544, 21.09358], [-100.35434, 21.09377], [-100.35386, 21.09372]]]}}, {"id": "721833", "type": "Feature", "properties": {"id": "721833", "CVEGEO": "1101300320030009", "POBTOT": 0.0, "score_nse": 0.0, "NSE": null, "VIVTOT": 0.0, "GRAPROES": 0.0, "_ent": "11", "_mun": "013", "_loc": "0032"}, "geometry": {"type": "Polygon", "coordinates": [[[-100.34816, 21.09192], [-100.34653, 21.09259], [-100.34638, 21.09239], [-100.3465, 21.09263], [-100.34622, 21.09291], [-100.34577, 21.09286], [-100.34702, 21.09087], [-100.34816, 21.09192]]]}}, {"id": "721834", "type": "Feature", "properties": {"id": "721834", "CVEGEO": "1101300320030007", "POBTOT": 0.0, "score_nse": 0.0, "NSE": null, "VIVTOT": 0.0, "GRAPROES": 0.0, "_ent": "11", "_mun": "013", "_loc": "0032"}, "geometry": {"type": "Polygon", "coordinates": [[[-100.34667, 21.09308], [-100.34631, 21.09467], [-100.34501, 21.09436], [-100.34622, 21.09304], [-100.34667, 21.09308]]]}}]}