{"type": "FeatureCollection", "features": [{"id": "721404", "type": "Feature", "properties": {"id": "721404", "CVEGEO": "1101301130030003", "POBTOT": 0.0, "score_nse": 0.0, "NSE": null, "VIVTOT": 0.0, "GRAPROES": 0.0, "_ent": "11", "_mun": "013", "_loc": "0113"}, "geometry": {"type": "Polygon", "coordinates": [[[-100.3258, 21.0858], [-100.32553, 21.08604], [-100.32486, 21.08598], [-100.32498, 21.08567], [-100.3258, 21.0858]]]}}, {"id": "721712", "type": "Feature", "properties": {"id": "721712", "CVEGEO": "1101301130030007", "POBTOT": 0.0, "score_nse": 0.0, "NSE": null, "VIVTOT": 0.0, "GRAPROES": 0.0, "_ent": "11", "_mun": "013", "_loc": "0113"}, "geometry": {"type": "Polygon", "coordinates": [[[-100.32463, 21.08643], [-100.32478, 21.08606], [-100.325, 21.08609], [-100.32485, 21.08648], [-100.32463, 21.08643]]]}}, {"id": "721722", "type": "Feature", "properties": {"id": "721722", "CVEGEO": "1101301130030006", "POBTOT": 0.0, "score_nse": 0.0, "NSE": null, "VIVTOT": 0.0, "GRAPROES": 0.0, "_ent": "11", "_mun": "013", "_loc": "0113"}, "geometry": {"type": "Polygon", "coordinates": [[[-100.32217, 21.08521], [-100.32171, 21.08525], [-100.32175, 21.08484], [-100.32127, 21.08329], [-100.32158, 21.08327], [-100.32217, 21.08521]]]}}, {"id": "721809", "type": "Feature", "properties": {"id": "721809", "CVEGEO": "1101301130030005", "POBTOT": 0.0, "score_nse": 0.0, "NSE": null, "VIVTOT": 0.0, "GRAPROES": 0.0, "_ent": "11", "_mun": "013", "_loc": "0113"}, "geometry": {"type": "Polygon", "coordinates": [[[-100.32525, 21.08755], [-100.32512, 21.08782], [-100.32429, 21.08764], [-100.32414, 21.08792], [-100.32391, 21.08783], [-100.32411, 21.08748], [-100.32334, 21.08744], [-100.32338, 21.08712], [-100.32525, 21.08755]]]}}, {"id": "721810", "type": "Feature", "properties": {"id": "721810", "CVEGEO": "1101301130030008", "POBTOT": 0.0, "score_nse": 0.0, "NSE": null, "VIVTOT": 0.0, "GRAPROES": 0.0, "_ent": "11", "_mun": "013", "_loc": "0113"}, "geometry": {"type": "Polygon", "coordinates": [[[-100.3265, 21.08811], [-100.32516, 21.08782], [-100.32529, 21.08756], [-100.32655, 21.08783], [-100.3265, 21.08811]]]}}, {"id": "721811", "type": "Feature", "properties": {"id": "721811", "CVEGEO": "1101301130030004", "POBTOT": 0.0, "score_nse": 0.0, "NSE": null, "VIVTOT": 0.0, "GRAPROES": 0.0, "_ent": "11", "_mun": "013", "_loc": "0113"}, "geometry": {"type": "Polygon", "coordinates": [[[-100.32485, 21.08563], [-100.32442, 21.08665], [-100.32421, 21.08658], [-100.32455, 21.0858], [-100.32247, 21.0855], [-100.32255, 21.0853], [-100.32485, 21.08563]]]}}, {"id": "721840", "type": "Feature", "properties": {"id": "721840", "CVEGEO": "1101301130030001", "POBTOT": 0.0, "score_nse": 0.0, "NSE": null, "VIVTOT": 0.0, "GRAPROES": 0.0, "_ent": "11", "_mun": "013", "_loc": "0113"}, "geometry": {"type": "Polygon", "coordinates": [[[-100.32698, 21.08568], [-100.32695, 21.08587], [-100.32543, 21.08566], [-100.32547, 21.08543], [-100.32538, 21.08565], [-100.3224, 21.08521], [-100.3222, 21.08487], [-100.32534, 21.08526], [-100.3256, 21.08516], [-100.32578, 21.08554], [-100.32698, 21.08568]]]}}, {"id": "721841", "type": "Feature", "properties": {"id": "721841", "CVEGEO": "1101301130030002", "POBTOT": 0.0, "score_nse": 0.0, "NSE": null, "VIVTOT": 0.0, "GRAPROES": 0.0, "_ent": "11", "_mun": "013", "_loc": "0113"}, "geometry": {"type": "Polygon", "coordinates": [[[-100.32693, 21.08597], [-100.32654, 21.08775], [-100.32463, 21.08736], [-100.32471, 21.08692], [-100.32458, 21.08734], [-100.32421, 21.08726], [-100.32458, 21.08647], [-100.325, 21.08656], [-100.3249, 21.0865], [-100.32505, 21.0861], [-100.32564, 21.0861], [-100.32589, 21.0858], [-100.32693, 21.08597]]]}}]}