{"type": "FeatureCollection", "features": [{"id": "465056", "type": "Feature", "properties": {"id": "465056", "CVEGEO": "0802200030199007", "POBTOT": 0.0, "score_nse": 0.0, "NSE": null, "VIVTOT": 0.0, "GRAPROES": 0.0, "_ent": "08", "_mun": "022", "_loc": "0003"}, "geometry": {"type": "Polygon", "coordinates": [[[-106.47081, 27.96605], [-106.47038, 27.96615], [-106.47053, 27.96643], [-106.46984, 27.96664], [-106.46965, 27.96649], [-106.46922, 27.96667], [-106.4689, 27.96655], [-106.4685, 27.96675], [-106.46802, 27.96661], [-106.46848, 27.96611], [-106.4696, 27.96594], [-106.46992, 27.96627], [-106.46988, 27.96597], [-106.47075, 27.9658], [-106.47081, 27.96605]]]}}, {"id": "465057", "type": "Feature", "properties": {"id": "465057", "CVEGEO": "0802200030199008", "POBTOT": 0.0, "score_nse": 0.0, "NSE": null, "VIVTOT": 0.0, "GRAPROES": 0.0, "_ent": "08", "_mun": "022", "_loc": "0003"}, "geometry": {"type": "Polygon", "coordinates": [[[-106.4683, 27.96434], [-106.46813, 27.96415], [-106.46736, 27.96402], [-106.46745, 27.96377], [-106.46902, 27.96423], [-106.46894, 27.96451], [-106.4683, 27.96434]]]}}, {"id": "465058", "type": "Feature", "properties": {"id": "465058", "CVEGEO": "0802200030199004", "POBTOT": 0.0, "score_nse": 0.0, "NSE": null, "VIVTOT": 0.0, "GRAPROES": 0.0, "_ent": "08", "_mun": "022", "_loc": "0003"}, "geometry": {"type": "Polygon", "coordinates": [[[-106.46936, 27.96502], [-106.46871, 27.96492], [-106.4687, 27.96453], [-106.46923, 27.96462], [-106.46936, 27.96502]]]}}, {"id": "465059", "type": "Feature", "properties": {"id": "465059", "CVEGEO": "0802200030199003", "POBTOT": 0.0, "score_nse": 0.0, "NSE": null, "VIVTOT": 0.0, "GRAPROES": 0.0, "_ent": "08", "_mun": "022", "_loc": "0003"}, "geometry": {"type": "Polygon", "coordinates": [[[-106.46906, 27.9658], [-106.46861, 27.96596], [-106.4684, 27.96517], [-106.46854, 27.96514], [-106.46862, 27.96547], [-106.46906, 27.9658]]]}}, {"id": "465060", "type": "Feature", "properties": {"id": "465060", "CVEGEO": "0802200030199001", "POBTOT": 0.0, "score_nse": 0.0, "NSE": null, "VIVTOT": 0.0, "GRAPROES": 0.0, "_ent": "08", "_mun": "022", "_loc": "0003"}, "geometry": {"type": "Polygon", "coordinates": [[[-106.47129, 27.96567], [-106.46966, 27.96591], [-106.46871, 27.96528], [-106.4689, 27.96516], [-106.46961, 27.96531], [-106.47087, 27.96514], [-106.47144, 27.96524], [-106.47129, 27.96567]]]}}, {"id": "465245", "type": "Feature", "properties": {"id": "465245", "CVEGEO": "0802200030199002", "POBTOT": 0.0, "score_nse": 0.0, "NSE": null, "VIVTOT": 0.0, "GRAPROES": 0.0, "_ent": "08", "_mun": "022", "_loc": "0003"}, "geometry": {"type": "Polygon", "coordinates": [[[-106.46948, 27.96587], [-106.4691, 27.96589], [-106.46912, 27.96567], [-106.46948, 27.96587]]]}}, {"id": "465285", "type": "Feature", "properties": {"id": "465285", "CVEGEO": "0802200030199009", "POBTOT": 0.0, "score_nse": 0.0, "NSE": null, "VIVTOT": 0.0, "GRAPROES": 0.0, "_ent": "08", "_mun": "022", "_loc": "0003"}, "geometry": {"type": "Polygon", "coordinates": [[[-106.47414, 27.96638], [-106.47442, 27.96585], [-106.47401, 27.96555], [-106.47489, 27.96518], [-106.47539, 27.96561], [-106.47432, 27.96644], [-106.47372, 27.9666], [-106.47359, 27.96646], [-106.47414, 27.96638]]]}}, {"id": "465431", "type": "Feature", "properties": {"id": "465431", "CVEGEO": "0802200030199006", "POBTOT": 0.0, "score_nse": 0.0, "NSE": null, "VIVTOT": 0.0, "GRAPROES": 0.0, "_ent": "08", "_mun": "022", "_loc": "0003"}, "geometry": {"type": "Polygon", "coordinates": [[[-106.47415, 27.96615], [-106.47349, 27.96636], [-106.4714, 27.96583], [-106.47159, 27.96561], [-106.47297, 27.96573], [-106.47393, 27.96559], [-106.4743, 27.96589], [-106.47415, 27.96615]]]}}, {"id": "465483", "type": "Feature", "properties": {"id": "465483", "CVEGEO": "0802200030199010", "POBTOT": 0.0, "score_nse": 0.0, "NSE": null, "VIVTOT": 0.0, "GRAPROES": 0.0, "_ent": "08", "_mun": "022", "_loc": "0003"}, "geometry": {"type": "Polygon", "coordinates": [[[-106.4708, 27.96499], [-106.46928, 27.96511], [-106.47079, 27.96453], [-106.47127, 27.96469], [-106.47162, 27.96502], [-106.47195, 27.965], [-106.47158, 27.96513], [-106.4708, 27.96499]]]}}, {"id": "465484", "type": "Feature", "properties": {"id": "465484", "CVEGEO": "0802200030199005", "POBTOT": 0.0, "score_nse": 0.0, "NSE": null, "VIVTOT": 0.0, "GRAPROES": 0.0, "_ent": "08", "_mun": "022", "_loc": "0003"}, "geometry": {"type": "Polygon", "coordinates": [[[-106.46947, 27.96499], [-106.46984, 27.96418], [-106.4706, 27.96356], [-106.47104, 27.96454], [-106.47029, 27.9646], [-106.46947, 27.96499]]]}}]}