{"type": "FeatureCollection", "features": [{"id": "2252846", "type": "Feature", "properties": {"id": "2252846", "CVEGEO": "3002800180017007", "POBTOT": 0.0, "score_nse": 0.0, "NSE": null, "VIVTOT": 0.0, "GRAPROES": 0.0, "_ent": "30", "_mun": "028", "_loc": "0018"}, "geometry": {"type": "Polygon", "coordinates": [[[-96.13942, 19.08504], [-96.13994, 19.08472], [-96.14003, 19.08524], [-96.13971, 19.08539], [-96.13935, 19.08599], [-96.13888, 19.08583], [-96.13942, 19.08504]]]}}, {"id": "2253078", "type": "Feature", "properties": {"id": "2253078", "CVEGEO": "3002800180017006", "POBTOT": 0.0, "score_nse": 0.0, "NSE": null, "VIVTOT": 0.0, "GRAPROES": 0.0, "_ent": "30", "_mun": "028", "_loc": "0018"}, "geometry": {"type": "Polygon", "coordinates": [[[-96.13985, 19.08556], [-96.14193, 19.08474], [-96.14197, 19.08448], [-96.14299, 19.08462], [-96.14292, 19.08495], [-96.14057, 19.08579], [-96.14006, 19.08628], [-96.13967, 19.08764], [-96.13906, 19.08756], [-96.1395, 19.08606], [-96.13985, 19.08556]]]}}, {"id": "2253079", "type": "Feature", "properties": {"id": "2253079", "CVEGEO": "3002800180017005", "POBTOT": 0.0, "score_nse": 0.0, "NSE": null, "VIVTOT": 0.0, "GRAPROES": 0.0, "_ent": "30", "_mun": "028", "_loc": "0018"}, "geometry": {"type": "Polygon", "coordinates": [[[-96.13789, 19.08706], [-96.13825, 19.0858], [-96.13877, 19.08587], [-96.13835, 19.08711], [-96.13789, 19.08706]]]}}, {"id": "2253638", "type": "Feature", "properties": {"id": "2253638", "CVEGEO": "3002800180017001", "POBTOT": 0.0, "score_nse": 0.0, "NSE": null, "VIVTOT": 0.0, "GRAPROES": 0.0, "_ent": "30", "_mun": "028", "_loc": "0018"}, "geometry": {"type": "Polygon", "coordinates": [[[-96.13696, 19.09068], [-96.13638, 19.09107], [-96.13662, 19.09004], [-96.13691, 19.09007], [-96.13696, 19.09068]]]}}, {"id": "2253641", "type": "Feature", "properties": {"id": "2253641", "CVEGEO": "3002800180017030", "POBTOT": 0.0, "score_nse": 0.0, "NSE": null, "VIVTOT": 0.0, "GRAPROES": 0.0, "_ent": "30", "_mun": "028", "_loc": "0018"}, "geometry": {"type": "Polygon", "coordinates": [[[-96.12264, 19.08863], [-96.12303, 19.08989], [-96.1207, 19.08958], [-96.12054, 19.08944], [-96.12264, 19.08863]]]}}, {"id": "2253645", "type": "Feature", "properties": {"id": "2253645", "CVEGEO": "3002800180017019", "POBTOT": 0.0, "score_nse": 0.0, "NSE": null, "VIVTOT": 0.0, "GRAPROES": 0.0, "_ent": "30", "_mun": "028", "_loc": "0018"}, "geometry": {"type": "Polygon", "coordinates": [[[-96.13023, 19.08726], [-96.13035, 19.08641], [-96.13071, 19.08646], [-96.13059, 19.08731], [-96.13023, 19.08726]]]}}, {"id": "2253662", "type": "Feature", "properties": {"id": "2253662", "CVEGEO": "3002800180017008", "POBTOT": 0.0, "score_nse": 0.0, "NSE": null, "VIVTOT": 0.0, "GRAPROES": 0.0, "_ent": "30", "_mun": "028", "_loc": "0018"}, "geometry": {"type": "Polygon", "coordinates": [[[-96.13628, 19.09143], [-96.13619, 19.09129], [-96.13711, 19.09074], [-96.13682, 19.08977], [-96.13699, 19.0897], [-96.1373, 19.09074], [-96.13628, 19.09143]]]}}, {"id": "2253663", "type": "Feature", "properties": {"id": "2253663", "CVEGEO": "3002800180017009", "POBTOT": 0.0, "score_nse": 0.0, "NSE": null, "VIVTOT": 0.0, "GRAPROES": 0.0, "_ent": "30", "_mun": "028", "_loc": "0018"}, "geometry": {"type": "Polygon", "coordinates": [[[-96.13612, 19.09154], [-96.13592, 19.09165], [-96.13638, 19.08991], [-96.13657, 19.08994], [-96.13612, 19.09154]]]}}, {"id": "2253664", "type": "Feature", "properties": {"id": "2253664", "CVEGEO": "3002800180017010", "POBTOT": 0.0, "score_nse": 0.0, "NSE": null, "VIVTOT": 0.0, "GRAPROES": 0.0, "_ent": "30", "_mun": "028", "_loc": "0018"}, "geometry": {"type": "Polygon", "coordinates": [[[-96.13589, 19.09169], [-96.13555, 19.0916], [-96.13606, 19.08962], [-96.13677, 19.08968], [-96.1367, 19.08994], [-96.13636, 19.08989], [-96.13589, 19.09169]]]}}, {"id": "2253668", "type": "Feature", "properties": {"id": "2253668", "CVEGEO": "3002800180017011", "POBTOT": 0.0, "score_nse": 0.0, "NSE": null, "VIVTOT": 0.0, "GRAPROES": 0.0, "_ent": "30", "_mun": "028", "_loc": "0018"}, "geometry": {"type": "Polygon", "coordinates": [[[-96.13145, 19.09014], [-96.13077, 19.09023], [-96.13056, 19.08999], [-96.13059, 19.08982], [-96.13068, 19.08995], [-96.1308, 19.08985], [-96.13129, 19.08999], [-96.13148, 19.08882], [-96.13169, 19.08885], [-96.13145, 19.09014]]]}}, {"id": "2253669", "type": "Feature", "properties": {"id": "2253669", "CVEGEO": "3002800180017012", "POBTOT": 0.0, "score_nse": 0.0, "NSE": null, "VIVTOT": 0.0, "GRAPROES": 0.0, "_ent": "30", "_mun": "028", "_loc": "0018"}, "geometry": {"type": "Polygon", "coordinates": [[[-96.13124, 19.08987], [-96.13089, 19.0898], [-96.13106, 19.089], [-96.13139, 19.08905], [-96.13124, 19.08987]]]}}, {"id": "2253670", "type": "Feature", "properties": {"id": "2253670", "CVEGEO": "3002800180017013", "POBTOT": 0.0, "score_nse": 0.0, "NSE": null, "VIVTOT": 0.0, "GRAPROES": 0.0, "_ent": "30", "_mun": "028", "_loc": "0018"}, "geometry": {"type": "Polygon", "coordinates": [[[-96.13078, 19.08991], [-96.13059, 19.08981], [-96.13074, 19.08897], [-96.13097, 19.08901], [-96.13078, 19.08991]]]}}, {"id": "2253671", "type": "Feature", "properties": {"id": "2253671", "CVEGEO": "3002800180017014", "POBTOT": 0.0, "score_nse": 0.0, "NSE": null, "VIVTOT": 0.0, "GRAPROES": 0.0, "_ent": "30", "_mun": "028", "_loc": "0018"}, "geometry": {"type": "Polygon", "coordinates": [[[-96.12986, 19.08776], [-96.13077, 19.08754], [-96.13069, 19.08855], [-96.13045, 19.08851], [-96.13053, 19.08777], [-96.13002, 19.08792], [-96.12994, 19.0885], [-96.13068, 19.08861], [-96.13061, 19.08894], [-96.12987, 19.08883], [-96.12978, 19.08954], [-96.13022, 19.08959], [-96.13035, 19.08899], [-96.13059, 19.08902], [-96.13049, 19.08966], [-96.13026, 19.08977], [-96.12951, 19.08968], [-96.12986, 19.08776]]]}}, {"id": "2253672", "type": "Feature", "properties": {"id": "2253672", "CVEGEO": "3002800180017015", "POBTOT": 0.0, "score_nse": 0.0, "NSE": null, "VIVTOT": 0.0, "GRAPROES": 0.0, "_ent": "30", "_mun": "028", "_loc": "0018"}, "geometry": {"type": "Polygon", "coordinates": [[[-96.13066, 19.08732], [-96.13078, 19.08647], [-96.131, 19.08649], [-96.13088, 19.08734], [-96.13066, 19.08732]]]}}, {"id": "2253673", "type": "Feature", "properties": {"id": "2253673", "CVEGEO": "3002800180017017", "POBTOT": 0.0, "score_nse": 0.0, "NSE": null, "VIVTOT": 0.0, "GRAPROES": 0.0, "_ent": "30", "_mun": "028", "_loc": "0018"}, "geometry": {"type": "Polygon", "coordinates": [[[-96.12981, 19.08948], [-96.12992, 19.08888], [-96.13029, 19.08893], [-96.1302, 19.08953], [-96.12981, 19.08948]]]}}, {"id": "2253674", "type": "Feature", "properties": {"id": "2253674", "CVEGEO": "3002800180017018", "POBTOT": 0.0, "score_nse": 0.0, "NSE": null, "VIVTOT": 0.0, "GRAPROES": 0.0, "_ent": "30", "_mun": "028", "_loc": "0018"}, "geometry": {"type": "Polygon", "coordinates": [[[-96.13, 19.08844], [-96.13008, 19.08796], [-96.13047, 19.08785], [-96.1304, 19.0885], [-96.13, 19.08844]]]}}, {"id": "2253675", "type": "Feature", "properties": {"id": "2253675", "CVEGEO": "3002800180017016", "POBTOT": 0.0, "score_nse": 0.0, "NSE": null, "VIVTOT": 0.0, "GRAPROES": 0.0, "_ent": "30", "_mun": "028", "_loc": "0018"}, "geometry": {"type": "Polygon", "coordinates": [[[-96.13113, 19.08547], [-96.131, 19.08644], [-96.13079, 19.08641], [-96.13092, 19.08551], [-96.13042, 19.08549], [-96.1303, 19.08635], [-96.13008, 19.08631], [-96.1303, 19.08533], [-96.13113, 19.08547]]]}}, {"id": "2253676", "type": "Feature", "properties": {"id": "2253676", "CVEGEO": "3002800180017021", "POBTOT": 0.0, "score_nse": 0.0, "NSE": null, "VIVTOT": 0.0, "GRAPROES": 0.0, "_ent": "30", "_mun": "028", "_loc": "0018"}, "geometry": {"type": "Polygon", "coordinates": [[[-96.13008, 19.08638], [-96.13028, 19.08641], [-96.13014, 19.08731], [-96.13077, 19.08751], [-96.12986, 19.08774], [-96.13008, 19.08638]]]}}, {"id": "2253677", "type": "Feature", "properties": {"id": "2253677", "CVEGEO": "3002800180017020", "POBTOT": 0.0, "score_nse": 0.0, "NSE": null, "VIVTOT": 0.0, "GRAPROES": 0.0, "_ent": "30", "_mun": "028", "_loc": "0018"}, "geometry": {"type": "Polygon", "coordinates": [[[-96.13035, 19.08634], [-96.13048, 19.08554], [-96.13084, 19.08559], [-96.13072, 19.08639], [-96.13035, 19.08634]]]}}, {"id": "2253678", "type": "Feature", "properties": {"id": "2253678", "CVEGEO": "3002800180017023", "POBTOT": 0.0, "score_nse": 0.0, "NSE": null, "VIVTOT": 0.0, "GRAPROES": 0.0, "_ent": "30", "_mun": "028", "_loc": "0018"}, "geometry": {"type": "Polygon", "coordinates": [[[-96.12842, 19.08993], [-96.12729, 19.09028], [-96.12766, 19.08883], [-96.12861, 19.089], [-96.12854, 19.08935], [-96.12826, 19.08934], [-96.12853, 19.08942], [-96.12842, 19.08993]]]}}, {"id": "2253679", "type": "Feature", "properties": {"id": "2253679", "CVEGEO": "3002800180017024", "POBTOT": 0.0, "score_nse": 0.0, "NSE": null, "VIVTOT": 0.0, "GRAPROES": 0.0, "_ent": "30", "_mun": "028", "_loc": "0018"}, "geometry": {"type": "Polygon", "coordinates": [[[-96.12864, 19.08894], [-96.12767, 19.08877], [-96.12773, 19.08848], [-96.1287, 19.08862], [-96.12864, 19.08894]]]}}, {"id": "2253680", "type": "Feature", "properties": {"id": "2253680", "CVEGEO": "3002800180017025", "POBTOT": 0.0, "score_nse": 0.0, "NSE": null, "VIVTOT": 0.0, "GRAPROES": 0.0, "_ent": "30", "_mun": "028", "_loc": "0018"}, "geometry": {"type": "Polygon", "coordinates": [[[-96.1287, 19.08856], [-96.12774, 19.08843], [-96.12779, 19.08816], [-96.12881, 19.08803], [-96.1287, 19.08856]]]}}, {"id": "2253681", "type": "Feature", "properties": {"id": "2253681", "CVEGEO": "3002800180017027", "POBTOT": 0.0, "score_nse": 0.0, "NSE": null, "VIVTOT": 0.0, "GRAPROES": 0.0, "_ent": "30", "_mun": "028", "_loc": "0018"}, "geometry": {"type": "Polygon", "coordinates": [[[-96.12737, 19.08944], [-96.12731, 19.08977], [-96.12681, 19.08968], [-96.12688, 19.08936], [-96.12737, 19.08944]]]}}, {"id": "2253682", "type": "Feature", "properties": {"id": "2253682", "CVEGEO": "3002800180017029", "POBTOT": 0.0, "score_nse": 0.0, "NSE": null, "VIVTOT": 0.0, "GRAPROES": 0.0, "_ent": "30", "_mun": "028", "_loc": "0018"}, "geometry": {"type": "Polygon", "coordinates": [[[-96.12752, 19.08797], [-96.12717, 19.0879], [-96.12737, 19.087], [-96.12773, 19.08708], [-96.12752, 19.08797]]]}}, {"id": "2253683", "type": "Feature", "properties": {"id": "2253683", "CVEGEO": "3002800180017028", "POBTOT": 0.0, "score_nse": 0.0, "NSE": null, "VIVTOT": 0.0, "GRAPROES": 0.0, "_ent": "30", "_mun": "028", "_loc": "0018"}, "geometry": {"type": "Polygon", "coordinates": [[[-96.12778, 19.08808], [-96.1276, 19.08804], [-96.12775, 19.0875], [-96.12781, 19.08773], [-96.12778, 19.08808]]]}}, {"id": "2253684", "type": "Feature", "properties": {"id": "2253684", "CVEGEO": "3002800180017026", "POBTOT": 0.0, "score_nse": 0.0, "NSE": null, "VIVTOT": 0.0, "GRAPROES": 0.0, "_ent": "30", "_mun": "028", "_loc": "0018"}, "geometry": {"type": "Polygon", "coordinates": [[[-96.12729, 19.08986], [-96.12708, 19.09027], [-96.12648, 19.08978], [-96.12689, 19.08759], [-96.12712, 19.08756], [-96.12705, 19.0882], [-96.12691, 19.08812], [-96.12683, 19.08843], [-96.12694, 19.08848], [-96.1267, 19.08975], [-96.12729, 19.08986]]]}}, {"id": "2253753", "type": "Feature", "properties": {"id": "2253753", "CVEGEO": "3002800180017022", "POBTOT": 0.0, "score_nse": 0.0, "NSE": null, "VIVTOT": 0.0, "GRAPROES": 0.0, "_ent": "30", "_mun": "028", "_loc": "0018"}, "geometry": {"type": "Polygon", "coordinates": [[[-96.12906, 19.08881], [-96.12907, 19.08927], [-96.12913, 19.0888], [-96.12956, 19.08881], [-96.12935, 19.09004], [-96.12849, 19.08992], [-96.12872, 19.08879], [-96.12906, 19.08881]]]}}, {"id": "2253754", "type": "Feature", "properties": {"id": "2253754", "CVEGEO": "3002800180017031", "POBTOT": 0.0, "score_nse": 0.0, "NSE": null, "VIVTOT": 0.0, "GRAPROES": 0.0, "_ent": "30", "_mun": "028", "_loc": "0018"}, "geometry": {"type": "Polygon", "coordinates": [[[-96.12998, 19.08649], [-96.12967, 19.0882], [-96.12882, 19.08821], [-96.12886, 19.08719], [-96.1291, 19.08647], [-96.12998, 19.08649]]]}}, {"id": "2253755", "type": "Feature", "properties": {"id": "2253755", "CVEGEO": "3002800180017032", "POBTOT": 0.0, "score_nse": 0.0, "NSE": null, "VIVTOT": 0.0, "GRAPROES": 0.0, "_ent": "30", "_mun": "028", "_loc": "0018"}, "geometry": {"type": "Polygon", "coordinates": [[[-96.1292, 19.08826], [-96.12966, 19.08825], [-96.12958, 19.08871], [-96.12913, 19.08871], [-96.1292, 19.08826]]]}}, {"id": "2253756", "type": "Feature", "properties": {"id": "2253756", "CVEGEO": "3002800180017033", "POBTOT": 0.0, "score_nse": 0.0, "NSE": null, "VIVTOT": 0.0, "GRAPROES": 0.0, "_ent": "30", "_mun": "028", "_loc": "0018"}, "geometry": {"type": "Polygon", "coordinates": [[[-96.12903, 19.08871], [-96.12873, 19.0887], [-96.12881, 19.08826], [-96.12911, 19.08826], [-96.12903, 19.08871]]]}}, {"id": "2253757", "type": "Feature", "properties": {"id": "2253757", "CVEGEO": "3002800180017034", "POBTOT": 0.0, "score_nse": 0.0, "NSE": null, "VIVTOT": 0.0, "GRAPROES": 0.0, "_ent": "30", "_mun": "028", "_loc": "0018"}, "geometry": {"type": "Polygon", "coordinates": [[[-96.13735, 19.09072], [-96.13721, 19.08985], [-96.13694, 19.08961], [-96.13781, 19.08935], [-96.13783, 19.09041], [-96.13735, 19.09072]]]}}, {"id": "2253758", "type": "Feature", "properties": {"id": "2253758", "CVEGEO": "3002800180017036", "POBTOT": 0.0, "score_nse": 0.0, "NSE": null, "VIVTOT": 0.0, "GRAPROES": 0.0, "_ent": "30", "_mun": "028", "_loc": "0018"}, "geometry": {"type": "Polygon", "coordinates": [[[-96.13884, 19.08933], [-96.13805, 19.08925], [-96.13807, 19.08871], [-96.13986, 19.08895], [-96.13986, 19.08944], [-96.13891, 19.08935], [-96.13948, 19.08908], [-96.13916, 19.08908], [-96.13884, 19.08933]]]}}, {"id": "2253759", "type": "Feature", "properties": {"id": "2253759", "CVEGEO": "3002800180017037", "POBTOT": 0.0, "score_nse": 0.0, "NSE": null, "VIVTOT": 0.0, "GRAPROES": 0.0, "_ent": "30", "_mun": "028", "_loc": "0018"}, "geometry": {"type": "Polygon", "coordinates": [[[-96.1392, 19.08977], [-96.13922, 19.08946], [-96.13987, 19.08951], [-96.1399, 19.09012], [-96.1392, 19.08977]]]}}, {"id": "2253760", "type": "Feature", "properties": {"id": "2253760", "CVEGEO": "3002800180017038", "POBTOT": 0.0, "score_nse": 0.0, "NSE": null, "VIVTOT": 0.0, "GRAPROES": 0.0, "_ent": "30", "_mun": "028", "_loc": "0018"}, "geometry": {"type": "Polygon", "coordinates": [[[-96.13915, 19.08944], [-96.13914, 19.08973], [-96.13787, 19.09039], [-96.13784, 19.08932], [-96.13819, 19.08943], [-96.1381, 19.09009], [-96.13832, 19.08938], [-96.13915, 19.08944]]]}}, {"id": "2253761", "type": "Feature", "properties": {"id": "2253761", "CVEGEO": "3002800180017039", "POBTOT": 0.0, "score_nse": 0.0, "NSE": null, "VIVTOT": 0.0, "GRAPROES": 0.0, "_ent": "30", "_mun": "028", "_loc": "0018"}, "geometry": {"type": "Polygon", "coordinates": [[[-96.13452, 19.08754], [-96.13416, 19.08933], [-96.13386, 19.08928], [-96.13419, 19.08748], [-96.13452, 19.08754]]]}}, {"id": "2253762", "type": "Feature", "properties": {"id": "2253762", "CVEGEO": "3002800180017040", "POBTOT": 0.0, "score_nse": 0.0, "NSE": null, "VIVTOT": 0.0, "GRAPROES": 0.0, "_ent": "30", "_mun": "028", "_loc": "0018"}, "geometry": {"type": "Polygon", "coordinates": [[[-96.13402, 19.0878], [-96.13385, 19.08779], [-96.13391, 19.08746], [-96.13407, 19.08748], [-96.13402, 19.0878]]]}}, {"id": "2253763", "type": "Feature", "properties": {"id": "2253763", "CVEGEO": "3002800180017041", "POBTOT": 0.0, "score_nse": 0.0, "NSE": null, "VIVTOT": 0.0, "GRAPROES": 0.0, "_ent": "30", "_mun": "028", "_loc": "0018"}, "geometry": {"type": "Polygon", "coordinates": [[[-96.13485, 19.08608], [-96.13437, 19.08606], [-96.1341, 19.08737], [-96.13392, 19.08736], [-96.1342, 19.08582], [-96.13517, 19.08593], [-96.13479, 19.08796], [-96.1346, 19.08793], [-96.13485, 19.08608]]]}}, {"id": "2253764", "type": "Feature", "properties": {"id": "2253764", "CVEGEO": "3002800180017042", "POBTOT": 0.0, "score_nse": 0.0, "NSE": null, "VIVTOT": 0.0, "GRAPROES": 0.0, "_ent": "30", "_mun": "028", "_loc": "0018"}, "geometry": {"type": "Polygon", "coordinates": [[[-96.13442, 19.08611], [-96.13477, 19.08614], [-96.13472, 19.08645], [-96.13436, 19.08643], [-96.13442, 19.08611]]]}}, {"id": "2253765", "type": "Feature", "properties": {"id": "2253765", "CVEGEO": "3002800180017043", "POBTOT": 0.0, "score_nse": 0.0, "NSE": null, "VIVTOT": 0.0, "GRAPROES": 0.0, "_ent": "30", "_mun": "028", "_loc": "0018"}, "geometry": {"type": "Polygon", "coordinates": [[[-96.13455, 19.08742], [-96.13419, 19.08737], [-96.13434, 19.08651], [-96.1347, 19.08656], [-96.13455, 19.08742]]]}}, {"id": "2253766", "type": "Feature", "properties": {"id": "2253766", "CVEGEO": "3002800180017044", "POBTOT": 0.0, "score_nse": 0.0, "NSE": null, "VIVTOT": 0.0, "GRAPROES": 0.0, "_ent": "30", "_mun": "028", "_loc": "0018"}, "geometry": {"type": "Polygon", "coordinates": [[[-96.13282, 19.08843], [-96.13198, 19.08834], [-96.13201, 19.0882], [-96.13284, 19.08829], [-96.13282, 19.08843]]]}}, {"id": "2253767", "type": "Feature", "properties": {"id": "2253767", "CVEGEO": "3002800180017045", "POBTOT": 0.0, "score_nse": 0.0, "NSE": null, "VIVTOT": 0.0, "GRAPROES": 0.0, "_ent": "30", "_mun": "028", "_loc": "0018"}, "geometry": {"type": "Polygon", "coordinates": [[[-96.13195, 19.0882], [-96.13161, 19.08818], [-96.13146, 19.08763], [-96.13176, 19.08755], [-96.13195, 19.0882]]]}}, {"id": "2253768", "type": "Feature", "properties": {"id": "2253768", "CVEGEO": "3002800180017047", "POBTOT": 0.0, "score_nse": 0.0, "NSE": null, "VIVTOT": 0.0, "GRAPROES": 0.0, "_ent": "30", "_mun": "028", "_loc": "0018"}, "geometry": {"type": "Polygon", "coordinates": [[[-96.13256, 19.08581], [-96.13245, 19.08691], [-96.13212, 19.087], [-96.13222, 19.08578], [-96.13256, 19.08581]]]}}, {"id": "2253769", "type": "Feature", "properties": {"id": "2253769", "CVEGEO": "3002800180017048", "POBTOT": 0.0, "score_nse": 0.0, "NSE": null, "VIVTOT": 0.0, "GRAPROES": 0.0, "_ent": "30", "_mun": "028", "_loc": "0018"}, "geometry": {"type": "Polygon", "coordinates": [[[-96.13184, 19.08745], [-96.1318, 19.08729], [-96.13289, 19.08701], [-96.13287, 19.08718], [-96.13184, 19.08745]]]}}, {"id": "2253770", "type": "Feature", "properties": {"id": "2253770", "CVEGEO": "3002800180017049", "POBTOT": 0.0, "score_nse": 0.0, "NSE": null, "VIVTOT": 0.0, "GRAPROES": 0.0, "_ent": "30", "_mun": "028", "_loc": "0018"}, "geometry": {"type": "Polygon", "coordinates": [[[-96.13272, 19.08731], [-96.13289, 19.08729], [-96.13274, 19.08819], [-96.13258, 19.08817], [-96.13272, 19.08731]]]}}, {"id": "2253771", "type": "Feature", "properties": {"id": "2253771", "CVEGEO": "3002800180017050", "POBTOT": 0.0, "score_nse": 0.0, "NSE": null, "VIVTOT": 0.0, "GRAPROES": 0.0, "_ent": "30", "_mun": "028", "_loc": "0018"}, "geometry": {"type": "Polygon", "coordinates": [[[-96.13263, 19.08732], [-96.13248, 19.08817], [-96.13201, 19.08814], [-96.13195, 19.08792], [-96.13238, 19.08786], [-96.1324, 19.0877], [-96.13194, 19.08784], [-96.13186, 19.08754], [-96.13263, 19.08732]]]}}, {"id": "2253772", "type": "Feature", "properties": {"id": "2253772", "CVEGEO": "3002800180017051", "POBTOT": 0.0, "score_nse": 0.0, "NSE": null, "VIVTOT": 0.0, "GRAPROES": 0.0, "_ent": "30", "_mun": "028", "_loc": "0018"}, "geometry": {"type": "Polygon", "coordinates": [[[-96.1331, 19.08589], [-96.13326, 19.08592], [-96.13314, 19.08674], [-96.13297, 19.08677], [-96.1331, 19.08589]]]}}, {"id": "2253773", "type": "Feature", "properties": {"id": "2253773", "CVEGEO": "3002800180017052", "POBTOT": 0.0, "score_nse": 0.0, "NSE": null, "VIVTOT": 0.0, "GRAPROES": 0.0, "_ent": "30", "_mun": "028", "_loc": "0018"}, "geometry": {"type": "Polygon", "coordinates": [[[-96.12796, 19.08686], [-96.12738, 19.08677], [-96.12742, 19.0865], [-96.12801, 19.08658], [-96.12796, 19.08686]]]}}, {"id": "2253774", "type": "Feature", "properties": {"id": "2253774", "CVEGEO": "3002800180017053", "POBTOT": 0.0, "score_nse": 0.0, "NSE": null, "VIVTOT": 0.0, "GRAPROES": 0.0, "_ent": "30", "_mun": "028", "_loc": "0018"}, "geometry": {"type": "Polygon", "coordinates": [[[-96.12717, 19.08732], [-96.12696, 19.0873], [-96.12737, 19.08489], [-96.12756, 19.08491], [-96.12717, 19.08732]]]}}, {"id": "2253775", "type": "Feature", "properties": {"id": "2253775", "CVEGEO": "3002800180017054", "POBTOT": 0.0, "score_nse": 0.0, "NSE": null, "VIVTOT": 0.0, "GRAPROES": 0.0, "_ent": "30", "_mun": "028", "_loc": "0018"}, "geometry": {"type": "Polygon", "coordinates": [[[-96.12807, 19.08649], [-96.12743, 19.08639], [-96.12749, 19.08604], [-96.12814, 19.08615], [-96.12807, 19.08649]]]}}, {"id": "2253776", "type": "Feature", "properties": {"id": "2253776", "CVEGEO": "3002800180017055", "POBTOT": 0.0, "score_nse": 0.0, "NSE": null, "VIVTOT": 0.0, "GRAPROES": 0.0, "_ent": "30", "_mun": "028", "_loc": "0018"}, "geometry": {"type": "Polygon", "coordinates": [[[-96.12816, 19.08606], [-96.12751, 19.08596], [-96.12758, 19.08562], [-96.12824, 19.08572], [-96.12816, 19.08606]]]}}, {"id": "2253777", "type": "Feature", "properties": {"id": "2253777", "CVEGEO": "3002800180017056", "POBTOT": 0.0, "score_nse": 0.0, "NSE": null, "VIVTOT": 0.0, "GRAPROES": 0.0, "_ent": "30", "_mun": "028", "_loc": "0018"}, "geometry": {"type": "Polygon", "coordinates": [[[-96.12821, 19.08562], [-96.12758, 19.08553], [-96.12765, 19.08518], [-96.12827, 19.08528], [-96.12821, 19.08562]]]}}, {"id": "2253778", "type": "Feature", "properties": {"id": "2253778", "CVEGEO": "3002800180017057", "POBTOT": 0.0, "score_nse": 0.0, "NSE": null, "VIVTOT": 0.0, "GRAPROES": 0.0, "_ent": "30", "_mun": "028", "_loc": "0018"}, "geometry": {"type": "Polygon", "coordinates": [[[-96.12832, 19.08517], [-96.12765, 19.08506], [-96.12766, 19.08492], [-96.12836, 19.085], [-96.12832, 19.08517]]]}}, {"id": "2253779", "type": "Feature", "properties": {"id": "2253779", "CVEGEO": "3002800180017058", "POBTOT": 0.0, "score_nse": 0.0, "NSE": null, "VIVTOT": 0.0, "GRAPROES": 0.0, "_ent": "30", "_mun": "028", "_loc": "0018"}, "geometry": {"type": "Polygon", "coordinates": [[[-96.12739, 19.08936], [-96.1269, 19.08928], [-96.12695, 19.0889], [-96.12744, 19.08898], [-96.12739, 19.08936]]]}}, {"id": "2253780", "type": "Feature", "properties": {"id": "2253780", "CVEGEO": "3002800180017059", "POBTOT": 0.0, "score_nse": 0.0, "NSE": null, "VIVTOT": 0.0, "GRAPROES": 0.0, "_ent": "30", "_mun": "028", "_loc": "0018"}, "geometry": {"type": "Polygon", "coordinates": [[[-96.12328, 19.08833], [-96.12265, 19.08836], [-96.12163, 19.08767], [-96.12187, 19.08735], [-96.12281, 19.08792], [-96.12344, 19.08797], [-96.12328, 19.08833]]]}}, {"id": "2253781", "type": "Feature", "properties": {"id": "2253781", "CVEGEO": "3002800180017060", "POBTOT": 0.0, "score_nse": 0.0, "NSE": null, "VIVTOT": 0.0, "GRAPROES": 0.0, "_ent": "30", "_mun": "028", "_loc": "0018"}, "geometry": {"type": "Polygon", "coordinates": [[[-96.12147, 19.08758], [-96.12034, 19.0869], [-96.11955, 19.08647], [-96.11969, 19.08627], [-96.11995, 19.08624], [-96.12073, 19.08667], [-96.12171, 19.08725], [-96.12147, 19.08758]]]}}, {"id": "2253782", "type": "Feature", "properties": {"id": "2253782", "CVEGEO": "3002800180017061", "POBTOT": 0.0, "score_nse": 0.0, "NSE": null, "VIVTOT": 0.0, "GRAPROES": 0.0, "_ent": "30", "_mun": "028", "_loc": "0018"}, "geometry": {"type": "Polygon", "coordinates": [[[-96.12132, 19.08678], [-96.11991, 19.08599], [-96.12013, 19.08566], [-96.12153, 19.08644], [-96.12132, 19.08678]]]}}, {"id": "2253783", "type": "Feature", "properties": {"id": "2253783", "CVEGEO": "3002800180017062", "POBTOT": 0.0, "score_nse": 0.0, "NSE": null, "VIVTOT": 0.0, "GRAPROES": 0.0, "_ent": "30", "_mun": "028", "_loc": "0018"}, "geometry": {"type": "Polygon", "coordinates": [[[-96.12355, 19.08776], [-96.12249, 19.0871], [-96.12195, 19.08712], [-96.12147, 19.0869], [-96.12168, 19.08655], [-96.12299, 19.08684], [-96.12377, 19.08748], [-96.12355, 19.08776]]]}}, {"id": "2253784", "type": "Feature", "properties": {"id": "2253784", "CVEGEO": "3002800180017063", "POBTOT": 0.0, "score_nse": 0.0, "NSE": null, "VIVTOT": 0.0, "GRAPROES": 0.0, "_ent": "30", "_mun": "028", "_loc": "0018"}, "geometry": {"type": "Polygon", "coordinates": [[[-96.12436, 19.08834], [-96.12369, 19.08789], [-96.1239, 19.08761], [-96.12455, 19.08798], [-96.12499, 19.08856], [-96.12463, 19.08871], [-96.12436, 19.08834]]]}}, {"id": "2253785", "type": "Feature", "properties": {"id": "2253785", "CVEGEO": "3002800180017064", "POBTOT": 0.0, "score_nse": 0.0, "NSE": null, "VIVTOT": 0.0, "GRAPROES": 0.0, "_ent": "30", "_mun": "028", "_loc": "0018"}, "geometry": {"type": "Polygon", "coordinates": [[[-96.12365, 19.08965], [-96.12428, 19.08906], [-96.12401, 19.08875], [-96.12344, 19.08839], [-96.12365, 19.0881], [-96.12422, 19.08845], [-96.1245, 19.08886], [-96.12442, 19.08921], [-96.12378, 19.08979], [-96.12365, 19.08965]]]}}, {"id": "2253786", "type": "Feature", "properties": {"id": "2253786", "CVEGEO": "3002800180017065", "POBTOT": 0.0, "score_nse": 0.0, "NSE": null, "VIVTOT": 0.0, "GRAPROES": 0.0, "_ent": "30", "_mun": "028", "_loc": "0018"}, "geometry": {"type": "Polygon", "coordinates": [[[-96.12407, 19.08912], [-96.12356, 19.08957], [-96.12336, 19.08924], [-96.12387, 19.08877], [-96.12407, 19.08912]]]}}, {"id": "2253787", "type": "Feature", "properties": {"id": "2253787", "CVEGEO": "3002800180017066", "POBTOT": 0.0, "score_nse": 0.0, "NSE": null, "VIVTOT": 0.0, "GRAPROES": 0.0, "_ent": "30", "_mun": "028", "_loc": "0018"}, "geometry": {"type": "Polygon", "coordinates": [[[-96.1217, 19.08857], [-96.12132, 19.08874], [-96.12066, 19.08809], [-96.12098, 19.08783], [-96.1217, 19.08857]]]}}, {"id": "2253788", "type": "Feature", "properties": {"id": "2253788", "CVEGEO": "3002800180017067", "POBTOT": 0.0, "score_nse": 0.0, "NSE": null, "VIVTOT": 0.0, "GRAPROES": 0.0, "_ent": "30", "_mun": "028", "_loc": "0018"}, "geometry": {"type": "Polygon", "coordinates": [[[-96.12061, 19.08803], [-96.12033, 19.08773], [-96.1208, 19.08732], [-96.12117, 19.08752], [-96.12061, 19.08803]]]}}, {"id": "2253789", "type": "Feature", "properties": {"id": "2253789", "CVEGEO": "3002800180017068", "POBTOT": 0.0, "score_nse": 0.0, "NSE": null, "VIVTOT": 0.0, "GRAPROES": 0.0, "_ent": "30", "_mun": "028", "_loc": "0018"}, "geometry": {"type": "Polygon", "coordinates": [[[-96.12024, 19.08764], [-96.11998, 19.08738], [-96.12035, 19.08702], [-96.12071, 19.08726], [-96.12024, 19.08764]]]}}, {"id": "2253790", "type": "Feature", "properties": {"id": "2253790", "CVEGEO": "3002800180017069", "POBTOT": 0.0, "score_nse": 0.0, "NSE": null, "VIVTOT": 0.0, "GRAPROES": 0.0, "_ent": "30", "_mun": "028", "_loc": "0018"}, "geometry": {"type": "Polygon", "coordinates": [[[-96.11942, 19.08679], [-96.11956, 19.08659], [-96.12026, 19.08697], [-96.11991, 19.08729], [-96.11942, 19.08679]]]}}, {"id": "2253791", "type": "Feature", "properties": {"id": "2253791", "CVEGEO": "3002800180017070", "POBTOT": 0.0, "score_nse": 0.0, "NSE": null, "VIVTOT": 0.0, "GRAPROES": 0.0, "_ent": "30", "_mun": "028", "_loc": "0018"}, "geometry": {"type": "Polygon", "coordinates": [[[-96.12142, 19.08625], [-96.12021, 19.08559], [-96.12038, 19.08534], [-96.12162, 19.08578], [-96.12142, 19.08625]]]}}, {"id": "2253792", "type": "Feature", "properties": {"id": "2253792", "CVEGEO": "3002800180017071", "POBTOT": 0.0, "score_nse": 0.0, "NSE": null, "VIVTOT": 0.0, "GRAPROES": 0.0, "_ent": "30", "_mun": "028", "_loc": "0018"}, "geometry": {"type": "Polygon", "coordinates": [[[-96.12234, 19.08662], [-96.12192, 19.08654], [-96.12215, 19.08598], [-96.12255, 19.08613], [-96.12234, 19.08662]]]}}, {"id": "2253793", "type": "Feature", "properties": {"id": "2253793", "CVEGEO": "3002800180017072", "POBTOT": 0.0, "score_nse": 0.0, "NSE": null, "VIVTOT": 0.0, "GRAPROES": 0.0, "_ent": "30", "_mun": "028", "_loc": "0018"}, "geometry": {"type": "Polygon", "coordinates": [[[-96.12285, 19.0867], [-96.12245, 19.08663], [-96.12264, 19.08615], [-96.12303, 19.08628], [-96.12285, 19.0867]]]}}, {"id": "2253794", "type": "Feature", "properties": {"id": "2253794", "CVEGEO": "3002800180017073", "POBTOT": 0.0, "score_nse": 0.0, "NSE": null, "VIVTOT": 0.0, "GRAPROES": 0.0, "_ent": "30", "_mun": "028", "_loc": "0018"}, "geometry": {"type": "Polygon", "coordinates": [[[-96.12557, 19.08842], [-96.12576, 19.08723], [-96.12356, 19.08629], [-96.12329, 19.08698], [-96.12294, 19.08676], [-96.12319, 19.08616], [-96.12038, 19.08522], [-96.12048, 19.08504], [-96.12594, 19.08708], [-96.12571, 19.08839], [-96.12557, 19.08842]]]}}, {"id": "2253795", "type": "Feature", "properties": {"id": "2253795", "CVEGEO": "3002800180017074", "POBTOT": 0.0, "score_nse": 0.0, "NSE": null, "VIVTOT": 0.0, "GRAPROES": 0.0, "_ent": "30", "_mun": "028", "_loc": "0018"}, "geometry": {"type": "Polygon", "coordinates": [[[-96.1237, 19.08729], [-96.12336, 19.08705], [-96.12359, 19.08649], [-96.12398, 19.08665], [-96.1237, 19.08729]]]}}, {"id": "2253796", "type": "Feature", "properties": {"id": "2253796", "CVEGEO": "3002800180017075", "POBTOT": 0.0, "score_nse": 0.0, "NSE": null, "VIVTOT": 0.0, "GRAPROES": 0.0, "_ent": "30", "_mun": "028", "_loc": "0018"}, "geometry": {"type": "Polygon", "coordinates": [[[-96.12424, 19.08719], [-96.12439, 19.08683], [-96.12561, 19.08726], [-96.12552, 19.08766], [-96.12424, 19.08719]]]}}, {"id": "2253797", "type": "Feature", "properties": {"id": "2253797", "CVEGEO": "3002800180017076", "POBTOT": 0.0, "score_nse": 0.0, "NSE": null, "VIVTOT": 0.0, "GRAPROES": 0.0, "_ent": "30", "_mun": "028", "_loc": "0018"}, "geometry": {"type": "Polygon", "coordinates": [[[-96.12544, 19.08813], [-96.12408, 19.08758], [-96.1242, 19.08729], [-96.12552, 19.08774], [-96.12544, 19.08813]]]}}, {"id": "2253798", "type": "Feature", "properties": {"id": "2253798", "CVEGEO": "3002800180017077", "POBTOT": 0.0, "score_nse": 0.0, "NSE": null, "VIVTOT": 0.0, "GRAPROES": 0.0, "_ent": "30", "_mun": "028", "_loc": "0018"}, "geometry": {"type": "Polygon", "coordinates": [[[-96.12374, 19.08982], [-96.12365, 19.0899], [-96.12329, 19.08969], [-96.12267, 19.08852], [-96.12123, 19.08906], [-96.11919, 19.08692], [-96.11932, 19.08678], [-96.12136, 19.08892], [-96.12242, 19.08833], [-96.1229, 19.08843], [-96.1234, 19.08953], [-96.12374, 19.08982]]]}}, {"id": "2253799", "type": "Feature", "properties": {"id": "2253799", "CVEGEO": "3002800180017078", "POBTOT": 0.0, "score_nse": 0.0, "NSE": null, "VIVTOT": 0.0, "GRAPROES": 0.0, "_ent": "30", "_mun": "028", "_loc": "0018"}, "geometry": {"type": "Polygon", "coordinates": [[[-96.13172, 19.08747], [-96.13136, 19.08757], [-96.13144, 19.08817], [-96.13122, 19.08753], [-96.13167, 19.08731], [-96.13172, 19.08747]]]}}, {"id": "2253800", "type": "Feature", "properties": {"id": "2253800", "CVEGEO": "3002800180017079", "POBTOT": 0.0, "score_nse": 0.0, "NSE": null, "VIVTOT": 0.0, "GRAPROES": 0.0, "_ent": "30", "_mun": "028", "_loc": "0018"}, "geometry": {"type": "Polygon", "coordinates": [[[-96.11633, 19.086], [-96.11655, 19.08567], [-96.11772, 19.08637], [-96.11749, 19.08672], [-96.11633, 19.086]]]}}, {"id": "2253801", "type": "Feature", "properties": {"id": "2253801", "CVEGEO": "3002800180017080", "POBTOT": 0.0, "score_nse": 0.0, "NSE": null, "VIVTOT": 0.0, "GRAPROES": 0.0, "_ent": "30", "_mun": "028", "_loc": "0018"}, "geometry": {"type": "Polygon", "coordinates": [[[-96.11776, 19.08631], [-96.11659, 19.0856], [-96.11681, 19.08527], [-96.11798, 19.08599], [-96.11776, 19.08631]]]}}, {"id": "2253802", "type": "Feature", "properties": {"id": "2253802", "CVEGEO": "3002800180017081", "POBTOT": 0.0, "score_nse": 0.0, "NSE": null, "VIVTOT": 0.0, "GRAPROES": 0.0, "_ent": "30", "_mun": "028", "_loc": "0018"}, "geometry": {"type": "Polygon", "coordinates": [[[-96.11803, 19.08592], [-96.11686, 19.08521], [-96.11707, 19.08488], [-96.11825, 19.08561], [-96.11803, 19.08592]]]}}, {"id": "2253803", "type": "Feature", "properties": {"id": "2253803", "CVEGEO": "3002800180017082", "POBTOT": 0.0, "score_nse": 0.0, "NSE": null, "VIVTOT": 0.0, "GRAPROES": 0.0, "_ent": "30", "_mun": "028", "_loc": "0018"}, "geometry": {"type": "Polygon", "coordinates": [[[-96.11915, 19.08443], [-96.1195, 19.08465], [-96.11819, 19.08657], [-96.11802, 19.08648], [-96.11776, 19.08687], [-96.11758, 19.08677], [-96.11915, 19.08443]]]}}, {"id": "2253804", "type": "Feature", "properties": {"id": "2253804", "CVEGEO": "3002800180017083", "POBTOT": 0.0, "score_nse": 0.0, "NSE": null, "VIVTOT": 0.0, "GRAPROES": 0.0, "_ent": "30", "_mun": "028", "_loc": "0018"}, "geometry": {"type": "Polygon", "coordinates": [[[-96.11663, 19.08881], [-96.11633, 19.08854], [-96.11746, 19.08693], [-96.11765, 19.08703], [-96.11735, 19.08746], [-96.11749, 19.08757], [-96.11663, 19.08881]]]}}, {"id": "2253805", "type": "Feature", "properties": {"id": "2253805", "CVEGEO": "3002800180017084", "POBTOT": 0.0, "score_nse": 0.0, "NSE": null, "VIVTOT": 0.0, "GRAPROES": 0.0, "_ent": "30", "_mun": "028", "_loc": "0018"}, "geometry": {"type": "Polygon", "coordinates": [[[-96.11625, 19.08848], [-96.11598, 19.08822], [-96.11704, 19.08667], [-96.11737, 19.08686], [-96.11625, 19.08848]]]}}, {"id": "2253806", "type": "Feature", "properties": {"id": "2253806", "CVEGEO": "3002800180017085", "POBTOT": 0.0, "score_nse": 0.0, "NSE": null, "VIVTOT": 0.0, "GRAPROES": 0.0, "_ent": "30", "_mun": "028", "_loc": "0018"}, "geometry": {"type": "Polygon", "coordinates": [[[-96.1159, 19.08815], [-96.11562, 19.08789], [-96.11663, 19.08642], [-96.11697, 19.08662], [-96.1159, 19.08815]]]}}, {"id": "2253807", "type": "Feature", "properties": {"id": "2253807", "CVEGEO": "3002800180017086", "POBTOT": 0.0, "score_nse": 0.0, "NSE": null, "VIVTOT": 0.0, "GRAPROES": 0.0, "_ent": "30", "_mun": "028", "_loc": "0018"}, "geometry": {"type": "Polygon", "coordinates": [[[-96.11553, 19.08781], [-96.11524, 19.08755], [-96.1162, 19.08615], [-96.11655, 19.08637], [-96.11553, 19.08781]]]}}, {"id": "2253808", "type": "Feature", "properties": {"id": "2253808", "CVEGEO": "3002800180017087", "POBTOT": 0.0, "score_nse": 0.0, "NSE": null, "VIVTOT": 0.0, "GRAPROES": 0.0, "_ent": "30", "_mun": "028", "_loc": "0018"}, "geometry": {"type": "Polygon", "coordinates": [[[-96.11518, 19.08748], [-96.1149, 19.08725], [-96.1158, 19.0859], [-96.11614, 19.0861], [-96.11518, 19.08748]]]}}, {"id": "2253809", "type": "Feature", "properties": {"id": "2253809", "CVEGEO": "3002800180017088", "POBTOT": 0.0, "score_nse": 0.0, "NSE": null, "VIVTOT": 0.0, "GRAPROES": 0.0, "_ent": "30", "_mun": "028", "_loc": "0018"}, "geometry": {"type": "Polygon", "coordinates": [[[-96.11447, 19.08714], [-96.11456, 19.08701], [-96.11671, 19.089], [-96.11658, 19.08912], [-96.11447, 19.08714]]]}}, {"id": "2253810", "type": "Feature", "properties": {"id": "2253810", "CVEGEO": "3002800180017089", "POBTOT": 0.0, "score_nse": 0.0, "NSE": null, "VIVTOT": 0.0, "GRAPROES": 0.0, "_ent": "30", "_mun": "028", "_loc": "0018"}, "geometry": {"type": "Polygon", "coordinates": [[[-96.11829, 19.08553], [-96.11796, 19.08531], [-96.11867, 19.08426], [-96.11905, 19.08444], [-96.11829, 19.08553]]]}}, {"id": "2253811", "type": "Feature", "properties": {"id": "2253811", "CVEGEO": "3002800180017090", "POBTOT": 0.0, "score_nse": 0.0, "NSE": null, "VIVTOT": 0.0, "GRAPROES": 0.0, "_ent": "30", "_mun": "028", "_loc": "0018"}, "geometry": {"type": "Polygon", "coordinates": [[[-96.11787, 19.08528], [-96.11754, 19.08506], [-96.11814, 19.0842], [-96.11854, 19.08423], [-96.11787, 19.08528]]]}}, {"id": "2253812", "type": "Feature", "properties": {"id": "2253812", "CVEGEO": "3002800180017035", "POBTOT": 0.0, "score_nse": 0.0, "NSE": null, "VIVTOT": 0.0, "GRAPROES": 0.0, "_ent": "30", "_mun": "028", "_loc": "0018"}, "geometry": {"type": "Polygon", "coordinates": [[[-96.13804, 19.0887], [-96.13802, 19.08925], [-96.13704, 19.08948], [-96.13726, 19.08861], [-96.13804, 19.0887]]]}}, {"id": "2253813", "type": "Feature", "properties": {"id": "2253813", "CVEGEO": "3002800180017091", "POBTOT": 0.0, "score_nse": 0.0, "NSE": null, "VIVTOT": 0.0, "GRAPROES": 0.0, "_ent": "30", "_mun": "028", "_loc": "0018"}, "geometry": {"type": "Polygon", "coordinates": [[[-96.133, 19.0859], [-96.13291, 19.08681], [-96.13255, 19.0869], [-96.13267, 19.08586], [-96.133, 19.0859]]]}}, {"id": "2253814", "type": "Feature", "properties": {"id": "2253814", "CVEGEO": "3002800180017092", "POBTOT": 0.0, "score_nse": 0.0, "NSE": null, "VIVTOT": 0.0, "GRAPROES": 0.0, "_ent": "30", "_mun": "028", "_loc": "0018"}, "geometry": {"type": "Polygon", "coordinates": [[[-96.13719, 19.08861], [-96.13697, 19.0895], [-96.13676, 19.08955], [-96.13674, 19.08937], [-96.13669, 19.08956], [-96.13558, 19.0895], [-96.13597, 19.08925], [-96.13604, 19.08849], [-96.13719, 19.08861]]]}}, {"id": "2253839", "type": "Feature", "properties": {"id": "2253839", "CVEGEO": "3002800180017093", "POBTOT": 0.0, "score_nse": 0.0, "NSE": null, "VIVTOT": 0.0, "GRAPROES": 0.0, "_ent": "30", "_mun": "028", "_loc": "0018"}, "geometry": {"type": "Polygon", "coordinates": [[[-96.12893, 19.08659], [-96.12809, 19.08649], [-96.12816, 19.08615], [-96.12898, 19.08624], [-96.12893, 19.08659]]]}}, {"id": "2253840", "type": "Feature", "properties": {"id": "2253840", "CVEGEO": "3002800180017094", "POBTOT": 0.0, "score_nse": 0.0, "NSE": null, "VIVTOT": 0.0, "GRAPROES": 0.0, "_ent": "30", "_mun": "028", "_loc": "0018"}, "geometry": {"type": "Polygon", "coordinates": [[[-96.12901, 19.08615], [-96.12818, 19.08606], [-96.12825, 19.08572], [-96.12903, 19.08581], [-96.12901, 19.08615]]]}}, {"id": "2253841", "type": "Feature", "properties": {"id": "2253841", "CVEGEO": "3002800180017095", "POBTOT": 0.0, "score_nse": 0.0, "NSE": null, "VIVTOT": 0.0, "GRAPROES": 0.0, "_ent": "30", "_mun": "028", "_loc": "0018"}, "geometry": {"type": "Polygon", "coordinates": [[[-96.12868, 19.08567], [-96.12825, 19.08563], [-96.12829, 19.08545], [-96.1287, 19.0855], [-96.12868, 19.08567]]]}}, {"id": "2253856", "type": "Feature", "properties": {"id": "2253856", "CVEGEO": "3002800180017046", "POBTOT": 0.0, "score_nse": 0.0, "NSE": null, "VIVTOT": 0.0, "GRAPROES": 0.0, "_ent": "30", "_mun": "028", "_loc": "0018"}, "geometry": {"type": "Polygon", "coordinates": [[[-96.13193, 19.08699], [-96.13178, 19.08696], [-96.13197, 19.08566], [-96.13212, 19.08574], [-96.13193, 19.08699]]]}}, {"id": "2253857", "type": "Feature", "properties": {"id": "2253857", "CVEGEO": "3002800180017096", "POBTOT": 0.0, "score_nse": 0.0, "NSE": null, "VIVTOT": 0.0, "GRAPROES": 0.0, "_ent": "30", "_mun": "028", "_loc": "0018"}, "geometry": {"type": "Polygon", "coordinates": [[[-96.12884, 19.08707], [-96.12802, 19.08696], [-96.12809, 19.08661], [-96.1289, 19.08672], [-96.12884, 19.08707]]]}}, {"id": "2253858", "type": "Feature", "properties": {"id": "2253858", "CVEGEO": "3002800180017097", "POBTOT": 0.0, "score_nse": 0.0, "NSE": null, "VIVTOT": 0.0, "GRAPROES": 0.0, "_ent": "30", "_mun": "028", "_loc": "0018"}, "geometry": {"type": "Polygon", "coordinates": [[[-96.12883, 19.0875], [-96.12805, 19.08742], [-96.12809, 19.08708], [-96.12886, 19.08715], [-96.12883, 19.0875]]]}}, {"id": "2253859", "type": "Feature", "properties": {"id": "2253859", "CVEGEO": "3002800180017098", "POBTOT": 0.0, "score_nse": 0.0, "NSE": null, "VIVTOT": 0.0, "GRAPROES": 0.0, "_ent": "30", "_mun": "028", "_loc": "0018"}, "geometry": {"type": "Polygon", "coordinates": [[[-96.12878, 19.08783], [-96.12794, 19.08804], [-96.12802, 19.0875], [-96.12838, 19.08755], [-96.12835, 19.08783], [-96.12847, 19.08756], [-96.12876, 19.0876], [-96.12878, 19.08783]]]}}, {"id": "2253860", "type": "Feature", "properties": {"id": "2253860", "CVEGEO": "3002800180017099", "POBTOT": 0.0, "score_nse": 0.0, "NSE": null, "VIVTOT": 0.0, "GRAPROES": 0.0, "_ent": "30", "_mun": "028", "_loc": "0018"}, "geometry": {"type": "Polygon", "coordinates": [[[-96.12892, 19.08572], [-96.12873, 19.0857], [-96.12877, 19.08519], [-96.129, 19.08522], [-96.12892, 19.08572]]]}}, {"id": "2253861", "type": "Feature", "properties": {"id": "2253861", "CVEGEO": "3002800180017100", "POBTOT": 0.0, "score_nse": 0.0, "NSE": null, "VIVTOT": 0.0, "GRAPROES": 0.0, "_ent": "30", "_mun": "028", "_loc": "0018"}, "geometry": {"type": "Polygon", "coordinates": [[[-96.13113, 19.08558], [-96.13115, 19.08542], [-96.13352, 19.08571], [-96.1335, 19.08586], [-96.13201, 19.08558], [-96.13113, 19.08558]]]}}, {"id": "2253862", "type": "Feature", "properties": {"id": "2253862", "CVEGEO": "3002800180017101", "POBTOT": 0.0, "score_nse": 0.0, "NSE": null, "VIVTOT": 0.0, "GRAPROES": 0.0, "_ent": "30", "_mun": "028", "_loc": "0018"}, "geometry": {"type": "Polygon", "coordinates": [[[-96.13178, 19.08574], [-96.13175, 19.08595], [-96.13109, 19.08581], [-96.13112, 19.08564], [-96.13178, 19.08574]]]}}, {"id": "2253863", "type": "Feature", "properties": {"id": "2253863", "CVEGEO": "3002800180017102", "POBTOT": 0.0, "score_nse": 0.0, "NSE": null, "VIVTOT": 0.0, "GRAPROES": 0.0, "_ent": "30", "_mun": "028", "_loc": "0018"}, "geometry": {"type": "Polygon", "coordinates": [[[-96.13215, 19.08883], [-96.13191, 19.08985], [-96.13149, 19.09011], [-96.13171, 19.08885], [-96.13215, 19.08883]]]}}, {"id": "2253864", "type": "Feature", "properties": {"id": "2253864", "CVEGEO": "3002800180017103", "POBTOT": 0.0, "score_nse": 0.0, "NSE": null, "VIVTOT": 0.0, "GRAPROES": 0.0, "_ent": "30", "_mun": "028", "_loc": "0018"}, "geometry": {"type": "Polygon", "coordinates": [[[-96.13272, 19.08844], [-96.13254, 19.08957], [-96.13197, 19.08983], [-96.13227, 19.0884], [-96.13272, 19.08844]]]}}]}