{"type": "FeatureCollection", "features": [{"id": "1730332", "type": "Feature", "properties": {"id": "1730332", "CVEGEO": "2117100020014002", "POBTOT": 0.0, "score_nse": 0.0, "NSE": null, "VIVTOT": 0.0, "GRAPROES": 0.0, "_ent": "21", "_mun": "171", "_loc": "0002"}, "geometry": {"type": "Polygon", "coordinates": [[[-97.86048, 18.8011], [-97.86076, 18.80017], [-97.86041, 18.7995], [-97.8612, 18.79862], [-97.86163, 18.79927], [-97.86144, 18.79976], [-97.86172, 18.80095], [-97.86151, 18.80207], [-97.86048, 18.8011]]]}}, {"id": "1730333", "type": "Feature", "properties": {"id": "1730333", "CVEGEO": "2117100020014009", "POBTOT": 0.0, "score_nse": 0.0, "NSE": null, "VIVTOT": 0.0, "GRAPROES": 0.0, "_ent": "21", "_mun": "171", "_loc": "0002"}, "geometry": {"type": "Polygon", "coordinates": [[[-97.85895, 18.79817], [-97.85976, 18.79799], [-97.86049, 18.7993], [-97.85994, 18.79988], [-97.85921, 18.7987], [-97.85895, 18.79817]]]}}, {"id": "1730346", "type": "Feature", "properties": {"id": "1730346", "CVEGEO": "2117100020014017", "POBTOT": 0.0, "score_nse": 0.0, "NSE": null, "VIVTOT": 0.0, "GRAPROES": 0.0, "_ent": "21", "_mun": "171", "_loc": "0002"}, "geometry": {"type": "Polygon", "coordinates": [[[-97.8573, 18.79935], [-97.85839, 18.80128], [-97.85725, 18.80214], [-97.85573, 18.80051], [-97.85582, 18.7994], [-97.8573, 18.79935]]]}}, {"id": "1730364", "type": "Feature", "properties": {"id": "1730364", "CVEGEO": "2117100020014011", "POBTOT": 0.0, "score_nse": 0.0, "NSE": null, "VIVTOT": 0.0, "GRAPROES": 0.0, "_ent": "21", "_mun": "171", "_loc": "0002"}, "geometry": {"type": "Polygon", "coordinates": [[[-97.86341, 18.79581], [-97.86354, 18.79642], [-97.86284, 18.79685], [-97.86286, 18.79631], [-97.86317, 18.79578], [-97.86341, 18.79581]]]}}, {"id": "1730365", "type": "Feature", "properties": {"id": "1730365", "CVEGEO": "2117100020014010", "POBTOT": 0.0, "score_nse": 0.0, "NSE": null, "VIVTOT": 0.0, "GRAPROES": 0.0, "_ent": "21", "_mun": "171", "_loc": "0002"}, "geometry": {"type": "Polygon", "coordinates": [[[-97.86349, 18.79584], [-97.86388, 18.7959], [-97.8639, 18.79625], [-97.86361, 18.79639], [-97.86349, 18.79584]]]}}, {"id": "1730366", "type": "Feature", "properties": {"id": "1730366", "CVEGEO": "2117100020014008", "POBTOT": 0.0, "score_nse": 0.0, "NSE": null, "VIVTOT": 0.0, "GRAPROES": 0.0, "_ent": "21", "_mun": "171", "_loc": "0002"}, "geometry": {"type": "Polygon", "coordinates": [[[-97.86036, 18.79955], [-97.86068, 18.80018], [-97.86042, 18.80105], [-97.85961, 18.80035], [-97.86036, 18.79955]]]}}, {"id": "1730367", "type": "Feature", "properties": {"id": "1730367", "CVEGEO": "2117100020014007", "POBTOT": 0.0, "score_nse": 0.0, "NSE": null, "VIVTOT": 0.0, "GRAPROES": 0.0, "_ent": "21", "_mun": "171", "_loc": "0002"}, "geometry": {"type": "Polygon", "coordinates": [[[-97.86377, 18.79645], [-97.86387, 18.79986], [-97.86302, 18.79956], [-97.86267, 18.79775], [-97.86319, 18.7974], [-97.86291, 18.79693], [-97.86377, 18.79645]]]}}, {"id": "1730368", "type": "Feature", "properties": {"id": "1730368", "CVEGEO": "2117100020014006", "POBTOT": 0.0, "score_nse": 0.0, "NSE": null, "VIVTOT": 0.0, "GRAPROES": 0.0, "_ent": "21", "_mun": "171", "_loc": "0002"}, "geometry": {"type": "Polygon", "coordinates": [[[-97.86244, 18.79726], [-97.86284, 18.79697], [-97.86309, 18.79738], [-97.86264, 18.79768], [-97.86244, 18.79726]]]}}, {"id": "1730369", "type": "Feature", "properties": {"id": "1730369", "CVEGEO": "2117100020014005", "POBTOT": 0.0, "score_nse": 0.0, "NSE": null, "VIVTOT": 0.0, "GRAPROES": 0.0, "_ent": "21", "_mun": "171", "_loc": "0002"}, "geometry": {"type": "Polygon", "coordinates": [[[-97.86154, 18.79586], [-97.86309, 18.79579], [-97.86272, 18.79644], [-97.86277, 18.79689], [-97.86186, 18.79779], [-97.86154, 18.79586]]]}}, {"id": "1730395", "type": "Feature", "properties": {"id": "1730395", "CVEGEO": "2117100020014012", "POBTOT": 0.0, "score_nse": 0.0, "NSE": null, "VIVTOT": 0.0, "GRAPROES": 0.0, "_ent": "21", "_mun": "171", "_loc": "0002"}, "geometry": {"type": "Polygon", "coordinates": [[[-97.8616, 18.79545], [-97.86314, 18.79473], [-97.86338, 18.79574], [-97.86154, 18.79579], [-97.8616, 18.79545]]]}}, {"id": "1730396", "type": "Feature", "properties": {"id": "1730396", "CVEGEO": "2117100020014004", "POBTOT": 0.0, "score_nse": 0.0, "NSE": null, "VIVTOT": 0.0, "GRAPROES": 0.0, "_ent": "21", "_mun": "171", "_loc": "0002"}, "geometry": {"type": "Polygon", "coordinates": [[[-97.8618, 18.79789], [-97.86127, 18.79844], [-97.86086, 18.79771], [-97.86167, 18.79714], [-97.8618, 18.79789]]]}}, {"id": "1730397", "type": "Feature", "properties": {"id": "1730397", "CVEGEO": "2117100020014003", "POBTOT": 0.0, "score_nse": 0.0, "NSE": null, "VIVTOT": 0.0, "GRAPROES": 0.0, "_ent": "21", "_mun": "171", "_loc": "0002"}, "geometry": {"type": "Polygon", "coordinates": [[[-97.85983, 18.79796], [-97.86052, 18.79769], [-97.86079, 18.79774], [-97.86121, 18.79849], [-97.86052, 18.79922], [-97.85983, 18.79796]]]}}, {"id": "1730408", "type": "Feature", "properties": {"id": "1730408", "CVEGEO": "2117100020014001", "POBTOT": 0.0, "score_nse": 0.0, "NSE": null, "VIVTOT": 0.0, "GRAPROES": 0.0, "_ent": "21", "_mun": "171", "_loc": "0002"}, "geometry": {"type": "Polygon", "coordinates": [[[-97.8626, 18.79776], [-97.86296, 18.79961], [-97.86387, 18.79998], [-97.86392, 18.80129], [-97.86178, 18.80119], [-97.86152, 18.79988], [-97.86171, 18.79926], [-97.86125, 18.79856], [-97.8623, 18.7974], [-97.8626, 18.79776]]]}}, {"id": "1730433", "type": "Feature", "properties": {"id": "1730433", "CVEGEO": "2117100020014013", "POBTOT": 0.0, "score_nse": 0.0, "NSE": null, "VIVTOT": 0.0, "GRAPROES": 0.0, "_ent": "21", "_mun": "171", "_loc": "0002"}, "geometry": {"type": "Polygon", "coordinates": [[[-97.85763, 18.79824], [-97.85887, 18.79819], [-97.85988, 18.79993], [-97.85911, 18.80074], [-97.85875, 18.80042], [-97.85906, 18.80078], [-97.85842, 18.80126], [-97.85722, 18.79912], [-97.85786, 18.79908], [-97.85763, 18.79824]]]}}, {"id": "1730434", "type": "Feature", "properties": {"id": "1730434", "CVEGEO": "2117100020014014", "POBTOT": 0.0, "score_nse": 0.0, "NSE": null, "VIVTOT": 0.0, "GRAPROES": 0.0, "_ent": "21", "_mun": "171", "_loc": "0002"}, "geometry": {"type": "Polygon", "coordinates": [[[-97.86117, 18.79746], [-97.8587, 18.79816], [-97.85765, 18.79816], [-97.85759, 18.79805], [-97.85789, 18.79807], [-97.85827, 18.79783], [-97.85841, 18.79739], [-97.86021, 18.79714], [-97.8602, 18.79696], [-97.86038, 18.7969], [-97.85995, 18.79569], [-97.86146, 18.79586], [-97.86166, 18.79706], [-97.86117, 18.79746]]]}}, {"id": "1730435", "type": "Feature", "properties": {"id": "1730435", "CVEGEO": "2117100020014018", "POBTOT": 0.0, "score_nse": 0.0, "NSE": null, "VIVTOT": 0.0, "GRAPROES": 0.0, "_ent": "21", "_mun": "171", "_loc": "0002"}, "geometry": {"type": "Polygon", "coordinates": [[[-97.85674, 18.80169], [-97.85724, 18.80219], [-97.85637, 18.80285], [-97.85556, 18.80262], [-97.85674, 18.80169]]]}}, {"id": "1730436", "type": "Feature", "properties": {"id": "1730436", "CVEGEO": "2117100020014016", "POBTOT": 0.0, "score_nse": 0.0, "NSE": null, "VIVTOT": 0.0, "GRAPROES": 0.0, "_ent": "21", "_mun": "171", "_loc": "0002"}, "geometry": {"type": "Polygon", "coordinates": [[[-97.85777, 18.80241], [-97.85748, 18.80208], [-97.85855, 18.80122], [-97.85857, 18.80148], [-97.85821, 18.80169], [-97.8584, 18.80208], [-97.85777, 18.80241]]]}}, {"id": "1730437", "type": "Feature", "properties": {"id": "1730437", "CVEGEO": "2117100020014015", "POBTOT": 0.0, "score_nse": 0.0, "NSE": null, "VIVTOT": 0.0, "GRAPROES": 0.0, "_ent": "21", "_mun": "171", "_loc": "0002"}, "geometry": {"type": "Polygon", "coordinates": [[[-97.85953, 18.80043], [-97.86034, 18.80108], [-97.85886, 18.80187], [-97.85834, 18.80199], [-97.85825, 18.80171], [-97.85862, 18.80145], [-97.8586, 18.8012], [-97.85918, 18.80074], [-97.85941, 18.80101], [-97.85923, 18.80071], [-97.85953, 18.80043]]]}}, {"id": "1730439", "type": "Feature", "properties": {"id": "1730439", "CVEGEO": "2117100020014019", "POBTOT": 0.0, "score_nse": 0.0, "NSE": null, "VIVTOT": 0.0, "GRAPROES": 0.0, "_ent": "21", "_mun": "171", "_loc": "0002"}, "geometry": {"type": "Polygon", "coordinates": [[[-97.86142, 18.79576], [-97.86038, 18.79563], [-97.86039, 18.79515], [-97.86141, 18.79529], [-97.86142, 18.79576]]]}}, {"id": "1730440", "type": "Feature", "properties": {"id": "1730440", "CVEGEO": "2117100020014020", "POBTOT": 0.0, "score_nse": 0.0, "NSE": null, "VIVTOT": 0.0, "GRAPROES": 0.0, "_ent": "21", "_mun": "171", "_loc": "0002"}, "geometry": {"type": "Polygon", "coordinates": [[[-97.86485, 18.79571], [-97.86473, 18.79416], [-97.86503, 18.79409], [-97.86532, 18.79545], [-97.86485, 18.79571]]]}}, {"id": "1730441", "type": "Feature", "properties": {"id": "1730441", "CVEGEO": "2117100020014021", "POBTOT": 0.0, "score_nse": 0.0, "NSE": null, "VIVTOT": 0.0, "GRAPROES": 0.0, "_ent": "21", "_mun": "171", "_loc": "0002"}, "geometry": {"type": "Polygon", "coordinates": [[[-97.86537, 18.79543], [-97.86507, 18.79409], [-97.86688, 18.79302], [-97.86726, 18.79438], [-97.86537, 18.79543]]]}}, {"id": "1730442", "type": "Feature", "properties": {"id": "1730442", "CVEGEO": "2117100020014022", "POBTOT": 0.0, "score_nse": 0.0, "NSE": null, "VIVTOT": 0.0, "GRAPROES": 0.0, "_ent": "21", "_mun": "171", "_loc": "0002"}, "geometry": {"type": "Polygon", "coordinates": [[[-97.86711, 18.79459], [-97.86747, 18.79538], [-97.86658, 18.79578], [-97.86631, 18.795], [-97.86711, 18.79459]]]}}]}