{"type": "FeatureCollection", "features": [{"id": "2361269", "type": "Feature", "properties": {"id": "2361269", "CVEGEO": "3014700050037060", "POBTOT": 0.0, "score_nse": 0.0, "NSE": "ND", "VIVTOT": 0.0, "GRAPROES": 0.0, "_ent": "30", "_mun": "147", "_loc": "0005"}, "geometry": {"type": "Polygon", "coordinates": [[[-97.1929, 18.71882], [-97.19314, 18.71897], [-97.19296, 18.7191], [-97.19287, 18.71895], [-97.1929, 18.71882]]]}}, {"id": "2361273", "type": "Feature", "properties": {"id": "2361273", "CVEGEO": "3014700050037022", "POBTOT": 84.0, "score_nse": 22.0707, "NSE": "D", "VIVTOT": 21.0, "GRAPROES": 5.69, "_ent": "30", "_mun": "147", "_loc": "0005"}, "geometry": {"type": "Polygon", "coordinates": [[[-97.18026, 18.72867], [-97.17853, 18.73041], [-97.17791, 18.72994], [-97.17811, 18.7294], [-97.17792, 18.72845], [-97.17868, 18.72761], [-97.17948, 18.72726], [-97.18026, 18.72867]]]}}, {"id": "2361277", "type": "Feature", "properties": {"id": "2361277", "CVEGEO": "3014700050037049", "POBTOT": 0.0, "score_nse": 0.0, "NSE": "ND", "VIVTOT": 0.0, "GRAPROES": 0.0, "_ent": "30", "_mun": "147", "_loc": "0005"}, "geometry": {"type": "Polygon", "coordinates": [[[-97.17907, 18.72572], [-97.1793, 18.72621], [-97.17866, 18.72612], [-97.17805, 18.72654], [-97.17795, 18.72632], [-97.17823, 18.72632], [-97.17865, 18.72591], [-97.17868, 18.7255], [-97.17907, 18.72572]]]}}, {"id": "2361278", "type": "Feature", "properties": {"id": "2361278", "CVEGEO": "3014700050037038", "POBTOT": 64.0, "score_nse": 0.0, "NSE": "ND", "VIVTOT": 13.0, "GRAPROES": 5.07, "_ent": "30", "_mun": "147", "_loc": "0005"}, "geometry": {"type": "Polygon", "coordinates": [[[-97.19769, 18.71742], [-97.19843, 18.7174], [-97.20026, 18.71686], [-97.20113, 18.71607], [-97.20268, 18.72023], [-97.20251, 18.72042], [-97.20162, 18.71921], [-97.20131, 18.71935], [-97.20073, 18.71926], [-97.20033, 18.71943], [-97.20008, 18.71819], [-97.19912, 18.71819], [-97.19825, 18.71794], [-97.19771, 18.71755], [-97.19769, 18.71742]]]}}, {"id": "2361279", "type": "Feature", "properties": {"id": "2361279", "CVEGEO": "3014700050037033", "POBTOT": 42.0, "score_nse": 0.0, "NSE": "ND", "VIVTOT": 11.0, "GRAPROES": 4.19, "_ent": "30", "_mun": "147", "_loc": "0005"}, "geometry": {"type": "Polygon", "coordinates": [[[-97.18938, 18.72172], [-97.19033, 18.72113], [-97.19044, 18.72176], [-97.19063, 18.722], [-97.18892, 18.72253], [-97.18945, 18.72194], [-97.18938, 18.72172]]]}}, {"id": "2361280", "type": "Feature", "properties": {"id": "2361280", "CVEGEO": "3014700050037013", "POBTOT": 16.0, "score_nse": 0.0, "NSE": "ND", "VIVTOT": 5.0, "GRAPROES": 5.33, "_ent": "30", "_mun": "147", "_loc": "0005"}, "geometry": {"type": "Polygon", "coordinates": [[[-97.17676, 18.73318], [-97.17679, 18.7358], [-97.17622, 18.73599], [-97.17588, 18.73658], [-97.1753, 18.73694], [-97.17515, 18.73754], [-97.17541, 18.73842], [-97.1753, 18.73967], [-97.17502, 18.73991], [-97.17479, 18.73892], [-97.17474, 18.73723], [-97.17434, 18.73651], [-97.17452, 18.73567], [-97.17411, 18.73539], [-97.17472, 18.73341], [-97.17451, 18.73269], [-97.17484, 18.73203], [-97.17675, 18.73292], [-97.17561, 18.73396], [-97.17486, 18.73511], [-97.1757, 18.73397], [-97.17676, 18.73318]]]}}, {"id": "2361281", "type": "Feature", "properties": {"id": "2361281", "CVEGEO": "3014700050037053", "POBTOT": 31.0, "score_nse": 0.0, "NSE": "ND", "VIVTOT": 8.0, "GRAPROES": 6.58, "_ent": "30", "_mun": "147", "_loc": "0005"}, "geometry": {"type": "Polygon", "coordinates": [[[-97.18606, 18.72499], [-97.18559, 18.7255], [-97.18487, 18.72576], [-97.18451, 18.72627], [-97.18453, 18.72592], [-97.18412, 18.72566], [-97.18542, 18.72471], [-97.18606, 18.72499]]]}}, {"id": "2361282", "type": "Feature", "properties": {"id": "2361282", "CVEGEO": "3014700050037055", "POBTOT": 31.0, "score_nse": 0.0, "NSE": "ND", "VIVTOT": 5.0, "GRAPROES": 8.61, "_ent": "30", "_mun": "147", "_loc": "0005"}, "geometry": {"type": "Polygon", "coordinates": [[[-97.18404, 18.72572], [-97.1845, 18.72594], [-97.18447, 18.72623], [-97.18395, 18.72686], [-97.18384, 18.72657], [-97.18404, 18.72572]]]}}, {"id": "2361283", "type": "Feature", "properties": {"id": "2361283", "CVEGEO": "3014700050037057", "POBTOT": 30.0, "score_nse": 0.0, "NSE": "ND", "VIVTOT": 11.0, "GRAPROES": 4.73, "_ent": "30", "_mun": "147", "_loc": "0005"}, "geometry": {"type": "Polygon", "coordinates": [[[-97.17851, 18.73843], [-97.17822, 18.73789], [-97.17826, 18.73752], [-97.17846, 18.73787], [-97.17909, 18.73831], [-97.17906, 18.73857], [-97.17851, 18.73843]]]}}, {"id": "2361284", "type": "Feature", "properties": {"id": "2361284", "CVEGEO": "3014700050037041", "POBTOT": 12.0, "score_nse": 0.0, "NSE": "ND", "VIVTOT": 3.0, "GRAPROES": 0.0, "_ent": "30", "_mun": "147", "_loc": "0005"}, "geometry": {"type": "Polygon", "coordinates": [[[-97.18347, 18.72605], [-97.18386, 18.72551], [-97.18404, 18.72565], [-97.18375, 18.72585], [-97.18347, 18.72605]]]}}, {"id": "2361293", "type": "Feature", "properties": {"id": "2361293", "CVEGEO": "3014700050037050", "POBTOT": 13.0, "score_nse": 0.0, "NSE": "ND", "VIVTOT": 6.0, "GRAPROES": 0.0, "_ent": "30", "_mun": "147", "_loc": "0005"}, "geometry": {"type": "Polygon", "coordinates": [[[-97.17784, 18.73192], [-97.17804, 18.73093], [-97.17846, 18.73047], [-97.17784, 18.73192]]]}}, {"id": "2361297", "type": "Feature", "properties": {"id": "2361297", "CVEGEO": "3014700050037024", "POBTOT": 2.0, "score_nse": 0.0, "NSE": "ND", "VIVTOT": 2.0, "GRAPROES": 0.0, "_ent": "30", "_mun": "147", "_loc": "0005"}, "geometry": {"type": "Polygon", "coordinates": [[[-97.17912, 18.72562], [-97.17989, 18.72564], [-97.1799, 18.72537], [-97.18023, 18.72555], [-97.18007, 18.72601], [-97.17932, 18.7262], [-97.17912, 18.72562]]]}}, {"id": "2361302", "type": "Feature", "properties": {"id": "2361302", "CVEGEO": "3014700050037047", "POBTOT": 19.0, "score_nse": 0.0, "NSE": "ND", "VIVTOT": 4.0, "GRAPROES": 4.33, "_ent": "30", "_mun": "147", "_loc": "0005"}, "geometry": {"type": "Polygon", "coordinates": [[[-97.20109, 18.71602], [-97.20023, 18.71681], [-97.1984, 18.71736], [-97.19769, 18.71738], [-97.19908, 18.71615], [-97.20046, 18.71428], [-97.20109, 18.71602]]]}}, {"id": "2361303", "type": "Feature", "properties": {"id": "2361303", "CVEGEO": "3014700050037021", "POBTOT": 3.0, "score_nse": 0.0, "NSE": "ND", "VIVTOT": 1.0, "GRAPROES": 0.0, "_ent": "30", "_mun": "147", "_loc": "0005"}, "geometry": {"type": "Polygon", "coordinates": [[[-97.18126, 18.72594], [-97.18103, 18.72633], [-97.18049, 18.72651], [-97.18006, 18.7269], [-97.18012, 18.72605], [-97.18126, 18.72594]]]}}, {"id": "2361304", "type": "Feature", "properties": {"id": "2361304", "CVEGEO": "3014700050037009", "POBTOT": 74.0, "score_nse": 16.3705, "NSE": "E", "VIVTOT": 16.0, "GRAPROES": 4.58, "_ent": "30", "_mun": "147", "_loc": "0005"}, "geometry": {"type": "Polygon", "coordinates": [[[-97.18726, 18.72042], [-97.18694, 18.72125], [-97.18637, 18.72198], [-97.1856, 18.72343], [-97.18426, 18.72449], [-97.18374, 18.72438], [-97.18344, 18.72364], [-97.18346, 18.72344], [-97.18376, 18.72336], [-97.18367, 18.72313], [-97.18418, 18.72308], [-97.18464, 18.72269], [-97.18502, 18.72266], [-97.18518, 18.7224], [-97.18542, 18.72241], [-97.18536, 18.72176], [-97.18599, 18.7219], [-97.18613, 18.72121], [-97.18654, 18.72114], [-97.18675, 18.72097], [-97.18671, 18.72065], [-97.18703, 18.72076], [-97.18726, 18.72042]]]}}, {"id": "2361305", "type": "Feature", "properties": {"id": "2361305", "CVEGEO": "3014700050037008", "POBTOT": 152.0, "score_nse": 24.0145, "NSE": "D", "VIVTOT": 32.0, "GRAPROES": 4.49, "_ent": "30", "_mun": "147", "_loc": "0005"}, "geometry": {"type": "Polygon", "coordinates": [[[-97.1822, 18.72776], [-97.18301, 18.72743], [-97.18342, 18.72751], [-97.18404, 18.72736], [-97.18398, 18.72823], [-97.18375, 18.72826], [-97.18349, 18.72874], [-97.18278, 18.72925], [-97.18199, 18.73023], [-97.18164, 18.73078], [-97.1816, 18.73125], [-97.1813, 18.73149], [-97.18134, 18.73176], [-97.18044, 18.73175], [-97.17996, 18.73152], [-97.17975, 18.73138], [-97.17987, 18.73079], [-97.18052, 18.73039], [-97.18136, 18.72849], [-97.1822, 18.72776]]]}}, {"id": "2361317", "type": "Feature", "properties": {"id": "2361317", "CVEGEO": "3014700050037043", "POBTOT": 44.0, "score_nse": 0.0, "NSE": "ND", "VIVTOT": 10.0, "GRAPROES": 4.6, "_ent": "30", "_mun": "147", "_loc": "0005"}, "geometry": {"type": "Polygon", "coordinates": [[[-97.193, 18.71679], [-97.19486, 18.71586], [-97.1955, 18.71608], [-97.19396, 18.71655], [-97.19363, 18.71701], [-97.19361, 18.71737], [-97.19328, 18.71752], [-97.19316, 18.71788], [-97.19291, 18.71795], [-97.19281, 18.71713], [-97.193, 18.71679]]]}}, {"id": "2361318", "type": "Feature", "properties": {"id": "2361318", "CVEGEO": "3014700050037040", "POBTOT": 36.0, "score_nse": 0.0, "NSE": "ND", "VIVTOT": 8.0, "GRAPROES": 5.36, "_ent": "30", "_mun": "147", "_loc": "0005"}, "geometry": {"type": "Polygon", "coordinates": [[[-97.18404, 18.7273], [-97.18347, 18.72745], [-97.18304, 18.72736], [-97.18223, 18.72759], [-97.18297, 18.72698], [-97.18342, 18.72618], [-97.18399, 18.72576], [-97.18381, 18.72657], [-97.18404, 18.7273]]]}}, {"id": "2361319", "type": "Feature", "properties": {"id": "2361319", "CVEGEO": "3014700050037039", "POBTOT": 242.0, "score_nse": 0.0, "NSE": "ND", "VIVTOT": 66.0, "GRAPROES": 4.69, "_ent": "30", "_mun": "147", "_loc": "0005"}, "geometry": {"type": "Polygon", "coordinates": [[[-97.19581, 18.71963], [-97.19614, 18.71924], [-97.19662, 18.71922], [-97.19623, 18.71891], [-97.19673, 18.71894], [-97.1978, 18.71971], [-97.19867, 18.72008], [-97.19916, 18.72012], [-97.20087, 18.72209], [-97.19803, 18.72499], [-97.19754, 18.724], [-97.19684, 18.72359], [-97.196, 18.72194], [-97.1958, 18.72184], [-97.19458, 18.72144], [-97.19448, 18.72163], [-97.1937, 18.72175], [-97.19346, 18.72205], [-97.19254, 18.72218], [-97.19227, 18.72252], [-97.19162, 18.72208], [-97.19126, 18.7222], [-97.19057, 18.72209], [-97.19067, 18.72197], [-97.19047, 18.72174], [-97.19037, 18.72112], [-97.19232, 18.71996], [-97.19334, 18.71891], [-97.19425, 18.7189], [-97.1949, 18.71918], [-97.19566, 18.71898], [-97.19559, 18.71956], [-97.19636, 18.72025], [-97.19706, 18.72064], [-97.19766, 18.72179], [-97.19799, 18.72193], [-97.19759, 18.72157], [-97.19733, 18.72087], [-97.19697, 18.72048], [-97.1964, 18.72021], [-97.19581, 18.71963]]]}}, {"id": "2361320", "type": "Feature", "properties": {"id": "2361320", "CVEGEO": "3014700050037006", "POBTOT": 156.0, "score_nse": 20.4155, "NSE": "D", "VIVTOT": 48.0, "GRAPROES": 4.34, "_ent": "30", "_mun": "147", "_loc": "0005"}, "geometry": {"type": "Polygon", "coordinates": [[[-97.194, 18.71834], [-97.19482, 18.71778], [-97.19556, 18.71686], [-97.19652, 18.7161], [-97.19806, 18.71575], [-97.1995, 18.71516], [-97.2, 18.7148], [-97.19905, 18.71613], [-97.19771, 18.71724], [-97.19766, 18.71753], [-97.19819, 18.71795], [-97.19899, 18.71821], [-97.19998, 18.71818], [-97.20028, 18.71949], [-97.20076, 18.7193], [-97.20134, 18.71939], [-97.2016, 18.71926], [-97.20249, 18.72043], [-97.20209, 18.72084], [-97.20126, 18.72047], [-97.19875, 18.72004], [-97.19788, 18.7197], [-97.19707, 18.71901], [-97.19627, 18.71885], [-97.19565, 18.71842], [-97.1952, 18.71838], [-97.19492, 18.71867], [-97.194, 18.71834]]]}}, {"id": "2361324", "type": "Feature", "properties": {"id": "2361324", "CVEGEO": "3014700050037004", "POBTOT": 170.0, "score_nse": 0.0, "NSE": "ND", "VIVTOT": 31.0, "GRAPROES": 4.27, "_ent": "30", "_mun": "147", "_loc": "0005"}, "geometry": {"type": "Polygon", "coordinates": [[[-97.182, 18.72588], [-97.18238, 18.72634], [-97.18308, 18.72638], [-97.18171, 18.72764], [-97.18029, 18.72864], [-97.17951, 18.72725], [-97.18046, 18.72657], [-97.18101, 18.7264], [-97.18144, 18.72597], [-97.182, 18.72588]]]}}, {"id": "2361343", "type": "Feature", "properties": {"id": "2361343", "CVEGEO": "3014700050037020", "POBTOT": 33.0, "score_nse": 0.0, "NSE": "ND", "VIVTOT": 7.0, "GRAPROES": 5.55, "_ent": "30", "_mun": "147", "_loc": "0005"}, "geometry": {"type": "Polygon", "coordinates": [[[-97.18406, 18.72559], [-97.18389, 18.72546], [-97.18393, 18.72514], [-97.18439, 18.72452], [-97.18487, 18.72445], [-97.18535, 18.72465], [-97.18406, 18.72559]]]}}, {"id": "2361357", "type": "Feature", "properties": {"id": "2361357", "CVEGEO": "3014700050037034", "POBTOT": 94.0, "score_nse": 0.0, "NSE": "ND", "VIVTOT": 17.0, "GRAPROES": 6.27, "_ent": "30", "_mun": "147", "_loc": "0005"}, "geometry": {"type": "Polygon", "coordinates": [[[-97.18913, 18.72181], [-97.1887, 18.72221], [-97.18802, 18.72235], [-97.18774, 18.72283], [-97.18685, 18.72344], [-97.18721, 18.72291], [-97.18814, 18.72211], [-97.18913, 18.72181]]]}}, {"id": "2361359", "type": "Feature", "properties": {"id": "2361359", "CVEGEO": "3014700050037052", "POBTOT": 30.0, "score_nse": 0.0, "NSE": "ND", "VIVTOT": 11.0, "GRAPROES": 5.47, "_ent": "30", "_mun": "147", "_loc": "0005"}, "geometry": {"type": "Polygon", "coordinates": [[[-97.19371, 18.7185], [-97.19425, 18.71845], [-97.19492, 18.71869], [-97.1952, 18.71841], [-97.19549, 18.7184], [-97.19622, 18.71885], [-97.19503, 18.71914], [-97.19428, 18.71885], [-97.19336, 18.71887], [-97.19371, 18.7185]]]}}, {"id": "2361373", "type": "Feature", "properties": {"id": "2361373", "CVEGEO": "3014700050037056", "POBTOT": 39.0, "score_nse": 0.0, "NSE": "ND", "VIVTOT": 8.0, "GRAPROES": 5.35, "_ent": "30", "_mun": "147", "_loc": "0005"}, "geometry": {"type": "Polygon", "coordinates": [[[-97.17686, 18.73404], [-97.1772, 18.73506], [-97.17716, 18.73596], [-97.17683, 18.73679], [-97.17621, 18.73755], [-97.17537, 18.73977], [-97.17544, 18.73844], [-97.17518, 18.73753], [-97.17533, 18.73697], [-97.17592, 18.73659], [-97.17623, 18.73603], [-97.17682, 18.7358], [-97.17686, 18.73404]]]}}, {"id": "2361375", "type": "Feature", "properties": {"id": "2361375", "CVEGEO": "3014700050037028", "POBTOT": 42.0, "score_nse": 0.0, "NSE": "ND", "VIVTOT": 10.0, "GRAPROES": 4.96, "_ent": "30", "_mun": "147", "_loc": "0005"}, "geometry": {"type": "Polygon", "coordinates": [[[-97.20089, 18.72208], [-97.19959, 18.72049], [-97.19921, 18.72013], [-97.20124, 18.7205], [-97.20206, 18.72087], [-97.20089, 18.72208]]]}}, {"id": "2361376", "type": "Feature", "properties": {"id": "2361376", "CVEGEO": "3014700050037014", "POBTOT": 214.0, "score_nse": 0.0, "NSE": "ND", "VIVTOT": 40.0, "GRAPROES": 4.5, "_ent": "30", "_mun": "147", "_loc": "0005"}, "geometry": {"type": "Polygon", "coordinates": [[[-97.17769, 18.73208], [-97.17694, 18.7329], [-97.17619, 18.7327], [-97.17501, 18.73199], [-97.17576, 18.73195], [-97.17631, 18.73141], [-97.17623, 18.72964], [-97.17654, 18.72892], [-97.17696, 18.72878], [-97.17689, 18.7281], [-97.1767, 18.72783], [-97.17709, 18.72692], [-97.17796, 18.72642], [-97.17809, 18.72657], [-97.17867, 18.72617], [-97.17925, 18.72627], [-97.18005, 18.72609], [-97.18001, 18.72692], [-97.17854, 18.72764], [-97.17789, 18.72842], [-97.17804, 18.72952], [-97.17791, 18.72986], [-97.17745, 18.73029], [-97.17735, 18.73095], [-97.17748, 18.73151], [-97.17773, 18.73183], [-97.17769, 18.73208]]]}}, {"id": "2361378", "type": "Feature", "properties": {"id": "2361378", "CVEGEO": "3014700050037045", "POBTOT": 7.0, "score_nse": 0.0, "NSE": "ND", "VIVTOT": 3.0, "GRAPROES": 0.0, "_ent": "30", "_mun": "147", "_loc": "0005"}, "geometry": {"type": "Polygon", "coordinates": [[[-97.19629, 18.71899], [-97.19654, 18.7192], [-97.19612, 18.7192], [-97.19575, 18.7196], [-97.19563, 18.71954], [-97.19572, 18.71895], [-97.19629, 18.71899]]]}}, {"id": "2361379", "type": "Feature", "properties": {"id": "2361379", "CVEGEO": "3014700050037037", "POBTOT": 8.0, "score_nse": 0.0, "NSE": "ND", "VIVTOT": 1.0, "GRAPROES": 0.0, "_ent": "30", "_mun": "147", "_loc": "0005"}, "geometry": {"type": "Polygon", "coordinates": [[[-97.19576, 18.7161], [-97.19641, 18.7161], [-97.19523, 18.71655], [-97.19567, 18.71628], [-97.19576, 18.7161]]]}}, {"id": "2361404", "type": "Feature", "properties": {"id": "2361404", "CVEGEO": "3014700050037058", "POBTOT": 0.0, "score_nse": 10.0, "NSE": "E", "VIVTOT": 1.0, "GRAPROES": 0.0, "_ent": "30", "_mun": "147", "_loc": "0005"}, "geometry": {"type": "Polygon", "coordinates": [[[-97.18993, 18.7252], [-97.18917, 18.72599], [-97.18837, 18.72626], [-97.18833, 18.726], [-97.18855, 18.72563], [-97.1882, 18.72532], [-97.18861, 18.725], [-97.18817, 18.7253], [-97.18666, 18.72583], [-97.18677, 18.72552], [-97.18666, 18.72533], [-97.18733, 18.72495], [-97.18734, 18.72462], [-97.18775, 18.72451], [-97.18857, 18.72452], [-97.18894, 18.72437], [-97.18964, 18.7245], [-97.18986, 18.72462], [-97.18993, 18.7252]]]}}, {"id": "2361405", "type": "Feature", "properties": {"id": "2361405", "CVEGEO": "3014700050037054", "POBTOT": 68.0, "score_nse": 0.0, "NSE": "ND", "VIVTOT": 19.0, "GRAPROES": 5.17, "_ent": "30", "_mun": "147", "_loc": "0005"}, "geometry": {"type": "Polygon", "coordinates": [[[-97.18725, 18.72465], [-97.1873, 18.72493], [-97.18662, 18.72531], [-97.18665, 18.72589], [-97.18825, 18.72536], [-97.1885, 18.72564], [-97.18831, 18.72626], [-97.18683, 18.72713], [-97.18607, 18.72823], [-97.18588, 18.72877], [-97.185, 18.72879], [-97.18455, 18.72842], [-97.18427, 18.72843], [-97.18431, 18.72823], [-97.18402, 18.72796], [-97.18398, 18.72691], [-97.18411, 18.72663], [-97.18485, 18.72582], [-97.18562, 18.72552], [-97.18611, 18.72502], [-97.18725, 18.72465]]]}}, {"id": "2361409", "type": "Feature", "properties": {"id": "2361409", "CVEGEO": "3014700050037048", "POBTOT": 2.0, "score_nse": 0.0, "NSE": "ND", "VIVTOT": 1.0, "GRAPROES": 0.0, "_ent": "30", "_mun": "147", "_loc": "0005"}, "geometry": {"type": "Polygon", "coordinates": [[[-97.18937, 18.72187], [-97.1889, 18.72253], [-97.18773, 18.72301], [-97.1875, 18.72298], [-97.18779, 18.72284], [-97.1881, 18.72238], [-97.18874, 18.72224], [-97.18901, 18.72193], [-97.18937, 18.72187]]]}}, {"id": "2361410", "type": "Feature", "properties": {"id": "2361410", "CVEGEO": "3014700050037023", "POBTOT": 36.0, "score_nse": 0.0, "NSE": "ND", "VIVTOT": 8.0, "GRAPROES": 5.24, "_ent": "30", "_mun": "147", "_loc": "0005"}, "geometry": {"type": "Polygon", "coordinates": [[[-97.17844, 18.73041], [-97.17801, 18.73091], [-97.17775, 18.73179], [-97.17741, 18.73118], [-97.17751, 18.73028], [-97.17788, 18.72996], [-97.17834, 18.73024], [-97.17844, 18.73041]]]}}, {"id": "2361415", "type": "Feature", "properties": {"id": "2361415", "CVEGEO": "3014700050037042", "POBTOT": 14.0, "score_nse": 0.0, "NSE": "ND", "VIVTOT": 5.0, "GRAPROES": 5.58, "_ent": "30", "_mun": "147", "_loc": "0005"}, "geometry": {"type": "Polygon", "coordinates": [[[-97.19198, 18.71732], [-97.19175, 18.7178], [-97.19063, 18.71806], [-97.19084, 18.71778], [-97.19134, 18.7176], [-97.19119, 18.71678], [-97.1914, 18.71675], [-97.19198, 18.71732]]]}}, {"id": "2361416", "type": "Feature", "properties": {"id": "2361416", "CVEGEO": "3014700050037030", "POBTOT": 9.0, "score_nse": 0.0, "NSE": "ND", "VIVTOT": 2.0, "GRAPROES": 0.0, "_ent": "30", "_mun": "147", "_loc": "0005"}, "geometry": {"type": "Polygon", "coordinates": [[[-97.18055, 18.73299], [-97.18067, 18.73352], [-97.18037, 18.73355], [-97.18037, 18.73326], [-97.18055, 18.73299]]]}}, {"id": "2361417", "type": "Feature", "properties": {"id": "2361417", "CVEGEO": "3014700050037029", "POBTOT": 116.0, "score_nse": 0.0, "NSE": "ND", "VIVTOT": 27.0, "GRAPROES": 5.79, "_ent": "30", "_mun": "147", "_loc": "0005"}, "geometry": {"type": "Polygon", "coordinates": [[[-97.18135, 18.73183], [-97.18067, 18.73252], [-97.18024, 18.73345], [-97.1796, 18.73361], [-97.17928, 18.73392], [-97.17879, 18.73583], [-97.17857, 18.73519], [-97.17852, 18.73373], [-97.17875, 18.73322], [-97.17942, 18.73272], [-97.17936, 18.7323], [-97.17973, 18.73141], [-97.18043, 18.73178], [-97.18135, 18.73183]]]}}, {"id": "2361418", "type": "Feature", "properties": {"id": "2361418", "CVEGEO": "3014700050037031", "POBTOT": 8.0, "score_nse": 0.0, "NSE": "ND", "VIVTOT": 2.0, "GRAPROES": 0.0, "_ent": "30", "_mun": "147", "_loc": "0005"}, "geometry": {"type": "Polygon", "coordinates": [[[-97.18406, 18.72807], [-97.18424, 18.72839], [-97.18377, 18.72838], [-97.18401, 18.72825], [-97.18406, 18.72807]]]}}, {"id": "2361420", "type": "Feature", "properties": {"id": "2361420", "CVEGEO": "3014700050037017", "POBTOT": 0.0, "score_nse": 0.0, "NSE": "ND", "VIVTOT": 0.0, "GRAPROES": 0.0, "_ent": "30", "_mun": "147", "_loc": "0005"}, "geometry": {"type": "Polygon", "coordinates": [[[-97.17724, 18.7261], [-97.17676, 18.72648], [-97.17637, 18.72647], [-97.1759, 18.72719], [-97.17561, 18.72711], [-97.17562, 18.72671], [-97.17627, 18.72607], [-97.17671, 18.7259], [-97.17724, 18.7261]]]}}, {"id": "2361421", "type": "Feature", "properties": {"id": "2361421", "CVEGEO": "3014700050037010", "POBTOT": 53.0, "score_nse": 0.0, "NSE": "ND", "VIVTOT": 13.0, "GRAPROES": 3.67, "_ent": "30", "_mun": "147", "_loc": "0005"}, "geometry": {"type": "Polygon", "coordinates": [[[-97.19208, 18.71723], [-97.19249, 18.71749], [-97.19257, 18.71802], [-97.19213, 18.71864], [-97.1915, 18.71877], [-97.19109, 18.71943], [-97.19051, 18.71955], [-97.19, 18.71993], [-97.18917, 18.71988], [-97.18878, 18.72013], [-97.18808, 18.71976], [-97.18766, 18.7203], [-97.18732, 18.72031], [-97.18752, 18.71984], [-97.18777, 18.71984], [-97.18827, 18.71927], [-97.18818, 18.71893], [-97.18857, 18.71852], [-97.18924, 18.71859], [-97.18953, 18.71928], [-97.18966, 18.7194], [-97.1893, 18.71858], [-97.19013, 18.71872], [-97.19095, 18.71797], [-97.19182, 18.71782], [-97.19208, 18.71723]]]}}, {"id": "2361422", "type": "Feature", "properties": {"id": "2361422", "CVEGEO": "3014700050037005", "POBTOT": 74.0, "score_nse": 0.0, "NSE": "ND", "VIVTOT": 17.0, "GRAPROES": 3.6, "_ent": "30", "_mun": "147", "_loc": "0005"}, "geometry": {"type": "Polygon", "coordinates": [[[-97.17787, 18.72638], [-97.17778, 18.72651], [-97.17748, 18.72647], [-97.17726, 18.72651], [-97.17757, 18.72654], [-97.17701, 18.72689], [-97.17662, 18.72778], [-97.17689, 18.72869], [-97.17646, 18.72887], [-97.17618, 18.72953], [-97.1763, 18.73107], [-97.1762, 18.7315], [-97.17569, 18.73192], [-97.17488, 18.73188], [-97.17541, 18.72888], [-97.17596, 18.72762], [-97.17714, 18.72619], [-97.17739, 18.72612], [-97.17787, 18.72638]]]}}, {"id": "2361424", "type": "Feature", "properties": {"id": "2361424", "CVEGEO": "3014700050037061", "POBTOT": 11.0, "score_nse": 0.0, "NSE": "ND", "VIVTOT": 3.0, "GRAPROES": 0.0, "_ent": "30", "_mun": "147", "_loc": "0005"}, "geometry": {"type": "Polygon", "coordinates": [[[-97.1921, 18.71721], [-97.19228, 18.71696], [-97.19368, 18.71643], [-97.19299, 18.71678], [-97.1928, 18.71712], [-97.19289, 18.71795], [-97.1926, 18.71802], [-97.19253, 18.71749], [-97.1921, 18.71721]]]}}, {"id": "2361425", "type": "Feature", "properties": {"id": "2361425", "CVEGEO": "3014700050037059", "POBTOT": 13.0, "score_nse": 0.0, "NSE": "ND", "VIVTOT": 5.0, "GRAPROES": 3.33, "_ent": "30", "_mun": "147", "_loc": "0005"}, "geometry": {"type": "Polygon", "coordinates": [[[-97.17678, 18.72652], [-97.17595, 18.72761], [-97.17543, 18.72881], [-97.17553, 18.72831], [-97.17539, 18.72809], [-97.17554, 18.72798], [-97.17559, 18.72717], [-97.17592, 18.72723], [-97.17641, 18.72652], [-97.17678, 18.72652]]]}}, {"id": "2361426", "type": "Feature", "properties": {"id": "2361426", "CVEGEO": "3014700050037044", "POBTOT": 40.0, "score_nse": 0.0, "NSE": "ND", "VIVTOT": 12.0, "GRAPROES": 5.42, "_ent": "30", "_mun": "147", "_loc": "0005"}, "geometry": {"type": "Polygon", "coordinates": [[[-97.19445, 18.71707], [-97.19331, 18.71883], [-97.19315, 18.71896], [-97.19291, 18.71879], [-97.19291, 18.71797], [-97.19319, 18.7179], [-97.19332, 18.71757], [-97.19365, 18.71743], [-97.19369, 18.717], [-97.19398, 18.71661], [-97.19524, 18.71612], [-97.19563, 18.71614], [-97.19445, 18.71707]]]}}, {"id": "2361437", "type": "Feature", "properties": {"id": "2361437", "CVEGEO": "3014700050037025", "POBTOT": 55.0, "score_nse": 0.0, "NSE": "ND", "VIVTOT": 13.0, "GRAPROES": 5.1, "_ent": "30", "_mun": "147", "_loc": "0005"}, "geometry": {"type": "Polygon", "coordinates": [[[-97.18342, 18.72346], [-97.18273, 18.72472], [-97.18127, 18.72589], [-97.18011, 18.726], [-97.18025, 18.72531], [-97.18064, 18.72514], [-97.18055, 18.72473], [-97.18188, 18.72463], [-97.1821, 18.72434], [-97.18229, 18.72436], [-97.18238, 18.72403], [-97.18342, 18.72346]]]}}, {"id": "2361438", "type": "Feature", "properties": {"id": "2361438", "CVEGEO": "3014700050037015", "POBTOT": 193.0, "score_nse": 0.0, "NSE": "ND", "VIVTOT": 53.0, "GRAPROES": 3.31, "_ent": "30", "_mun": "147", "_loc": "0005"}, "geometry": {"type": "Polygon", "coordinates": [[[-97.18344, 18.72342], [-97.18331, 18.72306], [-97.18307, 18.72287], [-97.18206, 18.72315], [-97.18182, 18.72327], [-97.18145, 18.72365], [-97.18063, 18.72311], [-97.18117, 18.72363], [-97.18143, 18.72369], [-97.18187, 18.7233], [-97.18296, 18.72293], [-97.18329, 18.72311], [-97.18341, 18.72344], [-97.18235, 18.72399], [-97.18227, 18.72431], [-97.18206, 18.7243], [-97.18181, 18.72462], [-97.18053, 18.7247], [-97.1806, 18.72511], [-97.18013, 18.72542], [-97.17989, 18.72534], [-97.17988, 18.72561], [-97.17933, 18.72568], [-97.17862, 18.72545], [-97.17861, 18.72589], [-97.1782, 18.72629], [-97.17664, 18.72584], [-97.17609, 18.7261], [-97.17567, 18.72658], [-97.17544, 18.72658], [-97.17986, 18.72097], [-97.18504, 18.72261], [-97.1847, 18.7226], [-97.18419, 18.72303], [-97.18364, 18.7231], [-97.1837, 18.72336], [-97.18344, 18.72342]]]}}, {"id": "2361439", "type": "Feature", "properties": {"id": "2361439", "CVEGEO": "3014700050037002", "POBTOT": 436.0, "score_nse": 0.0, "NSE": "ND", "VIVTOT": 86.0, "GRAPROES": 5.15, "_ent": "30", "_mun": "147", "_loc": "0005"}, "geometry": {"type": "Polygon", "coordinates": [[[-97.19296, 18.71911], [-97.19256, 18.71965], [-97.19145, 18.72047], [-97.18926, 18.72168], [-97.18809, 18.72207], [-97.18714, 18.72291], [-97.18629, 18.72399], [-97.18541, 18.72459], [-97.18494, 18.72439], [-97.18445, 18.72443], [-97.18558, 18.72352], [-97.18698, 18.72127], [-97.18733, 18.72035], [-97.1877, 18.72035], [-97.18803, 18.71982], [-97.18871, 18.7202], [-97.18925, 18.71994], [-97.18955, 18.72007], [-97.19006, 18.71999], [-97.19046, 18.71965], [-97.19109, 18.71949], [-97.19156, 18.71879], [-97.19217, 18.71868], [-97.19239, 18.71828], [-97.19289, 18.71798], [-97.19296, 18.71911]]]}}, {"id": "2361448", "type": "Feature", "properties": {"id": "2361448", "CVEGEO": "3014700050037019", "POBTOT": 44.0, "score_nse": 0.0, "NSE": "ND", "VIVTOT": 9.0, "GRAPROES": 6.34, "_ent": "30", "_mun": "147", "_loc": "0005"}, "geometry": {"type": "Polygon", "coordinates": [[[-97.18433, 18.7245], [-97.18316, 18.72632], [-97.1825, 18.72635], [-97.18225, 18.7262], [-97.18199, 18.7258], [-97.18433, 18.7245]]]}}, {"id": "2361449", "type": "Feature", "properties": {"id": "2361449", "CVEGEO": "3014700050037018", "POBTOT": 23.0, "score_nse": 16.74, "NSE": "E", "VIVTOT": 5.0, "GRAPROES": 4.29, "_ent": "30", "_mun": "147", "_loc": "0005"}, "geometry": {"type": "Polygon", "coordinates": [[[-97.18424, 18.72452], [-97.18238, 18.72563], [-97.18131, 18.72599], [-97.18156, 18.72564], [-97.18272, 18.72478], [-97.18342, 18.7237], [-97.18375, 18.72444], [-97.18424, 18.72452]]]}}, {"id": "2361457", "type": "Feature", "properties": {"id": "2361457", "CVEGEO": "3014700050037032", "POBTOT": 22.0, "score_nse": 0.0, "NSE": "ND", "VIVTOT": 7.0, "GRAPROES": 5.8, "_ent": "30", "_mun": "147", "_loc": "0005"}, "geometry": {"type": "Polygon", "coordinates": [[[-97.18176, 18.72769], [-97.18312, 18.72639], [-97.18318, 18.7264], [-97.18285, 18.72701], [-97.18201, 18.72769], [-97.18176, 18.72769]]]}}, {"id": "2361458", "type": "Feature", "properties": {"id": "2361458", "CVEGEO": "3014700050037003", "POBTOT": 151.0, "score_nse": 0.0, "NSE": "ND", "VIVTOT": 40.0, "GRAPROES": 5.21, "_ent": "30", "_mun": "147", "_loc": "0005"}, "geometry": {"type": "Polygon", "coordinates": [[[-97.17972, 18.73108], [-97.17953, 18.73184], [-97.17928, 18.73222], [-97.17931, 18.73273], [-97.1787, 18.73312], [-97.17844, 18.73376], [-97.17869, 18.73637], [-97.17818, 18.73686], [-97.17816, 18.73791], [-97.17844, 18.7386], [-97.17797, 18.73916], [-97.17792, 18.73971], [-97.17688, 18.7377], [-97.17735, 18.73544], [-97.17688, 18.73383], [-97.17694, 18.73305], [-97.17808, 18.73179], [-97.17857, 18.7305], [-97.17885, 18.73072], [-97.17906, 18.73059], [-97.17972, 18.73108]]]}}, {"id": "2361459", "type": "Feature", "properties": {"id": "2361459", "CVEGEO": "3014700050037001", "POBTOT": 499.0, "score_nse": 0.0, "NSE": "ND", "VIVTOT": 124.0, "GRAPROES": 4.69, "_ent": "30", "_mun": "147", "_loc": "0005"}, "geometry": {"type": "Polygon", "coordinates": [[[-97.18438, 18.72842], [-97.185, 18.7288], [-97.18589, 18.72878], [-97.18646, 18.72762], [-97.18722, 18.72685], [-97.18918, 18.72601], [-97.18993, 18.72538], [-97.18998, 18.72516], [-97.1905, 18.72508], [-97.19084, 18.72483], [-97.19176, 18.72476], [-97.19122, 18.72469], [-97.18999, 18.72511], [-97.1899, 18.7246], [-97.18894, 18.72433], [-97.18857, 18.72449], [-97.18774, 18.72447], [-97.18611, 18.72496], [-97.18547, 18.72467], [-97.1874, 18.72305], [-97.18771, 18.72308], [-97.18942, 18.72239], [-97.19013, 18.72227], [-97.19014, 18.72234], [-97.19024, 18.72256], [-97.19047, 18.72283], [-97.19113, 18.72348], [-97.19028, 18.72256], [-97.19015, 18.72224], [-97.19033, 18.72215], [-97.19148, 18.72224], [-97.1916, 18.72214], [-97.19229, 18.72255], [-97.19259, 18.72221], [-97.19337, 18.72213], [-97.19373, 18.72181], [-97.19451, 18.72167], [-97.19459, 18.72149], [-97.1958, 18.72189], [-97.19672, 18.72353], [-97.19751, 18.72402], [-97.19802, 18.725], [-97.18118, 18.74355], [-97.18124, 18.74284], [-97.18113, 18.74174], [-97.18167, 18.74136], [-97.18144, 18.74091], [-97.1816, 18.74036], [-97.18157, 18.73918], [-97.18083, 18.73816], [-97.18104, 18.7387], [-97.18157, 18.73936], [-97.18138, 18.74085], [-97.18161, 18.74136], [-97.18109, 18.74171], [-97.18113, 18.74287], [-97.1805, 18.74113], [-97.17948, 18.73948], [-97.17932, 18.73845], [-97.17851, 18.73779], [-97.17827, 18.73716], [-97.1783, 18.73682], [-97.17878, 18.73663], [-97.17905, 18.73475], [-97.1794, 18.73386], [-97.1797, 18.73364], [-97.18071, 18.73355], [-97.18079, 18.73309], [-97.1806, 18.73294], [-97.1807, 18.73257], [-97.18138, 18.73191], [-97.18134, 18.73151], [-97.18165, 18.73127], [-97.18168, 18.73079], [-97.18196, 18.73032], [-97.18282, 18.72927], [-97.18352, 18.72877], [-97.18368, 18.72842], [-97.18438, 18.72842]]]}}, {"id": "2361478", "type": "Feature", "properties": {"id": "2361478", "CVEGEO": "3014700050037062", "POBTOT": 130.0, "score_nse": 23.3892, "NSE": "D", "VIVTOT": 23.0, "GRAPROES": 5.15, "_ent": "30", "_mun": "147", "_loc": "0005"}, "geometry": {"type": "Polygon", "coordinates": [[[-97.182, 18.72772], [-97.18123, 18.72852], [-97.18045, 18.73032], [-97.17984, 18.73066], [-97.17972, 18.73101], [-97.17908, 18.73053], [-97.17886, 18.73067], [-97.17859, 18.73045], [-97.18015, 18.72883], [-97.18176, 18.72772], [-97.182, 18.72772]]]}}, {"id": "2361492", "type": "Feature", "properties": {"id": "2361492", "CVEGEO": "3014700050037012", "POBTOT": 249.0, "score_nse": 0.0, "NSE": "ND", "VIVTOT": 64.0, "GRAPROES": 5.35, "_ent": "30", "_mun": "147", "_loc": "0005"}, "geometry": {"type": "Polygon", "coordinates": [[[-97.18084, 18.74249], [-97.17683, 18.74261], [-97.1766, 18.74174], [-97.17537, 18.74], [-97.17585, 18.73899], [-97.17611, 18.73975], [-97.17658, 18.73936], [-97.17613, 18.73968], [-97.17589, 18.73891], [-97.17623, 18.7379], [-97.17677, 18.73707], [-97.17694, 18.73809], [-97.1778, 18.73969], [-97.1782, 18.74005], [-97.17839, 18.74083], [-97.17835, 18.74166], [-97.17842, 18.74081], [-97.17824, 18.74004], [-97.178, 18.73975], [-97.17801, 18.73926], [-97.17846, 18.73879], [-97.17851, 18.73853], [-97.17908, 18.73859], [-97.17911, 18.73833], [-97.17938, 18.7395], [-97.17983, 18.74021], [-97.17908, 18.74047], [-97.17986, 18.74026], [-97.18049, 18.74135], [-97.18084, 18.74249]]]}}, {"id": "2361493", "type": "Feature", "properties": {"id": "2361493", "CVEGEO": "3014700050037051", "POBTOT": 55.0, "score_nse": 0.0, "NSE": "ND", "VIVTOT": 13.0, "GRAPROES": 7.03, "_ent": "30", "_mun": "147", "_loc": "0005"}, "geometry": {"type": "Polygon", "coordinates": [[[-97.19638, 18.71614], [-97.1948, 18.71775], [-97.19432, 18.71729], [-97.19516, 18.71662], [-97.19638, 18.71614]]]}}, {"id": "2361494", "type": "Feature", "properties": {"id": "2361494", "CVEGEO": "3014700050037063", "POBTOT": 0.0, "score_nse": 0.0, "NSE": null, "VIVTOT": 0.0, "GRAPROES": 0.0, "_ent": "30", "_mun": "147", "_loc": "0005"}, "geometry": {"type": "Polygon", "coordinates": [[[-97.19469, 18.71782], [-97.19393, 18.71841], [-97.19363, 18.71851], [-97.19431, 18.71731], [-97.19471, 18.71762], [-97.19469, 18.71782]]]}}, {"id": "2361515", "type": "Feature", "properties": {"id": "2361515", "CVEGEO": "3014700050037035", "POBTOT": 295.0, "score_nse": 25.5454, "NSE": "D", "VIVTOT": 72.0, "GRAPROES": 5.69, "_ent": "30", "_mun": "147", "_loc": "0005"}, "geometry": {"type": "Polygon", "coordinates": [[[-97.20004, 18.71467], [-97.19956, 18.71507], [-97.19807, 18.71568], [-97.19648, 18.71604], [-97.19569, 18.71607], [-97.19478, 18.71581], [-97.19459, 18.71602], [-97.19323, 18.71648], [-97.19272, 18.71685], [-97.19228, 18.71691], [-97.192, 18.71726], [-97.19142, 18.71669], [-97.19115, 18.71672], [-97.19113, 18.71612], [-97.19172, 18.71575], [-97.19201, 18.71588], [-97.19178, 18.71569], [-97.19185, 18.71557], [-97.19108, 18.71609], [-97.19084, 18.71596], [-97.19038, 18.71616], [-97.19037, 18.71577], [-97.19055, 18.71578], [-97.19052, 18.71592], [-97.19062, 18.71579], [-97.19047, 18.71567], [-97.18989, 18.7159], [-97.18995, 18.71561], [-97.19027, 18.71542], [-97.19001, 18.71547], [-97.18963, 18.71592], [-97.18929, 18.71555], [-97.18948, 18.71481], [-97.19559, 18.71375], [-97.19572, 18.71471], [-97.19611, 18.71503], [-97.19659, 18.71477], [-97.19703, 18.715], [-97.19821, 18.71498], [-97.19916, 18.71438], [-97.19961, 18.71449], [-97.2, 18.71435], [-97.20004, 18.71467]]]}}, {"id": "2361516", "type": "Feature", "properties": {"id": "2361516", "CVEGEO": "3014700050037064", "POBTOT": 0.0, "score_nse": 0.0, "NSE": null, "VIVTOT": 0.0, "GRAPROES": 0.0, "_ent": "30", "_mun": "147", "_loc": "0005"}, "geometry": {"type": "Polygon", "coordinates": [[[-97.19086, 18.716], [-97.19134, 18.71751], [-97.1907, 18.71783], [-97.19018, 18.71859], [-97.18861, 18.71849], [-97.18965, 18.71714], [-97.18965, 18.71605], [-97.18985, 18.71577], [-97.18994, 18.71602], [-97.1901, 18.71578], [-97.19034, 18.71577], [-97.19034, 18.71619], [-97.19086, 18.716]]]}}]}