{"type": "FeatureCollection", "features": [{"id": "1547689", "type": "Feature", "properties": {"id": "1547689", "CVEGEO": "2023400050011001", "POBTOT": 0.0, "score_nse": 0.0, "NSE": null, "VIVTOT": 0.0, "GRAPROES": 0.0, "_ent": "20", "_mun": "234", "_loc": "0005"}, "geometry": {"type": "Polygon", "coordinates": [[[-96.9271, 18.09878], [-96.92726, 18.09853], [-96.92758, 18.099], [-96.92731, 18.09963], [-96.92712, 18.09929], [-96.9271, 18.09878]]]}}, {"id": "1547743", "type": "Feature", "properties": {"id": "1547743", "CVEGEO": "2023400050011007", "POBTOT": 0.0, "score_nse": 0.0, "NSE": null, "VIVTOT": 0.0, "GRAPROES": 0.0, "_ent": "20", "_mun": "234", "_loc": "0005"}, "geometry": {"type": "Polygon", "coordinates": [[[-96.9265, 18.09768], [-96.92581, 18.09633], [-96.92622, 18.09617], [-96.92655, 18.09628], [-96.92665, 18.0968], [-96.92639, 18.09737], [-96.9265, 18.09768]]]}}, {"id": "1547748", "type": "Feature", "properties": {"id": "1547748", "CVEGEO": "2023400050011004", "POBTOT": 0.0, "score_nse": 0.0, "NSE": null, "VIVTOT": 0.0, "GRAPROES": 0.0, "_ent": "20", "_mun": "234", "_loc": "0005"}, "geometry": {"type": "Polygon", "coordinates": [[[-96.92694, 18.09764], [-96.92763, 18.09744], [-96.92808, 18.09755], [-96.92823, 18.0977], [-96.92828, 18.09824], [-96.92723, 18.09809], [-96.92731, 18.09778], [-96.92694, 18.09764]]]}}, {"id": "1547758", "type": "Feature", "properties": {"id": "1547758", "CVEGEO": "2023400050011005", "POBTOT": 0.0, "score_nse": 0.0, "NSE": null, "VIVTOT": 0.0, "GRAPROES": 0.0, "_ent": "20", "_mun": "234", "_loc": "0005"}, "geometry": {"type": "Polygon", "coordinates": [[[-96.92644, 18.09876], [-96.92573, 18.09792], [-96.92572, 18.09776], [-96.92622, 18.0977], [-96.92655, 18.0979], [-96.92694, 18.09896], [-96.92655, 18.09955], [-96.92669, 18.09929], [-96.92644, 18.09876]]]}}, {"id": "1547759", "type": "Feature", "properties": {"id": "1547759", "CVEGEO": "2023400050011002", "POBTOT": 0.0, "score_nse": 0.0, "NSE": null, "VIVTOT": 0.0, "GRAPROES": 0.0, "_ent": "20", "_mun": "234", "_loc": "0005"}, "geometry": {"type": "Polygon", "coordinates": [[[-96.92707, 18.09893], [-96.92667, 18.09819], [-96.92709, 18.0985], [-96.92707, 18.09893]]]}}, {"id": "1547770", "type": "Feature", "properties": {"id": "1547770", "CVEGEO": "2023400050011006", "POBTOT": 0.0, "score_nse": 0.0, "NSE": null, "VIVTOT": 0.0, "GRAPROES": 0.0, "_ent": "20", "_mun": "234", "_loc": "0005"}, "geometry": {"type": "Polygon", "coordinates": [[[-96.92644, 18.09735], [-96.92667, 18.09698], [-96.92718, 18.09688], [-96.92735, 18.09668], [-96.92723, 18.09709], [-96.92755, 18.09741], [-96.92678, 18.09758], [-96.92644, 18.09735]]]}}, {"id": "1547771", "type": "Feature", "properties": {"id": "1547771", "CVEGEO": "2023400050011015", "POBTOT": 0.0, "score_nse": 0.0, "NSE": null, "VIVTOT": 0.0, "GRAPROES": 0.0, "_ent": "20", "_mun": "234", "_loc": "0005"}, "geometry": {"type": "Polygon", "coordinates": [[[-96.9312, 18.09829], [-96.93101, 18.09878], [-96.9304, 18.09903], [-96.9302, 18.0984], [-96.92993, 18.09845], [-96.92942, 18.09803], [-96.9292, 18.09715], [-96.92882, 18.09646], [-96.92984, 18.09546], [-96.9298, 18.09506], [-96.93017, 18.09501], [-96.93037, 18.09477], [-96.93074, 18.09539], [-96.93032, 18.09616], [-96.93068, 18.09647], [-96.93057, 18.09705], [-96.931, 18.09747], [-96.9312, 18.09829]]]}}, {"id": "1547772", "type": "Feature", "properties": {"id": "1547772", "CVEGEO": "2023400050011003", "POBTOT": 0.0, "score_nse": 0.0, "NSE": null, "VIVTOT": 0.0, "GRAPROES": 0.0, "_ent": "20", "_mun": "234", "_loc": "0005"}, "geometry": {"type": "Polygon", "coordinates": [[[-96.92674, 18.09823], [-96.92655, 18.09748], [-96.92709, 18.09843], [-96.92674, 18.09823]]]}}, {"id": "1547773", "type": "Feature", "properties": {"id": "1547773", "CVEGEO": "2023400050011009", "POBTOT": 0.0, "score_nse": 0.0, "NSE": null, "VIVTOT": 0.0, "GRAPROES": 0.0, "_ent": "20", "_mun": "234", "_loc": "0005"}, "geometry": {"type": "Polygon", "coordinates": [[[-96.92631, 18.09769], [-96.9256, 18.0978], [-96.92545, 18.09722], [-96.92555, 18.09657], [-96.92488, 18.09619], [-96.9253, 18.09617], [-96.92577, 18.09637], [-96.92655, 18.09785], [-96.92631, 18.09769]]]}}, {"id": "1547774", "type": "Feature", "properties": {"id": "1547774", "CVEGEO": "2023400050011010", "POBTOT": 0.0, "score_nse": 0.0, "NSE": null, "VIVTOT": 0.0, "GRAPROES": 0.0, "_ent": "20", "_mun": "234", "_loc": "0005"}, "geometry": {"type": "Polygon", "coordinates": [[[-96.92735, 18.09665], [-96.92719, 18.09686], [-96.92669, 18.09696], [-96.92657, 18.09611], [-96.92656, 18.09625], [-96.92623, 18.09615], [-96.92596, 18.09634], [-96.92451, 18.09598], [-96.92419, 18.09604], [-96.9256, 18.09498], [-96.92613, 18.09489], [-96.92714, 18.09539], [-96.92735, 18.09665]]]}}, {"id": "1547775", "type": "Feature", "properties": {"id": "1547775", "CVEGEO": "2023400050011008", "POBTOT": 0.0, "score_nse": 0.0, "NSE": null, "VIVTOT": 0.0, "GRAPROES": 0.0, "_ent": "20", "_mun": "234", "_loc": "0005"}, "geometry": {"type": "Polygon", "coordinates": [[[-96.92823, 18.09758], [-96.92732, 18.09711], [-96.92742, 18.09645], [-96.92852, 18.09525], [-96.92859, 18.0955], [-96.92776, 18.09659], [-96.92788, 18.09687], [-96.92879, 18.09749], [-96.9292, 18.09817], [-96.92898, 18.09835], [-96.92843, 18.09833], [-96.92823, 18.09758]]]}}, {"id": "1547776", "type": "Feature", "properties": {"id": "1547776", "CVEGEO": "2023400050011022", "POBTOT": 0.0, "score_nse": 0.0, "NSE": null, "VIVTOT": 0.0, "GRAPROES": 0.0, "_ent": "20", "_mun": "234", "_loc": "0005"}, "geometry": {"type": "Polygon", "coordinates": [[[-96.9308, 18.09304], [-96.92997, 18.09328], [-96.92989, 18.09383], [-96.92841, 18.09362], [-96.92744, 18.09306], [-96.92697, 18.0931], [-96.92807, 18.09193], [-96.93013, 18.09238], [-96.9308, 18.09304]]]}}, {"id": "1547777", "type": "Feature", "properties": {"id": "1547777", "CVEGEO": "2023400050011016", "POBTOT": 0.0, "score_nse": 0.0, "NSE": null, "VIVTOT": 0.0, "GRAPROES": 0.0, "_ent": "20", "_mun": "234", "_loc": "0005"}, "geometry": {"type": "Polygon", "coordinates": [[[-96.93122, 18.09419], [-96.93063, 18.09378], [-96.92991, 18.09382], [-96.92999, 18.09332], [-96.93083, 18.09307], [-96.93121, 18.09359], [-96.93122, 18.09419]]]}}, {"id": "1547778", "type": "Feature", "properties": {"id": "1547778", "CVEGEO": "2023400050011019", "POBTOT": 0.0, "score_nse": 0.0, "NSE": null, "VIVTOT": 0.0, "GRAPROES": 0.0, "_ent": "20", "_mun": "234", "_loc": "0005"}, "geometry": {"type": "Polygon", "coordinates": [[[-96.92682, 18.09766], [-96.92725, 18.0978], [-96.92712, 18.09838], [-96.92695, 18.09809], [-96.92682, 18.09766]]]}}, {"id": "1547779", "type": "Feature", "properties": {"id": "1547779", "CVEGEO": "2023400050011013", "POBTOT": 0.0, "score_nse": 0.0, "NSE": null, "VIVTOT": 0.0, "GRAPROES": 0.0, "_ent": "20", "_mun": "234", "_loc": "0005"}, "geometry": {"type": "Polygon", "coordinates": [[[-96.93035, 18.09476], [-96.93013, 18.09501], [-96.92979, 18.09503], [-96.92929, 18.09446], [-96.92908, 18.09391], [-96.92956, 18.09394], [-96.93035, 18.09476]]]}}, {"id": "1547780", "type": "Feature", "properties": {"id": "1547780", "CVEGEO": "2023400050011017", "POBTOT": 0.0, "score_nse": 0.0, "NSE": null, "VIVTOT": 0.0, "GRAPROES": 0.0, "_ent": "20", "_mun": "234", "_loc": "0005"}, "geometry": {"type": "Polygon", "coordinates": [[[-96.93244, 18.0923], [-96.93187, 18.09287], [-96.9318, 18.09333], [-96.93151, 18.0935], [-96.93116, 18.09342], [-96.93077, 18.09297], [-96.93082, 18.09258], [-96.93149, 18.09262], [-96.93244, 18.0923]]]}}, {"id": "1547781", "type": "Feature", "properties": {"id": "1547781", "CVEGEO": "2023400050011014", "POBTOT": 0.0, "score_nse": 0.0, "NSE": null, "VIVTOT": 0.0, "GRAPROES": 0.0, "_ent": "20", "_mun": "234", "_loc": "0005"}, "geometry": {"type": "Polygon", "coordinates": [[[-96.93102, 18.09414], [-96.93038, 18.09473], [-96.92948, 18.09384], [-96.93064, 18.09383], [-96.93102, 18.09414]]]}}, {"id": "1547782", "type": "Feature", "properties": {"id": "1547782", "CVEGEO": "2023400050011021", "POBTOT": 0.0, "score_nse": 0.0, "NSE": null, "VIVTOT": 0.0, "GRAPROES": 0.0, "_ent": "20", "_mun": "234", "_loc": "0005"}, "geometry": {"type": "Polygon", "coordinates": [[[-96.92909, 18.09618], [-96.92877, 18.09643], [-96.92918, 18.09716], [-96.92941, 18.09805], [-96.92991, 18.09848], [-96.93019, 18.09844], [-96.93039, 18.09904], [-96.92981, 18.09909], [-96.92954, 18.09986], [-96.92929, 18.09999], [-96.92852, 18.09882], [-96.92849, 18.09844], [-96.92908, 18.09838], [-96.92924, 18.09804], [-96.92866, 18.0973], [-96.92789, 18.09681], [-96.92779, 18.09654], [-96.92864, 18.09553], [-96.92864, 18.09528], [-96.92912, 18.09543], [-96.92927, 18.09564], [-96.92909, 18.09618]]]}}, {"id": "1547783", "type": "Feature", "properties": {"id": "1547783", "CVEGEO": "2023400050011011", "POBTOT": 0.0, "score_nse": 0.0, "NSE": null, "VIVTOT": 0.0, "GRAPROES": 0.0, "_ent": "20", "_mun": "234", "_loc": "0005"}, "geometry": {"type": "Polygon", "coordinates": [[[-96.92985, 18.09522], [-96.92916, 18.09612], [-96.92926, 18.09553], [-96.92862, 18.0952], [-96.9286, 18.09431], [-96.92782, 18.0933], [-96.92821, 18.09359], [-96.92912, 18.09378], [-96.92904, 18.0941], [-96.92985, 18.09522]]]}}, {"id": "1547784", "type": "Feature", "properties": {"id": "1547784", "CVEGEO": "2023400050011012", "POBTOT": 0.0, "score_nse": 0.0, "NSE": null, "VIVTOT": 0.0, "GRAPROES": 0.0, "_ent": "20", "_mun": "234", "_loc": "0005"}, "geometry": {"type": "Polygon", "coordinates": [[[-96.9286, 18.09521], [-96.92797, 18.09568], [-96.92737, 18.09646], [-96.92725, 18.09551], [-96.92709, 18.09529], [-96.9261, 18.09483], [-96.92564, 18.09493], [-96.92599, 18.09406], [-96.92734, 18.09308], [-96.92776, 18.09328], [-96.92856, 18.09427], [-96.9286, 18.09521]]]}}, {"id": "1547785", "type": "Feature", "properties": {"id": "1547785", "CVEGEO": "2023400050011018", "POBTOT": 0.0, "score_nse": 0.0, "NSE": null, "VIVTOT": 0.0, "GRAPROES": 0.0, "_ent": "20", "_mun": "234", "_loc": "0005"}, "geometry": {"type": "Polygon", "coordinates": [[[-96.93243, 18.09225], [-96.93146, 18.09259], [-96.9308, 18.09256], [-96.93076, 18.09295], [-96.92953, 18.09189], [-96.93029, 18.09159], [-96.93123, 18.09184], [-96.93268, 18.09181], [-96.93243, 18.09225]]]}}, {"id": "1547786", "type": "Feature", "properties": {"id": "1547786", "CVEGEO": "2023400050011020", "POBTOT": 0.0, "score_nse": 0.0, "NSE": null, "VIVTOT": 0.0, "GRAPROES": 0.0, "_ent": "20", "_mun": "234", "_loc": "0005"}, "geometry": {"type": "Polygon", "coordinates": [[[-96.92832, 18.09828], [-96.92845, 18.09872], [-96.92827, 18.09939], [-96.92845, 18.09982], [-96.92751, 18.09992], [-96.92716, 18.10018], [-96.92764, 18.09902], [-96.92742, 18.09857], [-96.92717, 18.09842], [-96.92722, 18.09813], [-96.92832, 18.09828]]]}}]}