{"type": "FeatureCollection", "features": [{"id": "2386758", "type": "Feature", "properties": {"id": "2386758", "CVEGEO": "3018100040081007", "POBTOT": 0.0, "score_nse": 0.0, "NSE": null, "VIVTOT": 0.0, "GRAPROES": 0.0, "_ent": "30", "_mun": "181", "_loc": "0004"}, "geometry": {"type": "Polygon", "coordinates": [[[-96.08354, 18.79013], [-96.08365, 18.79024], [-96.08356, 18.79012], [-96.0837, 18.79001], [-96.0843, 18.79073], [-96.08357, 18.7913], [-96.08296, 18.79057], [-96.08354, 18.79013]]]}}, {"id": "2386759", "type": "Feature", "properties": {"id": "2386759", "CVEGEO": "3018100040081006", "POBTOT": 0.0, "score_nse": 0.0, "NSE": null, "VIVTOT": 0.0, "GRAPROES": 0.0, "_ent": "30", "_mun": "181", "_loc": "0004"}, "geometry": {"type": "Polygon", "coordinates": [[[-96.08448, 18.78943], [-96.08507, 18.79015], [-96.08434, 18.79069], [-96.08375, 18.78998], [-96.08448, 18.78943]]]}}, {"id": "2386760", "type": "Feature", "properties": {"id": "2386760", "CVEGEO": "3018100040081005", "POBTOT": 0.0, "score_nse": 0.0, "NSE": null, "VIVTOT": 0.0, "GRAPROES": 0.0, "_ent": "30", "_mun": "181", "_loc": "0004"}, "geometry": {"type": "Polygon", "coordinates": [[[-96.08527, 18.78884], [-96.08587, 18.78956], [-96.08512, 18.79012], [-96.08453, 18.7894], [-96.08527, 18.78884]]]}}, {"id": "2386761", "type": "Feature", "properties": {"id": "2386761", "CVEGEO": "3018100040081004", "POBTOT": 0.0, "score_nse": 0.0, "NSE": null, "VIVTOT": 0.0, "GRAPROES": 0.0, "_ent": "30", "_mun": "181", "_loc": "0004"}, "geometry": {"type": "Polygon", "coordinates": [[[-96.08637, 18.78803], [-96.0862, 18.7893], [-96.0859, 18.78953], [-96.08531, 18.78881], [-96.08637, 18.78803]]]}}, {"id": "2386762", "type": "Feature", "properties": {"id": "2386762", "CVEGEO": "3018100040081003", "POBTOT": 0.0, "score_nse": 0.0, "NSE": null, "VIVTOT": 0.0, "GRAPROES": 0.0, "_ent": "30", "_mun": "181", "_loc": "0004"}, "geometry": {"type": "Polygon", "coordinates": [[[-96.08643, 18.7875], [-96.0864, 18.78773], [-96.08473, 18.78898], [-96.08483, 18.78768], [-96.08643, 18.7875]]]}}, {"id": "2386763", "type": "Feature", "properties": {"id": "2386763", "CVEGEO": "3018100040081002", "POBTOT": 0.0, "score_nse": 0.0, "NSE": null, "VIVTOT": 0.0, "GRAPROES": 0.0, "_ent": "30", "_mun": "181", "_loc": "0004"}, "geometry": {"type": "Polygon", "coordinates": [[[-96.07566, 18.78722], [-96.07561, 18.78824], [-96.07527, 18.78823], [-96.07536, 18.78713], [-96.07566, 18.78722]]]}}, {"id": "2386941", "type": "Feature", "properties": {"id": "2386941", "CVEGEO": "3018100040081011", "POBTOT": 0.0, "score_nse": 0.0, "NSE": null, "VIVTOT": 0.0, "GRAPROES": 0.0, "_ent": "30", "_mun": "181", "_loc": "0004"}, "geometry": {"type": "Polygon", "coordinates": [[[-96.07354, 18.79771], [-96.07327, 18.79734], [-96.07436, 18.79661], [-96.07433, 18.79716], [-96.07354, 18.79771]]]}}, {"id": "2386942", "type": "Feature", "properties": {"id": "2386942", "CVEGEO": "3018100040081009", "POBTOT": 0.0, "score_nse": 0.0, "NSE": null, "VIVTOT": 0.0, "GRAPROES": 0.0, "_ent": "30", "_mun": "181", "_loc": "0004"}, "geometry": {"type": "Polygon", "coordinates": [[[-96.07392, 18.79821], [-96.07291, 18.79814], [-96.07353, 18.79777], [-96.07392, 18.79821]]]}}, {"id": "2386943", "type": "Feature", "properties": {"id": "2386943", "CVEGEO": "3018100040081008", "POBTOT": 0.0, "score_nse": 0.0, "NSE": null, "VIVTOT": 0.0, "GRAPROES": 0.0, "_ent": "30", "_mun": "181", "_loc": "0004"}, "geometry": {"type": "Polygon", "coordinates": [[[-96.07396, 18.79822], [-96.07357, 18.79774], [-96.07433, 18.79721], [-96.07424, 18.79825], [-96.07396, 18.79822]]]}}, {"id": "2386944", "type": "Feature", "properties": {"id": "2386944", "CVEGEO": "3018100040081010", "POBTOT": 0.0, "score_nse": 0.0, "NSE": null, "VIVTOT": 0.0, "GRAPROES": 0.0, "_ent": "30", "_mun": "181", "_loc": "0004"}, "geometry": {"type": "Polygon", "coordinates": [[[-96.07351, 18.79775], [-96.07287, 18.79814], [-96.07219, 18.79809], [-96.07324, 18.79738], [-96.07351, 18.79775]]]}}]}