{"type": "FeatureCollection", "features": [{"id": "1602702", "type": "Feature", "properties": {"id": "1602702", "CVEGEO": "2012500480110016", "POBTOT": 0.0, "score_nse": 0.0, "NSE": null, "VIVTOT": 0.0, "GRAPROES": 0.0, "_ent": "20", "_mun": "125", "_loc": "0048"}, "geometry": {"type": "Polygon", "coordinates": [[[-95.82484, 16.42656], [-95.82485, 16.42688], [-95.82464, 16.42705], [-95.82425, 16.42668], [-95.82462, 16.42638], [-95.82484, 16.42656]]]}}, {"id": "1602703", "type": "Feature", "properties": {"id": "1602703", "CVEGEO": "2012500480110017", "POBTOT": 0.0, "score_nse": 0.0, "NSE": null, "VIVTOT": 0.0, "GRAPROES": 0.0, "_ent": "20", "_mun": "125", "_loc": "0048"}, "geometry": {"type": "Polygon", "coordinates": [[[-95.82528, 16.43033], [-95.82467, 16.43011], [-95.82487, 16.42981], [-95.82544, 16.42957], [-95.82565, 16.42993], [-95.82528, 16.43033]]]}}, {"id": "1602704", "type": "Feature", "properties": {"id": "1602704", "CVEGEO": "2012500480110004", "POBTOT": 0.0, "score_nse": 0.0, "NSE": null, "VIVTOT": 0.0, "GRAPROES": 0.0, "_ent": "20", "_mun": "125", "_loc": "0048"}, "geometry": {"type": "Polygon", "coordinates": [[[-95.82425, 16.4276], [-95.82476, 16.42853], [-95.8254, 16.42872], [-95.82544, 16.42908], [-95.82481, 16.42904], [-95.82419, 16.42796], [-95.82387, 16.42793], [-95.82425, 16.4276]]]}}, {"id": "1602713", "type": "Feature", "properties": {"id": "1602713", "CVEGEO": "2012500480110010", "POBTOT": 0.0, "score_nse": 0.0, "NSE": null, "VIVTOT": 0.0, "GRAPROES": 0.0, "_ent": "20", "_mun": "125", "_loc": "0048"}, "geometry": {"type": "Polygon", "coordinates": [[[-95.82344, 16.42884], [-95.82385, 16.42795], [-95.8242, 16.428], [-95.82416, 16.4283], [-95.82344, 16.42884]]]}}, {"id": "1602745", "type": "Feature", "properties": {"id": "1602745", "CVEGEO": "2012500480110001", "POBTOT": 0.0, "score_nse": 0.0, "NSE": null, "VIVTOT": 0.0, "GRAPROES": 0.0, "_ent": "20", "_mun": "125", "_loc": "0048"}, "geometry": {"type": "Polygon", "coordinates": [[[-95.82424, 16.43003], [-95.82448, 16.42909], [-95.82513, 16.42917], [-95.8252, 16.42928], [-95.8245, 16.43039], [-95.82424, 16.43003]]]}}, {"id": "1602746", "type": "Feature", "properties": {"id": "1602746", "CVEGEO": "2012500480110002", "POBTOT": 0.0, "score_nse": 0.0, "NSE": null, "VIVTOT": 0.0, "GRAPROES": 0.0, "_ent": "20", "_mun": "125", "_loc": "0048"}, "geometry": {"type": "Polygon", "coordinates": [[[-95.82434, 16.42918], [-95.82422, 16.42966], [-95.82398, 16.42955], [-95.82423, 16.42909], [-95.82434, 16.42918]]]}}, {"id": "1602747", "type": "Feature", "properties": {"id": "1602747", "CVEGEO": "2012500480110015", "POBTOT": 0.0, "score_nse": 0.0, "NSE": null, "VIVTOT": 0.0, "GRAPROES": 0.0, "_ent": "20", "_mun": "125", "_loc": "0048"}, "geometry": {"type": "Polygon", "coordinates": [[[-95.82413, 16.42702], [-95.8242, 16.42674], [-95.82466, 16.42709], [-95.82461, 16.42733], [-95.82429, 16.42738], [-95.82413, 16.42702]]]}}, {"id": "1602748", "type": "Feature", "properties": {"id": "1602748", "CVEGEO": "2012500480110011", "POBTOT": 0.0, "score_nse": 0.0, "NSE": null, "VIVTOT": 0.0, "GRAPROES": 0.0, "_ent": "20", "_mun": "125", "_loc": "0048"}, "geometry": {"type": "Polygon", "coordinates": [[[-95.82436, 16.42748], [-95.8252, 16.42723], [-95.82585, 16.42759], [-95.82592, 16.42822], [-95.82538, 16.42862], [-95.82515, 16.42829], [-95.82532, 16.42862], [-95.82499, 16.42856], [-95.82462, 16.4282], [-95.82436, 16.42748]]]}}, {"id": "1602749", "type": "Feature", "properties": {"id": "1602749", "CVEGEO": "2012500480110012", "POBTOT": 0.0, "score_nse": 0.0, "NSE": null, "VIVTOT": 0.0, "GRAPROES": 0.0, "_ent": "20", "_mun": "125", "_loc": "0048"}, "geometry": {"type": "Polygon", "coordinates": [[[-95.82606, 16.42814], [-95.82601, 16.4289], [-95.82556, 16.42906], [-95.82544, 16.42869], [-95.82578, 16.42855], [-95.82606, 16.42814]]]}}, {"id": "1602750", "type": "Feature", "properties": {"id": "1602750", "CVEGEO": "2012500480110005", "POBTOT": 0.0, "score_nse": 0.0, "NSE": null, "VIVTOT": 0.0, "GRAPROES": 0.0, "_ent": "20", "_mun": "125", "_loc": "0048"}, "geometry": {"type": "Polygon", "coordinates": [[[-95.82501, 16.42967], [-95.82529, 16.42918], [-95.82593, 16.42907], [-95.82612, 16.42878], [-95.82567, 16.42988], [-95.8255, 16.42953], [-95.82501, 16.42967]]]}}, {"id": "1602751", "type": "Feature", "properties": {"id": "1602751", "CVEGEO": "2012500480110006", "POBTOT": 0.0, "score_nse": 0.0, "NSE": null, "VIVTOT": 0.0, "GRAPROES": 0.0, "_ent": "20", "_mun": "125", "_loc": "0048"}, "geometry": {"type": "Polygon", "coordinates": [[[-95.82453, 16.43037], [-95.82469, 16.43013], [-95.82489, 16.43032], [-95.82464, 16.4305], [-95.82453, 16.43037]]]}}, {"id": "1602752", "type": "Feature", "properties": {"id": "1602752", "CVEGEO": "2012500480110014", "POBTOT": 0.0, "score_nse": 0.0, "NSE": null, "VIVTOT": 0.0, "GRAPROES": 0.0, "_ent": "20", "_mun": "125", "_loc": "0048"}, "geometry": {"type": "Polygon", "coordinates": [[[-95.82489, 16.43117], [-95.82415, 16.43085], [-95.82375, 16.43083], [-95.82392, 16.43058], [-95.82386, 16.43038], [-95.82414, 16.43011], [-95.82472, 16.43064], [-95.82489, 16.43117]]]}}, {"id": "1602753", "type": "Feature", "properties": {"id": "1602753", "CVEGEO": "2012500480110007", "POBTOT": 0.0, "score_nse": 0.0, "NSE": null, "VIVTOT": 0.0, "GRAPROES": 0.0, "_ent": "20", "_mun": "125", "_loc": "0048"}, "geometry": {"type": "Polygon", "coordinates": [[[-95.82387, 16.43057], [-95.82355, 16.43047], [-95.82392, 16.42961], [-95.82421, 16.4297], [-95.82381, 16.43035], [-95.82387, 16.43057]]]}}, {"id": "1602754", "type": "Feature", "properties": {"id": "1602754", "CVEGEO": "2012500480110008", "POBTOT": 0.0, "score_nse": 0.0, "NSE": null, "VIVTOT": 0.0, "GRAPROES": 0.0, "_ent": "20", "_mun": "125", "_loc": "0048"}, "geometry": {"type": "Polygon", "coordinates": [[[-95.82307, 16.43013], [-95.82321, 16.42948], [-95.82344, 16.42939], [-95.82389, 16.42958], [-95.82348, 16.43049], [-95.82324, 16.43046], [-95.82307, 16.43013]]]}}, {"id": "1602755", "type": "Feature", "properties": {"id": "1602755", "CVEGEO": "2012500480110009", "POBTOT": 0.0, "score_nse": 0.0, "NSE": null, "VIVTOT": 0.0, "GRAPROES": 0.0, "_ent": "20", "_mun": "125", "_loc": "0048"}, "geometry": {"type": "Polygon", "coordinates": [[[-95.82347, 16.42936], [-95.82381, 16.42906], [-95.82418, 16.42905], [-95.82392, 16.42951], [-95.82347, 16.42936]]]}}, {"id": "1602756", "type": "Feature", "properties": {"id": "1602756", "CVEGEO": "2012500480110003", "POBTOT": 0.0, "score_nse": 0.0, "NSE": null, "VIVTOT": 0.0, "GRAPROES": 0.0, "_ent": "20", "_mun": "125", "_loc": "0048"}, "geometry": {"type": "Polygon", "coordinates": [[[-95.82332, 16.42903], [-95.82422, 16.42829], [-95.8247, 16.42903], [-95.82435, 16.42915], [-95.82415, 16.429], [-95.82372, 16.42904], [-95.82319, 16.42944], [-95.82332, 16.42903]]]}}]}