{"type": "FeatureCollection", "features": [{"id": "388402", "type": "Feature", "properties": {"id": "388402", "CVEGEO": "0805400370309001", "POBTOT": 0.0, "score_nse": 0.0, "NSE": null, "VIVTOT": 0.0, "GRAPROES": 0.0, "_ent": "08", "_mun": "054", "_loc": "0037"}, "geometry": {"type": "Polygon", "coordinates": [[[-106.77769, 29.07662], [-106.7705, 29.05912], [-106.77054, 29.05798], [-106.77182, 29.05809], [-106.77192, 29.05875], [-106.77233, 29.0586], [-106.77259, 29.05947], [-106.77223, 29.05961], [-106.77274, 29.06041], [-106.77308, 29.06169], [-106.77335, 29.06166], [-106.7736, 29.06203], [-106.77383, 29.06199], [-106.77399, 29.06238], [-106.77441, 29.06234], [-106.77481, 29.06304], [-106.77441, 29.0632], [-106.77428, 29.06304], [-106.77394, 29.06317], [-106.77387, 29.06342], [-106.77358, 29.06351], [-106.7742, 29.06397], [-106.77443, 29.06494], [-106.77471, 29.06492], [-106.77497, 29.06539], [-106.77578, 29.06514], [-106.77599, 29.0656], [-106.77561, 29.06574], [-106.77569, 29.06592], [-106.77525, 29.06606], [-106.77554, 29.06678], [-106.77519, 29.06687], [-106.77574, 29.0685], [-106.77594, 29.06846], [-106.77624, 29.06936], [-106.7761, 29.06943], [-106.77618, 29.06958], [-106.77665, 29.06945], [-106.777, 29.07005], [-106.77735, 29.0709], [-106.77721, 29.07095], [-106.77731, 29.07121], [-106.77706, 29.0713], [-106.77747, 29.07223], [-106.77801, 29.07213], [-106.77816, 29.07256], [-106.77832, 29.07254], [-106.77865, 29.07341], [-106.7779, 29.07359], [-106.77802, 29.07394], [-106.77884, 29.07369], [-106.77918, 29.07462], [-106.77954, 29.07456], [-106.7797, 29.07495], [-106.77922, 29.07513], [-106.77934, 29.07538], [-106.77957, 29.07534], [-106.77983, 29.07592], [-106.77769, 29.07662]]]}}]}