{"type": "FeatureCollection", "features": [{"id": "388577", "type": "Feature", "properties": {"id": "388577", "CVEGEO": "080540062039A001", "POBTOT": 0.0, "score_nse": 0.0, "NSE": null, "VIVTOT": 0.0, "GRAPROES": 0.0, "_ent": "08", "_mun": "054", "_loc": "0062"}, "geometry": {"type": "Polygon", "coordinates": [[[-106.48234, 28.52132], [-106.48205, 28.52168], [-106.48181, 28.52244], [-106.48166, 28.52241], [-106.48186, 28.52159], [-106.48211, 28.52122], [-106.48234, 28.52132]]]}}, {"id": "388578", "type": "Feature", "properties": {"id": "388578", "CVEGEO": "080540062039A002", "POBTOT": 0.0, "score_nse": 0.0, "NSE": null, "VIVTOT": 0.0, "GRAPROES": 0.0, "_ent": "08", "_mun": "054", "_loc": "0062"}, "geometry": {"type": "Polygon", "coordinates": [[[-106.48132, 28.52196], [-106.48175, 28.52101], [-106.48206, 28.5212], [-106.4816, 28.522], [-106.48165, 28.52249], [-106.48145, 28.5231], [-106.48132, 28.52196]]]}}, {"id": "388579", "type": "Feature", "properties": {"id": "388579", "CVEGEO": "080540062039A003", "POBTOT": 0.0, "score_nse": 0.0, "NSE": null, "VIVTOT": 0.0, "GRAPROES": 0.0, "_ent": "08", "_mun": "054", "_loc": "0062"}, "geometry": {"type": "Polygon", "coordinates": [[[-106.48282, 28.52067], [-106.48238, 28.52077], [-106.48212, 28.52113], [-106.48191, 28.52061], [-106.48282, 28.52067]]]}}, {"id": "388580", "type": "Feature", "properties": {"id": "388580", "CVEGEO": "080540062039A004", "POBTOT": 0.0, "score_nse": 0.0, "NSE": null, "VIVTOT": 0.0, "GRAPROES": 0.0, "_ent": "08", "_mun": "054", "_loc": "0062"}, "geometry": {"type": "Polygon", "coordinates": [[[-106.48304, 28.5207], [-106.48238, 28.52129], [-106.48215, 28.52117], [-106.48242, 28.52078], [-106.48304, 28.5207]]]}}]}