{"type": "FeatureCollection", "features": [{"id": "895074", "type": "Feature", "properties": {"id": "895074", "CVEGEO": "1308000030013011", "POBTOT": 0.0, "score_nse": 0.0, "NSE": null, "VIVTOT": 0.0, "GRAPROES": 0.0, "_ent": "13", "_mun": "080", "_loc": "0003"}, "geometry": {"type": "Polygon", "coordinates": [[[-98.38716, 20.90956], [-98.38741, 20.90988], [-98.3871, 20.91007], [-98.38687, 20.90976], [-98.38716, 20.90956]]]}}, {"id": "895081", "type": "Feature", "properties": {"id": "895081", "CVEGEO": "1308000030013004", "POBTOT": 0.0, "score_nse": 0.0, "NSE": null, "VIVTOT": 0.0, "GRAPROES": 0.0, "_ent": "13", "_mun": "080", "_loc": "0003"}, "geometry": {"type": "Polygon", "coordinates": [[[-98.38739, 20.9094], [-98.38708, 20.90949], [-98.38696, 20.90927], [-98.38734, 20.90922], [-98.38739, 20.9094]]]}}, {"id": "895082", "type": "Feature", "properties": {"id": "895082", "CVEGEO": "1308000030013005", "POBTOT": 0.0, "score_nse": 0.0, "NSE": null, "VIVTOT": 0.0, "GRAPROES": 0.0, "_ent": "13", "_mun": "080", "_loc": "0003"}, "geometry": {"type": "Polygon", "coordinates": [[[-98.38775, 20.91014], [-98.38725, 20.90953], [-98.38743, 20.90941], [-98.3874, 20.90922], [-98.38765, 20.9092], [-98.38848, 20.91009], [-98.38775, 20.91014]]]}}, {"id": "895083", "type": "Feature", "properties": {"id": "895083", "CVEGEO": "1308000030013002", "POBTOT": 0.0, "score_nse": 0.0, "NSE": null, "VIVTOT": 0.0, "GRAPROES": 0.0, "_ent": "13", "_mun": "080", "_loc": "0003"}, "geometry": {"type": "Polygon", "coordinates": [[[-98.38666, 20.90967], [-98.3872, 20.91025], [-98.38758, 20.91054], [-98.38636, 20.91031], [-98.38666, 20.90967]]]}}, {"id": "895084", "type": "Feature", "properties": {"id": "895084", "CVEGEO": "1308000030013003", "POBTOT": 0.0, "score_nse": 0.0, "NSE": null, "VIVTOT": 0.0, "GRAPROES": 0.0, "_ent": "13", "_mun": "080", "_loc": "0003"}, "geometry": {"type": "Polygon", "coordinates": [[[-98.38689, 20.90931], [-98.38701, 20.90955], [-98.38678, 20.90969], [-98.38663, 20.90959], [-98.38667, 20.90936], [-98.38689, 20.90931]]]}}, {"id": "895085", "type": "Feature", "properties": {"id": "895085", "CVEGEO": "1308000030013007", "POBTOT": 0.0, "score_nse": 0.0, "NSE": null, "VIVTOT": 0.0, "GRAPROES": 0.0, "_ent": "13", "_mun": "080", "_loc": "0003"}, "geometry": {"type": "Polygon", "coordinates": [[[-98.38667, 20.90933], [-98.38664, 20.90881], [-98.38669, 20.90879], [-98.38687, 20.90927], [-98.38667, 20.90933]]]}}, {"id": "895086", "type": "Feature", "properties": {"id": "895086", "CVEGEO": "1308000030013006", "POBTOT": 0.0, "score_nse": 0.0, "NSE": null, "VIVTOT": 0.0, "GRAPROES": 0.0, "_ent": "13", "_mun": "080", "_loc": "0003"}, "geometry": {"type": "Polygon", "coordinates": [[[-98.38768, 20.91071], [-98.38745, 20.91036], [-98.38766, 20.91021], [-98.38849, 20.91015], [-98.38823, 20.91066], [-98.38768, 20.91071]]]}}, {"id": "895097", "type": "Feature", "properties": {"id": "895097", "CVEGEO": "1308000030013010", "POBTOT": 0.0, "score_nse": 0.0, "NSE": null, "VIVTOT": 0.0, "GRAPROES": 0.0, "_ent": "13", "_mun": "080", "_loc": "0003"}, "geometry": {"type": "Polygon", "coordinates": [[[-98.38813, 20.91099], [-98.38856, 20.91024], [-98.38894, 20.91097], [-98.38813, 20.91099]]]}}, {"id": "895098", "type": "Feature", "properties": {"id": "895098", "CVEGEO": "1308000030013013", "POBTOT": 0.0, "score_nse": 0.0, "NSE": null, "VIVTOT": 0.0, "GRAPROES": 0.0, "_ent": "13", "_mun": "080", "_loc": "0003"}, "geometry": {"type": "Polygon", "coordinates": [[[-98.38599, 20.90764], [-98.38657, 20.90835], [-98.38659, 20.90887], [-98.38607, 20.90888], [-98.38585, 20.90767], [-98.38599, 20.90764]]]}}, {"id": "895099", "type": "Feature", "properties": {"id": "895099", "CVEGEO": "1308000030013014", "POBTOT": 0.0, "score_nse": 0.0, "NSE": null, "VIVTOT": 0.0, "GRAPROES": 0.0, "_ent": "13", "_mun": "080", "_loc": "0003"}, "geometry": {"type": "Polygon", "coordinates": [[[-98.38657, 20.90538], [-98.38767, 20.90526], [-98.38723, 20.90639], [-98.38698, 20.90654], [-98.38657, 20.90538]]]}}, {"id": "895232", "type": "Feature", "properties": {"id": "895232", "CVEGEO": "1308000030013008", "POBTOT": 0.0, "score_nse": 0.0, "NSE": null, "VIVTOT": 0.0, "GRAPROES": 0.0, "_ent": "13", "_mun": "080", "_loc": "0003"}, "geometry": {"type": "Polygon", "coordinates": [[[-98.38694, 20.90923], [-98.3866, 20.90797], [-98.38738, 20.90886], [-98.38768, 20.90888], [-98.38742, 20.90917], [-98.38694, 20.90923]]]}}, {"id": "895233", "type": "Feature", "properties": {"id": "895233", "CVEGEO": "1308000030013001", "POBTOT": 0.0, "score_nse": 0.0, "NSE": null, "VIVTOT": 0.0, "GRAPROES": 0.0, "_ent": "13", "_mun": "080", "_loc": "0003"}, "geometry": {"type": "Polygon", "coordinates": [[[-98.38744, 20.90994], [-98.38763, 20.91017], [-98.38742, 20.91033], [-98.38715, 20.91014], [-98.38744, 20.90994]]]}}, {"id": "895234", "type": "Feature", "properties": {"id": "895234", "CVEGEO": "1308000030013012", "POBTOT": 0.0, "score_nse": 0.0, "NSE": null, "VIVTOT": 0.0, "GRAPROES": 0.0, "_ent": "13", "_mun": "080", "_loc": "0003"}, "geometry": {"type": "Polygon", "coordinates": [[[-98.38818, 20.90892], [-98.38745, 20.90882], [-98.38675, 20.90808], [-98.38652, 20.90757], [-98.38664, 20.90669], [-98.38691, 20.9066], [-98.38772, 20.90839], [-98.38854, 20.90872], [-98.38945, 20.9096], [-98.3898, 20.91029], [-98.38975, 20.91073], [-98.38963, 20.9108], [-98.38927, 20.90997], [-98.38818, 20.90892]]]}}, {"id": "895235", "type": "Feature", "properties": {"id": "895235", "CVEGEO": "1308000030013016", "POBTOT": 0.0, "score_nse": 0.0, "NSE": null, "VIVTOT": 0.0, "GRAPROES": 0.0, "_ent": "13", "_mun": "080", "_loc": "0003"}, "geometry": {"type": "Polygon", "coordinates": [[[-98.38636, 20.91037], [-98.38758, 20.91059], [-98.38761, 20.91072], [-98.38702, 20.91079], [-98.38632, 20.91056], [-98.38636, 20.91037]]]}}, {"id": "895364", "type": "Feature", "properties": {"id": "895364", "CVEGEO": "1308000030013015", "POBTOT": 0.0, "score_nse": 0.0, "NSE": null, "VIVTOT": 0.0, "GRAPROES": 0.0, "_ent": "13", "_mun": "080", "_loc": "0003"}, "geometry": {"type": "Polygon", "coordinates": [[[-98.38608, 20.90765], [-98.38583, 20.90761], [-98.38579, 20.90736], [-98.38614, 20.9073], [-98.38623, 20.90612], [-98.38672, 20.90607], [-98.38687, 20.90654], [-98.38662, 20.90662], [-98.38652, 20.90697], [-98.38656, 20.90805], [-98.38639, 20.90809], [-98.38608, 20.90765]]]}}, {"id": "895380", "type": "Feature", "properties": {"id": "895380", "CVEGEO": "1308000030013017", "POBTOT": 0.0, "score_nse": 0.0, "NSE": null, "VIVTOT": 0.0, "GRAPROES": 0.0, "_ent": "13", "_mun": "080", "_loc": "0003"}, "geometry": {"type": "Polygon", "coordinates": [[[-98.38657, 20.90811], [-98.3866, 20.90832], [-98.38643, 20.90814], [-98.38657, 20.90811]]]}}, {"id": "895414", "type": "Feature", "properties": {"id": "895414", "CVEGEO": "1308000030013018", "POBTOT": 0.0, "score_nse": 0.0, "NSE": null, "VIVTOT": 0.0, "GRAPROES": 0.0, "_ent": "13", "_mun": "080", "_loc": "0003"}, "geometry": {"type": "Polygon", "coordinates": [[[-98.38636, 20.90599], [-98.38451, 20.90614], [-98.38439, 20.90578], [-98.3863, 20.90568], [-98.38636, 20.90599]]]}}, {"id": "895430", "type": "Feature", "properties": {"id": "895430", "CVEGEO": "1308000030013009", "POBTOT": 0.0, "score_nse": 0.0, "NSE": null, "VIVTOT": 0.0, "GRAPROES": 0.0, "_ent": "13", "_mun": "080", "_loc": "0003"}, "geometry": {"type": "Polygon", "coordinates": [[[-98.38959, 20.91081], [-98.38928, 20.91117], [-98.38901, 20.91104], [-98.38862, 20.91027], [-98.38878, 20.91019], [-98.38902, 20.91058], [-98.3888, 20.91016], [-98.3886, 20.91024], [-98.38829, 20.90966], [-98.38749, 20.90915], [-98.3877, 20.9089], [-98.3882, 20.90901], [-98.38913, 20.90993], [-98.38959, 20.91081]]]}}]}