{"type": "FeatureCollection", "features": [{"id": "1565517", "type": "Feature", "properties": {"id": "1565517", "CVEGEO": "2041000020010012", "POBTOT": 0.0, "score_nse": 0.0, "NSE": null, "VIVTOT": 0.0, "GRAPROES": 0.0, "_ent": "20", "_mun": "410", "_loc": "0002"}, "geometry": {"type": "Polygon", "coordinates": [[[-95.76541, 16.39978], [-95.76528, 16.40029], [-95.76505, 16.40024], [-95.76522, 16.39967], [-95.76541, 16.39978]]]}}, {"id": "1565518", "type": "Feature", "properties": {"id": "1565518", "CVEGEO": "2041000020010025", "POBTOT": 0.0, "score_nse": 0.0, "NSE": null, "VIVTOT": 0.0, "GRAPROES": 0.0, "_ent": "20", "_mun": "410", "_loc": "0002"}, "geometry": {"type": "Polygon", "coordinates": [[[-95.76371, 16.39887], [-95.76319, 16.39871], [-95.76283, 16.3984], [-95.76324, 16.39861], [-95.76371, 16.39887]]]}}, {"id": "1565519", "type": "Feature", "properties": {"id": "1565519", "CVEGEO": "2041000020010020", "POBTOT": 0.0, "score_nse": 0.0, "NSE": null, "VIVTOT": 0.0, "GRAPROES": 0.0, "_ent": "20", "_mun": "410", "_loc": "0002"}, "geometry": {"type": "Polygon", "coordinates": [[[-95.76232, 16.40124], [-95.76117, 16.40072], [-95.76158, 16.39986], [-95.76287, 16.40039], [-95.76232, 16.40124]]]}}, {"id": "1565521", "type": "Feature", "properties": {"id": "1565521", "CVEGEO": "2041000020010045", "POBTOT": 0.0, "score_nse": 0.0, "NSE": null, "VIVTOT": 0.0, "GRAPROES": 0.0, "_ent": "20", "_mun": "410", "_loc": "0002"}, "geometry": {"type": "Polygon", "coordinates": [[[-95.76462, 16.39987], [-95.7645, 16.39994], [-95.76466, 16.39965], [-95.76462, 16.39987]]]}}, {"id": "1565522", "type": "Feature", "properties": {"id": "1565522", "CVEGEO": "2041000020010019", "POBTOT": 0.0, "score_nse": 0.0, "NSE": null, "VIVTOT": 0.0, "GRAPROES": 0.0, "_ent": "20", "_mun": "410", "_loc": "0002"}, "geometry": {"type": "Polygon", "coordinates": [[[-95.76564, 16.40076], [-95.76528, 16.40063], [-95.76539, 16.40021], [-95.76575, 16.40031], [-95.76564, 16.40076]]]}}, {"id": "1565523", "type": "Feature", "properties": {"id": "1565523", "CVEGEO": "2041000020010017", "POBTOT": 0.0, "score_nse": 0.0, "NSE": null, "VIVTOT": 0.0, "GRAPROES": 0.0, "_ent": "20", "_mun": "410", "_loc": "0002"}, "geometry": {"type": "Polygon", "coordinates": [[[-95.76606, 16.39967], [-95.76536, 16.39965], [-95.76548, 16.39939], [-95.76584, 16.39945], [-95.76637, 16.39925], [-95.76606, 16.39967]]]}}, {"id": "1565524", "type": "Feature", "properties": {"id": "1565524", "CVEGEO": "2041000020010011", "POBTOT": 0.0, "score_nse": 0.0, "NSE": null, "VIVTOT": 0.0, "GRAPROES": 0.0, "_ent": "20", "_mun": "410", "_loc": "0002"}, "geometry": {"type": "Polygon", "coordinates": [[[-95.76532, 16.39963], [-95.76486, 16.39938], [-95.76504, 16.39912], [-95.76545, 16.3994], [-95.76532, 16.39963]]]}}, {"id": "1565525", "type": "Feature", "properties": {"id": "1565525", "CVEGEO": "2041000020010026", "POBTOT": 0.0, "score_nse": 0.0, "NSE": null, "VIVTOT": 0.0, "GRAPROES": 0.0, "_ent": "20", "_mun": "410", "_loc": "0002"}, "geometry": {"type": "Polygon", "coordinates": [[[-95.76407, 16.39896], [-95.76277, 16.39828], [-95.76292, 16.39743], [-95.76387, 16.39842], [-95.76414, 16.39882], [-95.76407, 16.39896]]]}}, {"id": "1565526", "type": "Feature", "properties": {"id": "1565526", "CVEGEO": "2041000020010004", "POBTOT": 0.0, "score_nse": 0.0, "NSE": null, "VIVTOT": 0.0, "GRAPROES": 0.0, "_ent": "20", "_mun": "410", "_loc": "0002"}, "geometry": {"type": "Polygon", "coordinates": [[[-95.76469, 16.39999], [-95.7648, 16.39944], [-95.76514, 16.39963], [-95.76502, 16.40006], [-95.76469, 16.39999]]]}}, {"id": "1565527", "type": "Feature", "properties": {"id": "1565527", "CVEGEO": "2041000020010001", "POBTOT": 0.0, "score_nse": 0.0, "NSE": null, "VIVTOT": 0.0, "GRAPROES": 0.0, "_ent": "20", "_mun": "410", "_loc": "0002"}, "geometry": {"type": "Polygon", "coordinates": [[[-95.76433, 16.40038], [-95.76449, 16.4], [-95.76464, 16.40004], [-95.76459, 16.40045], [-95.76433, 16.40038]]]}}, {"id": "1565528", "type": "Feature", "properties": {"id": "1565528", "CVEGEO": "2041000020010003", "POBTOT": 0.0, "score_nse": 0.0, "NSE": null, "VIVTOT": 0.0, "GRAPROES": 0.0, "_ent": "20", "_mun": "410", "_loc": "0002"}, "geometry": {"type": "Polygon", "coordinates": [[[-95.76476, 16.39941], [-95.76445, 16.39992], [-95.76388, 16.39976], [-95.76419, 16.39911], [-95.76476, 16.39941]]]}}, {"id": "1565529", "type": "Feature", "properties": {"id": "1565529", "CVEGEO": "2041000020010002", "POBTOT": 0.0, "score_nse": 0.0, "NSE": null, "VIVTOT": 0.0, "GRAPROES": 0.0, "_ent": "20", "_mun": "410", "_loc": "0002"}, "geometry": {"type": "Polygon", "coordinates": [[[-95.76371, 16.40015], [-95.76385, 16.39982], [-95.76443, 16.39999], [-95.76428, 16.40035], [-95.76371, 16.40015]]]}}, {"id": "1565530", "type": "Feature", "properties": {"id": "1565530", "CVEGEO": "2041000020010010", "POBTOT": 0.0, "score_nse": 0.0, "NSE": null, "VIVTOT": 0.0, "GRAPROES": 0.0, "_ent": "20", "_mun": "410", "_loc": "0002"}, "geometry": {"type": "Polygon", "coordinates": [[[-95.76351, 16.39938], [-95.76375, 16.39905], [-95.76359, 16.39889], [-95.76415, 16.3991], [-95.7639, 16.39958], [-95.76351, 16.39938]]]}}, {"id": "1565531", "type": "Feature", "properties": {"id": "1565531", "CVEGEO": "2041000020010024", "POBTOT": 0.0, "score_nse": 0.0, "NSE": null, "VIVTOT": 0.0, "GRAPROES": 0.0, "_ent": "20", "_mun": "410", "_loc": "0002"}, "geometry": {"type": "Polygon", "coordinates": [[[-95.763, 16.39911], [-95.76262, 16.39898], [-95.76283, 16.39851], [-95.76316, 16.39874], [-95.763, 16.39911]]]}}, {"id": "1565532", "type": "Feature", "properties": {"id": "1565532", "CVEGEO": "2041000020010016", "POBTOT": 0.0, "score_nse": 0.0, "NSE": null, "VIVTOT": 0.0, "GRAPROES": 0.0, "_ent": "20", "_mun": "410", "_loc": "0002"}, "geometry": {"type": "Polygon", "coordinates": [[[-95.76304, 16.39915], [-95.7632, 16.39876], [-95.76365, 16.39899], [-95.76347, 16.39935], [-95.76304, 16.39915]]]}}, {"id": "1565533", "type": "Feature", "properties": {"id": "1565533", "CVEGEO": "2041000020010009", "POBTOT": 0.0, "score_nse": 0.0, "NSE": null, "VIVTOT": 0.0, "GRAPROES": 0.0, "_ent": "20", "_mun": "410", "_loc": "0002"}, "geometry": {"type": "Polygon", "coordinates": [[[-95.76383, 16.39975], [-95.76344, 16.39957], [-95.76349, 16.39942], [-95.76388, 16.39962], [-95.76383, 16.39975]]]}}, {"id": "1565534", "type": "Feature", "properties": {"id": "1565534", "CVEGEO": "2041000020010015", "POBTOT": 0.0, "score_nse": 0.0, "NSE": null, "VIVTOT": 0.0, "GRAPROES": 0.0, "_ent": "20", "_mun": "410", "_loc": "0002"}, "geometry": {"type": "Polygon", "coordinates": [[[-95.76298, 16.39936], [-95.76303, 16.39918], [-95.76345, 16.39939], [-95.7634, 16.39955], [-95.76298, 16.39936]]]}}, {"id": "1565535", "type": "Feature", "properties": {"id": "1565535", "CVEGEO": "2041000020010023", "POBTOT": 0.0, "score_nse": 0.0, "NSE": null, "VIVTOT": 0.0, "GRAPROES": 0.0, "_ent": "20", "_mun": "410", "_loc": "0002"}, "geometry": {"type": "Polygon", "coordinates": [[[-95.7626, 16.39919], [-95.76262, 16.39902], [-95.76298, 16.39915], [-95.76293, 16.39934], [-95.7626, 16.39919]]]}}, {"id": "1565536", "type": "Feature", "properties": {"id": "1565536", "CVEGEO": "2041000020010008", "POBTOT": 0.0, "score_nse": 0.0, "NSE": null, "VIVTOT": 0.0, "GRAPROES": 0.0, "_ent": "20", "_mun": "410", "_loc": "0002"}, "geometry": {"type": "Polygon", "coordinates": [[[-95.76365, 16.40012], [-95.76319, 16.39994], [-95.76341, 16.39962], [-95.76379, 16.3998], [-95.76365, 16.40012]]]}}, {"id": "1565537", "type": "Feature", "properties": {"id": "1565537", "CVEGEO": "2041000020010014", "POBTOT": 0.0, "score_nse": 0.0, "NSE": null, "VIVTOT": 0.0, "GRAPROES": 0.0, "_ent": "20", "_mun": "410", "_loc": "0002"}, "geometry": {"type": "Polygon", "coordinates": [[[-95.76315, 16.39992], [-95.7628, 16.39976], [-95.76295, 16.39941], [-95.76337, 16.39961], [-95.76315, 16.39992]]]}}, {"id": "1565538", "type": "Feature", "properties": {"id": "1565538", "CVEGEO": "2041000020010022", "POBTOT": 0.0, "score_nse": 0.0, "NSE": null, "VIVTOT": 0.0, "GRAPROES": 0.0, "_ent": "20", "_mun": "410", "_loc": "0002"}, "geometry": {"type": "Polygon", "coordinates": [[[-95.76276, 16.39975], [-95.76245, 16.39965], [-95.76258, 16.39925], [-95.76291, 16.39939], [-95.76276, 16.39975]]]}}, {"id": "1565539", "type": "Feature", "properties": {"id": "1565539", "CVEGEO": "2041000020010021", "POBTOT": 0.0, "score_nse": 0.0, "NSE": null, "VIVTOT": 0.0, "GRAPROES": 0.0, "_ent": "20", "_mun": "410", "_loc": "0002"}, "geometry": {"type": "Polygon", "coordinates": [[[-95.76273, 16.39979], [-95.76255, 16.40016], [-95.76231, 16.40006], [-95.76244, 16.3997], [-95.76273, 16.39979]]]}}, {"id": "1565540", "type": "Feature", "properties": {"id": "1565540", "CVEGEO": "2041000020010013", "POBTOT": 0.0, "score_nse": 0.0, "NSE": null, "VIVTOT": 0.0, "GRAPROES": 0.0, "_ent": "20", "_mun": "410", "_loc": "0002"}, "geometry": {"type": "Polygon", "coordinates": [[[-95.76289, 16.40033], [-95.7626, 16.40019], [-95.76278, 16.39981], [-95.76312, 16.39997], [-95.76289, 16.40033]]]}}, {"id": "1565541", "type": "Feature", "properties": {"id": "1565541", "CVEGEO": "2041000020010035", "POBTOT": 0.0, "score_nse": 0.0, "NSE": null, "VIVTOT": 0.0, "GRAPROES": 0.0, "_ent": "20", "_mun": "410", "_loc": "0002"}, "geometry": {"type": "Polygon", "coordinates": [[[-95.76617, 16.40169], [-95.76586, 16.40146], [-95.76615, 16.40106], [-95.76645, 16.40121], [-95.76617, 16.40169]]]}}, {"id": "1565542", "type": "Feature", "properties": {"id": "1565542", "CVEGEO": "2041000020010042", "POBTOT": 0.0, "score_nse": 0.0, "NSE": null, "VIVTOT": 0.0, "GRAPROES": 0.0, "_ent": "20", "_mun": "410", "_loc": "0002"}, "geometry": {"type": "Polygon", "coordinates": [[[-95.76619, 16.40172], [-95.76655, 16.40128], [-95.76634, 16.4019], [-95.76619, 16.40172]]]}}, {"id": "1565543", "type": "Feature", "properties": {"id": "1565543", "CVEGEO": "2041000020010036", "POBTOT": 0.0, "score_nse": 0.0, "NSE": null, "VIVTOT": 0.0, "GRAPROES": 0.0, "_ent": "20", "_mun": "410", "_loc": "0002"}, "geometry": {"type": "Polygon", "coordinates": [[[-95.7659, 16.40202], [-95.7656, 16.40181], [-95.76584, 16.4015], [-95.76613, 16.40172], [-95.7659, 16.40202]]]}}, {"id": "1565544", "type": "Feature", "properties": {"id": "1565544", "CVEGEO": "2041000020010043", "POBTOT": 0.0, "score_nse": 0.0, "NSE": null, "VIVTOT": 0.0, "GRAPROES": 0.0, "_ent": "20", "_mun": "410", "_loc": "0002"}, "geometry": {"type": "Polygon", "coordinates": [[[-95.76617, 16.40175], [-95.76634, 16.40206], [-95.76628, 16.40229], [-95.76593, 16.40205], [-95.76617, 16.40175]]]}}, {"id": "1565545", "type": "Feature", "properties": {"id": "1565545", "CVEGEO": "2041000020010037", "POBTOT": 0.0, "score_nse": 0.0, "NSE": null, "VIVTOT": 0.0, "GRAPROES": 0.0, "_ent": "20", "_mun": "410", "_loc": "0002"}, "geometry": {"type": "Polygon", "coordinates": [[[-95.76564, 16.40237], [-95.76535, 16.40214], [-95.76557, 16.40186], [-95.76588, 16.40207], [-95.76564, 16.40237]]]}}, {"id": "1565546", "type": "Feature", "properties": {"id": "1565546", "CVEGEO": "2041000020010038", "POBTOT": 0.0, "score_nse": 0.0, "NSE": null, "VIVTOT": 0.0, "GRAPROES": 0.0, "_ent": "20", "_mun": "410", "_loc": "0002"}, "geometry": {"type": "Polygon", "coordinates": [[[-95.76531, 16.4022], [-95.7656, 16.40242], [-95.76532, 16.40275], [-95.76504, 16.40271], [-95.76492, 16.40245], [-95.76515, 16.40242], [-95.76531, 16.4022]]]}}, {"id": "1565547", "type": "Feature", "properties": {"id": "1565547", "CVEGEO": "2041000020010029", "POBTOT": 0.0, "score_nse": 0.0, "NSE": null, "VIVTOT": 0.0, "GRAPROES": 0.0, "_ent": "20", "_mun": "410", "_loc": "0002"}, "geometry": {"type": "Polygon", "coordinates": [[[-95.76483, 16.40239], [-95.76465, 16.40205], [-95.76525, 16.40069], [-95.76563, 16.40082], [-95.76544, 16.40121], [-95.76567, 16.40083], [-95.76609, 16.40104], [-95.76555, 16.40178], [-95.76536, 16.40172], [-95.76552, 16.40183], [-95.7653, 16.40212], [-95.76495, 16.40195], [-95.76529, 16.40215], [-95.76508, 16.40241], [-95.76483, 16.40239]]]}}, {"id": "1565548", "type": "Feature", "properties": {"id": "1565548", "CVEGEO": "2041000020010033", "POBTOT": 0.0, "score_nse": 0.0, "NSE": null, "VIVTOT": 0.0, "GRAPROES": 0.0, "_ent": "20", "_mun": "410", "_loc": "0002"}, "geometry": {"type": "Polygon", "coordinates": [[[-95.76758, 16.40017], [-95.76662, 16.40056], [-95.76581, 16.40027], [-95.76594, 16.39981], [-95.76699, 16.40017], [-95.76758, 16.40017]]]}}, {"id": "1565549", "type": "Feature", "properties": {"id": "1565549", "CVEGEO": "2041000020010032", "POBTOT": 0.0, "score_nse": 0.0, "NSE": null, "VIVTOT": 0.0, "GRAPROES": 0.0, "_ent": "20", "_mun": "410", "_loc": "0002"}, "geometry": {"type": "Polygon", "coordinates": [[[-95.76271, 16.39826], [-95.76182, 16.39798], [-95.76184, 16.39685], [-95.76282, 16.39725], [-95.76271, 16.39826]]]}}, {"id": "1565550", "type": "Feature", "properties": {"id": "1565550", "CVEGEO": "2041000020010031", "POBTOT": 0.0, "score_nse": 0.0, "NSE": null, "VIVTOT": 0.0, "GRAPROES": 0.0, "_ent": "20", "_mun": "410", "_loc": "0002"}, "geometry": {"type": "Polygon", "coordinates": [[[-95.76258, 16.39897], [-95.76225, 16.39881], [-95.76265, 16.39832], [-95.76279, 16.39848], [-95.76258, 16.39897]]]}}, {"id": "1565551", "type": "Feature", "properties": {"id": "1565551", "CVEGEO": "2041000020010030", "POBTOT": 0.0, "score_nse": 0.0, "NSE": null, "VIVTOT": 0.0, "GRAPROES": 0.0, "_ent": "20", "_mun": "410", "_loc": "0002"}, "geometry": {"type": "Polygon", "coordinates": [[[-95.76196, 16.39955], [-95.76217, 16.39907], [-95.76254, 16.39923], [-95.76242, 16.39964], [-95.76196, 16.39955]]]}}, {"id": "1565552", "type": "Feature", "properties": {"id": "1565552", "CVEGEO": "2041000020010040", "POBTOT": 0.0, "score_nse": 0.0, "NSE": null, "VIVTOT": 0.0, "GRAPROES": 0.0, "_ent": "20", "_mun": "410", "_loc": "0002"}, "geometry": {"type": "Polygon", "coordinates": [[[-95.76205, 16.39908], [-95.76151, 16.39873], [-95.76147, 16.39826], [-95.7626, 16.3983], [-95.7624, 16.3984], [-95.76205, 16.39908]]]}}, {"id": "1565553", "type": "Feature", "properties": {"id": "1565553", "CVEGEO": "2041000020010039", "POBTOT": 0.0, "score_nse": 0.0, "NSE": null, "VIVTOT": 0.0, "GRAPROES": 0.0, "_ent": "20", "_mun": "410", "_loc": "0002"}, "geometry": {"type": "Polygon", "coordinates": [[[-95.76191, 16.39937], [-95.76142, 16.39904], [-95.76141, 16.39863], [-95.76191, 16.39912], [-95.76211, 16.39912], [-95.76191, 16.39937]]]}}, {"id": "1565557", "type": "Feature", "properties": {"id": "1565557", "CVEGEO": "2041000020010044", "POBTOT": 0.0, "score_nse": 0.0, "NSE": null, "VIVTOT": 0.0, "GRAPROES": 0.0, "_ent": "20", "_mun": "410", "_loc": "0002"}, "geometry": {"type": "Polygon", "coordinates": [[[-95.76669, 16.40055], [-95.76758, 16.40021], [-95.76772, 16.40041], [-95.76814, 16.40037], [-95.76875, 16.4006], [-95.76669, 16.40055]]]}}, {"id": "1565558", "type": "Feature", "properties": {"id": "1565558", "CVEGEO": "2041000020010046", "POBTOT": 0.0, "score_nse": 0.0, "NSE": null, "VIVTOT": 0.0, "GRAPROES": 0.0, "_ent": "20", "_mun": "410", "_loc": "0002"}, "geometry": {"type": "Polygon", "coordinates": [[[-95.76255, 16.39918], [-95.76218, 16.39903], [-95.76224, 16.39883], [-95.76258, 16.39901], [-95.76255, 16.39918]]]}}, {"id": "1565576", "type": "Feature", "properties": {"id": "1565576", "CVEGEO": "2041000020010041", "POBTOT": 0.0, "score_nse": 0.0, "NSE": null, "VIVTOT": 0.0, "GRAPROES": 0.0, "_ent": "20", "_mun": "410", "_loc": "0002"}, "geometry": {"type": "Polygon", "coordinates": [[[-95.7673, 16.40063], [-95.7669, 16.40098], [-95.76664, 16.4013], [-95.76676, 16.40091], [-95.76667, 16.40064], [-95.7673, 16.40063]]]}}, {"id": "1565589", "type": "Feature", "properties": {"id": "1565589", "CVEGEO": "2041000020010034", "POBTOT": 0.0, "score_nse": 0.0, "NSE": null, "VIVTOT": 0.0, "GRAPROES": 0.0, "_ent": "20", "_mun": "410", "_loc": "0002"}, "geometry": {"type": "Polygon", "coordinates": [[[-95.76651, 16.40119], [-95.76608, 16.40097], [-95.76625, 16.40049], [-95.76662, 16.40062], [-95.76673, 16.40092], [-95.76651, 16.40119]]]}}, {"id": "1565590", "type": "Feature", "properties": {"id": "1565590", "CVEGEO": "2041000020010018", "POBTOT": 0.0, "score_nse": 0.0, "NSE": null, "VIVTOT": 0.0, "GRAPROES": 0.0, "_ent": "20", "_mun": "410", "_loc": "0002"}, "geometry": {"type": "Polygon", "coordinates": [[[-95.76539, 16.40016], [-95.76548, 16.3998], [-95.76588, 16.39983], [-95.76577, 16.40026], [-95.76539, 16.40016]]]}}, {"id": "1565591", "type": "Feature", "properties": {"id": "1565591", "CVEGEO": "2041000020010028", "POBTOT": 0.0, "score_nse": 0.0, "NSE": null, "VIVTOT": 0.0, "GRAPROES": 0.0, "_ent": "20", "_mun": "410", "_loc": "0002"}, "geometry": {"type": "Polygon", "coordinates": [[[-95.76604, 16.40095], [-95.76568, 16.40078], [-95.7658, 16.40032], [-95.76621, 16.40047], [-95.76604, 16.40095]]]}}, {"id": "1565592", "type": "Feature", "properties": {"id": "1565592", "CVEGEO": "2041000020010005", "POBTOT": 0.0, "score_nse": 0.0, "NSE": null, "VIVTOT": 0.0, "GRAPROES": 0.0, "_ent": "20", "_mun": "410", "_loc": "0002"}, "geometry": {"type": "Polygon", "coordinates": [[[-95.76522, 16.40061], [-95.76464, 16.40047], [-95.76468, 16.40005], [-95.76529, 16.40034], [-95.76522, 16.40061]]]}}, {"id": "1565593", "type": "Feature", "properties": {"id": "1565593", "CVEGEO": "2041000020010027", "POBTOT": 0.0, "score_nse": 0.0, "NSE": null, "VIVTOT": 0.0, "GRAPROES": 0.0, "_ent": "20", "_mun": "410", "_loc": "0002"}, "geometry": {"type": "Polygon", "coordinates": [[[-95.7641, 16.39898], [-95.76418, 16.3988], [-95.76388, 16.39837], [-95.76283, 16.39719], [-95.76245, 16.39703], [-95.76244, 16.39682], [-95.76283, 16.39678], [-95.76295, 16.39703], [-95.7633, 16.39702], [-95.76329, 16.39726], [-95.76381, 16.39779], [-95.76465, 16.39926], [-95.7641, 16.39898]]]}}]}