{"type": "FeatureCollection", "features": [{"id": "2337781", "type": "Feature", "properties": {"id": "2337781", "CVEGEO": "3012401640032005", "POBTOT": 0.0, "score_nse": 0.0, "NSE": null, "VIVTOT": 0.0, "GRAPROES": 0.0, "_ent": "30", "_mun": "124", "_loc": "0164"}, "geometry": {"type": "Polygon", "coordinates": [[[-97.30967, 20.61752], [-97.31016, 20.61738], [-97.31099, 20.61811], [-97.31033, 20.61871], [-97.31016, 20.61846], [-97.30902, 20.61829], [-97.30967, 20.61752]]]}}, {"id": "2337782", "type": "Feature", "properties": {"id": "2337782", "CVEGEO": "3012401640032003", "POBTOT": 0.0, "score_nse": 0.0, "NSE": null, "VIVTOT": 0.0, "GRAPROES": 0.0, "_ent": "30", "_mun": "124", "_loc": "0164"}, "geometry": {"type": "Polygon", "coordinates": [[[-97.31144, 20.61678], [-97.31062, 20.61678], [-97.31043, 20.61665], [-97.31044, 20.61646], [-97.31087, 20.61599], [-97.3111, 20.61603], [-97.31141, 20.61633], [-97.31144, 20.61678]]]}}, {"id": "2337783", "type": "Feature", "properties": {"id": "2337783", "CVEGEO": "3012401640032002", "POBTOT": 0.0, "score_nse": 0.0, "NSE": null, "VIVTOT": 0.0, "GRAPROES": 0.0, "_ent": "30", "_mun": "124", "_loc": "0164"}, "geometry": {"type": "Polygon", "coordinates": [[[-97.3108, 20.61597], [-97.31041, 20.61642], [-97.30916, 20.61595], [-97.30924, 20.61526], [-97.30892, 20.61469], [-97.30948, 20.61499], [-97.31017, 20.61574], [-97.3108, 20.61597]]]}}, {"id": "2337784", "type": "Feature", "properties": {"id": "2337784", "CVEGEO": "3012401640032001", "POBTOT": 0.0, "score_nse": 0.0, "NSE": null, "VIVTOT": 0.0, "GRAPROES": 0.0, "_ent": "30", "_mun": "124", "_loc": "0164"}, "geometry": {"type": "Polygon", "coordinates": [[[-97.31038, 20.61646], [-97.31036, 20.6169], [-97.31025, 20.6169], [-97.31009, 20.61734], [-97.30991, 20.61737], [-97.30929, 20.61685], [-97.30916, 20.61599], [-97.30967, 20.61607], [-97.30996, 20.61639], [-97.31038, 20.61646]]]}}, {"id": "2339253", "type": "Feature", "properties": {"id": "2339253", "CVEGEO": "3012401640032004", "POBTOT": 0.0, "score_nse": 0.0, "NSE": null, "VIVTOT": 0.0, "GRAPROES": 0.0, "_ent": "30", "_mun": "124", "_loc": "0164"}, "geometry": {"type": "Polygon", "coordinates": [[[-97.31123, 20.61793], [-97.31182, 20.618], [-97.31143, 20.61839], [-97.31107, 20.61807], [-97.31123, 20.61793]]]}}, {"id": "2339254", "type": "Feature", "properties": {"id": "2339254", "CVEGEO": "3012401640032006", "POBTOT": 0.0, "score_nse": 0.0, "NSE": null, "VIVTOT": 0.0, "GRAPROES": 0.0, "_ent": "30", "_mun": "124", "_loc": "0164"}, "geometry": {"type": "Polygon", "coordinates": [[[-97.31098, 20.61798], [-97.31017, 20.6173], [-97.31042, 20.61668], [-97.31074, 20.61683], [-97.31143, 20.61682], [-97.31124, 20.61788], [-97.31098, 20.61798]]]}}, {"id": "2339255", "type": "Feature", "properties": {"id": "2339255", "CVEGEO": "3012401640032007", "POBTOT": 0.0, "score_nse": 0.0, "NSE": null, "VIVTOT": 0.0, "GRAPROES": 0.0, "_ent": "30", "_mun": "124", "_loc": "0164"}, "geometry": {"type": "Polygon", "coordinates": [[[-97.31137, 20.61845], [-97.31105, 20.61875], [-97.31049, 20.6186], [-97.31102, 20.61812], [-97.31137, 20.61845]]]}}, {"id": "2339256", "type": "Feature", "properties": {"id": "2339256", "CVEGEO": "3012401640032008", "POBTOT": 0.0, "score_nse": 0.0, "NSE": null, "VIVTOT": 0.0, "GRAPROES": 0.0, "_ent": "30", "_mun": "124", "_loc": "0164"}, "geometry": {"type": "Polygon", "coordinates": [[[-97.31188, 20.6189], [-97.31109, 20.61877], [-97.3114, 20.61847], [-97.31188, 20.6189]]]}}, {"id": "2339257", "type": "Feature", "properties": {"id": "2339257", "CVEGEO": "3012401640032009", "POBTOT": 0.0, "score_nse": 0.0, "NSE": null, "VIVTOT": 0.0, "GRAPROES": 0.0, "_ent": "30", "_mun": "124", "_loc": "0164"}, "geometry": {"type": "Polygon", "coordinates": [[[-97.31221, 20.61892], [-97.31145, 20.61841], [-97.31185, 20.61802], [-97.31226, 20.61873], [-97.31221, 20.61892]]]}}]}