{"type": "FeatureCollection", "features": [{"id": "2337121", "type": "Feature", "properties": {"id": "2337121", "CVEGEO": "3012404910013002", "POBTOT": 0.0, "score_nse": 0.0, "NSE": null, "VIVTOT": 0.0, "GRAPROES": 0.0, "_ent": "30", "_mun": "124", "_loc": "0491"}, "geometry": {"type": "Polygon", "coordinates": [[[-97.35543, 20.61124], [-97.3536, 20.61097], [-97.35338, 20.61015], [-97.35425, 20.61034], [-97.35543, 20.61124]]]}}, {"id": "2338136", "type": "Feature", "properties": {"id": "2338136", "CVEGEO": "3012404910013001", "POBTOT": 0.0, "score_nse": 0.0, "NSE": null, "VIVTOT": 0.0, "GRAPROES": 0.0, "_ent": "30", "_mun": "124", "_loc": "0491"}, "geometry": {"type": "Polygon", "coordinates": [[[-97.35305, 20.61493], [-97.35275, 20.61604], [-97.35206, 20.61626], [-97.35242, 20.61491], [-97.35305, 20.61493]]]}}]}