{"type": "FeatureCollection", "features": [{"id": "2339892", "type": "Feature", "properties": {"id": "2339892", "CVEGEO": "3012405510117001", "POBTOT": 0.0, "score_nse": 0.0, "NSE": null, "VIVTOT": 0.0, "GRAPROES": 0.0, "_ent": "30", "_mun": "124", "_loc": "0551"}, "geometry": {"type": "Polygon", "coordinates": [[[-97.35256, 20.40484], [-97.35303, 20.40598], [-97.35295, 20.40643], [-97.35221, 20.40646], [-97.35224, 20.40493], [-97.35256, 20.40484]]]}}, {"id": "2339893", "type": "Feature", "properties": {"id": "2339893", "CVEGEO": "3012405510117002", "POBTOT": 0.0, "score_nse": 0.0, "NSE": null, "VIVTOT": 0.0, "GRAPROES": 0.0, "_ent": "30", "_mun": "124", "_loc": "0551"}, "geometry": {"type": "Polygon", "coordinates": [[[-97.35218, 20.40646], [-97.35159, 20.40641], [-97.35146, 20.40627], [-97.35144, 20.40528], [-97.35217, 20.4053], [-97.35218, 20.40646]]]}}, {"id": "2339894", "type": "Feature", "properties": {"id": "2339894", "CVEGEO": "3012405510117003", "POBTOT": 0.0, "score_nse": 0.0, "NSE": null, "VIVTOT": 0.0, "GRAPROES": 0.0, "_ent": "30", "_mun": "124", "_loc": "0551"}, "geometry": {"type": "Polygon", "coordinates": [[[-97.35142, 20.40523], [-97.35135, 20.40422], [-97.35214, 20.40419], [-97.35217, 20.40524], [-97.35142, 20.40523]]]}}, {"id": "2339895", "type": "Feature", "properties": {"id": "2339895", "CVEGEO": "3012405510117004", "POBTOT": 0.0, "score_nse": 0.0, "NSE": null, "VIVTOT": 0.0, "GRAPROES": 0.0, "_ent": "30", "_mun": "124", "_loc": "0551"}, "geometry": {"type": "Polygon", "coordinates": [[[-97.35362, 20.40392], [-97.35361, 20.40485], [-97.35222, 20.40487], [-97.35221, 20.40404], [-97.35362, 20.40392]]]}}, {"id": "2339896", "type": "Feature", "properties": {"id": "2339896", "CVEGEO": "3012405510117005", "POBTOT": 0.0, "score_nse": 0.0, "NSE": null, "VIVTOT": 0.0, "GRAPROES": 0.0, "_ent": "30", "_mun": "124", "_loc": "0551"}, "geometry": {"type": "Polygon", "coordinates": [[[-97.35521, 20.40427], [-97.35395, 20.40505], [-97.35366, 20.40487], [-97.35369, 20.40392], [-97.35454, 20.40386], [-97.35463, 20.40363], [-97.35521, 20.40427]]]}}, {"id": "2339897", "type": "Feature", "properties": {"id": "2339897", "CVEGEO": "3012405510117006", "POBTOT": 0.0, "score_nse": 0.0, "NSE": null, "VIVTOT": 0.0, "GRAPROES": 0.0, "_ent": "30", "_mun": "124", "_loc": "0551"}, "geometry": {"type": "Polygon", "coordinates": [[[-97.35651, 20.40544], [-97.35648, 20.40604], [-97.35618, 20.40544], [-97.35509, 20.40449], [-97.35528, 20.4043], [-97.35651, 20.40544]]]}}, {"id": "2339898", "type": "Feature", "properties": {"id": "2339898", "CVEGEO": "3012405510117007", "POBTOT": 0.0, "score_nse": 0.0, "NSE": null, "VIVTOT": 0.0, "GRAPROES": 0.0, "_ent": "30", "_mun": "124", "_loc": "0551"}, "geometry": {"type": "Polygon", "coordinates": [[[-97.35485, 20.40559], [-97.35564, 20.40684], [-97.35474, 20.40706], [-97.35417, 20.40635], [-97.3545, 20.406], [-97.35454, 20.40572], [-97.35485, 20.40559]]]}}, {"id": "2339899", "type": "Feature", "properties": {"id": "2339899", "CVEGEO": "3012405510117008", "POBTOT": 0.0, "score_nse": 0.0, "NSE": null, "VIVTOT": 0.0, "GRAPROES": 0.0, "_ent": "30", "_mun": "124", "_loc": "0551"}, "geometry": {"type": "Polygon", "coordinates": [[[-97.35465, 20.40709], [-97.35381, 20.40726], [-97.35343, 20.40661], [-97.35411, 20.40639], [-97.35465, 20.40709]]]}}, {"id": "2339900", "type": "Feature", "properties": {"id": "2339900", "CVEGEO": "3012405510117009", "POBTOT": 0.0, "score_nse": 0.0, "NSE": null, "VIVTOT": 0.0, "GRAPROES": 0.0, "_ent": "30", "_mun": "124", "_loc": "0551"}, "geometry": {"type": "Polygon", "coordinates": [[[-97.35223, 20.40742], [-97.35221, 20.40652], [-97.35297, 20.40648], [-97.353, 20.40735], [-97.35223, 20.40742]]]}}, {"id": "2339901", "type": "Feature", "properties": {"id": "2339901", "CVEGEO": "3012405510117010", "POBTOT": 0.0, "score_nse": 0.0, "NSE": null, "VIVTOT": 0.0, "GRAPROES": 0.0, "_ent": "30", "_mun": "124", "_loc": "0551"}, "geometry": {"type": "Polygon", "coordinates": [[[-97.35216, 20.40743], [-97.35151, 20.40747], [-97.35113, 20.40688], [-97.35142, 20.40748], [-97.35031, 20.40753], [-97.35018, 20.40652], [-97.35035, 20.40612], [-97.3513, 20.40621], [-97.35152, 20.40647], [-97.35217, 20.40654], [-97.35216, 20.40743]]]}}, {"id": "2339902", "type": "Feature", "properties": {"id": "2339902", "CVEGEO": "3012405510117011", "POBTOT": 0.0, "score_nse": 0.0, "NSE": null, "VIVTOT": 0.0, "GRAPROES": 0.0, "_ent": "30", "_mun": "124", "_loc": "0551"}, "geometry": {"type": "Polygon", "coordinates": [[[-97.35662, 20.39783], [-97.35724, 20.3985], [-97.35649, 20.39919], [-97.3565, 20.40029], [-97.35551, 20.40084], [-97.35613, 20.40237], [-97.35592, 20.40237], [-97.35556, 20.40285], [-97.35459, 20.40344], [-97.35453, 20.4038], [-97.35409, 20.40386], [-97.35403, 20.40355], [-97.35403, 20.40387], [-97.35376, 20.40388], [-97.35392, 20.40241], [-97.3541, 20.40212], [-97.35442, 20.40198], [-97.35404, 20.40207], [-97.35339, 20.40164], [-97.35409, 20.40088], [-97.3547, 20.40128], [-97.35559, 20.40037], [-97.35578, 20.40052], [-97.35562, 20.40033], [-97.35621, 20.39957], [-97.35636, 20.39958], [-97.35567, 20.39899], [-97.35662, 20.39783]]]}}, {"id": "2339903", "type": "Feature", "properties": {"id": "2339903", "CVEGEO": "3012405510117012", "POBTOT": 0.0, "score_nse": 0.0, "NSE": null, "VIVTOT": 0.0, "GRAPROES": 0.0, "_ent": "30", "_mun": "124", "_loc": "0551"}, "geometry": {"type": "Polygon", "coordinates": [[[-97.35643, 20.40614], [-97.35643, 20.40635], [-97.35571, 20.40682], [-97.35552, 20.4065], [-97.35643, 20.40614]]]}}, {"id": "2339904", "type": "Feature", "properties": {"id": "2339904", "CVEGEO": "3012405510117013", "POBTOT": 0.0, "score_nse": 0.0, "NSE": null, "VIVTOT": 0.0, "GRAPROES": 0.0, "_ent": "30", "_mun": "124", "_loc": "0551"}, "geometry": {"type": "Polygon", "coordinates": [[[-97.3548, 20.40715], [-97.35531, 20.40701], [-97.35588, 20.40687], [-97.35518, 20.4074], [-97.3548, 20.40715]]]}}, {"id": "2339905", "type": "Feature", "properties": {"id": "2339905", "CVEGEO": "3012405510117014", "POBTOT": 0.0, "score_nse": 0.0, "NSE": null, "VIVTOT": 0.0, "GRAPROES": 0.0, "_ent": "30", "_mun": "124", "_loc": "0551"}, "geometry": {"type": "Polygon", "coordinates": [[[-97.35512, 20.40745], [-97.3543, 20.40814], [-97.35372, 20.40736], [-97.35469, 20.40716], [-97.35512, 20.40745]]]}}, {"id": "2339906", "type": "Feature", "properties": {"id": "2339906", "CVEGEO": "3012405510117015", "POBTOT": 0.0, "score_nse": 0.0, "NSE": null, "VIVTOT": 0.0, "GRAPROES": 0.0, "_ent": "30", "_mun": "124", "_loc": "0551"}, "geometry": {"type": "Polygon", "coordinates": [[[-97.35343, 20.40774], [-97.35384, 20.40771], [-97.35414, 20.40807], [-97.35346, 20.40816], [-97.35343, 20.40774]]]}}, {"id": "2339907", "type": "Feature", "properties": {"id": "2339907", "CVEGEO": "3012405510117016", "POBTOT": 0.0, "score_nse": 0.0, "NSE": null, "VIVTOT": 0.0, "GRAPROES": 0.0, "_ent": "30", "_mun": "124", "_loc": "0551"}, "geometry": {"type": "Polygon", "coordinates": [[[-97.35319, 20.40776], [-97.35337, 20.40775], [-97.35341, 20.40817], [-97.35231, 20.40852], [-97.35176, 20.40754], [-97.35315, 20.40742], [-97.35319, 20.40776]]]}}, {"id": "2339908", "type": "Feature", "properties": {"id": "2339908", "CVEGEO": "3012405510117017", "POBTOT": 0.0, "score_nse": 0.0, "NSE": null, "VIVTOT": 0.0, "GRAPROES": 0.0, "_ent": "30", "_mun": "124", "_loc": "0551"}, "geometry": {"type": "Polygon", "coordinates": [[[-97.35232, 20.40978], [-97.35182, 20.41018], [-97.35173, 20.40901], [-97.35037, 20.40762], [-97.35094, 20.40759], [-97.35219, 20.40918], [-97.35233, 20.40947], [-97.35217, 20.40958], [-97.35232, 20.40978]]]}}, {"id": "2339909", "type": "Feature", "properties": {"id": "2339909", "CVEGEO": "3012405510117018", "POBTOT": 0.0, "score_nse": 0.0, "NSE": null, "VIVTOT": 0.0, "GRAPROES": 0.0, "_ent": "30", "_mun": "124", "_loc": "0551"}, "geometry": {"type": "Polygon", "coordinates": [[[-97.35382, 20.40767], [-97.35325, 20.40772], [-97.35322, 20.4074], [-97.35366, 20.40736], [-97.35382, 20.40767]]]}}, {"id": "2339910", "type": "Feature", "properties": {"id": "2339910", "CVEGEO": "3012405510117019", "POBTOT": 0.0, "score_nse": 0.0, "NSE": null, "VIVTOT": 0.0, "GRAPROES": 0.0, "_ent": "30", "_mun": "124", "_loc": "0551"}, "geometry": {"type": "Polygon", "coordinates": [[[-97.35227, 20.40856], [-97.35196, 20.40873], [-97.35115, 20.40758], [-97.35169, 20.40755], [-97.35227, 20.40856]]]}}, {"id": "2339911", "type": "Feature", "properties": {"id": "2339911", "CVEGEO": "3012405510117020", "POBTOT": 0.0, "score_nse": 0.0, "NSE": null, "VIVTOT": 0.0, "GRAPROES": 0.0, "_ent": "30", "_mun": "124", "_loc": "0551"}, "geometry": {"type": "Polygon", "coordinates": [[[-97.35525, 20.406], [-97.35617, 20.4055], [-97.35643, 20.40606], [-97.35566, 20.40639], [-97.35562, 20.40627], [-97.35551, 20.40646], [-97.35525, 20.406]]]}}, {"id": "2339912", "type": "Feature", "properties": {"id": "2339912", "CVEGEO": "3012405510117021", "POBTOT": 0.0, "score_nse": 0.0, "NSE": null, "VIVTOT": 0.0, "GRAPROES": 0.0, "_ent": "30", "_mun": "124", "_loc": "0551"}, "geometry": {"type": "Polygon", "coordinates": [[[-97.35427, 20.40817], [-97.35236, 20.40975], [-97.35225, 20.4096], [-97.35242, 20.40949], [-97.35225, 20.40925], [-97.35324, 20.40872], [-97.35263, 20.40899], [-97.35236, 20.40859], [-97.35298, 20.40828], [-97.35427, 20.40817]]]}}, {"id": "2339913", "type": "Feature", "properties": {"id": "2339913", "CVEGEO": "3012405510117022", "POBTOT": 0.0, "score_nse": 0.0, "NSE": null, "VIVTOT": 0.0, "GRAPROES": 0.0, "_ent": "30", "_mun": "124", "_loc": "0551"}, "geometry": {"type": "Polygon", "coordinates": [[[-97.35388, 20.40232], [-97.3539, 20.40303], [-97.3537, 20.40386], [-97.35223, 20.40398], [-97.35221, 20.40305], [-97.35304, 20.40209], [-97.35364, 20.40242], [-97.35308, 20.40203], [-97.35336, 20.40169], [-97.354, 20.40214], [-97.35388, 20.40232]]]}}, {"id": "2339914", "type": "Feature", "properties": {"id": "2339914", "CVEGEO": "3012405510117023", "POBTOT": 0.0, "score_nse": 0.0, "NSE": null, "VIVTOT": 0.0, "GRAPROES": 0.0, "_ent": "30", "_mun": "124", "_loc": "0551"}, "geometry": {"type": "Polygon", "coordinates": [[[-97.35214, 20.40413], [-97.35124, 20.40417], [-97.3514, 20.40616], [-97.35068, 20.40606], [-97.35111, 20.405], [-97.35115, 20.40422], [-97.35213, 20.40312], [-97.35214, 20.40413]]]}}, {"id": "2339915", "type": "Feature", "properties": {"id": "2339915", "CVEGEO": "3012405510117024", "POBTOT": 0.0, "score_nse": 0.0, "NSE": null, "VIVTOT": 0.0, "GRAPROES": 0.0, "_ent": "30", "_mun": "124", "_loc": "0551"}, "geometry": {"type": "Polygon", "coordinates": [[[-97.35264, 20.40482], [-97.35347, 20.40485], [-97.35389, 20.40508], [-97.35445, 20.40572], [-97.35434, 20.40613], [-97.35339, 20.40657], [-97.35264, 20.40482]]]}}, {"id": "2339916", "type": "Feature", "properties": {"id": "2339916", "CVEGEO": "3012405510117025", "POBTOT": 0.0, "score_nse": 0.0, "NSE": null, "VIVTOT": 0.0, "GRAPROES": 0.0, "_ent": "30", "_mun": "124", "_loc": "0551"}, "geometry": {"type": "Polygon", "coordinates": [[[-97.35304, 20.40735], [-97.35304, 20.4067], [-97.353, 20.40606], [-97.35373, 20.40728], [-97.35304, 20.40735]]]}}, {"id": "2339917", "type": "Feature", "properties": {"id": "2339917", "CVEGEO": "3012405510117026", "POBTOT": 0.0, "score_nse": 0.0, "NSE": null, "VIVTOT": 0.0, "GRAPROES": 0.0, "_ent": "30", "_mun": "124", "_loc": "0551"}, "geometry": {"type": "Polygon", "coordinates": [[[-97.3546, 20.40476], [-97.35565, 20.40577], [-97.35522, 20.40595], [-97.3549, 20.4055], [-97.35437, 20.40561], [-97.35403, 20.40506], [-97.3546, 20.40476]]]}}, {"id": "2339918", "type": "Feature", "properties": {"id": "2339918", "CVEGEO": "3012405510117027", "POBTOT": 0.0, "score_nse": 0.0, "NSE": null, "VIVTOT": 0.0, "GRAPROES": 0.0, "_ent": "30", "_mun": "124", "_loc": "0551"}, "geometry": {"type": "Polygon", "coordinates": [[[-97.35586, 20.40383], [-97.35526, 20.40422], [-97.35464, 20.4035], [-97.3553, 20.40304], [-97.35586, 20.40383]]]}}, {"id": "2339919", "type": "Feature", "properties": {"id": "2339919", "CVEGEO": "3012405510117028", "POBTOT": 0.0, "score_nse": 0.0, "NSE": null, "VIVTOT": 0.0, "GRAPROES": 0.0, "_ent": "30", "_mun": "124", "_loc": "0551"}, "geometry": {"type": "Polygon", "coordinates": [[[-97.35503, 20.40452], [-97.35541, 20.40485], [-97.35511, 20.4051], [-97.35465, 20.40472], [-97.35503, 20.40452]]]}}, {"id": "2339920", "type": "Feature", "properties": {"id": "2339920", "CVEGEO": "3012405510117029", "POBTOT": 0.0, "score_nse": 0.0, "NSE": null, "VIVTOT": 0.0, "GRAPROES": 0.0, "_ent": "30", "_mun": "124", "_loc": "0551"}, "geometry": {"type": "Polygon", "coordinates": [[[-97.35617, 20.39952], [-97.35552, 20.40032], [-97.35495, 20.39984], [-97.35562, 20.39904], [-97.35617, 20.39952]]]}}, {"id": "2339921", "type": "Feature", "properties": {"id": "2339921", "CVEGEO": "3012405510117030", "POBTOT": 0.0, "score_nse": 0.0, "NSE": null, "VIVTOT": 0.0, "GRAPROES": 0.0, "_ent": "30", "_mun": "124", "_loc": "0551"}, "geometry": {"type": "Polygon", "coordinates": [[[-97.35545, 20.40037], [-97.3547, 20.40118], [-97.35411, 20.40079], [-97.3549, 20.39989], [-97.35545, 20.40037]]]}}, {"id": "2339922", "type": "Feature", "properties": {"id": "2339922", "CVEGEO": "3012405510117031", "POBTOT": 0.0, "score_nse": 0.0, "NSE": null, "VIVTOT": 0.0, "GRAPROES": 0.0, "_ent": "30", "_mun": "124", "_loc": "0551"}, "geometry": {"type": "Polygon", "coordinates": [[[-97.35611, 20.40548], [-97.35578, 20.40568], [-97.35517, 20.40513], [-97.35544, 20.40489], [-97.35611, 20.40548]]]}}, {"id": "2339923", "type": "Feature", "properties": {"id": "2339923", "CVEGEO": "3012405510117032", "POBTOT": 0.0, "score_nse": 0.0, "NSE": null, "VIVTOT": 0.0, "GRAPROES": 0.0, "_ent": "30", "_mun": "124", "_loc": "0551"}, "geometry": {"type": "Polygon", "coordinates": [[[-97.3565, 20.40414], [-97.35581, 20.40464], [-97.35531, 20.40426], [-97.35651, 20.40351], [-97.3565, 20.40414]]]}}, {"id": "2339924", "type": "Feature", "properties": {"id": "2339924", "CVEGEO": "3012405510117033", "POBTOT": 0.0, "score_nse": 0.0, "NSE": null, "VIVTOT": 0.0, "GRAPROES": 0.0, "_ent": "30", "_mun": "124", "_loc": "0551"}, "geometry": {"type": "Polygon", "coordinates": [[[-97.35657, 20.40271], [-97.3565, 20.40342], [-97.35591, 20.40379], [-97.35536, 20.40302], [-97.35582, 20.40272], [-97.35597, 20.40244], [-97.35657, 20.40271]]]}}, {"id": "2339925", "type": "Feature", "properties": {"id": "2339925", "CVEGEO": "3012405510117034", "POBTOT": 0.0, "score_nse": 0.0, "NSE": null, "VIVTOT": 0.0, "GRAPROES": 0.0, "_ent": "30", "_mun": "124", "_loc": "0551"}, "geometry": {"type": "Polygon", "coordinates": [[[-97.35651, 20.40536], [-97.35585, 20.40467], [-97.35651, 20.40419], [-97.3565, 20.40493], [-97.35651, 20.40536]]]}}]}