{"type": "FeatureCollection", "features": [{"id": "2279458", "type": "Feature", "properties": {"id": "2279458", "CVEGEO": "3005800440016003", "POBTOT": 0.0, "score_nse": 0.0, "NSE": null, "VIVTOT": 0.0, "GRAPROES": 0.0, "_ent": "30", "_mun": "058", "_loc": "0044"}, "geometry": {"type": "Polygon", "coordinates": [[[-98.10108, 21.15302], [-98.10252, 21.153], [-98.10263, 21.15318], [-98.10165, 21.15395], [-98.10108, 21.15302]]]}}, {"id": "2280877", "type": "Feature", "properties": {"id": "2280877", "CVEGEO": "3005800440016001", "POBTOT": 0.0, "score_nse": 0.0, "NSE": null, "VIVTOT": 0.0, "GRAPROES": 0.0, "_ent": "30", "_mun": "058", "_loc": "0044"}, "geometry": {"type": "Polygon", "coordinates": [[[-98.10026, 21.155], [-98.0998, 21.15422], [-98.1005, 21.1539], [-98.10096, 21.15446], [-98.10026, 21.155]]]}}, {"id": "2281204", "type": "Feature", "properties": {"id": "2281204", "CVEGEO": "3005800440016004", "POBTOT": 0.0, "score_nse": 0.0, "NSE": null, "VIVTOT": 0.0, "GRAPROES": 0.0, "_ent": "30", "_mun": "058", "_loc": "0044"}, "geometry": {"type": "Polygon", "coordinates": [[[-98.10275, 21.15311], [-98.10279, 21.15251], [-98.10305, 21.15202], [-98.10334, 21.1527], [-98.10302, 21.15299], [-98.10275, 21.15311]]]}}, {"id": "2281211", "type": "Feature", "properties": {"id": "2281211", "CVEGEO": "3005800440016005", "POBTOT": 0.0, "score_nse": 0.0, "NSE": null, "VIVTOT": 0.0, "GRAPROES": 0.0, "_ent": "30", "_mun": "058", "_loc": "0044"}, "geometry": {"type": "Polygon", "coordinates": [[[-98.10039, 21.15389], [-98.10002, 21.15315], [-98.101, 21.15303], [-98.10158, 21.154], [-98.10101, 21.15442], [-98.10052, 21.15383], [-98.10039, 21.15389]]]}}, {"id": "2281213", "type": "Feature", "properties": {"id": "2281213", "CVEGEO": "3005800440016007", "POBTOT": 0.0, "score_nse": 0.0, "NSE": null, "VIVTOT": 0.0, "GRAPROES": 0.0, "_ent": "30", "_mun": "058", "_loc": "0044"}, "geometry": {"type": "Polygon", "coordinates": [[[-98.10299, 21.15193], [-98.10264, 21.15297], [-98.10239, 21.15295], [-98.10236, 21.1522], [-98.1023, 21.15292], [-98.10184, 21.15292], [-98.10178, 21.15231], [-98.10177, 21.15291], [-98.09858, 21.15338], [-98.09848, 21.1531], [-98.10104, 21.15261], [-98.10104, 21.15191], [-98.10299, 21.15193]]]}}, {"id": "2281224", "type": "Feature", "properties": {"id": "2281224", "CVEGEO": "3005800440016006", "POBTOT": 0.0, "score_nse": 0.0, "NSE": null, "VIVTOT": 0.0, "GRAPROES": 0.0, "_ent": "30", "_mun": "058", "_loc": "0044"}, "geometry": {"type": "Polygon", "coordinates": [[[-98.10034, 21.15391], [-98.09914, 21.15442], [-98.09971, 21.15424], [-98.10023, 21.15505], [-98.09934, 21.15553], [-98.09897, 21.15493], [-98.09927, 21.15555], [-98.09744, 21.15662], [-98.09732, 21.1561], [-98.09722, 21.15613], [-98.09734, 21.15668], [-98.09688, 21.15696], [-98.09632, 21.15586], [-98.09851, 21.15423], [-98.09784, 21.15317], [-98.09835, 21.15308], [-98.09869, 21.15401], [-98.09879, 21.15396], [-98.09859, 21.15344], [-98.09997, 21.15316], [-98.10008, 21.15339], [-98.09969, 21.15353], [-98.10011, 21.15344], [-98.10034, 21.15391]]]}}]}