{"type": "FeatureCollection", "features": [{"id": "2279657", "type": "Feature", "properties": {"id": "2279657", "CVEGEO": "3005801680105005", "POBTOT": 0.0, "score_nse": 0.0, "NSE": null, "VIVTOT": 0.0, "GRAPROES": 0.0, "_ent": "30", "_mun": "058", "_loc": "0168"}, "geometry": {"type": "Polygon", "coordinates": [[[-98.00253, 20.90751], [-98.00236, 20.90777], [-98.00211, 20.90772], [-98.00201, 20.90822], [-98.0015, 20.90811], [-98.00181, 20.90734], [-98.00253, 20.90751]]]}}, {"id": "2279760", "type": "Feature", "properties": {"id": "2279760", "CVEGEO": "3005801680105001", "POBTOT": 0.0, "score_nse": 0.0, "NSE": null, "VIVTOT": 0.0, "GRAPROES": 0.0, "_ent": "30", "_mun": "058", "_loc": "0168"}, "geometry": {"type": "Polygon", "coordinates": [[[-98.00065, 20.90744], [-98.00099, 20.90633], [-98.00229, 20.90653], [-98.00197, 20.90703], [-98.00138, 20.90672], [-98.00195, 20.90706], [-98.00157, 20.90761], [-98.00065, 20.90744]]]}}, {"id": "2280300", "type": "Feature", "properties": {"id": "2280300", "CVEGEO": "3005801680105003", "POBTOT": 0.0, "score_nse": 0.0, "NSE": null, "VIVTOT": 0.0, "GRAPROES": 0.0, "_ent": "30", "_mun": "058", "_loc": "0168"}, "geometry": {"type": "Polygon", "coordinates": [[[-98.00106, 20.90629], [-98.00124, 20.90609], [-98.00137, 20.90579], [-98.00136, 20.90634], [-98.00106, 20.90629]]]}}, {"id": "2280301", "type": "Feature", "properties": {"id": "2280301", "CVEGEO": "3005801680105002", "POBTOT": 0.0, "score_nse": 0.0, "NSE": null, "VIVTOT": 0.0, "GRAPROES": 0.0, "_ent": "30", "_mun": "058", "_loc": "0168"}, "geometry": {"type": "Polygon", "coordinates": [[[-98.00155, 20.90766], [-98.00137, 20.90859], [-98.00093, 20.90852], [-98.00102, 20.90802], [-98.00055, 20.90798], [-98.00065, 20.9075], [-98.00155, 20.90766]]]}}, {"id": "2281350", "type": "Feature", "properties": {"id": "2281350", "CVEGEO": "3005801680105004", "POBTOT": 0.0, "score_nse": 0.0, "NSE": null, "VIVTOT": 0.0, "GRAPROES": 0.0, "_ent": "30", "_mun": "058", "_loc": "0168"}, "geometry": {"type": "Polygon", "coordinates": [[[-98.00308, 20.90668], [-98.00397, 20.90685], [-98.00347, 20.9077], [-98.0026, 20.90749], [-98.00308, 20.90668]]]}}, {"id": "2281383", "type": "Feature", "properties": {"id": "2281383", "CVEGEO": "3005801680105006", "POBTOT": 0.0, "score_nse": 0.0, "NSE": null, "VIVTOT": 0.0, "GRAPROES": 0.0, "_ent": "30", "_mun": "058", "_loc": "0168"}, "geometry": {"type": "Polygon", "coordinates": [[[-98.00184, 20.90731], [-98.00236, 20.90654], [-98.00302, 20.90667], [-98.00255, 20.90748], [-98.00184, 20.90731]]]}}]}