{"type": "FeatureCollection", "features": [{"id": "2281272", "type": "Feature", "properties": {"id": "2281272", "CVEGEO": "3005801710020003", "POBTOT": 0.0, "score_nse": 0.0, "NSE": null, "VIVTOT": 0.0, "GRAPROES": 0.0, "_ent": "30", "_mun": "058", "_loc": "0171"}, "geometry": {"type": "Polygon", "coordinates": [[[-98.05019, 21.07256], [-98.04834, 21.07308], [-98.04828, 21.07275], [-98.05013, 21.07219], [-98.05019, 21.07256]]]}}, {"id": "2281273", "type": "Feature", "properties": {"id": "2281273", "CVEGEO": "3005801710020004", "POBTOT": 0.0, "score_nse": 0.0, "NSE": null, "VIVTOT": 0.0, "GRAPROES": 0.0, "_ent": "30", "_mun": "058", "_loc": "0171"}, "geometry": {"type": "Polygon", "coordinates": [[[-98.05026, 21.07292], [-98.04952, 21.07314], [-98.04947, 21.0728], [-98.0502, 21.0726], [-98.05026, 21.07292]]]}}, {"id": "2281274", "type": "Feature", "properties": {"id": "2281274", "CVEGEO": "3005801710020001", "POBTOT": 0.0, "score_nse": 0.0, "NSE": null, "VIVTOT": 0.0, "GRAPROES": 0.0, "_ent": "30", "_mun": "058", "_loc": "0171"}, "geometry": {"type": "Polygon", "coordinates": [[[-98.04955, 21.07348], [-98.04845, 21.07379], [-98.04839, 21.07346], [-98.0495, 21.07317], [-98.04955, 21.07348]]]}}, {"id": "2281275", "type": "Feature", "properties": {"id": "2281275", "CVEGEO": "3005801710020005", "POBTOT": 0.0, "score_nse": 0.0, "NSE": null, "VIVTOT": 0.0, "GRAPROES": 0.0, "_ent": "30", "_mun": "058", "_loc": "0171"}, "geometry": {"type": "Polygon", "coordinates": [[[-98.05034, 21.07328], [-98.04958, 21.07348], [-98.04952, 21.07316], [-98.05027, 21.07295], [-98.05034, 21.07328]]]}}, {"id": "2281276", "type": "Feature", "properties": {"id": "2281276", "CVEGEO": "3005801710020006", "POBTOT": 0.0, "score_nse": 0.0, "NSE": null, "VIVTOT": 0.0, "GRAPROES": 0.0, "_ent": "30", "_mun": "058", "_loc": "0171"}, "geometry": {"type": "Polygon", "coordinates": [[[-98.05047, 21.07369], [-98.04818, 21.07424], [-98.04827, 21.07387], [-98.05039, 21.07331], [-98.05047, 21.07369]]]}}, {"id": "2281278", "type": "Feature", "properties": {"id": "2281278", "CVEGEO": "3005801710020002", "POBTOT": 0.0, "score_nse": 0.0, "NSE": null, "VIVTOT": 0.0, "GRAPROES": 0.0, "_ent": "30", "_mun": "058", "_loc": "0171"}, "geometry": {"type": "Polygon", "coordinates": [[[-98.04949, 21.07314], [-98.04839, 21.07343], [-98.04834, 21.07311], [-98.04944, 21.07281], [-98.04949, 21.07314]]]}}]}