{"type": "FeatureCollection", "features": [{"id": "2279612", "type": "Feature", "properties": {"id": "2279612", "CVEGEO": "3005802970073004", "POBTOT": 0.0, "score_nse": 0.0, "NSE": null, "VIVTOT": 0.0, "GRAPROES": 0.0, "_ent": "30", "_mun": "058", "_loc": "0297"}, "geometry": {"type": "Polygon", "coordinates": [[[-98.03239, 20.97124], [-98.03373, 20.97082], [-98.03392, 20.97112], [-98.03368, 20.97123], [-98.03396, 20.97118], [-98.03434, 20.97171], [-98.03394, 20.97169], [-98.03407, 20.97185], [-98.03437, 20.97174], [-98.0346, 20.972], [-98.0325, 20.97246], [-98.03239, 20.97124]]]}}, {"id": "2279613", "type": "Feature", "properties": {"id": "2279613", "CVEGEO": "3005802970073003", "POBTOT": 0.0, "score_nse": 0.0, "NSE": null, "VIVTOT": 0.0, "GRAPROES": 0.0, "_ent": "30", "_mun": "058", "_loc": "0297"}, "geometry": {"type": "Polygon", "coordinates": [[[-98.03467, 20.97152], [-98.03443, 20.97161], [-98.03405, 20.97111], [-98.03456, 20.97073], [-98.03517, 20.9711], [-98.03502, 20.97125], [-98.03489, 20.97112], [-98.03498, 20.97175], [-98.03461, 20.97186], [-98.03447, 20.97165], [-98.03467, 20.97152]]]}}, {"id": "2279614", "type": "Feature", "properties": {"id": "2279614", "CVEGEO": "3005802970073002", "POBTOT": 0.0, "score_nse": 0.0, "NSE": null, "VIVTOT": 0.0, "GRAPROES": 0.0, "_ent": "30", "_mun": "058", "_loc": "0297"}, "geometry": {"type": "Polygon", "coordinates": [[[-98.03423, 20.97034], [-98.03453, 20.97071], [-98.03403, 20.97109], [-98.03367, 20.97046], [-98.03423, 20.97034]]]}}, {"id": "2279615", "type": "Feature", "properties": {"id": "2279615", "CVEGEO": "3005802970073001", "POBTOT": 0.0, "score_nse": 0.0, "NSE": null, "VIVTOT": 0.0, "GRAPROES": 0.0, "_ent": "30", "_mun": "058", "_loc": "0297"}, "geometry": {"type": "Polygon", "coordinates": [[[-98.03353, 20.97049], [-98.03372, 20.9708], [-98.03324, 20.97102], [-98.03238, 20.97122], [-98.0322, 20.97081], [-98.03353, 20.97049]]]}}, {"id": "2280709", "type": "Feature", "properties": {"id": "2280709", "CVEGEO": "3005802970073025", "POBTOT": 0.0, "score_nse": 0.0, "NSE": null, "VIVTOT": 0.0, "GRAPROES": 0.0, "_ent": "30", "_mun": "058", "_loc": "0297"}, "geometry": {"type": "Polygon", "coordinates": [[[-98.03103, 20.96998], [-98.03059, 20.96911], [-98.03106, 20.9689], [-98.03146, 20.9696], [-98.03176, 20.96956], [-98.03187, 20.96979], [-98.03103, 20.96998]]]}}, {"id": "2280710", "type": "Feature", "properties": {"id": "2280710", "CVEGEO": "3005802970073024", "POBTOT": 0.0, "score_nse": 0.0, "NSE": null, "VIVTOT": 0.0, "GRAPROES": 0.0, "_ent": "30", "_mun": "058", "_loc": "0297"}, "geometry": {"type": "Polygon", "coordinates": [[[-98.03501, 20.97175], [-98.03505, 20.97127], [-98.03536, 20.97107], [-98.03536, 20.97163], [-98.03501, 20.97175]]]}}, {"id": "2280711", "type": "Feature", "properties": {"id": "2280711", "CVEGEO": "3005802970073023", "POBTOT": 0.0, "score_nse": 0.0, "NSE": null, "VIVTOT": 0.0, "GRAPROES": 0.0, "_ent": "30", "_mun": "058", "_loc": "0297"}, "geometry": {"type": "Polygon", "coordinates": [[[-98.0329, 20.97057], [-98.03279, 20.97001], [-98.03294, 20.97012], [-98.03328, 20.97], [-98.0335, 20.97042], [-98.03314, 20.97049], [-98.03308, 20.97037], [-98.03312, 20.97049], [-98.0329, 20.97057]]]}}, {"id": "2280712", "type": "Feature", "properties": {"id": "2280712", "CVEGEO": "3005802970073009", "POBTOT": 0.0, "score_nse": 0.0, "NSE": null, "VIVTOT": 0.0, "GRAPROES": 0.0, "_ent": "30", "_mun": "058", "_loc": "0297"}, "geometry": {"type": "Polygon", "coordinates": [[[-98.03555, 20.97222], [-98.03543, 20.97148], [-98.03599, 20.97142], [-98.03596, 20.97224], [-98.03555, 20.97222]]]}}, {"id": "2280713", "type": "Feature", "properties": {"id": "2280713", "CVEGEO": "3005802970073008", "POBTOT": 0.0, "score_nse": 0.0, "NSE": null, "VIVTOT": 0.0, "GRAPROES": 0.0, "_ent": "30", "_mun": "058", "_loc": "0297"}, "geometry": {"type": "Polygon", "coordinates": [[[-98.03531, 20.97144], [-98.03538, 20.97108], [-98.03628, 20.97121], [-98.036, 20.97139], [-98.03553, 20.97143], [-98.03555, 20.97127], [-98.0355, 20.97143], [-98.03531, 20.97144]]]}}, {"id": "2280714", "type": "Feature", "properties": {"id": "2280714", "CVEGEO": "3005802970073007", "POBTOT": 0.0, "score_nse": 0.0, "NSE": null, "VIVTOT": 0.0, "GRAPROES": 0.0, "_ent": "30", "_mun": "058", "_loc": "0297"}, "geometry": {"type": "Polygon", "coordinates": [[[-98.03141, 20.97074], [-98.03105, 20.97], [-98.0314, 20.96991], [-98.03157, 20.97026], [-98.03142, 20.96991], [-98.0319, 20.9698], [-98.03178, 20.96956], [-98.03308, 20.9694], [-98.03328, 20.96999], [-98.03295, 20.9701], [-98.03276, 20.96998], [-98.03287, 20.97058], [-98.03259, 20.97068], [-98.03245, 20.97047], [-98.03257, 20.97069], [-98.0323, 20.97074], [-98.03201, 20.97024], [-98.03227, 20.97074], [-98.03141, 20.97074]]]}}, {"id": "2280715", "type": "Feature", "properties": {"id": "2280715", "CVEGEO": "3005802970073006", "POBTOT": 0.0, "score_nse": 0.0, "NSE": null, "VIVTOT": 0.0, "GRAPROES": 0.0, "_ent": "30", "_mun": "058", "_loc": "0297"}, "geometry": {"type": "Polygon", "coordinates": [[[-98.03144, 20.97078], [-98.03215, 20.97082], [-98.03244, 20.97153], [-98.03189, 20.97166], [-98.03144, 20.97078]]]}}, {"id": "2281013", "type": "Feature", "properties": {"id": "2281013", "CVEGEO": "3005802970073014", "POBTOT": 0.0, "score_nse": 0.0, "NSE": null, "VIVTOT": 0.0, "GRAPROES": 0.0, "_ent": "30", "_mun": "058", "_loc": "0297"}, "geometry": {"type": "Polygon", "coordinates": [[[-98.03113, 20.96897], [-98.0313, 20.96796], [-98.03211, 20.96783], [-98.03226, 20.96817], [-98.03192, 20.96817], [-98.03186, 20.96884], [-98.03224, 20.96892], [-98.03239, 20.96944], [-98.03149, 20.96955], [-98.03113, 20.96897]]]}}, {"id": "2281111", "type": "Feature", "properties": {"id": "2281111", "CVEGEO": "3005802970073022", "POBTOT": 0.0, "score_nse": 0.0, "NSE": null, "VIVTOT": 0.0, "GRAPROES": 0.0, "_ent": "30", "_mun": "058", "_loc": "0297"}, "geometry": {"type": "Polygon", "coordinates": [[[-98.03237, 20.96694], [-98.03247, 20.96698], [-98.03259, 20.9678], [-98.03226, 20.96757], [-98.03237, 20.96694]]]}}, {"id": "2281112", "type": "Feature", "properties": {"id": "2281112", "CVEGEO": "3005802970073021", "POBTOT": 0.0, "score_nse": 0.0, "NSE": null, "VIVTOT": 0.0, "GRAPROES": 0.0, "_ent": "30", "_mun": "058", "_loc": "0297"}, "geometry": {"type": "Polygon", "coordinates": [[[-98.03147, 20.96721], [-98.03212, 20.96752], [-98.03211, 20.96779], [-98.03131, 20.96792], [-98.03147, 20.96721]]]}}, {"id": "2281113", "type": "Feature", "properties": {"id": "2281113", "CVEGEO": "3005802970073020", "POBTOT": 0.0, "score_nse": 0.0, "NSE": null, "VIVTOT": 0.0, "GRAPROES": 0.0, "_ent": "30", "_mun": "058", "_loc": "0297"}, "geometry": {"type": "Polygon", "coordinates": [[[-98.03214, 20.96744], [-98.03155, 20.9672], [-98.03167, 20.96672], [-98.03225, 20.96694], [-98.03214, 20.96744]]]}}, {"id": "2281114", "type": "Feature", "properties": {"id": "2281114", "CVEGEO": "3005802970073019", "POBTOT": 0.0, "score_nse": 0.0, "NSE": null, "VIVTOT": 0.0, "GRAPROES": 0.0, "_ent": "30", "_mun": "058", "_loc": "0297"}, "geometry": {"type": "Polygon", "coordinates": [[[-98.03058, 20.96811], [-98.02966, 20.96625], [-98.03003, 20.96609], [-98.03034, 20.9662], [-98.03028, 20.96651], [-98.03037, 20.96624], [-98.03164, 20.96672], [-98.03151, 20.96718], [-98.0306, 20.96672], [-98.03115, 20.96704], [-98.0309, 20.96722], [-98.03087, 20.96714], [-98.03063, 20.96731], [-98.03084, 20.96718], [-98.03089, 20.96728], [-98.03119, 20.96705], [-98.03144, 20.96719], [-98.03127, 20.96793], [-98.03058, 20.96811]]]}}, {"id": "2281115", "type": "Feature", "properties": {"id": "2281115", "CVEGEO": "3005802970073018", "POBTOT": 0.0, "score_nse": 0.0, "NSE": null, "VIVTOT": 0.0, "GRAPROES": 0.0, "_ent": "30", "_mun": "058", "_loc": "0297"}, "geometry": {"type": "Polygon", "coordinates": [[[-98.03699, 20.97354], [-98.03568, 20.97369], [-98.03555, 20.97327], [-98.03663, 20.97313], [-98.03699, 20.97354]]]}}, {"id": "2281116", "type": "Feature", "properties": {"id": "2281116", "CVEGEO": "3005802970073017", "POBTOT": 0.0, "score_nse": 0.0, "NSE": null, "VIVTOT": 0.0, "GRAPROES": 0.0, "_ent": "30", "_mun": "058", "_loc": "0297"}, "geometry": {"type": "Polygon", "coordinates": [[[-98.03541, 20.97284], [-98.0351, 20.97248], [-98.03537, 20.9724], [-98.03534, 20.97223], [-98.03595, 20.97226], [-98.03578, 20.97253], [-98.0358, 20.97319], [-98.03551, 20.97325], [-98.03541, 20.97284]]]}}, {"id": "2281117", "type": "Feature", "properties": {"id": "2281117", "CVEGEO": "3005802970073016", "POBTOT": 0.0, "score_nse": 0.0, "NSE": null, "VIVTOT": 0.0, "GRAPROES": 0.0, "_ent": "30", "_mun": "058", "_loc": "0297"}, "geometry": {"type": "Polygon", "coordinates": [[[-98.03225, 20.96892], [-98.03277, 20.96887], [-98.03305, 20.96936], [-98.03241, 20.96944], [-98.03225, 20.96892]]]}}, {"id": "2281118", "type": "Feature", "properties": {"id": "2281118", "CVEGEO": "3005802970073012", "POBTOT": 0.0, "score_nse": 0.0, "NSE": null, "VIVTOT": 0.0, "GRAPROES": 0.0, "_ent": "30", "_mun": "058", "_loc": "0297"}, "geometry": {"type": "Polygon", "coordinates": [[[-98.0329, 20.97364], [-98.03259, 20.97251], [-98.03425, 20.9722], [-98.03437, 20.9724], [-98.0342, 20.97247], [-98.03438, 20.97242], [-98.03458, 20.97287], [-98.03419, 20.97296], [-98.03425, 20.97316], [-98.03425, 20.97297], [-98.03514, 20.97279], [-98.03529, 20.97302], [-98.03467, 20.97313], [-98.03468, 20.97316], [-98.0353, 20.97305], [-98.03548, 20.97353], [-98.0329, 20.97364]]]}}, {"id": "2281119", "type": "Feature", "properties": {"id": "2281119", "CVEGEO": "3005802970073005", "POBTOT": 0.0, "score_nse": 0.0, "NSE": null, "VIVTOT": 0.0, "GRAPROES": 0.0, "_ent": "30", "_mun": "058", "_loc": "0297"}, "geometry": {"type": "Polygon", "coordinates": [[[-98.03244, 20.97158], [-98.03245, 20.97247], [-98.03282, 20.97351], [-98.03188, 20.97171], [-98.03244, 20.97158]]]}}, {"id": "2281189", "type": "Feature", "properties": {"id": "2281189", "CVEGEO": "3005802970073013", "POBTOT": 0.0, "score_nse": 0.0, "NSE": null, "VIVTOT": 0.0, "GRAPROES": 0.0, "_ent": "30", "_mun": "058", "_loc": "0297"}, "geometry": {"type": "Polygon", "coordinates": [[[-98.03025, 20.96844], [-98.03058, 20.96818], [-98.03125, 20.96798], [-98.03116, 20.9684], [-98.03095, 20.96842], [-98.03115, 20.96842], [-98.03104, 20.96885], [-98.0309, 20.96892], [-98.03079, 20.96864], [-98.03087, 20.96893], [-98.03068, 20.96902], [-98.03057, 20.96907], [-98.03025, 20.96844]]]}}, {"id": "2281190", "type": "Feature", "properties": {"id": "2281190", "CVEGEO": "3005802970073011", "POBTOT": 0.0, "score_nse": 0.0, "NSE": null, "VIVTOT": 0.0, "GRAPROES": 0.0, "_ent": "30", "_mun": "058", "_loc": "0297"}, "geometry": {"type": "Polygon", "coordinates": [[[-98.03466, 20.97204], [-98.03494, 20.97243], [-98.03512, 20.97275], [-98.0346, 20.97287], [-98.03427, 20.97219], [-98.03466, 20.97204]]]}}, {"id": "2281191", "type": "Feature", "properties": {"id": "2281191", "CVEGEO": "3005802970073010", "POBTOT": 0.0, "score_nse": 0.0, "NSE": null, "VIVTOT": 0.0, "GRAPROES": 0.0, "_ent": "30", "_mun": "058", "_loc": "0297"}, "geometry": {"type": "Polygon", "coordinates": [[[-98.03507, 20.97245], [-98.03471, 20.97188], [-98.03552, 20.97167], [-98.03553, 20.97222], [-98.03531, 20.97221], [-98.03534, 20.97237], [-98.03507, 20.97245]]]}}]}