{"type": "FeatureCollection", "features": [{"id": "2246354", "type": "Feature", "properties": {"id": "2246354", "CVEGEO": "3001400040026008", "POBTOT": 0.0, "score_nse": 0.0, "NSE": null, "VIVTOT": 0.0, "GRAPROES": 0.0, "_ent": "30", "_mun": "014", "_loc": "0004"}, "geometry": {"type": "Polygon", "coordinates": [[[-96.85826, 18.95148], [-96.85809, 18.95291], [-96.85762, 18.95286], [-96.85736, 18.95249], [-96.85697, 18.9523], [-96.85687, 18.95127], [-96.85826, 18.95148]]]}}, {"id": "2246355", "type": "Feature", "properties": {"id": "2246355", "CVEGEO": "3001400040026007", "POBTOT": 0.0, "score_nse": 0.0, "NSE": null, "VIVTOT": 0.0, "GRAPROES": 0.0, "_ent": "30", "_mun": "014", "_loc": "0004"}, "geometry": {"type": "Polygon", "coordinates": [[[-96.85681, 18.95125], [-96.8569, 18.9521], [-96.85676, 18.95232], [-96.85606, 18.95178], [-96.85531, 18.95145], [-96.85487, 18.95157], [-96.85483, 18.95198], [-96.85467, 18.95197], [-96.85406, 18.95179], [-96.85389, 18.95078], [-96.85598, 18.95107], [-96.85649, 18.95131], [-96.85681, 18.95125]]]}}, {"id": "2246357", "type": "Feature", "properties": {"id": "2246357", "CVEGEO": "3001400040026005", "POBTOT": 0.0, "score_nse": 0.0, "NSE": null, "VIVTOT": 0.0, "GRAPROES": 0.0, "_ent": "30", "_mun": "014", "_loc": "0004"}, "geometry": {"type": "Polygon", "coordinates": [[[-96.85685, 18.95247], [-96.8569, 18.95274], [-96.85699, 18.95238], [-96.85733, 18.95253], [-96.85761, 18.95291], [-96.85801, 18.95298], [-96.85769, 18.95377], [-96.85737, 18.95374], [-96.85583, 18.95277], [-96.85519, 18.95256], [-96.85522, 18.95221], [-96.85491, 18.95188], [-96.8549, 18.95165], [-96.8555, 18.95157], [-96.85685, 18.95247]]]}}, {"id": "2246358", "type": "Feature", "properties": {"id": "2246358", "CVEGEO": "3001400040026004", "POBTOT": 0.0, "score_nse": 0.0, "NSE": null, "VIVTOT": 0.0, "GRAPROES": 0.0, "_ent": "30", "_mun": "014", "_loc": "0004"}, "geometry": {"type": "Polygon", "coordinates": [[[-96.85518, 18.9523], [-96.85507, 18.95261], [-96.85446, 18.95262], [-96.85419, 18.95231], [-96.85381, 18.95226], [-96.85405, 18.95186], [-96.85493, 18.95203], [-96.85518, 18.9523]]]}}, {"id": "2246359", "type": "Feature", "properties": {"id": "2246359", "CVEGEO": "3001400040026003", "POBTOT": 0.0, "score_nse": 0.0, "NSE": null, "VIVTOT": 0.0, "GRAPROES": 0.0, "_ent": "30", "_mun": "014", "_loc": "0004"}, "geometry": {"type": "Polygon", "coordinates": [[[-96.85437, 18.95524], [-96.8538, 18.95496], [-96.85396, 18.95376], [-96.85381, 18.95327], [-96.85487, 18.95345], [-96.85458, 18.95483], [-96.85437, 18.95524]]]}}, {"id": "2246360", "type": "Feature", "properties": {"id": "2246360", "CVEGEO": "3001400040026002", "POBTOT": 0.0, "score_nse": 0.0, "NSE": null, "VIVTOT": 0.0, "GRAPROES": 0.0, "_ent": "30", "_mun": "014", "_loc": "0004"}, "geometry": {"type": "Polygon", "coordinates": [[[-96.85768, 18.95382], [-96.8574, 18.95455], [-96.85583, 18.95515], [-96.85495, 18.95593], [-96.8548, 18.95553], [-96.85446, 18.95528], [-96.85468, 18.95476], [-96.85513, 18.9548], [-96.85516, 18.95454], [-96.85509, 18.95473], [-96.85469, 18.9547], [-96.85493, 18.95342], [-96.85379, 18.9532], [-96.85367, 18.9525], [-96.85406, 18.95233], [-96.85441, 18.95266], [-96.85559, 18.95271], [-96.85743, 18.95382], [-96.85768, 18.95382]]]}}, {"id": "2246362", "type": "Feature", "properties": {"id": "2246362", "CVEGEO": "3001400040026001", "POBTOT": 0.0, "score_nse": 0.0, "NSE": null, "VIVTOT": 0.0, "GRAPROES": 0.0, "_ent": "30", "_mun": "014", "_loc": "0004"}, "geometry": {"type": "Polygon", "coordinates": [[[-96.8591, 18.95407], [-96.85885, 18.95376], [-96.8586, 18.95372], [-96.85898, 18.95412], [-96.85809, 18.95453], [-96.8577, 18.9542], [-96.85777, 18.95364], [-96.85816, 18.95288], [-96.85834, 18.95144], [-96.85893, 18.95045], [-96.85946, 18.95013], [-96.85969, 18.95049], [-96.85945, 18.95115], [-96.85986, 18.95182], [-96.86024, 18.95204], [-96.86118, 18.95317], [-96.86046, 18.95368], [-96.8591, 18.95407]]]}}]}