{"type": "FeatureCollection", "features": [{"id": "2332938", "type": "Feature", "properties": {"id": "2332938", "CVEGEO": "3012301080213013", "POBTOT": 0.0, "score_nse": 0.0, "NSE": null, "VIVTOT": 0.0, "GRAPROES": 0.0, "_ent": "30", "_mun": "123", "_loc": "0108"}, "geometry": {"type": "Polygon", "coordinates": [[[-98.16398, 22.16461], [-98.16341, 22.16454], [-98.16338, 22.16407], [-98.16504, 22.16423], [-98.16529, 22.16456], [-98.16484, 22.16462], [-98.16533, 22.16462], [-98.16557, 22.16494], [-98.16521, 22.16547], [-98.16346, 22.16534], [-98.16341, 22.16459], [-98.16398, 22.16461]]]}}, {"id": "2332939", "type": "Feature", "properties": {"id": "2332939", "CVEGEO": "3012301080213005", "POBTOT": 0.0, "score_nse": 0.0, "NSE": null, "VIVTOT": 0.0, "GRAPROES": 0.0, "_ent": "30", "_mun": "123", "_loc": "0108"}, "geometry": {"type": "Polygon", "coordinates": [[[-98.16455, 22.16659], [-98.16529, 22.1655], [-98.16612, 22.16572], [-98.16624, 22.16639], [-98.16698, 22.16614], [-98.1673, 22.16642], [-98.16792, 22.16648], [-98.16841, 22.16637], [-98.1684, 22.16587], [-98.16899, 22.16582], [-98.16894, 22.16713], [-98.16881, 22.1672], [-98.16793, 22.16707], [-98.16797, 22.16682], [-98.16786, 22.16706], [-98.16562, 22.16671], [-98.16566, 22.1658], [-98.16557, 22.1667], [-98.16455, 22.16659]]]}}, {"id": "2332940", "type": "Feature", "properties": {"id": "2332940", "CVEGEO": "3012301080213004", "POBTOT": 0.0, "score_nse": 0.0, "NSE": null, "VIVTOT": 0.0, "GRAPROES": 0.0, "_ent": "30", "_mun": "123", "_loc": "0108"}, "geometry": {"type": "Polygon", "coordinates": [[[-98.16352, 22.16643], [-98.16346, 22.16539], [-98.16518, 22.16552], [-98.16448, 22.16658], [-98.16352, 22.16643]]]}}, {"id": "2332941", "type": "Feature", "properties": {"id": "2332941", "CVEGEO": "3012301080213003", "POBTOT": 0.0, "score_nse": 0.0, "NSE": null, "VIVTOT": 0.0, "GRAPROES": 0.0, "_ent": "30", "_mun": "123", "_loc": "0108"}, "geometry": {"type": "Polygon", "coordinates": [[[-98.16413, 22.16716], [-98.16352, 22.16705], [-98.1635, 22.16654], [-98.16446, 22.16666], [-98.16413, 22.16716]]]}}, {"id": "2333007", "type": "Feature", "properties": {"id": "2333007", "CVEGEO": "3012301080213002", "POBTOT": 0.0, "score_nse": 0.0, "NSE": null, "VIVTOT": 0.0, "GRAPROES": 0.0, "_ent": "30", "_mun": "123", "_loc": "0108"}, "geometry": {"type": "Polygon", "coordinates": [[[-98.16367, 22.1681], [-98.16375, 22.16786], [-98.1643, 22.16699], [-98.1645, 22.1679], [-98.16367, 22.1681]]]}}, {"id": "2333008", "type": "Feature", "properties": {"id": "2333008", "CVEGEO": "3012301080213001", "POBTOT": 0.0, "score_nse": 0.0, "NSE": null, "VIVTOT": 0.0, "GRAPROES": 0.0, "_ent": "30", "_mun": "123", "_loc": "0108"}, "geometry": {"type": "Polygon", "coordinates": [[[-98.16436, 22.16694], [-98.16453, 22.16669], [-98.16557, 22.16681], [-98.1655, 22.16766], [-98.16457, 22.16788], [-98.16436, 22.16694]]]}}, {"id": "2333794", "type": "Feature", "properties": {"id": "2333794", "CVEGEO": "3012301080213014", "POBTOT": 0.0, "score_nse": 0.0, "NSE": null, "VIVTOT": 0.0, "GRAPROES": 0.0, "_ent": "30", "_mun": "123", "_loc": "0108"}, "geometry": {"type": "Polygon", "coordinates": [[[-98.1656, 22.16489], [-98.16511, 22.16424], [-98.16598, 22.16433], [-98.1656, 22.16489]]]}}, {"id": "2333795", "type": "Feature", "properties": {"id": "2333795", "CVEGEO": "3012301080213012", "POBTOT": 0.0, "score_nse": 0.0, "NSE": null, "VIVTOT": 0.0, "GRAPROES": 0.0, "_ent": "30", "_mun": "123", "_loc": "0108"}, "geometry": {"type": "Polygon", "coordinates": [[[-98.16447, 22.17009], [-98.16538, 22.16996], [-98.16537, 22.17079], [-98.16454, 22.17078], [-98.16447, 22.17009]]]}}, {"id": "2333796", "type": "Feature", "properties": {"id": "2333796", "CVEGEO": "3012301080213011", "POBTOT": 0.0, "score_nse": 0.0, "NSE": null, "VIVTOT": 0.0, "GRAPROES": 0.0, "_ent": "30", "_mun": "123", "_loc": "0108"}, "geometry": {"type": "Polygon", "coordinates": [[[-98.16447, 22.17006], [-98.16441, 22.16926], [-98.16542, 22.16919], [-98.16538, 22.16992], [-98.16447, 22.17006]]]}}, {"id": "2333797", "type": "Feature", "properties": {"id": "2333797", "CVEGEO": "3012301080213010", "POBTOT": 0.0, "score_nse": 0.0, "NSE": null, "VIVTOT": 0.0, "GRAPROES": 0.0, "_ent": "30", "_mun": "123", "_loc": "0108"}, "geometry": {"type": "Polygon", "coordinates": [[[-98.16294, 22.16637], [-98.16285, 22.16543], [-98.16341, 22.16534], [-98.16346, 22.16643], [-98.16294, 22.16637]]]}}, {"id": "2333798", "type": "Feature", "properties": {"id": "2333798", "CVEGEO": "3012301080213009", "POBTOT": 0.0, "score_nse": 0.0, "NSE": null, "VIVTOT": 0.0, "GRAPROES": 0.0, "_ent": "30", "_mun": "123", "_loc": "0108"}, "geometry": {"type": "Polygon", "coordinates": [[[-98.16289, 22.16691], [-98.16293, 22.16645], [-98.16343, 22.16651], [-98.16345, 22.16702], [-98.16289, 22.16691]]]}}, {"id": "2333799", "type": "Feature", "properties": {"id": "2333799", "CVEGEO": "3012301080213008", "POBTOT": 0.0, "score_nse": 0.0, "NSE": null, "VIVTOT": 0.0, "GRAPROES": 0.0, "_ent": "30", "_mun": "123", "_loc": "0108"}, "geometry": {"type": "Polygon", "coordinates": [[[-98.16265, 22.16947], [-98.16289, 22.16698], [-98.16408, 22.16721], [-98.16348, 22.16823], [-98.16337, 22.16953], [-98.16265, 22.16947]]]}}, {"id": "2333800", "type": "Feature", "properties": {"id": "2333800", "CVEGEO": "3012301080213007", "POBTOT": 0.0, "score_nse": 0.0, "NSE": null, "VIVTOT": 0.0, "GRAPROES": 0.0, "_ent": "30", "_mun": "123", "_loc": "0108"}, "geometry": {"type": "Polygon", "coordinates": [[[-98.16543, 22.16912], [-98.16349, 22.16917], [-98.16355, 22.16824], [-98.1655, 22.16775], [-98.16543, 22.16912]]]}}, {"id": "2333801", "type": "Feature", "properties": {"id": "2333801", "CVEGEO": "3012301080213006", "POBTOT": 0.0, "score_nse": 0.0, "NSE": null, "VIVTOT": 0.0, "GRAPROES": 0.0, "_ent": "30", "_mun": "123", "_loc": "0108"}, "geometry": {"type": "Polygon", "coordinates": [[[-98.1655, 22.16998], [-98.16575, 22.16999], [-98.1655, 22.16995], [-98.16572, 22.16686], [-98.16803, 22.16718], [-98.168, 22.16737], [-98.16809, 22.16719], [-98.16844, 22.16725], [-98.16843, 22.16747], [-98.16857, 22.16727], [-98.16887, 22.16732], [-98.1688, 22.16852], [-98.1684, 22.16843], [-98.16837, 22.16783], [-98.16779, 22.16809], [-98.16757, 22.16796], [-98.16738, 22.16753], [-98.16674, 22.1674], [-98.16646, 22.16749], [-98.16611, 22.16824], [-98.16594, 22.17082], [-98.1655, 22.17081], [-98.1655, 22.16998]]]}}]}