{"type": "FeatureCollection", "features": [{"id": "2344392", "type": "Feature", "properties": {"id": "2344392", "CVEGEO": "3013000490400025", "POBTOT": 16.0, "score_nse": 0.0, "NSE": "ND", "VIVTOT": 3.0, "GRAPROES": 6.27, "_ent": "30", "_mun": "130", "_loc": "0049"}, "geometry": {"type": "Polygon", "coordinates": [[[-95.76658, 17.7698], [-95.76714, 17.76892], [-95.76733, 17.76909], [-95.76805, 17.77085], [-95.76753, 17.77096], [-95.76658, 17.7698]]]}}, {"id": "2344393", "type": "Feature", "properties": {"id": "2344393", "CVEGEO": "3013000490400024", "POBTOT": 6.0, "score_nse": 0.0, "NSE": "ND", "VIVTOT": 3.0, "GRAPROES": 4.75, "_ent": "30", "_mun": "130", "_loc": "0049"}, "geometry": {"type": "Polygon", "coordinates": [[[-95.76651, 17.7697], [-95.766, 17.76873], [-95.76653, 17.76834], [-95.76708, 17.76885], [-95.76651, 17.7697]]]}}, {"id": "2344394", "type": "Feature", "properties": {"id": "2344394", "CVEGEO": "3013000490400022", "POBTOT": 46.0, "score_nse": 0.0, "NSE": "ND", "VIVTOT": 15.0, "GRAPROES": 6.3, "_ent": "30", "_mun": "130", "_loc": "0049"}, "geometry": {"type": "Polygon", "coordinates": [[[-95.76941, 17.77343], [-95.77122, 17.77486], [-95.77147, 17.77526], [-95.77042, 17.77548], [-95.7689, 17.77524], [-95.76803, 17.7753], [-95.76751, 17.77499], [-95.76821, 17.77412], [-95.76941, 17.77343]]]}}, {"id": "2344396", "type": "Feature", "properties": {"id": "2344396", "CVEGEO": "3013000490398030", "POBTOT": 24.0, "score_nse": 0.0, "NSE": "ND", "VIVTOT": 12.0, "GRAPROES": 7.06, "_ent": "30", "_mun": "130", "_loc": "0049"}, "geometry": {"type": "Polygon", "coordinates": [[[-95.75944, 17.77003], [-95.75959, 17.77047], [-95.75898, 17.77079], [-95.75901, 17.77015], [-95.75944, 17.77003]]]}}, {"id": "2344397", "type": "Feature", "properties": {"id": "2344397", "CVEGEO": "3013000490398029", "POBTOT": 54.0, "score_nse": 0.0, "NSE": "ND", "VIVTOT": 21.0, "GRAPROES": 7.94, "_ent": "30", "_mun": "130", "_loc": "0049"}, "geometry": {"type": "Polygon", "coordinates": [[[-95.76233, 17.76991], [-95.76234, 17.77055], [-95.76206, 17.77061], [-95.76199, 17.77032], [-95.762, 17.77062], [-95.7606, 17.77088], [-95.76079, 17.77], [-95.76233, 17.76991]]]}}, {"id": "2344398", "type": "Feature", "properties": {"id": "2344398", "CVEGEO": "3013000490078036", "POBTOT": 7.0, "score_nse": 0.0, "NSE": "ND", "VIVTOT": 4.0, "GRAPROES": 0.0, "_ent": "30", "_mun": "130", "_loc": "0049"}, "geometry": {"type": "Polygon", "coordinates": [[[-95.75871, 17.76294], [-95.75858, 17.76239], [-95.76001, 17.76228], [-95.75976, 17.76319], [-95.75871, 17.76294]]]}}, {"id": "2344399", "type": "Feature", "properties": {"id": "2344399", "CVEGEO": "3013000490078035", "POBTOT": 21.0, "score_nse": 0.0, "NSE": "ND", "VIVTOT": 7.0, "GRAPROES": 5.69, "_ent": "30", "_mun": "130", "_loc": "0049"}, "geometry": {"type": "Polygon", "coordinates": [[[-95.75817, 17.76237], [-95.75792, 17.76148], [-95.76006, 17.76134], [-95.76005, 17.76219], [-95.75817, 17.76237]]]}}, {"id": "2344400", "type": "Feature", "properties": {"id": "2344400", "CVEGEO": "3013000490078032", "POBTOT": 24.0, "score_nse": 0.0, "NSE": "ND", "VIVTOT": 9.0, "GRAPROES": 5.74, "_ent": "30", "_mun": "130", "_loc": "0049"}, "geometry": {"type": "Polygon", "coordinates": [[[-95.75553, 17.76001], [-95.75582, 17.75854], [-95.75673, 17.75789], [-95.75764, 17.75854], [-95.75553, 17.76001]]]}}, {"id": "2344401", "type": "Feature", "properties": {"id": "2344401", "CVEGEO": "3013000490078031", "POBTOT": 38.0, "score_nse": 0.0, "NSE": "ND", "VIVTOT": 22.0, "GRAPROES": 5.46, "_ent": "30", "_mun": "130", "_loc": "0049"}, "geometry": {"type": "Polygon", "coordinates": [[[-95.75568, 17.75883], [-95.75546, 17.76001], [-95.7551, 17.76024], [-95.75501, 17.76008], [-95.75507, 17.76025], [-95.75436, 17.76055], [-95.75367, 17.75968], [-95.75384, 17.75912], [-95.75452, 17.75901], [-95.7546, 17.75924], [-95.75454, 17.75901], [-95.75568, 17.75883]]]}}, {"id": "2344402", "type": "Feature", "properties": {"id": "2344402", "CVEGEO": "3013000490078030", "POBTOT": 45.0, "score_nse": 0.0, "NSE": "ND", "VIVTOT": 17.0, "GRAPROES": 5.16, "_ent": "30", "_mun": "130", "_loc": "0049"}, "geometry": {"type": "Polygon", "coordinates": [[[-95.75164, 17.76035], [-95.75275, 17.75953], [-95.7535, 17.75979], [-95.75363, 17.75999], [-95.75288, 17.76159], [-95.75164, 17.76035]]]}}, {"id": "2344403", "type": "Feature", "properties": {"id": "2344403", "CVEGEO": "3013000490078010", "POBTOT": 32.0, "score_nse": 0.0, "NSE": "ND", "VIVTOT": 14.0, "GRAPROES": 9.7, "_ent": "30", "_mun": "130", "_loc": "0049"}, "geometry": {"type": "Polygon", "coordinates": [[[-95.7561, 17.76494], [-95.75574, 17.7644], [-95.75633, 17.7641], [-95.75662, 17.76478], [-95.7561, 17.76494]]]}}, {"id": "2344443", "type": "Feature", "properties": {"id": "2344443", "CVEGEO": "3013000490398011", "POBTOT": 33.0, "score_nse": 0.0, "NSE": "ND", "VIVTOT": 12.0, "GRAPROES": 7.0, "_ent": "30", "_mun": "130", "_loc": "0049"}, "geometry": {"type": "Polygon", "coordinates": [[[-95.76194, 17.76835], [-95.76165, 17.76857], [-95.76201, 17.7684], [-95.76228, 17.76853], [-95.76233, 17.76983], [-95.76081, 17.76992], [-95.76108, 17.76791], [-95.76194, 17.76835]]]}}, {"id": "2344531", "type": "Feature", "properties": {"id": "2344531", "CVEGEO": "3013000490398027", "POBTOT": 4.0, "score_nse": 0.0, "NSE": "ND", "VIVTOT": 2.0, "GRAPROES": 0.0, "_ent": "30", "_mun": "130", "_loc": "0049"}, "geometry": {"type": "Polygon", "coordinates": [[[-95.75997, 17.7711], [-95.76006, 17.77215], [-95.75928, 17.77178], [-95.75935, 17.77136], [-95.75997, 17.7711]]]}}, {"id": "2344532", "type": "Feature", "properties": {"id": "2344532", "CVEGEO": "3013000490398026", "POBTOT": 43.0, "score_nse": 46.0316, "NSE": "C-", "VIVTOT": 18.0, "GRAPROES": 9.27, "_ent": "30", "_mun": "130", "_loc": "0049"}, "geometry": {"type": "Polygon", "coordinates": [[[-95.757, 17.7661], [-95.75666, 17.76596], [-95.75612, 17.76503], [-95.75667, 17.76489], [-95.757, 17.7661]]]}}, {"id": "2344533", "type": "Feature", "properties": {"id": "2344533", "CVEGEO": "3013000490398025", "POBTOT": 29.0, "score_nse": 0.0, "NSE": "ND", "VIVTOT": 12.0, "GRAPROES": 6.11, "_ent": "30", "_mun": "130", "_loc": "0049"}, "geometry": {"type": "Polygon", "coordinates": [[[-95.75301, 17.76737], [-95.75212, 17.76643], [-95.75251, 17.76557], [-95.75399, 17.76552], [-95.75412, 17.76594], [-95.75393, 17.7663], [-95.75334, 17.76656], [-95.75396, 17.7664], [-95.75405, 17.76706], [-95.75301, 17.76737]]]}}, {"id": "2344534", "type": "Feature", "properties": {"id": "2344534", "CVEGEO": "3013000490398014", "POBTOT": 5.0, "score_nse": 0.0, "NSE": "ND", "VIVTOT": 5.0, "GRAPROES": 4.8, "_ent": "30", "_mun": "130", "_loc": "0049"}, "geometry": {"type": "Polygon", "coordinates": [[[-95.75972, 17.7736], [-95.75852, 17.77235], [-95.7588, 17.77206], [-95.75997, 17.77287], [-95.75972, 17.7736]]]}}, {"id": "2344554", "type": "Feature", "properties": {"id": "2344554", "CVEGEO": "3013000490307030", "POBTOT": 15.0, "score_nse": 0.0, "NSE": "ND", "VIVTOT": 6.0, "GRAPROES": 8.63, "_ent": "30", "_mun": "130", "_loc": "0049"}, "geometry": {"type": "Polygon", "coordinates": [[[-95.74789, 17.7559], [-95.74747, 17.75624], [-95.74682, 17.75557], [-95.74723, 17.75526], [-95.74789, 17.7559]]]}}, {"id": "2344555", "type": "Feature", "properties": {"id": "2344555", "CVEGEO": "3013000490078033", "POBTOT": 0.0, "score_nse": 0.0, "NSE": "ND", "VIVTOT": 0.0, "GRAPROES": 0.0, "_ent": "30", "_mun": "130", "_loc": "0049"}, "geometry": {"type": "Polygon", "coordinates": [[[-95.75613, 17.75965], [-95.7568, 17.75922], [-95.75707, 17.75973], [-95.75613, 17.75965]]]}}, {"id": "2344556", "type": "Feature", "properties": {"id": "2344556", "CVEGEO": "3013000490078008", "POBTOT": 20.0, "score_nse": 0.0, "NSE": "ND", "VIVTOT": 10.0, "GRAPROES": 4.76, "_ent": "30", "_mun": "130", "_loc": "0049"}, "geometry": {"type": "Polygon", "coordinates": [[[-95.75643, 17.7639], [-95.75599, 17.76271], [-95.757, 17.76253], [-95.75703, 17.76368], [-95.75643, 17.7639]]]}}, {"id": "2344578", "type": "Feature", "properties": {"id": "2344578", "CVEGEO": "3013000490078009", "POBTOT": 3.0, "score_nse": 0.0, "NSE": "ND", "VIVTOT": 4.0, "GRAPROES": 0.0, "_ent": "30", "_mun": "130", "_loc": "0049"}, "geometry": {"type": "Polygon", "coordinates": [[[-95.75646, 17.76399], [-95.75705, 17.76381], [-95.75712, 17.76409], [-95.75658, 17.76428], [-95.75646, 17.76399]]]}}, {"id": "2344721", "type": "Feature", "properties": {"id": "2344721", "CVEGEO": "3013000490400019", "POBTOT": 0.0, "score_nse": 0.0, "NSE": "ND", "VIVTOT": 0.0, "GRAPROES": 0.0, "_ent": "30", "_mun": "130", "_loc": "0049"}, "geometry": {"type": "Polygon", "coordinates": [[[-95.76712, 17.77104], [-95.76649, 17.77062], [-95.76681, 17.77025], [-95.76742, 17.77097], [-95.76712, 17.77104]]]}}, {"id": "2344722", "type": "Feature", "properties": {"id": "2344722", "CVEGEO": "3013000490400005", "POBTOT": 12.0, "score_nse": 0.0, "NSE": "ND", "VIVTOT": 6.0, "GRAPROES": 4.5, "_ent": "30", "_mun": "130", "_loc": "0049"}, "geometry": {"type": "Polygon", "coordinates": [[[-95.76281, 17.76931], [-95.76318, 17.77025], [-95.76313, 17.77053], [-95.76243, 17.77052], [-95.7624, 17.76943], [-95.76281, 17.76931]]]}}, {"id": "2344723", "type": "Feature", "properties": {"id": "2344723", "CVEGEO": "3013000490400003", "POBTOT": 75.0, "score_nse": 0.0, "NSE": "ND", "VIVTOT": 22.0, "GRAPROES": 5.43, "_ent": "30", "_mun": "130", "_loc": "0049"}, "geometry": {"type": "Polygon", "coordinates": [[[-95.76125, 17.77375], [-95.76105, 17.77131], [-95.76157, 17.77116], [-95.76155, 17.77105], [-95.76103, 17.77121], [-95.761, 17.77104], [-95.76233, 17.77067], [-95.7624, 17.77146], [-95.76285, 17.77234], [-95.76268, 17.7729], [-95.76167, 17.77403], [-95.76125, 17.77375]]]}}, {"id": "2344724", "type": "Feature", "properties": {"id": "2344724", "CVEGEO": "3013000490400001", "POBTOT": 126.0, "score_nse": 0.0, "NSE": "ND", "VIVTOT": 47.0, "GRAPROES": 5.77, "_ent": "30", "_mun": "130", "_loc": "0049"}, "geometry": {"type": "Polygon", "coordinates": [[[-95.76245, 17.77121], [-95.76243, 17.77064], [-95.76306, 17.77064], [-95.76319, 17.77133], [-95.76314, 17.77065], [-95.76535, 17.7706], [-95.76535, 17.77127], [-95.76518, 17.77174], [-95.76457, 17.77227], [-95.76408, 17.77212], [-95.76456, 17.77239], [-95.76524, 17.77177], [-95.76542, 17.77132], [-95.76542, 17.77057], [-95.76617, 17.77059], [-95.76631, 17.77073], [-95.76547, 17.77204], [-95.76557, 17.77211], [-95.7658, 17.77172], [-95.76711, 17.77335], [-95.7661, 17.77412], [-95.76383, 17.77266], [-95.76267, 17.77401], [-95.7621, 17.77432], [-95.76175, 17.77409], [-95.76287, 17.77292], [-95.76299, 17.77231], [-95.76245, 17.77121]]]}}, {"id": "2344725", "type": "Feature", "properties": {"id": "2344725", "CVEGEO": "3013000490398010", "POBTOT": 65.0, "score_nse": 0.0, "NSE": "ND", "VIVTOT": 24.0, "GRAPROES": 4.96, "_ent": "30", "_mun": "130", "_loc": "0049"}, "geometry": {"type": "Polygon", "coordinates": [[[-95.76043, 17.76701], [-95.76126, 17.76635], [-95.76039, 17.76694], [-95.75997, 17.76632], [-95.76051, 17.76569], [-95.75993, 17.76625], [-95.7591, 17.76522], [-95.75861, 17.76405], [-95.76006, 17.76319], [-95.76044, 17.76316], [-95.76092, 17.7636], [-95.76114, 17.76419], [-95.76242, 17.76533], [-95.76226, 17.76644], [-95.76228, 17.76845], [-95.76082, 17.76767], [-95.76043, 17.76701]]]}}, {"id": "2344726", "type": "Feature", "properties": {"id": "2344726", "CVEGEO": "3013000490398009", "POBTOT": 72.0, "score_nse": 0.0, "NSE": "ND", "VIVTOT": 29.0, "GRAPROES": 7.21, "_ent": "30", "_mun": "130", "_loc": "0049"}, "geometry": {"type": "Polygon", "coordinates": [[[-95.75991, 17.76639], [-95.76096, 17.76786], [-95.76067, 17.76992], [-95.7596, 17.77001], [-95.75947, 17.76949], [-95.75862, 17.76843], [-95.75991, 17.76639]]]}}, {"id": "2344727", "type": "Feature", "properties": {"id": "2344727", "CVEGEO": "3013000490398007", "POBTOT": 11.0, "score_nse": 0.0, "NSE": "ND", "VIVTOT": 8.0, "GRAPROES": 6.25, "_ent": "30", "_mun": "130", "_loc": "0049"}, "geometry": {"type": "Polygon", "coordinates": [[[-95.75894, 17.77015], [-95.7589, 17.77082], [-95.75779, 17.77161], [-95.75727, 17.77101], [-95.75804, 17.77008], [-95.75894, 17.77015]]]}}, {"id": "2344728", "type": "Feature", "properties": {"id": "2344728", "CVEGEO": "3013000490398006", "POBTOT": 31.0, "score_nse": 0.0, "NSE": "ND", "VIVTOT": 13.0, "GRAPROES": 5.04, "_ent": "30", "_mun": "130", "_loc": "0049"}, "geometry": {"type": "Polygon", "coordinates": [[[-95.75786, 17.77168], [-95.75895, 17.7709], [-95.75929, 17.77133], [-95.75848, 17.77231], [-95.75786, 17.77168]]]}}, {"id": "2344729", "type": "Feature", "properties": {"id": "2344729", "CVEGEO": "3013000490398005", "POBTOT": 0.0, "score_nse": 0.0, "NSE": "ND", "VIVTOT": 0.0, "GRAPROES": 0.0, "_ent": "30", "_mun": "130", "_loc": "0049"}, "geometry": {"type": "Polygon", "coordinates": [[[-95.75999, 17.77278], [-95.75884, 17.77201], [-95.75914, 17.77166], [-95.75935, 17.77191], [-95.76027, 17.77235], [-95.75999, 17.77278]]]}}, {"id": "2344730", "type": "Feature", "properties": {"id": "2344730", "CVEGEO": "3013000490398004", "POBTOT": 55.0, "score_nse": 57.288, "NSE": "C", "VIVTOT": 14.0, "GRAPROES": 8.43, "_ent": "30", "_mun": "130", "_loc": "0049"}, "geometry": {"type": "Polygon", "coordinates": [[[-95.76115, 17.77245], [-95.76054, 17.77237], [-95.76012, 17.77209], [-95.76014, 17.77098], [-95.76092, 17.77105], [-95.76115, 17.77245]]]}}, {"id": "2344731", "type": "Feature", "properties": {"id": "2344731", "CVEGEO": "3013000490307005", "POBTOT": 10.0, "score_nse": 26.138, "NSE": "D", "VIVTOT": 8.0, "GRAPROES": 6.86, "_ent": "30", "_mun": "130", "_loc": "0049"}, "geometry": {"type": "Polygon", "coordinates": [[[-95.7487, 17.75939], [-95.74957, 17.75871], [-95.75049, 17.75977], [-95.74968, 17.76046], [-95.7487, 17.75939]]]}}, {"id": "2344732", "type": "Feature", "properties": {"id": "2344732", "CVEGEO": "3013000490307004", "POBTOT": 24.0, "score_nse": 30.04, "NSE": "D+", "VIVTOT": 10.0, "GRAPROES": 6.47, "_ent": "30", "_mun": "130", "_loc": "0049"}, "geometry": {"type": "Polygon", "coordinates": [[[-95.74864, 17.75929], [-95.74804, 17.75863], [-95.74886, 17.75793], [-95.74946, 17.75864], [-95.74864, 17.75929]]]}}, {"id": "2344733", "type": "Feature", "properties": {"id": "2344733", "CVEGEO": "3013000490307003", "POBTOT": 12.0, "score_nse": 28.98, "NSE": "D", "VIVTOT": 5.0, "GRAPROES": 7.29, "_ent": "30", "_mun": "130", "_loc": "0049"}, "geometry": {"type": "Polygon", "coordinates": [[[-95.74797, 17.75856], [-95.74727, 17.75782], [-95.74816, 17.75718], [-95.74879, 17.75787], [-95.74837, 17.75822], [-95.74802, 17.75798], [-95.74831, 17.75827], [-95.74797, 17.75856]]]}}, {"id": "2344734", "type": "Feature", "properties": {"id": "2344734", "CVEGEO": "3013000490307002", "POBTOT": 9.0, "score_nse": 0.0, "NSE": "ND", "VIVTOT": 4.0, "GRAPROES": 0.0, "_ent": "30", "_mun": "130", "_loc": "0049"}, "geometry": {"type": "Polygon", "coordinates": [[[-95.74636, 17.75848], [-95.74719, 17.75788], [-95.7479, 17.75863], [-95.74707, 17.75922], [-95.74636, 17.75848]]]}}, {"id": "2344735", "type": "Feature", "properties": {"id": "2344735", "CVEGEO": "3013000490307001", "POBTOT": 10.0, "score_nse": 0.0, "NSE": "ND", "VIVTOT": 5.0, "GRAPROES": 4.3, "_ent": "30", "_mun": "130", "_loc": "0049"}, "geometry": {"type": "Polygon", "coordinates": [[[-95.74796, 17.75869], [-95.74854, 17.75936], [-95.74787, 17.7599], [-95.74716, 17.7593], [-95.74796, 17.75869]]]}}, {"id": "2344736", "type": "Feature", "properties": {"id": "2344736", "CVEGEO": "3013000490078052", "POBTOT": 3.0, "score_nse": 0.0, "NSE": "ND", "VIVTOT": 1.0, "GRAPROES": 0.0, "_ent": "30", "_mun": "130", "_loc": "0049"}, "geometry": {"type": "Polygon", "coordinates": [[[-95.75369, 17.76242], [-95.75337, 17.76213], [-95.75375, 17.76198], [-95.75381, 17.76218], [-95.75369, 17.76242]]]}}, {"id": "2344737", "type": "Feature", "properties": {"id": "2344737", "CVEGEO": "3013000490078051", "POBTOT": 43.0, "score_nse": 0.0, "NSE": "ND", "VIVTOT": 16.0, "GRAPROES": 3.72, "_ent": "30", "_mun": "130", "_loc": "0049"}, "geometry": {"type": "Polygon", "coordinates": [[[-95.75821, 17.76374], [-95.75714, 17.76369], [-95.75764, 17.7628], [-95.75846, 17.76298], [-95.75821, 17.76374]]]}}, {"id": "2344738", "type": "Feature", "properties": {"id": "2344738", "CVEGEO": "3013000490078028", "POBTOT": 30.0, "score_nse": 0.0, "NSE": "ND", "VIVTOT": 19.0, "GRAPROES": 5.61, "_ent": "30", "_mun": "130", "_loc": "0049"}, "geometry": {"type": "Polygon", "coordinates": [[[-95.75131, 17.76505], [-95.75114, 17.76521], [-95.75086, 17.7651], [-95.75158, 17.7645], [-95.75179, 17.76468], [-95.75387, 17.76481], [-95.75389, 17.76495], [-95.75131, 17.76505]]]}}, {"id": "2344739", "type": "Feature", "properties": {"id": "2344739", "CVEGEO": "3013000490078018", "POBTOT": 6.0, "score_nse": 0.0, "NSE": "ND", "VIVTOT": 5.0, "GRAPROES": 0.0, "_ent": "30", "_mun": "130", "_loc": "0049"}, "geometry": {"type": "Polygon", "coordinates": [[[-95.75491, 17.76135], [-95.75442, 17.76064], [-95.75529, 17.76026], [-95.75491, 17.76135]]]}}, {"id": "2344740", "type": "Feature", "properties": {"id": "2344740", "CVEGEO": "3013000490078017", "POBTOT": 28.0, "score_nse": 0.0, "NSE": "ND", "VIVTOT": 12.0, "GRAPROES": 4.65, "_ent": "30", "_mun": "130", "_loc": "0049"}, "geometry": {"type": "Polygon", "coordinates": [[[-95.75296, 17.76171], [-95.75321, 17.76118], [-95.75372, 17.76011], [-95.75468, 17.76139], [-95.75449, 17.76161], [-95.75333, 17.76204], [-95.75296, 17.76171]]]}}, {"id": "2344741", "type": "Feature", "properties": {"id": "2344741", "CVEGEO": "3013000490078014", "POBTOT": 25.0, "score_nse": 0.0, "NSE": "ND", "VIVTOT": 9.0, "GRAPROES": 5.84, "_ent": "30", "_mun": "130", "_loc": "0049"}, "geometry": {"type": "Polygon", "coordinates": [[[-95.75386, 17.76476], [-95.75162, 17.76443], [-95.75192, 17.76381], [-95.75382, 17.76453], [-95.75386, 17.76476]]]}}, {"id": "2344742", "type": "Feature", "properties": {"id": "2344742", "CVEGEO": "3013000490078013", "POBTOT": 0.0, "score_nse": 10.0, "NSE": "E", "VIVTOT": 1.0, "GRAPROES": 0.0, "_ent": "30", "_mun": "130", "_loc": "0049"}, "geometry": {"type": "Polygon", "coordinates": [[[-95.75404, 17.7648], [-95.75388, 17.76455], [-95.75438, 17.76466], [-95.75444, 17.76493], [-95.75396, 17.76494], [-95.75404, 17.7648]]]}}, {"id": "2344743", "type": "Feature", "properties": {"id": "2344743", "CVEGEO": "3013000490078012", "POBTOT": 10.0, "score_nse": 0.0, "NSE": "ND", "VIVTOT": 3.0, "GRAPROES": 14.0, "_ent": "30", "_mun": "130", "_loc": "0049"}, "geometry": {"type": "Polygon", "coordinates": [[[-95.75445, 17.76466], [-95.75493, 17.76473], [-95.75497, 17.76488], [-95.75451, 17.76492], [-95.75445, 17.76466]]]}}, {"id": "2344772", "type": "Feature", "properties": {"id": "2344772", "CVEGEO": "3013000490398013", "POBTOT": 26.0, "score_nse": 0.0, "NSE": "ND", "VIVTOT": 8.0, "GRAPROES": 4.93, "_ent": "30", "_mun": "130", "_loc": "0049"}, "geometry": {"type": "Polygon", "coordinates": [[[-95.762, 17.77437], [-95.76101, 17.77499], [-95.75977, 17.77365], [-95.76005, 17.77292], [-95.76118, 17.77378], [-95.7612, 17.77431], [-95.76126, 17.77382], [-95.762, 17.77437]]]}}, {"id": "2344773", "type": "Feature", "properties": {"id": "2344773", "CVEGEO": "3013000490398012", "POBTOT": 17.0, "score_nse": 0.0, "NSE": "ND", "VIVTOT": 9.0, "GRAPROES": 5.75, "_ent": "30", "_mun": "130", "_loc": "0049"}, "geometry": {"type": "Polygon", "coordinates": [[[-95.7601, 17.77279], [-95.76036, 17.77239], [-95.76114, 17.77254], [-95.76118, 17.77369], [-95.7601, 17.77279]]]}}, {"id": "2344774", "type": "Feature", "properties": {"id": "2344774", "CVEGEO": "3013000490307020", "POBTOT": 1.0, "score_nse": 0.0, "NSE": "ND", "VIVTOT": 2.0, "GRAPROES": 0.0, "_ent": "30", "_mun": "130", "_loc": "0049"}, "geometry": {"type": "Polygon", "coordinates": [[[-95.74886, 17.76126], [-95.7496, 17.76198], [-95.74885, 17.76254], [-95.74815, 17.76188], [-95.74886, 17.76126]]]}}, {"id": "2344775", "type": "Feature", "properties": {"id": "2344775", "CVEGEO": "3013000490307019", "POBTOT": 22.0, "score_nse": 0.0, "NSE": "ND", "VIVTOT": 8.0, "GRAPROES": 6.5, "_ent": "30", "_mun": "130", "_loc": "0049"}, "geometry": {"type": "Polygon", "coordinates": [[[-95.74895, 17.76119], [-95.74967, 17.7606], [-95.75039, 17.76132], [-95.75028, 17.7614], [-95.74998, 17.76114], [-95.75023, 17.76145], [-95.74968, 17.76191], [-95.74895, 17.76119]]]}}, {"id": "2344776", "type": "Feature", "properties": {"id": "2344776", "CVEGEO": "3013000490307006", "POBTOT": 8.0, "score_nse": 0.0, "NSE": "ND", "VIVTOT": 3.0, "GRAPROES": 0.0, "_ent": "30", "_mun": "130", "_loc": "0049"}, "geometry": {"type": "Polygon", "coordinates": [[[-95.74888, 17.76108], [-95.74795, 17.75998], [-95.74861, 17.75946], [-95.74957, 17.76051], [-95.74888, 17.76108]]]}}, {"id": "2344778", "type": "Feature", "properties": {"id": "2344778", "CVEGEO": "3013000490078050", "POBTOT": 20.0, "score_nse": 0.0, "NSE": "ND", "VIVTOT": 8.0, "GRAPROES": 6.06, "_ent": "30", "_mun": "130", "_loc": "0049"}, "geometry": {"type": "Polygon", "coordinates": [[[-95.75459, 17.76238], [-95.75416, 17.76181], [-95.75474, 17.76146], [-95.75492, 17.76158], [-95.75459, 17.76238]]]}}, {"id": "2344779", "type": "Feature", "properties": {"id": "2344779", "CVEGEO": "3013000490078049", "POBTOT": 0.0, "score_nse": 0.0, "NSE": "ND", "VIVTOT": 0.0, "GRAPROES": 0.0, "_ent": "30", "_mun": "130", "_loc": "0049"}, "geometry": {"type": "Polygon", "coordinates": [[[-95.75515, 17.76544], [-95.75515, 17.7653], [-95.75578, 17.76538], [-95.75572, 17.76559], [-95.75515, 17.76544]]]}}, {"id": "2344780", "type": "Feature", "properties": {"id": "2344780", "CVEGEO": "3013000490078039", "POBTOT": 0.0, "score_nse": 10.0, "NSE": "E", "VIVTOT": 1.0, "GRAPROES": 0.0, "_ent": "30", "_mun": "130", "_loc": "0049"}, "geometry": {"type": "Polygon", "coordinates": [[[-95.75203, 17.76634], [-95.75084, 17.76514], [-95.75237, 17.7656], [-95.75203, 17.76634]]]}}, {"id": "2344781", "type": "Feature", "properties": {"id": "2344781", "CVEGEO": "3013000490078037", "POBTOT": 1.0, "score_nse": 0.0, "NSE": "ND", "VIVTOT": 1.0, "GRAPROES": 0.0, "_ent": "30", "_mun": "130", "_loc": "0049"}, "geometry": {"type": "Polygon", "coordinates": [[[-95.75862, 17.76292], [-95.7577, 17.76273], [-95.75801, 17.76245], [-95.7585, 17.7624], [-95.75862, 17.76292]]]}}, {"id": "2344782", "type": "Feature", "properties": {"id": "2344782", "CVEGEO": "3013000490078007", "POBTOT": 22.0, "score_nse": 0.0, "NSE": "ND", "VIVTOT": 12.0, "GRAPROES": 4.76, "_ent": "30", "_mun": "130", "_loc": "0049"}, "geometry": {"type": "Polygon", "coordinates": [[[-95.75517, 17.76169], [-95.75501, 17.76127], [-95.75546, 17.76013], [-95.75575, 17.75998], [-95.75622, 17.7607], [-95.75643, 17.76146], [-95.75697, 17.76244], [-95.75596, 17.76263], [-95.75517, 17.76169]]]}}, {"id": "2345060", "type": "Feature", "properties": {"id": "2345060", "CVEGEO": "3013000490400014", "POBTOT": 27.0, "score_nse": 0.0, "NSE": "ND", "VIVTOT": 6.0, "GRAPROES": 7.2, "_ent": "30", "_mun": "130", "_loc": "0049"}, "geometry": {"type": "Polygon", "coordinates": [[[-95.7664, 17.76831], [-95.7659, 17.76866], [-95.76552, 17.76852], [-95.76319, 17.76911], [-95.76324, 17.76702], [-95.7664, 17.76831]]]}}, {"id": "2345061", "type": "Feature", "properties": {"id": "2345061", "CVEGEO": "3013000490400013", "POBTOT": 6.0, "score_nse": 0.0, "NSE": "ND", "VIVTOT": 4.0, "GRAPROES": 4.17, "_ent": "30", "_mun": "130", "_loc": "0049"}, "geometry": {"type": "Polygon", "coordinates": [[[-95.76235, 17.76677], [-95.76315, 17.76699], [-95.76309, 17.76914], [-95.76239, 17.76934], [-95.76235, 17.76677]]]}}, {"id": "2345062", "type": "Feature", "properties": {"id": "2345062", "CVEGEO": "3013000490400011", "POBTOT": 21.0, "score_nse": 0.0, "NSE": "ND", "VIVTOT": 10.0, "GRAPROES": 6.0, "_ent": "30", "_mun": "130", "_loc": "0049"}, "geometry": {"type": "Polygon", "coordinates": [[[-95.76617, 17.77417], [-95.76786, 17.77308], [-95.76866, 17.77308], [-95.76933, 17.77336], [-95.76824, 17.7739], [-95.76739, 17.77493], [-95.76617, 17.77417]]]}}, {"id": "2345063", "type": "Feature", "properties": {"id": "2345063", "CVEGEO": "3013000490400010", "POBTOT": 54.0, "score_nse": 0.0, "NSE": "ND", "VIVTOT": 31.0, "GRAPROES": 4.76, "_ent": "30", "_mun": "130", "_loc": "0049"}, "geometry": {"type": "Polygon", "coordinates": [[[-95.76585, 17.77161], [-95.76643, 17.77073], [-95.76658, 17.77081], [-95.7672, 17.7713], [-95.76772, 17.77226], [-95.76829, 17.77293], [-95.76719, 17.77333], [-95.76585, 17.77161]]]}}, {"id": "2345064", "type": "Feature", "properties": {"id": "2345064", "CVEGEO": "3013000490400008", "POBTOT": 2.0, "score_nse": 0.0, "NSE": "ND", "VIVTOT": 3.0, "GRAPROES": 0.0, "_ent": "30", "_mun": "130", "_loc": "0049"}, "geometry": {"type": "Polygon", "coordinates": [[[-95.76554, 17.76995], [-95.76597, 17.77044], [-95.76544, 17.77046], [-95.76554, 17.76995]]]}}, {"id": "2345065", "type": "Feature", "properties": {"id": "2345065", "CVEGEO": "3013000490400007", "POBTOT": 43.0, "score_nse": 0.0, "NSE": "ND", "VIVTOT": 19.0, "GRAPROES": 4.49, "_ent": "30", "_mun": "130", "_loc": "0049"}, "geometry": {"type": "Polygon", "coordinates": [[[-95.76545, 17.76864], [-95.76533, 17.77044], [-95.76407, 17.77048], [-95.76403, 17.76897], [-95.76545, 17.76864]]]}}, {"id": "2345066", "type": "Feature", "properties": {"id": "2345066", "CVEGEO": "3013000490400006", "POBTOT": 69.0, "score_nse": 0.0, "NSE": "ND", "VIVTOT": 20.0, "GRAPROES": 5.57, "_ent": "30", "_mun": "130", "_loc": "0049"}, "geometry": {"type": "Polygon", "coordinates": [[[-95.76321, 17.7692], [-95.76327, 17.76938], [-95.76327, 17.76918], [-95.7639, 17.76901], [-95.76396, 17.77048], [-95.76319, 17.77047], [-95.76325, 17.77022], [-95.76287, 17.7693], [-95.76321, 17.7692]]]}}, {"id": "2345067", "type": "Feature", "properties": {"id": "2345067", "CVEGEO": "3013000490398021", "POBTOT": 27.0, "score_nse": 0.0, "NSE": "ND", "VIVTOT": 12.0, "GRAPROES": 5.14, "_ent": "30", "_mun": "130", "_loc": "0049"}, "geometry": {"type": "Polygon", "coordinates": [[[-95.75713, 17.76476], [-95.75848, 17.76412], [-95.75891, 17.76507], [-95.75713, 17.76476]]]}}, {"id": "2345068", "type": "Feature", "properties": {"id": "2345068", "CVEGEO": "3013000490398020", "POBTOT": 58.0, "score_nse": 0.0, "NSE": "ND", "VIVTOT": 26.0, "GRAPROES": 7.8, "_ent": "30", "_mun": "130", "_loc": "0049"}, "geometry": {"type": "Polygon", "coordinates": [[[-95.7578, 17.76569], [-95.75778, 17.76647], [-95.75718, 17.76666], [-95.75709, 17.7657], [-95.75682, 17.76492], [-95.75703, 17.76483], [-95.75903, 17.76526], [-95.75987, 17.76632], [-95.75858, 17.76837], [-95.75774, 17.76743], [-95.75811, 17.76729], [-95.7578, 17.76569]]]}}, {"id": "2345069", "type": "Feature", "properties": {"id": "2345069", "CVEGEO": "3013000490078011", "POBTOT": 0.0, "score_nse": 0.0, "NSE": "ND", "VIVTOT": 0.0, "GRAPROES": 0.0, "_ent": "30", "_mun": "130", "_loc": "0049"}, "geometry": {"type": "Polygon", "coordinates": [[[-95.75515, 17.76523], [-95.75509, 17.76478], [-95.75581, 17.76484], [-95.75615, 17.76535], [-95.75515, 17.76523]]]}}, {"id": "2345106", "type": "Feature", "properties": {"id": "2345106", "CVEGEO": "3013000490400016", "POBTOT": 23.0, "score_nse": 0.0, "NSE": "ND", "VIVTOT": 9.0, "GRAPROES": 5.44, "_ent": "30", "_mun": "130", "_loc": "0049"}, "geometry": {"type": "Polygon", "coordinates": [[[-95.76559, 17.76987], [-95.76556, 17.76865], [-95.76592, 17.76879], [-95.76675, 17.77015], [-95.76636, 17.77058], [-95.76559, 17.76987]]]}}, {"id": "2345107", "type": "Feature", "properties": {"id": "2345107", "CVEGEO": "3013000490398023", "POBTOT": 24.0, "score_nse": 0.0, "NSE": "ND", "VIVTOT": 9.0, "GRAPROES": 4.58, "_ent": "30", "_mun": "130", "_loc": "0049"}, "geometry": {"type": "Polygon", "coordinates": [[[-95.76074, 17.76321], [-95.7599, 17.76308], [-95.76015, 17.76206], [-95.76101, 17.76155], [-95.76126, 17.76179], [-95.76119, 17.76408], [-95.76082, 17.76335], [-95.76088, 17.76312], [-95.76074, 17.76321]]]}}, {"id": "2345108", "type": "Feature", "properties": {"id": "2345108", "CVEGEO": "3013000490398003", "POBTOT": 27.0, "score_nse": 0.0, "NSE": "ND", "VIVTOT": 9.0, "GRAPROES": 7.17, "_ent": "30", "_mun": "130", "_loc": "0049"}, "geometry": {"type": "Polygon", "coordinates": [[[-95.76048, 17.77085], [-95.75988, 17.7707], [-95.75962, 17.77013], [-95.76065, 17.77001], [-95.76048, 17.77085]]]}}, {"id": "2345109", "type": "Feature", "properties": {"id": "2345109", "CVEGEO": "3013000490307018", "POBTOT": 12.0, "score_nse": 0.0, "NSE": "ND", "VIVTOT": 5.0, "GRAPROES": 6.36, "_ent": "30", "_mun": "130", "_loc": "0049"}, "geometry": {"type": "Polygon", "coordinates": [[[-95.74975, 17.76054], [-95.75059, 17.75987], [-95.75121, 17.76056], [-95.75045, 17.76125], [-95.74975, 17.76054]]]}}, {"id": "2345110", "type": "Feature", "properties": {"id": "2345110", "CVEGEO": "3013000490078048", "POBTOT": 15.0, "score_nse": 0.0, "NSE": "ND", "VIVTOT": 6.0, "GRAPROES": 8.55, "_ent": "30", "_mun": "130", "_loc": "0049"}, "geometry": {"type": "Polygon", "coordinates": [[[-95.75397, 17.76449], [-95.75196, 17.76372], [-95.75215, 17.76336], [-95.75405, 17.76403], [-95.75397, 17.76449]]]}}, {"id": "2345111", "type": "Feature", "properties": {"id": "2345111", "CVEGEO": "3013000490078027", "POBTOT": 26.0, "score_nse": 47.2433, "NSE": "C-", "VIVTOT": 11.0, "GRAPROES": 8.0, "_ent": "30", "_mun": "130", "_loc": "0049"}, "geometry": {"type": "Polygon", "coordinates": [[[-95.75398, 17.76543], [-95.75185, 17.76546], [-95.75124, 17.76523], [-95.75147, 17.76505], [-95.7539, 17.76502], [-95.75398, 17.76543]]]}}, {"id": "2345133", "type": "Feature", "properties": {"id": "2345133", "CVEGEO": "3013000490400026", "POBTOT": 0.0, "score_nse": 0.0, "NSE": "ND", "VIVTOT": 0.0, "GRAPROES": 0.0, "_ent": "30", "_mun": "130", "_loc": "0049"}, "geometry": {"type": "Polygon", "coordinates": [[[-95.77143, 17.77373], [-95.77209, 17.77363], [-95.77261, 17.77328], [-95.77355, 17.774], [-95.77154, 17.77525], [-95.7713, 17.77481], [-95.77068, 17.77429], [-95.77143, 17.77373]]]}}, {"id": "2345187", "type": "Feature", "properties": {"id": "2345187", "CVEGEO": "3013000490307049", "POBTOT": 3.0, "score_nse": 0.0, "NSE": "ND", "VIVTOT": 2.0, "GRAPROES": 0.0, "_ent": "30", "_mun": "130", "_loc": "0049"}, "geometry": {"type": "Polygon", "coordinates": [[[-95.74809, 17.75712], [-95.74559, 17.75904], [-95.74507, 17.75851], [-95.74624, 17.75718], [-95.74743, 17.75638], [-95.74809, 17.75712]]]}}, {"id": "2345188", "type": "Feature", "properties": {"id": "2345188", "CVEGEO": "3013000490307048", "POBTOT": 20.0, "score_nse": 0.0, "NSE": "ND", "VIVTOT": 8.0, "GRAPROES": 4.85, "_ent": "30", "_mun": "130", "_loc": "0049"}, "geometry": {"type": "Polygon", "coordinates": [[[-95.75077, 17.75841], [-95.75037, 17.75798], [-95.75157, 17.75669], [-95.75186, 17.75691], [-95.75224, 17.75692], [-95.75077, 17.75841]]]}}, {"id": "2345189", "type": "Feature", "properties": {"id": "2345189", "CVEGEO": "3013000490307044", "POBTOT": 1.0, "score_nse": 0.0, "NSE": "ND", "VIVTOT": 2.0, "GRAPROES": 0.0, "_ent": "30", "_mun": "130", "_loc": "0049"}, "geometry": {"type": "Polygon", "coordinates": [[[-95.74806, 17.76326], [-95.7488, 17.76266], [-95.74972, 17.76367], [-95.75109, 17.76466], [-95.75077, 17.76509], [-95.74806, 17.76326]]]}}, {"id": "2345190", "type": "Feature", "properties": {"id": "2345190", "CVEGEO": "3013000490307033", "POBTOT": 25.0, "score_nse": 0.0, "NSE": "ND", "VIVTOT": 16.0, "GRAPROES": 5.88, "_ent": "30", "_mun": "130", "_loc": "0049"}, "geometry": {"type": "Polygon", "coordinates": [[[-95.75422, 17.757], [-95.75359, 17.75963], [-95.75149, 17.75896], [-95.75089, 17.75852], [-95.75243, 17.75695], [-95.75422, 17.757]]]}}, {"id": "2345191", "type": "Feature", "properties": {"id": "2345191", "CVEGEO": "3013000490307031", "POBTOT": 16.0, "score_nse": 0.0, "NSE": "ND", "VIVTOT": 7.0, "GRAPROES": 6.69, "_ent": "30", "_mun": "130", "_loc": "0049"}, "geometry": {"type": "Polygon", "coordinates": [[[-95.75033, 17.75791], [-95.74835, 17.75546], [-95.74799, 17.75465], [-95.74903, 17.75381], [-95.75027, 17.75562], [-95.7515, 17.75665], [-95.75033, 17.75791]]]}}, {"id": "2345192", "type": "Feature", "properties": {"id": "2345192", "CVEGEO": "3013000490307023", "POBTOT": 9.0, "score_nse": 0.0, "NSE": "ND", "VIVTOT": 3.0, "GRAPROES": 0.0, "_ent": "30", "_mun": "130", "_loc": "0049"}, "geometry": {"type": "Polygon", "coordinates": [[[-95.74544, 17.76076], [-95.74295, 17.75877], [-95.74409, 17.75786], [-95.74628, 17.75992], [-95.74544, 17.76076]]]}}, {"id": "2345193", "type": "Feature", "properties": {"id": "2345193", "CVEGEO": "3013000490307021", "POBTOT": 0.0, "score_nse": 0.0, "NSE": "ND", "VIVTOT": 0.0, "GRAPROES": 0.0, "_ent": "30", "_mun": "130", "_loc": "0049"}, "geometry": {"type": "Polygon", "coordinates": [[[-95.74736, 17.76252], [-95.74808, 17.76194], [-95.74875, 17.76258], [-95.74802, 17.7632], [-95.74736, 17.76252]]]}}, {"id": "2345267", "type": "Feature", "properties": {"id": "2345267", "CVEGEO": "3013000490398019", "POBTOT": 0.0, "score_nse": 0.0, "NSE": "ND", "VIVTOT": 0.0, "GRAPROES": 0.0, "_ent": "30", "_mun": "130", "_loc": "0049"}, "geometry": {"type": "Polygon", "coordinates": [[[-95.75771, 17.76739], [-95.7573, 17.76669], [-95.75778, 17.76654], [-95.75802, 17.76725], [-95.75771, 17.76739]]]}}, {"id": "2345268", "type": "Feature", "properties": {"id": "2345268", "CVEGEO": "3013000490398018", "POBTOT": 69.0, "score_nse": 0.0, "NSE": "ND", "VIVTOT": 25.0, "GRAPROES": 9.36, "_ent": "30", "_mun": "130", "_loc": "0049"}, "geometry": {"type": "Polygon", "coordinates": [[[-95.75413, 17.76701], [-95.7542, 17.76595], [-95.75407, 17.7655], [-95.75446, 17.76549], [-95.7545, 17.76577], [-95.75454, 17.76549], [-95.75487, 17.7655], [-95.75487, 17.76573], [-95.75493, 17.7655], [-95.75522, 17.76555], [-95.75568, 17.76569], [-95.7556, 17.76585], [-95.75538, 17.76585], [-95.75529, 17.76599], [-95.75563, 17.76592], [-95.75573, 17.76571], [-95.75676, 17.76619], [-95.75739, 17.76712], [-95.7555, 17.76794], [-95.75499, 17.76673], [-95.75413, 17.76701]]]}}, {"id": "2345269", "type": "Feature", "properties": {"id": "2345269", "CVEGEO": "3013000490398002", "POBTOT": 16.0, "score_nse": 30.064, "NSE": "D+", "VIVTOT": 10.0, "GRAPROES": 3.69, "_ent": "30", "_mun": "130", "_loc": "0049"}, "geometry": {"type": "Polygon", "coordinates": [[[-95.75809, 17.77002], [-95.75858, 17.76944], [-95.75866, 17.76877], [-95.75935, 17.76956], [-95.75942, 17.76995], [-95.75894, 17.77009], [-95.75809, 17.77002]]]}}, {"id": "2345270", "type": "Feature", "properties": {"id": "2345270", "CVEGEO": "3013000490398001", "POBTOT": 3.0, "score_nse": 0.0, "NSE": "ND", "VIVTOT": 4.0, "GRAPROES": 0.0, "_ent": "30", "_mun": "130", "_loc": "0049"}, "geometry": {"type": "Polygon", "coordinates": [[[-95.75963, 17.77054], [-95.75993, 17.77103], [-95.75934, 17.77128], [-95.75902, 17.77087], [-95.75963, 17.77054]]]}}, {"id": "2345271", "type": "Feature", "properties": {"id": "2345271", "CVEGEO": "3013000490307054", "POBTOT": 0.0, "score_nse": 10.0, "NSE": "E", "VIVTOT": 1.0, "GRAPROES": 0.0, "_ent": "30", "_mun": "130", "_loc": "0049"}, "geometry": {"type": "Polygon", "coordinates": [[[-95.7478, 17.75996], [-95.74713, 17.76053], [-95.74643, 17.75996], [-95.74709, 17.75935], [-95.7478, 17.75996]]]}}, {"id": "2345272", "type": "Feature", "properties": {"id": "2345272", "CVEGEO": "3013000490307053", "POBTOT": 5.0, "score_nse": 0.0, "NSE": "ND", "VIVTOT": 2.0, "GRAPROES": 0.0, "_ent": "30", "_mun": "130", "_loc": "0049"}, "geometry": {"type": "Polygon", "coordinates": [[[-95.74827, 17.75558], [-95.74794, 17.75588], [-95.74728, 17.75521], [-95.74789, 17.75477], [-95.74827, 17.75558]]]}}, {"id": "2345273", "type": "Feature", "properties": {"id": "2345273", "CVEGEO": "3013000490307052", "POBTOT": 0.0, "score_nse": 0.0, "NSE": "ND", "VIVTOT": 0.0, "GRAPROES": 0.0, "_ent": "30", "_mun": "130", "_loc": "0049"}, "geometry": {"type": "Polygon", "coordinates": [[[-95.74631, 17.75853], [-95.74701, 17.75926], [-95.74636, 17.75987], [-95.74564, 17.75913], [-95.74631, 17.75853]]]}}, {"id": "2345274", "type": "Feature", "properties": {"id": "2345274", "CVEGEO": "3013000490307051", "POBTOT": 6.0, "score_nse": 0.0, "NSE": "ND", "VIVTOT": 2.0, "GRAPROES": 0.0, "_ent": "30", "_mun": "130", "_loc": "0049"}, "geometry": {"type": "Polygon", "coordinates": [[[-95.74702, 17.76059], [-95.74613, 17.76129], [-95.74552, 17.76083], [-95.74637, 17.76001], [-95.74702, 17.76059]]]}}, {"id": "2345275", "type": "Feature", "properties": {"id": "2345275", "CVEGEO": "3013000490307050", "POBTOT": 11.0, "score_nse": 30.032, "NSE": "D+", "VIVTOT": 4.0, "GRAPROES": 7.0, "_ent": "30", "_mun": "130", "_loc": "0049"}, "geometry": {"type": "Polygon", "coordinates": [[[-95.74727, 17.76244], [-95.7462, 17.76135], [-95.74692, 17.76083], [-95.74799, 17.76186], [-95.74727, 17.76244]]]}}, {"id": "2345276", "type": "Feature", "properties": {"id": "2345276", "CVEGEO": "3013000490307017", "POBTOT": 17.0, "score_nse": 0.0, "NSE": "ND", "VIVTOT": 8.0, "GRAPROES": 7.15, "_ent": "30", "_mun": "130", "_loc": "0049"}, "geometry": {"type": "Polygon", "coordinates": [[[-95.75067, 17.75978], [-95.75147, 17.75911], [-95.75256, 17.75952], [-95.75129, 17.76051], [-95.75067, 17.75978]]]}}, {"id": "2345277", "type": "Feature", "properties": {"id": "2345277", "CVEGEO": "3013000490307016", "POBTOT": 14.0, "score_nse": 0.0, "NSE": "ND", "VIVTOT": 9.0, "GRAPROES": 6.73, "_ent": "30", "_mun": "130", "_loc": "0049"}, "geometry": {"type": "Polygon", "coordinates": [[[-95.75059, 17.75972], [-95.74965, 17.75865], [-95.75034, 17.75811], [-95.7514, 17.75907], [-95.75059, 17.75972]]]}}, {"id": "2345278", "type": "Feature", "properties": {"id": "2345278", "CVEGEO": "3013000490307010", "POBTOT": 0.0, "score_nse": 0.0, "NSE": "ND", "VIVTOT": 0.0, "GRAPROES": 0.0, "_ent": "30", "_mun": "130", "_loc": "0049"}, "geometry": {"type": "Polygon", "coordinates": [[[-95.74617, 17.75712], [-95.74498, 17.75843], [-95.74418, 17.75777], [-95.74671, 17.75566], [-95.7473, 17.75631], [-95.74617, 17.75712]]]}}, {"id": "2345279", "type": "Feature", "properties": {"id": "2345279", "CVEGEO": "3013000490307007", "POBTOT": 19.0, "score_nse": 0.0, "NSE": "ND", "VIVTOT": 7.0, "GRAPROES": 7.0, "_ent": "30", "_mun": "130", "_loc": "0049"}, "geometry": {"type": "Polygon", "coordinates": [[[-95.74806, 17.76179], [-95.74699, 17.76078], [-95.74787, 17.76005], [-95.74881, 17.76119], [-95.74806, 17.76179]]]}}, {"id": "2345280", "type": "Feature", "properties": {"id": "2345280", "CVEGEO": "3013000490078047", "POBTOT": 15.0, "score_nse": 0.0, "NSE": "ND", "VIVTOT": 5.0, "GRAPROES": 5.62, "_ent": "30", "_mun": "130", "_loc": "0049"}, "geometry": {"type": "Polygon", "coordinates": [[[-95.75579, 17.76562], [-95.75585, 17.76538], [-95.75618, 17.76543], [-95.7565, 17.76594], [-95.75579, 17.76562]]]}}, {"id": "2345281", "type": "Feature", "properties": {"id": "2345281", "CVEGEO": "3013000490078046", "POBTOT": 2.0, "score_nse": 0.0, "NSE": "ND", "VIVTOT": 1.0, "GRAPROES": 0.0, "_ent": "30", "_mun": "130", "_loc": "0049"}, "geometry": {"type": "Polygon", "coordinates": [[[-95.75578, 17.76476], [-95.75516, 17.76468], [-95.75561, 17.76447], [-95.75578, 17.76476]]]}}, {"id": "2345282", "type": "Feature", "properties": {"id": "2345282", "CVEGEO": "3013000490078045", "POBTOT": 19.0, "score_nse": 0.0, "NSE": "ND", "VIVTOT": 9.0, "GRAPROES": 8.25, "_ent": "30", "_mun": "130", "_loc": "0049"}, "geometry": {"type": "Polygon", "coordinates": [[[-95.75674, 17.76473], [-95.75661, 17.76435], [-95.75715, 17.76415], [-95.75722, 17.76458], [-95.75674, 17.76473]]]}}, {"id": "2345283", "type": "Feature", "properties": {"id": "2345283", "CVEGEO": "3013000490078044", "POBTOT": 11.0, "score_nse": 0.0, "NSE": "ND", "VIVTOT": 8.0, "GRAPROES": 4.6, "_ent": "30", "_mun": "130", "_loc": "0049"}, "geometry": {"type": "Polygon", "coordinates": [[[-95.75155, 17.7644], [-95.75115, 17.7646], [-95.74989, 17.7637], [-95.7489, 17.76262], [-95.74964, 17.76206], [-95.75051, 17.7626], [-95.75183, 17.76379], [-95.75155, 17.7644]]]}}, {"id": "2345284", "type": "Feature", "properties": {"id": "2345284", "CVEGEO": "3013000490078042", "POBTOT": 4.0, "score_nse": 0.0, "NSE": "ND", "VIVTOT": 3.0, "GRAPROES": 0.0, "_ent": "30", "_mun": "130", "_loc": "0049"}, "geometry": {"type": "Polygon", "coordinates": [[[-95.75583, 17.75845], [-95.75596, 17.75779], [-95.75564, 17.75718], [-95.75669, 17.75785], [-95.75583, 17.75845]]]}}, {"id": "2345285", "type": "Feature", "properties": {"id": "2345285", "CVEGEO": "3013000490078026", "POBTOT": 5.0, "score_nse": 0.0, "NSE": "ND", "VIVTOT": 3.0, "GRAPROES": 0.0, "_ent": "30", "_mun": "130", "_loc": "0049"}, "geometry": {"type": "Polygon", "coordinates": [[[-95.75398, 17.76502], [-95.75444, 17.76502], [-95.75447, 17.7654], [-95.75405, 17.76543], [-95.75398, 17.76502]]]}}, {"id": "2345286", "type": "Feature", "properties": {"id": "2345286", "CVEGEO": "3013000490078025", "POBTOT": 11.0, "score_nse": 0.0, "NSE": "ND", "VIVTOT": 6.0, "GRAPROES": 4.7, "_ent": "30", "_mun": "130", "_loc": "0049"}, "geometry": {"type": "Polygon", "coordinates": [[[-95.75454, 17.7654], [-95.75452, 17.76501], [-95.755, 17.76499], [-95.75506, 17.76543], [-95.75454, 17.7654]]]}}, {"id": "2345287", "type": "Feature", "properties": {"id": "2345287", "CVEGEO": "3013000490078023", "POBTOT": 22.0, "score_nse": 0.0, "NSE": "ND", "VIVTOT": 16.0, "GRAPROES": 6.0, "_ent": "30", "_mun": "130", "_loc": "0049"}, "geometry": {"type": "Polygon", "coordinates": [[[-95.75852, 17.76299], [-95.75914, 17.76316], [-95.75968, 17.76328], [-95.75862, 17.76387], [-95.75826, 17.76375], [-95.75852, 17.76299]]]}}, {"id": "2345288", "type": "Feature", "properties": {"id": "2345288", "CVEGEO": "3013000490078022", "POBTOT": 3.0, "score_nse": 0.0, "NSE": "ND", "VIVTOT": 3.0, "GRAPROES": 0.0, "_ent": "30", "_mun": "130", "_loc": "0049"}, "geometry": {"type": "Polygon", "coordinates": [[[-95.75708, 17.76345], [-95.7571, 17.76253], [-95.75786, 17.76245], [-95.75766, 17.7626], [-95.75708, 17.76345]]]}}, {"id": "2345289", "type": "Feature", "properties": {"id": "2345289", "CVEGEO": "3013000490078021", "POBTOT": 2.0, "score_nse": 0.0, "NSE": "ND", "VIVTOT": 2.0, "GRAPROES": 0.0, "_ent": "30", "_mun": "130", "_loc": "0049"}, "geometry": {"type": "Polygon", "coordinates": [[[-95.75706, 17.76243], [-95.75652, 17.76149], [-95.75784, 17.76148], [-95.75811, 17.76237], [-95.75706, 17.76243]]]}}, {"id": "2345290", "type": "Feature", "properties": {"id": "2345290", "CVEGEO": "3013000490078020", "POBTOT": 17.0, "score_nse": 0.0, "NSE": "ND", "VIVTOT": 10.0, "GRAPROES": 4.07, "_ent": "30", "_mun": "130", "_loc": "0049"}, "geometry": {"type": "Polygon", "coordinates": [[[-95.7565, 17.76139], [-95.75628, 17.76068], [-95.75582, 17.75993], [-95.7561, 17.75975], [-95.75766, 17.75977], [-95.75714, 17.75974], [-95.75685, 17.75919], [-95.75768, 17.75858], [-95.75994, 17.76081], [-95.76008, 17.76124], [-95.7565, 17.76139]]]}}, {"id": "2345291", "type": "Feature", "properties": {"id": "2345291", "CVEGEO": "3013000490078006", "POBTOT": 43.0, "score_nse": 0.0, "NSE": "ND", "VIVTOT": 17.0, "GRAPROES": 6.82, "_ent": "30", "_mun": "130", "_loc": "0049"}, "geometry": {"type": "Polygon", "coordinates": [[[-95.75468, 17.76245], [-95.75499, 17.7617], [-95.75581, 17.7627], [-95.7547, 17.76297], [-95.75468, 17.76245]]]}}, {"id": "2345292", "type": "Feature", "properties": {"id": "2345292", "CVEGEO": "3013000490078005", "POBTOT": 9.0, "score_nse": 0.0, "NSE": "ND", "VIVTOT": 9.0, "GRAPROES": 7.5, "_ent": "30", "_mun": "130", "_loc": "0049"}, "geometry": {"type": "Polygon", "coordinates": [[[-95.75371, 17.76243], [-95.75378, 17.76197], [-95.75408, 17.76185], [-95.75456, 17.76248], [-95.75443, 17.76282], [-95.75371, 17.76243]]]}}, {"id": "2345293", "type": "Feature", "properties": {"id": "2345293", "CVEGEO": "3013000490078004", "POBTOT": 33.0, "score_nse": 0.0, "NSE": "ND", "VIVTOT": 23.0, "GRAPROES": 5.17, "_ent": "30", "_mun": "130", "_loc": "0049"}, "geometry": {"type": "Polygon", "coordinates": [[[-95.75408, 17.76395], [-95.75209, 17.76323], [-95.75187, 17.76369], [-95.75011, 17.76224], [-95.75047, 17.76209], [-95.75006, 17.76221], [-95.74972, 17.762], [-95.75041, 17.76145], [-95.7505, 17.76152], [-95.75043, 17.76143], [-95.75088, 17.76103], [-95.75107, 17.76122], [-95.7509, 17.76102], [-95.75156, 17.76043], [-95.75347, 17.76237], [-95.75436, 17.76291], [-95.75408, 17.76395]]]}}, {"id": "2345294", "type": "Feature", "properties": {"id": "2345294", "CVEGEO": "3013000490078002", "POBTOT": 33.0, "score_nse": 0.0, "NSE": "ND", "VIVTOT": 10.0, "GRAPROES": 7.71, "_ent": "30", "_mun": "130", "_loc": "0049"}, "geometry": {"type": "Polygon", "coordinates": [[[-95.75498, 17.7646], [-95.7547, 17.7632], [-95.75552, 17.76431], [-95.75498, 17.7646]]]}}, {"id": "2345549", "type": "Feature", "properties": {"id": "2345549", "CVEGEO": "3013000490307013", "POBTOT": 20.0, "score_nse": 0.0, "NSE": "ND", "VIVTOT": 5.0, "GRAPROES": 6.73, "_ent": "30", "_mun": "130", "_loc": "0049"}, "geometry": {"type": "Polygon", "coordinates": [[[-95.74757, 17.75634], [-95.74833, 17.75568], [-95.74897, 17.75644], [-95.74817, 17.75704], [-95.74757, 17.75634]]]}}, {"id": "2345563", "type": "Feature", "properties": {"id": "2345563", "CVEGEO": "3013000490307015", "POBTOT": 21.0, "score_nse": 0.0, "NSE": "ND", "VIVTOT": 8.0, "GRAPROES": 5.88, "_ent": "30", "_mun": "130", "_loc": "0049"}, "geometry": {"type": "Polygon", "coordinates": [[[-95.74893, 17.75789], [-95.74964, 17.75731], [-95.7502, 17.75802], [-95.74952, 17.75859], [-95.74893, 17.75789]]]}}, {"id": "2345564", "type": "Feature", "properties": {"id": "2345564", "CVEGEO": "3013000490307014", "POBTOT": 8.0, "score_nse": 0.0, "NSE": "ND", "VIVTOT": 6.0, "GRAPROES": 1.75, "_ent": "30", "_mun": "130", "_loc": "0049"}, "geometry": {"type": "Polygon", "coordinates": [[[-95.74824, 17.75712], [-95.74901, 17.75652], [-95.74959, 17.75723], [-95.74887, 17.75783], [-95.74824, 17.75712]]]}}, {"id": "2345565", "type": "Feature", "properties": {"id": "2345565", "CVEGEO": "3013000490078024", "POBTOT": 21.0, "score_nse": 0.0, "NSE": "ND", "VIVTOT": 9.0, "GRAPROES": 8.65, "_ent": "30", "_mun": "130", "_loc": "0049"}, "geometry": {"type": "Polygon", "coordinates": [[[-95.75734, 17.76452], [-95.75724, 17.76412], [-95.75747, 17.76403], [-95.7572, 17.76403], [-95.75716, 17.76378], [-95.75783, 17.76375], [-95.75847, 17.76396], [-95.75734, 17.76452]]]}}, {"id": "2345566", "type": "Feature", "properties": {"id": "2345566", "CVEGEO": "3013000490078003", "POBTOT": 36.0, "score_nse": 0.0, "NSE": "ND", "VIVTOT": 15.0, "GRAPROES": 8.1, "_ent": "30", "_mun": "130", "_loc": "0049"}, "geometry": {"type": "Polygon", "coordinates": [[[-95.75445, 17.76458], [-95.75436, 17.76422], [-95.75436, 17.76458], [-95.75405, 17.7645], [-95.75451, 17.76291], [-95.75487, 17.7646], [-95.75445, 17.76458]]]}}, {"id": "2345621", "type": "Feature", "properties": {"id": "2345621", "CVEGEO": "3013000490078043", "POBTOT": 0.0, "score_nse": 0.0, "NSE": "ND", "VIVTOT": 0.0, "GRAPROES": 0.0, "_ent": "30", "_mun": "130", "_loc": "0049"}, "geometry": {"type": "Polygon", "coordinates": [[[-95.76017, 17.76196], [-95.76007, 17.76085], [-95.76095, 17.7615], [-95.76017, 17.76196]]]}}, {"id": "2345760", "type": "Feature", "properties": {"id": "2345760", "CVEGEO": "3013000490078001", "POBTOT": 67.0, "score_nse": 0.0, "NSE": "ND", "VIVTOT": 21.0, "GRAPROES": 7.49, "_ent": "30", "_mun": "130", "_loc": "0049"}, "geometry": {"type": "Polygon", "coordinates": [[[-95.75564, 17.76426], [-95.75469, 17.76306], [-95.75518, 17.76294], [-95.75535, 17.76313], [-95.75521, 17.76292], [-95.75583, 17.76277], [-95.75627, 17.76392], [-95.75564, 17.76426]]]}}, {"id": "2345761", "type": "Feature", "properties": {"id": "2345761", "CVEGEO": "3013000490078041", "POBTOT": 31.0, "score_nse": 0.0, "NSE": "ND", "VIVTOT": 11.0, "GRAPROES": 5.14, "_ent": "30", "_mun": "130", "_loc": "0049"}, "geometry": {"type": "Polygon", "coordinates": [[[-95.75558, 17.75715], [-95.75586, 17.75783], [-95.75572, 17.75871], [-95.75382, 17.75902], [-95.75413, 17.75774], [-95.75462, 17.75782], [-95.75415, 17.75768], [-95.75432, 17.757], [-95.75558, 17.75715]]]}}, {"id": "2345762", "type": "Feature", "properties": {"id": "2345762", "CVEGEO": "3013000490398016", "POBTOT": 21.0, "score_nse": 0.0, "NSE": "ND", "VIVTOT": 7.0, "GRAPROES": 6.65, "_ent": "30", "_mun": "130", "_loc": "0049"}, "geometry": {"type": "Polygon", "coordinates": [[[-95.75626, 17.76973], [-95.75553, 17.76804], [-95.75745, 17.76722], [-95.75853, 17.76848], [-95.75786, 17.76863], [-95.75855, 17.76859], [-95.75849, 17.76943], [-95.75714, 17.77088], [-95.75626, 17.76973]]]}}, {"id": "2345763", "type": "Feature", "properties": {"id": "2345763", "CVEGEO": "3013000490400020", "POBTOT": 8.0, "score_nse": 0.0, "NSE": "ND", "VIVTOT": 3.0, "GRAPROES": 5.17, "_ent": "30", "_mun": "130", "_loc": "0049"}, "geometry": {"type": "Polygon", "coordinates": [[[-95.77118, 17.77389], [-95.77058, 17.77417], [-95.76941, 17.77328], [-95.76812, 17.77261], [-95.76771, 17.77212], [-95.76738, 17.77112], [-95.76805, 17.77097], [-95.76886, 17.77225], [-95.77118, 17.77389]]]}}]}