{"type": "FeatureCollection", "features": [{"id": "607755", "type": "Feature", "properties": {"id": "607755", "CVEGEO": "1100100060010001", "POBTOT": 0.0, "score_nse": 0.0, "NSE": null, "VIVTOT": 0.0, "GRAPROES": 0.0, "_ent": "11", "_mun": "001", "_loc": "0006"}, "geometry": {"type": "Polygon", "coordinates": [[[-101.57688, 20.6841], [-101.57724, 20.68173], [-101.57767, 20.68178], [-101.57764, 20.68203], [-101.57773, 20.68179], [-101.57818, 20.68185], [-101.57819, 20.68226], [-101.57826, 20.68187], [-101.57916, 20.68195], [-101.57901, 20.6824], [-101.57939, 20.68274], [-101.57908, 20.68239], [-101.57924, 20.6819], [-101.58007, 20.68199], [-101.58007, 20.68323], [-101.5802, 20.68322], [-101.58008, 20.68364], [-101.57965, 20.68358], [-101.57964, 20.68312], [-101.57853, 20.68275], [-101.57864, 20.6823], [-101.57841, 20.68227], [-101.57814, 20.68357], [-101.57724, 20.68349], [-101.57721, 20.68413], [-101.57688, 20.6841]]]}}]}