{"type": "FeatureCollection", "features": [{"id": "337327", "type": "Feature", "properties": {"id": "337327", "CVEGEO": "0710901620022003", "POBTOT": 0.0, "score_nse": 0.0, "NSE": null, "VIVTOT": 0.0, "GRAPROES": 0.0, "_ent": "07", "_mun": "109", "_loc": "0162"}, "geometry": {"type": "Polygon", "coordinates": [[[-92.27806, 17.16176], [-92.27862, 17.16233], [-92.27853, 17.16248], [-92.27789, 17.16205], [-92.27806, 17.16176]]]}}, {"id": "337328", "type": "Feature", "properties": {"id": "337328", "CVEGEO": "0710901620022002", "POBTOT": 0.0, "score_nse": 0.0, "NSE": null, "VIVTOT": 0.0, "GRAPROES": 0.0, "_ent": "07", "_mun": "109", "_loc": "0162"}, "geometry": {"type": "Polygon", "coordinates": [[[-92.27872, 17.16235], [-92.27896, 17.1626], [-92.27901, 17.16282], [-92.27862, 17.16256], [-92.27872, 17.16235]]]}}, {"id": "337329", "type": "Feature", "properties": {"id": "337329", "CVEGEO": "0710901620022001", "POBTOT": 0.0, "score_nse": 0.0, "NSE": null, "VIVTOT": 0.0, "GRAPROES": 0.0, "_ent": "07", "_mun": "109", "_loc": "0162"}, "geometry": {"type": "Polygon", "coordinates": [[[-92.27907, 17.16286], [-92.27875, 17.16227], [-92.27902, 17.16198], [-92.27943, 17.16198], [-92.27995, 17.16234], [-92.27938, 17.16306], [-92.27907, 17.16286]]]}}, {"id": "337506", "type": "Feature", "properties": {"id": "337506", "CVEGEO": "0710901620022006", "POBTOT": 0.0, "score_nse": 0.0, "NSE": null, "VIVTOT": 0.0, "GRAPROES": 0.0, "_ent": "07", "_mun": "109", "_loc": "0162"}, "geometry": {"type": "Polygon", "coordinates": [[[-92.27933, 17.16313], [-92.27905, 17.16352], [-92.27818, 17.16319], [-92.2786, 17.16267], [-92.27933, 17.16313]]]}}, {"id": "337507", "type": "Feature", "properties": {"id": "337507", "CVEGEO": "0710901620022005", "POBTOT": 0.0, "score_nse": 0.0, "NSE": null, "VIVTOT": 0.0, "GRAPROES": 0.0, "_ent": "07", "_mun": "109", "_loc": "0162"}, "geometry": {"type": "Polygon", "coordinates": [[[-92.27935, 17.16193], [-92.27912, 17.16198], [-92.27906, 17.16193], [-92.27918, 17.16181], [-92.27935, 17.16193]]]}}, {"id": "337623", "type": "Feature", "properties": {"id": "337623", "CVEGEO": "0710901620022011", "POBTOT": 0.0, "score_nse": 0.0, "NSE": null, "VIVTOT": 0.0, "GRAPROES": 0.0, "_ent": "07", "_mun": "109", "_loc": "0162"}, "geometry": {"type": "Polygon", "coordinates": [[[-92.27958, 17.16196], [-92.27993, 17.16186], [-92.28035, 17.16195], [-92.27999, 17.1623], [-92.27958, 17.16196]]]}}, {"id": "337624", "type": "Feature", "properties": {"id": "337624", "CVEGEO": "0710901620022010", "POBTOT": 0.0, "score_nse": 0.0, "NSE": null, "VIVTOT": 0.0, "GRAPROES": 0.0, "_ent": "07", "_mun": "109", "_loc": "0162"}, "geometry": {"type": "Polygon", "coordinates": [[[-92.28043, 17.16187], [-92.27952, 17.16191], [-92.27926, 17.1617], [-92.27974, 17.16093], [-92.28065, 17.16166], [-92.28043, 17.16187]]]}}, {"id": "337625", "type": "Feature", "properties": {"id": "337625", "CVEGEO": "0710901620022009", "POBTOT": 0.0, "score_nse": 0.0, "NSE": null, "VIVTOT": 0.0, "GRAPROES": 0.0, "_ent": "07", "_mun": "109", "_loc": "0162"}, "geometry": {"type": "Polygon", "coordinates": [[[-92.27842, 17.16114], [-92.27884, 17.16025], [-92.2797, 17.16091], [-92.27917, 17.16166], [-92.27842, 17.16114]]]}}, {"id": "337626", "type": "Feature", "properties": {"id": "337626", "CVEGEO": "0710901620022008", "POBTOT": 0.0, "score_nse": 0.0, "NSE": null, "VIVTOT": 0.0, "GRAPROES": 0.0, "_ent": "07", "_mun": "109", "_loc": "0162"}, "geometry": {"type": "Polygon", "coordinates": [[[-92.27911, 17.16173], [-92.27863, 17.16172], [-92.27835, 17.16184], [-92.27811, 17.16168], [-92.27836, 17.16123], [-92.27911, 17.16173]]]}}, {"id": "337627", "type": "Feature", "properties": {"id": "337627", "CVEGEO": "0710901620022007", "POBTOT": 0.0, "score_nse": 0.0, "NSE": null, "VIVTOT": 0.0, "GRAPROES": 0.0, "_ent": "07", "_mun": "109", "_loc": "0162"}, "geometry": {"type": "Polygon", "coordinates": [[[-92.27848, 17.16255], [-92.27806, 17.16315], [-92.27742, 17.16269], [-92.27786, 17.16214], [-92.27848, 17.16255]]]}}, {"id": "337638", "type": "Feature", "properties": {"id": "337638", "CVEGEO": "0710901620022004", "POBTOT": 0.0, "score_nse": 0.0, "NSE": null, "VIVTOT": 0.0, "GRAPROES": 0.0, "_ent": "07", "_mun": "109", "_loc": "0162"}, "geometry": {"type": "Polygon", "coordinates": [[[-92.27869, 17.16222], [-92.27835, 17.16191], [-92.27861, 17.16179], [-92.27892, 17.16192], [-92.27869, 17.16222]]]}}]}