{"type": "FeatureCollection", "features": [{"id": "750054", "type": "Feature", "properties": {"id": "750054", "CVEGEO": "120120092017A023", "POBTOT": 0.0, "score_nse": 0.0, "NSE": null, "VIVTOT": 0.0, "GRAPROES": 0.0, "_ent": "12", "_mun": "012", "_loc": "0092"}, "geometry": {"type": "Polygon", "coordinates": [[[-99.12226, 17.12878], [-99.12197, 17.12879], [-99.12176, 17.12846], [-99.12217, 17.1286], [-99.12226, 17.12878]]]}}, {"id": "750055", "type": "Feature", "properties": {"id": "750055", "CVEGEO": "120120092017A022", "POBTOT": 0.0, "score_nse": 0.0, "NSE": null, "VIVTOT": 0.0, "GRAPROES": 0.0, "_ent": "12", "_mun": "012", "_loc": "0092"}, "geometry": {"type": "Polygon", "coordinates": [[[-99.12246, 17.12915], [-99.12216, 17.12931], [-99.12201, 17.12892], [-99.12229, 17.12886], [-99.12246, 17.12915]]]}}, {"id": "750056", "type": "Feature", "properties": {"id": "750056", "CVEGEO": "120120092017A020", "POBTOT": 0.0, "score_nse": 0.0, "NSE": null, "VIVTOT": 0.0, "GRAPROES": 0.0, "_ent": "12", "_mun": "012", "_loc": "0092"}, "geometry": {"type": "Polygon", "coordinates": [[[-99.12233, 17.13003], [-99.12245, 17.12985], [-99.12272, 17.12987], [-99.12247, 17.12982], [-99.12314, 17.12917], [-99.12344, 17.12936], [-99.1231, 17.12972], [-99.12327, 17.12985], [-99.12326, 17.13011], [-99.12233, 17.13003]]]}}, {"id": "750105", "type": "Feature", "properties": {"id": "750105", "CVEGEO": "120120092017A008", "POBTOT": 0.0, "score_nse": 0.0, "NSE": null, "VIVTOT": 0.0, "GRAPROES": 0.0, "_ent": "12", "_mun": "012", "_loc": "0092"}, "geometry": {"type": "Polygon", "coordinates": [[[-99.12044, 17.13147], [-99.12007, 17.13063], [-99.12054, 17.13069], [-99.12157, 17.13045], [-99.12121, 17.13143], [-99.12044, 17.13147]]]}}, {"id": "750214", "type": "Feature", "properties": {"id": "750214", "CVEGEO": "120120092017A013", "POBTOT": 0.0, "score_nse": 0.0, "NSE": null, "VIVTOT": 0.0, "GRAPROES": 0.0, "_ent": "12", "_mun": "012", "_loc": "0092"}, "geometry": {"type": "Polygon", "coordinates": [[[-99.12159, 17.12896], [-99.12155, 17.12852], [-99.12167, 17.12848], [-99.12196, 17.12886], [-99.12159, 17.12896]]]}}, {"id": "750261", "type": "Feature", "properties": {"id": "750261", "CVEGEO": "120120092017A027", "POBTOT": 0.0, "score_nse": 0.0, "NSE": null, "VIVTOT": 0.0, "GRAPROES": 0.0, "_ent": "12", "_mun": "012", "_loc": "0092"}, "geometry": {"type": "Polygon", "coordinates": [[[-99.12247, 17.12925], [-99.12264, 17.1292], [-99.12278, 17.12944], [-99.12265, 17.12956], [-99.12247, 17.12925]]]}}, {"id": "750409", "type": "Feature", "properties": {"id": "750409", "CVEGEO": "120120092017A021", "POBTOT": 0.0, "score_nse": 0.0, "NSE": null, "VIVTOT": 0.0, "GRAPROES": 0.0, "_ent": "12", "_mun": "012", "_loc": "0092"}, "geometry": {"type": "Polygon", "coordinates": [[[-99.12244, 17.12926], [-99.12262, 17.12959], [-99.12243, 17.12977], [-99.12218, 17.12934], [-99.12244, 17.12926]]]}}, {"id": "750410", "type": "Feature", "properties": {"id": "750410", "CVEGEO": "120120092017A017", "POBTOT": 0.0, "score_nse": 0.0, "NSE": null, "VIVTOT": 0.0, "GRAPROES": 0.0, "_ent": "12", "_mun": "012", "_loc": "0092"}, "geometry": {"type": "Polygon", "coordinates": [[[-99.12141, 17.13279], [-99.12139, 17.1317], [-99.12194, 17.13173], [-99.12221, 17.13247], [-99.12176, 17.13246], [-99.12141, 17.13279]]]}}, {"id": "750411", "type": "Feature", "properties": {"id": "750411", "CVEGEO": "120120092017A015", "POBTOT": 0.0, "score_nse": 0.0, "NSE": null, "VIVTOT": 0.0, "GRAPROES": 0.0, "_ent": "12", "_mun": "012", "_loc": "0092"}, "geometry": {"type": "Polygon", "coordinates": [[[-99.12205, 17.12982], [-99.12228, 17.13004], [-99.12172, 17.13042], [-99.12143, 17.13036], [-99.12059, 17.1306], [-99.12036, 17.1305], [-99.12037, 17.13009], [-99.12215, 17.12938], [-99.12238, 17.12979], [-99.12205, 17.12982]]]}}, {"id": "750412", "type": "Feature", "properties": {"id": "750412", "CVEGEO": "120120092017A014", "POBTOT": 0.0, "score_nse": 0.0, "NSE": null, "VIVTOT": 0.0, "GRAPROES": 0.0, "_ent": "12", "_mun": "012", "_loc": "0092"}, "geometry": {"type": "Polygon", "coordinates": [[[-99.12212, 17.12934], [-99.12045, 17.12999], [-99.12098, 17.12932], [-99.12196, 17.12892], [-99.12212, 17.12934]]]}}, {"id": "750465", "type": "Feature", "properties": {"id": "750465", "CVEGEO": "120120092017A033", "POBTOT": 0.0, "score_nse": 0.0, "NSE": null, "VIVTOT": 0.0, "GRAPROES": 0.0, "_ent": "12", "_mun": "012", "_loc": "0092"}, "geometry": {"type": "Polygon", "coordinates": [[[-99.12381, 17.12922], [-99.12354, 17.12954], [-99.12344, 17.12917], [-99.12381, 17.12922]]]}}, {"id": "750466", "type": "Feature", "properties": {"id": "750466", "CVEGEO": "120120092017A028", "POBTOT": 0.0, "score_nse": 0.0, "NSE": null, "VIVTOT": 0.0, "GRAPROES": 0.0, "_ent": "12", "_mun": "012", "_loc": "0092"}, "geometry": {"type": "Polygon", "coordinates": [[[-99.12371, 17.12914], [-99.12315, 17.12909], [-99.12294, 17.1283], [-99.12334, 17.12846], [-99.12371, 17.12914]]]}}, {"id": "750467", "type": "Feature", "properties": {"id": "750467", "CVEGEO": "120120092017A003", "POBTOT": 0.0, "score_nse": 0.0, "NSE": null, "VIVTOT": 0.0, "GRAPROES": 0.0, "_ent": "12", "_mun": "012", "_loc": "0092"}, "geometry": {"type": "Polygon", "coordinates": [[[-99.12235, 17.12761], [-99.12311, 17.12739], [-99.1234, 17.12757], [-99.12365, 17.12805], [-99.12353, 17.12863], [-99.12322, 17.12826], [-99.12291, 17.12827], [-99.12235, 17.12761]]]}}, {"id": "750553", "type": "Feature", "properties": {"id": "750553", "CVEGEO": "120120092017A026", "POBTOT": 0.0, "score_nse": 0.0, "NSE": null, "VIVTOT": 0.0, "GRAPROES": 0.0, "_ent": "12", "_mun": "012", "_loc": "0092"}, "geometry": {"type": "Polygon", "coordinates": [[[-99.1231, 17.12907], [-99.12251, 17.12914], [-99.12222, 17.12861], [-99.12192, 17.12843], [-99.1221, 17.12833], [-99.12207, 17.12792], [-99.12234, 17.12764], [-99.12289, 17.1283], [-99.1231, 17.12907]]]}}, {"id": "750627", "type": "Feature", "properties": {"id": "750627", "CVEGEO": "120120092017A031", "POBTOT": 0.0, "score_nse": 0.0, "NSE": null, "VIVTOT": 0.0, "GRAPROES": 0.0, "_ent": "12", "_mun": "012", "_loc": "0092"}, "geometry": {"type": "Polygon", "coordinates": [[[-99.12375, 17.12958], [-99.12385, 17.1292], [-99.12414, 17.12909], [-99.12467, 17.13002], [-99.12398, 17.13013], [-99.12375, 17.12958]]]}}]}