{"type": "FeatureCollection", "features": [{"id": "1571601", "type": "Feature", "properties": {"id": "1571601", "CVEGEO": "204610002001A005", "POBTOT": 0.0, "score_nse": 0.0, "NSE": null, "VIVTOT": 0.0, "GRAPROES": 0.0, "_ent": "20", "_mun": "461", "_loc": "0002"}, "geometry": {"type": "Polygon", "coordinates": [[[-98.10891, 17.41815], [-98.10874, 17.41854], [-98.10832, 17.41828], [-98.10837, 17.41799], [-98.10891, 17.41815]]]}}, {"id": "1571602", "type": "Feature", "properties": {"id": "1571602", "CVEGEO": "204610002001A013", "POBTOT": 0.0, "score_nse": 0.0, "NSE": null, "VIVTOT": 0.0, "GRAPROES": 0.0, "_ent": "20", "_mun": "461", "_loc": "0002"}, "geometry": {"type": "Polygon", "coordinates": [[[-98.10834, 17.41796], [-98.10824, 17.41825], [-98.10728, 17.4182], [-98.10729, 17.41796], [-98.10755, 17.41788], [-98.10834, 17.41796]]]}}, {"id": "1571603", "type": "Feature", "properties": {"id": "1571603", "CVEGEO": "204610002001A020", "POBTOT": 0.0, "score_nse": 0.0, "NSE": null, "VIVTOT": 0.0, "GRAPROES": 0.0, "_ent": "20", "_mun": "461", "_loc": "0002"}, "geometry": {"type": "Polygon", "coordinates": [[[-98.10738, 17.41783], [-98.10613, 17.41785], [-98.10456, 17.41763], [-98.10633, 17.41739], [-98.10738, 17.41783]]]}}, {"id": "1571604", "type": "Feature", "properties": {"id": "1571604", "CVEGEO": "204610002001A001", "POBTOT": 0.0, "score_nse": 0.0, "NSE": null, "VIVTOT": 0.0, "GRAPROES": 0.0, "_ent": "20", "_mun": "461", "_loc": "0002"}, "geometry": {"type": "Polygon", "coordinates": [[[-98.10934, 17.41785], [-98.10933, 17.41816], [-98.10851, 17.41795], [-98.10881, 17.41716], [-98.10934, 17.4173], [-98.10922, 17.41778], [-98.10934, 17.41785]]]}}, {"id": "1571605", "type": "Feature", "properties": {"id": "1571605", "CVEGEO": "204610002001A003", "POBTOT": 0.0, "score_nse": 0.0, "NSE": null, "VIVTOT": 0.0, "GRAPROES": 0.0, "_ent": "20", "_mun": "461", "_loc": "0002"}, "geometry": {"type": "Polygon", "coordinates": [[[-98.10963, 17.41746], [-98.10951, 17.41817], [-98.10936, 17.41815], [-98.1093, 17.41738], [-98.10963, 17.41746]]]}}, {"id": "1571606", "type": "Feature", "properties": {"id": "1571606", "CVEGEO": "204610002001A008", "POBTOT": 0.0, "score_nse": 0.0, "NSE": null, "VIVTOT": 0.0, "GRAPROES": 0.0, "_ent": "20", "_mun": "461", "_loc": "0002"}, "geometry": {"type": "Polygon", "coordinates": [[[-98.11252, 17.41893], [-98.11235, 17.42009], [-98.11203, 17.42014], [-98.11119, 17.41905], [-98.11019, 17.41835], [-98.11033, 17.41796], [-98.11022, 17.41825], [-98.10956, 17.41819], [-98.10967, 17.41746], [-98.109, 17.41706], [-98.11013, 17.41707], [-98.11129, 17.41759], [-98.11181, 17.41765], [-98.11206, 17.41788], [-98.11252, 17.41893]]]}}, {"id": "1571607", "type": "Feature", "properties": {"id": "1571607", "CVEGEO": "204610002001A009", "POBTOT": 0.0, "score_nse": 0.0, "NSE": null, "VIVTOT": 0.0, "GRAPROES": 0.0, "_ent": "20", "_mun": "461", "_loc": "0002"}, "geometry": {"type": "Polygon", "coordinates": [[[-98.11188, 17.4201], [-98.10988, 17.41876], [-98.10936, 17.41862], [-98.10943, 17.41823], [-98.11006, 17.4183], [-98.11099, 17.41898], [-98.11188, 17.4201]]]}}, {"id": "1571608", "type": "Feature", "properties": {"id": "1571608", "CVEGEO": "204610002001A002", "POBTOT": 0.0, "score_nse": 0.0, "NSE": null, "VIVTOT": 0.0, "GRAPROES": 0.0, "_ent": "20", "_mun": "461", "_loc": "0002"}, "geometry": {"type": "Polygon", "coordinates": [[[-98.11002, 17.41703], [-98.10968, 17.41704], [-98.10913, 17.417], [-98.10955, 17.41641], [-98.11002, 17.41703]]]}}, {"id": "1571609", "type": "Feature", "properties": {"id": "1571609", "CVEGEO": "204610002001A006", "POBTOT": 0.0, "score_nse": 0.0, "NSE": null, "VIVTOT": 0.0, "GRAPROES": 0.0, "_ent": "20", "_mun": "461", "_loc": "0002"}, "geometry": {"type": "Polygon", "coordinates": [[[-98.10889, 17.41706], [-98.10871, 17.41716], [-98.10845, 17.41792], [-98.10826, 17.41785], [-98.10824, 17.41698], [-98.10846, 17.41601], [-98.10869, 17.41687], [-98.10889, 17.41706]]]}}, {"id": "1571610", "type": "Feature", "properties": {"id": "1571610", "CVEGEO": "204610002001A014", "POBTOT": 0.0, "score_nse": 0.0, "NSE": null, "VIVTOT": 0.0, "GRAPROES": 0.0, "_ent": "20", "_mun": "461", "_loc": "0002"}, "geometry": {"type": "Polygon", "coordinates": [[[-98.10761, 17.41714], [-98.10753, 17.4178], [-98.1064, 17.41732], [-98.1066, 17.41671], [-98.10761, 17.41714]]]}}, {"id": "1571611", "type": "Feature", "properties": {"id": "1571611", "CVEGEO": "204610002001A015", "POBTOT": 0.0, "score_nse": 0.0, "NSE": null, "VIVTOT": 0.0, "GRAPROES": 0.0, "_ent": "20", "_mun": "461", "_loc": "0002"}, "geometry": {"type": "Polygon", "coordinates": [[[-98.10752, 17.41693], [-98.10658, 17.41663], [-98.10669, 17.41597], [-98.1075, 17.41602], [-98.10752, 17.41693]]]}}, {"id": "1571612", "type": "Feature", "properties": {"id": "1571612", "CVEGEO": "204610002001A011", "POBTOT": 0.0, "score_nse": 0.0, "NSE": null, "VIVTOT": 0.0, "GRAPROES": 0.0, "_ent": "20", "_mun": "461", "_loc": "0002"}, "geometry": {"type": "Polygon", "coordinates": [[[-98.10814, 17.41765], [-98.1076, 17.41697], [-98.10755, 17.41586], [-98.10774, 17.41489], [-98.10764, 17.41464], [-98.10729, 17.41442], [-98.10751, 17.4143], [-98.10785, 17.41431], [-98.10835, 17.41493], [-98.10839, 17.41631], [-98.10814, 17.41765]]]}}, {"id": "1571613", "type": "Feature", "properties": {"id": "1571613", "CVEGEO": "204610002001A004", "POBTOT": 0.0, "score_nse": 0.0, "NSE": null, "VIVTOT": 0.0, "GRAPROES": 0.0, "_ent": "20", "_mun": "461", "_loc": "0002"}, "geometry": {"type": "Polygon", "coordinates": [[[-98.10939, 17.41823], [-98.10933, 17.41862], [-98.10885, 17.41854], [-98.10904, 17.41817], [-98.10939, 17.41823]]]}}, {"id": "1571614", "type": "Feature", "properties": {"id": "1571614", "CVEGEO": "204610002001A025", "POBTOT": 0.0, "score_nse": 0.0, "NSE": null, "VIVTOT": 0.0, "GRAPROES": 0.0, "_ent": "20", "_mun": "461", "_loc": "0002"}, "geometry": {"type": "Polygon", "coordinates": [[[-98.10846, 17.41915], [-98.10818, 17.41943], [-98.10567, 17.41932], [-98.10692, 17.41902], [-98.10846, 17.41915]]]}}, {"id": "1571615", "type": "Feature", "properties": {"id": "1571615", "CVEGEO": "204610002001A007", "POBTOT": 0.0, "score_nse": 0.0, "NSE": null, "VIVTOT": 0.0, "GRAPROES": 0.0, "_ent": "20", "_mun": "461", "_loc": "0002"}, "geometry": {"type": "Polygon", "coordinates": [[[-98.10987, 17.41534], [-98.10959, 17.41639], [-98.10895, 17.41703], [-98.10873, 17.41684], [-98.10845, 17.41588], [-98.10839, 17.41488], [-98.10796, 17.41441], [-98.10945, 17.41461], [-98.10952, 17.41483], [-98.1097, 17.41483], [-98.10987, 17.41534]]]}}, {"id": "1571616", "type": "Feature", "properties": {"id": "1571616", "CVEGEO": "204610002001A016", "POBTOT": 0.0, "score_nse": 0.0, "NSE": null, "VIVTOT": 0.0, "GRAPROES": 0.0, "_ent": "20", "_mun": "461", "_loc": "0002"}, "geometry": {"type": "Polygon", "coordinates": [[[-98.10767, 17.41513], [-98.10748, 17.41595], [-98.1067, 17.41592], [-98.10679, 17.41534], [-98.10707, 17.41497], [-98.10748, 17.41522], [-98.10767, 17.41513]]]}}, {"id": "1571617", "type": "Feature", "properties": {"id": "1571617", "CVEGEO": "204610002001A023", "POBTOT": 0.0, "score_nse": 0.0, "NSE": null, "VIVTOT": 0.0, "GRAPROES": 0.0, "_ent": "20", "_mun": "461", "_loc": "0002"}, "geometry": {"type": "Polygon", "coordinates": [[[-98.10768, 17.41509], [-98.1075, 17.4152], [-98.10706, 17.41494], [-98.10671, 17.41543], [-98.10626, 17.4145], [-98.10719, 17.41441], [-98.10761, 17.41468], [-98.10768, 17.41509]]]}}, {"id": "1571618", "type": "Feature", "properties": {"id": "1571618", "CVEGEO": "204610002001A018", "POBTOT": 0.0, "score_nse": 0.0, "NSE": null, "VIVTOT": 0.0, "GRAPROES": 0.0, "_ent": "20", "_mun": "461", "_loc": "0002"}, "geometry": {"type": "Polygon", "coordinates": [[[-98.10813, 17.4183], [-98.108, 17.4186], [-98.10735, 17.41865], [-98.10729, 17.41825], [-98.10813, 17.4183]]]}}, {"id": "1571619", "type": "Feature", "properties": {"id": "1571619", "CVEGEO": "204610002001A022", "POBTOT": 0.0, "score_nse": 0.0, "NSE": null, "VIVTOT": 0.0, "GRAPROES": 0.0, "_ent": "20", "_mun": "461", "_loc": "0002"}, "geometry": {"type": "Polygon", "coordinates": [[[-98.11345, 17.42098], [-98.11277, 17.42033], [-98.11235, 17.42019], [-98.11261, 17.41902], [-98.11285, 17.41931], [-98.11345, 17.42098]]]}}, {"id": "1571621", "type": "Feature", "properties": {"id": "1571621", "CVEGEO": "204610002001A010", "POBTOT": 0.0, "score_nse": 0.0, "NSE": null, "VIVTOT": 0.0, "GRAPROES": 0.0, "_ent": "20", "_mun": "461", "_loc": "0002"}, "geometry": {"type": "Polygon", "coordinates": [[[-98.10813, 17.41782], [-98.10764, 17.41781], [-98.10767, 17.41723], [-98.1079, 17.41734], [-98.10813, 17.41782]]]}}, {"id": "1571622", "type": "Feature", "properties": {"id": "1571622", "CVEGEO": "204610002001A017", "POBTOT": 0.0, "score_nse": 0.0, "NSE": null, "VIVTOT": 0.0, "GRAPROES": 0.0, "_ent": "20", "_mun": "461", "_loc": "0002"}, "geometry": {"type": "Polygon", "coordinates": [[[-98.10872, 17.4186], [-98.10845, 17.41908], [-98.10724, 17.41912], [-98.10693, 17.419], [-98.10723, 17.4187], [-98.10802, 17.41863], [-98.1082, 17.4183], [-98.10872, 17.4186]]]}}, {"id": "1571629", "type": "Feature", "properties": {"id": "1571629", "CVEGEO": "204610002001A024", "POBTOT": 0.0, "score_nse": 0.0, "NSE": null, "VIVTOT": 0.0, "GRAPROES": 0.0, "_ent": "20", "_mun": "461", "_loc": "0002"}, "geometry": {"type": "Polygon", "coordinates": [[[-98.11398, 17.42158], [-98.11431, 17.42196], [-98.11429, 17.42245], [-98.11435, 17.422], [-98.11471, 17.42249], [-98.11441, 17.42288], [-98.11475, 17.42253], [-98.11505, 17.42285], [-98.11469, 17.42292], [-98.11473, 17.42344], [-98.11474, 17.42296], [-98.11511, 17.42287], [-98.11545, 17.42315], [-98.11539, 17.42428], [-98.11598, 17.42509], [-98.11488, 17.42481], [-98.11487, 17.42433], [-98.11517, 17.42427], [-98.11462, 17.42387], [-98.11407, 17.4231], [-98.11376, 17.42307], [-98.11398, 17.42158]]]}}, {"id": "1571630", "type": "Feature", "properties": {"id": "1571630", "CVEGEO": "204610002001A026", "POBTOT": 0.0, "score_nse": 0.0, "NSE": null, "VIVTOT": 0.0, "GRAPROES": 0.0, "_ent": "20", "_mun": "461", "_loc": "0002"}, "geometry": {"type": "Polygon", "coordinates": [[[-98.11288, 17.42485], [-98.11245, 17.424], [-98.11257, 17.42343], [-98.11252, 17.4222], [-98.11225, 17.42154], [-98.11236, 17.42024], [-98.11274, 17.42035], [-98.11391, 17.42154], [-98.11347, 17.42413], [-98.11318, 17.42487], [-98.11288, 17.42485]]]}}, {"id": "1571633", "type": "Feature", "properties": {"id": "1571633", "CVEGEO": "204610002001A027", "POBTOT": 0.0, "score_nse": 0.0, "NSE": null, "VIVTOT": 0.0, "GRAPROES": 0.0, "_ent": "20", "_mun": "461", "_loc": "0002"}, "geometry": {"type": "Polygon", "coordinates": [[[-98.10649, 17.41679], [-98.10621, 17.41735], [-98.10448, 17.41757], [-98.10388, 17.41721], [-98.10351, 17.41718], [-98.10325, 17.41788], [-98.103, 17.41807], [-98.1027, 17.41682], [-98.10386, 17.41638], [-98.10548, 17.41667], [-98.10587, 17.4166], [-98.10649, 17.41679]]]}}, {"id": "1571635", "type": "Feature", "properties": {"id": "1571635", "CVEGEO": "204610002001A012", "POBTOT": 0.0, "score_nse": 0.0, "NSE": null, "VIVTOT": 0.0, "GRAPROES": 0.0, "_ent": "20", "_mun": "461", "_loc": "0002"}, "geometry": {"type": "Polygon", "coordinates": [[[-98.10822, 17.41395], [-98.10776, 17.41389], [-98.10783, 17.41328], [-98.10822, 17.41395]]]}}, {"id": "1571636", "type": "Feature", "properties": {"id": "1571636", "CVEGEO": "204610002001A028", "POBTOT": 0.0, "score_nse": 0.0, "NSE": null, "VIVTOT": 0.0, "GRAPROES": 0.0, "_ent": "20", "_mun": "461", "_loc": "0002"}, "geometry": {"type": "Polygon", "coordinates": [[[-98.10785, 17.41426], [-98.10754, 17.41425], [-98.10722, 17.41433], [-98.10775, 17.41392], [-98.10821, 17.414], [-98.10785, 17.41426]]]}}]}