{"type": "FeatureCollection", "features": [{"id": "350119", "type": "Feature", "properties": {"id": "350119", "CVEGEO": "0708100120049001", "POBTOT": 0.0, "score_nse": 0.0, "NSE": null, "VIVTOT": 0.0, "GRAPROES": 0.0, "_ent": "07", "_mun": "081", "_loc": "0012"}, "geometry": {"type": "Polygon", "coordinates": [[[-92.70727, 17.09987], [-92.70639, 17.09896], [-92.70669, 17.0985], [-92.70793, 17.09937], [-92.70761, 17.09975], [-92.7075, 17.09967], [-92.70727, 17.09987]]]}}, {"id": "350239", "type": "Feature", "properties": {"id": "350239", "CVEGEO": "0708100120049002", "POBTOT": 0.0, "score_nse": 0.0, "NSE": null, "VIVTOT": 0.0, "GRAPROES": 0.0, "_ent": "07", "_mun": "081", "_loc": "0012"}, "geometry": {"type": "Polygon", "coordinates": [[[-92.70783, 17.09921], [-92.70723, 17.09868], [-92.70814, 17.09787], [-92.7087, 17.09832], [-92.70783, 17.09921]]]}}, {"id": "350240", "type": "Feature", "properties": {"id": "350240", "CVEGEO": "0708100120049003", "POBTOT": 0.0, "score_nse": 0.0, "NSE": null, "VIVTOT": 0.0, "GRAPROES": 0.0, "_ent": "07", "_mun": "081", "_loc": "0012"}, "geometry": {"type": "Polygon", "coordinates": [[[-92.70911, 17.09863], [-92.70829, 17.09958], [-92.70788, 17.09925], [-92.70873, 17.09834], [-92.70911, 17.09863]]]}}]}