{"type": "FeatureCollection", "features": [{"id": "2340007", "type": "Feature", "properties": {"id": "2340007", "CVEGEO": "3012500690010006", "POBTOT": 0.0, "score_nse": 0.0, "NSE": null, "VIVTOT": 0.0, "GRAPROES": 0.0, "_ent": "30", "_mun": "125", "_loc": "0069"}, "geometry": {"type": "Polygon", "coordinates": [[[-96.79161, 18.99664], [-96.79185, 18.99687], [-96.79248, 18.99862], [-96.79384, 18.99958], [-96.79311, 18.9999], [-96.79223, 18.99901], [-96.79171, 18.99749], [-96.79133, 18.9969], [-96.79161, 18.99664]]]}}, {"id": "2340008", "type": "Feature", "properties": {"id": "2340008", "CVEGEO": "3012500690010005", "POBTOT": 0.0, "score_nse": 0.0, "NSE": null, "VIVTOT": 0.0, "GRAPROES": 0.0, "_ent": "30", "_mun": "125", "_loc": "0069"}, "geometry": {"type": "Polygon", "coordinates": [[[-96.79402, 18.99958], [-96.79253, 18.99859], [-96.79219, 18.99742], [-96.7929, 18.99719], [-96.79418, 18.99863], [-96.79402, 18.99958]]]}}, {"id": "2340141", "type": "Feature", "properties": {"id": "2340141", "CVEGEO": "3012500690010003", "POBTOT": 0.0, "score_nse": 0.0, "NSE": null, "VIVTOT": 0.0, "GRAPROES": 0.0, "_ent": "30", "_mun": "125", "_loc": "0069"}, "geometry": {"type": "Polygon", "coordinates": [[[-96.79424, 18.99865], [-96.79362, 18.99795], [-96.79526, 18.99688], [-96.79588, 18.99752], [-96.79424, 18.99865]]]}}, {"id": "2340337", "type": "Feature", "properties": {"id": "2340337", "CVEGEO": "3012500690010004", "POBTOT": 0.0, "score_nse": 0.0, "NSE": null, "VIVTOT": 0.0, "GRAPROES": 0.0, "_ent": "30", "_mun": "125", "_loc": "0069"}, "geometry": {"type": "Polygon", "coordinates": [[[-96.7936, 18.9979], [-96.79299, 18.99718], [-96.79453, 18.99623], [-96.79522, 18.99683], [-96.7936, 18.9979]]]}}, {"id": "2340338", "type": "Feature", "properties": {"id": "2340338", "CVEGEO": "3012500690010002", "POBTOT": 0.0, "score_nse": 0.0, "NSE": null, "VIVTOT": 0.0, "GRAPROES": 0.0, "_ent": "30", "_mun": "125", "_loc": "0069"}, "geometry": {"type": "Polygon", "coordinates": [[[-96.79592, 18.99757], [-96.79725, 18.99921], [-96.79654, 18.99963], [-96.79526, 18.99966], [-96.79428, 18.99868], [-96.79592, 18.99757]]]}}, {"id": "2340339", "type": "Feature", "properties": {"id": "2340339", "CVEGEO": "3012500690010001", "POBTOT": 0.0, "score_nse": 0.0, "NSE": null, "VIVTOT": 0.0, "GRAPROES": 0.0, "_ent": "30", "_mun": "125", "_loc": "0069"}, "geometry": {"type": "Polygon", "coordinates": [[[-96.79297, 19.00132], [-96.79251, 19.00092], [-96.79223, 19.00037], [-96.79306, 18.99996], [-96.7932, 19.00012], [-96.79297, 19.00033], [-96.79322, 19.00015], [-96.79366, 19.00046], [-96.79422, 19.00058], [-96.79297, 19.00132]]]}}]}