{"type": "FeatureCollection", "features": [{"id": "624531", "type": "Feature", "properties": {"id": "624531", "CVEGEO": "1101100320017012", "POBTOT": 0.0, "score_nse": 0.0, "NSE": null, "VIVTOT": 0.0, "GRAPROES": 0.0, "_ent": "11", "_mun": "011", "_loc": "0032"}, "geometry": {"type": "Polygon", "coordinates": [[[-100.9968, 20.40505], [-100.99686, 20.40466], [-100.99757, 20.40476], [-100.99756, 20.40506], [-100.9968, 20.40505]]]}}, {"id": "624578", "type": "Feature", "properties": {"id": "624578", "CVEGEO": "1101100320017027", "POBTOT": 0.0, "score_nse": 0.0, "NSE": null, "VIVTOT": 0.0, "GRAPROES": 0.0, "_ent": "11", "_mun": "011", "_loc": "0032"}, "geometry": {"type": "Polygon", "coordinates": [[[-100.99627, 20.40508], [-100.99675, 20.40511], [-100.9967, 20.40568], [-100.99625, 20.40568], [-100.99627, 20.40508]]]}}, {"id": "624579", "type": "Feature", "properties": {"id": "624579", "CVEGEO": "1101100320017026", "POBTOT": 0.0, "score_nse": 0.0, "NSE": null, "VIVTOT": 0.0, "GRAPROES": 0.0, "_ent": "11", "_mun": "011", "_loc": "0032"}, "geometry": {"type": "Polygon", "coordinates": [[[-100.99664, 20.40648], [-100.99625, 20.40649], [-100.99626, 20.40573], [-100.99666, 20.40581], [-100.99664, 20.40648]]]}}, {"id": "624931", "type": "Feature", "properties": {"id": "624931", "CVEGEO": "1101100320017032", "POBTOT": 0.0, "score_nse": 0.0, "NSE": null, "VIVTOT": 0.0, "GRAPROES": 0.0, "_ent": "11", "_mun": "011", "_loc": "0032"}, "geometry": {"type": "Polygon", "coordinates": [[[-100.99732, 20.40347], [-100.99693, 20.40204], [-100.99743, 20.40179], [-100.99775, 20.40259], [-100.99769, 20.40402], [-100.99724, 20.40393], [-100.99732, 20.40347]]]}}, {"id": "624932", "type": "Feature", "properties": {"id": "624932", "CVEGEO": "1101100320017031", "POBTOT": 0.0, "score_nse": 0.0, "NSE": null, "VIVTOT": 0.0, "GRAPROES": 0.0, "_ent": "11", "_mun": "011", "_loc": "0032"}, "geometry": {"type": "Polygon", "coordinates": [[[-100.99818, 20.4006], [-100.99761, 20.39969], [-100.99786, 20.39952], [-100.99835, 20.40051], [-100.99818, 20.4006]]]}}, {"id": "624933", "type": "Feature", "properties": {"id": "624933", "CVEGEO": "1101100320017030", "POBTOT": 0.0, "score_nse": 0.0, "NSE": null, "VIVTOT": 0.0, "GRAPROES": 0.0, "_ent": "11", "_mun": "011", "_loc": "0032"}, "geometry": {"type": "Polygon", "coordinates": [[[-100.99561, 20.39853], [-100.99564, 20.39775], [-100.99594, 20.39782], [-100.99782, 20.39947], [-100.99712, 20.39994], [-100.99561, 20.39853]]]}}, {"id": "624934", "type": "Feature", "properties": {"id": "624934", "CVEGEO": "1101100320017029", "POBTOT": 0.0, "score_nse": 0.0, "NSE": null, "VIVTOT": 0.0, "GRAPROES": 0.0, "_ent": "11", "_mun": "011", "_loc": "0032"}, "geometry": {"type": "Polygon", "coordinates": [[[-100.99593, 20.40502], [-100.9961, 20.40395], [-100.99642, 20.40399], [-100.99622, 20.40503], [-100.99593, 20.40502]]]}}, {"id": "624935", "type": "Feature", "properties": {"id": "624935", "CVEGEO": "1101100320017028", "POBTOT": 0.0, "score_nse": 0.0, "NSE": null, "VIVTOT": 0.0, "GRAPROES": 0.0, "_ent": "11", "_mun": "011", "_loc": "0032"}, "geometry": {"type": "Polygon", "coordinates": [[[-100.99632, 20.40503], [-100.99636, 20.40459], [-100.99683, 20.40465], [-100.99676, 20.40505], [-100.99632, 20.40503]]]}}, {"id": "624936", "type": "Feature", "properties": {"id": "624936", "CVEGEO": "1101100320017009", "POBTOT": 0.0, "score_nse": 0.0, "NSE": null, "VIVTOT": 0.0, "GRAPROES": 0.0, "_ent": "11", "_mun": "011", "_loc": "0032"}, "geometry": {"type": "Polygon", "coordinates": [[[-100.99649, 20.40733], [-100.99649, 20.40653], [-100.99765, 20.40653], [-100.99783, 20.40736], [-100.99649, 20.40733]]]}}, {"id": "624937", "type": "Feature", "properties": {"id": "624937", "CVEGEO": "1101100320017008", "POBTOT": 0.0, "score_nse": 0.0, "NSE": null, "VIVTOT": 0.0, "GRAPROES": 0.0, "_ent": "11", "_mun": "011", "_loc": "0032"}, "geometry": {"type": "Polygon", "coordinates": [[[-100.99894, 20.40871], [-100.99826, 20.40693], [-100.99815, 20.40569], [-100.99873, 20.40571], [-100.99881, 20.40644], [-100.99885, 20.40595], [-100.99919, 20.40602], [-100.99919, 20.40857], [-100.99894, 20.40871]]]}}, {"id": "624938", "type": "Feature", "properties": {"id": "624938", "CVEGEO": "1101100320017007", "POBTOT": 0.0, "score_nse": 0.0, "NSE": null, "VIVTOT": 0.0, "GRAPROES": 0.0, "_ent": "11", "_mun": "011", "_loc": "0032"}, "geometry": {"type": "Polygon", "coordinates": [[[-100.99887, 20.40587], [-100.99884, 20.40532], [-100.99909, 20.40531], [-100.99913, 20.40586], [-100.99887, 20.40587]]]}}, {"id": "625210", "type": "Feature", "properties": {"id": "625210", "CVEGEO": "1101100320017022", "POBTOT": 0.0, "score_nse": 0.0, "NSE": null, "VIVTOT": 0.0, "GRAPROES": 0.0, "_ent": "11", "_mun": "011", "_loc": "0032"}, "geometry": {"type": "Polygon", "coordinates": [[[-100.99929, 20.40658], [-100.99924, 20.40593], [-100.99971, 20.40593], [-100.99979, 20.40655], [-100.99929, 20.40658]]]}}, {"id": "625211", "type": "Feature", "properties": {"id": "625211", "CVEGEO": "1101100320017021", "POBTOT": 0.0, "score_nse": 0.0, "NSE": null, "VIVTOT": 0.0, "GRAPROES": 0.0, "_ent": "11", "_mun": "011", "_loc": "0032"}, "geometry": {"type": "Polygon", "coordinates": [[[-100.99984, 20.40655], [-100.99978, 20.40591], [-100.99998, 20.40579], [-100.99999, 20.40557], [-101.00051, 20.40549], [-101.00086, 20.40694], [-101.00039, 20.40688], [-101.00028, 20.40659], [-100.99984, 20.40655]]]}}, {"id": "625212", "type": "Feature", "properties": {"id": "625212", "CVEGEO": "1101100320017020", "POBTOT": 0.0, "score_nse": 0.0, "NSE": null, "VIVTOT": 0.0, "GRAPROES": 0.0, "_ent": "11", "_mun": "011", "_loc": "0032"}, "geometry": {"type": "Polygon", "coordinates": [[[-100.99997, 20.40541], [-100.99989, 20.40521], [-101.00043, 20.40515], [-101.00049, 20.40542], [-100.99997, 20.40541]]]}}, {"id": "625213", "type": "Feature", "properties": {"id": "625213", "CVEGEO": "1101100320017019", "POBTOT": 0.0, "score_nse": 0.0, "NSE": null, "VIVTOT": 0.0, "GRAPROES": 0.0, "_ent": "11", "_mun": "011", "_loc": "0032"}, "geometry": {"type": "Polygon", "coordinates": [[[-100.99988, 20.40456], [-100.99947, 20.40361], [-100.99979, 20.40348], [-101.00019, 20.40445], [-100.99988, 20.40456]]]}}, {"id": "625214", "type": "Feature", "properties": {"id": "625214", "CVEGEO": "1101100320017018", "POBTOT": 0.0, "score_nse": 0.0, "NSE": null, "VIVTOT": 0.0, "GRAPROES": 0.0, "_ent": "11", "_mun": "011", "_loc": "0032"}, "geometry": {"type": "Polygon", "coordinates": [[[-100.99902, 20.40368], [-100.99896, 20.40252], [-100.99934, 20.40245], [-100.99976, 20.40342], [-100.99902, 20.40368]]]}}, {"id": "625215", "type": "Feature", "properties": {"id": "625215", "CVEGEO": "1101100320017017", "POBTOT": 0.0, "score_nse": 0.0, "NSE": null, "VIVTOT": 0.0, "GRAPROES": 0.0, "_ent": "11", "_mun": "011", "_loc": "0032"}, "geometry": {"type": "Polygon", "coordinates": [[[-100.99896, 20.40245], [-100.99874, 20.4016], [-100.99892, 20.40142], [-100.99938, 20.40239], [-100.99896, 20.40245]]]}}, {"id": "625216", "type": "Feature", "properties": {"id": "625216", "CVEGEO": "1101100320017016", "POBTOT": 0.0, "score_nse": 0.0, "NSE": null, "VIVTOT": 0.0, "GRAPROES": 0.0, "_ent": "11", "_mun": "011", "_loc": "0032"}, "geometry": {"type": "Polygon", "coordinates": [[[-100.99867, 20.40146], [-100.99821, 20.40065], [-100.99837, 20.40056], [-100.99889, 20.40135], [-100.99867, 20.40146]]]}}, {"id": "625217", "type": "Feature", "properties": {"id": "625217", "CVEGEO": "1101100320017005", "POBTOT": 0.0, "score_nse": 0.0, "NSE": null, "VIVTOT": 0.0, "GRAPROES": 0.0, "_ent": "11", "_mun": "011", "_loc": "0032"}, "geometry": {"type": "Polygon", "coordinates": [[[-100.99917, 20.40473], [-101.00021, 20.4045], [-101.00041, 20.40508], [-100.9992, 20.40518], [-100.99917, 20.40473]]]}}, {"id": "625218", "type": "Feature", "properties": {"id": "625218", "CVEGEO": "1101100320017004", "POBTOT": 0.0, "score_nse": 0.0, "NSE": null, "VIVTOT": 0.0, "GRAPROES": 0.0, "_ent": "11", "_mun": "011", "_loc": "0032"}, "geometry": {"type": "Polygon", "coordinates": [[[-100.99973, 20.40461], [-100.99916, 20.40467], [-100.99905, 20.40377], [-100.99941, 20.40363], [-100.99973, 20.40461]]]}}, {"id": "625219", "type": "Feature", "properties": {"id": "625219", "CVEGEO": "1101100320017003", "POBTOT": 0.0, "score_nse": 0.0, "NSE": null, "VIVTOT": 0.0, "GRAPROES": 0.0, "_ent": "11", "_mun": "011", "_loc": "0032"}, "geometry": {"type": "Polygon", "coordinates": [[[-100.99904, 20.40467], [-100.9982, 20.40471], [-100.99839, 20.40339], [-100.99826, 20.40218], [-100.9978, 20.40105], [-100.99715, 20.4], [-100.99755, 20.39973], [-100.9984, 20.40107], [-100.99881, 20.40214], [-100.99904, 20.40467]]]}}, {"id": "625220", "type": "Feature", "properties": {"id": "625220", "CVEGEO": "1101100320017002", "POBTOT": 0.0, "score_nse": 0.0, "NSE": null, "VIVTOT": 0.0, "GRAPROES": 0.0, "_ent": "11", "_mun": "011", "_loc": "0032"}, "geometry": {"type": "Polygon", "coordinates": [[[-100.99873, 20.40477], [-100.99868, 20.40559], [-100.99815, 20.40564], [-100.99818, 20.40479], [-100.99873, 20.40477]]]}}, {"id": "625221", "type": "Feature", "properties": {"id": "625221", "CVEGEO": "1101100320017001", "POBTOT": 0.0, "score_nse": 0.0, "NSE": null, "VIVTOT": 0.0, "GRAPROES": 0.0, "_ent": "11", "_mun": "011", "_loc": "0032"}, "geometry": {"type": "Polygon", "coordinates": [[[-100.99908, 20.40518], [-100.99883, 20.4052], [-100.9988, 20.40477], [-100.99904, 20.40475], [-100.99908, 20.40518]]]}}, {"id": "625433", "type": "Feature", "properties": {"id": "625433", "CVEGEO": "1101100320017023", "POBTOT": 0.0, "score_nse": 0.0, "NSE": null, "VIVTOT": 0.0, "GRAPROES": 0.0, "_ent": "11", "_mun": "011", "_loc": "0032"}, "geometry": {"type": "Polygon", "coordinates": [[[-100.99995, 20.4066], [-101.00029, 20.40665], [-101.00028, 20.40686], [-100.99974, 20.40749], [-100.99954, 20.40872], [-100.99926, 20.40871], [-100.99928, 20.40668], [-100.9998, 20.4066], [-100.99985, 20.4068], [-100.99995, 20.4066]]]}}, {"id": "625434", "type": "Feature", "properties": {"id": "625434", "CVEGEO": "1101100320017014", "POBTOT": 0.0, "score_nse": 0.0, "NSE": null, "VIVTOT": 0.0, "GRAPROES": 0.0, "_ent": "11", "_mun": "011", "_loc": "0032"}, "geometry": {"type": "Polygon", "coordinates": [[[-100.99724, 20.4034], [-100.99693, 20.40341], [-100.99727, 20.40348], [-100.9972, 20.40393], [-100.99653, 20.40383], [-100.99658, 20.40316], [-100.99628, 20.40238], [-100.9969, 20.40208], [-100.99724, 20.4034]]]}}, {"id": "625574", "type": "Feature", "properties": {"id": "625574", "CVEGEO": "1101100320017006", "POBTOT": 0.0, "score_nse": 0.0, "NSE": null, "VIVTOT": 0.0, "GRAPROES": 0.0, "_ent": "11", "_mun": "011", "_loc": "0032"}, "geometry": {"type": "Polygon", "coordinates": [[[-100.99921, 20.40525], [-100.99982, 20.40522], [-100.99992, 20.4058], [-100.99924, 20.40587], [-100.99921, 20.40525]]]}}, {"id": "625623", "type": "Feature", "properties": {"id": "625623", "CVEGEO": "1101100320017011", "POBTOT": 0.0, "score_nse": 0.0, "NSE": null, "VIVTOT": 0.0, "GRAPROES": 0.0, "_ent": "11", "_mun": "011", "_loc": "0032"}, "geometry": {"type": "Polygon", "coordinates": [[[-100.99674, 20.40568], [-100.99679, 20.4051], [-100.99755, 20.4051], [-100.99753, 20.40543], [-100.9971, 20.40541], [-100.99741, 20.40547], [-100.99745, 20.40566], [-100.99674, 20.40568]]]}}, {"id": "625624", "type": "Feature", "properties": {"id": "625624", "CVEGEO": "1101100320017010", "POBTOT": 0.0, "score_nse": 0.0, "NSE": null, "VIVTOT": 0.0, "GRAPROES": 0.0, "_ent": "11", "_mun": "011", "_loc": "0032"}, "geometry": {"type": "Polygon", "coordinates": [[[-100.99763, 20.40649], [-100.99668, 20.40649], [-100.99671, 20.40575], [-100.99752, 20.40577], [-100.99763, 20.40649]]]}}, {"id": "625727", "type": "Feature", "properties": {"id": "625727", "CVEGEO": "1101100320017015", "POBTOT": 0.0, "score_nse": 0.0, "NSE": null, "VIVTOT": 0.0, "GRAPROES": 0.0, "_ent": "11", "_mun": "011", "_loc": "0032"}, "geometry": {"type": "Polygon", "coordinates": [[[-100.99686, 20.40203], [-100.99659, 20.40156], [-100.99718, 20.40123], [-100.99743, 20.40174], [-100.99686, 20.40203]]]}}, {"id": "625860", "type": "Feature", "properties": {"id": "625860", "CVEGEO": "1101100320017033", "POBTOT": 0.0, "score_nse": 0.0, "NSE": null, "VIVTOT": 0.0, "GRAPROES": 0.0, "_ent": "11", "_mun": "011", "_loc": "0032"}, "geometry": {"type": "Polygon", "coordinates": [[[-100.99565, 20.40578], [-100.9962, 20.40577], [-100.99623, 20.40648], [-100.99568, 20.40651], [-100.99565, 20.40578]]]}}, {"id": "625861", "type": "Feature", "properties": {"id": "625861", "CVEGEO": "1101100320017034", "POBTOT": 0.0, "score_nse": 0.0, "NSE": null, "VIVTOT": 0.0, "GRAPROES": 0.0, "_ent": "11", "_mun": "011", "_loc": "0032"}, "geometry": {"type": "Polygon", "coordinates": [[[-100.99591, 20.40567], [-100.99592, 20.40507], [-100.99622, 20.40508], [-100.9962, 20.40568], [-100.99591, 20.40567]]]}}, {"id": "626101", "type": "Feature", "properties": {"id": "626101", "CVEGEO": "1101100320017013", "POBTOT": 0.0, "score_nse": 0.0, "NSE": null, "VIVTOT": 0.0, "GRAPROES": 0.0, "_ent": "11", "_mun": "011", "_loc": "0032"}, "geometry": {"type": "Polygon", "coordinates": [[[-100.99649, 20.40388], [-100.9977, 20.40408], [-100.99758, 20.4047], [-100.99704, 20.40463], [-100.99706, 20.40435], [-100.997, 20.40462], [-100.99668, 20.40458], [-100.99655, 20.40417], [-100.99665, 20.40457], [-100.99638, 20.40455], [-100.99649, 20.40388]]]}}, {"id": "626102", "type": "Feature", "properties": {"id": "626102", "CVEGEO": "1101100320017024", "POBTOT": 0.0, "score_nse": 0.0, "NSE": null, "VIVTOT": 0.0, "GRAPROES": 0.0, "_ent": "11", "_mun": "011", "_loc": "0032"}, "geometry": {"type": "Polygon", "coordinates": [[[-100.99813, 20.40797], [-100.99722, 20.40821], [-100.99678, 20.40765], [-100.99677, 20.40742], [-100.99785, 20.40743], [-100.99813, 20.40797]]]}}, {"id": "626103", "type": "Feature", "properties": {"id": "626103", "CVEGEO": "1101100320017035", "POBTOT": 0.0, "score_nse": 0.0, "NSE": null, "VIVTOT": 0.0, "GRAPROES": 0.0, "_ent": "11", "_mun": "011", "_loc": "0032"}, "geometry": {"type": "Polygon", "coordinates": [[[-100.99824, 20.40849], [-100.99819, 20.40913], [-100.99732, 20.4091], [-100.9973, 20.40884], [-100.99761, 20.40882], [-100.9976, 20.40864], [-100.99824, 20.40849]]]}}, {"id": "626104", "type": "Feature", "properties": {"id": "626104", "CVEGEO": "1101100320017036", "POBTOT": 0.0, "score_nse": 0.0, "NSE": null, "VIVTOT": 0.0, "GRAPROES": 0.0, "_ent": "11", "_mun": "011", "_loc": "0032"}, "geometry": {"type": "Polygon", "coordinates": [[[-100.99823, 20.40842], [-100.99782, 20.40851], [-100.99772, 20.40812], [-100.99814, 20.408], [-100.99823, 20.40842]]]}}]}