{"type": "FeatureCollection", "features": [{"id": "624508", "type": "Feature", "properties": {"id": "624508", "CVEGEO": "1101101310017021", "POBTOT": 0.0, "score_nse": 0.0, "NSE": null, "VIVTOT": 0.0, "GRAPROES": 0.0, "_ent": "11", "_mun": "011", "_loc": "0131"}, "geometry": {"type": "Polygon", "coordinates": [[[-100.99464, 20.49853], [-100.99369, 20.49836], [-100.99381, 20.49775], [-100.99476, 20.49792], [-100.99464, 20.49853]]]}}, {"id": "624509", "type": "Feature", "properties": {"id": "624509", "CVEGEO": "1101101310017018", "POBTOT": 0.0, "score_nse": 0.0, "NSE": null, "VIVTOT": 0.0, "GRAPROES": 0.0, "_ent": "11", "_mun": "011", "_loc": "0131"}, "geometry": {"type": "Polygon", "coordinates": [[[-100.9945, 20.49916], [-100.99356, 20.499], [-100.99368, 20.49842], [-100.99462, 20.49859], [-100.9945, 20.49916]]]}}, {"id": "624510", "type": "Feature", "properties": {"id": "624510", "CVEGEO": "1101101310017015", "POBTOT": 0.0, "score_nse": 0.0, "NSE": null, "VIVTOT": 0.0, "GRAPROES": 0.0, "_ent": "11", "_mun": "011", "_loc": "0131"}, "geometry": {"type": "Polygon", "coordinates": [[[-100.99545, 20.49999], [-100.99447, 20.49982], [-100.99462, 20.4991], [-100.99561, 20.49928], [-100.99545, 20.49999]]]}}, {"id": "624511", "type": "Feature", "properties": {"id": "624511", "CVEGEO": "1101101310017013", "POBTOT": 0.0, "score_nse": 0.0, "NSE": null, "VIVTOT": 0.0, "GRAPROES": 0.0, "_ent": "11", "_mun": "011", "_loc": "0131"}, "geometry": {"type": "Polygon", "coordinates": [[[-100.99531, 20.50064], [-100.99434, 20.50046], [-100.99446, 20.49988], [-100.99544, 20.50005], [-100.99531, 20.50064]]]}}, {"id": "624677", "type": "Feature", "properties": {"id": "624677", "CVEGEO": "1101101310017016", "POBTOT": 0.0, "score_nse": 0.0, "NSE": null, "VIVTOT": 0.0, "GRAPROES": 0.0, "_ent": "11", "_mun": "011", "_loc": "0131"}, "geometry": {"type": "Polygon", "coordinates": [[[-100.99437, 20.4998], [-100.99344, 20.49964], [-100.99355, 20.49905], [-100.99449, 20.49922], [-100.99437, 20.4998]]]}}, {"id": "624678", "type": "Feature", "properties": {"id": "624678", "CVEGEO": "1101101310017014", "POBTOT": 0.0, "score_nse": 0.0, "NSE": null, "VIVTOT": 0.0, "GRAPROES": 0.0, "_ent": "11", "_mun": "011", "_loc": "0131"}, "geometry": {"type": "Polygon", "coordinates": [[[-100.99424, 20.50044], [-100.99331, 20.50027], [-100.99343, 20.49969], [-100.99436, 20.49986], [-100.99424, 20.50044]]]}}, {"id": "624679", "type": "Feature", "properties": {"id": "624679", "CVEGEO": "1101101310017011", "POBTOT": 0.0, "score_nse": 0.0, "NSE": null, "VIVTOT": 0.0, "GRAPROES": 0.0, "_ent": "11", "_mun": "011", "_loc": "0131"}, "geometry": {"type": "Polygon", "coordinates": [[[-100.9941, 20.50109], [-100.99318, 20.50092], [-100.9933, 20.50033], [-100.99422, 20.50051], [-100.9941, 20.50109]]]}}, {"id": "624680", "type": "Feature", "properties": {"id": "624680", "CVEGEO": "1101101310017008", "POBTOT": 0.0, "score_nse": 0.0, "NSE": null, "VIVTOT": 0.0, "GRAPROES": 0.0, "_ent": "11", "_mun": "011", "_loc": "0131"}, "geometry": {"type": "Polygon", "coordinates": [[[-100.99665, 20.50096], [-100.99774, 20.50117], [-100.99761, 20.50173], [-100.99653, 20.50153], [-100.99665, 20.50096]]]}}, {"id": "624681", "type": "Feature", "properties": {"id": "624681", "CVEGEO": "1101101310017007", "POBTOT": 0.0, "score_nse": 0.0, "NSE": null, "VIVTOT": 0.0, "GRAPROES": 0.0, "_ent": "11", "_mun": "011", "_loc": "0131"}, "geometry": {"type": "Polygon", "coordinates": [[[-100.99651, 20.50161], [-100.99759, 20.5018], [-100.99747, 20.50234], [-100.9964, 20.50214], [-100.99651, 20.50161]]]}}, {"id": "624682", "type": "Feature", "properties": {"id": "624682", "CVEGEO": "1101101310017001", "POBTOT": 0.0, "score_nse": 0.0, "NSE": null, "VIVTOT": 0.0, "GRAPROES": 0.0, "_ent": "11", "_mun": "011", "_loc": "0131"}, "geometry": {"type": "Polygon", "coordinates": [[[-100.99639, 20.50222], [-100.99745, 20.50241], [-100.99724, 20.50331], [-100.9962, 20.50312], [-100.99639, 20.50222]]]}}, {"id": "624870", "type": "Feature", "properties": {"id": "624870", "CVEGEO": "1101101310017004", "POBTOT": 0.0, "score_nse": 0.0, "NSE": null, "VIVTOT": 0.0, "GRAPROES": 0.0, "_ent": "11", "_mun": "011", "_loc": "0131"}, "geometry": {"type": "Polygon", "coordinates": [[[-100.99393, 20.50203], [-100.99301, 20.50166], [-100.99316, 20.501], [-100.99408, 20.50117], [-100.99393, 20.50203]]]}}, {"id": "624871", "type": "Feature", "properties": {"id": "624871", "CVEGEO": "1101101310017025", "POBTOT": 0.0, "score_nse": 0.0, "NSE": null, "VIVTOT": 0.0, "GRAPROES": 0.0, "_ent": "11", "_mun": "011", "_loc": "0131"}, "geometry": {"type": "Polygon", "coordinates": [[[-100.9949, 20.49727], [-100.99394, 20.49711], [-100.99411, 20.49626], [-100.99512, 20.49624], [-100.9949, 20.49727]]]}}, {"id": "624872", "type": "Feature", "properties": {"id": "624872", "CVEGEO": "1101101310017017", "POBTOT": 0.0, "score_nse": 0.0, "NSE": null, "VIVTOT": 0.0, "GRAPROES": 0.0, "_ent": "11", "_mun": "011", "_loc": "0131"}, "geometry": {"type": "Polygon", "coordinates": [[[-100.99566, 20.49943], [-100.99686, 20.49964], [-100.99673, 20.50021], [-100.99554, 20.5], [-100.99566, 20.49943]]]}}, {"id": "624873", "type": "Feature", "properties": {"id": "624873", "CVEGEO": "1101101310017012", "POBTOT": 0.0, "score_nse": 0.0, "NSE": null, "VIVTOT": 0.0, "GRAPROES": 0.0, "_ent": "11", "_mun": "011", "_loc": "0131"}, "geometry": {"type": "Polygon", "coordinates": [[[-100.99553, 20.50007], [-100.99672, 20.50028], [-100.99659, 20.50088], [-100.9954, 20.50066], [-100.99553, 20.50007]]]}}, {"id": "624874", "type": "Feature", "properties": {"id": "624874", "CVEGEO": "1101101310017009", "POBTOT": 0.0, "score_nse": 0.0, "NSE": null, "VIVTOT": 0.0, "GRAPROES": 0.0, "_ent": "11", "_mun": "011", "_loc": "0131"}, "geometry": {"type": "Polygon", "coordinates": [[[-100.99645, 20.50152], [-100.99526, 20.5013], [-100.99539, 20.50073], [-100.99657, 20.50095], [-100.99645, 20.50152]]]}}, {"id": "624875", "type": "Feature", "properties": {"id": "624875", "CVEGEO": "1101101310017006", "POBTOT": 0.0, "score_nse": 0.0, "NSE": null, "VIVTOT": 0.0, "GRAPROES": 0.0, "_ent": "11", "_mun": "011", "_loc": "0131"}, "geometry": {"type": "Polygon", "coordinates": [[[-100.99633, 20.50213], [-100.99514, 20.50191], [-100.99525, 20.50138], [-100.99644, 20.50159], [-100.99633, 20.50213]]]}}, {"id": "624876", "type": "Feature", "properties": {"id": "624876", "CVEGEO": "1101101310017002", "POBTOT": 0.0, "score_nse": 0.0, "NSE": null, "VIVTOT": 0.0, "GRAPROES": 0.0, "_ent": "11", "_mun": "011", "_loc": "0131"}, "geometry": {"type": "Polygon", "coordinates": [[[-100.99612, 20.5031], [-100.99539, 20.50296], [-100.995, 20.50249], [-100.99512, 20.50198], [-100.99631, 20.5022], [-100.99612, 20.5031]]]}}, {"id": "624877", "type": "Feature", "properties": {"id": "624877", "CVEGEO": "1101101310017003", "POBTOT": 0.0, "score_nse": 0.0, "NSE": null, "VIVTOT": 0.0, "GRAPROES": 0.0, "_ent": "11", "_mun": "011", "_loc": "0131"}, "geometry": {"type": "Polygon", "coordinates": [[[-100.99493, 20.50249], [-100.99401, 20.50206], [-100.99406, 20.50179], [-100.99502, 20.50196], [-100.99493, 20.50249]]]}}, {"id": "624878", "type": "Feature", "properties": {"id": "624878", "CVEGEO": "1101101310017024", "POBTOT": 0.0, "score_nse": 0.0, "NSE": null, "VIVTOT": 0.0, "GRAPROES": 0.0, "_ent": "11", "_mun": "011", "_loc": "0131"}, "geometry": {"type": "Polygon", "coordinates": [[[-100.99522, 20.49623], [-100.99624, 20.49637], [-100.996, 20.49745], [-100.995, 20.49728], [-100.99522, 20.49623]]]}}, {"id": "624948", "type": "Feature", "properties": {"id": "624948", "CVEGEO": "1101101310017023", "POBTOT": 0.0, "score_nse": 0.0, "NSE": null, "VIVTOT": 0.0, "GRAPROES": 0.0, "_ent": "11", "_mun": "011", "_loc": "0131"}, "geometry": {"type": "Polygon", "coordinates": [[[-100.99478, 20.49786], [-100.99383, 20.49769], [-100.99393, 20.49716], [-100.99489, 20.49733], [-100.99478, 20.49786]]]}}, {"id": "625427", "type": "Feature", "properties": {"id": "625427", "CVEGEO": "1101101310017010", "POBTOT": 0.0, "score_nse": 0.0, "NSE": null, "VIVTOT": 0.0, "GRAPROES": 0.0, "_ent": "11", "_mun": "011", "_loc": "0131"}, "geometry": {"type": "Polygon", "coordinates": [[[-100.99517, 20.50129], [-100.9942, 20.50111], [-100.99432, 20.50052], [-100.99529, 20.50071], [-100.99517, 20.50129]]]}}, {"id": "625428", "type": "Feature", "properties": {"id": "625428", "CVEGEO": "1101101310017005", "POBTOT": 0.0, "score_nse": 0.0, "NSE": null, "VIVTOT": 0.0, "GRAPROES": 0.0, "_ent": "11", "_mun": "011", "_loc": "0131"}, "geometry": {"type": "Polygon", "coordinates": [[[-100.99504, 20.50189], [-100.99408, 20.50171], [-100.99419, 20.50118], [-100.99515, 20.50136], [-100.99504, 20.50189]]]}}, {"id": "625482", "type": "Feature", "properties": {"id": "625482", "CVEGEO": "1101101310017022", "POBTOT": 0.0, "score_nse": 0.0, "NSE": null, "VIVTOT": 0.0, "GRAPROES": 0.0, "_ent": "11", "_mun": "011", "_loc": "0131"}, "geometry": {"type": "Polygon", "coordinates": [[[-100.99499, 20.49734], [-100.99599, 20.49751], [-100.99587, 20.49807], [-100.99487, 20.49788], [-100.99499, 20.49734]]]}}, {"id": "625483", "type": "Feature", "properties": {"id": "625483", "CVEGEO": "1101101310017020", "POBTOT": 0.0, "score_nse": 0.0, "NSE": null, "VIVTOT": 0.0, "GRAPROES": 0.0, "_ent": "11", "_mun": "011", "_loc": "0131"}, "geometry": {"type": "Polygon", "coordinates": [[[-100.99486, 20.49794], [-100.99586, 20.49812], [-100.99573, 20.49872], [-100.99474, 20.49854], [-100.99486, 20.49794]]]}}, {"id": "625484", "type": "Feature", "properties": {"id": "625484", "CVEGEO": "1101101310017019", "POBTOT": 0.0, "score_nse": 0.0, "NSE": null, "VIVTOT": 0.0, "GRAPROES": 0.0, "_ent": "11", "_mun": "011", "_loc": "0131"}, "geometry": {"type": "Polygon", "coordinates": [[[-100.99472, 20.49861], [-100.99571, 20.49878], [-100.99563, 20.4992], [-100.99463, 20.49903], [-100.99472, 20.49861]]]}}]}