{"type": "FeatureCollection", "features": [{"id": "271820", "type": "Feature", "properties": {"id": "271820", "CVEGEO": "0705102270143004", "POBTOT": 0.0, "score_nse": 0.0, "NSE": null, "VIVTOT": 0.0, "GRAPROES": 0.0, "_ent": "07", "_mun": "051", "_loc": "0227"}, "geometry": {"type": "Polygon", "coordinates": [[[-92.92922, 15.30825], [-92.92985, 15.30777], [-92.93096, 15.30896], [-92.93033, 15.30943], [-92.92922, 15.30825]]]}}, {"id": "272211", "type": "Feature", "properties": {"id": "272211", "CVEGEO": "0705102270143001", "POBTOT": 0.0, "score_nse": 0.0, "NSE": null, "VIVTOT": 0.0, "GRAPROES": 0.0, "_ent": "07", "_mun": "051", "_loc": "0227"}, "geometry": {"type": "Polygon", "coordinates": [[[-92.93175, 15.3085], [-92.93242, 15.30803], [-92.93291, 15.30861], [-92.93225, 15.30906], [-92.93175, 15.3085]]]}}, {"id": "272286", "type": "Feature", "properties": {"id": "272286", "CVEGEO": "0705102270143002", "POBTOT": 0.0, "score_nse": 0.0, "NSE": null, "VIVTOT": 0.0, "GRAPROES": 0.0, "_ent": "07", "_mun": "051", "_loc": "0227"}, "geometry": {"type": "Polygon", "coordinates": [[[-92.93237, 15.30797], [-92.9317, 15.30846], [-92.93116, 15.30787], [-92.93182, 15.30736], [-92.93237, 15.30797]]]}}, {"id": "272287", "type": "Feature", "properties": {"id": "272287", "CVEGEO": "0705102270143003", "POBTOT": 0.0, "score_nse": 0.0, "NSE": null, "VIVTOT": 0.0, "GRAPROES": 0.0, "_ent": "07", "_mun": "051", "_loc": "0227"}, "geometry": {"type": "Polygon", "coordinates": [[[-92.93166, 15.30848], [-92.93102, 15.30893], [-92.93049, 15.30831], [-92.9311, 15.30789], [-92.93166, 15.30848]]]}}]}