{"type": "FeatureCollection", "features": [{"id": "2053837", "type": "Feature", "properties": {"id": "2053837", "CVEGEO": "2603300940684001", "POBTOT": 0.0, "score_nse": 0.0, "NSE": "ND", "VIVTOT": 0.0, "GRAPROES": 0.0, "_ent": "26", "_mun": "033", "_loc": "0094"}, "geometry": {"type": "Polygon", "coordinates": [[[-109.60248, 26.82522], [-109.60246, 26.82079], [-109.60616, 26.82081], [-109.60616, 26.82514], [-109.60248, 26.82522]]]}}, {"id": "2053852", "type": "Feature", "properties": {"id": "2053852", "CVEGEO": "2603300940059028", "POBTOT": 123.0, "score_nse": 53.2784, "NSE": "C-", "VIVTOT": 36.0, "GRAPROES": 9.81, "_ent": "26", "_mun": "033", "_loc": "0094"}, "geometry": {"type": "Polygon", "coordinates": [[[-109.6101, 26.82444], [-109.61013, 26.82495], [-109.60999, 26.82501], [-109.60832, 26.8251], [-109.60832, 26.82445], [-109.6101, 26.82444]]]}}, {"id": "2053883", "type": "Feature", "properties": {"id": "2053883", "CVEGEO": "2603300940059055", "POBTOT": 27.0, "score_nse": 0.0, "NSE": "ND", "VIVTOT": 15.0, "GRAPROES": 11.55, "_ent": "26", "_mun": "033", "_loc": "0094"}, "geometry": {"type": "Polygon", "coordinates": [[[-109.60755, 26.82775], [-109.60638, 26.82775], [-109.60638, 26.82753], [-109.60819, 26.82753], [-109.60819, 26.82856], [-109.60757, 26.8284], [-109.60755, 26.82775]]]}}, {"id": "2053884", "type": "Feature", "properties": {"id": "2053884", "CVEGEO": "2603300940059054", "POBTOT": 57.0, "score_nse": 0.0, "NSE": "ND", "VIVTOT": 19.0, "GRAPROES": 9.1, "_ent": "26", "_mun": "033", "_loc": "0094"}, "geometry": {"type": "Polygon", "coordinates": [[[-109.60816, 26.81099], [-109.60816, 26.81139], [-109.60631, 26.81142], [-109.60616, 26.81154], [-109.60571, 26.81145], [-109.60626, 26.81093], [-109.60816, 26.81099]]]}}, {"id": "2053885", "type": "Feature", "properties": {"id": "2053885", "CVEGEO": "2603300940059044", "POBTOT": 60.0, "score_nse": 0.0, "NSE": "ND", "VIVTOT": 24.0, "GRAPROES": 9.47, "_ent": "26", "_mun": "033", "_loc": "0094"}, "geometry": {"type": "Polygon", "coordinates": [[[-109.60994, 26.81033], [-109.60995, 26.81101], [-109.60828, 26.81093], [-109.60828, 26.81027], [-109.60994, 26.81033]]]}}, {"id": "2053886", "type": "Feature", "properties": {"id": "2053886", "CVEGEO": "2603300940059043", "POBTOT": 86.0, "score_nse": 0.0, "NSE": "ND", "VIVTOT": 28.0, "GRAPROES": 9.14, "_ent": "26", "_mun": "033", "_loc": "0094"}, "geometry": {"type": "Polygon", "coordinates": [[[-109.60994, 26.81108], [-109.60994, 26.81165], [-109.60829, 26.81166], [-109.60828, 26.811], [-109.60994, 26.81108]]]}}, {"id": "2053887", "type": "Feature", "properties": {"id": "2053887", "CVEGEO": "2603300940059042", "POBTOT": 34.0, "score_nse": 0.0, "NSE": "ND", "VIVTOT": 16.0, "GRAPROES": 9.64, "_ent": "26", "_mun": "033", "_loc": "0094"}, "geometry": {"type": "Polygon", "coordinates": [[[-109.60815, 26.81145], [-109.60816, 26.81166], [-109.60623, 26.81158], [-109.60632, 26.81149], [-109.60815, 26.81145]]]}}, {"id": "2053888", "type": "Feature", "properties": {"id": "2053888", "CVEGEO": "2603300940059041", "POBTOT": 104.0, "score_nse": 0.0, "NSE": "ND", "VIVTOT": 38.0, "GRAPROES": 8.31, "_ent": "26", "_mun": "033", "_loc": "0094"}, "geometry": {"type": "Polygon", "coordinates": [[[-109.60818, 26.82673], [-109.60819, 26.82744], [-109.60638, 26.82744], [-109.60637, 26.82673], [-109.60818, 26.82673]]]}}, {"id": "2053889", "type": "Feature", "properties": {"id": "2053889", "CVEGEO": "2603300940059025", "POBTOT": 83.0, "score_nse": 51.1579, "NSE": "C-", "VIVTOT": 27.0, "GRAPROES": 9.78, "_ent": "26", "_mun": "033", "_loc": "0094"}, "geometry": {"type": "Polygon", "coordinates": [[[-109.60636, 26.82374], [-109.60817, 26.82373], [-109.60818, 26.82438], [-109.60637, 26.82438], [-109.60636, 26.82374]]]}}, {"id": "2053890", "type": "Feature", "properties": {"id": "2053890", "CVEGEO": "2603300940059021", "POBTOT": 127.0, "score_nse": 53.3874, "NSE": "C-", "VIVTOT": 31.0, "GRAPROES": 9.33, "_ent": "26", "_mun": "033", "_loc": "0094"}, "geometry": {"type": "Polygon", "coordinates": [[[-109.60636, 26.82296], [-109.60817, 26.82296], [-109.60817, 26.82364], [-109.60636, 26.82366], [-109.60636, 26.82296]]]}}, {"id": "2053891", "type": "Feature", "properties": {"id": "2053891", "CVEGEO": "2603300940059020", "POBTOT": 120.0, "score_nse": 0.0, "NSE": "ND", "VIVTOT": 36.0, "GRAPROES": 9.16, "_ent": "26", "_mun": "033", "_loc": "0094"}, "geometry": {"type": "Polygon", "coordinates": [[[-109.61013, 26.82297], [-109.61014, 26.82363], [-109.60832, 26.82363], [-109.60831, 26.82298], [-109.61013, 26.82297]]]}}, {"id": "2053892", "type": "Feature", "properties": {"id": "2053892", "CVEGEO": "2603300940059019", "POBTOT": 49.0, "score_nse": 65.268, "NSE": "C", "VIVTOT": 20.0, "GRAPROES": 10.86, "_ent": "26", "_mun": "033", "_loc": "0094"}, "geometry": {"type": "Polygon", "coordinates": [[[-109.60823, 26.81545], [-109.61015, 26.81545], [-109.61015, 26.81617], [-109.60823, 26.81615], [-109.60823, 26.81545]]]}}, {"id": "2053893", "type": "Feature", "properties": {"id": "2053893", "CVEGEO": "2603300940059018", "POBTOT": 90.0, "score_nse": 51.7427, "NSE": "C-", "VIVTOT": 30.0, "GRAPROES": 9.97, "_ent": "26", "_mun": "033", "_loc": "0094"}, "geometry": {"type": "Polygon", "coordinates": [[[-109.60634, 26.81546], [-109.60815, 26.81545], [-109.60815, 26.81615], [-109.60634, 26.81613], [-109.60634, 26.81546]]]}}, {"id": "2053894", "type": "Feature", "properties": {"id": "2053894", "CVEGEO": "2603300940059017", "POBTOT": 125.0, "score_nse": 0.0, "NSE": "ND", "VIVTOT": 31.0, "GRAPROES": 9.65, "_ent": "26", "_mun": "033", "_loc": "0094"}, "geometry": {"type": "Polygon", "coordinates": [[[-109.60817, 26.82289], [-109.60636, 26.8229], [-109.60636, 26.82221], [-109.60817, 26.82222], [-109.60817, 26.82289]]]}}, {"id": "2053895", "type": "Feature", "properties": {"id": "2053895", "CVEGEO": "2603300940059016", "POBTOT": 117.0, "score_nse": 0.0, "NSE": "ND", "VIVTOT": 29.0, "GRAPROES": 9.17, "_ent": "26", "_mun": "033", "_loc": "0094"}, "geometry": {"type": "Polygon", "coordinates": [[[-109.60825, 26.82289], [-109.60825, 26.82222], [-109.61017, 26.82223], [-109.61018, 26.82287], [-109.60825, 26.82289]]]}}, {"id": "2053896", "type": "Feature", "properties": {"id": "2053896", "CVEGEO": "2603300940059015", "POBTOT": 89.0, "score_nse": 59.0449, "NSE": "C", "VIVTOT": 31.0, "GRAPROES": 9.9, "_ent": "26", "_mun": "033", "_loc": "0094"}, "geometry": {"type": "Polygon", "coordinates": [[[-109.60823, 26.8162], [-109.61015, 26.81622], [-109.61015, 26.81692], [-109.60823, 26.81691], [-109.60823, 26.8162]]]}}, {"id": "2053897", "type": "Feature", "properties": {"id": "2053897", "CVEGEO": "2603300940059014", "POBTOT": 99.0, "score_nse": 55.2772, "NSE": "C", "VIVTOT": 26.0, "GRAPROES": 9.33, "_ent": "26", "_mun": "033", "_loc": "0094"}, "geometry": {"type": "Polygon", "coordinates": [[[-109.60634, 26.81619], [-109.60815, 26.8162], [-109.60815, 26.81691], [-109.60634, 26.81689], [-109.60634, 26.81619]]]}}, {"id": "2053898", "type": "Feature", "properties": {"id": "2053898", "CVEGEO": "2603300940059013", "POBTOT": 99.0, "score_nse": 0.0, "NSE": "ND", "VIVTOT": 31.0, "GRAPROES": 10.24, "_ent": "26", "_mun": "033", "_loc": "0094"}, "geometry": {"type": "Polygon", "coordinates": [[[-109.60636, 26.82146], [-109.60817, 26.82147], [-109.60817, 26.82216], [-109.60636, 26.82215], [-109.60636, 26.82146]]]}}, {"id": "2053899", "type": "Feature", "properties": {"id": "2053899", "CVEGEO": "2603300940059012", "POBTOT": 91.0, "score_nse": 62.4462, "NSE": "C", "VIVTOT": 22.0, "GRAPROES": 9.93, "_ent": "26", "_mun": "033", "_loc": "0094"}, "geometry": {"type": "Polygon", "coordinates": [[[-109.60825, 26.82147], [-109.61017, 26.82148], [-109.61017, 26.82216], [-109.60825, 26.82216], [-109.60825, 26.82147]]]}}, {"id": "2053900", "type": "Feature", "properties": {"id": "2053900", "CVEGEO": "2603300940059011", "POBTOT": 91.0, "score_nse": 52.304, "NSE": "C-", "VIVTOT": 30.0, "GRAPROES": 9.93, "_ent": "26", "_mun": "033", "_loc": "0094"}, "geometry": {"type": "Polygon", "coordinates": [[[-109.60823, 26.81765], [-109.60823, 26.81697], [-109.61015, 26.81699], [-109.61015, 26.81764], [-109.60823, 26.81765]]]}}, {"id": "2053901", "type": "Feature", "properties": {"id": "2053901", "CVEGEO": "2603300940059009", "POBTOT": 80.0, "score_nse": 49.0782, "NSE": "C-", "VIVTOT": 27.0, "GRAPROES": 10.19, "_ent": "26", "_mun": "033", "_loc": "0094"}, "geometry": {"type": "Polygon", "coordinates": [[[-109.60634, 26.81695], [-109.60815, 26.81697], [-109.60815, 26.81765], [-109.60634, 26.81767], [-109.60634, 26.81695]]]}}, {"id": "2053902", "type": "Feature", "properties": {"id": "2053902", "CVEGEO": "2603300940059008", "POBTOT": 101.0, "score_nse": 0.0, "NSE": "ND", "VIVTOT": 28.0, "GRAPROES": 9.81, "_ent": "26", "_mun": "033", "_loc": "0094"}, "geometry": {"type": "Polygon", "coordinates": [[[-109.60635, 26.82071], [-109.60817, 26.82071], [-109.60817, 26.8214], [-109.60636, 26.82139], [-109.60635, 26.82071]]]}}, {"id": "2054586", "type": "Feature", "properties": {"id": "2054586", "CVEGEO": "2603300940059048", "POBTOT": 68.0, "score_nse": 0.0, "NSE": "ND", "VIVTOT": 24.0, "GRAPROES": 8.69, "_ent": "26", "_mun": "033", "_loc": "0094"}, "geometry": {"type": "Polygon", "coordinates": [[[-109.61006, 26.81292], [-109.61008, 26.80942], [-109.61042, 26.80942], [-109.61026, 26.81302], [-109.61006, 26.81292]]]}}, {"id": "2054587", "type": "Feature", "properties": {"id": "2054587", "CVEGEO": "2603300940059047", "POBTOT": 11.0, "score_nse": 0.0, "NSE": "ND", "VIVTOT": 5.0, "GRAPROES": 7.44, "_ent": "26", "_mun": "033", "_loc": "0094"}, "geometry": {"type": "Polygon", "coordinates": [[[-109.60827, 26.82753], [-109.61018, 26.82753], [-109.61018, 26.82863], [-109.60827, 26.8286], [-109.60827, 26.82753]]]}}, {"id": "2054588", "type": "Feature", "properties": {"id": "2054588", "CVEGEO": "2603300940059045", "POBTOT": 33.0, "score_nse": 0.0, "NSE": "ND", "VIVTOT": 14.0, "GRAPROES": 8.27, "_ent": "26", "_mun": "033", "_loc": "0094"}, "geometry": {"type": "Polygon", "coordinates": [[[-109.60994, 26.80939], [-109.60996, 26.81026], [-109.60825, 26.8102], [-109.60825, 26.80941], [-109.60994, 26.80939]]]}}, {"id": "2054589", "type": "Feature", "properties": {"id": "2054589", "CVEGEO": "2603300940059032", "POBTOT": 93.0, "score_nse": 0.0, "NSE": "ND", "VIVTOT": 40.0, "GRAPROES": 8.65, "_ent": "26", "_mun": "033", "_loc": "0094"}, "geometry": {"type": "Polygon", "coordinates": [[[-109.60826, 26.82592], [-109.60826, 26.82524], [-109.61018, 26.8251], [-109.61018, 26.82592], [-109.60826, 26.82592]]]}}, {"id": "2054590", "type": "Feature", "properties": {"id": "2054590", "CVEGEO": "2603300940059031", "POBTOT": 77.0, "score_nse": 61.0709, "NSE": "C", "VIVTOT": 22.0, "GRAPROES": 10.8, "_ent": "26", "_mun": "033", "_loc": "0094"}, "geometry": {"type": "Polygon", "coordinates": [[[-109.60998, 26.81305], [-109.60999, 26.81345], [-109.60984, 26.81365], [-109.60829, 26.81366], [-109.60827, 26.81307], [-109.60998, 26.81305]]]}}, {"id": "2054591", "type": "Feature", "properties": {"id": "2054591", "CVEGEO": "2603300940059027", "POBTOT": 126.0, "score_nse": 0.0, "NSE": "ND", "VIVTOT": 33.0, "GRAPROES": 8.65, "_ent": "26", "_mun": "033", "_loc": "0094"}, "geometry": {"type": "Polygon", "coordinates": [[[-109.60825, 26.81394], [-109.61015, 26.81397], [-109.61015, 26.81465], [-109.60824, 26.81465], [-109.60825, 26.81394]]]}}, {"id": "2054592", "type": "Feature", "properties": {"id": "2054592", "CVEGEO": "2603300940059026", "POBTOT": 100.0, "score_nse": 50.6251, "NSE": "C-", "VIVTOT": 35.0, "GRAPROES": 9.05, "_ent": "26", "_mun": "033", "_loc": "0094"}, "geometry": {"type": "Polygon", "coordinates": [[[-109.60634, 26.81409], [-109.60649, 26.81391], [-109.60816, 26.81394], [-109.60816, 26.81465], [-109.60633, 26.81465], [-109.60634, 26.81409]]]}}, {"id": "2054593", "type": "Feature", "properties": {"id": "2054593", "CVEGEO": "2603300940059023", "POBTOT": 90.0, "score_nse": 49.4585, "NSE": "C-", "VIVTOT": 26.0, "GRAPROES": 9.43, "_ent": "26", "_mun": "033", "_loc": "0094"}, "geometry": {"type": "Polygon", "coordinates": [[[-109.60823, 26.81539], [-109.60824, 26.8147], [-109.61015, 26.8147], [-109.61015, 26.81539], [-109.60823, 26.81539]]]}}, {"id": "2054594", "type": "Feature", "properties": {"id": "2054594", "CVEGEO": "2603300940059022", "POBTOT": 105.0, "score_nse": 57.9408, "NSE": "C", "VIVTOT": 31.0, "GRAPROES": 9.23, "_ent": "26", "_mun": "033", "_loc": "0094"}, "geometry": {"type": "Polygon", "coordinates": [[[-109.60634, 26.81539], [-109.60633, 26.8147], [-109.60816, 26.8147], [-109.60815, 26.81539], [-109.60634, 26.81539]]]}}, {"id": "2054595", "type": "Feature", "properties": {"id": "2054595", "CVEGEO": "2603300940059004", "POBTOT": 84.0, "score_nse": 54.452, "NSE": "C-", "VIVTOT": 25.0, "GRAPROES": 9.43, "_ent": "26", "_mun": "033", "_loc": "0094"}, "geometry": {"type": "Polygon", "coordinates": [[[-109.60635, 26.81915], [-109.60635, 26.81846], [-109.60816, 26.81846], [-109.60816, 26.81914], [-109.60635, 26.81915]]]}}, {"id": "2054596", "type": "Feature", "properties": {"id": "2054596", "CVEGEO": "2603300940059003", "POBTOT": 95.0, "score_nse": 0.0, "NSE": "ND", "VIVTOT": 25.0, "GRAPROES": 10.3, "_ent": "26", "_mun": "033", "_loc": "0094"}, "geometry": {"type": "Polygon", "coordinates": [[[-109.60816, 26.81919], [-109.60816, 26.81987], [-109.60635, 26.81987], [-109.60635, 26.8192], [-109.60816, 26.81919]]]}}, {"id": "2054653", "type": "Feature", "properties": {"id": "2054653", "CVEGEO": "2603300940059029", "POBTOT": 116.0, "score_nse": 0.0, "NSE": "ND", "VIVTOT": 31.0, "GRAPROES": 9.46, "_ent": "26", "_mun": "033", "_loc": "0094"}, "geometry": {"type": "Polygon", "coordinates": [[[-109.60818, 26.82446], [-109.60818, 26.82513], [-109.60637, 26.82514], [-109.60637, 26.82446], [-109.60818, 26.82446]]]}}, {"id": "2054654", "type": "Feature", "properties": {"id": "2054654", "CVEGEO": "2603300940059002", "POBTOT": 132.0, "score_nse": 44.8231, "NSE": "C-", "VIVTOT": 34.0, "GRAPROES": 8.94, "_ent": "26", "_mun": "033", "_loc": "0094"}, "geometry": {"type": "Polygon", "coordinates": [[[-109.60816, 26.81994], [-109.60816, 26.82065], [-109.60635, 26.82065], [-109.60635, 26.81993], [-109.60816, 26.81994]]]}}, {"id": "2054704", "type": "Feature", "properties": {"id": "2054704", "CVEGEO": "2603300940059035", "POBTOT": 74.0, "score_nse": 0.0, "NSE": "ND", "VIVTOT": 25.0, "GRAPROES": 9.16, "_ent": "26", "_mun": "033", "_loc": "0094"}, "geometry": {"type": "Polygon", "coordinates": [[[-109.60994, 26.81244], [-109.60995, 26.81298], [-109.60826, 26.813], [-109.60826, 26.81243], [-109.60994, 26.81244]]]}}, {"id": "2054705", "type": "Feature", "properties": {"id": "2054705", "CVEGEO": "2603300940059034", "POBTOT": 108.0, "score_nse": 0.0, "NSE": "ND", "VIVTOT": 34.0, "GRAPROES": 8.96, "_ent": "26", "_mun": "033", "_loc": "0094"}, "geometry": {"type": "Polygon", "coordinates": [[[-109.60817, 26.81244], [-109.60817, 26.81299], [-109.60621, 26.81297], [-109.60623, 26.81245], [-109.60817, 26.81244]]]}}, {"id": "2054944", "type": "Feature", "properties": {"id": "2054944", "CVEGEO": "2603300940059040", "POBTOT": 123.0, "score_nse": 49.3631, "NSE": "C-", "VIVTOT": 36.0, "GRAPROES": 8.42, "_ent": "26", "_mun": "033", "_loc": "0094"}, "geometry": {"type": "Polygon", "coordinates": [[[-109.60826, 26.82673], [-109.61018, 26.82673], [-109.61018, 26.82744], [-109.60827, 26.82744], [-109.60826, 26.82673]]]}}, {"id": "2054945", "type": "Feature", "properties": {"id": "2054945", "CVEGEO": "2603300940059039", "POBTOT": 104.0, "score_nse": 0.0, "NSE": "ND", "VIVTOT": 32.0, "GRAPROES": 9.56, "_ent": "26", "_mun": "033", "_loc": "0094"}, "geometry": {"type": "Polygon", "coordinates": [[[-109.60994, 26.81173], [-109.60994, 26.81233], [-109.60829, 26.81233], [-109.60829, 26.81176], [-109.60994, 26.81173]]]}}, {"id": "2054946", "type": "Feature", "properties": {"id": "2054946", "CVEGEO": "2603300940059038", "POBTOT": 122.0, "score_nse": 56.7222, "NSE": "C", "VIVTOT": 32.0, "GRAPROES": 9.0, "_ent": "26", "_mun": "033", "_loc": "0094"}, "geometry": {"type": "Polygon", "coordinates": [[[-109.60816, 26.81173], [-109.60818, 26.81235], [-109.60623, 26.81237], [-109.60623, 26.81173], [-109.60816, 26.81173]]]}}, {"id": "2054947", "type": "Feature", "properties": {"id": "2054947", "CVEGEO": "2603300940059037", "POBTOT": 96.0, "score_nse": 0.0, "NSE": "ND", "VIVTOT": 26.0, "GRAPROES": 10.78, "_ent": "26", "_mun": "033", "_loc": "0094"}, "geometry": {"type": "Polygon", "coordinates": [[[-109.60818, 26.82601], [-109.60818, 26.82666], [-109.60637, 26.82666], [-109.60637, 26.826], [-109.60818, 26.82601]]]}}, {"id": "2054948", "type": "Feature", "properties": {"id": "2054948", "CVEGEO": "2603300940059036", "POBTOT": 88.0, "score_nse": 0.0, "NSE": "ND", "VIVTOT": 24.0, "GRAPROES": 9.65, "_ent": "26", "_mun": "033", "_loc": "0094"}, "geometry": {"type": "Polygon", "coordinates": [[[-109.60826, 26.82601], [-109.61018, 26.82601], [-109.61018, 26.82666], [-109.60826, 26.82666], [-109.60826, 26.82601]]]}}, {"id": "2054949", "type": "Feature", "properties": {"id": "2054949", "CVEGEO": "2603300940059033", "POBTOT": 50.0, "score_nse": 0.0, "NSE": "ND", "VIVTOT": 26.0, "GRAPROES": 9.35, "_ent": "26", "_mun": "033", "_loc": "0094"}, "geometry": {"type": "Polygon", "coordinates": [[[-109.60637, 26.82526], [-109.60818, 26.82524], [-109.60818, 26.82592], [-109.60637, 26.82592], [-109.60637, 26.82526]]]}}, {"id": "2054950", "type": "Feature", "properties": {"id": "2054950", "CVEGEO": "2603300940059024", "POBTOT": 107.0, "score_nse": 0.0, "NSE": "ND", "VIVTOT": 42.0, "GRAPROES": 9.42, "_ent": "26", "_mun": "033", "_loc": "0094"}, "geometry": {"type": "Polygon", "coordinates": [[[-109.61011, 26.82373], [-109.61011, 26.82435], [-109.60831, 26.82436], [-109.60833, 26.82374], [-109.61011, 26.82373]]]}}, {"id": "2054954", "type": "Feature", "properties": {"id": "2054954", "CVEGEO": "2603300940059052", "POBTOT": 53.0, "score_nse": 52.418, "NSE": "C-", "VIVTOT": 16.0, "GRAPROES": 9.29, "_ent": "26", "_mun": "033", "_loc": "0094"}, "geometry": {"type": "Polygon", "coordinates": [[[-109.61033, 26.81388], [-109.61048, 26.81156], [-109.61207, 26.81158], [-109.61207, 26.81247], [-109.61062, 26.81247], [-109.61058, 26.81347], [-109.61143, 26.81352], [-109.61033, 26.81388]]]}}, {"id": "2054955", "type": "Feature", "properties": {"id": "2054955", "CVEGEO": "2603300940059007", "POBTOT": 134.0, "score_nse": 0.0, "NSE": "ND", "VIVTOT": 38.0, "GRAPROES": 9.55, "_ent": "26", "_mun": "033", "_loc": "0094"}, "geometry": {"type": "Polygon", "coordinates": [[[-109.61017, 26.82142], [-109.60825, 26.8214], [-109.60825, 26.82071], [-109.61016, 26.82071], [-109.61017, 26.82142]]]}}, {"id": "2054956", "type": "Feature", "properties": {"id": "2054956", "CVEGEO": "2603300940059005", "POBTOT": 92.0, "score_nse": 0.0, "NSE": "ND", "VIVTOT": 25.0, "GRAPROES": 9.78, "_ent": "26", "_mun": "033", "_loc": "0094"}, "geometry": {"type": "Polygon", "coordinates": [[[-109.60634, 26.81772], [-109.60815, 26.81771], [-109.60816, 26.81839], [-109.60634, 26.8184], [-109.60634, 26.81772]]]}}, {"id": "2055054", "type": "Feature", "properties": {"id": "2055054", "CVEGEO": "2603300940627001", "POBTOT": 15.0, "score_nse": 0.0, "NSE": "ND", "VIVTOT": 5.0, "GRAPROES": 13.4, "_ent": "26", "_mun": "033", "_loc": "0094"}, "geometry": {"type": "Polygon", "coordinates": [[[-109.61116, 26.82032], [-109.6115, 26.82033], [-109.6115, 26.82099], [-109.61115, 26.82099], [-109.61116, 26.82032]]]}}, {"id": "2055055", "type": "Feature", "properties": {"id": "2055055", "CVEGEO": "2603300940612001", "POBTOT": 0.0, "score_nse": 0.0, "NSE": "ND", "VIVTOT": 0.0, "GRAPROES": 0.0, "_ent": "26", "_mun": "033", "_loc": "0094"}, "geometry": {"type": "Polygon", "coordinates": [[[-109.61064, 26.82146], [-109.61064, 26.82197], [-109.61031, 26.82197], [-109.6103, 26.82146], [-109.61064, 26.82146]]]}}, {"id": "2055057", "type": "Feature", "properties": {"id": "2055057", "CVEGEO": "2603300940805017", "POBTOT": 11.0, "score_nse": 0.0, "NSE": "ND", "VIVTOT": 6.0, "GRAPROES": 10.38, "_ent": "26", "_mun": "033", "_loc": "0094"}, "geometry": {"type": "Polygon", "coordinates": [[[-109.61249, 26.81593], [-109.611, 26.81593], [-109.61101, 26.81572], [-109.6125, 26.81574], [-109.61249, 26.81593]]]}}, {"id": "2055058", "type": "Feature", "properties": {"id": "2055058", "CVEGEO": "2603300940805016", "POBTOT": 39.0, "score_nse": 0.0, "NSE": "ND", "VIVTOT": 10.0, "GRAPROES": 9.33, "_ent": "26", "_mun": "033", "_loc": "0094"}, "geometry": {"type": "Polygon", "coordinates": [[[-109.61249, 26.81691], [-109.611, 26.81691], [-109.6109, 26.81652], [-109.61249, 26.81653], [-109.61249, 26.81691]]]}}, {"id": "2055059", "type": "Feature", "properties": {"id": "2055059", "CVEGEO": "2603300940059060", "POBTOT": 32.0, "score_nse": 0.0, "NSE": "ND", "VIVTOT": 10.0, "GRAPROES": 10.77, "_ent": "26", "_mun": "033", "_loc": "0094"}, "geometry": {"type": "Polygon", "coordinates": [[[-109.6062, 26.81087], [-109.60619, 26.81052], [-109.60693, 26.81059], [-109.60694, 26.81027], [-109.60816, 26.81028], [-109.60813, 26.81092], [-109.6062, 26.81087]]]}}, {"id": "2055061", "type": "Feature", "properties": {"id": "2055061", "CVEGEO": "2603300940805019", "POBTOT": 0.0, "score_nse": 0.0, "NSE": "ND", "VIVTOT": 0.0, "GRAPROES": 0.0, "_ent": "26", "_mun": "033", "_loc": "0094"}, "geometry": {"type": "Polygon", "coordinates": [[[-109.61653, 26.81746], [-109.61655, 26.81814], [-109.61601, 26.81814], [-109.61595, 26.81787], [-109.61595, 26.81815], [-109.61572, 26.81815], [-109.6157, 26.81747], [-109.61653, 26.81746]]]}}, {"id": "2055062", "type": "Feature", "properties": {"id": "2055062", "CVEGEO": "2603300940059046", "POBTOT": 9.0, "score_nse": 0.0, "NSE": "ND", "VIVTOT": 3.0, "GRAPROES": 10.57, "_ent": "26", "_mun": "033", "_loc": "0094"}, "geometry": {"type": "Polygon", "coordinates": [[[-109.61027, 26.82365], [-109.61224, 26.82369], [-109.61025, 26.82485], [-109.61027, 26.82365]]]}}, {"id": "2055064", "type": "Feature", "properties": {"id": "2055064", "CVEGEO": "2603300940805015", "POBTOT": 23.0, "score_nse": 0.0, "NSE": "ND", "VIVTOT": 8.0, "GRAPROES": 10.38, "_ent": "26", "_mun": "033", "_loc": "0094"}, "geometry": {"type": "Polygon", "coordinates": [[[-109.61249, 26.81737], [-109.61089, 26.81738], [-109.6109, 26.81698], [-109.61249, 26.81699], [-109.61249, 26.81737]]]}}, {"id": "2055065", "type": "Feature", "properties": {"id": "2055065", "CVEGEO": "2603300940805014", "POBTOT": 7.0, "score_nse": 0.0, "NSE": "ND", "VIVTOT": 3.0, "GRAPROES": 0.0, "_ent": "26", "_mun": "033", "_loc": "0094"}, "geometry": {"type": "Polygon", "coordinates": [[[-109.6125, 26.81781], [-109.61089, 26.81781], [-109.61088, 26.81745], [-109.61249, 26.81744], [-109.6125, 26.81781]]]}}, {"id": "2055066", "type": "Feature", "properties": {"id": "2055066", "CVEGEO": "2603300940059049", "POBTOT": 30.0, "score_nse": 65.2113, "NSE": "C", "VIVTOT": 12.0, "GRAPROES": 12.11, "_ent": "26", "_mun": "033", "_loc": "0094"}, "geometry": {"type": "Polygon", "coordinates": [[[-109.61079, 26.81392], [-109.61075, 26.81569], [-109.6103, 26.81569], [-109.61034, 26.81398], [-109.61079, 26.81392]]]}}, {"id": "2055067", "type": "Feature", "properties": {"id": "2055067", "CVEGEO": "260330094074A001", "POBTOT": 11.0, "score_nse": 0.0, "NSE": "ND", "VIVTOT": 5.0, "GRAPROES": 8.63, "_ent": "26", "_mun": "033", "_loc": "0094"}, "geometry": {"type": "Polygon", "coordinates": [[[-109.61151, 26.82197], [-109.61115, 26.82198], [-109.61116, 26.82146], [-109.61149, 26.82147], [-109.61151, 26.82197]]]}}, {"id": "2055070", "type": "Feature", "properties": {"id": "2055070", "CVEGEO": "2603300940805004", "POBTOT": 9.0, "score_nse": 0.0, "NSE": "ND", "VIVTOT": 4.0, "GRAPROES": 10.17, "_ent": "26", "_mun": "033", "_loc": "0094"}, "geometry": {"type": "Polygon", "coordinates": [[[-109.6126, 26.81701], [-109.61423, 26.81702], [-109.61424, 26.81734], [-109.61262, 26.81736], [-109.6126, 26.81701]]]}}, {"id": "2055074", "type": "Feature", "properties": {"id": "2055074", "CVEGEO": "260330094074A002", "POBTOT": 19.0, "score_nse": 0.0, "NSE": "ND", "VIVTOT": 4.0, "GRAPROES": 11.85, "_ent": "26", "_mun": "033", "_loc": "0094"}, "geometry": {"type": "Polygon", "coordinates": [[[-109.61107, 26.82199], [-109.61074, 26.82199], [-109.61073, 26.82146], [-109.61107, 26.82146], [-109.61107, 26.82199]]]}}, {"id": "2055075", "type": "Feature", "properties": {"id": "2055075", "CVEGEO": "260330094074A003", "POBTOT": 9.0, "score_nse": 0.0, "NSE": "ND", "VIVTOT": 3.0, "GRAPROES": 0.0, "_ent": "26", "_mun": "033", "_loc": "0094"}, "geometry": {"type": "Polygon", "coordinates": [[[-109.6124, 26.82199], [-109.61158, 26.82198], [-109.61157, 26.82146], [-109.61239, 26.82146], [-109.6124, 26.82199]]]}}, {"id": "2055076", "type": "Feature", "properties": {"id": "2055076", "CVEGEO": "2603300940627003", "POBTOT": 12.0, "score_nse": 0.0, "NSE": "ND", "VIVTOT": 4.0, "GRAPROES": 8.67, "_ent": "26", "_mun": "033", "_loc": "0094"}, "geometry": {"type": "Polygon", "coordinates": [[[-109.61107, 26.82098], [-109.61074, 26.82098], [-109.61075, 26.82032], [-109.61107, 26.82032], [-109.61107, 26.82098]]]}}, {"id": "2055077", "type": "Feature", "properties": {"id": "2055077", "CVEGEO": "2603300940769002", "POBTOT": 8.0, "score_nse": 0.0, "NSE": "ND", "VIVTOT": 7.0, "GRAPROES": 9.8, "_ent": "26", "_mun": "033", "_loc": "0094"}, "geometry": {"type": "Polygon", "coordinates": [[[-109.61246, 26.82029], [-109.61158, 26.82028], [-109.61159, 26.81998], [-109.61247, 26.81999], [-109.61246, 26.82029]]]}}, {"id": "2055078", "type": "Feature", "properties": {"id": "2055078", "CVEGEO": "2603300940769003", "POBTOT": 12.0, "score_nse": 0.0, "NSE": "ND", "VIVTOT": 7.0, "GRAPROES": 9.67, "_ent": "26", "_mun": "033", "_loc": "0094"}, "geometry": {"type": "Polygon", "coordinates": [[[-109.61248, 26.82067], [-109.61159, 26.82068], [-109.61158, 26.82034], [-109.61247, 26.82034], [-109.61248, 26.82067]]]}}, {"id": "2055079", "type": "Feature", "properties": {"id": "2055079", "CVEGEO": "2603300940805021", "POBTOT": 15.0, "score_nse": 0.0, "NSE": "ND", "VIVTOT": 5.0, "GRAPROES": 9.77, "_ent": "26", "_mun": "033", "_loc": "0094"}, "geometry": {"type": "Polygon", "coordinates": [[[-109.6109, 26.81641], [-109.6109, 26.81602], [-109.61252, 26.8161], [-109.61252, 26.81645], [-109.6109, 26.81641]]]}}, {"id": "2055080", "type": "Feature", "properties": {"id": "2055080", "CVEGEO": "2603300940792007", "POBTOT": 4.0, "score_nse": 0.0, "NSE": "ND", "VIVTOT": 4.0, "GRAPROES": 0.0, "_ent": "26", "_mun": "033", "_loc": "0094"}, "geometry": {"type": "Polygon", "coordinates": [[[-109.61245, 26.81944], [-109.61193, 26.81943], [-109.61193, 26.81925], [-109.61075, 26.81923], [-109.61074, 26.81887], [-109.61245, 26.81887], [-109.61245, 26.81944]]]}}, {"id": "2055081", "type": "Feature", "properties": {"id": "2055081", "CVEGEO": "2603300940792014", "POBTOT": 0.0, "score_nse": 10.0, "NSE": "E", "VIVTOT": 7.0, "GRAPROES": 0.0, "_ent": "26", "_mun": "033", "_loc": "0094"}, "geometry": {"type": "Polygon", "coordinates": [[[-109.61461, 26.82152], [-109.61373, 26.82151], [-109.61373, 26.82115], [-109.61462, 26.82116], [-109.61461, 26.82152]]]}}, {"id": "2055082", "type": "Feature", "properties": {"id": "2055082", "CVEGEO": "2603300940792015", "POBTOT": 1.0, "score_nse": 0.0, "NSE": "ND", "VIVTOT": 6.0, "GRAPROES": 0.0, "_ent": "26", "_mun": "033", "_loc": "0094"}, "geometry": {"type": "Polygon", "coordinates": [[[-109.61459, 26.82188], [-109.61372, 26.82187], [-109.61371, 26.82159], [-109.61461, 26.82159], [-109.61459, 26.82188]]]}}, {"id": "2055339", "type": "Feature", "properties": {"id": "2055339", "CVEGEO": "2603300940059006", "POBTOT": 77.0, "score_nse": 71.4938, "NSE": "C+", "VIVTOT": 26.0, "GRAPROES": 11.37, "_ent": "26", "_mun": "033", "_loc": "0094"}, "geometry": {"type": "Polygon", "coordinates": [[[-109.60823, 26.8177], [-109.61015, 26.81769], [-109.61016, 26.81833], [-109.60824, 26.81834], [-109.60823, 26.8177]]]}}, {"id": "2056045", "type": "Feature", "properties": {"id": "2056045", "CVEGEO": "2603300940805001", "POBTOT": 0.0, "score_nse": 10.0, "NSE": "E", "VIVTOT": 1.0, "GRAPROES": 0.0, "_ent": "26", "_mun": "033", "_loc": "0094"}, "geometry": {"type": "Polygon", "coordinates": [[[-109.6148, 26.81746], [-109.61482, 26.81783], [-109.61261, 26.81784], [-109.6126, 26.81746], [-109.6148, 26.81746]]]}}, {"id": "2056156", "type": "Feature", "properties": {"id": "2056156", "CVEGEO": "2603300940701001", "POBTOT": 13.0, "score_nse": 0.0, "NSE": "ND", "VIVTOT": 5.0, "GRAPROES": 10.63, "_ent": "26", "_mun": "033", "_loc": "0094"}, "geometry": {"type": "Polygon", "coordinates": [[[-109.60591, 26.81566], [-109.60614, 26.81564], [-109.60618, 26.81877], [-109.6056, 26.81879], [-109.60561, 26.81621], [-109.60588, 26.81603], [-109.60591, 26.81566]]]}}, {"id": "2056232", "type": "Feature", "properties": {"id": "2056232", "CVEGEO": "2603300940805007", "POBTOT": 0.0, "score_nse": 0.0, "NSE": "ND", "VIVTOT": 0.0, "GRAPROES": 0.0, "_ent": "26", "_mun": "033", "_loc": "0094"}, "geometry": {"type": "Polygon", "coordinates": [[[-109.61562, 26.81746], [-109.61563, 26.81815], [-109.61493, 26.81815], [-109.61492, 26.81746], [-109.61562, 26.81746]]]}}, {"id": "2056233", "type": "Feature", "properties": {"id": "2056233", "CVEGEO": "2603300940805006", "POBTOT": 0.0, "score_nse": 0.0, "NSE": "ND", "VIVTOT": 0.0, "GRAPROES": 0.0, "_ent": "26", "_mun": "033", "_loc": "0094"}, "geometry": {"type": "Polygon", "coordinates": [[[-109.61651, 26.81698], [-109.6165, 26.81736], [-109.61493, 26.81738], [-109.61492, 26.81697], [-109.61651, 26.81698]]]}}, {"id": "2056234", "type": "Feature", "properties": {"id": "2056234", "CVEGEO": "2603300940805005", "POBTOT": 1.0, "score_nse": 0.0, "NSE": "ND", "VIVTOT": 2.0, "GRAPROES": 0.0, "_ent": "26", "_mun": "033", "_loc": "0094"}, "geometry": {"type": "Polygon", "coordinates": [[[-109.6148, 26.81652], [-109.61481, 26.81735], [-109.61432, 26.81735], [-109.61432, 26.81652], [-109.6148, 26.81652]]]}}, {"id": "2056235", "type": "Feature", "properties": {"id": "2056235", "CVEGEO": "2603300940792001", "POBTOT": 0.0, "score_nse": 0.0, "NSE": "ND", "VIVTOT": 0.0, "GRAPROES": 0.0, "_ent": "26", "_mun": "033", "_loc": "0094"}, "geometry": {"type": "Polygon", "coordinates": [[[-109.61364, 26.82114], [-109.61362, 26.822], [-109.61256, 26.82201], [-109.61255, 26.82112], [-109.61364, 26.82114]]]}}, {"id": "2056236", "type": "Feature", "properties": {"id": "2056236", "CVEGEO": "2603300940769001", "POBTOT": 23.0, "score_nse": 0.0, "NSE": "ND", "VIVTOT": 14.0, "GRAPROES": 10.0, "_ent": "26", "_mun": "033", "_loc": "0094"}, "geometry": {"type": "Polygon", "coordinates": [[[-109.61246, 26.81951], [-109.61246, 26.81989], [-109.6116, 26.81989], [-109.6115, 26.81955], [-109.6115, 26.82028], [-109.61116, 26.82027], [-109.61117, 26.81953], [-109.61107, 26.81953], [-109.61106, 26.82026], [-109.61075, 26.82025], [-109.61075, 26.81932], [-109.61187, 26.81933], [-109.61188, 26.81951], [-109.61246, 26.81951]]]}}, {"id": "2056237", "type": "Feature", "properties": {"id": "2056237", "CVEGEO": "2603300940754001", "POBTOT": 2.0, "score_nse": 0.0, "NSE": "ND", "VIVTOT": 4.0, "GRAPROES": 0.0, "_ent": "26", "_mun": "033", "_loc": "0094"}, "geometry": {"type": "Polygon", "coordinates": [[[-109.61248, 26.82076], [-109.6125, 26.8214], [-109.61158, 26.82138], [-109.61161, 26.82075], [-109.61248, 26.82076]]]}}, {"id": "2056238", "type": "Feature", "properties": {"id": "2056238", "CVEGEO": "2603300940627002", "POBTOT": 14.0, "score_nse": 0.0, "NSE": "ND", "VIVTOT": 3.0, "GRAPROES": 0.0, "_ent": "26", "_mun": "033", "_loc": "0094"}, "geometry": {"type": "Polygon", "coordinates": [[[-109.6115, 26.82107], [-109.61149, 26.82139], [-109.61074, 26.82138], [-109.61074, 26.82107], [-109.6115, 26.82107]]]}}, {"id": "2056239", "type": "Feature", "properties": {"id": "2056239", "CVEGEO": "2603300940612003", "POBTOT": 0.0, "score_nse": 0.0, "NSE": "ND", "VIVTOT": 0.0, "GRAPROES": 0.0, "_ent": "26", "_mun": "033", "_loc": "0094"}, "geometry": {"type": "Polygon", "coordinates": [[[-109.61594, 26.82233], [-109.61593, 26.82281], [-109.61495, 26.82295], [-109.61493, 26.8225], [-109.61594, 26.82233]]]}}, {"id": "2056240", "type": "Feature", "properties": {"id": "2056240", "CVEGEO": "2603300940612002", "POBTOT": 0.0, "score_nse": 10.0, "NSE": "E", "VIVTOT": 1.0, "GRAPROES": 0.0, "_ent": "26", "_mun": "033", "_loc": "0094"}, "geometry": {"type": "Polygon", "coordinates": [[[-109.61451, 26.82217], [-109.61436, 26.82241], [-109.61353, 26.82284], [-109.61169, 26.82278], [-109.61321, 26.823], [-109.61239, 26.82358], [-109.61031, 26.82354], [-109.61031, 26.82212], [-109.61451, 26.82217]]]}}, {"id": "2056241", "type": "Feature", "properties": {"id": "2056241", "CVEGEO": "2603300940059061", "POBTOT": 8.0, "score_nse": 0.0, "NSE": "ND", "VIVTOT": 5.0, "GRAPROES": 0.0, "_ent": "26", "_mun": "033", "_loc": "0094"}, "geometry": {"type": "Polygon", "coordinates": [[[-109.60813, 26.80926], [-109.60813, 26.81017], [-109.60694, 26.8102], [-109.60693, 26.80995], [-109.60733, 26.80996], [-109.60735, 26.80928], [-109.60813, 26.80926]]]}}, {"id": "2056242", "type": "Feature", "properties": {"id": "2056242", "CVEGEO": "2603300940059059", "POBTOT": 148.0, "score_nse": 55.8461, "NSE": "C", "VIVTOT": 46.0, "GRAPROES": 11.31, "_ent": "26", "_mun": "033", "_loc": "0094"}, "geometry": {"type": "Polygon", "coordinates": [[[-109.61082, 26.81602], [-109.61063, 26.82026], [-109.61026, 26.82025], [-109.61031, 26.81591], [-109.61082, 26.81602]]]}}, {"id": "2056243", "type": "Feature", "properties": {"id": "2056243", "CVEGEO": "2603300940059057", "POBTOT": 0.0, "score_nse": 0.0, "NSE": "ND", "VIVTOT": 0.0, "GRAPROES": 0.0, "_ent": "26", "_mun": "033", "_loc": "0094"}, "geometry": {"type": "Polygon", "coordinates": [[[-109.61063, 26.82034], [-109.61065, 26.82121], [-109.6103, 26.82135], [-109.61027, 26.82034], [-109.61063, 26.82034]]]}}, {"id": "2056244", "type": "Feature", "properties": {"id": "2056244", "CVEGEO": "2603300940059051", "POBTOT": 13.0, "score_nse": 0.0, "NSE": "ND", "VIVTOT": 5.0, "GRAPROES": 7.5, "_ent": "26", "_mun": "033", "_loc": "0094"}, "geometry": {"type": "Polygon", "coordinates": [[[-109.61024, 26.8131], [-109.61021, 26.8139], [-109.61001, 26.81389], [-109.60986, 26.8138], [-109.61006, 26.81351], [-109.61005, 26.81306], [-109.61024, 26.8131]]]}}, {"id": "2056245", "type": "Feature", "properties": {"id": "2056245", "CVEGEO": "2603300940059050", "POBTOT": 0.0, "score_nse": 0.0, "NSE": "ND", "VIVTOT": 0.0, "GRAPROES": 0.0, "_ent": "26", "_mun": "033", "_loc": "0094"}, "geometry": {"type": "Polygon", "coordinates": [[[-109.61169, 26.8243], [-109.61167, 26.8278], [-109.61041, 26.82785], [-109.61035, 26.82519], [-109.61169, 26.8243]]]}}, {"id": "2056246", "type": "Feature", "properties": {"id": "2056246", "CVEGEO": "2603300940059001", "POBTOT": 16.0, "score_nse": 56.867, "NSE": "C", "VIVTOT": 8.0, "GRAPROES": 7.53, "_ent": "26", "_mun": "033", "_loc": "0094"}, "geometry": {"type": "Polygon", "coordinates": [[[-109.61014, 26.81846], [-109.61012, 26.82048], [-109.60999, 26.82059], [-109.60829, 26.8206], [-109.60829, 26.82005], [-109.60886, 26.82], [-109.60829, 26.81999], [-109.60827, 26.81846], [-109.61014, 26.81846]]]}}, {"id": "2056428", "type": "Feature", "properties": {"id": "2056428", "CVEGEO": "2603300940792010", "POBTOT": 0.0, "score_nse": 0.0, "NSE": "ND", "VIVTOT": 0.0, "GRAPROES": 0.0, "_ent": "26", "_mun": "033", "_loc": "0094"}, "geometry": {"type": "Polygon", "coordinates": [[[-109.61671, 26.82032], [-109.61671, 26.82049], [-109.6147, 26.8205], [-109.61471, 26.82037], [-109.61671, 26.82032]]]}}, {"id": "2056429", "type": "Feature", "properties": {"id": "2056429", "CVEGEO": "2603300940059030", "POBTOT": 111.0, "score_nse": 0.0, "NSE": "ND", "VIVTOT": 38.0, "GRAPROES": 8.43, "_ent": "26", "_mun": "033", "_loc": "0094"}, "geometry": {"type": "Polygon", "coordinates": [[[-109.60816, 26.81306], [-109.60815, 26.81367], [-109.60613, 26.81369], [-109.60615, 26.81304], [-109.60816, 26.81306]]]}}, {"id": "2056430", "type": "Feature", "properties": {"id": "2056430", "CVEGEO": "2603300940843001", "POBTOT": 0.0, "score_nse": 10.0, "NSE": "E", "VIVTOT": 1.0, "GRAPROES": 0.0, "_ent": "26", "_mun": "033", "_loc": "0094"}, "geometry": {"type": "Polygon", "coordinates": [[[-109.60391, 26.81382], [-109.60612, 26.81381], [-109.6061, 26.81427], [-109.60392, 26.81432], [-109.60391, 26.81382]]]}}, {"id": "2056431", "type": "Feature", "properties": {"id": "2056431", "CVEGEO": "2603300940059058", "POBTOT": 0.0, "score_nse": 0.0, "NSE": "ND", "VIVTOT": 0.0, "GRAPROES": 0.0, "_ent": "26", "_mun": "033", "_loc": "0094"}, "geometry": {"type": "Polygon", "coordinates": [[[-109.60606, 26.81301], [-109.60607, 26.8137], [-109.60539, 26.81367], [-109.6054, 26.8129], [-109.60606, 26.81301]]]}}, {"id": "2056432", "type": "Feature", "properties": {"id": "2056432", "CVEGEO": "2603300940805009", "POBTOT": 14.0, "score_nse": 0.0, "NSE": "ND", "VIVTOT": 16.0, "GRAPROES": 7.18, "_ent": "26", "_mun": "033", "_loc": "0094"}, "geometry": {"type": "Polygon", "coordinates": [[[-109.61655, 26.81819], [-109.61654, 26.81856], [-109.61471, 26.81856], [-109.61473, 26.81819], [-109.61655, 26.81819]]]}}, {"id": "2056433", "type": "Feature", "properties": {"id": "2056433", "CVEGEO": "2603300940792013", "POBTOT": 8.0, "score_nse": 0.0, "NSE": "ND", "VIVTOT": 14.0, "GRAPROES": 6.13, "_ent": "26", "_mun": "033", "_loc": "0094"}, "geometry": {"type": "Polygon", "coordinates": [[[-109.61655, 26.81863], [-109.61655, 26.81899], [-109.61471, 26.81902], [-109.61472, 26.81865], [-109.61655, 26.81863]]]}}, {"id": "2056434", "type": "Feature", "properties": {"id": "2056434", "CVEGEO": "2603300940792009", "POBTOT": 14.0, "score_nse": 0.0, "NSE": "ND", "VIVTOT": 21.0, "GRAPROES": 8.58, "_ent": "26", "_mun": "033", "_loc": "0094"}, "geometry": {"type": "Polygon", "coordinates": [[[-109.61653, 26.81907], [-109.61653, 26.81945], [-109.61471, 26.81948], [-109.61471, 26.8191], [-109.61653, 26.81907]]]}}, {"id": "2056435", "type": "Feature", "properties": {"id": "2056435", "CVEGEO": "2603300940792004", "POBTOT": 5.0, "score_nse": 22.832, "NSE": "D", "VIVTOT": 12.0, "GRAPROES": 7.5, "_ent": "26", "_mun": "033", "_loc": "0094"}, "geometry": {"type": "Polygon", "coordinates": [[[-109.61672, 26.81955], [-109.61673, 26.81991], [-109.6147, 26.81992], [-109.61469, 26.81957], [-109.61672, 26.81955]]]}}, {"id": "2056436", "type": "Feature", "properties": {"id": "2056436", "CVEGEO": "2603300940792005", "POBTOT": 5.0, "score_nse": 0.0, "NSE": "ND", "VIVTOT": 3.0, "GRAPROES": 0.0, "_ent": "26", "_mun": "033", "_loc": "0094"}, "geometry": {"type": "Polygon", "coordinates": [[[-109.61673, 26.81999], [-109.61672, 26.82026], [-109.61471, 26.82027], [-109.6147, 26.81999], [-109.61673, 26.81999]]]}}, {"id": "2056437", "type": "Feature", "properties": {"id": "2056437", "CVEGEO": "2603300940805010", "POBTOT": 7.0, "score_nse": 0.0, "NSE": "ND", "VIVTOT": 5.0, "GRAPROES": 9.0, "_ent": "26", "_mun": "033", "_loc": "0094"}, "geometry": {"type": "Polygon", "coordinates": [[[-109.61474, 26.81789], [-109.61467, 26.81831], [-109.61262, 26.81829], [-109.61263, 26.81789], [-109.61474, 26.81789]]]}}, {"id": "2056438", "type": "Feature", "properties": {"id": "2056438", "CVEGEO": "2603300940792012", "POBTOT": 9.0, "score_nse": 0.0, "NSE": "ND", "VIVTOT": 17.0, "GRAPROES": 5.11, "_ent": "26", "_mun": "033", "_loc": "0094"}, "geometry": {"type": "Polygon", "coordinates": [[[-109.61262, 26.81841], [-109.61466, 26.81837], [-109.61465, 26.81878], [-109.61261, 26.81877], [-109.61262, 26.81841]]]}}, {"id": "2056439", "type": "Feature", "properties": {"id": "2056439", "CVEGEO": "2603300940792008", "POBTOT": 0.0, "score_nse": 10.0, "NSE": "E", "VIVTOT": 7.0, "GRAPROES": 0.0, "_ent": "26", "_mun": "033", "_loc": "0094"}, "geometry": {"type": "Polygon", "coordinates": [[[-109.61461, 26.81891], [-109.61458, 26.81924], [-109.61259, 26.81923], [-109.6126, 26.81888], [-109.61461, 26.81891]]]}}, {"id": "2056440", "type": "Feature", "properties": {"id": "2056440", "CVEGEO": "2603300940792003", "POBTOT": 1.0, "score_nse": 0.0, "NSE": "ND", "VIVTOT": 7.0, "GRAPROES": 0.0, "_ent": "26", "_mun": "033", "_loc": "0094"}, "geometry": {"type": "Polygon", "coordinates": [[[-109.61461, 26.81937], [-109.61462, 26.81975], [-109.6126, 26.81974], [-109.6126, 26.81935], [-109.61461, 26.81937]]]}}, {"id": "2056441", "type": "Feature", "properties": {"id": "2056441", "CVEGEO": "2603300940792002", "POBTOT": 7.0, "score_nse": 0.0, "NSE": "ND", "VIVTOT": 8.0, "GRAPROES": 7.71, "_ent": "26", "_mun": "033", "_loc": "0094"}, "geometry": {"type": "Polygon", "coordinates": [[[-109.6146, 26.81985], [-109.61461, 26.82022], [-109.61258, 26.82019], [-109.61259, 26.81984], [-109.6146, 26.81985]]]}}, {"id": "2056442", "type": "Feature", "properties": {"id": "2056442", "CVEGEO": "2603300940792006", "POBTOT": 7.0, "score_nse": 0.0, "NSE": "ND", "VIVTOT": 9.0, "GRAPROES": 0.0, "_ent": "26", "_mun": "033", "_loc": "0094"}, "geometry": {"type": "Polygon", "coordinates": [[[-109.61459, 26.82032], [-109.61459, 26.82082], [-109.61257, 26.82081], [-109.6126, 26.82031], [-109.61459, 26.82032]]]}}, {"id": "2056550", "type": "Feature", "properties": {"id": "2056550", "CVEGEO": "2603300940701002", "POBTOT": 0.0, "score_nse": 0.0, "NSE": null, "VIVTOT": 0.0, "GRAPROES": 0.0, "_ent": "26", "_mun": "033", "_loc": "0094"}, "geometry": {"type": "Polygon", "coordinates": [[[-109.60616, 26.81883], [-109.60616, 26.81979], [-109.60558, 26.81979], [-109.6055, 26.81885], [-109.60616, 26.81883]]]}}, {"id": "2056551", "type": "Feature", "properties": {"id": "2056551", "CVEGEO": "2603300940805022", "POBTOT": 0.0, "score_nse": 0.0, "NSE": null, "VIVTOT": 0.0, "GRAPROES": 0.0, "_ent": "26", "_mun": "033", "_loc": "0094"}, "geometry": {"type": "Polygon", "coordinates": [[[-109.61426, 26.81695], [-109.61263, 26.81694], [-109.61265, 26.81653], [-109.61425, 26.81654], [-109.61426, 26.81695]]]}}, {"id": "2056569", "type": "Feature", "properties": {"id": "2056569", "CVEGEO": "2603300940788001", "POBTOT": 34.0, "score_nse": 0.0, "NSE": "ND", "VIVTOT": 14.0, "GRAPROES": 10.22, "_ent": "26", "_mun": "033", "_loc": "0094"}, "geometry": {"type": "Polygon", "coordinates": [[[-109.60423, 26.82068], [-109.60422, 26.82034], [-109.60612, 26.82036], [-109.60612, 26.82066], [-109.60423, 26.82068]]]}}, {"id": "2056570", "type": "Feature", "properties": {"id": "2056570", "CVEGEO": "2603300940788002", "POBTOT": 21.0, "score_nse": 0.0, "NSE": "ND", "VIVTOT": 10.0, "GRAPROES": 9.73, "_ent": "26", "_mun": "033", "_loc": "0094"}, "geometry": {"type": "Polygon", "coordinates": [[[-109.60422, 26.82025], [-109.60423, 26.81994], [-109.60613, 26.81997], [-109.60612, 26.82026], [-109.60422, 26.82025]]]}}, {"id": "2056571", "type": "Feature", "properties": {"id": "2056571", "CVEGEO": "2603300940788003", "POBTOT": 0.0, "score_nse": 0.0, "NSE": null, "VIVTOT": 0.0, "GRAPROES": 0.0, "_ent": "26", "_mun": "033", "_loc": "0094"}, "geometry": {"type": "Polygon", "coordinates": [[[-109.60248, 26.82069], [-109.60249, 26.82034], [-109.60413, 26.82034], [-109.60413, 26.82068], [-109.60248, 26.82069]]]}}, {"id": "2056572", "type": "Feature", "properties": {"id": "2056572", "CVEGEO": "2603300940788004", "POBTOT": 0.0, "score_nse": 0.0, "NSE": null, "VIVTOT": 0.0, "GRAPROES": 0.0, "_ent": "26", "_mun": "033", "_loc": "0094"}, "geometry": {"type": "Polygon", "coordinates": [[[-109.60249, 26.82023], [-109.60248, 26.81992], [-109.60412, 26.81994], [-109.60412, 26.82025], [-109.60249, 26.82023]]]}}, {"id": "2056573", "type": "Feature", "properties": {"id": "2056573", "CVEGEO": "2603300940792011", "POBTOT": 0.0, "score_nse": 10.0, "NSE": "E", "VIVTOT": 2.0, "GRAPROES": 0.0, "_ent": "26", "_mun": "033", "_loc": "0094"}, "geometry": {"type": "Polygon", "coordinates": [[[-109.61262, 26.82109], [-109.61262, 26.82091], [-109.61367, 26.82092], [-109.61367, 26.8211], [-109.61262, 26.82109]]]}}, {"id": "2056574", "type": "Feature", "properties": {"id": "2056574", "CVEGEO": "2603300940792016", "POBTOT": 0.0, "score_nse": 0.0, "NSE": null, "VIVTOT": 0.0, "GRAPROES": 0.0, "_ent": "26", "_mun": "033", "_loc": "0094"}, "geometry": {"type": "Polygon", "coordinates": [[[-109.61374, 26.82092], [-109.61458, 26.82091], [-109.61458, 26.8211], [-109.61374, 26.8211], [-109.61374, 26.82092]]]}}, {"id": "2056575", "type": "Feature", "properties": {"id": "2056575", "CVEGEO": "2603300940805013", "POBTOT": 5.0, "score_nse": 0.0, "NSE": "ND", "VIVTOT": 3.0, "GRAPROES": 0.0, "_ent": "26", "_mun": "033", "_loc": "0094"}, "geometry": {"type": "Polygon", "coordinates": [[[-109.61095, 26.8183], [-109.61094, 26.81792], [-109.61249, 26.81793], [-109.61249, 26.81833], [-109.61095, 26.8183]]]}}, {"id": "2056576", "type": "Feature", "properties": {"id": "2056576", "CVEGEO": "2603300940805023", "POBTOT": 0.0, "score_nse": 0.0, "NSE": null, "VIVTOT": 0.0, "GRAPROES": 0.0, "_ent": "26", "_mun": "033", "_loc": "0094"}, "geometry": {"type": "Polygon", "coordinates": [[[-109.6108, 26.81843], [-109.61248, 26.81842], [-109.61248, 26.81878], [-109.61078, 26.81877], [-109.6108, 26.81843]]]}}]}