{"type": "FeatureCollection", "features": [{"id": "2053736", "type": "Feature", "properties": {"id": "2053736", "CVEGEO": "2603301800491021", "POBTOT": 0.0, "score_nse": 0.0, "NSE": null, "VIVTOT": 0.0, "GRAPROES": 0.0, "_ent": "26", "_mun": "033", "_loc": "0180"}, "geometry": {"type": "Polygon", "coordinates": [[[-109.09972, 26.32265], [-109.09928, 26.323], [-109.0989, 26.32255], [-109.09939, 26.32221], [-109.09972, 26.32265]]]}}, {"id": "2053737", "type": "Feature", "properties": {"id": "2053737", "CVEGEO": "2603301800491020", "POBTOT": 0.0, "score_nse": 0.0, "NSE": null, "VIVTOT": 0.0, "GRAPROES": 0.0, "_ent": "26", "_mun": "033", "_loc": "0180"}, "geometry": {"type": "Polygon", "coordinates": [[[-109.09597, 26.32069], [-109.09664, 26.32024], [-109.09711, 26.32072], [-109.09643, 26.3212], [-109.09597, 26.32069]]]}}, {"id": "2053738", "type": "Feature", "properties": {"id": "2053738", "CVEGEO": "2603301800491018", "POBTOT": 0.0, "score_nse": 0.0, "NSE": null, "VIVTOT": 0.0, "GRAPROES": 0.0, "_ent": "26", "_mun": "033", "_loc": "0180"}, "geometry": {"type": "Polygon", "coordinates": [[[-109.09598, 26.32567], [-109.09674, 26.32516], [-109.09723, 26.32573], [-109.09646, 26.32625], [-109.09598, 26.32567]]]}}, {"id": "2053739", "type": "Feature", "properties": {"id": "2053739", "CVEGEO": "2603301800491005", "POBTOT": 0.0, "score_nse": 0.0, "NSE": null, "VIVTOT": 0.0, "GRAPROES": 0.0, "_ent": "26", "_mun": "033", "_loc": "0180"}, "geometry": {"type": "Polygon", "coordinates": [[[-109.09778, 26.32145], [-109.09825, 26.32199], [-109.09751, 26.32252], [-109.097, 26.32194], [-109.09778, 26.32145]]]}}, {"id": "2053780", "type": "Feature", "properties": {"id": "2053780", "CVEGEO": "2603301800491004", "POBTOT": 0.0, "score_nse": 0.0, "NSE": null, "VIVTOT": 0.0, "GRAPROES": 0.0, "_ent": "26", "_mun": "033", "_loc": "0180"}, "geometry": {"type": "Polygon", "coordinates": [[[-109.09612, 26.32254], [-109.09689, 26.32201], [-109.09738, 26.3226], [-109.09664, 26.32312], [-109.09612, 26.32254]]]}}, {"id": "2053824", "type": "Feature", "properties": {"id": "2053824", "CVEGEO": "2603301800491025", "POBTOT": 0.0, "score_nse": 0.0, "NSE": null, "VIVTOT": 0.0, "GRAPROES": 0.0, "_ent": "26", "_mun": "033", "_loc": "0180"}, "geometry": {"type": "Polygon", "coordinates": [[[-109.09386, 26.31998], [-109.09413, 26.31982], [-109.09448, 26.31992], [-109.09493, 26.32041], [-109.09484, 26.3205], [-109.09502, 26.32104], [-109.09448, 26.32158], [-109.09357, 26.32106], [-109.09386, 26.31998]]]}}, {"id": "2053825", "type": "Feature", "properties": {"id": "2053825", "CVEGEO": "2603301800491023", "POBTOT": 0.0, "score_nse": 0.0, "NSE": null, "VIVTOT": 0.0, "GRAPROES": 0.0, "_ent": "26", "_mun": "033", "_loc": "0180"}, "geometry": {"type": "Polygon", "coordinates": [[[-109.09472, 26.32251], [-109.09545, 26.32202], [-109.09592, 26.32257], [-109.09517, 26.32311], [-109.09472, 26.32251]]]}}, {"id": "2053826", "type": "Feature", "properties": {"id": "2053826", "CVEGEO": "2603301800491022", "POBTOT": 0.0, "score_nse": 0.0, "NSE": null, "VIVTOT": 0.0, "GRAPROES": 0.0, "_ent": "26", "_mun": "033", "_loc": "0180"}, "geometry": {"type": "Polygon", "coordinates": [[[-109.09437, 26.32272], [-109.09454, 26.32257], [-109.09508, 26.32317], [-109.09491, 26.32331], [-109.09437, 26.32272]]]}}, {"id": "2053827", "type": "Feature", "properties": {"id": "2053827", "CVEGEO": "2603301800491009", "POBTOT": 0.0, "score_nse": 0.0, "NSE": null, "VIVTOT": 0.0, "GRAPROES": 0.0, "_ent": "26", "_mun": "033", "_loc": "0180"}, "geometry": {"type": "Polygon", "coordinates": [[[-109.09708, 26.32398], [-109.09751, 26.32451], [-109.09678, 26.32502], [-109.09633, 26.32451], [-109.09708, 26.32398]]]}}, {"id": "2053828", "type": "Feature", "properties": {"id": "2053828", "CVEGEO": "2603301800491008", "POBTOT": 0.0, "score_nse": 0.0, "NSE": null, "VIVTOT": 0.0, "GRAPROES": 0.0, "_ent": "26", "_mun": "033", "_loc": "0180"}, "geometry": {"type": "Polygon", "coordinates": [[[-109.09798, 26.32329], [-109.09845, 26.32384], [-109.0977, 26.32437], [-109.09724, 26.32382], [-109.09798, 26.32329]]]}}, {"id": "2053829", "type": "Feature", "properties": {"id": "2053829", "CVEGEO": "2603301800491007", "POBTOT": 0.0, "score_nse": 0.0, "NSE": null, "VIVTOT": 0.0, "GRAPROES": 0.0, "_ent": "26", "_mun": "033", "_loc": "0180"}, "geometry": {"type": "Polygon", "coordinates": [[[-109.0993, 26.32326], [-109.09855, 26.32378], [-109.09809, 26.32323], [-109.09884, 26.3227], [-109.0993, 26.32326]]]}}, {"id": "2053830", "type": "Feature", "properties": {"id": "2053830", "CVEGEO": "2603301800491006", "POBTOT": 0.0, "score_nse": 0.0, "NSE": null, "VIVTOT": 0.0, "GRAPROES": 0.0, "_ent": "26", "_mun": "033", "_loc": "0180"}, "geometry": {"type": "Polygon", "coordinates": [[[-109.09832, 26.32208], [-109.09879, 26.32263], [-109.09805, 26.32315], [-109.09758, 26.3226], [-109.09832, 26.32208]]]}}, {"id": "2053848", "type": "Feature", "properties": {"id": "2053848", "CVEGEO": "2603301800491012", "POBTOT": 0.0, "score_nse": 0.0, "NSE": null, "VIVTOT": 0.0, "GRAPROES": 0.0, "_ent": "26", "_mun": "033", "_loc": "0180"}, "geometry": {"type": "Polygon", "coordinates": [[[-109.09472, 26.32364], [-109.09517, 26.32327], [-109.09566, 26.32383], [-109.0952, 26.32415], [-109.09472, 26.32364]]]}}, {"id": "2053849", "type": "Feature", "properties": {"id": "2053849", "CVEGEO": "2603301800491011", "POBTOT": 0.0, "score_nse": 0.0, "NSE": null, "VIVTOT": 0.0, "GRAPROES": 0.0, "_ent": "26", "_mun": "033", "_loc": "0180"}, "geometry": {"type": "Polygon", "coordinates": [[[-109.09494, 26.32444], [-109.09568, 26.32389], [-109.09613, 26.32445], [-109.0954, 26.32497], [-109.09494, 26.32444]]]}}, {"id": "2053850", "type": "Feature", "properties": {"id": "2053850", "CVEGEO": "2603301800491010", "POBTOT": 0.0, "score_nse": 0.0, "NSE": null, "VIVTOT": 0.0, "GRAPROES": 0.0, "_ent": "26", "_mun": "033", "_loc": "0180"}, "geometry": {"type": "Polygon", "coordinates": [[[-109.09547, 26.32508], [-109.09623, 26.32456], [-109.0967, 26.32511], [-109.09594, 26.32562], [-109.09547, 26.32508]]]}}, {"id": "2054794", "type": "Feature", "properties": {"id": "2054794", "CVEGEO": "2603301800491015", "POBTOT": 0.0, "score_nse": 0.0, "NSE": null, "VIVTOT": 0.0, "GRAPROES": 0.0, "_ent": "26", "_mun": "033", "_loc": "0180"}, "geometry": {"type": "Polygon", "coordinates": [[[-109.09928, 26.3237], [-109.0994, 26.32385], [-109.09966, 26.32369], [-109.09983, 26.3239], [-109.09909, 26.3244], [-109.09863, 26.32385], [-109.09937, 26.32333], [-109.09953, 26.32353], [-109.09928, 26.3237]]]}}, {"id": "2054795", "type": "Feature", "properties": {"id": "2054795", "CVEGEO": "2603301800491014", "POBTOT": 0.0, "score_nse": 0.0, "NSE": null, "VIVTOT": 0.0, "GRAPROES": 0.0, "_ent": "26", "_mun": "033", "_loc": "0180"}, "geometry": {"type": "Polygon", "coordinates": [[[-109.09719, 26.32081], [-109.09766, 26.32136], [-109.09693, 26.32187], [-109.09647, 26.32132], [-109.09719, 26.32081]]]}}, {"id": "2054796", "type": "Feature", "properties": {"id": "2054796", "CVEGEO": "2603301800491013", "POBTOT": 0.0, "score_nse": 0.0, "NSE": null, "VIVTOT": 0.0, "GRAPROES": 0.0, "_ent": "26", "_mun": "033", "_loc": "0180"}, "geometry": {"type": "Polygon", "coordinates": [[[-109.0961, 26.32159], [-109.0962, 26.3217], [-109.09649, 26.32153], [-109.09682, 26.32189], [-109.09607, 26.32244], [-109.09565, 26.32191], [-109.0961, 26.32159]]]}}, {"id": "2054797", "type": "Feature", "properties": {"id": "2054797", "CVEGEO": "2603301800491003", "POBTOT": 0.0, "score_nse": 0.0, "NSE": null, "VIVTOT": 0.0, "GRAPROES": 0.0, "_ent": "26", "_mun": "033", "_loc": "0180"}, "geometry": {"type": "Polygon", "coordinates": [[[-109.09527, 26.32318], [-109.09596, 26.32265], [-109.09648, 26.32323], [-109.0957, 26.32375], [-109.09527, 26.32318]]]}}, {"id": "2054798", "type": "Feature", "properties": {"id": "2054798", "CVEGEO": "2603301800491002", "POBTOT": 0.0, "score_nse": 0.0, "NSE": null, "VIVTOT": 0.0, "GRAPROES": 0.0, "_ent": "26", "_mun": "033", "_loc": "0180"}, "geometry": {"type": "Polygon", "coordinates": [[[-109.09652, 26.32331], [-109.097, 26.32386], [-109.09624, 26.32441], [-109.09575, 26.32384], [-109.09652, 26.32331]]]}}, {"id": "2054933", "type": "Feature", "properties": {"id": "2054933", "CVEGEO": "2603301800491001", "POBTOT": 0.0, "score_nse": 0.0, "NSE": null, "VIVTOT": 0.0, "GRAPROES": 0.0, "_ent": "26", "_mun": "033", "_loc": "0180"}, "geometry": {"type": "Polygon", "coordinates": [[[-109.09747, 26.32265], [-109.09792, 26.32322], [-109.09717, 26.32376], [-109.09671, 26.3232], [-109.09747, 26.32265]]]}}, {"id": "2055006", "type": "Feature", "properties": {"id": "2055006", "CVEGEO": "2603301800491016", "POBTOT": 0.0, "score_nse": 0.0, "NSE": null, "VIVTOT": 0.0, "GRAPROES": 0.0, "_ent": "26", "_mun": "033", "_loc": "0180"}, "geometry": {"type": "Polygon", "coordinates": [[[-109.0978, 26.32447], [-109.09854, 26.32394], [-109.09897, 26.32445], [-109.09825, 26.32496], [-109.0978, 26.32447]]]}}, {"id": "2055009", "type": "Feature", "properties": {"id": "2055009", "CVEGEO": "2603301800491017", "POBTOT": 0.0, "score_nse": 0.0, "NSE": null, "VIVTOT": 0.0, "GRAPROES": 0.0, "_ent": "26", "_mun": "033", "_loc": "0180"}, "geometry": {"type": "Polygon", "coordinates": [[[-109.09683, 26.32511], [-109.09759, 26.32458], [-109.09805, 26.32512], [-109.09729, 26.32567], [-109.09683, 26.32511]]]}}, {"id": "2055042", "type": "Feature", "properties": {"id": "2055042", "CVEGEO": "2603301800491019", "POBTOT": 0.0, "score_nse": 0.0, "NSE": null, "VIVTOT": 0.0, "GRAPROES": 0.0, "_ent": "26", "_mun": "033", "_loc": "0180"}, "geometry": {"type": "Polygon", "coordinates": [[[-109.09556, 26.32183], [-109.0951, 26.32129], [-109.09584, 26.32075], [-109.0963, 26.32131], [-109.09556, 26.32183]]]}}, {"id": "2056628", "type": "Feature", "properties": {"id": "2056628", "CVEGEO": "2603301800491026", "POBTOT": 0.0, "score_nse": 0.0, "NSE": null, "VIVTOT": 0.0, "GRAPROES": 0.0, "_ent": "26", "_mun": "033", "_loc": "0180"}, "geometry": {"type": "Polygon", "coordinates": [[[-109.09884, 26.32244], [-109.09811, 26.32164], [-109.09879, 26.32121], [-109.09945, 26.32199], [-109.09884, 26.32244]]]}}, {"id": "2056629", "type": "Feature", "properties": {"id": "2056629", "CVEGEO": "2603301800491027", "POBTOT": 0.0, "score_nse": 0.0, "NSE": null, "VIVTOT": 0.0, "GRAPROES": 0.0, "_ent": "26", "_mun": "033", "_loc": "0180"}, "geometry": {"type": "Polygon", "coordinates": [[[-109.09529, 26.32186], [-109.09458, 26.32234], [-109.09404, 26.32157], [-109.09509, 26.32166], [-109.09529, 26.32186]]]}}, {"id": "2056630", "type": "Feature", "properties": {"id": "2056630", "CVEGEO": "2603301800491028", "POBTOT": 0.0, "score_nse": 0.0, "NSE": null, "VIVTOT": 0.0, "GRAPROES": 0.0, "_ent": "26", "_mun": "033", "_loc": "0180"}, "geometry": {"type": "Polygon", "coordinates": [[[-109.09569, 26.32056], [-109.09517, 26.32092], [-109.09497, 26.32032], [-109.09515, 26.31997], [-109.09569, 26.32056]]]}}]}