{"type": "FeatureCollection", "features": [{"id": "2055247", "type": "Feature", "properties": {"id": "2055247", "CVEGEO": "2603302210453031", "POBTOT": 0.0, "score_nse": 0.0, "NSE": null, "VIVTOT": 0.0, "GRAPROES": 0.0, "_ent": "26", "_mun": "033", "_loc": "0221"}, "geometry": {"type": "Polygon", "coordinates": [[[-109.26903, 26.50599], [-109.26955, 26.5058], [-109.27058, 26.50831], [-109.27012, 26.50848], [-109.26903, 26.50599]]]}}, {"id": "2055248", "type": "Feature", "properties": {"id": "2055248", "CVEGEO": "2603302210453030", "POBTOT": 0.0, "score_nse": 0.0, "NSE": null, "VIVTOT": 0.0, "GRAPROES": 0.0, "_ent": "26", "_mun": "033", "_loc": "0221"}, "geometry": {"type": "Polygon", "coordinates": [[[-109.26998, 26.50843], [-109.26984, 26.50849], [-109.26966, 26.50813], [-109.26947, 26.50818], [-109.26934, 26.50794], [-109.26968, 26.50782], [-109.26998, 26.50843]]]}}, {"id": "2055249", "type": "Feature", "properties": {"id": "2055249", "CVEGEO": "2603302210453010", "POBTOT": 0.0, "score_nse": 0.0, "NSE": null, "VIVTOT": 0.0, "GRAPROES": 0.0, "_ent": "26", "_mun": "033", "_loc": "0221"}, "geometry": {"type": "Polygon", "coordinates": [[[-109.27511, 26.52044], [-109.27542, 26.52021], [-109.27602, 26.52121], [-109.27561, 26.5214], [-109.27511, 26.52044]]]}}, {"id": "2055250", "type": "Feature", "properties": {"id": "2055250", "CVEGEO": "2603302210453006", "POBTOT": 0.0, "score_nse": 0.0, "NSE": null, "VIVTOT": 0.0, "GRAPROES": 0.0, "_ent": "26", "_mun": "033", "_loc": "0221"}, "geometry": {"type": "Polygon", "coordinates": [[[-109.27563, 26.52145], [-109.27603, 26.52126], [-109.27703, 26.52291], [-109.27655, 26.52313], [-109.27563, 26.52145]]]}}, {"id": "2055251", "type": "Feature", "properties": {"id": "2055251", "CVEGEO": "2603302210453014", "POBTOT": 0.0, "score_nse": 0.0, "NSE": null, "VIVTOT": 0.0, "GRAPROES": 0.0, "_ent": "26", "_mun": "033", "_loc": "0221"}, "geometry": {"type": "Polygon", "coordinates": [[[-109.28286, 26.53331], [-109.28328, 26.53306], [-109.28384, 26.53395], [-109.28345, 26.53419], [-109.28286, 26.53331]]]}}, {"id": "2055252", "type": "Feature", "properties": {"id": "2055252", "CVEGEO": "2603302210453016", "POBTOT": 0.0, "score_nse": 0.0, "NSE": null, "VIVTOT": 0.0, "GRAPROES": 0.0, "_ent": "26", "_mun": "033", "_loc": "0221"}, "geometry": {"type": "Polygon", "coordinates": [[[-109.28347, 26.53427], [-109.28387, 26.53403], [-109.28464, 26.53524], [-109.28421, 26.53535], [-109.28347, 26.53427]]]}}, {"id": "2055282", "type": "Feature", "properties": {"id": "2055282", "CVEGEO": "2603302210453004", "POBTOT": 0.0, "score_nse": 0.0, "NSE": null, "VIVTOT": 0.0, "GRAPROES": 0.0, "_ent": "26", "_mun": "033", "_loc": "0221"}, "geometry": {"type": "Polygon", "coordinates": [[[-109.27953, 26.52675], [-109.28, 26.52653], [-109.28114, 26.52826], [-109.28057, 26.52854], [-109.27953, 26.52675]]]}}, {"id": "2055283", "type": "Feature", "properties": {"id": "2055283", "CVEGEO": "2603302210453001", "POBTOT": 0.0, "score_nse": 0.0, "NSE": null, "VIVTOT": 0.0, "GRAPROES": 0.0, "_ent": "26", "_mun": "033", "_loc": "0221"}, "geometry": {"type": "Polygon", "coordinates": [[[-109.27848, 26.525], [-109.27894, 26.52477], [-109.27997, 26.52649], [-109.27949, 26.52671], [-109.27848, 26.525]]]}}, {"id": "2055284", "type": "Feature", "properties": {"id": "2055284", "CVEGEO": "2603302210453003", "POBTOT": 0.0, "score_nse": 0.0, "NSE": null, "VIVTOT": 0.0, "GRAPROES": 0.0, "_ent": "26", "_mun": "033", "_loc": "0221"}, "geometry": {"type": "Polygon", "coordinates": [[[-109.27704, 26.52253], [-109.27758, 26.52229], [-109.27892, 26.52475], [-109.27846, 26.52496], [-109.27704, 26.52253]]]}}, {"id": "2055285", "type": "Feature", "properties": {"id": "2055285", "CVEGEO": "2603302210453012", "POBTOT": 0.0, "score_nse": 0.0, "NSE": null, "VIVTOT": 0.0, "GRAPROES": 0.0, "_ent": "26", "_mun": "033", "_loc": "0221"}, "geometry": {"type": "Polygon", "coordinates": [[[-109.27461, 26.51973], [-109.27503, 26.51951], [-109.2754, 26.52018], [-109.27502, 26.52041], [-109.27461, 26.51973]]]}}, {"id": "2055286", "type": "Feature", "properties": {"id": "2055286", "CVEGEO": "2603302210453009", "POBTOT": 0.0, "score_nse": 0.0, "NSE": null, "VIVTOT": 0.0, "GRAPROES": 0.0, "_ent": "26", "_mun": "033", "_loc": "0221"}, "geometry": {"type": "Polygon", "coordinates": [[[-109.28032, 26.52918], [-109.28068, 26.52897], [-109.28166, 26.53051], [-109.28121, 26.53072], [-109.28032, 26.52918]]]}}, {"id": "2055287", "type": "Feature", "properties": {"id": "2055287", "CVEGEO": "2603302210453011", "POBTOT": 0.0, "score_nse": 0.0, "NSE": null, "VIVTOT": 0.0, "GRAPROES": 0.0, "_ent": "26", "_mun": "033", "_loc": "0221"}, "geometry": {"type": "Polygon", "coordinates": [[[-109.2813, 26.53086], [-109.28171, 26.53062], [-109.28278, 26.5323], [-109.28235, 26.5325], [-109.2813, 26.53086]]]}}, {"id": "2055293", "type": "Feature", "properties": {"id": "2055293", "CVEGEO": "2603302210453017", "POBTOT": 0.0, "score_nse": 0.0, "NSE": null, "VIVTOT": 0.0, "GRAPROES": 0.0, "_ent": "26", "_mun": "033", "_loc": "0221"}, "geometry": {"type": "Polygon", "coordinates": [[[-109.2733, 26.51617], [-109.27313, 26.51616], [-109.27271, 26.5156], [-109.27282, 26.51553], [-109.2733, 26.51617]]]}}, {"id": "2055294", "type": "Feature", "properties": {"id": "2055294", "CVEGEO": "2603302210453018", "POBTOT": 0.0, "score_nse": 0.0, "NSE": null, "VIVTOT": 0.0, "GRAPROES": 0.0, "_ent": "26", "_mun": "033", "_loc": "0221"}, "geometry": {"type": "Polygon", "coordinates": [[[-109.27289, 26.51547], [-109.27365, 26.51508], [-109.27449, 26.51683], [-109.27368, 26.51676], [-109.27382, 26.51666], [-109.27289, 26.51547]]]}}, {"id": "2055295", "type": "Feature", "properties": {"id": "2055295", "CVEGEO": "2603302210453021", "POBTOT": 0.0, "score_nse": 0.0, "NSE": null, "VIVTOT": 0.0, "GRAPROES": 0.0, "_ent": "26", "_mun": "033", "_loc": "0221"}, "geometry": {"type": "Polygon", "coordinates": [[[-109.27126, 26.51208], [-109.27161, 26.51184], [-109.27262, 26.51451], [-109.27281, 26.51517], [-109.27265, 26.51547], [-109.27228, 26.51489], [-109.2724, 26.51452], [-109.27203, 26.51341], [-109.27126, 26.51208]]]}}, {"id": "2055296", "type": "Feature", "properties": {"id": "2055296", "CVEGEO": "2603302210453022", "POBTOT": 0.0, "score_nse": 0.0, "NSE": null, "VIVTOT": 0.0, "GRAPROES": 0.0, "_ent": "26", "_mun": "033", "_loc": "0221"}, "geometry": {"type": "Polygon", "coordinates": [[[-109.27224, 26.51322], [-109.27278, 26.51297], [-109.27359, 26.51497], [-109.27296, 26.5153], [-109.27224, 26.51322]]]}}, {"id": "2055297", "type": "Feature", "properties": {"id": "2055297", "CVEGEO": "2603302210453015", "POBTOT": 0.0, "score_nse": 0.0, "NSE": null, "VIVTOT": 0.0, "GRAPROES": 0.0, "_ent": "26", "_mun": "033", "_loc": "0221"}, "geometry": {"type": "Polygon", "coordinates": [[[-109.27353, 26.51779], [-109.27385, 26.51761], [-109.27444, 26.51853], [-109.27403, 26.51873], [-109.27353, 26.51779]]]}}, {"id": "2055298", "type": "Feature", "properties": {"id": "2055298", "CVEGEO": "2603302210453024", "POBTOT": 0.0, "score_nse": 0.0, "NSE": null, "VIVTOT": 0.0, "GRAPROES": 0.0, "_ent": "26", "_mun": "033", "_loc": "0221"}, "geometry": {"type": "Polygon", "coordinates": [[[-109.28501, 26.53673], [-109.28542, 26.53652], [-109.28628, 26.53797], [-109.28586, 26.53821], [-109.28501, 26.53673]]]}}, {"id": "2055299", "type": "Feature", "properties": {"id": "2055299", "CVEGEO": "2603302210453023", "POBTOT": 0.0, "score_nse": 0.0, "NSE": null, "VIVTOT": 0.0, "GRAPROES": 0.0, "_ent": "26", "_mun": "033", "_loc": "0221"}, "geometry": {"type": "Polygon", "coordinates": [[[-109.28549, 26.53633], [-109.28598, 26.53603], [-109.28735, 26.53833], [-109.28688, 26.53858], [-109.28549, 26.53633]]]}}, {"id": "2055302", "type": "Feature", "properties": {"id": "2055302", "CVEGEO": "2603302210453019", "POBTOT": 0.0, "score_nse": 0.0, "NSE": null, "VIVTOT": 0.0, "GRAPROES": 0.0, "_ent": "26", "_mun": "033", "_loc": "0221"}, "geometry": {"type": "Polygon", "coordinates": [[[-109.28543, 26.53622], [-109.28495, 26.53539], [-109.28539, 26.53518], [-109.28589, 26.53595], [-109.28543, 26.53622]]]}}, {"id": "2055303", "type": "Feature", "properties": {"id": "2055303", "CVEGEO": "2603302210453025", "POBTOT": 0.0, "score_nse": 0.0, "NSE": null, "VIVTOT": 0.0, "GRAPROES": 0.0, "_ent": "26", "_mun": "033", "_loc": "0221"}, "geometry": {"type": "Polygon", "coordinates": [[[-109.2722, 26.51313], [-109.27108, 26.51055], [-109.27155, 26.51033], [-109.27274, 26.5129], [-109.2722, 26.51313]]]}}, {"id": "2055304", "type": "Feature", "properties": {"id": "2055304", "CVEGEO": "2603302210453028", "POBTOT": 0.0, "score_nse": 0.0, "NSE": null, "VIVTOT": 0.0, "GRAPROES": 0.0, "_ent": "26", "_mun": "033", "_loc": "0221"}, "geometry": {"type": "Polygon", "coordinates": [[[-109.27013, 26.5086], [-109.27066, 26.5084], [-109.27147, 26.51014], [-109.27098, 26.51036], [-109.27013, 26.5086]]]}}, {"id": "2055305", "type": "Feature", "properties": {"id": "2055305", "CVEGEO": "2603302210453020", "POBTOT": 0.0, "score_nse": 0.0, "NSE": null, "VIVTOT": 0.0, "GRAPROES": 0.0, "_ent": "26", "_mun": "033", "_loc": "0221"}, "geometry": {"type": "Polygon", "coordinates": [[[-109.28496, 26.5366], [-109.28464, 26.53627], [-109.2844, 26.53562], [-109.28477, 26.53543], [-109.28537, 26.53641], [-109.28496, 26.5366]]]}}, {"id": "2055318", "type": "Feature", "properties": {"id": "2055318", "CVEGEO": "2603302210453029", "POBTOT": 0.0, "score_nse": 0.0, "NSE": null, "VIVTOT": 0.0, "GRAPROES": 0.0, "_ent": "26", "_mun": "033", "_loc": "0221"}, "geometry": {"type": "Polygon", "coordinates": [[[-109.28696, 26.53979], [-109.28735, 26.53958], [-109.28785, 26.54032], [-109.28743, 26.54056], [-109.28696, 26.53979]]]}}, {"id": "2055322", "type": "Feature", "properties": {"id": "2055322", "CVEGEO": "2603302210453033", "POBTOT": 0.0, "score_nse": 0.0, "NSE": null, "VIVTOT": 0.0, "GRAPROES": 0.0, "_ent": "26", "_mun": "033", "_loc": "0221"}, "geometry": {"type": "Polygon", "coordinates": [[[-109.26951, 26.50577], [-109.26896, 26.50593], [-109.26883, 26.50562], [-109.26936, 26.50543], [-109.26951, 26.50577]]]}}, {"id": "2055323", "type": "Feature", "properties": {"id": "2055323", "CVEGEO": "2603302210453032", "POBTOT": 0.0, "score_nse": 0.0, "NSE": null, "VIVTOT": 0.0, "GRAPROES": 0.0, "_ent": "26", "_mun": "033", "_loc": "0221"}, "geometry": {"type": "Polygon", "coordinates": [[[-109.28813, 26.54042], [-109.28863, 26.54008], [-109.29034, 26.54235], [-109.28971, 26.54264], [-109.28813, 26.54042]]]}}, {"id": "2056254", "type": "Feature", "properties": {"id": "2056254", "CVEGEO": "2603302210453034", "POBTOT": 0.0, "score_nse": 0.0, "NSE": null, "VIVTOT": 0.0, "GRAPROES": 0.0, "_ent": "26", "_mun": "033", "_loc": "0221"}, "geometry": {"type": "Polygon", "coordinates": [[[-109.29116, 26.54333], [-109.29081, 26.54358], [-109.29047, 26.54326], [-109.28945, 26.5437], [-109.2892, 26.5433], [-109.28993, 26.54295], [-109.28973, 26.54269], [-109.29037, 26.54238], [-109.29116, 26.54333]]]}}, {"id": "2056255", "type": "Feature", "properties": {"id": "2056255", "CVEGEO": "2603302210453027", "POBTOT": 0.0, "score_nse": 0.0, "NSE": null, "VIVTOT": 0.0, "GRAPROES": 0.0, "_ent": "26", "_mun": "033", "_loc": "0221"}, "geometry": {"type": "Polygon", "coordinates": [[[-109.28736, 26.53952], [-109.28654, 26.53994], [-109.28554, 26.53847], [-109.2863, 26.53801], [-109.28736, 26.53952]]]}}, {"id": "2056256", "type": "Feature", "properties": {"id": "2056256", "CVEGEO": "2603302210453026", "POBTOT": 0.0, "score_nse": 0.0, "NSE": null, "VIVTOT": 0.0, "GRAPROES": 0.0, "_ent": "26", "_mun": "033", "_loc": "0221"}, "geometry": {"type": "Polygon", "coordinates": [[[-109.28859, 26.54004], [-109.28808, 26.54038], [-109.28692, 26.53861], [-109.28737, 26.53836], [-109.28859, 26.54004]]]}}, {"id": "2056257", "type": "Feature", "properties": {"id": "2056257", "CVEGEO": "2603302210453013", "POBTOT": 0.0, "score_nse": 0.0, "NSE": null, "VIVTOT": 0.0, "GRAPROES": 0.0, "_ent": "26", "_mun": "033", "_loc": "0221"}, "geometry": {"type": "Polygon", "coordinates": [[[-109.28537, 26.53505], [-109.2848, 26.53519], [-109.28335, 26.53286], [-109.28394, 26.53259], [-109.2849, 26.53403], [-109.28537, 26.53505]]]}}, {"id": "2056258", "type": "Feature", "properties": {"id": "2056258", "CVEGEO": "2603302210453008", "POBTOT": 0.0, "score_nse": 0.0, "NSE": null, "VIVTOT": 0.0, "GRAPROES": 0.0, "_ent": "26", "_mun": "033", "_loc": "0221"}, "geometry": {"type": "Polygon", "coordinates": [[[-109.28384, 26.53248], [-109.28329, 26.53277], [-109.2809, 26.52903], [-109.28135, 26.52878], [-109.28384, 26.53248]]]}}, {"id": "2056259", "type": "Feature", "properties": {"id": "2056259", "CVEGEO": "2603302210453007", "POBTOT": 0.0, "score_nse": 0.0, "NSE": null, "VIVTOT": 0.0, "GRAPROES": 0.0, "_ent": "26", "_mun": "033", "_loc": "0221"}, "geometry": {"type": "Polygon", "coordinates": [[[-109.27756, 26.52225], [-109.277, 26.52247], [-109.27382, 26.51712], [-109.27456, 26.51712], [-109.27756, 26.52225]]]}}, {"id": "2056260", "type": "Feature", "properties": {"id": "2056260", "CVEGEO": "2603302210453005", "POBTOT": 0.0, "score_nse": 0.0, "NSE": null, "VIVTOT": 0.0, "GRAPROES": 0.0, "_ent": "26", "_mun": "033", "_loc": "0221"}, "geometry": {"type": "Polygon", "coordinates": [[[-109.27986, 26.52772], [-109.27948, 26.52787], [-109.27868, 26.52649], [-109.27907, 26.52631], [-109.27986, 26.52772]]]}}, {"id": "2056261", "type": "Feature", "properties": {"id": "2056261", "CVEGEO": "2603302210453002", "POBTOT": 0.0, "score_nse": 0.0, "NSE": null, "VIVTOT": 0.0, "GRAPROES": 0.0, "_ent": "26", "_mun": "033", "_loc": "0221"}, "geometry": {"type": "Polygon", "coordinates": [[[-109.279, 26.52624], [-109.27856, 26.52646], [-109.27764, 26.52486], [-109.27706, 26.52515], [-109.27693, 26.52491], [-109.2779, 26.52439], [-109.279, 26.52624]]]}}]}