{"type": "FeatureCollection", "features": [{"id": "748197", "type": "Feature", "properties": {"id": "748197", "CVEGEO": "1201100300327007", "POBTOT": 0.0, "score_nse": 0.0, "NSE": null, "VIVTOT": 0.0, "GRAPROES": 0.0, "_ent": "12", "_mun": "011", "_loc": "0030"}, "geometry": {"type": "Polygon", "coordinates": [[[-100.31384, 17.10863], [-100.31296, 17.10817], [-100.31319, 17.10769], [-100.31463, 17.10848], [-100.31527, 17.10856], [-100.31493, 17.10946], [-100.31384, 17.10863]]]}}, {"id": "749687", "type": "Feature", "properties": {"id": "749687", "CVEGEO": "1201100300327006", "POBTOT": 0.0, "score_nse": 0.0, "NSE": null, "VIVTOT": 0.0, "GRAPROES": 0.0, "_ent": "12", "_mun": "011", "_loc": "0030"}, "geometry": {"type": "Polygon", "coordinates": [[[-100.31365, 17.10855], [-100.31289, 17.10881], [-100.31241, 17.10863], [-100.31207, 17.10869], [-100.31204, 17.10846], [-100.31278, 17.10817], [-100.31365, 17.10855]]]}}, {"id": "749713", "type": "Feature", "properties": {"id": "749713", "CVEGEO": "1201100300327002", "POBTOT": 0.0, "score_nse": 0.0, "NSE": null, "VIVTOT": 0.0, "GRAPROES": 0.0, "_ent": "12", "_mun": "011", "_loc": "0030"}, "geometry": {"type": "Polygon", "coordinates": [[[-100.30715, 17.10894], [-100.30654, 17.10913], [-100.30611, 17.10885], [-100.30651, 17.10875], [-100.30677, 17.10845], [-100.30715, 17.10894]]]}}, {"id": "749714", "type": "Feature", "properties": {"id": "749714", "CVEGEO": "1201100300327003", "POBTOT": 0.0, "score_nse": 0.0, "NSE": null, "VIVTOT": 0.0, "GRAPROES": 0.0, "_ent": "12", "_mun": "011", "_loc": "0030"}, "geometry": {"type": "Polygon", "coordinates": [[[-100.30769, 17.10723], [-100.30696, 17.10762], [-100.30686, 17.10751], [-100.30769, 17.10723]]]}}, {"id": "749715", "type": "Feature", "properties": {"id": "749715", "CVEGEO": "1201100300327009", "POBTOT": 0.0, "score_nse": 0.0, "NSE": null, "VIVTOT": 0.0, "GRAPROES": 0.0, "_ent": "12", "_mun": "011", "_loc": "0030"}, "geometry": {"type": "Polygon", "coordinates": [[[-100.30829, 17.11029], [-100.30841, 17.11014], [-100.30825, 17.11024], [-100.30805, 17.1101], [-100.30859, 17.10988], [-100.30882, 17.1104], [-100.30848, 17.11044], [-100.30829, 17.11029]]]}}, {"id": "749716", "type": "Feature", "properties": {"id": "749716", "CVEGEO": "1201100300327011", "POBTOT": 0.0, "score_nse": 0.0, "NSE": null, "VIVTOT": 0.0, "GRAPROES": 0.0, "_ent": "12", "_mun": "011", "_loc": "0030"}, "geometry": {"type": "Polygon", "coordinates": [[[-100.31035, 17.10667], [-100.30932, 17.10677], [-100.30896, 17.10597], [-100.30969, 17.10562], [-100.31035, 17.10667]]]}}, {"id": "749717", "type": "Feature", "properties": {"id": "749717", "CVEGEO": "1201100300327012", "POBTOT": 0.0, "score_nse": 0.0, "NSE": null, "VIVTOT": 0.0, "GRAPROES": 0.0, "_ent": "12", "_mun": "011", "_loc": "0030"}, "geometry": {"type": "Polygon", "coordinates": [[[-100.30944, 17.10437], [-100.31058, 17.10511], [-100.30988, 17.10587], [-100.30901, 17.10483], [-100.30944, 17.10437]]]}}, {"id": "749718", "type": "Feature", "properties": {"id": "749718", "CVEGEO": "1201100300327015", "POBTOT": 0.0, "score_nse": 0.0, "NSE": null, "VIVTOT": 0.0, "GRAPROES": 0.0, "_ent": "12", "_mun": "011", "_loc": "0030"}, "geometry": {"type": "Polygon", "coordinates": [[[-100.31121, 17.10925], [-100.31063, 17.10862], [-100.31087, 17.10843], [-100.31141, 17.10853], [-100.31121, 17.10925]]]}}, {"id": "749719", "type": "Feature", "properties": {"id": "749719", "CVEGEO": "1201100300327008", "POBTOT": 0.0, "score_nse": 0.0, "NSE": null, "VIVTOT": 0.0, "GRAPROES": 0.0, "_ent": "12", "_mun": "011", "_loc": "0030"}, "geometry": {"type": "Polygon", "coordinates": [[[-100.30747, 17.10908], [-100.30787, 17.10935], [-100.30799, 17.11034], [-100.30738, 17.11031], [-100.30722, 17.10959], [-100.30747, 17.10908]]]}}, {"id": "749720", "type": "Feature", "properties": {"id": "749720", "CVEGEO": "1201100300327010", "POBTOT": 0.0, "score_nse": 0.0, "NSE": null, "VIVTOT": 0.0, "GRAPROES": 0.0, "_ent": "12", "_mun": "011", "_loc": "0030"}, "geometry": {"type": "Polygon", "coordinates": [[[-100.30856, 17.10986], [-100.30796, 17.11007], [-100.3079, 17.10945], [-100.30835, 17.10944], [-100.30851, 17.10971], [-100.30856, 17.10986]]]}}, {"id": "749728", "type": "Feature", "properties": {"id": "749728", "CVEGEO": "1201100300327001", "POBTOT": 0.0, "score_nse": 0.0, "NSE": null, "VIVTOT": 0.0, "GRAPROES": 0.0, "_ent": "12", "_mun": "011", "_loc": "0030"}, "geometry": {"type": "Polygon", "coordinates": [[[-100.3072, 17.10892], [-100.30695, 17.1085], [-100.30726, 17.10788], [-100.30813, 17.10737], [-100.30898, 17.10714], [-100.31014, 17.10717], [-100.31171, 17.10808], [-100.31151, 17.1085], [-100.31099, 17.10835], [-100.3104, 17.10865], [-100.30932, 17.10865], [-100.30752, 17.10896], [-100.3072, 17.10892]]]}}, {"id": "749729", "type": "Feature", "properties": {"id": "749729", "CVEGEO": "1201100300327004", "POBTOT": 0.0, "score_nse": 0.0, "NSE": null, "VIVTOT": 0.0, "GRAPROES": 0.0, "_ent": "12", "_mun": "011", "_loc": "0030"}, "geometry": {"type": "Polygon", "coordinates": [[[-100.30769, 17.10715], [-100.31033, 17.10671], [-100.31079, 17.10721], [-100.30983, 17.10689], [-100.30769, 17.10715]]]}}, {"id": "749730", "type": "Feature", "properties": {"id": "749730", "CVEGEO": "1201100300327005", "POBTOT": 0.0, "score_nse": 0.0, "NSE": null, "VIVTOT": 0.0, "GRAPROES": 0.0, "_ent": "12", "_mun": "011", "_loc": "0030"}, "geometry": {"type": "Polygon", "coordinates": [[[-100.31153, 17.10851], [-100.3118, 17.10805], [-100.31312, 17.10768], [-100.31291, 17.10814], [-100.31248, 17.10833], [-100.31153, 17.10851]]]}}, {"id": "749765", "type": "Feature", "properties": {"id": "749765", "CVEGEO": "1201100300327013", "POBTOT": 0.0, "score_nse": 0.0, "NSE": null, "VIVTOT": 0.0, "GRAPROES": 0.0, "_ent": "12", "_mun": "011", "_loc": "0030"}, "geometry": {"type": "Polygon", "coordinates": [[[-100.3066, 17.10757], [-100.30594, 17.1079], [-100.30535, 17.10785], [-100.30587, 17.10761], [-100.30608, 17.10731], [-100.30627, 17.10752], [-100.3065, 17.10733], [-100.3066, 17.10757]]]}}]}