{"type": "FeatureCollection", "features": [{"id": "1536476", "type": "Feature", "properties": {"id": "1536476", "CVEGEO": "2017600020020001", "POBTOT": 0.0, "score_nse": 0.0, "NSE": null, "VIVTOT": 0.0, "GRAPROES": 0.0, "_ent": "20", "_mun": "176", "_loc": "0002"}, "geometry": {"type": "Polygon", "coordinates": [[[-97.29922, 17.75953], [-97.29914, 17.75987], [-97.2987, 17.75991], [-97.29876, 17.75945], [-97.29922, 17.75953]]]}}, {"id": "1536484", "type": "Feature", "properties": {"id": "1536484", "CVEGEO": "2017600020020003", "POBTOT": 0.0, "score_nse": 0.0, "NSE": null, "VIVTOT": 0.0, "GRAPROES": 0.0, "_ent": "20", "_mun": "176", "_loc": "0002"}, "geometry": {"type": "Polygon", "coordinates": [[[-97.29922, 17.75995], [-97.30051, 17.75974], [-97.30067, 17.76042], [-97.29929, 17.76054], [-97.29922, 17.75995]]]}}, {"id": "1536485", "type": "Feature", "properties": {"id": "1536485", "CVEGEO": "2017600020020004", "POBTOT": 0.0, "score_nse": 0.0, "NSE": null, "VIVTOT": 0.0, "GRAPROES": 0.0, "_ent": "20", "_mun": "176", "_loc": "0002"}, "geometry": {"type": "Polygon", "coordinates": [[[-97.29914, 17.75994], [-97.29918, 17.76057], [-97.2986, 17.76061], [-97.29866, 17.75998], [-97.29914, 17.75994]]]}}, {"id": "1536486", "type": "Feature", "properties": {"id": "1536486", "CVEGEO": "2017600020020006", "POBTOT": 0.0, "score_nse": 0.0, "NSE": null, "VIVTOT": 0.0, "GRAPROES": 0.0, "_ent": "20", "_mun": "176", "_loc": "0002"}, "geometry": {"type": "Polygon", "coordinates": [[[-97.29859, 17.7607], [-97.30071, 17.76047], [-97.30131, 17.76108], [-97.30129, 17.76155], [-97.29871, 17.76148], [-97.29859, 17.7607]]]}}, {"id": "1536487", "type": "Feature", "properties": {"id": "1536487", "CVEGEO": "2017600020020005", "POBTOT": 0.0, "score_nse": 0.0, "NSE": null, "VIVTOT": 0.0, "GRAPROES": 0.0, "_ent": "20", "_mun": "176", "_loc": "0002"}, "geometry": {"type": "Polygon", "coordinates": [[[-97.30039, 17.75827], [-97.29921, 17.75827], [-97.2998, 17.75754], [-97.30039, 17.75827]]]}}, {"id": "1536530", "type": "Feature", "properties": {"id": "1536530", "CVEGEO": "2017600020020002", "POBTOT": 0.0, "score_nse": 0.0, "NSE": null, "VIVTOT": 0.0, "GRAPROES": 0.0, "_ent": "20", "_mun": "176", "_loc": "0002"}, "geometry": {"type": "Polygon", "coordinates": [[[-97.29952, 17.75835], [-97.29923, 17.75947], [-97.29878, 17.75939], [-97.29913, 17.75834], [-97.29952, 17.75835]]]}}]}