{"type": "FeatureCollection", "features": [{"id": "1707457", "type": "Feature", "properties": {"id": "1707457", "CVEGEO": "2112900030059043", "POBTOT": 0.0, "score_nse": 0.0, "NSE": null, "VIVTOT": 0.0, "GRAPROES": 0.0, "_ent": "21", "_mun": "129", "_loc": "0003"}, "geometry": {"type": "Polygon", "coordinates": [[[-97.20471, 18.23147], [-97.20476, 18.2311], [-97.20506, 18.23117], [-97.20501, 18.23154], [-97.20471, 18.23147]]]}}, {"id": "1707458", "type": "Feature", "properties": {"id": "1707458", "CVEGEO": "2112900030059042", "POBTOT": 0.0, "score_nse": 0.0, "NSE": null, "VIVTOT": 0.0, "GRAPROES": 0.0, "_ent": "21", "_mun": "129", "_loc": "0003"}, "geometry": {"type": "Polygon", "coordinates": [[[-97.20467, 18.23193], [-97.20472, 18.23152], [-97.20502, 18.23159], [-97.20495, 18.232], [-97.20467, 18.23193]]]}}, {"id": "1707459", "type": "Feature", "properties": {"id": "1707459", "CVEGEO": "2112900030059041", "POBTOT": 0.0, "score_nse": 0.0, "NSE": null, "VIVTOT": 0.0, "GRAPROES": 0.0, "_ent": "21", "_mun": "129", "_loc": "0003"}, "geometry": {"type": "Polygon", "coordinates": [[[-97.20525, 18.23327], [-97.20489, 18.23257], [-97.20498, 18.23207], [-97.2054, 18.23216], [-97.20525, 18.23327]]]}}, {"id": "1707460", "type": "Feature", "properties": {"id": "1707460", "CVEGEO": "2112900030059040", "POBTOT": 0.0, "score_nse": 0.0, "NSE": null, "VIVTOT": 0.0, "GRAPROES": 0.0, "_ent": "21", "_mun": "129", "_loc": "0003"}, "geometry": {"type": "Polygon", "coordinates": [[[-97.20571, 18.23307], [-97.20533, 18.23329], [-97.20547, 18.23218], [-97.20589, 18.23226], [-97.20571, 18.23307]]]}}, {"id": "1707461", "type": "Feature", "properties": {"id": "1707461", "CVEGEO": "2112900030059024", "POBTOT": 0.0, "score_nse": 0.0, "NSE": null, "VIVTOT": 0.0, "GRAPROES": 0.0, "_ent": "21", "_mun": "129", "_loc": "0003"}, "geometry": {"type": "Polygon", "coordinates": [[[-97.20546, 18.23211], [-97.20553, 18.2317], [-97.20598, 18.23179], [-97.2059, 18.23219], [-97.20546, 18.23211]]]}}, {"id": "1707462", "type": "Feature", "properties": {"id": "1707462", "CVEGEO": "2112900030059023", "POBTOT": 0.0, "score_nse": 0.0, "NSE": null, "VIVTOT": 0.0, "GRAPROES": 0.0, "_ent": "21", "_mun": "129", "_loc": "0003"}, "geometry": {"type": "Polygon", "coordinates": [[[-97.20594, 18.23222], [-97.20603, 18.23179], [-97.20646, 18.23187], [-97.20639, 18.23229], [-97.20594, 18.23222]]]}}, {"id": "1707463", "type": "Feature", "properties": {"id": "1707463", "CVEGEO": "2112900030059022", "POBTOT": 0.0, "score_nse": 0.0, "NSE": null, "VIVTOT": 0.0, "GRAPROES": 0.0, "_ent": "21", "_mun": "129", "_loc": "0003"}, "geometry": {"type": "Polygon", "coordinates": [[[-97.20643, 18.23231], [-97.20651, 18.23187], [-97.20694, 18.23195], [-97.20686, 18.23238], [-97.20643, 18.23231]]]}}, {"id": "1707464", "type": "Feature", "properties": {"id": "1707464", "CVEGEO": "2112900030059020", "POBTOT": 0.0, "score_nse": 0.0, "NSE": null, "VIVTOT": 0.0, "GRAPROES": 0.0, "_ent": "21", "_mun": "129", "_loc": "0003"}, "geometry": {"type": "Polygon", "coordinates": [[[-97.20742, 18.23248], [-97.20749, 18.23203], [-97.20795, 18.23209], [-97.20789, 18.23252], [-97.20742, 18.23248]]]}}, {"id": "1707465", "type": "Feature", "properties": {"id": "1707465", "CVEGEO": "2112900030059019", "POBTOT": 0.0, "score_nse": 0.0, "NSE": null, "VIVTOT": 0.0, "GRAPROES": 0.0, "_ent": "21", "_mun": "129", "_loc": "0003"}, "geometry": {"type": "Polygon", "coordinates": [[[-97.20749, 18.232], [-97.20755, 18.23156], [-97.20802, 18.23165], [-97.20795, 18.23205], [-97.20749, 18.232]]]}}, {"id": "1707466", "type": "Feature", "properties": {"id": "1707466", "CVEGEO": "2112900030059018", "POBTOT": 0.0, "score_nse": 0.0, "NSE": null, "VIVTOT": 0.0, "GRAPROES": 0.0, "_ent": "21", "_mun": "129", "_loc": "0003"}, "geometry": {"type": "Polygon", "coordinates": [[[-97.20757, 18.23152], [-97.20766, 18.2311], [-97.20809, 18.23116], [-97.20803, 18.2316], [-97.20757, 18.23152]]]}}, {"id": "1707467", "type": "Feature", "properties": {"id": "1707467", "CVEGEO": "2112900030059017", "POBTOT": 0.0, "score_nse": 0.0, "NSE": null, "VIVTOT": 0.0, "GRAPROES": 0.0, "_ent": "21", "_mun": "129", "_loc": "0003"}, "geometry": {"type": "Polygon", "coordinates": [[[-97.20766, 18.23105], [-97.20773, 18.23063], [-97.20818, 18.2307], [-97.2081, 18.23112], [-97.20766, 18.23105]]]}}, {"id": "1707468", "type": "Feature", "properties": {"id": "1707468", "CVEGEO": "2112900030059004", "POBTOT": 0.0, "score_nse": 0.0, "NSE": null, "VIVTOT": 0.0, "GRAPROES": 0.0, "_ent": "21", "_mun": "129", "_loc": "0003"}, "geometry": {"type": "Polygon", "coordinates": [[[-97.2067, 18.2309], [-97.20678, 18.23047], [-97.2072, 18.23054], [-97.20714, 18.23097], [-97.2067, 18.2309]]]}}, {"id": "1707469", "type": "Feature", "properties": {"id": "1707469", "CVEGEO": "2112900030059003", "POBTOT": 0.0, "score_nse": 0.0, "NSE": null, "VIVTOT": 0.0, "GRAPROES": 0.0, "_ent": "21", "_mun": "129", "_loc": "0003"}, "geometry": {"type": "Polygon", "coordinates": [[[-97.20622, 18.23079], [-97.20629, 18.23039], [-97.20674, 18.23047], [-97.20665, 18.23088], [-97.20622, 18.23079]]]}}, {"id": "1707470", "type": "Feature", "properties": {"id": "1707470", "CVEGEO": "2112900030059002", "POBTOT": 0.0, "score_nse": 0.0, "NSE": null, "VIVTOT": 0.0, "GRAPROES": 0.0, "_ent": "21", "_mun": "129", "_loc": "0003"}, "geometry": {"type": "Polygon", "coordinates": [[[-97.20614, 18.23127], [-97.20621, 18.23085], [-97.20664, 18.23093], [-97.20657, 18.23135], [-97.20614, 18.23127]]]}}, {"id": "1707471", "type": "Feature", "properties": {"id": "1707471", "CVEGEO": "2112900030059001", "POBTOT": 0.0, "score_nse": 0.0, "NSE": null, "VIVTOT": 0.0, "GRAPROES": 0.0, "_ent": "21", "_mun": "129", "_loc": "0003"}, "geometry": {"type": "Polygon", "coordinates": [[[-97.20751, 18.23149], [-97.20661, 18.23138], [-97.20669, 18.23093], [-97.2076, 18.23109], [-97.20751, 18.23149]]]}}, {"id": "1707488", "type": "Feature", "properties": {"id": "1707488", "CVEGEO": "2112900030059027", "POBTOT": 0.0, "score_nse": 0.0, "NSE": null, "VIVTOT": 0.0, "GRAPROES": 0.0, "_ent": "21", "_mun": "129", "_loc": "0003"}, "geometry": {"type": "Polygon", "coordinates": [[[-97.20513, 18.23109], [-97.20521, 18.23068], [-97.20567, 18.23076], [-97.20558, 18.23117], [-97.20513, 18.23109]]]}}, {"id": "1707489", "type": "Feature", "properties": {"id": "1707489", "CVEGEO": "2112900030059026", "POBTOT": 0.0, "score_nse": 0.0, "NSE": null, "VIVTOT": 0.0, "GRAPROES": 0.0, "_ent": "21", "_mun": "129", "_loc": "0003"}, "geometry": {"type": "Polygon", "coordinates": [[[-97.20508, 18.23156], [-97.20514, 18.23115], [-97.20555, 18.23122], [-97.20548, 18.23163], [-97.20508, 18.23156]]]}}, {"id": "1707490", "type": "Feature", "properties": {"id": "1707490", "CVEGEO": "2112900030059015", "POBTOT": 0.0, "score_nse": 0.0, "NSE": null, "VIVTOT": 0.0, "GRAPROES": 0.0, "_ent": "21", "_mun": "129", "_loc": "0003"}, "geometry": {"type": "Polygon", "coordinates": [[[-97.20725, 18.23049], [-97.20732, 18.23008], [-97.20778, 18.23014], [-97.20769, 18.23057], [-97.20725, 18.23049]]]}}, {"id": "1707499", "type": "Feature", "properties": {"id": "1707499", "CVEGEO": "2112900030059016", "POBTOT": 0.0, "score_nse": 0.0, "NSE": null, "VIVTOT": 0.0, "GRAPROES": 0.0, "_ent": "21", "_mun": "129", "_loc": "0003"}, "geometry": {"type": "Polygon", "coordinates": [[[-97.20774, 18.23057], [-97.20784, 18.23014], [-97.20824, 18.23023], [-97.20817, 18.23065], [-97.20774, 18.23057]]]}}, {"id": "1707506", "type": "Feature", "properties": {"id": "1707506", "CVEGEO": "2112900030059021", "POBTOT": 0.0, "score_nse": 0.0, "NSE": null, "VIVTOT": 0.0, "GRAPROES": 0.0, "_ent": "21", "_mun": "129", "_loc": "0003"}, "geometry": {"type": "Polygon", "coordinates": [[[-97.2069, 18.23239], [-97.20698, 18.23196], [-97.20744, 18.23203], [-97.20737, 18.23247], [-97.2069, 18.23239]]]}}, {"id": "1707510", "type": "Feature", "properties": {"id": "1707510", "CVEGEO": "2112900030059039", "POBTOT": 0.0, "score_nse": 0.0, "NSE": null, "VIVTOT": 0.0, "GRAPROES": 0.0, "_ent": "21", "_mun": "129", "_loc": "0003"}, "geometry": {"type": "Polygon", "coordinates": [[[-97.2055, 18.23334], [-97.20585, 18.23294], [-97.20595, 18.23226], [-97.20639, 18.23237], [-97.20618, 18.23324], [-97.2055, 18.23334]]]}}, {"id": "1707511", "type": "Feature", "properties": {"id": "1707511", "CVEGEO": "2112900030059038", "POBTOT": 0.0, "score_nse": 0.0, "NSE": null, "VIVTOT": 0.0, "GRAPROES": 0.0, "_ent": "21", "_mun": "129", "_loc": "0003"}, "geometry": {"type": "Polygon", "coordinates": [[[-97.20644, 18.23239], [-97.20683, 18.23244], [-97.20677, 18.23298], [-97.20651, 18.23309], [-97.20633, 18.23301], [-97.20644, 18.23239]]]}}, {"id": "1707512", "type": "Feature", "properties": {"id": "1707512", "CVEGEO": "2112900030059036", "POBTOT": 0.0, "score_nse": 0.0, "NSE": null, "VIVTOT": 0.0, "GRAPROES": 0.0, "_ent": "21", "_mun": "129", "_loc": "0003"}, "geometry": {"type": "Polygon", "coordinates": [[[-97.20689, 18.23244], [-97.20776, 18.23253], [-97.20682, 18.23298], [-97.20689, 18.23244]]]}}, {"id": "1707523", "type": "Feature", "properties": {"id": "1707523", "CVEGEO": "2112900030059007", "POBTOT": 0.0, "score_nse": 0.0, "NSE": null, "VIVTOT": 0.0, "GRAPROES": 0.0, "_ent": "21", "_mun": "129", "_loc": "0003"}, "geometry": {"type": "Polygon", "coordinates": [[[-97.20653, 18.23184], [-97.2066, 18.23141], [-97.20705, 18.2315], [-97.20694, 18.23191], [-97.20653, 18.23184]]]}}, {"id": "1707529", "type": "Feature", "properties": {"id": "1707529", "CVEGEO": "2112900030059049", "POBTOT": 0.0, "score_nse": 0.0, "NSE": null, "VIVTOT": 0.0, "GRAPROES": 0.0, "_ent": "21", "_mun": "129", "_loc": "0003"}, "geometry": {"type": "Polygon", "coordinates": [[[-97.2045, 18.23271], [-97.20468, 18.23199], [-97.20491, 18.23203], [-97.2048, 18.23252], [-97.2045, 18.23271]]]}}, {"id": "1707536", "type": "Feature", "properties": {"id": "1707536", "CVEGEO": "2112900030059044", "POBTOT": 0.0, "score_nse": 0.0, "NSE": null, "VIVTOT": 0.0, "GRAPROES": 0.0, "_ent": "21", "_mun": "129", "_loc": "0003"}, "geometry": {"type": "Polygon", "coordinates": [[[-97.20472, 18.23101], [-97.20478, 18.23062], [-97.20513, 18.23067], [-97.20506, 18.23105], [-97.20472, 18.23101]]]}}, {"id": "1707540", "type": "Feature", "properties": {"id": "1707540", "CVEGEO": "2112900030059048", "POBTOT": 0.0, "score_nse": 0.0, "NSE": null, "VIVTOT": 0.0, "GRAPROES": 0.0, "_ent": "21", "_mun": "129", "_loc": "0003"}, "geometry": {"type": "Polygon", "coordinates": [[[-97.20858, 18.23287], [-97.208, 18.23275], [-97.20823, 18.23166], [-97.20879, 18.2313], [-97.2104, 18.23152], [-97.21067, 18.23232], [-97.21009, 18.23236], [-97.20943, 18.23276], [-97.20858, 18.23287]]]}}, {"id": "1707541", "type": "Feature", "properties": {"id": "1707541", "CVEGEO": "2112900030059045", "POBTOT": 0.0, "score_nse": 0.0, "NSE": null, "VIVTOT": 0.0, "GRAPROES": 0.0, "_ent": "21", "_mun": "129", "_loc": "0003"}, "geometry": {"type": "Polygon", "coordinates": [[[-97.20478, 18.23054], [-97.20483, 18.23011], [-97.20524, 18.23018], [-97.20516, 18.2306], [-97.20478, 18.23054]]]}}, {"id": "1707542", "type": "Feature", "properties": {"id": "1707542", "CVEGEO": "2112900030059012", "POBTOT": 0.0, "score_nse": 0.0, "NSE": null, "VIVTOT": 0.0, "GRAPROES": 0.0, "_ent": "21", "_mun": "129", "_loc": "0003"}, "geometry": {"type": "Polygon", "coordinates": [[[-97.20581, 18.23023], [-97.20591, 18.22981], [-97.20637, 18.22989], [-97.20626, 18.23031], [-97.20581, 18.23023]]]}}, {"id": "1707543", "type": "Feature", "properties": {"id": "1707543", "CVEGEO": "2112900030059011", "POBTOT": 0.0, "score_nse": 0.0, "NSE": null, "VIVTOT": 0.0, "GRAPROES": 0.0, "_ent": "21", "_mun": "129", "_loc": "0003"}, "geometry": {"type": "Polygon", "coordinates": [[[-97.20573, 18.23071], [-97.20581, 18.23031], [-97.20624, 18.23038], [-97.20616, 18.23078], [-97.20573, 18.23071]]]}}, {"id": "1707544", "type": "Feature", "properties": {"id": "1707544", "CVEGEO": "2112900030059010", "POBTOT": 0.0, "score_nse": 0.0, "NSE": null, "VIVTOT": 0.0, "GRAPROES": 0.0, "_ent": "21", "_mun": "129", "_loc": "0003"}, "geometry": {"type": "Polygon", "coordinates": [[[-97.20564, 18.23118], [-97.20572, 18.23079], [-97.20616, 18.23085], [-97.20609, 18.23126], [-97.20564, 18.23118]]]}}, {"id": "1707551", "type": "Feature", "properties": {"id": "1707551", "CVEGEO": "2112900030059051", "POBTOT": 0.0, "score_nse": 0.0, "NSE": null, "VIVTOT": 0.0, "GRAPROES": 0.0, "_ent": "21", "_mun": "129", "_loc": "0003"}, "geometry": {"type": "Polygon", "coordinates": [[[-97.21207, 18.23197], [-97.21135, 18.23141], [-97.21053, 18.23133], [-97.21059, 18.23115], [-97.21244, 18.23137], [-97.2126, 18.23191], [-97.21207, 18.23197]]]}}, {"id": "1707552", "type": "Feature", "properties": {"id": "1707552", "CVEGEO": "2112900030059009", "POBTOT": 0.0, "score_nse": 0.0, "NSE": null, "VIVTOT": 0.0, "GRAPROES": 0.0, "_ent": "21", "_mun": "129", "_loc": "0003"}, "geometry": {"type": "Polygon", "coordinates": [[[-97.20555, 18.23164], [-97.20562, 18.23124], [-97.20608, 18.23132], [-97.20598, 18.23173], [-97.20555, 18.23164]]]}}, {"id": "1707553", "type": "Feature", "properties": {"id": "1707553", "CVEGEO": "2112900030059008", "POBTOT": 0.0, "score_nse": 0.0, "NSE": null, "VIVTOT": 0.0, "GRAPROES": 0.0, "_ent": "21", "_mun": "129", "_loc": "0003"}, "geometry": {"type": "Polygon", "coordinates": [[[-97.20605, 18.23174], [-97.20612, 18.23132], [-97.20655, 18.2314], [-97.20647, 18.23182], [-97.20605, 18.23174]]]}}, {"id": "1707576", "type": "Feature", "properties": {"id": "1707576", "CVEGEO": "2112900030059034", "POBTOT": 0.0, "score_nse": 0.0, "NSE": null, "VIVTOT": 0.0, "GRAPROES": 0.0, "_ent": "21", "_mun": "129", "_loc": "0003"}, "geometry": {"type": "Polygon", "coordinates": [[[-97.21044, 18.23145], [-97.20832, 18.23114], [-97.20838, 18.23075], [-97.21053, 18.23113], [-97.21044, 18.23145]]]}}, {"id": "1707577", "type": "Feature", "properties": {"id": "1707577", "CVEGEO": "2112900030059033", "POBTOT": 0.0, "score_nse": 0.0, "NSE": null, "VIVTOT": 0.0, "GRAPROES": 0.0, "_ent": "21", "_mun": "129", "_loc": "0003"}, "geometry": {"type": "Polygon", "coordinates": [[[-97.20839, 18.23069], [-97.20845, 18.23027], [-97.21061, 18.23051], [-97.21055, 18.23107], [-97.20839, 18.23069]]]}}, {"id": "1707578", "type": "Feature", "properties": {"id": "1707578", "CVEGEO": "2112900030059030", "POBTOT": 0.0, "score_nse": 0.0, "NSE": null, "VIVTOT": 0.0, "GRAPROES": 0.0, "_ent": "21", "_mun": "129", "_loc": "0003"}, "geometry": {"type": "Polygon", "coordinates": [[[-97.20687, 18.22995], [-97.20695, 18.2293], [-97.20715, 18.22904], [-97.20749, 18.22897], [-97.20728, 18.23001], [-97.20687, 18.22995]]]}}, {"id": "1707579", "type": "Feature", "properties": {"id": "1707579", "CVEGEO": "2112900030059028", "POBTOT": 0.0, "score_nse": 0.0, "NSE": null, "VIVTOT": 0.0, "GRAPROES": 0.0, "_ent": "21", "_mun": "129", "_loc": "0003"}, "geometry": {"type": "Polygon", "coordinates": [[[-97.20524, 18.23062], [-97.2053, 18.23019], [-97.20574, 18.23029], [-97.20565, 18.23069], [-97.20524, 18.23062]]]}}, {"id": "1707580", "type": "Feature", "properties": {"id": "1707580", "CVEGEO": "2112900030059006", "POBTOT": 0.0, "score_nse": 0.0, "NSE": null, "VIVTOT": 0.0, "GRAPROES": 0.0, "_ent": "21", "_mun": "129", "_loc": "0003"}, "geometry": {"type": "Polygon", "coordinates": [[[-97.20699, 18.23193], [-97.2071, 18.23152], [-97.20752, 18.23155], [-97.20745, 18.232], [-97.20699, 18.23193]]]}}, {"id": "1707591", "type": "Feature", "properties": {"id": "1707591", "CVEGEO": "2112900030059029", "POBTOT": 0.0, "score_nse": 0.0, "NSE": null, "VIVTOT": 0.0, "GRAPROES": 0.0, "_ent": "21", "_mun": "129", "_loc": "0003"}, "geometry": {"type": "Polygon", "coordinates": [[[-97.2048, 18.23002], [-97.20485, 18.22889], [-97.20597, 18.22973], [-97.20575, 18.23021], [-97.2048, 18.23002]]]}}, {"id": "1707606", "type": "Feature", "properties": {"id": "1707606", "CVEGEO": "2112900030059014", "POBTOT": 0.0, "score_nse": 0.0, "NSE": null, "VIVTOT": 0.0, "GRAPROES": 0.0, "_ent": "21", "_mun": "129", "_loc": "0003"}, "geometry": {"type": "Polygon", "coordinates": [[[-97.20679, 18.23042], [-97.20687, 18.23], [-97.20727, 18.23006], [-97.20721, 18.23049], [-97.20679, 18.23042]]]}}, {"id": "1707607", "type": "Feature", "properties": {"id": "1707607", "CVEGEO": "2112900030059013", "POBTOT": 0.0, "score_nse": 0.0, "NSE": null, "VIVTOT": 0.0, "GRAPROES": 0.0, "_ent": "21", "_mun": "129", "_loc": "0003"}, "geometry": {"type": "Polygon", "coordinates": [[[-97.20632, 18.23033], [-97.20641, 18.22991], [-97.20681, 18.22998], [-97.20675, 18.2304], [-97.20632, 18.23033]]]}}, {"id": "1707610", "type": "Feature", "properties": {"id": "1707610", "CVEGEO": "2112900030059025", "POBTOT": 0.0, "score_nse": 0.0, "NSE": null, "VIVTOT": 0.0, "GRAPROES": 0.0, "_ent": "21", "_mun": "129", "_loc": "0003"}, "geometry": {"type": "Polygon", "coordinates": [[[-97.20499, 18.23202], [-97.20506, 18.2316], [-97.20548, 18.23169], [-97.2054, 18.23211], [-97.20499, 18.23202]]]}}, {"id": "1707611", "type": "Feature", "properties": {"id": "1707611", "CVEGEO": "2112900030059005", "POBTOT": 0.0, "score_nse": 0.0, "NSE": null, "VIVTOT": 0.0, "GRAPROES": 0.0, "_ent": "21", "_mun": "129", "_loc": "0003"}, "geometry": {"type": "Polygon", "coordinates": [[[-97.20718, 18.23098], [-97.20725, 18.23053], [-97.20769, 18.23062], [-97.20761, 18.23105], [-97.20718, 18.23098]]]}}, {"id": "1707641", "type": "Feature", "properties": {"id": "1707641", "CVEGEO": "2112900030059031", "POBTOT": 0.0, "score_nse": 0.0, "NSE": null, "VIVTOT": 0.0, "GRAPROES": 0.0, "_ent": "21", "_mun": "129", "_loc": "0003"}, "geometry": {"type": "Polygon", "coordinates": [[[-97.20756, 18.22897], [-97.20814, 18.22806], [-97.20778, 18.22795], [-97.2078, 18.22778], [-97.20763, 18.22767], [-97.20868, 18.22736], [-97.20852, 18.22854], [-97.20815, 18.22851], [-97.20777, 18.2301], [-97.20734, 18.23003], [-97.20756, 18.22897]]]}}, {"id": "1707642", "type": "Feature", "properties": {"id": "1707642", "CVEGEO": "2112900030059054", "POBTOT": 0.0, "score_nse": 0.0, "NSE": null, "VIVTOT": 0.0, "GRAPROES": 0.0, "_ent": "21", "_mun": "129", "_loc": "0003"}, "geometry": {"type": "Polygon", "coordinates": [[[-97.20637, 18.22801], [-97.20756, 18.22772], [-97.20773, 18.2278], [-97.20769, 18.228], [-97.20806, 18.22811], [-97.20769, 18.22877], [-97.20725, 18.2289], [-97.20737, 18.22876], [-97.20698, 18.22851], [-97.20705, 18.22834], [-97.20637, 18.22801]]]}}, {"id": "1707643", "type": "Feature", "properties": {"id": "1707643", "CVEGEO": "2112900030059032", "POBTOT": 0.0, "score_nse": 0.0, "NSE": null, "VIVTOT": 0.0, "GRAPROES": 0.0, "_ent": "21", "_mun": "129", "_loc": "0003"}, "geometry": {"type": "Polygon", "coordinates": [[[-97.20783, 18.23011], [-97.20818, 18.22855], [-97.20851, 18.22859], [-97.20824, 18.23017], [-97.20783, 18.23011]]]}}, {"id": "1707644", "type": "Feature", "properties": {"id": "1707644", "CVEGEO": "2112900030059056", "POBTOT": 0.0, "score_nse": 0.0, "NSE": null, "VIVTOT": 0.0, "GRAPROES": 0.0, "_ent": "21", "_mun": "129", "_loc": "0003"}, "geometry": {"type": "Polygon", "coordinates": [[[-97.20353, 18.2303], [-97.20137, 18.22994], [-97.20156, 18.22909], [-97.20271, 18.22877], [-97.20376, 18.22906], [-97.20353, 18.2303]]]}}, {"id": "1707645", "type": "Feature", "properties": {"id": "1707645", "CVEGEO": "2112900030059047", "POBTOT": 0.0, "score_nse": 0.0, "NSE": null, "VIVTOT": 0.0, "GRAPROES": 0.0, "_ent": "21", "_mun": "129", "_loc": "0003"}, "geometry": {"type": "Polygon", "coordinates": [[[-97.20385, 18.22909], [-97.20475, 18.22955], [-97.2047, 18.23051], [-97.20363, 18.23032], [-97.20385, 18.22909]]]}}, {"id": "1707647", "type": "Feature", "properties": {"id": "1707647", "CVEGEO": "2112900030059046", "POBTOT": 0.0, "score_nse": 0.0, "NSE": null, "VIVTOT": 0.0, "GRAPROES": 0.0, "_ent": "21", "_mun": "129", "_loc": "0003"}, "geometry": {"type": "Polygon", "coordinates": [[[-97.21188, 18.23128], [-97.21058, 18.2311], [-97.21062, 18.23047], [-97.21237, 18.2305], [-97.21236, 18.23092], [-97.21193, 18.23087], [-97.21188, 18.23128]]]}}, {"id": "1707650", "type": "Feature", "properties": {"id": "1707650", "CVEGEO": "2112900030059059", "POBTOT": 0.0, "score_nse": 0.0, "NSE": null, "VIVTOT": 0.0, "GRAPROES": 0.0, "_ent": "21", "_mun": "129", "_loc": "0003"}, "geometry": {"type": "Polygon", "coordinates": [[[-97.20609, 18.22701], [-97.205, 18.22722], [-97.20508, 18.22646], [-97.20595, 18.22632], [-97.20609, 18.22701]]]}}, {"id": "1707651", "type": "Feature", "properties": {"id": "1707651", "CVEGEO": "2112900030059060", "POBTOT": 0.0, "score_nse": 0.0, "NSE": null, "VIVTOT": 0.0, "GRAPROES": 0.0, "_ent": "21", "_mun": "129", "_loc": "0003"}, "geometry": {"type": "Polygon", "coordinates": [[[-97.20595, 18.22627], [-97.20508, 18.22642], [-97.2052, 18.22547], [-97.20583, 18.22535], [-97.20595, 18.22627]]]}}, {"id": "1707652", "type": "Feature", "properties": {"id": "1707652", "CVEGEO": "2112900030059052", "POBTOT": 0.0, "score_nse": 0.0, "NSE": null, "VIVTOT": 0.0, "GRAPROES": 0.0, "_ent": "21", "_mun": "129", "_loc": "0003"}, "geometry": {"type": "Polygon", "coordinates": [[[-97.20521, 18.22818], [-97.20628, 18.22803], [-97.20697, 18.22837], [-97.20691, 18.22853], [-97.20706, 18.22863], [-97.20609, 18.22978], [-97.20487, 18.22881], [-97.20493, 18.22804], [-97.20521, 18.22818]]]}}, {"id": "1707653", "type": "Feature", "properties": {"id": "1707653", "CVEGEO": "2112900030059057", "POBTOT": 0.0, "score_nse": 0.0, "NSE": null, "VIVTOT": 0.0, "GRAPROES": 0.0, "_ent": "21", "_mun": "129", "_loc": "0003"}, "geometry": {"type": "Polygon", "coordinates": [[[-97.20709, 18.22866], [-97.20726, 18.22877], [-97.20686, 18.22932], [-97.2068, 18.22993], [-97.20613, 18.22979], [-97.20709, 18.22866]]]}}, {"id": "1707654", "type": "Feature", "properties": {"id": "1707654", "CVEGEO": "2112900030059055", "POBTOT": 0.0, "score_nse": 0.0, "NSE": null, "VIVTOT": 0.0, "GRAPROES": 0.0, "_ent": "21", "_mun": "129", "_loc": "0003"}, "geometry": {"type": "Polygon", "coordinates": [[[-97.2061, 18.22706], [-97.20625, 18.22797], [-97.20527, 18.22814], [-97.20494, 18.22797], [-97.20499, 18.22725], [-97.2061, 18.22706]]]}}, {"id": "1707655", "type": "Feature", "properties": {"id": "1707655", "CVEGEO": "2112900030059058", "POBTOT": 0.0, "score_nse": 0.0, "NSE": null, "VIVTOT": 0.0, "GRAPROES": 0.0, "_ent": "21", "_mun": "129", "_loc": "0003"}, "geometry": {"type": "Polygon", "coordinates": [[[-97.20656, 18.22697], [-97.20708, 18.22775], [-97.2063, 18.22796], [-97.20614, 18.22705], [-97.20656, 18.22697]]]}}, {"id": "1707684", "type": "Feature", "properties": {"id": "1707684", "CVEGEO": "2112900030059053", "POBTOT": 0.0, "score_nse": 0.0, "NSE": null, "VIVTOT": 0.0, "GRAPROES": 0.0, "_ent": "21", "_mun": "129", "_loc": "0003"}, "geometry": {"type": "Polygon", "coordinates": [[[-97.21332, 18.23186], [-97.21241, 18.23133], [-97.21245, 18.23051], [-97.21504, 18.23046], [-97.21503, 18.23118], [-97.21388, 18.23131], [-97.21332, 18.23186]]]}}, {"id": "1707697", "type": "Feature", "properties": {"id": "1707697", "CVEGEO": "2112900030059035", "POBTOT": 0.0, "score_nse": 0.0, "NSE": null, "VIVTOT": 0.0, "GRAPROES": 0.0, "_ent": "21", "_mun": "129", "_loc": "0003"}, "geometry": {"type": "Polygon", "coordinates": [[[-97.20831, 18.23121], [-97.20872, 18.23127], [-97.20825, 18.23157], [-97.20831, 18.23121]]]}}, {"id": "1707698", "type": "Feature", "properties": {"id": "1707698", "CVEGEO": "2112900030059061", "POBTOT": 0.0, "score_nse": 0.0, "NSE": null, "VIVTOT": 0.0, "GRAPROES": 0.0, "_ent": "21", "_mun": "129", "_loc": "0003"}, "geometry": {"type": "Polygon", "coordinates": [[[-97.21193, 18.23124], [-97.21196, 18.23089], [-97.21234, 18.23093], [-97.21231, 18.2313], [-97.21193, 18.23124]]]}}, {"id": "1707699", "type": "Feature", "properties": {"id": "1707699", "CVEGEO": "2112900030059062", "POBTOT": 0.0, "score_nse": 0.0, "NSE": null, "VIVTOT": 0.0, "GRAPROES": 0.0, "_ent": "21", "_mun": "129", "_loc": "0003"}, "geometry": {"type": "Polygon", "coordinates": [[[-97.21354, 18.23213], [-97.2136, 18.23278], [-97.21302, 18.23297], [-97.2125, 18.23139], [-97.21354, 18.23213]]]}}, {"id": "1707700", "type": "Feature", "properties": {"id": "1707700", "CVEGEO": "2112900030059063", "POBTOT": 0.0, "score_nse": 0.0, "NSE": null, "VIVTOT": 0.0, "GRAPROES": 0.0, "_ent": "21", "_mun": "129", "_loc": "0003"}, "geometry": {"type": "Polygon", "coordinates": [[[-97.21151, 18.23162], [-97.21122, 18.23207], [-97.21063, 18.23198], [-97.21048, 18.23156], [-97.21128, 18.2318], [-97.21049, 18.23151], [-97.21052, 18.23137], [-97.21122, 18.23144], [-97.21151, 18.23162]]]}}]}