{"type": "FeatureCollection", "features": [{"id": "2276242", "type": "Feature", "properties": {"id": "2276242", "CVEGEO": "300510002002A040", "POBTOT": 0.0, "score_nse": 0.0, "NSE": null, "VIVTOT": 0.0, "GRAPROES": 0.0, "_ent": "30", "_mun": "051", "_loc": "0002"}, "geometry": {"type": "Polygon", "coordinates": [[[-97.72996, 20.36582], [-97.73044, 20.36575], [-97.73008, 20.36572], [-97.7288, 20.36609], [-97.72847, 20.36538], [-97.72932, 20.36495], [-97.73117, 20.36506], [-97.73071, 20.36608], [-97.72999, 20.36614], [-97.72996, 20.36582]]]}}, {"id": "2276243", "type": "Feature", "properties": {"id": "2276243", "CVEGEO": "300510002002A039", "POBTOT": 0.0, "score_nse": 0.0, "NSE": null, "VIVTOT": 0.0, "GRAPROES": 0.0, "_ent": "30", "_mun": "051", "_loc": "0002"}, "geometry": {"type": "Polygon", "coordinates": [[[-97.72915, 20.36495], [-97.72835, 20.36532], [-97.72821, 20.36498], [-97.7286, 20.36496], [-97.72915, 20.36495]]]}}, {"id": "2276244", "type": "Feature", "properties": {"id": "2276244", "CVEGEO": "300510002002A028", "POBTOT": 0.0, "score_nse": 0.0, "NSE": null, "VIVTOT": 0.0, "GRAPROES": 0.0, "_ent": "30", "_mun": "051", "_loc": "0002"}, "geometry": {"type": "Polygon", "coordinates": [[[-97.72962, 20.36861], [-97.72915, 20.3678], [-97.72968, 20.36753], [-97.73006, 20.36763], [-97.72962, 20.36861]]]}}, {"id": "2276245", "type": "Feature", "properties": {"id": "2276245", "CVEGEO": "300510002002A027", "POBTOT": 0.0, "score_nse": 0.0, "NSE": null, "VIVTOT": 0.0, "GRAPROES": 0.0, "_ent": "30", "_mun": "051", "_loc": "0002"}, "geometry": {"type": "Polygon", "coordinates": [[[-97.73035, 20.36667], [-97.73022, 20.36707], [-97.72949, 20.36742], [-97.72934, 20.36689], [-97.73035, 20.36667]]]}}, {"id": "2276246", "type": "Feature", "properties": {"id": "2276246", "CVEGEO": "300510002002A026", "POBTOT": 0.0, "score_nse": 0.0, "NSE": null, "VIVTOT": 0.0, "GRAPROES": 0.0, "_ent": "30", "_mun": "051", "_loc": "0002"}, "geometry": {"type": "Polygon", "coordinates": [[[-97.73053, 20.36649], [-97.72931, 20.36678], [-97.72919, 20.36637], [-97.73, 20.3664], [-97.73, 20.36617], [-97.73068, 20.36614], [-97.73053, 20.36649]]]}}, {"id": "2276247", "type": "Feature", "properties": {"id": "2276247", "CVEGEO": "300510002002A007", "POBTOT": 0.0, "score_nse": 0.0, "NSE": null, "VIVTOT": 0.0, "GRAPROES": 0.0, "_ent": "30", "_mun": "051", "_loc": "0002"}, "geometry": {"type": "Polygon", "coordinates": [[[-97.7263, 20.36898], [-97.72519, 20.36811], [-97.72521, 20.36779], [-97.72677, 20.36845], [-97.72695, 20.36865], [-97.7263, 20.36898]]]}}, {"id": "2276248", "type": "Feature", "properties": {"id": "2276248", "CVEGEO": "300510002002A006", "POBTOT": 0.0, "score_nse": 0.0, "NSE": null, "VIVTOT": 0.0, "GRAPROES": 0.0, "_ent": "30", "_mun": "051", "_loc": "0002"}, "geometry": {"type": "Polygon", "coordinates": [[[-97.7274, 20.36786], [-97.72771, 20.36831], [-97.72704, 20.36861], [-97.72626, 20.36813], [-97.7274, 20.36786]]]}}, {"id": "2276249", "type": "Feature", "properties": {"id": "2276249", "CVEGEO": "300510002002A005", "POBTOT": 0.0, "score_nse": 0.0, "NSE": null, "VIVTOT": 0.0, "GRAPROES": 0.0, "_ent": "30", "_mun": "051", "_loc": "0002"}, "geometry": {"type": "Polygon", "coordinates": [[[-97.72858, 20.36761], [-97.72868, 20.36787], [-97.72782, 20.36826], [-97.72761, 20.36785], [-97.72858, 20.36761]]]}}, {"id": "2276250", "type": "Feature", "properties": {"id": "2276250", "CVEGEO": "300510002002A004", "POBTOT": 0.0, "score_nse": 0.0, "NSE": null, "VIVTOT": 0.0, "GRAPROES": 0.0, "_ent": "30", "_mun": "051", "_loc": "0002"}, "geometry": {"type": "Polygon", "coordinates": [[[-97.7284, 20.36711], [-97.72853, 20.36746], [-97.72755, 20.36771], [-97.72734, 20.36738], [-97.7284, 20.36711]]]}}, {"id": "2276372", "type": "Feature", "properties": {"id": "2276372", "CVEGEO": "300510002002A003", "POBTOT": 0.0, "score_nse": 0.0, "NSE": null, "VIVTOT": 0.0, "GRAPROES": 0.0, "_ent": "30", "_mun": "051", "_loc": "0002"}, "geometry": {"type": "Polygon", "coordinates": [[[-97.72821, 20.36683], [-97.72837, 20.36702], [-97.72731, 20.36731], [-97.7272, 20.36702], [-97.72821, 20.36683]]]}}, {"id": "2276394", "type": "Feature", "properties": {"id": "2276394", "CVEGEO": "300510002002A031", "POBTOT": 0.0, "score_nse": 0.0, "NSE": null, "VIVTOT": 0.0, "GRAPROES": 0.0, "_ent": "30", "_mun": "051", "_loc": "0002"}, "geometry": {"type": "Polygon", "coordinates": [[[-97.72692, 20.36961], [-97.72745, 20.36929], [-97.72772, 20.3698], [-97.72709, 20.37011], [-97.72692, 20.36961]]]}}, {"id": "2276395", "type": "Feature", "properties": {"id": "2276395", "CVEGEO": "300510002002A030", "POBTOT": 0.0, "score_nse": 0.0, "NSE": null, "VIVTOT": 0.0, "GRAPROES": 0.0, "_ent": "30", "_mun": "051", "_loc": "0002"}, "geometry": {"type": "Polygon", "coordinates": [[[-97.72812, 20.36892], [-97.72829, 20.36927], [-97.72783, 20.36973], [-97.72754, 20.36924], [-97.72812, 20.36892]]]}}, {"id": "2276396", "type": "Feature", "properties": {"id": "2276396", "CVEGEO": "300510002002A021", "POBTOT": 0.0, "score_nse": 0.0, "NSE": null, "VIVTOT": 0.0, "GRAPROES": 0.0, "_ent": "30", "_mun": "051", "_loc": "0002"}, "geometry": {"type": "Polygon", "coordinates": [[[-97.72581, 20.36641], [-97.7256, 20.36582], [-97.72627, 20.36564], [-97.72647, 20.36613], [-97.72581, 20.36641]]]}}, {"id": "2276397", "type": "Feature", "properties": {"id": "2276397", "CVEGEO": "300510002002A020", "POBTOT": 0.0, "score_nse": 0.0, "NSE": null, "VIVTOT": 0.0, "GRAPROES": 0.0, "_ent": "30", "_mun": "051", "_loc": "0002"}, "geometry": {"type": "Polygon", "coordinates": [[[-97.72565, 20.36613], [-97.72577, 20.36642], [-97.72476, 20.36684], [-97.72437, 20.36634], [-97.72565, 20.36613]]]}}, {"id": "2276398", "type": "Feature", "properties": {"id": "2276398", "CVEGEO": "300510002002A019", "POBTOT": 0.0, "score_nse": 0.0, "NSE": null, "VIVTOT": 0.0, "GRAPROES": 0.0, "_ent": "30", "_mun": "051", "_loc": "0002"}, "geometry": {"type": "Polygon", "coordinates": [[[-97.72474, 20.36693], [-97.72509, 20.36741], [-97.72503, 20.3676], [-97.72454, 20.36702], [-97.72474, 20.36693]]]}}, {"id": "2276442", "type": "Feature", "properties": {"id": "2276442", "CVEGEO": "300510002002A025", "POBTOT": 0.0, "score_nse": 0.0, "NSE": null, "VIVTOT": 0.0, "GRAPROES": 0.0, "_ent": "30", "_mun": "051", "_loc": "0002"}, "geometry": {"type": "Polygon", "coordinates": [[[-97.72996, 20.36633], [-97.72917, 20.36631], [-97.72911, 20.36609], [-97.72992, 20.36585], [-97.72996, 20.36633]]]}}, {"id": "2276443", "type": "Feature", "properties": {"id": "2276443", "CVEGEO": "300510002002A008", "POBTOT": 0.0, "score_nse": 0.0, "NSE": null, "VIVTOT": 0.0, "GRAPROES": 0.0, "_ent": "30", "_mun": "051", "_loc": "0002"}, "geometry": {"type": "Polygon", "coordinates": [[[-97.72579, 20.36649], [-97.72601, 20.36701], [-97.72617, 20.36751], [-97.7251, 20.36727], [-97.7248, 20.3669], [-97.72579, 20.36649]]]}}, {"id": "2276484", "type": "Feature", "properties": {"id": "2276484", "CVEGEO": "300510002002A029", "POBTOT": 0.0, "score_nse": 0.0, "NSE": null, "VIVTOT": 0.0, "GRAPROES": 0.0, "_ent": "30", "_mun": "051", "_loc": "0002"}, "geometry": {"type": "Polygon", "coordinates": [[[-97.72906, 20.36785], [-97.72928, 20.36827], [-97.72922, 20.36867], [-97.72835, 20.36914], [-97.72821, 20.36887], [-97.72888, 20.3685], [-97.72864, 20.36806], [-97.72906, 20.36785]]]}}, {"id": "2276618", "type": "Feature", "properties": {"id": "2276618", "CVEGEO": "300510002002A018", "POBTOT": 0.0, "score_nse": 0.0, "NSE": null, "VIVTOT": 0.0, "GRAPROES": 0.0, "_ent": "30", "_mun": "051", "_loc": "0002"}, "geometry": {"type": "Polygon", "coordinates": [[[-97.72516, 20.36829], [-97.72623, 20.36902], [-97.7253, 20.36957], [-97.72516, 20.36829]]]}}, {"id": "2276619", "type": "Feature", "properties": {"id": "2276619", "CVEGEO": "300510002002A017", "POBTOT": 0.0, "score_nse": 0.0, "NSE": null, "VIVTOT": 0.0, "GRAPROES": 0.0, "_ent": "30", "_mun": "051", "_loc": "0002"}, "geometry": {"type": "Polygon", "coordinates": [[[-97.72528, 20.36969], [-97.72593, 20.36934], [-97.72611, 20.37], [-97.72595, 20.36932], [-97.72622, 20.36918], [-97.72643, 20.37063], [-97.72545, 20.37127], [-97.72528, 20.36969]]]}}, {"id": "2276770", "type": "Feature", "properties": {"id": "2276770", "CVEGEO": "300510002002A038", "POBTOT": 0.0, "score_nse": 0.0, "NSE": null, "VIVTOT": 0.0, "GRAPROES": 0.0, "_ent": "30", "_mun": "051", "_loc": "0002"}, "geometry": {"type": "Polygon", "coordinates": [[[-97.72815, 20.36499], [-97.72829, 20.36535], [-97.72789, 20.36551], [-97.7277, 20.36508], [-97.72815, 20.36499]]]}}, {"id": "2276771", "type": "Feature", "properties": {"id": "2276771", "CVEGEO": "300510002002A037", "POBTOT": 0.0, "score_nse": 0.0, "NSE": null, "VIVTOT": 0.0, "GRAPROES": 0.0, "_ent": "30", "_mun": "051", "_loc": "0002"}, "geometry": {"type": "Polygon", "coordinates": [[[-97.72762, 20.3651], [-97.72781, 20.36553], [-97.72721, 20.36578], [-97.72707, 20.36517], [-97.72762, 20.3651]]]}}, {"id": "2276772", "type": "Feature", "properties": {"id": "2276772", "CVEGEO": "300510002002A036", "POBTOT": 0.0, "score_nse": 0.0, "NSE": null, "VIVTOT": 0.0, "GRAPROES": 0.0, "_ent": "30", "_mun": "051", "_loc": "0002"}, "geometry": {"type": "Polygon", "coordinates": [[[-97.7267, 20.36546], [-97.72509, 20.36585], [-97.72502, 20.36538], [-97.72702, 20.36518], [-97.72717, 20.3658], [-97.72689, 20.36593], [-97.7267, 20.36546]]]}}, {"id": "2276773", "type": "Feature", "properties": {"id": "2276773", "CVEGEO": "300510002002A034", "POBTOT": 0.0, "score_nse": 0.0, "NSE": null, "VIVTOT": 0.0, "GRAPROES": 0.0, "_ent": "30", "_mun": "051", "_loc": "0002"}, "geometry": {"type": "Polygon", "coordinates": [[[-97.72431, 20.3655], [-97.72466, 20.36606], [-97.72477, 20.36623], [-97.72424, 20.36629], [-97.72375, 20.36557], [-97.72431, 20.3655]]]}}, {"id": "2276775", "type": "Feature", "properties": {"id": "2276775", "CVEGEO": "300510002002A033", "POBTOT": 0.0, "score_nse": 0.0, "NSE": null, "VIVTOT": 0.0, "GRAPROES": 0.0, "_ent": "30", "_mun": "051", "_loc": "0002"}, "geometry": {"type": "Polygon", "coordinates": [[[-97.72364, 20.36557], [-97.72417, 20.3663], [-97.7246, 20.36687], [-97.72433, 20.36697], [-97.72328, 20.3657], [-97.72364, 20.36557]]]}}, {"id": "2276777", "type": "Feature", "properties": {"id": "2276777", "CVEGEO": "300510002002A032", "POBTOT": 0.0, "score_nse": 0.0, "NSE": null, "VIVTOT": 0.0, "GRAPROES": 0.0, "_ent": "30", "_mun": "051", "_loc": "0002"}, "geometry": {"type": "Polygon", "coordinates": [[[-97.72682, 20.36966], [-97.727, 20.37023], [-97.72651, 20.37054], [-97.72641, 20.36992], [-97.72682, 20.36966]]]}}, {"id": "2276778", "type": "Feature", "properties": {"id": "2276778", "CVEGEO": "300510002002A016", "POBTOT": 0.0, "score_nse": 0.0, "NSE": null, "VIVTOT": 0.0, "GRAPROES": 0.0, "_ent": "30", "_mun": "051", "_loc": "0002"}, "geometry": {"type": "Polygon", "coordinates": [[[-97.72661, 20.369], [-97.72681, 20.36962], [-97.7264, 20.36984], [-97.72629, 20.36915], [-97.72661, 20.369]]]}}, {"id": "2276779", "type": "Feature", "properties": {"id": "2276779", "CVEGEO": "300510002002A015", "POBTOT": 0.0, "score_nse": 0.0, "NSE": null, "VIVTOT": 0.0, "GRAPROES": 0.0, "_ent": "30", "_mun": "051", "_loc": "0002"}, "geometry": {"type": "Polygon", "coordinates": [[[-97.72714, 20.36876], [-97.72743, 20.36926], [-97.7269, 20.36957], [-97.7267, 20.36896], [-97.72714, 20.36876]]]}}, {"id": "2276780", "type": "Feature", "properties": {"id": "2276780", "CVEGEO": "300510002002A014", "POBTOT": 0.0, "score_nse": 0.0, "NSE": null, "VIVTOT": 0.0, "GRAPROES": 0.0, "_ent": "30", "_mun": "051", "_loc": "0002"}, "geometry": {"type": "Polygon", "coordinates": [[[-97.72788, 20.36842], [-97.72809, 20.36888], [-97.72752, 20.3692], [-97.72727, 20.36871], [-97.72788, 20.36842]]]}}, {"id": "2276781", "type": "Feature", "properties": {"id": "2276781", "CVEGEO": "300510002002A013", "POBTOT": 0.0, "score_nse": 0.0, "NSE": null, "VIVTOT": 0.0, "GRAPROES": 0.0, "_ent": "30", "_mun": "051", "_loc": "0002"}, "geometry": {"type": "Polygon", "coordinates": [[[-97.72856, 20.36809], [-97.72875, 20.36848], [-97.72819, 20.36883], [-97.72798, 20.36837], [-97.72856, 20.36809]]]}}, {"id": "2276782", "type": "Feature", "properties": {"id": "2276782", "CVEGEO": "300510002002A012", "POBTOT": 0.0, "score_nse": 0.0, "NSE": null, "VIVTOT": 0.0, "GRAPROES": 0.0, "_ent": "30", "_mun": "051", "_loc": "0002"}, "geometry": {"type": "Polygon", "coordinates": [[[-97.72922, 20.36692], [-97.72938, 20.36747], [-97.72877, 20.36782], [-97.72851, 20.3671], [-97.72922, 20.36692]]]}}, {"id": "2276831", "type": "Feature", "properties": {"id": "2276831", "CVEGEO": "300510002002A042", "POBTOT": 0.0, "score_nse": 0.0, "NSE": null, "VIVTOT": 0.0, "GRAPROES": 0.0, "_ent": "30", "_mun": "051", "_loc": "0002"}, "geometry": {"type": "Polygon", "coordinates": [[[-97.72537, 20.37131], [-97.72453, 20.37158], [-97.72405, 20.37147], [-97.72335, 20.37079], [-97.72521, 20.36974], [-97.72537, 20.37131]]]}}, {"id": "2276832", "type": "Feature", "properties": {"id": "2276832", "CVEGEO": "300510002002A024", "POBTOT": 0.0, "score_nse": 0.0, "NSE": null, "VIVTOT": 0.0, "GRAPROES": 0.0, "_ent": "30", "_mun": "051", "_loc": "0002"}, "geometry": {"type": "Polygon", "coordinates": [[[-97.72842, 20.36541], [-97.72868, 20.36609], [-97.72824, 20.36633], [-97.72793, 20.36559], [-97.72842, 20.36541]]]}}, {"id": "2276833", "type": "Feature", "properties": {"id": "2276833", "CVEGEO": "300510002002A022", "POBTOT": 0.0, "score_nse": 0.0, "NSE": null, "VIVTOT": 0.0, "GRAPROES": 0.0, "_ent": "30", "_mun": "051", "_loc": "0002"}, "geometry": {"type": "Polygon", "coordinates": [[[-97.72672, 20.36551], [-97.72684, 20.36598], [-97.72651, 20.36611], [-97.72631, 20.36563], [-97.72672, 20.36551]]]}}, {"id": "2276834", "type": "Feature", "properties": {"id": "2276834", "CVEGEO": "300510002002A011", "POBTOT": 0.0, "score_nse": 0.0, "NSE": null, "VIVTOT": 0.0, "GRAPROES": 0.0, "_ent": "30", "_mun": "051", "_loc": "0002"}, "geometry": {"type": "Polygon", "coordinates": [[[-97.72902, 20.3662], [-97.72918, 20.36681], [-97.72847, 20.36699], [-97.72827, 20.36641], [-97.72902, 20.3662]]]}}, {"id": "2276835", "type": "Feature", "properties": {"id": "2276835", "CVEGEO": "300510002002A010", "POBTOT": 0.0, "score_nse": 0.0, "NSE": null, "VIVTOT": 0.0, "GRAPROES": 0.0, "_ent": "30", "_mun": "051", "_loc": "0002"}, "geometry": {"type": "Polygon", "coordinates": [[[-97.72807, 20.36626], [-97.72823, 20.3667], [-97.72718, 20.36696], [-97.72705, 20.36648], [-97.72807, 20.36626]]]}}, {"id": "2276836", "type": "Feature", "properties": {"id": "2276836", "CVEGEO": "300510002002A009", "POBTOT": 0.0, "score_nse": 0.0, "NSE": null, "VIVTOT": 0.0, "GRAPROES": 0.0, "_ent": "30", "_mun": "051", "_loc": "0002"}, "geometry": {"type": "Polygon", "coordinates": [[[-97.72618, 20.36719], [-97.72585, 20.36646], [-97.72684, 20.36606], [-97.72709, 20.36698], [-97.72618, 20.36719]]]}}, {"id": "2276837", "type": "Feature", "properties": {"id": "2276837", "CVEGEO": "300510002002A001", "POBTOT": 0.0, "score_nse": 0.0, "NSE": null, "VIVTOT": 0.0, "GRAPROES": 0.0, "_ent": "30", "_mun": "051", "_loc": "0002"}, "geometry": {"type": "Polygon", "coordinates": [[[-97.72517, 20.36742], [-97.72627, 20.36761], [-97.72715, 20.36742], [-97.72734, 20.36777], [-97.72617, 20.36806], [-97.72507, 20.36763], [-97.72517, 20.36742]]]}}, {"id": "2276851", "type": "Feature", "properties": {"id": "2276851", "CVEGEO": "300510002002A023", "POBTOT": 0.0, "score_nse": 0.0, "NSE": null, "VIVTOT": 0.0, "GRAPROES": 0.0, "_ent": "30", "_mun": "051", "_loc": "0002"}, "geometry": {"type": "Polygon", "coordinates": [[[-97.72785, 20.36563], [-97.72807, 20.36617], [-97.72703, 20.36638], [-97.72693, 20.36602], [-97.72785, 20.36563]]]}}, {"id": "2276873", "type": "Feature", "properties": {"id": "2276873", "CVEGEO": "300510002002A002", "POBTOT": 0.0, "score_nse": 0.0, "NSE": null, "VIVTOT": 0.0, "GRAPROES": 0.0, "_ent": "30", "_mun": "051", "_loc": "0002"}, "geometry": {"type": "Polygon", "coordinates": [[[-97.72704, 20.36708], [-97.7271, 20.36735], [-97.72627, 20.36751], [-97.7262, 20.36726], [-97.72704, 20.36708]]]}}, {"id": "2276874", "type": "Feature", "properties": {"id": "2276874", "CVEGEO": "300510002002A035", "POBTOT": 0.0, "score_nse": 0.0, "NSE": null, "VIVTOT": 0.0, "GRAPROES": 0.0, "_ent": "30", "_mun": "051", "_loc": "0002"}, "geometry": {"type": "Polygon", "coordinates": [[[-97.72481, 20.36622], [-97.72435, 20.36548], [-97.72498, 20.36542], [-97.72506, 20.36589], [-97.72545, 20.36583], [-97.72555, 20.3661], [-97.72481, 20.36622]]]}}]}