{"type": "FeatureCollection", "features": [{"id": "1512629", "type": "Feature", "properties": {"id": "1512629", "CVEGEO": "1904900050078003", "POBTOT": 0.0, "score_nse": 0.0, "NSE": null, "VIVTOT": 0.0, "GRAPROES": 0.0, "_ent": "19", "_mun": "049", "_loc": "0005"}, "geometry": {"type": "Polygon", "coordinates": [[[-100.09069, 25.45523], [-100.09302, 25.45703], [-100.09238, 25.45778], [-100.0913, 25.45709], [-100.08952, 25.45554], [-100.09069, 25.45523]]]}}, {"id": "1512638", "type": "Feature", "properties": {"id": "1512638", "CVEGEO": "1904900050078004", "POBTOT": 0.0, "score_nse": 0.0, "NSE": null, "VIVTOT": 0.0, "GRAPROES": 0.0, "_ent": "19", "_mun": "049", "_loc": "0005"}, "geometry": {"type": "Polygon", "coordinates": [[[-100.09151, 25.45465], [-100.09187, 25.45477], [-100.09377, 25.45624], [-100.09308, 25.457], [-100.09078, 25.4552], [-100.09151, 25.45465]]]}}, {"id": "1512643", "type": "Feature", "properties": {"id": "1512643", "CVEGEO": "1904900050078001", "POBTOT": 0.0, "score_nse": 0.0, "NSE": null, "VIVTOT": 0.0, "GRAPROES": 0.0, "_ent": "19", "_mun": "049", "_loc": "0005"}, "geometry": {"type": "Polygon", "coordinates": [[[-100.09427, 25.45735], [-100.09195, 25.45987], [-100.09136, 25.46032], [-100.09078, 25.45956], [-100.09345, 25.45671], [-100.09427, 25.45735]]]}}, {"id": "1512650", "type": "Feature", "properties": {"id": "1512650", "CVEGEO": "1904900050078013", "POBTOT": 0.0, "score_nse": 0.0, "NSE": null, "VIVTOT": 0.0, "GRAPROES": 0.0, "_ent": "19", "_mun": "049", "_loc": "0005"}, "geometry": {"type": "Polygon", "coordinates": [[[-100.08982, 25.45196], [-100.08889, 25.45213], [-100.08791, 25.45257], [-100.08704, 25.45196], [-100.08999, 25.45168], [-100.08982, 25.45196]]]}}, {"id": "1512651", "type": "Feature", "properties": {"id": "1512651", "CVEGEO": "1904900050078012", "POBTOT": 0.0, "score_nse": 0.0, "NSE": null, "VIVTOT": 0.0, "GRAPROES": 0.0, "_ent": "19", "_mun": "049", "_loc": "0005"}, "geometry": {"type": "Polygon", "coordinates": [[[-100.08642, 25.45342], [-100.08356, 25.45413], [-100.08287, 25.45375], [-100.0821, 25.45355], [-100.08165, 25.45362], [-100.08031, 25.45268], [-100.08697, 25.45197], [-100.08786, 25.45259], [-100.08642, 25.45342]]]}}, {"id": "1512652", "type": "Feature", "properties": {"id": "1512652", "CVEGEO": "1904900050078011", "POBTOT": 0.0, "score_nse": 0.0, "NSE": null, "VIVTOT": 0.0, "GRAPROES": 0.0, "_ent": "19", "_mun": "049", "_loc": "0005"}, "geometry": {"type": "Polygon", "coordinates": [[[-100.08755, 25.45282], [-100.08792, 25.45264], [-100.09084, 25.45452], [-100.09037, 25.45476], [-100.08755, 25.45282]]]}}, {"id": "1512653", "type": "Feature", "properties": {"id": "1512653", "CVEGEO": "1904900050078009", "POBTOT": 0.0, "score_nse": 0.0, "NSE": null, "VIVTOT": 0.0, "GRAPROES": 0.0, "_ent": "19", "_mun": "049", "_loc": "0005"}, "geometry": {"type": "Polygon", "coordinates": [[[-100.08889, 25.45222], [-100.0902, 25.4518], [-100.09007, 25.45166], [-100.09077, 25.45158], [-100.09141, 25.4523], [-100.09161, 25.45268], [-100.09159, 25.45371], [-100.09144, 25.454], [-100.08889, 25.45222]]]}}, {"id": "1512661", "type": "Feature", "properties": {"id": "1512661", "CVEGEO": "1904900050078008", "POBTOT": 0.0, "score_nse": 0.0, "NSE": null, "VIVTOT": 0.0, "GRAPROES": 0.0, "_ent": "19", "_mun": "049", "_loc": "0005"}, "geometry": {"type": "Polygon", "coordinates": [[[-100.09218, 25.45382], [-100.0922, 25.45254], [-100.0915, 25.45155], [-100.09751, 25.45163], [-100.09663, 25.45313], [-100.09612, 25.45279], [-100.0966, 25.45318], [-100.0958, 25.45406], [-100.09454, 25.45308], [-100.09573, 25.45413], [-100.09381, 25.4562], [-100.09175, 25.45461], [-100.09218, 25.45382]]]}}, {"id": "1512757", "type": "Feature", "properties": {"id": "1512757", "CVEGEO": "1904900050078017", "POBTOT": 0.0, "score_nse": 0.0, "NSE": null, "VIVTOT": 0.0, "GRAPROES": 0.0, "_ent": "19", "_mun": "049", "_loc": "0005"}, "geometry": {"type": "Polygon", "coordinates": [[[-100.08014, 25.45564], [-100.07869, 25.45463], [-100.08026, 25.45275], [-100.08169, 25.45377], [-100.08014, 25.45564]]]}}, {"id": "1512758", "type": "Feature", "properties": {"id": "1512758", "CVEGEO": "1904900050078015", "POBTOT": 0.0, "score_nse": 0.0, "NSE": null, "VIVTOT": 0.0, "GRAPROES": 0.0, "_ent": "19", "_mun": "049", "_loc": "0005"}, "geometry": {"type": "Polygon", "coordinates": [[[-100.09135, 25.46042], [-100.09205, 25.46137], [-100.0904, 25.46119], [-100.09039, 25.46108], [-100.09135, 25.46042]]]}}, {"id": "1512759", "type": "Feature", "properties": {"id": "1512759", "CVEGEO": "1904900050078016", "POBTOT": 0.0, "score_nse": 0.0, "NSE": null, "VIVTOT": 0.0, "GRAPROES": 0.0, "_ent": "19", "_mun": "049", "_loc": "0005"}, "geometry": {"type": "Polygon", "coordinates": [[[-100.0938, 25.45151], [-100.09231, 25.45148], [-100.09228, 25.45111], [-100.09211, 25.45051], [-100.09187, 25.45003], [-100.09226, 25.45148], [-100.09145, 25.45148], [-100.09122, 25.45123], [-100.09111, 25.45055], [-100.09124, 25.4495], [-100.09358, 25.4503], [-100.09431, 25.45096], [-100.0938, 25.45151]]]}}, {"id": "1512760", "type": "Feature", "properties": {"id": "1512760", "CVEGEO": "1904900050078018", "POBTOT": 0.0, "score_nse": 0.0, "NSE": null, "VIVTOT": 0.0, "GRAPROES": 0.0, "_ent": "19", "_mun": "049", "_loc": "0005"}, "geometry": {"type": "Polygon", "coordinates": [[[-100.08022, 25.45273], [-100.07853, 25.45476], [-100.07676, 25.45352], [-100.07839, 25.45159], [-100.08022, 25.45273]]]}}, {"id": "1512761", "type": "Feature", "properties": {"id": "1512761", "CVEGEO": "1904900050078019", "POBTOT": 0.0, "score_nse": 0.0, "NSE": null, "VIVTOT": 0.0, "GRAPROES": 0.0, "_ent": "19", "_mun": "049", "_loc": "0005"}, "geometry": {"type": "Polygon", "coordinates": [[[-100.08294, 25.45228], [-100.08025, 25.45259], [-100.08023, 25.45237], [-100.08235, 25.44994], [-100.08274, 25.45027], [-100.08301, 25.45026], [-100.08285, 25.45066], [-100.08313, 25.45108], [-100.08355, 25.45103], [-100.08376, 25.45126], [-100.08294, 25.45228]]]}}, {"id": "1512762", "type": "Feature", "properties": {"id": "1512762", "CVEGEO": "1904900050078002", "POBTOT": 0.0, "score_nse": 0.0, "NSE": null, "VIVTOT": 0.0, "GRAPROES": 0.0, "_ent": "19", "_mun": "049", "_loc": "0005"}, "geometry": {"type": "Polygon", "coordinates": [[[-100.09568, 25.455], [-100.09594, 25.45473], [-100.09521, 25.45608], [-100.09431, 25.4573], [-100.09349, 25.45666], [-100.09439, 25.4557], [-100.09472, 25.45589], [-100.09441, 25.45567], [-100.09511, 25.45488], [-100.09568, 25.455]]]}}, {"id": "1512808", "type": "Feature", "properties": {"id": "1512808", "CVEGEO": "1904900050078005", "POBTOT": 0.0, "score_nse": 0.0, "NSE": null, "VIVTOT": 0.0, "GRAPROES": 0.0, "_ent": "19", "_mun": "049", "_loc": "0005"}, "geometry": {"type": "Polygon", "coordinates": [[[-100.08651, 25.45399], [-100.08611, 25.45387], [-100.08608, 25.45367], [-100.08655, 25.45342], [-100.08704, 25.45375], [-100.0866, 25.45338], [-100.08749, 25.45286], [-100.09028, 25.45478], [-100.08817, 25.45516], [-100.08651, 25.45399]]]}}, {"id": "1512809", "type": "Feature", "properties": {"id": "1512809", "CVEGEO": "1904900050078006", "POBTOT": 0.0, "score_nse": 0.0, "NSE": null, "VIVTOT": 0.0, "GRAPROES": 0.0, "_ent": "19", "_mun": "049", "_loc": "0005"}, "geometry": {"type": "Polygon", "coordinates": [[[-100.08367, 25.4542], [-100.08602, 25.45369], [-100.08606, 25.45392], [-100.08646, 25.45404], [-100.08808, 25.45517], [-100.08681, 25.45532], [-100.08598, 25.45567], [-100.08367, 25.4542]]]}}, {"id": "1512810", "type": "Feature", "properties": {"id": "1512810", "CVEGEO": "1904900050078010", "POBTOT": 0.0, "score_nse": 0.0, "NSE": null, "VIVTOT": 0.0, "GRAPROES": 0.0, "_ent": "19", "_mun": "049", "_loc": "0005"}, "geometry": {"type": "Polygon", "coordinates": [[[-100.09025, 25.45353], [-100.08989, 25.45389], [-100.08797, 25.45262], [-100.08885, 25.45224], [-100.09141, 25.45406], [-100.09074, 25.45444], [-100.08993, 25.45392], [-100.09025, 25.45353]]]}}, {"id": "1513805", "type": "Feature", "properties": {"id": "1513805", "CVEGEO": "1904900050078014", "POBTOT": 0.0, "score_nse": 0.0, "NSE": null, "VIVTOT": 0.0, "GRAPROES": 0.0, "_ent": "19", "_mun": "049", "_loc": "0005"}, "geometry": {"type": "Polygon", "coordinates": [[[-100.08968, 25.4514], [-100.08849, 25.45067], [-100.08864, 25.45046], [-100.08955, 25.45012], [-100.08948, 25.44993], [-100.09039, 25.44993], [-100.08991, 25.45157], [-100.08971, 25.45159], [-100.08968, 25.4514]]]}}, {"id": "1513806", "type": "Feature", "properties": {"id": "1513806", "CVEGEO": "1904900050078020", "POBTOT": 0.0, "score_nse": 0.0, "NSE": null, "VIVTOT": 0.0, "GRAPROES": 0.0, "_ent": "19", "_mun": "049", "_loc": "0005"}, "geometry": {"type": "Polygon", "coordinates": [[[-100.09038, 25.45023], [-100.09038, 25.45055], [-100.09088, 25.45147], [-100.09005, 25.45154], [-100.09038, 25.45023]]]}}, {"id": "1513807", "type": "Feature", "properties": {"id": "1513807", "CVEGEO": "1904900050078021", "POBTOT": 0.0, "score_nse": 0.0, "NSE": null, "VIVTOT": 0.0, "GRAPROES": 0.0, "_ent": "19", "_mun": "049", "_loc": "0005"}, "geometry": {"type": "Polygon", "coordinates": [[[-100.07835, 25.45157], [-100.07679, 25.45341], [-100.07606, 25.45291], [-100.07759, 25.45107], [-100.07835, 25.45157]]]}}]}