{"type": "FeatureCollection", "features": [{"id": "790335", "type": "Feature", "properties": {"id": "790335", "CVEGEO": "1204806450632002", "POBTOT": 0.0, "score_nse": 0.0, "NSE": null, "VIVTOT": 0.0, "GRAPROES": 0.0, "_ent": "12", "_mun": "048", "_loc": "0645"}, "geometry": {"type": "Polygon", "coordinates": [[[-101.03306, 17.40765], [-101.03244, 17.4069], [-101.03362, 17.40695], [-101.0338, 17.40727], [-101.03306, 17.40765]]]}}, {"id": "790336", "type": "Feature", "properties": {"id": "790336", "CVEGEO": "1204806450632001", "POBTOT": 0.0, "score_nse": 0.0, "NSE": null, "VIVTOT": 0.0, "GRAPROES": 0.0, "_ent": "12", "_mun": "048", "_loc": "0645"}, "geometry": {"type": "Polygon", "coordinates": [[[-101.03415, 17.40697], [-101.03412, 17.40724], [-101.03391, 17.40734], [-101.03378, 17.4071], [-101.03415, 17.40697]]]}}, {"id": "790723", "type": "Feature", "properties": {"id": "790723", "CVEGEO": "1204806450632004", "POBTOT": 0.0, "score_nse": 0.0, "NSE": null, "VIVTOT": 0.0, "GRAPROES": 0.0, "_ent": "12", "_mun": "048", "_loc": "0645"}, "geometry": {"type": "Polygon", "coordinates": [[[-101.03374, 17.40704], [-101.03368, 17.40673], [-101.03425, 17.40613], [-101.03423, 17.4069], [-101.03374, 17.40704]]]}}]}