{"type": "FeatureCollection", "features": [{"id": "302860", "type": "Feature", "properties": {"id": "302860", "CVEGEO": "0708000590022001", "POBTOT": 0.0, "score_nse": 0.0, "NSE": null, "VIVTOT": 0.0, "GRAPROES": 0.0, "_ent": "07", "_mun": "080", "_loc": "0059"}, "geometry": {"type": "Polygon", "coordinates": [[[-92.36597, 15.54853], [-92.36587, 15.54778], [-92.36623, 15.54766], [-92.36685, 15.54777], [-92.36717, 15.54805], [-92.36711, 15.54817], [-92.36656, 15.54815], [-92.36597, 15.54853]]]}}]}