{"type": "FeatureCollection", "features": [{"id": "1019349", "type": "Feature", "properties": {"id": "1019349", "CVEGEO": "1411600120031006", "POBTOT": 0.0, "score_nse": 0.0, "NSE": null, "VIVTOT": 0.0, "GRAPROES": 0.0, "_ent": "14", "_mun": "116", "_loc": "0012"}, "geometry": {"type": "Polygon", "coordinates": [[[-102.58414, 21.73012], [-102.58373, 21.73058], [-102.58328, 21.73052], [-102.58349, 21.72991], [-102.58381, 21.72991], [-102.58414, 21.73012]]]}}, {"id": "1019404", "type": "Feature", "properties": {"id": "1019404", "CVEGEO": "1411600120031007", "POBTOT": 0.0, "score_nse": 0.0, "NSE": null, "VIVTOT": 0.0, "GRAPROES": 0.0, "_ent": "14", "_mun": "116", "_loc": "0012"}, "geometry": {"type": "Polygon", "coordinates": [[[-102.58343, 21.73066], [-102.5832, 21.73096], [-102.58278, 21.73086], [-102.5827, 21.73037], [-102.58289, 21.73025], [-102.58343, 21.73066]]]}}, {"id": "1019405", "type": "Feature", "properties": {"id": "1019405", "CVEGEO": "1411600120031011", "POBTOT": 0.0, "score_nse": 0.0, "NSE": null, "VIVTOT": 0.0, "GRAPROES": 0.0, "_ent": "14", "_mun": "116", "_loc": "0012"}, "geometry": {"type": "Polygon", "coordinates": [[[-102.58724, 21.73368], [-102.58751, 21.73329], [-102.58778, 21.73333], [-102.58788, 21.73358], [-102.58881, 21.734], [-102.58864, 21.73572], [-102.58853, 21.7357], [-102.58844, 21.7343], [-102.58783, 21.73438], [-102.58776, 21.7342], [-102.58704, 21.73395], [-102.58748, 21.73392], [-102.58724, 21.73368]]]}}, {"id": "1019406", "type": "Feature", "properties": {"id": "1019406", "CVEGEO": "1411600120031012", "POBTOT": 0.0, "score_nse": 0.0, "NSE": null, "VIVTOT": 0.0, "GRAPROES": 0.0, "_ent": "14", "_mun": "116", "_loc": "0012"}, "geometry": {"type": "Polygon", "coordinates": [[[-102.58392, 21.73318], [-102.58397, 21.73292], [-102.58439, 21.73257], [-102.5848, 21.73268], [-102.58439, 21.73327], [-102.58406, 21.73334], [-102.58392, 21.73318]]]}}, {"id": "1019407", "type": "Feature", "properties": {"id": "1019407", "CVEGEO": "1411600120031013", "POBTOT": 0.0, "score_nse": 0.0, "NSE": null, "VIVTOT": 0.0, "GRAPROES": 0.0, "_ent": "14", "_mun": "116", "_loc": "0012"}, "geometry": {"type": "Polygon", "coordinates": [[[-102.58238, 21.73516], [-102.58173, 21.73504], [-102.58211, 21.73419], [-102.58249, 21.73427], [-102.5823, 21.73444], [-102.58231, 21.73462], [-102.58252, 21.73474], [-102.58238, 21.73516]]]}}, {"id": "1019408", "type": "Feature", "properties": {"id": "1019408", "CVEGEO": "1411600120031014", "POBTOT": 0.0, "score_nse": 0.0, "NSE": null, "VIVTOT": 0.0, "GRAPROES": 0.0, "_ent": "14", "_mun": "116", "_loc": "0012"}, "geometry": {"type": "Polygon", "coordinates": [[[-102.58202, 21.73414], [-102.58172, 21.73501], [-102.58141, 21.73508], [-102.58138, 21.73476], [-102.58081, 21.73436], [-102.58088, 21.73378], [-102.58113, 21.73364], [-102.58202, 21.73414]]]}}, {"id": "1019409", "type": "Feature", "properties": {"id": "1019409", "CVEGEO": "1411600120031015", "POBTOT": 0.0, "score_nse": 0.0, "NSE": null, "VIVTOT": 0.0, "GRAPROES": 0.0, "_ent": "14", "_mun": "116", "_loc": "0012"}, "geometry": {"type": "Polygon", "coordinates": [[[-102.58251, 21.73377], [-102.58316, 21.73445], [-102.58299, 21.73518], [-102.58255, 21.73514], [-102.58259, 21.73471], [-102.58231, 21.73454], [-102.58252, 21.73423], [-102.5821, 21.73415], [-102.58105, 21.7335], [-102.58147, 21.73318], [-102.58133, 21.7321], [-102.58232, 21.73217], [-102.58236, 21.7329], [-102.58256, 21.7333], [-102.5824, 21.73358], [-102.58196, 21.73361], [-102.58251, 21.73377]]]}}, {"id": "1019410", "type": "Feature", "properties": {"id": "1019410", "CVEGEO": "1411600120031003", "POBTOT": 0.0, "score_nse": 0.0, "NSE": null, "VIVTOT": 0.0, "GRAPROES": 0.0, "_ent": "14", "_mun": "116", "_loc": "0012"}, "geometry": {"type": "Polygon", "coordinates": [[[-102.58176, 21.72977], [-102.58252, 21.72995], [-102.58275, 21.73024], [-102.58263, 21.73066], [-102.58273, 21.73088], [-102.58327, 21.73106], [-102.58284, 21.73167], [-102.58244, 21.73162], [-102.58192, 21.73129], [-102.58166, 21.73071], [-102.58123, 21.73039], [-102.58123, 21.72999], [-102.58176, 21.72977]]]}}, {"id": "1019413", "type": "Feature", "properties": {"id": "1019413", "CVEGEO": "1411600120031005", "POBTOT": 0.0, "score_nse": 0.0, "NSE": null, "VIVTOT": 0.0, "GRAPROES": 0.0, "_ent": "14", "_mun": "116", "_loc": "0012"}, "geometry": {"type": "Polygon", "coordinates": [[[-102.5839, 21.73323], [-102.58393, 21.73335], [-102.58431, 21.73337], [-102.5847, 21.73303], [-102.58483, 21.73266], [-102.58681, 21.73366], [-102.58619, 21.73402], [-102.58497, 21.73389], [-102.58398, 21.73362], [-102.5839, 21.73323]]]}}, {"id": "1019414", "type": "Feature", "properties": {"id": "1019414", "CVEGEO": "1411600120031010", "POBTOT": 0.0, "score_nse": 0.0, "NSE": null, "VIVTOT": 0.0, "GRAPROES": 0.0, "_ent": "14", "_mun": "116", "_loc": "0012"}, "geometry": {"type": "Polygon", "coordinates": [[[-102.58507, 21.73275], [-102.58562, 21.73253], [-102.58633, 21.73253], [-102.58703, 21.73272], [-102.58745, 21.73328], [-102.58716, 21.73356], [-102.58685, 21.73358], [-102.58507, 21.73275]]]}}, {"id": "1019466", "type": "Feature", "properties": {"id": "1019466", "CVEGEO": "1411600120031008", "POBTOT": 0.0, "score_nse": 0.0, "NSE": null, "VIVTOT": 0.0, "GRAPROES": 0.0, "_ent": "14", "_mun": "116", "_loc": "0012"}, "geometry": {"type": "Polygon", "coordinates": [[[-102.5845, 21.7324], [-102.58388, 21.73297], [-102.58383, 21.73293], [-102.58392, 21.73209], [-102.5845, 21.7324]]]}}, {"id": "1019467", "type": "Feature", "properties": {"id": "1019467", "CVEGEO": "1411600120031001", "POBTOT": 0.0, "score_nse": 0.0, "NSE": null, "VIVTOT": 0.0, "GRAPROES": 0.0, "_ent": "14", "_mun": "116", "_loc": "0012"}, "geometry": {"type": "Polygon", "coordinates": [[[-102.58369, 21.73153], [-102.58507, 21.7319], [-102.5857, 21.73221], [-102.58572, 21.7324], [-102.58507, 21.73268], [-102.58457, 21.7325], [-102.58386, 21.73204], [-102.58369, 21.73153]]]}}, {"id": "1019468", "type": "Feature", "properties": {"id": "1019468", "CVEGEO": "1411600120031009", "POBTOT": 0.0, "score_nse": 0.0, "NSE": null, "VIVTOT": 0.0, "GRAPROES": 0.0, "_ent": "14", "_mun": "116", "_loc": "0012"}, "geometry": {"type": "Polygon", "coordinates": [[[-102.58249, 21.73175], [-102.58285, 21.7317], [-102.58333, 21.73129], [-102.58353, 21.73136], [-102.58384, 21.73211], [-102.58376, 21.73301], [-102.58244, 21.73299], [-102.58235, 21.73203], [-102.58249, 21.73175]]]}}, {"id": "1019469", "type": "Feature", "properties": {"id": "1019469", "CVEGEO": "1411600120031016", "POBTOT": 0.0, "score_nse": 0.0, "NSE": null, "VIVTOT": 0.0, "GRAPROES": 0.0, "_ent": "14", "_mun": "116", "_loc": "0012"}, "geometry": {"type": "Polygon", "coordinates": [[[-102.58259, 21.73313], [-102.58381, 21.73308], [-102.5839, 21.73355], [-102.58259, 21.73347], [-102.58259, 21.73313]]]}}, {"id": "1019470", "type": "Feature", "properties": {"id": "1019470", "CVEGEO": "1411600120031002", "POBTOT": 0.0, "score_nse": 0.0, "NSE": null, "VIVTOT": 0.0, "GRAPROES": 0.0, "_ent": "14", "_mun": "116", "_loc": "0012"}, "geometry": {"type": "Polygon", "coordinates": [[[-102.58192, 21.73134], [-102.58261, 21.73167], [-102.5822, 21.73209], [-102.58137, 21.73201], [-102.58137, 21.73165], [-102.58192, 21.73134]]]}}]}