{"type": "FeatureCollection", "features": [{"id": "1018869", "type": "Feature", "properties": {"id": "1018869", "CVEGEO": "1411600240031005", "POBTOT": 0.0, "score_nse": 0.0, "NSE": null, "VIVTOT": 0.0, "GRAPROES": 0.0, "_ent": "14", "_mun": "116", "_loc": "0024"}, "geometry": {"type": "Polygon", "coordinates": [[[-102.59633, 21.72971], [-102.59566, 21.72907], [-102.59561, 21.72883], [-102.59496, 21.72885], [-102.59495, 21.72835], [-102.59418, 21.72835], [-102.59402, 21.72808], [-102.59424, 21.72721], [-102.59594, 21.72712], [-102.59622, 21.72726], [-102.59649, 21.72808], [-102.59696, 21.72879], [-102.59633, 21.72971]]]}}, {"id": "1018870", "type": "Feature", "properties": {"id": "1018870", "CVEGEO": "1411600240031004", "POBTOT": 0.0, "score_nse": 0.0, "NSE": null, "VIVTOT": 0.0, "GRAPROES": 0.0, "_ent": "14", "_mun": "116", "_loc": "0024"}, "geometry": {"type": "Polygon", "coordinates": [[[-102.59904, 21.72615], [-102.59948, 21.72605], [-102.59953, 21.72652], [-102.59983, 21.72672], [-102.60021, 21.72802], [-102.5999, 21.72815], [-102.59964, 21.72799], [-102.59909, 21.72761], [-102.59904, 21.72728], [-102.59731, 21.7272], [-102.59655, 21.72762], [-102.59671, 21.7271], [-102.59716, 21.72689], [-102.59813, 21.72701], [-102.59902, 21.72677], [-102.59918, 21.72649], [-102.59904, 21.72615]]]}}, {"id": "1018871", "type": "Feature", "properties": {"id": "1018871", "CVEGEO": "1411600240031003", "POBTOT": 0.0, "score_nse": 0.0, "NSE": null, "VIVTOT": 0.0, "GRAPROES": 0.0, "_ent": "14", "_mun": "116", "_loc": "0024"}, "geometry": {"type": "Polygon", "coordinates": [[[-102.59711, 21.72361], [-102.59679, 21.72287], [-102.59709, 21.7238], [-102.5967, 21.72409], [-102.59653, 21.7245], [-102.59647, 21.7254], [-102.59516, 21.72536], [-102.59434, 21.72559], [-102.59431, 21.7244], [-102.59599, 21.72427], [-102.59618, 21.72186], [-102.59713, 21.72175], [-102.59771, 21.72262], [-102.59771, 21.72307], [-102.59827, 21.72327], [-102.59903, 21.7233], [-102.59944, 21.72305], [-102.59973, 21.72316], [-102.59945, 21.72344], [-102.60088, 21.72363], [-102.60081, 21.72538], [-102.60036, 21.72538], [-102.60024, 21.72635], [-102.60127, 21.72698], [-102.60023, 21.72771], [-102.59989, 21.72665], [-102.5996, 21.72647], [-102.59955, 21.726], [-102.59897, 21.7261], [-102.59811, 21.7259], [-102.598, 21.72469], [-102.59828, 21.7247], [-102.59842, 21.72445], [-102.59873, 21.72441], [-102.59963, 21.72452], [-102.59968, 21.72566], [-102.59993, 21.72591], [-102.59976, 21.72563], [-102.5998, 21.72521], [-102.60007, 21.72538], [-102.59981, 21.72509], [-102.59975, 21.72451], [-102.59867, 21.72431], [-102.59903, 21.72358], [-102.59885, 21.72364], [-102.59856, 21.72433], [-102.59835, 21.72439], [-102.59833, 21.72386], [-102.5981, 21.72364], [-102.59789, 21.72369], [-102.59786, 21.72402], [-102.59764, 21.72366], [-102.59747, 21.72368], [-102.59735, 21.72392], [-102.59746, 21.72431], [-102.59719, 21.72414], [-102.59711, 21.72361]]]}}, {"id": "1019022", "type": "Feature", "properties": {"id": "1019022", "CVEGEO": "1411600240031002", "POBTOT": 0.0, "score_nse": 0.0, "NSE": null, "VIVTOT": 0.0, "GRAPROES": 0.0, "_ent": "14", "_mun": "116", "_loc": "0024"}, "geometry": {"type": "Polygon", "coordinates": [[[-102.59436, 21.72568], [-102.59523, 21.72545], [-102.59511, 21.72668], [-102.59466, 21.72666], [-102.59502, 21.72675], [-102.59484, 21.72717], [-102.59427, 21.72714], [-102.59436, 21.72568]]]}}, {"id": "1019023", "type": "Feature", "properties": {"id": "1019023", "CVEGEO": "1411600240031001", "POBTOT": 0.0, "score_nse": 0.0, "NSE": null, "VIVTOT": 0.0, "GRAPROES": 0.0, "_ent": "14", "_mun": "116", "_loc": "0024"}, "geometry": {"type": "Polygon", "coordinates": [[[-102.59646, 21.72746], [-102.59594, 21.72704], [-102.59512, 21.72708], [-102.59532, 21.72543], [-102.59653, 21.72548], [-102.59663, 21.72452], [-102.59694, 21.72392], [-102.59709, 21.72389], [-102.5971, 21.72416], [-102.59749, 21.7244], [-102.59763, 21.72424], [-102.5975, 21.72378], [-102.59787, 21.7241], [-102.59811, 21.72374], [-102.59825, 21.72389], [-102.59827, 21.72449], [-102.59792, 21.72464], [-102.59803, 21.72594], [-102.59893, 21.72617], [-102.59909, 21.72652], [-102.59901, 21.72668], [-102.59807, 21.72692], [-102.59715, 21.7268], [-102.59664, 21.72703], [-102.59646, 21.72746]]]}}]}