{"type": "FeatureCollection", "features": [{"id": "901417", "type": "Feature", "properties": {"id": "901417", "CVEGEO": "1400101110029001", "POBTOT": 0.0, "score_nse": 0.0, "NSE": null, "VIVTOT": 0.0, "GRAPROES": 0.0, "_ent": "14", "_mun": "001", "_loc": "0111"}, "geometry": {"type": "Polygon", "coordinates": [[[-102.83152, 20.84229], [-102.83125, 20.84288], [-102.8291, 20.84211], [-102.8294, 20.84186], [-102.82949, 20.84147], [-102.83152, 20.84229]]]}}, {"id": "901418", "type": "Feature", "properties": {"id": "901418", "CVEGEO": "1400101110029002", "POBTOT": 0.0, "score_nse": 0.0, "NSE": null, "VIVTOT": 0.0, "GRAPROES": 0.0, "_ent": "14", "_mun": "001", "_loc": "0111"}, "geometry": {"type": "Polygon", "coordinates": [[[-102.82755, 20.84165], [-102.82769, 20.84088], [-102.82942, 20.84146], [-102.82897, 20.8421], [-102.82755, 20.84165]]]}}, {"id": "901419", "type": "Feature", "properties": {"id": "901419", "CVEGEO": "1400101110029003", "POBTOT": 0.0, "score_nse": 0.0, "NSE": null, "VIVTOT": 0.0, "GRAPROES": 0.0, "_ent": "14", "_mun": "001", "_loc": "0111"}, "geometry": {"type": "Polygon", "coordinates": [[[-102.82969, 20.84063], [-102.82774, 20.83995], [-102.82782, 20.83914], [-102.82987, 20.83988], [-102.82969, 20.84063]]]}}, {"id": "901420", "type": "Feature", "properties": {"id": "901420", "CVEGEO": "1400101110029004", "POBTOT": 0.0, "score_nse": 0.0, "NSE": null, "VIVTOT": 0.0, "GRAPROES": 0.0, "_ent": "14", "_mun": "001", "_loc": "0111"}, "geometry": {"type": "Polygon", "coordinates": [[[-102.82985, 20.83983], [-102.82783, 20.8391], [-102.82791, 20.83844], [-102.82994, 20.83937], [-102.82985, 20.83983]]]}}, {"id": "901421", "type": "Feature", "properties": {"id": "901421", "CVEGEO": "1400101110029005", "POBTOT": 0.0, "score_nse": 0.0, "NSE": null, "VIVTOT": 0.0, "GRAPROES": 0.0, "_ent": "14", "_mun": "001", "_loc": "0111"}, "geometry": {"type": "Polygon", "coordinates": [[[-102.83028, 20.84163], [-102.82958, 20.84141], [-102.82999, 20.83937], [-102.83073, 20.83969], [-102.83061, 20.84077], [-102.83028, 20.84163]]]}}, {"id": "901422", "type": "Feature", "properties": {"id": "901422", "CVEGEO": "1400101110029006", "POBTOT": 0.0, "score_nse": 0.0, "NSE": null, "VIVTOT": 0.0, "GRAPROES": 0.0, "_ent": "14", "_mun": "001", "_loc": "0111"}, "geometry": {"type": "Polygon", "coordinates": [[[-102.83154, 20.84012], [-102.83156, 20.84051], [-102.83111, 20.84198], [-102.83034, 20.84171], [-102.83067, 20.8407], [-102.83077, 20.83972], [-102.83154, 20.84012]]]}}, {"id": "901423", "type": "Feature", "properties": {"id": "901423", "CVEGEO": "1400101110029007", "POBTOT": 0.0, "score_nse": 0.0, "NSE": null, "VIVTOT": 0.0, "GRAPROES": 0.0, "_ent": "14", "_mun": "001", "_loc": "0111"}, "geometry": {"type": "Polygon", "coordinates": [[[-102.83162, 20.84215], [-102.83118, 20.84202], [-102.83161, 20.84058], [-102.83176, 20.84193], [-102.83162, 20.84215]]]}}, {"id": "901424", "type": "Feature", "properties": {"id": "901424", "CVEGEO": "1400101110029008", "POBTOT": 0.0, "score_nse": 0.0, "NSE": null, "VIVTOT": 0.0, "GRAPROES": 0.0, "_ent": "14", "_mun": "001", "_loc": "0111"}, "geometry": {"type": "Polygon", "coordinates": [[[-102.83083, 20.84362], [-102.82836, 20.84275], [-102.82902, 20.84216], [-102.83119, 20.84294], [-102.83083, 20.84362]]]}}, {"id": "901425", "type": "Feature", "properties": {"id": "901425", "CVEGEO": "1400101110029009", "POBTOT": 0.0, "score_nse": 0.0, "NSE": null, "VIVTOT": 0.0, "GRAPROES": 0.0, "_ent": "14", "_mun": "001", "_loc": "0111"}, "geometry": {"type": "Polygon", "coordinates": [[[-102.82886, 20.84217], [-102.8285, 20.84254], [-102.82822, 20.84248], [-102.8273, 20.84303], [-102.82752, 20.84169], [-102.82886, 20.84217]]]}}, {"id": "901466", "type": "Feature", "properties": {"id": "901466", "CVEGEO": "1400101110029010", "POBTOT": 0.0, "score_nse": 0.0, "NSE": null, "VIVTOT": 0.0, "GRAPROES": 0.0, "_ent": "14", "_mun": "001", "_loc": "0111"}, "geometry": {"type": "Polygon", "coordinates": [[[-102.82966, 20.84069], [-102.82944, 20.84139], [-102.82766, 20.84079], [-102.82772, 20.84004], [-102.82966, 20.84069]]]}}]}