{"type": "FeatureCollection", "features": [{"id": "1555256", "type": "Feature", "properties": {"id": "1555256", "CVEGEO": "2030200050013004", "POBTOT": 0.0, "score_nse": 0.0, "NSE": null, "VIVTOT": 0.0, "GRAPROES": 0.0, "_ent": "20", "_mun": "302", "_loc": "0005"}, "geometry": {"type": "Polygon", "coordinates": [[[-97.96782, 16.54169], [-97.96722, 16.54201], [-97.96698, 16.54209], [-97.96713, 16.54174], [-97.96782, 16.54137], [-97.96782, 16.54169]]]}}, {"id": "1555257", "type": "Feature", "properties": {"id": "1555257", "CVEGEO": "2030200050013006", "POBTOT": 0.0, "score_nse": 0.0, "NSE": null, "VIVTOT": 0.0, "GRAPROES": 0.0, "_ent": "20", "_mun": "302", "_loc": "0005"}, "geometry": {"type": "Polygon", "coordinates": [[[-97.96685, 16.54306], [-97.96676, 16.5431], [-97.96634, 16.54299], [-97.96655, 16.54274], [-97.96685, 16.54306]]]}}, {"id": "1555258", "type": "Feature", "properties": {"id": "1555258", "CVEGEO": "2030200050013007", "POBTOT": 0.0, "score_nse": 0.0, "NSE": null, "VIVTOT": 0.0, "GRAPROES": 0.0, "_ent": "20", "_mun": "302", "_loc": "0005"}, "geometry": {"type": "Polygon", "coordinates": [[[-97.96676, 16.54316], [-97.96673, 16.54369], [-97.96654, 16.54395], [-97.96563, 16.54425], [-97.96607, 16.54376], [-97.96607, 16.54327], [-97.96629, 16.54303], [-97.96676, 16.54316]]]}}, {"id": "1555259", "type": "Feature", "properties": {"id": "1555259", "CVEGEO": "2030200050013010", "POBTOT": 0.0, "score_nse": 0.0, "NSE": null, "VIVTOT": 0.0, "GRAPROES": 0.0, "_ent": "20", "_mun": "302", "_loc": "0005"}, "geometry": {"type": "Polygon", "coordinates": [[[-97.96973, 16.53944], [-97.96936, 16.54], [-97.96834, 16.5402], [-97.96877, 16.53983], [-97.96893, 16.53939], [-97.96949, 16.53917], [-97.96973, 16.53944]]]}}, {"id": "1555260", "type": "Feature", "properties": {"id": "1555260", "CVEGEO": "2030200050013002", "POBTOT": 0.0, "score_nse": 0.0, "NSE": null, "VIVTOT": 0.0, "GRAPROES": 0.0, "_ent": "20", "_mun": "302", "_loc": "0005"}, "geometry": {"type": "Polygon", "coordinates": [[[-97.96695, 16.54052], [-97.96654, 16.54113], [-97.96572, 16.54153], [-97.96507, 16.54108], [-97.96552, 16.54054], [-97.96646, 16.54027], [-97.96672, 16.54029], [-97.96695, 16.54052]]]}}, {"id": "1555261", "type": "Feature", "properties": {"id": "1555261", "CVEGEO": "2030200050013009", "POBTOT": 0.0, "score_nse": 0.0, "NSE": null, "VIVTOT": 0.0, "GRAPROES": 0.0, "_ent": "20", "_mun": "302", "_loc": "0005"}, "geometry": {"type": "Polygon", "coordinates": [[[-97.96662, 16.54224], [-97.96647, 16.54273], [-97.96628, 16.54285], [-97.96577, 16.54247], [-97.96547, 16.54185], [-97.96662, 16.54224]]]}}, {"id": "1555263", "type": "Feature", "properties": {"id": "1555263", "CVEGEO": "2030200050013008", "POBTOT": 0.0, "score_nse": 0.0, "NSE": null, "VIVTOT": 0.0, "GRAPROES": 0.0, "_ent": "20", "_mun": "302", "_loc": "0005"}, "geometry": {"type": "Polygon", "coordinates": [[[-97.96684, 16.54157], [-97.96659, 16.5416], [-97.96625, 16.5413], [-97.96674, 16.54107], [-97.96684, 16.54157]]]}}, {"id": "1555264", "type": "Feature", "properties": {"id": "1555264", "CVEGEO": "2030200050013003", "POBTOT": 0.0, "score_nse": 0.0, "NSE": null, "VIVTOT": 0.0, "GRAPROES": 0.0, "_ent": "20", "_mun": "302", "_loc": "0005"}, "geometry": {"type": "Polygon", "coordinates": [[[-97.96741, 16.54066], [-97.96684, 16.54096], [-97.96662, 16.5411], [-97.96702, 16.54059], [-97.96741, 16.54066]]]}}, {"id": "1555265", "type": "Feature", "properties": {"id": "1555265", "CVEGEO": "2030200050013001", "POBTOT": 0.0, "score_nse": 0.0, "NSE": null, "VIVTOT": 0.0, "GRAPROES": 0.0, "_ent": "20", "_mun": "302", "_loc": "0005"}, "geometry": {"type": "Polygon", "coordinates": [[[-97.96816, 16.54036], [-97.96775, 16.54132], [-97.96698, 16.5418], [-97.96686, 16.54214], [-97.9665, 16.5422], [-97.96582, 16.54171], [-97.96582, 16.54153], [-97.96621, 16.54134], [-97.96655, 16.54162], [-97.96686, 16.5416], [-97.96677, 16.54105], [-97.96816, 16.54036]]]}}]}