{"type": "FeatureCollection", "features": [{"id": "1568668", "type": "Feature", "properties": {"id": "1568668", "CVEGEO": "2043900260023006", "POBTOT": 0.0, "score_nse": 0.0, "NSE": null, "VIVTOT": 0.0, "GRAPROES": 0.0, "_ent": "20", "_mun": "439", "_loc": "0026"}, "geometry": {"type": "Polygon", "coordinates": [[[-96.78527, 15.79206], [-96.7835, 15.79373], [-96.78331, 15.79318], [-96.78327, 15.79342], [-96.78346, 15.79376], [-96.78261, 15.79441], [-96.78282, 15.79307], [-96.78259, 15.79246], [-96.78315, 15.79151], [-96.78404, 15.7922], [-96.78355, 15.79239], [-96.78326, 15.79212], [-96.78353, 15.79242], [-96.78363, 15.79241], [-96.7836, 15.79272], [-96.78367, 15.7924], [-96.7839, 15.79227], [-96.78527, 15.79206]]]}}, {"id": "1568669", "type": "Feature", "properties": {"id": "1568669", "CVEGEO": "2043900260023005", "POBTOT": 0.0, "score_nse": 0.0, "NSE": null, "VIVTOT": 0.0, "GRAPROES": 0.0, "_ent": "20", "_mun": "439", "_loc": "0026"}, "geometry": {"type": "Polygon", "coordinates": [[[-96.78959, 15.78862], [-96.78929, 15.78943], [-96.78936, 15.79027], [-96.78872, 15.79008], [-96.78927, 15.78847], [-96.78959, 15.78862]]]}}, {"id": "1568757", "type": "Feature", "properties": {"id": "1568757", "CVEGEO": "2043900260023003", "POBTOT": 0.0, "score_nse": 0.0, "NSE": null, "VIVTOT": 0.0, "GRAPROES": 0.0, "_ent": "20", "_mun": "439", "_loc": "0026"}, "geometry": {"type": "Polygon", "coordinates": [[[-96.78931, 15.79036], [-96.78922, 15.79064], [-96.78853, 15.79068], [-96.78827, 15.79085], [-96.7881, 15.79076], [-96.78841, 15.79018], [-96.78931, 15.79036]]]}}, {"id": "1568781", "type": "Feature", "properties": {"id": "1568781", "CVEGEO": "2043900260023017", "POBTOT": 0.0, "score_nse": 0.0, "NSE": null, "VIVTOT": 0.0, "GRAPROES": 0.0, "_ent": "20", "_mun": "439", "_loc": "0026"}, "geometry": {"type": "Polygon", "coordinates": [[[-96.78905, 15.78918], [-96.78868, 15.79008], [-96.78802, 15.78991], [-96.78749, 15.78924], [-96.78788, 15.78927], [-96.78851, 15.78904], [-96.78905, 15.78918]]]}}, {"id": "1568782", "type": "Feature", "properties": {"id": "1568782", "CVEGEO": "2043900260023002", "POBTOT": 0.0, "score_nse": 0.0, "NSE": null, "VIVTOT": 0.0, "GRAPROES": 0.0, "_ent": "20", "_mun": "439", "_loc": "0026"}, "geometry": {"type": "Polygon", "coordinates": [[[-96.78839, 15.79012], [-96.788, 15.79076], [-96.78776, 15.79045], [-96.78716, 15.79028], [-96.78624, 15.78958], [-96.78687, 15.78918], [-96.78723, 15.7892], [-96.78754, 15.78936], [-96.78799, 15.78996], [-96.78839, 15.79012]]]}}, {"id": "1568823", "type": "Feature", "properties": {"id": "1568823", "CVEGEO": "2043900260023014", "POBTOT": 0.0, "score_nse": 0.0, "NSE": null, "VIVTOT": 0.0, "GRAPROES": 0.0, "_ent": "20", "_mun": "439", "_loc": "0026"}, "geometry": {"type": "Polygon", "coordinates": [[[-96.78366, 15.79151], [-96.78286, 15.79135], [-96.78278, 15.79082], [-96.78304, 15.79074], [-96.78366, 15.79151]]]}}, {"id": "1568824", "type": "Feature", "properties": {"id": "1568824", "CVEGEO": "2043900260023012", "POBTOT": 0.0, "score_nse": 0.0, "NSE": null, "VIVTOT": 0.0, "GRAPROES": 0.0, "_ent": "20", "_mun": "439", "_loc": "0026"}, "geometry": {"type": "Polygon", "coordinates": [[[-96.78474, 15.79204], [-96.78422, 15.79217], [-96.78307, 15.79074], [-96.78315, 15.79007], [-96.78373, 15.78941], [-96.78382, 15.78896], [-96.78426, 15.78916], [-96.78477, 15.78981], [-96.78464, 15.79008], [-96.78477, 15.79073], [-96.78458, 15.79158], [-96.78474, 15.79204]]]}}, {"id": "1568825", "type": "Feature", "properties": {"id": "1568825", "CVEGEO": "2043900260023004", "POBTOT": 0.0, "score_nse": 0.0, "NSE": null, "VIVTOT": 0.0, "GRAPROES": 0.0, "_ent": "20", "_mun": "439", "_loc": "0026"}, "geometry": {"type": "Polygon", "coordinates": [[[-96.78636, 15.79157], [-96.78592, 15.79177], [-96.78542, 15.79198], [-96.78543, 15.79144], [-96.78619, 15.79125], [-96.78636, 15.79157]]]}}, {"id": "1568866", "type": "Feature", "properties": {"id": "1568866", "CVEGEO": "2043900260023021", "POBTOT": 0.0, "score_nse": 0.0, "NSE": null, "VIVTOT": 0.0, "GRAPROES": 0.0, "_ent": "20", "_mun": "439", "_loc": "0026"}, "geometry": {"type": "Polygon", "coordinates": [[[-96.78174, 15.7951], [-96.7812, 15.79542], [-96.78112, 15.79535], [-96.78149, 15.79494], [-96.78174, 15.7951]]]}}, {"id": "1568867", "type": "Feature", "properties": {"id": "1568867", "CVEGEO": "2043900260023020", "POBTOT": 0.0, "score_nse": 0.0, "NSE": null, "VIVTOT": 0.0, "GRAPROES": 0.0, "_ent": "20", "_mun": "439", "_loc": "0026"}, "geometry": {"type": "Polygon", "coordinates": [[[-96.78207, 15.79827], [-96.78223, 15.79785], [-96.78138, 15.7975], [-96.78145, 15.79614], [-96.78126, 15.79545], [-96.78181, 15.7951], [-96.78205, 15.7954], [-96.78198, 15.79633], [-96.78154, 15.79732], [-96.78238, 15.79788], [-96.78207, 15.79827]]]}}, {"id": "1568868", "type": "Feature", "properties": {"id": "1568868", "CVEGEO": "2043900260023019", "POBTOT": 0.0, "score_nse": 0.0, "NSE": null, "VIVTOT": 0.0, "GRAPROES": 0.0, "_ent": "20", "_mun": "439", "_loc": "0026"}, "geometry": {"type": "Polygon", "coordinates": [[[-96.78591, 15.79129], [-96.78543, 15.79142], [-96.78535, 15.79062], [-96.78572, 15.79062], [-96.78591, 15.79129]]]}}, {"id": "1568869", "type": "Feature", "properties": {"id": "1568869", "CVEGEO": "2043900260023008", "POBTOT": 0.0, "score_nse": 0.0, "NSE": null, "VIVTOT": 0.0, "GRAPROES": 0.0, "_ent": "20", "_mun": "439", "_loc": "0026"}, "geometry": {"type": "Polygon", "coordinates": [[[-96.78536, 15.79193], [-96.78476, 15.79202], [-96.78465, 15.79186], [-96.78478, 15.78983], [-96.78521, 15.79044], [-96.78534, 15.79121], [-96.7849, 15.79113], [-96.78535, 15.79125], [-96.78536, 15.79193]]]}}, {"id": "1568870", "type": "Feature", "properties": {"id": "1568870", "CVEGEO": "2043900260023007", "POBTOT": 0.0, "score_nse": 0.0, "NSE": null, "VIVTOT": 0.0, "GRAPROES": 0.0, "_ent": "20", "_mun": "439", "_loc": "0026"}, "geometry": {"type": "Polygon", "coordinates": [[[-96.78416, 15.79217], [-96.7838, 15.79207], [-96.78356, 15.79169], [-96.78311, 15.79141], [-96.78364, 15.79155], [-96.78416, 15.79217]]]}}, {"id": "1569061", "type": "Feature", "properties": {"id": "1569061", "CVEGEO": "2043900260023011", "POBTOT": 0.0, "score_nse": 0.0, "NSE": null, "VIVTOT": 0.0, "GRAPROES": 0.0, "_ent": "20", "_mun": "439", "_loc": "0026"}, "geometry": {"type": "Polygon", "coordinates": [[[-96.78573, 15.78975], [-96.78564, 15.79055], [-96.78532, 15.79059], [-96.78431, 15.78914], [-96.78573, 15.78975]]]}}, {"id": "1569121", "type": "Feature", "properties": {"id": "1569121", "CVEGEO": "2043900260023001", "POBTOT": 0.0, "score_nse": 0.0, "NSE": null, "VIVTOT": 0.0, "GRAPROES": 0.0, "_ent": "20", "_mun": "439", "_loc": "0026"}, "geometry": {"type": "Polygon", "coordinates": [[[-96.78795, 15.7908], [-96.78711, 15.79123], [-96.78687, 15.79102], [-96.78708, 15.79126], [-96.78643, 15.79155], [-96.78636, 15.79129], [-96.78652, 15.79091], [-96.78647, 15.79065], [-96.78636, 15.79056], [-96.78647, 15.79087], [-96.78631, 15.79125], [-96.78593, 15.79128], [-96.78593, 15.7909], [-96.7857, 15.7905], [-96.78575, 15.78986], [-96.78615, 15.7901], [-96.78582, 15.78976], [-96.78625, 15.78963], [-96.78706, 15.79026], [-96.78773, 15.79051], [-96.78795, 15.7908]]]}}, {"id": "1569213", "type": "Feature", "properties": {"id": "1569213", "CVEGEO": "2043900260023009", "POBTOT": 0.0, "score_nse": 0.0, "NSE": null, "VIVTOT": 0.0, "GRAPROES": 0.0, "_ent": "20", "_mun": "439", "_loc": "0026"}, "geometry": {"type": "Polygon", "coordinates": [[[-96.78302, 15.79071], [-96.78275, 15.79082], [-96.78278, 15.79139], [-96.78258, 15.79158], [-96.78289, 15.79139], [-96.78312, 15.79154], [-96.78257, 15.79239], [-96.78279, 15.79305], [-96.78256, 15.79443], [-96.78185, 15.79449], [-96.78155, 15.79471], [-96.78077, 15.79336], [-96.78079, 15.79302], [-96.781, 15.79277], [-96.78187, 15.79255], [-96.7817, 15.79175], [-96.78227, 15.79109], [-96.78219, 15.78997], [-96.78285, 15.78993], [-96.78302, 15.79071]]]}}, {"id": "1569214", "type": "Feature", "properties": {"id": "1569214", "CVEGEO": "2043900260023018", "POBTOT": 0.0, "score_nse": 0.0, "NSE": null, "VIVTOT": 0.0, "GRAPROES": 0.0, "_ent": "20", "_mun": "439", "_loc": "0026"}, "geometry": {"type": "Polygon", "coordinates": [[[-96.78996, 15.79021], [-96.78984, 15.79043], [-96.78949, 15.79028], [-96.78942, 15.78944], [-96.78969, 15.78877], [-96.78995, 15.78925], [-96.78975, 15.78942], [-96.78959, 15.79004], [-96.78996, 15.79021]]]}}, {"id": "1569215", "type": "Feature", "properties": {"id": "1569215", "CVEGEO": "2043900260023023", "POBTOT": 0.0, "score_nse": 0.0, "NSE": null, "VIVTOT": 0.0, "GRAPROES": 0.0, "_ent": "20", "_mun": "439", "_loc": "0026"}, "geometry": {"type": "Polygon", "coordinates": [[[-96.79, 15.79015], [-96.78968, 15.79009], [-96.78963, 15.78993], [-96.78997, 15.7893], [-96.79011, 15.7899], [-96.79, 15.79015]]]}}, {"id": "1569224", "type": "Feature", "properties": {"id": "1569224", "CVEGEO": "2043900260023024", "POBTOT": 0.0, "score_nse": 0.0, "NSE": null, "VIVTOT": 0.0, "GRAPROES": 0.0, "_ent": "20", "_mun": "439", "_loc": "0026"}, "geometry": {"type": "Polygon", "coordinates": [[[-96.79181, 15.79099], [-96.78989, 15.79044], [-96.79014, 15.79001], [-96.79061, 15.78994], [-96.79192, 15.79042], [-96.79181, 15.79099]]]}}, {"id": "1569225", "type": "Feature", "properties": {"id": "1569225", "CVEGEO": "2043900260023025", "POBTOT": 0.0, "score_nse": 0.0, "NSE": null, "VIVTOT": 0.0, "GRAPROES": 0.0, "_ent": "20", "_mun": "439", "_loc": "0026"}, "geometry": {"type": "Polygon", "coordinates": [[[-96.78658, 15.79156], [-96.78698, 15.79138], [-96.78741, 15.79201], [-96.78698, 15.79217], [-96.78658, 15.79156]]]}}]}