{"type": "FeatureCollection", "features": [{"id": "1569063", "type": "Feature", "properties": {"id": "1569063", "CVEGEO": "2043900920023010", "POBTOT": 0.0, "score_nse": 0.0, "NSE": null, "VIVTOT": 0.0, "GRAPROES": 0.0, "_ent": "20", "_mun": "439", "_loc": "0092"}, "geometry": {"type": "Polygon", "coordinates": [[[-96.82237, 15.75484], [-96.82201, 15.75549], [-96.82151, 15.75524], [-96.82185, 15.75459], [-96.82237, 15.75484]]]}}, {"id": "1569064", "type": "Feature", "properties": {"id": "1569064", "CVEGEO": "2043900920023009", "POBTOT": 0.0, "score_nse": 0.0, "NSE": null, "VIVTOT": 0.0, "GRAPROES": 0.0, "_ent": "20", "_mun": "439", "_loc": "0092"}, "geometry": {"type": "Polygon", "coordinates": [[[-96.82113, 15.75579], [-96.82143, 15.7553], [-96.82192, 15.75554], [-96.82147, 15.75608], [-96.82113, 15.75579]]]}}, {"id": "1569065", "type": "Feature", "properties": {"id": "1569065", "CVEGEO": "2043900920023008", "POBTOT": 0.0, "score_nse": 0.0, "NSE": null, "VIVTOT": 0.0, "GRAPROES": 0.0, "_ent": "20", "_mun": "439", "_loc": "0092"}, "geometry": {"type": "Polygon", "coordinates": [[[-96.82285, 15.75736], [-96.82154, 15.75611], [-96.822, 15.75555], [-96.82334, 15.75676], [-96.82285, 15.75736]]]}}, {"id": "1569066", "type": "Feature", "properties": {"id": "1569066", "CVEGEO": "2043900920023015", "POBTOT": 0.0, "score_nse": 0.0, "NSE": null, "VIVTOT": 0.0, "GRAPROES": 0.0, "_ent": "20", "_mun": "439", "_loc": "0092"}, "geometry": {"type": "Polygon", "coordinates": [[[-96.82287, 15.75742], [-96.82336, 15.75681], [-96.82362, 15.75704], [-96.82316, 15.75769], [-96.82287, 15.75742]]]}}, {"id": "1569067", "type": "Feature", "properties": {"id": "1569067", "CVEGEO": "2043900920023017", "POBTOT": 0.0, "score_nse": 0.0, "NSE": null, "VIVTOT": 0.0, "GRAPROES": 0.0, "_ent": "20", "_mun": "439", "_loc": "0092"}, "geometry": {"type": "Polygon", "coordinates": [[[-96.82316, 15.75773], [-96.82363, 15.75707], [-96.82392, 15.75739], [-96.82355, 15.758], [-96.82316, 15.75773]]]}}, {"id": "1569068", "type": "Feature", "properties": {"id": "1569068", "CVEGEO": "2043900920023020", "POBTOT": 0.0, "score_nse": 0.0, "NSE": null, "VIVTOT": 0.0, "GRAPROES": 0.0, "_ent": "20", "_mun": "439", "_loc": "0092"}, "geometry": {"type": "Polygon", "coordinates": [[[-96.82398, 15.75742], [-96.82424, 15.75771], [-96.82388, 15.75823], [-96.82362, 15.75806], [-96.82398, 15.75742]]]}}, {"id": "1569069", "type": "Feature", "properties": {"id": "1569069", "CVEGEO": "2043900920023024", "POBTOT": 0.0, "score_nse": 0.0, "NSE": null, "VIVTOT": 0.0, "GRAPROES": 0.0, "_ent": "20", "_mun": "439", "_loc": "0092"}, "geometry": {"type": "Polygon", "coordinates": [[[-96.82459, 15.75506], [-96.8248, 15.75517], [-96.82431, 15.75575], [-96.82417, 15.75566], [-96.82459, 15.75506]]]}}, {"id": "1569156", "type": "Feature", "properties": {"id": "1569156", "CVEGEO": "2043900920023012", "POBTOT": 0.0, "score_nse": 0.0, "NSE": null, "VIVTOT": 0.0, "GRAPROES": 0.0, "_ent": "20", "_mun": "439", "_loc": "0092"}, "geometry": {"type": "Polygon", "coordinates": [[[-96.82317, 15.75326], [-96.82276, 15.75405], [-96.82226, 15.75381], [-96.82254, 15.7535], [-96.82317, 15.75326]]]}}, {"id": "1569157", "type": "Feature", "properties": {"id": "1569157", "CVEGEO": "2043900920023011", "POBTOT": 0.0, "score_nse": 0.0, "NSE": null, "VIVTOT": 0.0, "GRAPROES": 0.0, "_ent": "20", "_mun": "439", "_loc": "0092"}, "geometry": {"type": "Polygon", "coordinates": [[[-96.82186, 15.75457], [-96.82224, 15.75385], [-96.82274, 15.75409], [-96.82239, 15.75481], [-96.82186, 15.75457]]]}}, {"id": "1569158", "type": "Feature", "properties": {"id": "1569158", "CVEGEO": "2043900920023001", "POBTOT": 0.0, "score_nse": 0.0, "NSE": null, "VIVTOT": 0.0, "GRAPROES": 0.0, "_ent": "20", "_mun": "439", "_loc": "0092"}, "geometry": {"type": "Polygon", "coordinates": [[[-96.82241, 15.75578], [-96.82279, 15.75506], [-96.82314, 15.75523], [-96.8227, 15.75599], [-96.82241, 15.75578]]]}}, {"id": "1569159", "type": "Feature", "properties": {"id": "1569159", "CVEGEO": "2043900920023002", "POBTOT": 0.0, "score_nse": 0.0, "NSE": null, "VIVTOT": 0.0, "GRAPROES": 0.0, "_ent": "20", "_mun": "439", "_loc": "0092"}, "geometry": {"type": "Polygon", "coordinates": [[[-96.82205, 15.75555], [-96.82241, 15.75489], [-96.82275, 15.75502], [-96.82239, 15.75573], [-96.82205, 15.75555]]]}}, {"id": "1569160", "type": "Feature", "properties": {"id": "1569160", "CVEGEO": "2043900920023016", "POBTOT": 0.0, "score_nse": 0.0, "NSE": null, "VIVTOT": 0.0, "GRAPROES": 0.0, "_ent": "20", "_mun": "439", "_loc": "0092"}, "geometry": {"type": "Polygon", "coordinates": [[[-96.82432, 15.75695], [-96.82449, 15.75568], [-96.82536, 15.75449], [-96.82625, 15.75648], [-96.82524, 15.75721], [-96.82454, 15.75734], [-96.82429, 15.75769], [-96.82402, 15.7574], [-96.82432, 15.75695]]]}}, {"id": "1569161", "type": "Feature", "properties": {"id": "1569161", "CVEGEO": "2043900920023005", "POBTOT": 0.0, "score_nse": 0.0, "NSE": null, "VIVTOT": 0.0, "GRAPROES": 0.0, "_ent": "20", "_mun": "439", "_loc": "0092"}, "geometry": {"type": "Polygon", "coordinates": [[[-96.82398, 15.75473], [-96.82431, 15.75489], [-96.82425, 15.75512], [-96.82435, 15.75491], [-96.82455, 15.75503], [-96.82414, 15.75564], [-96.82364, 15.75538], [-96.82398, 15.75473]]]}}, {"id": "1569162", "type": "Feature", "properties": {"id": "1569162", "CVEGEO": "2043900920023006", "POBTOT": 0.0, "score_nse": 0.0, "NSE": null, "VIVTOT": 0.0, "GRAPROES": 0.0, "_ent": "20", "_mun": "439", "_loc": "0092"}, "geometry": {"type": "Polygon", "coordinates": [[[-96.82294, 15.75569], [-96.82318, 15.75524], [-96.82354, 15.75543], [-96.82345, 15.75577], [-96.82364, 15.75548], [-96.82409, 15.75568], [-96.82362, 15.75636], [-96.82294, 15.75569]]]}}, {"id": "1569163", "type": "Feature", "properties": {"id": "1569163", "CVEGEO": "2043900920023007", "POBTOT": 0.0, "score_nse": 0.0, "NSE": null, "VIVTOT": 0.0, "GRAPROES": 0.0, "_ent": "20", "_mun": "439", "_loc": "0092"}, "geometry": {"type": "Polygon", "coordinates": [[[-96.82272, 15.75603], [-96.82292, 15.75576], [-96.82358, 15.75642], [-96.82337, 15.75671], [-96.82272, 15.75603]]]}}, {"id": "1569164", "type": "Feature", "properties": {"id": "1569164", "CVEGEO": "2043900920023027", "POBTOT": 0.0, "score_nse": 0.0, "NSE": null, "VIVTOT": 0.0, "GRAPROES": 0.0, "_ent": "20", "_mun": "439", "_loc": "0092"}, "geometry": {"type": "Polygon", "coordinates": [[[-96.82644, 15.75134], [-96.82608, 15.75147], [-96.82586, 15.75151], [-96.82615, 15.75115], [-96.82644, 15.75134]]]}}, {"id": "1569165", "type": "Feature", "properties": {"id": "1569165", "CVEGEO": "2043900920023019", "POBTOT": 0.0, "score_nse": 0.0, "NSE": null, "VIVTOT": 0.0, "GRAPROES": 0.0, "_ent": "20", "_mun": "439", "_loc": "0092"}, "geometry": {"type": "Polygon", "coordinates": [[[-96.8237, 15.75704], [-96.82421, 15.75631], [-96.82441, 15.75609], [-96.82436, 15.75676], [-96.82399, 15.75736], [-96.8237, 15.75704]]]}}, {"id": "1569166", "type": "Feature", "properties": {"id": "1569166", "CVEGEO": "2043900920023014", "POBTOT": 0.0, "score_nse": 0.0, "NSE": null, "VIVTOT": 0.0, "GRAPROES": 0.0, "_ent": "20", "_mun": "439", "_loc": "0092"}, "geometry": {"type": "Polygon", "coordinates": [[[-96.8234, 15.75678], [-96.82413, 15.75575], [-96.82441, 15.75585], [-96.82365, 15.75702], [-96.8234, 15.75678]]]}}, {"id": "1569167", "type": "Feature", "properties": {"id": "1569167", "CVEGEO": "2043900920023003", "POBTOT": 0.0, "score_nse": 0.0, "NSE": null, "VIVTOT": 0.0, "GRAPROES": 0.0, "_ent": "20", "_mun": "439", "_loc": "0092"}, "geometry": {"type": "Polygon", "coordinates": [[[-96.82358, 15.75451], [-96.82315, 15.75518], [-96.82279, 15.755], [-96.82311, 15.7543], [-96.82275, 15.75498], [-96.82241, 15.75484], [-96.82322, 15.75325], [-96.82464, 15.75262], [-96.82448, 15.75303], [-96.82469, 15.75327], [-96.82359, 15.75536], [-96.8232, 15.7552], [-96.82358, 15.75451]]]}}, {"id": "1569168", "type": "Feature", "properties": {"id": "1569168", "CVEGEO": "2043900920023026", "POBTOT": 0.0, "score_nse": 0.0, "NSE": null, "VIVTOT": 0.0, "GRAPROES": 0.0, "_ent": "20", "_mun": "439", "_loc": "0092"}, "geometry": {"type": "Polygon", "coordinates": [[[-96.82029, 15.75491], [-96.82038, 15.75477], [-96.8214, 15.75526], [-96.82111, 15.75575], [-96.82029, 15.75491]]]}}, {"id": "1569169", "type": "Feature", "properties": {"id": "1569169", "CVEGEO": "2043900920023025", "POBTOT": 0.0, "score_nse": 0.0, "NSE": null, "VIVTOT": 0.0, "GRAPROES": 0.0, "_ent": "20", "_mun": "439", "_loc": "0092"}, "geometry": {"type": "Polygon", "coordinates": [[[-96.82043, 15.75472], [-96.82084, 15.75413], [-96.82177, 15.75455], [-96.82143, 15.7552], [-96.82043, 15.75472]]]}}, {"id": "1569170", "type": "Feature", "properties": {"id": "1569170", "CVEGEO": "2043900920023029", "POBTOT": 0.0, "score_nse": 0.0, "NSE": null, "VIVTOT": 0.0, "GRAPROES": 0.0, "_ent": "20", "_mun": "439", "_loc": "0092"}, "geometry": {"type": "Polygon", "coordinates": [[[-96.82498, 15.75363], [-96.82512, 15.75405], [-96.82528, 15.75442], [-96.8247, 15.75413], [-96.82498, 15.75363]]]}}, {"id": "1569171", "type": "Feature", "properties": {"id": "1569171", "CVEGEO": "2043900920023021", "POBTOT": 0.0, "score_nse": 0.0, "NSE": null, "VIVTOT": 0.0, "GRAPROES": 0.0, "_ent": "20", "_mun": "439", "_loc": "0092"}, "geometry": {"type": "Polygon", "coordinates": [[[-96.82466, 15.75418], [-96.82525, 15.75451], [-96.82482, 15.75511], [-96.82434, 15.75483], [-96.82466, 15.75418]]]}}, {"id": "1569172", "type": "Feature", "properties": {"id": "1569172", "CVEGEO": "2043900920023028", "POBTOT": 0.0, "score_nse": 0.0, "NSE": null, "VIVTOT": 0.0, "GRAPROES": 0.0, "_ent": "20", "_mun": "439", "_loc": "0092"}, "geometry": {"type": "Polygon", "coordinates": [[[-96.82435, 15.75401], [-96.8246, 15.75415], [-96.8243, 15.75481], [-96.82402, 15.75465], [-96.82435, 15.75401]]]}}, {"id": "1569173", "type": "Feature", "properties": {"id": "1569173", "CVEGEO": "2043900920023030", "POBTOT": 0.0, "score_nse": 0.0, "NSE": null, "VIVTOT": 0.0, "GRAPROES": 0.0, "_ent": "20", "_mun": "439", "_loc": "0092"}, "geometry": {"type": "Polygon", "coordinates": [[[-96.82624, 15.75151], [-96.82468, 15.75313], [-96.82453, 15.75302], [-96.82471, 15.75259], [-96.82581, 15.7516], [-96.82624, 15.75151]]]}}, {"id": "1569174", "type": "Feature", "properties": {"id": "1569174", "CVEGEO": "2043900920023023", "POBTOT": 0.0, "score_nse": 0.0, "NSE": null, "VIVTOT": 0.0, "GRAPROES": 0.0, "_ent": "20", "_mun": "439", "_loc": "0092"}, "geometry": {"type": "Polygon", "coordinates": [[[-96.82474, 15.75331], [-96.82496, 15.75358], [-96.82466, 15.75412], [-96.82437, 15.75397], [-96.82474, 15.75331]]]}}, {"id": "1569175", "type": "Feature", "properties": {"id": "1569175", "CVEGEO": "2043900920023031", "POBTOT": 0.0, "score_nse": 0.0, "NSE": null, "VIVTOT": 0.0, "GRAPROES": 0.0, "_ent": "20", "_mun": "439", "_loc": "0092"}, "geometry": {"type": "Polygon", "coordinates": [[[-96.82144, 15.75437], [-96.82182, 15.75366], [-96.82216, 15.75382], [-96.8218, 15.75451], [-96.82144, 15.75437]]]}}, {"id": "1569181", "type": "Feature", "properties": {"id": "1569181", "CVEGEO": "2043900920023032", "POBTOT": 0.0, "score_nse": 0.0, "NSE": null, "VIVTOT": 0.0, "GRAPROES": 0.0, "_ent": "20", "_mun": "439", "_loc": "0092"}, "geometry": {"type": "Polygon", "coordinates": [[[-96.8219, 15.75695], [-96.82087, 15.75802], [-96.81985, 15.757], [-96.82098, 15.75609], [-96.8219, 15.75695]]]}}, {"id": "1569182", "type": "Feature", "properties": {"id": "1569182", "CVEGEO": "2043900920023033", "POBTOT": 0.0, "score_nse": 0.0, "NSE": null, "VIVTOT": 0.0, "GRAPROES": 0.0, "_ent": "20", "_mun": "439", "_loc": "0092"}, "geometry": {"type": "Polygon", "coordinates": [[[-96.8195, 15.75727], [-96.8198, 15.75702], [-96.82082, 15.75807], [-96.82057, 15.75835], [-96.8195, 15.75727]]]}}, {"id": "1569211", "type": "Feature", "properties": {"id": "1569211", "CVEGEO": "2043900920023035", "POBTOT": 0.0, "score_nse": 0.0, "NSE": null, "VIVTOT": 0.0, "GRAPROES": 0.0, "_ent": "20", "_mun": "439", "_loc": "0092"}, "geometry": {"type": "Polygon", "coordinates": [[[-96.82072, 15.75903], [-96.82033, 15.75871], [-96.82094, 15.75805], [-96.82134, 15.75839], [-96.82072, 15.75903]]]}}, {"id": "1569212", "type": "Feature", "properties": {"id": "1569212", "CVEGEO": "2043900920023034", "POBTOT": 0.0, "score_nse": 0.0, "NSE": null, "VIVTOT": 0.0, "GRAPROES": 0.0, "_ent": "20", "_mun": "439", "_loc": "0092"}, "geometry": {"type": "Polygon", "coordinates": [[[-96.822, 15.75693], [-96.82233, 15.75728], [-96.82139, 15.75834], [-96.82093, 15.75799], [-96.822, 15.75693]]]}}]}