{"type": "FeatureCollection", "features": [{"id": "815799", "type": "Feature", "properties": {"id": "815799", "CVEGEO": "1207700060085006", "POBTOT": 0.0, "score_nse": 0.0, "NSE": null, "VIVTOT": 0.0, "GRAPROES": 0.0, "_ent": "12", "_mun": "077", "_loc": "0006"}, "geometry": {"type": "Polygon", "coordinates": [[[-98.76025, 16.66764], [-98.75987, 16.66896], [-98.75941, 16.66878], [-98.75949, 16.66832], [-98.75997, 16.66756], [-98.76025, 16.66764]]]}}, {"id": "815861", "type": "Feature", "properties": {"id": "815861", "CVEGEO": "1207700060085019", "POBTOT": 0.0, "score_nse": 0.0, "NSE": null, "VIVTOT": 0.0, "GRAPROES": 0.0, "_ent": "12", "_mun": "077", "_loc": "0006"}, "geometry": {"type": "Polygon", "coordinates": [[[-98.76219, 16.66681], [-98.76256, 16.66746], [-98.7623, 16.66792], [-98.76191, 16.6682], [-98.7615, 16.66789], [-98.76109, 16.66724], [-98.76219, 16.66681]]]}}, {"id": "815862", "type": "Feature", "properties": {"id": "815862", "CVEGEO": "1207700060085017", "POBTOT": 0.0, "score_nse": 0.0, "NSE": null, "VIVTOT": 0.0, "GRAPROES": 0.0, "_ent": "12", "_mun": "077", "_loc": "0006"}, "geometry": {"type": "Polygon", "coordinates": [[[-98.76041, 16.66766], [-98.76175, 16.66811], [-98.76154, 16.66827], [-98.76073, 16.66819], [-98.76041, 16.66766]]]}}, {"id": "815863", "type": "Feature", "properties": {"id": "815863", "CVEGEO": "1207700060085016", "POBTOT": 0.0, "score_nse": 0.0, "NSE": null, "VIVTOT": 0.0, "GRAPROES": 0.0, "_ent": "12", "_mun": "077", "_loc": "0006"}, "geometry": {"type": "Polygon", "coordinates": [[[-98.76217, 16.66674], [-98.76178, 16.6669], [-98.76169, 16.6667], [-98.76172, 16.66692], [-98.76131, 16.66708], [-98.7612, 16.6664], [-98.76197, 16.66624], [-98.76217, 16.66674]]]}}, {"id": "815921", "type": "Feature", "properties": {"id": "815921", "CVEGEO": "1207700060085014", "POBTOT": 0.0, "score_nse": 0.0, "NSE": null, "VIVTOT": 0.0, "GRAPROES": 0.0, "_ent": "12", "_mun": "077", "_loc": "0006"}, "geometry": {"type": "Polygon", "coordinates": [[[-98.76029, 16.66764], [-98.76066, 16.66836], [-98.76047, 16.66902], [-98.75992, 16.66898], [-98.76029, 16.66764]]]}}, {"id": "815922", "type": "Feature", "properties": {"id": "815922", "CVEGEO": "1207700060085013", "POBTOT": 0.0, "score_nse": 0.0, "NSE": null, "VIVTOT": 0.0, "GRAPROES": 0.0, "_ent": "12", "_mun": "077", "_loc": "0006"}, "geometry": {"type": "Polygon", "coordinates": [[[-98.76131, 16.66771], [-98.76043, 16.66755], [-98.76058, 16.66698], [-98.76089, 16.66713], [-98.76131, 16.66771]]]}}, {"id": "815923", "type": "Feature", "properties": {"id": "815923", "CVEGEO": "1207700060085012", "POBTOT": 0.0, "score_nse": 0.0, "NSE": null, "VIVTOT": 0.0, "GRAPROES": 0.0, "_ent": "12", "_mun": "077", "_loc": "0006"}, "geometry": {"type": "Polygon", "coordinates": [[[-98.76125, 16.6671], [-98.76102, 16.66716], [-98.76052, 16.66688], [-98.76117, 16.66641], [-98.76125, 16.6671]]]}}, {"id": "815924", "type": "Feature", "properties": {"id": "815924", "CVEGEO": "1207700060085011", "POBTOT": 0.0, "score_nse": 0.0, "NSE": null, "VIVTOT": 0.0, "GRAPROES": 0.0, "_ent": "12", "_mun": "077", "_loc": "0006"}, "geometry": {"type": "Polygon", "coordinates": [[[-98.76108, 16.66619], [-98.76039, 16.66681], [-98.75945, 16.66632], [-98.75948, 16.66618], [-98.75987, 16.66607], [-98.76012, 16.6661], [-98.76017, 16.66625], [-98.76019, 16.66609], [-98.76093, 16.66596], [-98.76108, 16.66619]]]}}, {"id": "815925", "type": "Feature", "properties": {"id": "815925", "CVEGEO": "1207700060085010", "POBTOT": 0.0, "score_nse": 0.0, "NSE": null, "VIVTOT": 0.0, "GRAPROES": 0.0, "_ent": "12", "_mun": "077", "_loc": "0006"}, "geometry": {"type": "Polygon", "coordinates": [[[-98.75867, 16.66625], [-98.75868, 16.66604], [-98.75921, 16.66599], [-98.75923, 16.66615], [-98.75867, 16.66625]]]}}, {"id": "816000", "type": "Feature", "properties": {"id": "816000", "CVEGEO": "1207700060085009", "POBTOT": 0.0, "score_nse": 0.0, "NSE": null, "VIVTOT": 0.0, "GRAPROES": 0.0, "_ent": "12", "_mun": "077", "_loc": "0006"}, "geometry": {"type": "Polygon", "coordinates": [[[-98.75794, 16.66701], [-98.75872, 16.66725], [-98.75869, 16.6685], [-98.75723, 16.66739], [-98.75794, 16.66701]]]}}, {"id": "816001", "type": "Feature", "properties": {"id": "816001", "CVEGEO": "1207700060085008", "POBTOT": 0.0, "score_nse": 0.0, "NSE": null, "VIVTOT": 0.0, "GRAPROES": 0.0, "_ent": "12", "_mun": "077", "_loc": "0006"}, "geometry": {"type": "Polygon", "coordinates": [[[-98.75927, 16.66826], [-98.75879, 16.66835], [-98.75878, 16.66726], [-98.75935, 16.66741], [-98.75927, 16.66826]]]}}, {"id": "816017", "type": "Feature", "properties": {"id": "816017", "CVEGEO": "1207700060085004", "POBTOT": 0.0, "score_nse": 0.0, "NSE": null, "VIVTOT": 0.0, "GRAPROES": 0.0, "_ent": "12", "_mun": "077", "_loc": "0006"}, "geometry": {"type": "Polygon", "coordinates": [[[-98.76035, 16.66685], [-98.76007, 16.66707], [-98.75942, 16.66689], [-98.75944, 16.6664], [-98.76035, 16.66685]]]}}, {"id": "816018", "type": "Feature", "properties": {"id": "816018", "CVEGEO": "1207700060085001", "POBTOT": 0.0, "score_nse": 0.0, "NSE": null, "VIVTOT": 0.0, "GRAPROES": 0.0, "_ent": "12", "_mun": "077", "_loc": "0006"}, "geometry": {"type": "Polygon", "coordinates": [[[-98.76, 16.66712], [-98.75986, 16.66741], [-98.75941, 16.66733], [-98.75942, 16.66694], [-98.76, 16.66712]]]}}, {"id": "816051", "type": "Feature", "properties": {"id": "816051", "CVEGEO": "1207700060085007", "POBTOT": 0.0, "score_nse": 0.0, "NSE": null, "VIVTOT": 0.0, "GRAPROES": 0.0, "_ent": "12", "_mun": "077", "_loc": "0006"}, "geometry": {"type": "Polygon", "coordinates": [[[-98.75983, 16.66754], [-98.75932, 16.66825], [-98.7594, 16.66744], [-98.75983, 16.66754]]]}}, {"id": "816105", "type": "Feature", "properties": {"id": "816105", "CVEGEO": "1207700060085005", "POBTOT": 0.0, "score_nse": 0.0, "NSE": null, "VIVTOT": 0.0, "GRAPROES": 0.0, "_ent": "12", "_mun": "077", "_loc": "0006"}, "geometry": {"type": "Polygon", "coordinates": [[[-98.76047, 16.66705], [-98.76037, 16.66755], [-98.75998, 16.66744], [-98.76021, 16.66706], [-98.76047, 16.66705]]]}}, {"id": "816223", "type": "Feature", "properties": {"id": "816223", "CVEGEO": "1207700060085002", "POBTOT": 0.0, "score_nse": 0.0, "NSE": null, "VIVTOT": 0.0, "GRAPROES": 0.0, "_ent": "12", "_mun": "077", "_loc": "0006"}, "geometry": {"type": "Polygon", "coordinates": [[[-98.75805, 16.66698], [-98.75799, 16.66645], [-98.7586, 16.66634], [-98.75854, 16.66712], [-98.75805, 16.66698]]]}}, {"id": "816224", "type": "Feature", "properties": {"id": "816224", "CVEGEO": "1207700060085003", "POBTOT": 0.0, "score_nse": 0.0, "NSE": null, "VIVTOT": 0.0, "GRAPROES": 0.0, "_ent": "12", "_mun": "077", "_loc": "0006"}, "geometry": {"type": "Polygon", "coordinates": [[[-98.75868, 16.66632], [-98.75939, 16.66619], [-98.75936, 16.6668], [-98.75903, 16.66686], [-98.75935, 16.66685], [-98.75934, 16.66731], [-98.75862, 16.66714], [-98.75868, 16.66632]]]}}, {"id": "816225", "type": "Feature", "properties": {"id": "816225", "CVEGEO": "1207700060085018", "POBTOT": 0.0, "score_nse": 0.0, "NSE": null, "VIVTOT": 0.0, "GRAPROES": 0.0, "_ent": "12", "_mun": "077", "_loc": "0006"}, "geometry": {"type": "Polygon", "coordinates": [[[-98.76373, 16.66645], [-98.76257, 16.66656], [-98.76255, 16.66599], [-98.7629, 16.66577], [-98.76375, 16.66571], [-98.76373, 16.66645]]]}}, {"id": "816226", "type": "Feature", "properties": {"id": "816226", "CVEGEO": "1207700060085020", "POBTOT": 0.0, "score_nse": 0.0, "NSE": null, "VIVTOT": 0.0, "GRAPROES": 0.0, "_ent": "12", "_mun": "077", "_loc": "0006"}, "geometry": {"type": "Polygon", "coordinates": [[[-98.7625, 16.66661], [-98.76225, 16.66672], [-98.76206, 16.66622], [-98.76246, 16.66613], [-98.7625, 16.66661]]]}}, {"id": "816255", "type": "Feature", "properties": {"id": "816255", "CVEGEO": "1207700060085015", "POBTOT": 0.0, "score_nse": 0.0, "NSE": null, "VIVTOT": 0.0, "GRAPROES": 0.0, "_ent": "12", "_mun": "077", "_loc": "0006"}, "geometry": {"type": "Polygon", "coordinates": [[[-98.75999, 16.66591], [-98.75935, 16.66612], [-98.75933, 16.66593], [-98.75915, 16.66595], [-98.75895, 16.66569], [-98.75907, 16.66596], [-98.7587, 16.66599], [-98.75862, 16.6658], [-98.7586, 16.66626], [-98.75731, 16.66649], [-98.75719, 16.66593], [-98.75846, 16.66526], [-98.75903, 16.66547], [-98.7597, 16.66537], [-98.75999, 16.66591]]]}}]}